{"type":"FeatureCollection","features":[{"type":"Feature","properties":{"cod_imovel":"RJ-3300159-B176BCADDA424BE0B8115CC56129C978","num_area":"6.9208000000000000000000000000000","ind_status":"PE","des_condic":"Analisado, aguardando atendimento a notificacao"},"geometry":{"type":"Polygon","coordinates":[[[-42.1512,-21.6479],[-42.1497,-21.651],[-42.1514,-21.648],[-42.1512,-21.6479]]]}},{"type":"Feature","properties":{"cod_imovel":"RJ-3304706-4206C04CB1F14CB09DDFE03CA2DB11D8","num_area":"9.4512000000000000000000000000000","ind_status":"AT","des_condic":"Aguardando analise"},"geometry":{"type":"Polygon","coordinates":[[[-42.1889,-21.6756],[-42.1851,-21.6807],[-42.188,-21.6824],[-42.1888,-21.6763],[-42.1889,-21.6756]]]}},{"type":"Feature","properties":{"cod_imovel":"RJ-3300159-A65D6C94B10E4A1A9B6B2AD25C9168F6","num_area":"8.4098000000000000000000000000000","ind_status":"AT","des_condic":"Aguardando analise"},"geometry":{"type":"Polygon","coordinates":[[[-42.0882,-21.6587],[-42.0884,-21.6549],[-42.0878,-21.658],[-42.0882,-21.6587]]]}},{"type":"Feature","properties":{"cod_imovel":"RJ-3300159-9DBE0C2495014783AB0D02EA39F59466","num_area":"5.2200000000000000000000000000000","ind_status":"PE","des_condic":"Analisado, aguardando atendimento a notificacao"},"geometry":{"type":"Polygon","coordinates":[[[-42.1231,-21.6734],[-42.127,-21.6728],[-42.123,-21.6733],[-42.1231,-21.6734]]]}},{"type":"Feature","properties":{"cod_imovel":"RJ-3300159-71BB9D866F5A4F42A20559921F206C14","num_area":"21.748300000000000000000000000000","ind_status":"AT","des_condic":"Aguardando analise"},"geometry":{"type":"Polygon","coordinates":[[[-42.1258,-21.6281],[-42.1259,-21.6346],[-42.1259,-21.628],[-42.1258,-21.6281]]]}},{"type":"Feature","properties":{"cod_imovel":"RJ-3300159-A8ED55B85B9E4E7CA62A62E8356C19FC","num_area":"5.4643000000000000000000000000000","ind_status":"AT","des_condic":"Aguardando analise"},"geometry":{"type":"Polygon","coordinates":[[[-42.1628,-21.6338],[-42.1593,-21.6317],[-42.1626,-21.6337],[-42.1628,-21.6338]]]}},{"type":"Feature","properties":{"cod_imovel":"RJ-3300159-D526046435264B2EB90B37CD8E8F73A0","num_area":"51.829700000000000000000000000000","ind_status":"AT","des_condic":"Aguardando analise"},"geometry":{"type":"Polygon","coordinates":[[[-42.1655,-21.633],[-42.1649,-21.6366],[-42.1556,-21.6343],[-42.1642,-21.6399],[-42.1691,-21.6316],[-42.1631,-21.6294],[-42.1656,-21.6329],[-42.1655,-21.633]]]}},{"type":"Feature","properties":{"cod_imovel":"RJ-3300159-7EB35229B83B4820B278C697BDDB4C8F","num_area":"23.099100000000000000000000000000","ind_status":"PE","des_condic":"Aguardando analise, apos revisao ou atendimento da notificacao"},"geometry":{"type":"Polygon","coordinates":[[[-42.0873,-21.6309],[-42.0816,-21.6349],[-42.0861,-21.6398],[-42.0871,-21.6312],[-42.0873,-21.6309]]]}},{"type":"Feature","properties":{"cod_imovel":"RJ-3300159-328F5F59F9C14968B60313E77B227039","num_area":"44.177100000000000000000000000000","ind_status":"AT","des_condic":"Aguardando analise"},"geometry":{"type":"Polygon","coordinates":[[[-42.1104,-21.6549],[-42.1093,-21.647],[-42.105,-21.6545],[-42.1094,-21.6555],[-42.1104,-21.6549]]]}},{"type":"Feature","properties":{"cod_imovel":"RJ-3300159-12F06E2B0FE64638A0E5FCA0BE8680E3","num_area":"23.029300000000000000000000000000","ind_status":"AT","des_condic":"Aguardando analise"},"geometry":{"type":"Polygon","coordinates":[[[-42.1115,-21.67],[-42.1152,-21.6739],[-42.1116,-21.6701],[-42.1115,-21.67]],[[-42.1164,-21.6719],[-42.1115,-21.67],[-42.1163,-21.6719],[-42.1164,-21.6719]]]}},{"type":"Feature","properties":{"cod_imovel":"RJ-3300159-7208DF5E45F64AA5BAFCB570E20365CE","num_area":"9.7556000000000000000000000000000","ind_status":"AT","des_condic":"Aguardando analise"},"geometry":{"type":"Polygon","coordinates":[[[-42.1078,-21.6263],[-42.1031,-21.6253],[-42.1084,-21.6265],[-42.1078,-21.6263]]]}},{"type":"Feature","properties":{"cod_imovel":"RJ-3300159-3174BB91D80C499EADD0EDF25A79191B","num_area":"8.7429000000000000000000000000000","ind_status":"AT","des_condic":"Aguardando analise"},"geometry":{"type":"Polygon","coordinates":[[[-42.1059,-21.6385],[-42.1093,-21.6416],[-42.1062,-21.6386],[-42.1059,-21.6385]]]}},{"type":"Feature","properties":{"cod_imovel":"RJ-3300159-029D6F9E926E4823BD8B672B50111254","num_area":"9.2782000000000000000000000000000","ind_status":"AT","des_condic":"Aguardando analise"},"geometry":{"type":"Polygon","coordinates":[[[-42.1059,-21.6364],[-42.1074,-21.6428],[-42.1068,-21.638],[-42.1059,-21.6364]]]}},{"type":"Feature","properties":{"cod_imovel":"RJ-3300159-5B42EF02488E455596F37827CA67E931","num_area":"12.711600000000000000000000000000","ind_status":"AT","des_condic":"Aguardando analise"},"geometry":{"type":"Polygon","coordinates":[[[-42.1033,-21.6628],[-42.1005,-21.6593],[-42.1023,-21.6628],[-42.1033,-21.6628]]]}},{"type":"Feature","properties":{"cod_imovel":"RJ-3300159-A9960D31204C45DBBA82747CF6896104","num_area":"7.6659000000000000000000000000000","ind_status":"PE","des_condic":"Analisado, aguardando atendimento a notificacao"},"geometry":{"type":"Polygon","coordinates":[[[-42.14,-21.6624],[-42.134,-21.6626],[-42.1393,-21.6626],[-42.14,-21.6624]]]}},{"type":"Feature","properties":{"cod_imovel":"RJ-3300159-536CC146C3DC4DAEB4A0A17BF384D3A5","num_area":"5.8682000000000000000000000000000","ind_status":"PE","des_condic":"Analisado, aguardando atendimento a notificacao"},"geometry":{"type":"Polygon","coordinates":[[[-42.1498,-21.6513],[-42.1532,-21.648],[-42.1498,-21.6513],[-42.1498,-21.6513]]]}},{"type":"Feature","properties":{"cod_imovel":"RJ-3300159-456B1F721E424511939BF4A6A8C7C362","num_area":"17.015900000000000000000000000000","ind_status":"PE","des_condic":"Analisado, aguardando atendimento a notificacao"},"geometry":{"type":"Polygon","coordinates":[[[-42.1793,-21.6704],[-42.1749,-21.6683],[-42.1795,-21.6705],[-42.1793,-21.6704]]]}},{"type":"Feature","properties":{"cod_imovel":"RJ-3300159-12D0A8D5091E48ED93BFBBBB53C34CFF","num_area":"14.939200000000000000000000000000","ind_status":"PE","des_condic":"Analisado, aguardando atendimento a notificacao"},"geometry":{"type":"Polygon","coordinates":[[[-42.1793,-21.6704],[-42.1749,-21.6683],[-42.1795,-21.6705],[-42.1793,-21.6704]]]}},{"type":"Feature","properties":{"cod_imovel":"RJ-3300159-F266D768D11C46F7800C7D3B0B8F5BC4","num_area":"10.012100000000000000000000000000","ind_status":"AT","des_condic":"Aguardando analise"},"geometry":{"type":"Polygon","coordinates":[[[-42.1156,-21.6542],[-42.1141,-21.6491],[-42.1156,-21.6542],[-42.1156,-21.6542]]]}},{"type":"Feature","properties":{"cod_imovel":"RJ-3300159-C8F8A0B6504A4F3A8439EC78092C1965","num_area":"39.305200000000000000000000000000","ind_status":"AT","des_condic":"Aguardando analise"},"geometry":{"type":"Polygon","coordinates":[[[-42.1163,-21.6599],[-42.1215,-21.663],[-42.1229,-21.6566],[-42.1176,-21.6586],[-42.1163,-21.6599]]]}},{"type":"Feature","properties":{"cod_imovel":"RJ-3300159-89A6CB194D4C4B3B8F08E8B2F9BC1260","num_area":"10.583600000000000000000000000000","ind_status":"AT","des_condic":"Aguardando analise"},"geometry":{"type":"Polygon","coordinates":[[[-42.1309,-21.6994],[-42.1299,-21.6956],[-42.1304,-21.6994],[-42.1309,-21.6994]]]}},{"type":"Feature","properties":{"cod_imovel":"RJ-3300159-359FA80A66A34A0CA21D12AFC72EE1FA","num_area":"22.572100000000000000000000000000","ind_status":"AT","des_condic":"Aguardando analise"},"geometry":{"type":"Polygon","coordinates":[[[-42.0991,-21.657],[-42.0933,-21.6594],[-42.0997,-21.6582],[-42.0991,-21.657]]]}},{"type":"Feature","properties":{"cod_imovel":"RJ-3300159-CC9ED2B0029E43508DE5D17CA6067D2F","num_area":"12.673000000000000000000000000000","ind_status":"AT","des_condic":"Aguardando analise"},"geometry":{"type":"Polygon","coordinates":[[[-42.1343,-21.6915],[-42.1325,-21.6964],[-42.1343,-21.6916],[-42.1343,-21.6915]]]}},{"type":"Feature","properties":{"cod_imovel":"RJ-3300159-961B8383AB154879AB0A37241BB34CDE","num_area":"12.986900000000000000000000000000","ind_status":"AT","des_condic":"Aguardando analise"},"geometry":{"type":"Polygon","coordinates":[[[-42.1384,-21.6906],[-42.1412,-21.696],[-42.1403,-21.6909],[-42.1384,-21.6906]],[[-42.1408,-21.6913],[-42.1421,-21.6953],[-42.1413,-21.6914],[-42.1408,-21.6913]]]}},{"type":"Feature","properties":{"cod_imovel":"RJ-3300159-CE7C66C26A8F49169ED594850B7D5F8C","num_area":"15.781600000000000000000000000000","ind_status":"AT","des_condic":"Aguardando analise"},"geometry":{"type":"Polygon","coordinates":[[[-42.1377,-21.6982],[-42.1415,-21.6967],[-42.1381,-21.6979],[-42.1377,-21.6982]],[[-42.1403,-21.695],[-42.1382,-21.6927],[-42.1377,-21.6981],[-42.1404,-21.6952],[-42.1403,-21.695]]]}},{"type":"Feature","properties":{"cod_imovel":"RJ-3300159-A703E2158A264999A123BA91C7E86192","num_area":"10.654200000000000000000000000000","ind_status":"AT","des_condic":"Aguardando analise"},"geometry":{"type":"Polygon","coordinates":[[[-42.1349,-21.6648],[-42.1401,-21.667],[-42.1346,-21.6649],[-42.1349,-21.6648]]]}},{"type":"Feature","properties":{"cod_imovel":"RJ-3300159-EB81546734E24234AAF81B1DB7AE9B9B","num_area":"40.626100000000000000000000000000","ind_status":"AT","des_condic":"Aguardando analise"},"geometry":{"type":"Polygon","coordinates":[[[-42.1256,-21.6473],[-42.1303,-21.6438],[-42.1256,-21.6402],[-42.1246,-21.6471],[-42.1256,-21.6473]]]}},{"type":"Feature","properties":{"cod_imovel":"RJ-3300159-335F824906D34DFB8AECFC835D8367F0","num_area":"14.788500000000000000000000000000","ind_status":"PE","des_condic":"Analisado, aguardando atendimento a notificacao"},"geometry":{"type":"Polygon","coordinates":[[[-42.1759,-21.6743],[-42.1798,-21.6731],[-42.1746,-21.6713],[-42.1749,-21.6754],[-42.1759,-21.6743]]]}},{"type":"Feature","properties":{"cod_imovel":"RJ-3300159-E03C7A45D6864C9092D038B2D3A9F271","num_area":"10.298500000000000000000000000000","ind_status":"AT","des_condic":"Aguardando analise"},"geometry":{"type":"Polygon","coordinates":[[[-42.1482,-21.6914],[-42.1484,-21.6834],[-42.1482,-21.6914],[-42.1482,-21.6914]]]}},{"type":"Feature","properties":{"cod_imovel":"RJ-3300159-FDACA3BE427E4EE6BE66784ECB6D9755","num_area":"28.855500000000000000000000000000","ind_status":"AT","des_condic":"Aguardando analise"},"geometry":{"type":"Polygon","coordinates":[[[-42.1313,-21.667],[-42.1385,-21.6668],[-42.1313,-21.6668],[-42.1313,-21.667]],[[-42.1331,-21.6637],[-42.13,-21.6647],[-42.133,-21.6639],[-42.1331,-21.6637]],[[-42.1339,-21.6627],[-42.139,-21.6628],[-42.134,-21.6626],[-42.1339,-21.6627]]]}},{"type":"Feature","properties":{"cod_imovel":"RJ-3300159-12BADFAA43B64FCCB994B4CB8A7C5C91","num_area":"41.361000000000000000000000000000","ind_status":"AT","des_condic":"Aguardando analise"},"geometry":{"type":"Polygon","coordinates":[[[-42.1219,-21.6528],[-42.121,-21.6634],[-42.1247,-21.6647],[-42.1245,-21.6512],[-42.1209,-21.6496],[-42.1219,-21.6528],[-42.1219,-21.6528]],[[-42.1255,-21.6625],[-42.121,-21.6633],[-42.1241,-21.6619],[-42.1255,-21.6625]]]}},{"type":"Feature","properties":{"cod_imovel":"RJ-3300159-479FAAE86E274E75B45B05E21EA969D4","num_area":"7.8286000000000000000000000000000","ind_status":"AT","des_condic":"Aguardando analise"},"geometry":{"type":"Polygon","coordinates":[[[-42.1351,-21.6986],[-42.1346,-21.7025],[-42.1352,-21.6983],[-42.1351,-21.6986]]]}},{"type":"Feature","properties":{"cod_imovel":"RJ-3300159-49A170D7EE6448A0A05BB09CFEC03400","num_area":"12.592800000000000000000000000000","ind_status":"AT","des_condic":"Aguardando analise"},"geometry":{"type":"Polygon","coordinates":[[[-42.1403,-21.6682],[-42.1375,-21.6669],[-42.1399,-21.6688],[-42.1403,-21.6682]]]}},{"type":"Feature","properties":{"cod_imovel":"RJ-3300159-C519533F65D34C5A8704F8E51FFCB890","num_area":"14.915200000000000000000000000000","ind_status":"AT","des_condic":"Aguardando analise"},"geometry":{"type":"Polygon","coordinates":[[[-42.1238,-21.6791],[-42.1249,-21.6855],[-42.1239,-21.6792],[-42.1238,-21.6791]]]}},{"type":"Feature","properties":{"cod_imovel":"RJ-3300159-10E956A3B1CA4A2CBBA109CF59EC3AEE","num_area":"22.451600000000000000000000000000","ind_status":"AT","des_condic":"Aguardando analise"},"geometry":{"type":"Polygon","coordinates":[[[-42.1089,-21.6667],[-42.1023,-21.6705],[-42.1082,-21.6677],[-42.1089,-21.6667]]]}},{"type":"Feature","properties":{"cod_imovel":"RJ-3300159-2F6025843EB049AEA7A5F606D3C85A3D","num_area":"86.195900000000000000000000000000","ind_status":"AT","des_condic":"Aguardando analise"},"geometry":{"type":"Polygon","coordinates":[[[-42.1154,-21.6469],[-42.1178,-21.6423],[-42.1131,-21.6375],[-42.1044,-21.6437],[-42.1074,-21.649],[-42.1154,-21.6472],[-42.1154,-21.6469]]]}},{"type":"Feature","properties":{"cod_imovel":"RJ-3300159-BB38617F7DF84AF082EC24BB08B6E62A","num_area":"6.1118000000000000000000000000000","ind_status":"AT","des_condic":"Aguardando analise"},"geometry":{"type":"Polygon","coordinates":[[[-42.0877,-21.6554],[-42.0831,-21.6566],[-42.0881,-21.6555],[-42.0877,-21.6554]]]}},{"type":"Feature","properties":{"cod_imovel":"RJ-3300159-9D1B82DE5F4E413391915FD3CEA855AB","num_area":"12.292900000000000000000000000000","ind_status":"AT","des_condic":"Aguardando analise"},"geometry":{"type":"Polygon","coordinates":[[[-42.1278,-21.69],[-42.1231,-21.6851],[-42.1276,-21.6916],[-42.1278,-21.69]]]}},{"type":"Feature","properties":{"cod_imovel":"RJ-3300159-F739689DACD548A69217AEC3110DA34B","num_area":"11.695600000000000000000000000000","ind_status":"AT","des_condic":"Aguardando analise"},"geometry":{"type":"Polygon","coordinates":[[[-42.1413,-21.6684],[-42.1423,-21.6652],[-42.1409,-21.6683],[-42.1413,-21.6684]],[[-42.1404,-21.6682],[-42.1377,-21.6726],[-42.1409,-21.6683],[-42.1404,-21.6682]]]}},{"type":"Feature","properties":{"cod_imovel":"RJ-3300159-B538681545CC439A899E457B6124818E","num_area":"14.373000000000000000000000000000","ind_status":"AT","des_condic":"Aguardando analise"},"geometry":{"type":"Polygon","coordinates":[[[-42.122,-21.6725],[-42.1215,-21.6661],[-42.1216,-21.6711],[-42.122,-21.6725]]]}},{"type":"Feature","properties":{"cod_imovel":"RJ-3300159-C049CDCF89224380A1A98E5E238547DE","num_area":"54.427600000000000000000000000000","ind_status":"AT","des_condic":"Aguardando analise"},"geometry":{"type":"Polygon","coordinates":[[[-42.1261,-21.6739],[-42.1211,-21.6658],[-42.1255,-21.6743],[-42.1261,-21.6739]],[[-42.1237,-21.6778],[-42.1264,-21.6739],[-42.1236,-21.6773],[-42.1237,-21.6778]],[[-42.122,-21.6725],[-42.1206,-21.679],[-42.122,-21.6725],[-42.122,-21.6725]]]}},{"type":"Feature","properties":{"cod_imovel":"RJ-3300159-63C35C9868B745768AC06C60D28E63D4","num_area":"52.950600000000000000000000000000","ind_status":"AT","des_condic":"Aguardando analise"},"geometry":{"type":"Polygon","coordinates":[[[-42.1181,-21.6927],[-42.1186,-21.6958],[-42.1181,-21.6892],[-42.1181,-21.6926],[-42.1181,-21.6927]],[[-42.1204,-21.6944],[-42.126,-21.6899],[-42.1224,-21.6837],[-42.1181,-21.6892],[-42.1202,-21.694],[-42.1204,-21.6944]]]}},{"type":"Feature","properties":{"cod_imovel":"RJ-3300159-5BDA2B1E122A49E48ED07A0726092B7F","num_area":"15.847100000000000000000000000000","ind_status":"AT","des_condic":"Aguardando analise"},"geometry":{"type":"Polygon","coordinates":[[[-42.1183,-21.6731],[-42.1219,-21.6725],[-42.1187,-21.6731],[-42.1183,-21.6731]],[[-42.1182,-21.673],[-42.116,-21.6698],[-42.1181,-21.673],[-42.1182,-21.673]]]}},{"type":"Feature","properties":{"cod_imovel":"RJ-3300159-5C8BA5FA903541A9BA4794AD7305BE64","num_area":"12.483200000000000000000000000000","ind_status":"AT","des_condic":"Aguardando analise"},"geometry":{"type":"Polygon","coordinates":[[[-42.1204,-21.6395],[-42.1177,-21.6422],[-42.1202,-21.6397],[-42.1204,-21.6395]],[[-42.1198,-21.6429],[-42.1232,-21.6409],[-42.1198,-21.6429],[-42.1198,-21.6429]]]}},{"type":"Feature","properties":{"cod_imovel":"RJ-3300159-ADF0418610C146C6B7433CCA78B62672","num_area":"10.384300000000000000000000000000","ind_status":"AT","des_condic":"Aguardando analise"},"geometry":{"type":"Polygon","coordinates":[[[-42.1299,-21.6955],[-42.1298,-21.6994],[-42.1315,-21.6956],[-42.1299,-21.6955]]]}},{"type":"Feature","properties":{"cod_imovel":"RJ-3300159-CA8754319E8D4B599794FDF44E248F9D","num_area":"16.654600000000000000000000000000","ind_status":"AT","des_condic":"Aguardando analise"},"geometry":{"type":"Polygon","coordinates":[[[-42.1427,-21.6954],[-42.1384,-21.6858],[-42.1425,-21.6954],[-42.1427,-21.6954]]]}},{"type":"Feature","properties":{"cod_imovel":"RJ-3300159-7E1469AEAE9E46EE8DA1198CE5B1894F","num_area":"33.850700000000000000000000000000","ind_status":"AT","des_condic":"Aguardando analise"},"geometry":{"type":"Polygon","coordinates":[[[-42.1278,-21.6835],[-42.1306,-21.6772],[-42.1272,-21.6833],[-42.1278,-21.6835]]]}},{"type":"Feature","properties":{"cod_imovel":"RJ-3300159-79E4B338E0144E899DE23FCA0EFDA802","num_area":"19.715800000000000000000000000000","ind_status":"AT","des_condic":"Aguardando analise"},"geometry":{"type":"Polygon","coordinates":[[[-42.0992,-21.636],[-42.0947,-21.6396],[-42.0988,-21.6371],[-42.0992,-21.636]]]}},{"type":"Feature","properties":{"cod_imovel":"RJ-3300159-DFC8EE41B81D462FB49CA05636C31F48","num_area":"6.3283000000000000000000000000000","ind_status":"PE","des_condic":"Analisado, aguardando atendimento a notificacao"},"geometry":{"type":"Polygon","coordinates":[[[-42.1191,-21.6804],[-42.1178,-21.6741],[-42.1189,-21.6798],[-42.1191,-21.6804]]]}},{"type":"Feature","properties":{"cod_imovel":"RJ-3300159-96CC91C1B30148F8BF3C75DE08E29DC0","num_area":"9.8670000000000000000000000000000","ind_status":"PE","des_condic":"Analisado, aguardando atendimento a notificacao"},"geometry":{"type":"Polygon","coordinates":[[[-42.1388,-21.6284],[-42.1351,-21.6286],[-42.1379,-21.6314],[-42.1389,-21.6284],[-42.1388,-21.6284]]]}},{"type":"Feature","properties":{"cod_imovel":"RJ-3300159-061E43C27D1D4E219D3C4BEF2CC2FA5A","num_area":"2.6327000000000000000000000000000","ind_status":"PE","des_condic":"Analisado, aguardando atendimento a notificacao"},"geometry":{"type":"Polygon","coordinates":[[[-42.1444,-21.6315],[-42.1449,-21.6281],[-42.1439,-21.6315],[-42.1444,-21.6315]]]}},{"type":"Feature","properties":{"cod_imovel":"RJ-3300159-D14534BF644947D78E48965DDBEAFE4E","num_area":"9.1754000000000000000000000000000","ind_status":"PE","des_condic":"Analisado, aguardando atendimento a notificacao"},"geometry":{"type":"Polygon","coordinates":[[[-42.1232,-21.6274],[-42.1204,-21.6243],[-42.1228,-21.6275],[-42.1232,-21.6274]]]}},{"type":"Feature","properties":{"cod_imovel":"RJ-3300159-13FD3F42DA2644829B2CBBF1140FCE5F","num_area":"6.1383000000000000000000000000000","ind_status":"PE","des_condic":"Analisado, aguardando atendimento a notificacao"},"geometry":{"type":"Polygon","coordinates":[[[-42.1214,-21.6797],[-42.1214,-21.6741],[-42.1212,-21.6798],[-42.1214,-21.6797]]]}},{"type":"Feature","properties":{"cod_imovel":"RJ-3300159-41B5A532987D443FBD7C74D0AE19E967","num_area":"9.3042000000000000000000000000000","ind_status":"AT","des_condic":"Aguardando analise"},"geometry":{"type":"Polygon","coordinates":[[[-42.0718,-21.6337],[-42.067,-21.6347],[-42.072,-21.6337],[-42.0718,-21.6337]]]}},{"type":"Feature","properties":{"cod_imovel":"RJ-3300159-5B542BC22DEE4D8C915AE64872F97777","num_area":"4.6463000000000000000000000000000","ind_status":"PE","des_condic":"Analisado, aguardando atendimento a notificacao"},"geometry":{"type":"Polygon","coordinates":[[[-42.1129,-21.6226],[-42.1126,-21.6177],[-42.1125,-21.621],[-42.1129,-21.6226]]]}},{"type":"Feature","properties":{"cod_imovel":"RJ-3300159-F59547267ED941F7842A6B9C20DA2030","num_area":"6.7935000000000000000000000000000","ind_status":"AT","des_condic":"Aguardando analise"},"geometry":{"type":"Polygon","coordinates":[[[-42.1195,-21.6536],[-42.1173,-21.6561],[-42.1197,-21.6536],[-42.1195,-21.6536]]]}},{"type":"Feature","properties":{"cod_imovel":"RJ-3300159-56220DB0649540D9A3E5FE89D126CE5D","num_area":"36.814000000000000000000000000000","ind_status":"AT","des_condic":"Aguardando analise"},"geometry":{"type":"Polygon","coordinates":[[[-42.1132,-21.6129],[-42.1241,-21.612],[-42.1192,-21.6063],[-42.1138,-21.6124],[-42.1132,-21.6129]]]}},{"type":"Feature","properties":{"cod_imovel":"RJ-3300159-22B43BEADD9C4071B0D1EB489367F1EE","num_area":"12.255300000000000000000000000000","ind_status":"PE","des_condic":"Analisado, aguardando atendimento a notificacao"},"geometry":{"type":"Polygon","coordinates":[[[-42.1449,-21.6358],[-42.1412,-21.6306],[-42.1429,-21.6357],[-42.1449,-21.6358]]]}},{"type":"Feature","properties":{"cod_imovel":"RJ-3300159-C71A71413616456AAFA63CFA1FD8A792","num_area":"12.019100000000000000000000000000","ind_status":"AT","des_condic":"Aguardando analise"},"geometry":{"type":"Polygon","coordinates":[[[-42.1535,-21.6831],[-42.1512,-21.687],[-42.1548,-21.6824],[-42.1535,-21.6831]]]}},{"type":"Feature","properties":{"cod_imovel":"RJ-3300159-18F022848A0E4A5E842ABC927BBDF5F0","num_area":"9.7935000000000000000000000000000","ind_status":"AT","des_condic":"Aguardando analise"},"geometry":{"type":"Polygon","coordinates":[[[-42.118,-21.6436],[-42.1227,-21.6406],[-42.1177,-21.6419],[-42.118,-21.6436]]]}},{"type":"Feature","properties":{"cod_imovel":"RJ-3300159-4AD8F7FE18D948DBA3573447E3FA9D62","num_area":"6.6627000000000000000000000000000","ind_status":"AT","des_condic":"Aguardando analise"},"geometry":{"type":"Polygon","coordinates":[[[-42.1498,-21.6282],[-42.1534,-21.6289],[-42.15,-21.6283],[-42.1498,-21.6282]]]}},{"type":"Feature","properties":{"cod_imovel":"RJ-3300159-F2920E1D791C4A088D780EE710921552","num_area":"31.502000000000000000000000000000","ind_status":"AT","des_condic":"Aguardando analise"},"geometry":{"type":"Polygon","coordinates":[[[-42.1396,-21.6266],[-42.1481,-21.6263],[-42.1448,-21.6229],[-42.1396,-21.6266]]]}},{"type":"Feature","properties":{"cod_imovel":"RJ-3300159-D4D57774D36040D398C33AB828DC4E28","num_area":"13.189500000000000000000000000000","ind_status":"AT","des_condic":"Aguardando analise"},"geometry":{"type":"Polygon","coordinates":[[[-42.1285,-21.6059],[-42.1279,-21.6106],[-42.1285,-21.6059],[-42.1285,-21.6059]]]}},{"type":"Feature","properties":{"cod_imovel":"RJ-3300159-33D54D1BAB81477AB6E69FB1543F1210","num_area":"4.3572000000000000000000000000000","ind_status":"AT","des_condic":"Aguardando analise"},"geometry":{"type":"Polygon","coordinates":[[[-42.1066,-21.6296],[-42.1104,-21.6296],[-42.1069,-21.6293],[-42.1066,-21.6296]]]}},{"type":"Feature","properties":{"cod_imovel":"RJ-3300159-D69FBC82DC1140D0B976FD71B142E228","num_area":"16.322200000000000000000000000000","ind_status":"AT","des_condic":"Aguardando analise"},"geometry":{"type":"Polygon","coordinates":[[[-42.1612,-21.6267],[-42.1567,-21.6313],[-42.1613,-21.6275],[-42.1612,-21.6267]]]}},{"type":"Feature","properties":{"cod_imovel":"RJ-3300159-92DD6CEA4010466FAB7444474A3EDF22","num_area":"34.001300000000000000000000000000","ind_status":"AT","des_condic":"Aguardando analise"},"geometry":{"type":"Polygon","coordinates":[[[-42.133,-21.6329],[-42.1293,-21.632],[-42.1361,-21.6378],[-42.1335,-21.6321],[-42.133,-21.6329]],[[-42.135,-21.6331],[-42.1321,-21.6361],[-42.135,-21.6331],[-42.135,-21.6331]]]}},{"type":"Feature","properties":{"cod_imovel":"RJ-3300159-54B36E9A62C74E9C857CB21CFD28F500","num_area":"32.033600000000000000000000000000","ind_status":"AT","des_condic":"Aguardando analise"},"geometry":{"type":"Polygon","coordinates":[[[-42.1472,-21.6121],[-42.1424,-21.6128],[-42.142,-21.6191],[-42.1471,-21.617],[-42.1456,-21.6135],[-42.1472,-21.6121]]]}},{"type":"Feature","properties":{"cod_imovel":"RJ-3300159-0AFF3B6B3CF0422DA69ED3A2F5948127","num_area":"53.069100000000000000000000000000","ind_status":"AT","des_condic":"Aguardando analise"},"geometry":{"type":"Polygon","coordinates":[[[-42.1458,-21.6925],[-42.1468,-21.6873],[-42.1386,-21.6894],[-42.1409,-21.6961],[-42.1453,-21.6926],[-42.1458,-21.6925]]]}},{"type":"Feature","properties":{"cod_imovel":"RJ-3300159-76830E7BBAC543698DA140151A22840E","num_area":"12.214600000000000000000000000000","ind_status":"AT","des_condic":"Aguardando analise"},"geometry":{"type":"Polygon","coordinates":[[[-42.1415,-21.6854],[-42.1468,-21.6872],[-42.1424,-21.6852],[-42.1415,-21.6854]]]}},{"type":"Feature","properties":{"cod_imovel":"RJ-3300159-DB9E2D923070421BAC872FAC0E32988A","num_area":"7.5909000000000000000000000000000","ind_status":"AT","des_condic":"Aguardando analise"},"geometry":{"type":"Polygon","coordinates":[[[-42.1379,-21.6424],[-42.1337,-21.6411],[-42.1378,-21.6427],[-42.1379,-21.6424]]]}},{"type":"Feature","properties":{"cod_imovel":"RJ-3300159-4931FB6FD9FF417888F2A99B647AFC2C","num_area":"44.955700000000000000000000000000","ind_status":"AT","des_condic":"Aguardando analise"},"geometry":{"type":"Polygon","coordinates":[[[-42.1492,-21.6484],[-42.141,-21.6481],[-42.1389,-21.6523],[-42.1436,-21.6555],[-42.148,-21.6492],[-42.1492,-21.6484]]]}},{"type":"Feature","properties":{"cod_imovel":"RJ-3300159-5C920F407EA64CAAA12E14B06C64EF02","num_area":"6.5047000000000000000000000000000","ind_status":"AT","des_condic":"Aguardando analise"},"geometry":{"type":"Polygon","coordinates":[[[-42.0924,-21.6682],[-42.0987,-21.6653],[-42.093,-21.6679],[-42.0924,-21.6682]]]}},{"type":"Feature","properties":{"cod_imovel":"RJ-3300159-960C651E23854C4DBF66F1B527477800","num_area":"59.210300000000000000000000000000","ind_status":"AT","des_condic":"Aguardando analise"},"geometry":{"type":"Polygon","coordinates":[[[-42.1006,-21.646],[-42.1073,-21.6428],[-42.101,-21.6339],[-42.0976,-21.6414],[-42.1006,-21.646],[-42.1006,-21.646]]]}},{"type":"Feature","properties":{"cod_imovel":"RJ-3300159-3DD6254B48884EB69E2C54E9353F3037","num_area":"12.770500000000000000000000000000","ind_status":"AT","des_condic":"Aguardando analise"},"geometry":{"type":"Polygon","coordinates":[[[-42.1301,-21.6441],[-42.137,-21.649],[-42.1303,-21.6439],[-42.1301,-21.6441]]]}},{"type":"Feature","properties":{"cod_imovel":"RJ-3300159-AF22CD888C054AAD8FB4D2885B1024B7","num_area":"16.525400000000000000000000000000","ind_status":"AT","des_condic":"Aguardando analise"},"geometry":{"type":"Polygon","coordinates":[[[-42.1377,-21.6868],[-42.1423,-21.6849],[-42.1401,-21.682],[-42.1362,-21.682],[-42.1377,-21.6867],[-42.1377,-21.6868]]]}},{"type":"Feature","properties":{"cod_imovel":"RJ-3300159-68A060C4917440D69CAF6B9B573B97F3","num_area":"7.4951000000000000000000000000000","ind_status":"AT","des_condic":"Aguardando analise"},"geometry":{"type":"Polygon","coordinates":[[[-42.1395,-21.6139],[-42.1357,-21.6125],[-42.1391,-21.6142],[-42.1395,-21.6139]]]}},{"type":"Feature","properties":{"cod_imovel":"RJ-3300159-CC3345D9B60C470A864F8CF8082A39E8","num_area":"12.187700000000000000000000000000","ind_status":"AT","des_condic":"Aguardando analise"},"geometry":{"type":"Polygon","coordinates":[[[-42.0965,-21.6707],[-42.0998,-21.6737],[-42.0972,-21.67],[-42.0965,-21.6707]]]}},{"type":"Feature","properties":{"cod_imovel":"RJ-3300159-70573FC7BE23465583CFE41932078A95","num_area":"10.868100000000000000000000000000","ind_status":"AT","des_condic":"Aguardando analise"},"geometry":{"type":"Polygon","coordinates":[[[-42.1212,-21.6157],[-42.1185,-21.6137],[-42.121,-21.6157],[-42.1212,-21.6157]],[[-42.1216,-21.6156],[-42.1194,-21.6133],[-42.1216,-21.6154],[-42.1216,-21.6156]]]}},{"type":"Feature","properties":{"cod_imovel":"RJ-3300159-5444ADFA0DAC44A28A23E6AC9525A894","num_area":"11.174200000000000000000000000000","ind_status":"AT","des_condic":"Aguardando analise"},"geometry":{"type":"Polygon","coordinates":[[[-42.1377,-21.6867],[-42.1315,-21.685],[-42.1376,-21.6868],[-42.1377,-21.6867]]]}},{"type":"Feature","properties":{"cod_imovel":"RJ-3300159-D97480738E5143CE97E8C4A84C1B8EFA","num_area":"17.470000000000000000000000000000","ind_status":"AT","des_condic":"Aguardando analise"},"geometry":{"type":"Polygon","coordinates":[[[-42.1454,-21.6317],[-42.1504,-21.6302],[-42.1449,-21.6281],[-42.1454,-21.6317]]]}},{"type":"Feature","properties":{"cod_imovel":"RJ-3300159-871B4940B747422F96288F671610BB79","num_area":"7.2419000000000000000000000000000","ind_status":"AT","des_condic":"Aguardando analise"},"geometry":{"type":"Polygon","coordinates":[[[-42.1022,-21.6324],[-42.1076,-21.6346],[-42.1016,-21.6321],[-42.1022,-21.6324]]]}},{"type":"Feature","properties":{"cod_imovel":"RJ-3300159-18FB5286433748A4A2BE992D0BBD0CA7","num_area":"12.762600000000000000000000000000","ind_status":"AT","des_condic":"Aguardando analise"},"geometry":{"type":"Polygon","coordinates":[[[-42.1877,-21.6366],[-42.1834,-21.6377],[-42.1869,-21.6379],[-42.1877,-21.6366]]]}},{"type":"Feature","properties":{"cod_imovel":"RJ-3300159-FEDC6BBEF32543749170F2148F8F4072","num_area":"8.2784000000000000000000000000000","ind_status":"AT","des_condic":"Aguardando analise"},"geometry":{"type":"Polygon","coordinates":[[[-42.1326,-21.6251],[-42.1324,-21.6281],[-42.135,-21.6254],[-42.1326,-21.6251]]]}},{"type":"Feature","properties":{"cod_imovel":"RJ-3300159-C09C25949564400EB031C1C6BF9D0593","num_area":"16.334300000000000000000000000000","ind_status":"AT","des_condic":"Aguardando analise"},"geometry":{"type":"Polygon","coordinates":[[[-42.13,-21.6255],[-42.13,-21.6211],[-42.126,-21.6253],[-42.1297,-21.6258],[-42.13,-21.6255]]]}},{"type":"Feature","properties":{"cod_imovel":"RJ-3300159-14E5FEE3A78C49EAAC2DC5360739A284","num_area":"25.217100000000000000000000000000","ind_status":"AT","des_condic":"Aguardando analise"},"geometry":{"type":"Polygon","coordinates":[[[-42.1258,-21.6348],[-42.1209,-21.6398],[-42.1288,-21.6373],[-42.1262,-21.6349],[-42.1258,-21.6348]]]}},{"type":"Feature","properties":{"cod_imovel":"RJ-3300159-CF94421E6558452C9375D6962840CFA7","num_area":"10.298200000000000000000000000000","ind_status":"AT","des_condic":"Aguardando analise"},"geometry":{"type":"Polygon","coordinates":[[[-42.0761,-21.6375],[-42.0794,-21.6376],[-42.0751,-21.6362],[-42.0761,-21.6375]]]}},{"type":"Feature","properties":{"cod_imovel":"RJ-3300159-6D58880D08BE48F1BCCA40D4E61D8AC2","num_area":"18.738900000000000000000000000000","ind_status":"AT","des_condic":"Aguardando analise"},"geometry":{"type":"Polygon","coordinates":[[[-42.1376,-21.6233],[-42.1322,-21.6216],[-42.1377,-21.6235],[-42.1376,-21.6233]]]}},{"type":"Feature","properties":{"cod_imovel":"RJ-3300159-DDCF5551B3994C2FB3FFCE54276DC4E1","num_area":"6.2659000000000000000000000000000","ind_status":"AT","des_condic":"Aguardando analise"},"geometry":{"type":"Polygon","coordinates":[[[-42.1553,-21.6636],[-42.1577,-21.6662],[-42.1554,-21.6637],[-42.1553,-21.6636]]]}},{"type":"Feature","properties":{"cod_imovel":"RJ-3300159-99FDE4F0B7784D2FAE6369F1083F30FC","num_area":"29.134100000000000000000000000000","ind_status":"AT","des_condic":"Aguardando analise"},"geometry":{"type":"Polygon","coordinates":[[[-42.1472,-21.6121],[-42.1419,-21.6129],[-42.1419,-21.618],[-42.1469,-21.617],[-42.147,-21.6123],[-42.1472,-21.6121]]]}},{"type":"Feature","properties":{"cod_imovel":"RJ-3300159-F4265652F537463580C35FDDDCC3FF93","num_area":"18.630000000000000000000000000000","ind_status":"AT","des_condic":"Aguardando analise"},"geometry":{"type":"Polygon","coordinates":[[[-42.1229,-21.6283],[-42.1157,-21.632],[-42.123,-21.6284],[-42.1229,-21.6283]]]}},{"type":"Feature","properties":{"cod_imovel":"RJ-3300159-C6A06C88ACE842F9B1287FF7B0F3F9A3","num_area":"28.369200000000000000000000000000","ind_status":"AT","des_condic":"Aguardando analise"},"geometry":{"type":"Polygon","coordinates":[[[-42.1603,-21.6427],[-42.168,-21.6443],[-42.1605,-21.6391],[-42.1605,-21.6422],[-42.1603,-21.6427]]]}},{"type":"Feature","properties":{"cod_imovel":"RJ-3300159-5CCB8767E9DB403598C19F4DEBA649F2","num_area":"2.8576000000000000000000000000000","ind_status":"AT","des_condic":"Aguardando analise"},"geometry":{"type":"Polygon","coordinates":[[[-42.0891,-21.6296],[-42.0822,-21.6332],[-42.0892,-21.6298],[-42.0891,-21.6296]]]}},{"type":"Feature","properties":{"cod_imovel":"RJ-3300159-5014F38D8E0A4164B8A97F6FA46DB5BE","num_area":"22.006100000000000000000000000000","ind_status":"AT","des_condic":"Aguardando analise"},"geometry":{"type":"Polygon","coordinates":[[[-42.082,-21.6357],[-42.0796,-21.6385],[-42.0858,-21.6414],[-42.0826,-21.6365],[-42.082,-21.6357]]]}},{"type":"Feature","properties":{"cod_imovel":"RJ-3300159-044DB9D1CE6D4D6A98CBA34332541031","num_area":"12.726800000000000000000000000000","ind_status":"AT","des_condic":"Aguardando analise"},"geometry":{"type":"Polygon","coordinates":[[[-42.1481,-21.6657],[-42.1424,-21.6687],[-42.1467,-21.6663],[-42.1481,-21.6657]]]}},{"type":"Feature","properties":{"cod_imovel":"RJ-3300159-583E862C599D4DA1B88280F4EBDA4BA6","num_area":"14.642000000000000000000000000000","ind_status":"AT","des_condic":"Aguardando analise"},"geometry":{"type":"Polygon","coordinates":[[[-42.1422,-21.6621],[-42.1482,-21.6619],[-42.1424,-21.662],[-42.1422,-21.6621]]]}},{"type":"Feature","properties":{"cod_imovel":"RJ-3300159-BFAF2EDAB4564C5C95C96BE1D35A42B0","num_area":"19.162700000000000000000000000000","ind_status":"AT","des_condic":"Aguardando analise"},"geometry":{"type":"Polygon","coordinates":[[[-42.1311,-21.6563],[-42.1303,-21.6641],[-42.1337,-21.6602],[-42.1311,-21.6563]]]}},{"type":"Feature","properties":{"cod_imovel":"RJ-3300159-70BF3E4838EE460989A3ADA7E91961E5","num_area":"71.023600000000000000000000000000","ind_status":"AT","des_condic":"Aguardando analise"},"geometry":{"type":"Polygon","coordinates":[[[-42.1681,-21.6628],[-42.169,-21.6594],[-42.1635,-21.6615],[-42.1631,-21.6735],[-42.1682,-21.6719],[-42.1681,-21.6632],[-42.1681,-21.6628]]]}},{"type":"Feature","properties":{"cod_imovel":"RJ-3300159-73FB7DF776EC4411AD070E9C57165788","num_area":"19.213800000000000000000000000000","ind_status":"AT","des_condic":"Aguardando analise"},"geometry":{"type":"Polygon","coordinates":[[[-42.1589,-21.6518],[-42.1655,-21.6483],[-42.159,-21.6518],[-42.1589,-21.6518]]]}},{"type":"Feature","properties":{"cod_imovel":"RJ-3300159-BB46565D0EC64F68AE7ACB841D390A51","num_area":"58.614100000000000000000000000000","ind_status":"AT","des_condic":"Aguardando analise"},"geometry":{"type":"Polygon","coordinates":[[[-42.1359,-21.606],[-42.1246,-21.6018],[-42.1332,-21.6089],[-42.1397,-21.6055],[-42.136,-21.6059],[-42.1359,-21.606]]]}},{"type":"Feature","properties":{"cod_imovel":"RJ-3300159-3E79AA757D1748BE9ABCAA61B9983FEC","num_area":"9.1266000000000000000000000000000","ind_status":"AT","des_condic":"Aguardando analise"},"geometry":{"type":"Polygon","coordinates":[[[-42.1243,-21.6252],[-42.1275,-21.621],[-42.1243,-21.6252],[-42.1243,-21.6252]]]}},{"type":"Feature","properties":{"cod_imovel":"RJ-3300159-ECB247764FE548E880C50004FF0EAD2F","num_area":"7.6827000000000000000000000000000","ind_status":"AT","des_condic":"Aguardando analise"},"geometry":{"type":"Polygon","coordinates":[[[-42.1344,-21.659],[-42.1416,-21.6623],[-42.1347,-21.6591],[-42.1344,-21.659]]]}},{"type":"Feature","properties":{"cod_imovel":"RJ-3300159-F78C43536F094EF58ADAAC54E63F0DE2","num_area":"17.032500000000000000000000000000","ind_status":"AT","des_condic":"Aguardando analise"},"geometry":{"type":"Polygon","coordinates":[[[-42.1497,-21.6288],[-42.1502,-21.621],[-42.1469,-21.6246],[-42.1496,-21.6287],[-42.1497,-21.6288]]]}},{"type":"Feature","properties":{"cod_imovel":"RJ-3300159-F20CFF998E86476FAD914AA3D57A0CF8","num_area":"13.554100000000000000000000000000","ind_status":"AT","des_condic":"Aguardando analise"},"geometry":{"type":"Polygon","coordinates":[[[-42.1593,-21.6346],[-42.1628,-21.6338],[-42.1572,-21.6334],[-42.1593,-21.6346]]]}},{"type":"Feature","properties":{"cod_imovel":"RJ-3300159-95886164229D478083BB706832105EB0","num_area":"16.189500000000000000000000000000","ind_status":"AT","des_condic":"Aguardando analise"},"geometry":{"type":"Polygon","coordinates":[[[-42.1955,-21.6368],[-42.1916,-21.6383],[-42.1969,-21.6425],[-42.1956,-21.6368],[-42.1955,-21.6368]]]}},{"type":"Feature","properties":{"cod_imovel":"RJ-3300159-3D2C3B0DC79741978CC2DF9DBF2E9324","num_area":"133.14030000000000000000000000000","ind_status":"AT","des_condic":"Aguardando analise"},"geometry":{"type":"Polygon","coordinates":[[[-42.1966,-21.6523],[-42.1969,-21.6425],[-42.1885,-21.6404],[-42.1854,-21.6474],[-42.1949,-21.656],[-42.1961,-21.6493],[-42.1904,-21.6415],[-42.1966,-21.6524],[-42.1966,-21.6523]]]}},{"type":"Feature","properties":{"cod_imovel":"RJ-3300159-0E03F3B7E5A34E1FAA677F1BD33EF873","num_area":"7.7891000000000000000000000000000","ind_status":"AT","des_condic":"Aguardando analise"},"geometry":{"type":"Polygon","coordinates":[[[-42.1482,-21.6438],[-42.1481,-21.6471],[-42.1497,-21.643],[-42.1482,-21.6438]]]}},{"type":"Feature","properties":{"cod_imovel":"RJ-3300159-2812E1C6A5AA47BF9BFD2C43217449E6","num_area":"4.5547000000000000000000000000000","ind_status":"AT","des_condic":"Aguardando analise"},"geometry":{"type":"Polygon","coordinates":[[[-42.1476,-21.6425],[-42.1459,-21.6451],[-42.1486,-21.6427],[-42.1476,-21.6425]]]}},{"type":"Feature","properties":{"cod_imovel":"RJ-3300159-D51C9918FE7948C581D47C8B39495133","num_area":"4.5302000000000000000000000000000","ind_status":"AT","des_condic":"Aguardando analise"},"geometry":{"type":"Polygon","coordinates":[[[-42.145,-21.6442],[-42.15,-21.6429],[-42.1449,-21.6441],[-42.145,-21.6442]]]}},{"type":"Feature","properties":{"cod_imovel":"RJ-3300159-4CD29BB74F89446096A0D3B2072A3840","num_area":"11.969000000000000000000000000000","ind_status":"AT","des_condic":"Aguardando analise"},"geometry":{"type":"Polygon","coordinates":[[[-42.1153,-21.6737],[-42.1098,-21.6725],[-42.1146,-21.6734],[-42.1153,-21.6737]]]}},{"type":"Feature","properties":{"cod_imovel":"RJ-3300159-3D6786A0CB6B42D497F287387E99F35B","num_area":"18.789900000000000000000000000000","ind_status":"AT","des_condic":"Aguardando analise"},"geometry":{"type":"Polygon","coordinates":[[[-42.1317,-21.6265],[-42.1302,-21.6209],[-42.1312,-21.6261],[-42.1317,-21.6265]]]}},{"type":"Feature","properties":{"cod_imovel":"RJ-3300159-D30461370A08498291A6ACFD41D7E7D3","num_area":"9.6312000000000000000000000000000","ind_status":"AT","des_condic":"Aguardando analise"},"geometry":{"type":"Polygon","coordinates":[[[-42.1488,-21.6138],[-42.1453,-21.6172],[-42.149,-21.6143],[-42.1488,-21.6138]]]}},{"type":"Feature","properties":{"cod_imovel":"RJ-3300159-719146F5BC464C5280336D39DB09F11A","num_area":"18.646300000000000000000000000000","ind_status":"AT","des_condic":"Aguardando analise"},"geometry":{"type":"Polygon","coordinates":[[[-42.1273,-21.6203],[-42.122,-21.621],[-42.123,-21.6251],[-42.1275,-21.6209],[-42.1273,-21.6203]]]}},{"type":"Feature","properties":{"cod_imovel":"RJ-3300159-6909A2AB94AD4297AA9A2740CCAF94EF","num_area":"8.9303000000000000000000000000000","ind_status":"AT","des_condic":"Aguardando analise"},"geometry":{"type":"Polygon","coordinates":[[[-42.1567,-21.6486],[-42.1558,-21.645],[-42.156,-21.6485],[-42.1567,-21.6486]]]}},{"type":"Feature","properties":{"cod_imovel":"RJ-3300159-6F7CD9CD13074CCBBDBBEEF34F9AA3A3","num_area":"13.724900000000000000000000000000","ind_status":"AT","des_condic":"Aguardando analise"},"geometry":{"type":"Polygon","coordinates":[[[-42.1497,-21.6429],[-42.1494,-21.6482],[-42.1499,-21.6429],[-42.1497,-21.6429]]]}},{"type":"Feature","properties":{"cod_imovel":"RJ-3300159-4EA1D85E887B47A1B94DEDC487670543","num_area":"18.254700000000000000000000000000","ind_status":"AT","des_condic":"Aguardando analise"},"geometry":{"type":"Polygon","coordinates":[[[-42.1895,-21.6353],[-42.1945,-21.6366],[-42.1897,-21.6351],[-42.1895,-21.6353]]]}},{"type":"Feature","properties":{"cod_imovel":"RJ-3300159-89AA96F0DB514660ABA166AC8F004D49","num_area":"5.5150000000000000000000000000000","ind_status":"AT","des_condic":"Aguardando analise"},"geometry":{"type":"Polygon","coordinates":[[[-42.0846,-21.6541],[-42.0814,-21.6556],[-42.0846,-21.6539],[-42.0846,-21.6541]]]}},{"type":"Feature","properties":{"cod_imovel":"RJ-3300159-CBE6A585487D4C0595F027AC5AA87F04","num_area":"9.2110000000000000000000000000000","ind_status":"AT","des_condic":"Aguardando analise"},"geometry":{"type":"Polygon","coordinates":[[[-42.1514,-21.6338],[-42.1559,-21.6333],[-42.1514,-21.6338],[-42.1514,-21.6338]]]}},{"type":"Feature","properties":{"cod_imovel":"RJ-3300159-C9B7DA299E224AECB0F92C47FF28BD7F","num_area":"8.0250000000000000000000000000000","ind_status":"AT","des_condic":"Aguardando analise"},"geometry":{"type":"Polygon","coordinates":[[[-42.1564,-21.6241],[-42.1537,-21.6228],[-42.1564,-21.6241],[-42.1564,-21.6241]]]}},{"type":"Feature","properties":{"cod_imovel":"RJ-3300159-D8CCBB13DFEC4666848907A8EF0AD95B","num_area":"10.703700000000000000000000000000","ind_status":"AT","des_condic":"Aguardando analise"},"geometry":{"type":"Polygon","coordinates":[[[-42.0789,-21.6504],[-42.0791,-21.6537],[-42.0831,-21.6509],[-42.0798,-21.651],[-42.0789,-21.6504]]]}},{"type":"Feature","properties":{"cod_imovel":"RJ-3300159-DB6E930ABA6143B1ABDE4045DABC16E6","num_area":"16.322300000000000000000000000000","ind_status":"AT","des_condic":"Aguardando analise"},"geometry":{"type":"Polygon","coordinates":[[[-42.1492,-21.6174],[-42.1455,-21.6179],[-42.1535,-21.6204],[-42.1497,-21.6176],[-42.1492,-21.6174]]]}},{"type":"Feature","properties":{"cod_imovel":"RJ-3300159-EEC51CE4280D4410A2A89208D583D4D5","num_area":"9.7609000000000000000000000000000","ind_status":"AT","des_condic":"Aguardando analise"},"geometry":{"type":"Polygon","coordinates":[[[-42.1405,-21.6545],[-42.1411,-21.6481],[-42.1399,-21.6537],[-42.1405,-21.6545]]]}},{"type":"Feature","properties":{"cod_imovel":"RJ-3300159-D440DF7274C84FF0AD9EC39768BCFD37","num_area":"11.704500000000000000000000000000","ind_status":"AT","des_condic":"Aguardando analise"},"geometry":{"type":"Polygon","coordinates":[[[-42.1052,-21.6599],[-42.0989,-21.661],[-42.1053,-21.6599],[-42.1052,-21.6599]]]}},{"type":"Feature","properties":{"cod_imovel":"RJ-3300159-49F550D478A44DEC98C455412D970A95","num_area":"24.950000000000000000000000000000","ind_status":"AT","des_condic":"Aguardando analise"},"geometry":{"type":"Polygon","coordinates":[[[-42.1302,-21.6274],[-42.1281,-21.6301],[-42.1328,-21.6332],[-42.1311,-21.6261],[-42.1302,-21.6274]]]}},{"type":"Feature","properties":{"cod_imovel":"RJ-3300159-D5A116453B30448C86616347D5DBB687","num_area":"15.810800000000000000000000000000","ind_status":"AT","des_condic":"Aguardando analise"},"geometry":{"type":"Polygon","coordinates":[[[-42.1449,-21.6932],[-42.1473,-21.6874],[-42.145,-21.693],[-42.1449,-21.6932]]]}},{"type":"Feature","properties":{"cod_imovel":"RJ-3300159-18369B29A6174BBB9C5127D2B8728630","num_area":"21.924600000000000000000000000000","ind_status":"AT","des_condic":"Aguardando analise"},"geometry":{"type":"Polygon","coordinates":[[[-42.1083,-21.668],[-42.1177,-21.6682],[-42.1148,-21.6643],[-42.1092,-21.6666],[-42.1083,-21.668]]]}},{"type":"Feature","properties":{"cod_imovel":"RJ-3300159-71DB121AFE784008B1BC0498D1B32F17","num_area":"6.6693000000000000000000000000000","ind_status":"AT","des_condic":"Aguardando analise"},"geometry":{"type":"Polygon","coordinates":[[[-42.145,-21.6953],[-42.1427,-21.6928],[-42.145,-21.6956],[-42.145,-21.6953]]]}},{"type":"Feature","properties":{"cod_imovel":"RJ-3300159-A9E306B7F9CA4528887618007672E449","num_area":"4.7291000000000000000000000000000","ind_status":"AT","des_condic":"Aguardando analise"},"geometry":{"type":"Polygon","coordinates":[[[-42.0833,-21.6429],[-42.0834,-21.6466],[-42.084,-21.643],[-42.0833,-21.6429]]]}},{"type":"Feature","properties":{"cod_imovel":"RJ-3300159-38BCF12F9CD4494AB29FB0001C64BA4C","num_area":"45.917800000000000000000000000000","ind_status":"AT","des_condic":"Aguardando analise"},"geometry":{"type":"Polygon","coordinates":[[[-42.1381,-21.6078],[-42.1251,-21.6018],[-42.1371,-21.6087],[-42.1381,-21.6078]]]}},{"type":"Feature","properties":{"cod_imovel":"RJ-3300159-78A116C272C44EBF9C09B0FECAF708F5","num_area":"5.7005000000000000000000000000000","ind_status":"AT","des_condic":"Aguardando analise"},"geometry":{"type":"Polygon","coordinates":[[[-42.1122,-21.6234],[-42.1153,-21.6251],[-42.1124,-21.6234],[-42.1122,-21.6234]]]}},{"type":"Feature","properties":{"cod_imovel":"RJ-3300159-7621E511FB7546EBB7FB7C6B33A2A91B","num_area":"9.2249000000000000000000000000000","ind_status":"AT","des_condic":"Aguardando analise"},"geometry":{"type":"Polygon","coordinates":[[[-42.1074,-21.6427],[-42.1045,-21.6376],[-42.1073,-21.6427],[-42.1074,-21.6427]]]}},{"type":"Feature","properties":{"cod_imovel":"RJ-3300159-3B63F9FF89F642D4B11A198B77F75226","num_area":"7.5582000000000000000000000000000","ind_status":"AT","des_condic":"Aguardando analise"},"geometry":{"type":"Polygon","coordinates":[[[-42.1433,-21.6309],[-42.1409,-21.6285],[-42.1441,-21.6306],[-42.1433,-21.6309]]]}},{"type":"Feature","properties":{"cod_imovel":"RJ-3300159-E44EBDB045F543D5AA3130175B8ABD1B","num_area":"36.420600000000000000000000000000","ind_status":"AT","des_condic":"Aguardando analise"},"geometry":{"type":"Polygon","coordinates":[[[-42.129,-21.6837],[-42.1393,-21.6792],[-42.1318,-21.6762],[-42.1295,-21.682],[-42.129,-21.6837]]]}},{"type":"Feature","properties":{"cod_imovel":"RJ-3300159-DF9242378DDB49BD9E267F5889F61296","num_area":"8.3476000000000000000000000000000","ind_status":"AT","des_condic":"Aguardando analise"},"geometry":{"type":"Polygon","coordinates":[[[-42.1375,-21.6359],[-42.138,-21.6397],[-42.138,-21.6362],[-42.1375,-21.6359]]]}},{"type":"Feature","properties":{"cod_imovel":"RJ-3300159-42900FDC18054BADAB786CEA2E60A4DF","num_area":"4.5761000000000000000000000000000","ind_status":"AT","des_condic":"Aguardando analise"},"geometry":{"type":"Polygon","coordinates":[[[-42.1382,-21.6076],[-42.1369,-21.6046],[-42.1382,-21.6079],[-42.1382,-21.6076]]]}},{"type":"Feature","properties":{"cod_imovel":"RJ-3300159-26D5939EA5D8436A82ADF213FBCDA1F8","num_area":"13.243100000000000000000000000000","ind_status":"AT","des_condic":"Aguardando analise"},"geometry":{"type":"Polygon","coordinates":[[[-42.1639,-21.6326],[-42.1629,-21.6293],[-42.1593,-21.6316],[-42.1641,-21.6329],[-42.1639,-21.6326]]]}},{"type":"Feature","properties":{"cod_imovel":"RJ-3300159-EE9D89DE375346F4A543103B8507F97D","num_area":"10.624800000000000000000000000000","ind_status":"AT","des_condic":"Aguardando analise"},"geometry":{"type":"Polygon","coordinates":[[[-42.1225,-21.6207],[-42.1273,-21.6186],[-42.1219,-21.6184],[-42.1225,-21.6207]]]}},{"type":"Feature","properties":{"cod_imovel":"RJ-3300159-58BF0CA20B344CECB95938B94BDACFBC","num_area":"14.662500000000000000000000000000","ind_status":"AT","des_condic":"Aguardando analise"},"geometry":{"type":"Polygon","coordinates":[[[-42.1776,-21.6523],[-42.1825,-21.6513],[-42.1771,-21.6507],[-42.1776,-21.6523]]]}},{"type":"Feature","properties":{"cod_imovel":"RJ-3300159-88E73EC656924A43920127811966CC73","num_area":"5.8670000000000000000000000000000","ind_status":"AT","des_condic":"Aguardando analise"},"geometry":{"type":"Polygon","coordinates":[[[-42.1393,-21.6086],[-42.1336,-21.6097],[-42.1392,-21.6088],[-42.1393,-21.6086]]]}},{"type":"Feature","properties":{"cod_imovel":"RJ-3300159-0BFFABA4DC3646ADACA80395E1CECA5E","num_area":"11.053000000000000000000000000000","ind_status":"AT","des_condic":"Aguardando analise"},"geometry":{"type":"Polygon","coordinates":[[[-42.1369,-21.6574],[-42.1426,-21.6612],[-42.1377,-21.6574],[-42.1369,-21.6574]]]}},{"type":"Feature","properties":{"cod_imovel":"RJ-3300159-9122E0BE94334E4290C911865A3BFB44","num_area":"14.593000000000000000000000000000","ind_status":"AT","des_condic":"Aguardando analise"},"geometry":{"type":"Polygon","coordinates":[[[-42.1429,-21.6648],[-42.1378,-21.6638],[-42.1422,-21.6653],[-42.1429,-21.6648]]]}},{"type":"Feature","properties":{"cod_imovel":"RJ-3300159-995BA9A9D1194C3CA03DD1FFE8E8C9AB","num_area":"35.534800000000000000000000000000","ind_status":"AT","des_condic":"Aguardando analise"},"geometry":{"type":"Polygon","coordinates":[[[-42.1485,-21.6495],[-42.1452,-21.6569],[-42.1527,-21.6537],[-42.1494,-21.6503],[-42.1485,-21.6495]]]}},{"type":"Feature","properties":{"cod_imovel":"RJ-3300159-FE29545CC4E645829ADFF59C74FE0381","num_area":"29.516900000000000000000000000000","ind_status":"AT","des_condic":"Aguardando analise"},"geometry":{"type":"Polygon","coordinates":[[[-42.1467,-21.6117],[-42.1385,-21.6152],[-42.1434,-21.6171],[-42.1467,-21.6117],[-42.1467,-21.6117]]]}},{"type":"Feature","properties":{"cod_imovel":"RJ-3300159-68546F958AF245298D92A1D0DABD257D","num_area":"6.8202000000000000000000000000000","ind_status":"AT","des_condic":"Aguardando analise"},"geometry":{"type":"Polygon","coordinates":[[[-42.1429,-21.647],[-42.1435,-21.6504],[-42.1431,-21.6473],[-42.1429,-21.647]]]}},{"type":"Feature","properties":{"cod_imovel":"RJ-3300159-A2C84201A35C48EC9562751F531C6041","num_area":"5.5831000000000000000000000000000","ind_status":"AT","des_condic":"Aguardando analise"},"geometry":{"type":"Polygon","coordinates":[[[-42.153,-21.648],[-42.1558,-21.645],[-42.1525,-21.6482],[-42.153,-21.648]]]}},{"type":"Feature","properties":{"cod_imovel":"RJ-3300159-A592B156570749B9B4B661C3F3DF83C8","num_area":"11.302200000000000000000000000000","ind_status":"AT","des_condic":"Aguardando analise"},"geometry":{"type":"Polygon","coordinates":[[[-42.1516,-21.642],[-42.1482,-21.641],[-42.1519,-21.6428],[-42.1516,-21.642]]]}},{"type":"Feature","properties":{"cod_imovel":"RJ-3300159-ADEA34E5152F41B783D7C2E91CC48CBE","num_area":"10.234300000000000000000000000000","ind_status":"AT","des_condic":"Aguardando analise"},"geometry":{"type":"Polygon","coordinates":[[[-42.178,-21.665],[-42.1808,-21.6574],[-42.1759,-21.6637],[-42.178,-21.665]]]}},{"type":"Feature","properties":{"cod_imovel":"RJ-3300159-5A461F4757C14627918C62CDEB34B6D9","num_area":"13.153500000000000000000000000000","ind_status":"AT","des_condic":"Aguardando analise"},"geometry":{"type":"Polygon","coordinates":[[[-42.1249,-21.6855],[-42.1278,-21.69],[-42.125,-21.6854],[-42.1249,-21.6855]]]}},{"type":"Feature","properties":{"cod_imovel":"RJ-3300159-AF9E5BE1CE6E4C45813CCD5183AFBE90","num_area":"13.344100000000000000000000000000","ind_status":"AT","des_condic":"Aguardando analise"},"geometry":{"type":"Polygon","coordinates":[[[-42.1699,-21.6566],[-42.1755,-21.6543],[-42.1699,-21.6563],[-42.1699,-21.6566]]]}},{"type":"Feature","properties":{"cod_imovel":"RJ-3300159-AA78010E32434DC5B9F6854C8D3B275D","num_area":"135.61950000000000000000000000000","ind_status":"AT","des_condic":"Aguardando analise"},"geometry":{"type":"Polygon","coordinates":[[[-42.1755,-21.6588],[-42.1606,-21.6551],[-42.1577,-21.6743],[-42.1664,-21.6588],[-42.1752,-21.6607],[-42.1755,-21.6588]]]}},{"type":"Feature","properties":{"cod_imovel":"RJ-3300159-DE259E0FC91C4843AA0F2EC415B74F45","num_area":"13.962800000000000000000000000000","ind_status":"AT","des_condic":"Aguardando analise"},"geometry":{"type":"Polygon","coordinates":[[[-42.1337,-21.6848],[-42.1376,-21.6865],[-42.1335,-21.6809],[-42.1338,-21.6845],[-42.1337,-21.6848]]]}},{"type":"Feature","properties":{"cod_imovel":"RJ-3300159-519C42E32D0B4EB2878830A1618D448F","num_area":"32.674800000000000000000000000000","ind_status":"AT","des_condic":"Aguardando analise"},"geometry":{"type":"Polygon","coordinates":[[[-42.1693,-21.6343],[-42.1769,-21.6359],[-42.1742,-21.631],[-42.1692,-21.634],[-42.1693,-21.6343]]]}},{"type":"Feature","properties":{"cod_imovel":"RJ-3300159-5A3BEEF1189941FCA285C39F47325263","num_area":"15.290800000000000000000000000000","ind_status":"AT","des_condic":"Aguardando analise"},"geometry":{"type":"Polygon","coordinates":[[[-42.1366,-21.618],[-42.1423,-21.6189],[-42.1367,-21.6177],[-42.1366,-21.618]]]}},{"type":"Feature","properties":{"cod_imovel":"RJ-3300159-890181423FB846389F6193D94424A544","num_area":"46.990300000000000000000000000000","ind_status":"AT","des_condic":"Aguardando analise"},"geometry":{"type":"Polygon","coordinates":[[[-42.1613,-21.6558],[-42.1584,-21.6522],[-42.1613,-21.6558],[-42.1666,-21.6534],[-42.1532,-21.6512],[-42.1605,-21.6554],[-42.1613,-21.6558]],[[-42.1666,-21.6533],[-42.1647,-21.6496],[-42.1666,-21.6533],[-42.1666,-21.6533]]]}},{"type":"Feature","properties":{"cod_imovel":"RJ-3300159-974D46CB7A1E45FB8DE907BC6BC1C3D3","num_area":"17.524100000000000000000000000000","ind_status":"PE","des_condic":"Aguardando analise"},"geometry":{"type":"Polygon","coordinates":[[[-42.1467,-21.6365],[-42.153,-21.6395],[-42.1469,-21.6362],[-42.1467,-21.6365]],[[-42.1496,-21.6392],[-42.1467,-21.6365],[-42.1493,-21.64],[-42.1496,-21.6392]]]}},{"type":"Feature","properties":{"cod_imovel":"RJ-3300159-F204B234160E4917A81EE754EBAA40B7","num_area":"132.50510000000000000000000000000","ind_status":"AT","des_condic":"Aguardando analise"},"geometry":{"type":"Polygon","coordinates":[[[-42.1369,-21.6462],[-42.1389,-21.6519],[-42.1384,-21.645],[-42.1369,-21.6462]],[[-42.1411,-21.6307],[-42.1345,-21.63],[-42.1376,-21.6348],[-42.1412,-21.6312],[-42.1411,-21.6307]],[[-42.1382,-21.6364],[-42.1416,-21.641],[-42.1457,-21.636],[-42.1416,-21.6327],[-42.1379,-21.6361],[-42.1382,-21.6364]],[[-42.1418,-21.6464],[-42.1394,-21.6409],[-42.1418,-21.6465],[-42.1418,-21.6464]],[[-42.1439,-21.6428],[-42.148,-21.641],[-42.1464,-21.6361],[-42.1436,-21.6426],[-42.1439,-21.6428]]]}},{"type":"Feature","properties":{"cod_imovel":"RJ-3300159-D3BB20A3966A4238820817DAAA8D5499","num_area":"40.027900000000000000000000000000","ind_status":"AT","des_condic":"Aguardando analise"},"geometry":{"type":"Polygon","coordinates":[[[-42.1272,-21.6951],[-42.1264,-21.6903],[-42.1204,-21.6968],[-42.127,-21.6963],[-42.1272,-21.6951]],[[-42.1242,-21.6989],[-42.127,-21.6963],[-42.1245,-21.6987],[-42.1242,-21.6989]]]}},{"type":"Feature","properties":{"cod_imovel":"RJ-3300159-47B71E1D2A6942A4BA23C3958DD5D9C3","num_area":"9.1703000000000000000000000000000","ind_status":"AT","des_condic":"Aguardando analise"},"geometry":{"type":"Polygon","coordinates":[[[-42.0954,-21.6696],[-42.0996,-21.6659],[-42.0953,-21.6697],[-42.0954,-21.6696]]]}},{"type":"Feature","properties":{"cod_imovel":"RJ-3300159-7A0FD30FC1DF4A458E436BA0FA80FA84","num_area":"5.2312000000000000000000000000000","ind_status":"AT","des_condic":"Aguardando analise"},"geometry":{"type":"Polygon","coordinates":[[[-42.1461,-21.6345],[-42.1484,-21.631],[-42.146,-21.6344],[-42.1461,-21.6345]]]}},{"type":"Feature","properties":{"cod_imovel":"RJ-3300159-1DDA2E8313334962BFC07B9B11F37949","num_area":"9.7186000000000000000000000000000","ind_status":"AT","des_condic":"Aguardando analise"},"geometry":{"type":"Polygon","coordinates":[[[-42.1006,-21.6496],[-42.0988,-21.6521],[-42.1006,-21.6497],[-42.1006,-21.6496]]]}},{"type":"Feature","properties":{"cod_imovel":"RJ-3300159-DAF3C6D7AA764A8981A51217E37638AE","num_area":"13.349700000000000000000000000000","ind_status":"AT","des_condic":"Aguardando analise"},"geometry":{"type":"Polygon","coordinates":[[[-42.1709,-21.6335],[-42.1728,-21.6372],[-42.1701,-21.6345],[-42.1709,-21.6335]]]}},{"type":"Feature","properties":{"cod_imovel":"RJ-3300159-1D1DCA35EF1348D6A12F13AE618DD157","num_area":"27.221300000000000000000000000000","ind_status":"AT","des_condic":"Aguardando analise"},"geometry":{"type":"Polygon","coordinates":[[[-42.1686,-21.6337],[-42.1728,-21.6459],[-42.1687,-21.6338],[-42.1686,-21.6337]]]}},{"type":"Feature","properties":{"cod_imovel":"RJ-3300159-5B8311BCA3004DF198DA3966B2A95A8B","num_area":"22.933100000000000000000000000000","ind_status":"PE","des_condic":"Aguardando analise"},"geometry":{"type":"Polygon","coordinates":[[[-42.0964,-21.6269],[-42.0963,-21.635],[-42.1001,-21.636],[-42.0967,-21.6267],[-42.0964,-21.6269]]]}},{"type":"Feature","properties":{"cod_imovel":"RJ-3300159-10516704DE384EAC907C5BFA44730B37","num_area":"23.424600000000000000000000000000","ind_status":"AT","des_condic":"Aguardando analise"},"geometry":{"type":"Polygon","coordinates":[[[-42.1372,-21.6701],[-42.1335,-21.6706],[-42.1379,-21.6738],[-42.1372,-21.6701],[-42.1372,-21.6701]],[[-42.1335,-21.6706],[-42.1373,-21.668],[-42.1312,-21.6695],[-42.1335,-21.6706]]]}},{"type":"Feature","properties":{"cod_imovel":"RJ-3300159-0FE0A7485FEB44A59110C7D8370E51E7","num_area":"9.8938000000000000000000000000000","ind_status":"AT","des_condic":"Aguardando analise"},"geometry":{"type":"Polygon","coordinates":[[[-42.0743,-21.6418],[-42.0705,-21.6432],[-42.0739,-21.6466],[-42.0743,-21.6418],[-42.0743,-21.6418]]]}},{"type":"Feature","properties":{"cod_imovel":"RJ-3300159-00A6441CF0E8456FA4BC3EE1A0635B51","num_area":"152.58370000000000000000000000000","ind_status":"AT","des_condic":"Aguardando analise"},"geometry":{"type":"Polygon","coordinates":[[[-42.1335,-21.6463],[-42.1364,-21.6437],[-42.1334,-21.6473],[-42.1369,-21.6488],[-42.1363,-21.6381],[-42.126,-21.6326],[-42.1288,-21.6373],[-42.1227,-21.6464],[-42.1326,-21.6455],[-42.1335,-21.6463]],[[-42.1242,-21.6471],[-42.1244,-21.651],[-42.1244,-21.6472],[-42.1242,-21.6471]]]}},{"type":"Feature","properties":{"cod_imovel":"RJ-3300159-19F332763AF341D5B8F837394E5734DF","num_area":"21.872300000000000000000000000000","ind_status":"AT","des_condic":"Aguardando analise"},"geometry":{"type":"Polygon","coordinates":[[[-42.0853,-21.6438],[-42.0879,-21.6476],[-42.0866,-21.6405],[-42.0853,-21.6438],[-42.0853,-21.6438]]]}},{"type":"Feature","properties":{"cod_imovel":"RJ-3300159-27BE34AB15C5414CA1F6B08F837E99D4","num_area":"23.025400000000000000000000000000","ind_status":"AT","des_condic":"Aguardando analise"},"geometry":{"type":"Polygon","coordinates":[[[-42.1013,-21.6493],[-42.107,-21.6472],[-42.1013,-21.649],[-42.1013,-21.6493]],[[-42.107,-21.6473],[-42.1015,-21.651],[-42.1052,-21.6541],[-42.1073,-21.6479],[-42.107,-21.6473]]]}},{"type":"Feature","properties":{"cod_imovel":"RJ-3300159-493F9278C47443359A757D704D4D03BC","num_area":"8.9537000000000000000000000000000","ind_status":"AT","des_condic":"Aguardando analise"},"geometry":{"type":"Polygon","coordinates":[[[-42.1416,-21.6329],[-42.1452,-21.6354],[-42.1418,-21.6327],[-42.1416,-21.6329]]]}},{"type":"Feature","properties":{"cod_imovel":"RJ-3300159-19906D9175CE4F43B1DA8D571C848A67","num_area":"19.577300000000000000000000000000","ind_status":"AT","des_condic":"Aguardando analise"},"geometry":{"type":"Polygon","coordinates":[[[-42.1852,-21.6753],[-42.1917,-21.6716],[-42.1863,-21.6743],[-42.1852,-21.6753]],[[-42.19,-21.6725],[-42.1917,-21.6681],[-42.1901,-21.6718],[-42.19,-21.6725]]]}},{"type":"Feature","properties":{"cod_imovel":"RJ-3300159-1C1C3915F9E84494A75C97E4E5ABF323","num_area":"10.629700000000000000000000000000","ind_status":"AT","des_condic":"Aguardando analise"},"geometry":{"type":"Polygon","coordinates":[[[-42.0683,-21.6426],[-42.0631,-21.6414],[-42.0678,-21.6432],[-42.0683,-21.6426]],[[-42.0679,-21.6432],[-42.0721,-21.6419],[-42.0684,-21.6426],[-42.0679,-21.6432]]]}},{"type":"Feature","properties":{"cod_imovel":"RJ-3300159-1D4C70324A0C4576A9D73DC644A6B933","num_area":"23.773400000000000000000000000000","ind_status":"AT","des_condic":"Aguardando analise"},"geometry":{"type":"Polygon","coordinates":[[[-42.1735,-21.6872],[-42.1749,-21.6772],[-42.1729,-21.6868],[-42.1735,-21.6872]]]}},{"type":"Feature","properties":{"cod_imovel":"RJ-3300159-220FEA9E4D2242F08349E520698BF10F","num_area":"16.360800000000000000000000000000","ind_status":"AT","des_condic":"Aguardando analise"},"geometry":{"type":"Polygon","coordinates":[[[-42.0701,-21.6364],[-42.0665,-21.6366],[-42.0705,-21.6366],[-42.0701,-21.6364]],[[-42.0682,-21.6388],[-42.0722,-21.6397],[-42.0682,-21.6384],[-42.0682,-21.6388]]]}},{"type":"Feature","properties":{"cod_imovel":"RJ-3300159-22189C48538E4E84B236533687A41F07","num_area":"22.570500000000000000000000000000","ind_status":"AT","des_condic":"Aguardando analise"},"geometry":{"type":"Polygon","coordinates":[[[-42.1596,-21.6405],[-42.157,-21.6374],[-42.1542,-21.6404],[-42.1579,-21.6445],[-42.1597,-21.6405],[-42.1596,-21.6405]],[[-42.1597,-21.6428],[-42.1563,-21.6411],[-42.16,-21.6428],[-42.1597,-21.6428]]]}},{"type":"Feature","properties":{"cod_imovel":"RJ-3300159-2DA9EBDEF7DB4556B66EFBAB56A4B679","num_area":"6.2123000000000000000000000000000","ind_status":"AT","des_condic":"Aguardando analise"},"geometry":{"type":"Polygon","coordinates":[[[-42.0757,-21.6502],[-42.0791,-21.6466],[-42.0756,-21.6502],[-42.0757,-21.6502]]]}},{"type":"Feature","properties":{"cod_imovel":"RJ-3300159-2E2E154451EA472ABE638682DD0CC459","num_area":"15.037000000000000000000000000000","ind_status":"AT","des_condic":"Aguardando analise"},"geometry":{"type":"Polygon","coordinates":[[[-42.1588,-21.6554],[-42.1555,-21.6587],[-42.1587,-21.6558],[-42.1588,-21.6554]],[[-42.1557,-21.6567],[-42.1588,-21.655],[-42.1525,-21.6539],[-42.1557,-21.6566],[-42.1557,-21.6567]]]}},{"type":"Feature","properties":{"cod_imovel":"RJ-3300159-30F0F89857B747309D5CA2B14E50ABD1","num_area":"11.913300000000000000000000000000","ind_status":"AT","des_condic":"Aguardando analise"},"geometry":{"type":"Polygon","coordinates":[[[-42.1578,-21.6701],[-42.1552,-21.668],[-42.1577,-21.6701],[-42.1578,-21.6701]],[[-42.1551,-21.668],[-42.1576,-21.6727],[-42.1551,-21.668],[-42.1551,-21.668]]]}},{"type":"Feature","properties":{"cod_imovel":"RJ-3300159-31DC71D5DAC74B5BBF96EDC92265A464","num_area":"24.276000000000000000000000000000","ind_status":"AT","des_condic":"Aguardando analise"},"geometry":{"type":"Polygon","coordinates":[[[-42.1298,-21.6486],[-42.1379,-21.6518],[-42.1307,-21.6484],[-42.1298,-21.6486]]]}},{"type":"Feature","properties":{"cod_imovel":"RJ-3300159-32EA386D687A4EC6A1386A9A1CCC77ED","num_area":"11.285400000000000000000000000000","ind_status":"AT","des_condic":"Aguardando analise"},"geometry":{"type":"Polygon","coordinates":[[[-42.093,-21.6659],[-42.0957,-21.663],[-42.0921,-21.667],[-42.093,-21.6659]]]}},{"type":"Feature","properties":{"cod_imovel":"RJ-3300159-3CCC8C17605E4F2081833880BBC4FD94","num_area":"23.389900000000000000000000000000","ind_status":"AT","des_condic":"Aguardando analise"},"geometry":{"type":"Polygon","coordinates":[[[-42.115,-21.6562],[-42.1094,-21.6576],[-42.1158,-21.6599],[-42.1169,-21.6563],[-42.115,-21.6562]]]}},{"type":"Feature","properties":{"cod_imovel":"RJ-3300159-32EC405B1F434BCB9FB9F9DC1C16E663","num_area":"58.269200000000000000000000000000","ind_status":"AT","des_condic":"Aguardando analise"},"geometry":{"type":"Polygon","coordinates":[[[-42.0863,-21.6394],[-42.0889,-21.6295],[-42.0792,-21.6343],[-42.0871,-21.6312],[-42.0816,-21.6349],[-42.0861,-21.6398],[-42.0863,-21.6394]],[[-42.0793,-21.6345],[-42.0867,-21.6406],[-42.0793,-21.6345],[-42.0793,-21.6345]]]}},{"type":"Feature","properties":{"cod_imovel":"RJ-3300159-34421DF5AF34457AB2C565E273594F72","num_area":"11.885400000000000000000000000000","ind_status":"AT","des_condic":"Aguardando analise"},"geometry":{"type":"Polygon","coordinates":[[[-42.1313,-21.6877],[-42.1354,-21.6884],[-42.1313,-21.6877],[-42.1313,-21.6877]]]}},{"type":"Feature","properties":{"cod_imovel":"RJ-3300159-37011951CF794FB58411124D3C4B3F42","num_area":"10.886800000000000000000000000000","ind_status":"AT","des_condic":"Aguardando analise"},"geometry":{"type":"Polygon","coordinates":[[[-42.0736,-21.64],[-42.0713,-21.6371],[-42.0736,-21.64],[-42.0736,-21.64]]]}},{"type":"Feature","properties":{"cod_imovel":"RJ-3300159-378E108027F4402995D0EA1EF2CE2CC1","num_area":"10.149500000000000000000000000000","ind_status":"AT","des_condic":"Aguardando analise"},"geometry":{"type":"Polygon","coordinates":[[[-42.0952,-21.6698],[-42.0996,-21.6659],[-42.0951,-21.6697],[-42.0952,-21.6698]]]}},{"type":"Feature","properties":{"cod_imovel":"RJ-3300159-3F72C9D6534443BCBC17E79B5C641D71","num_area":"10.844300000000000000000000000000","ind_status":"AT","des_condic":"Aguardando analise"},"geometry":{"type":"Polygon","coordinates":[[[-42.0765,-21.6428],[-42.0799,-21.6443],[-42.0769,-21.6426],[-42.0765,-21.6428]]]}},{"type":"Feature","properties":{"cod_imovel":"RJ-3300159-42D9F0B95A4E41E1978AE63B90FF86F9","num_area":"32.416700000000000000000000000000","ind_status":"AT","des_condic":"Aguardando analise"},"geometry":{"type":"Polygon","coordinates":[[[-42.106,-21.6784],[-42.1093,-21.6806],[-42.1062,-21.6786],[-42.106,-21.6784]],[[-42.1145,-21.6751],[-42.116,-21.6716],[-42.106,-21.6783],[-42.1137,-21.6763],[-42.1145,-21.6751]]]}},{"type":"Feature","properties":{"cod_imovel":"RJ-3300159-47EAD42FA3CC48E594019BEB80DE1039","num_area":"38.152600000000000000000000000000","ind_status":"AT","des_condic":"Aguardando analise"},"geometry":{"type":"Polygon","coordinates":[[[-42.1776,-21.6649],[-42.1751,-21.6704],[-42.1799,-21.6707],[-42.1779,-21.6651],[-42.1776,-21.6649]],[[-42.1805,-21.6714],[-42.1837,-21.6636],[-42.1807,-21.6617],[-42.1803,-21.6712],[-42.1805,-21.6714]],[[-42.1822,-21.6672],[-42.1796,-21.6702],[-42.1784,-21.6655],[-42.1824,-21.6667],[-42.1822,-21.6672]]]}},{"type":"Feature","properties":{"cod_imovel":"RJ-3300159-4C142C7198874BA58BD754FC6886BD9F","num_area":"9.6147000000000000000000000000000","ind_status":"AT","des_condic":"Aguardando analise"},"geometry":{"type":"Polygon","coordinates":[[[-42.1424,-21.6604],[-42.1476,-21.6588],[-42.1424,-21.6604],[-42.1424,-21.6604]]]}},{"type":"Feature","properties":{"cod_imovel":"RJ-3300159-5085009F930048AEAACEB4C1027940E4","num_area":"11.731100000000000000000000000000","ind_status":"AT","des_condic":"Aguardando analise"},"geometry":{"type":"Polygon","coordinates":[[[-42.1893,-21.6349],[-42.186,-21.6339],[-42.1893,-21.6349],[-42.1893,-21.6349]],[[-42.1887,-21.6322],[-42.1858,-21.6346],[-42.1881,-21.6326],[-42.1887,-21.6322]]]}},{"type":"Feature","properties":{"cod_imovel":"RJ-3300159-520F1DBBCBB54C74856799EC561E5003","num_area":"20.870500000000000000000000000000","ind_status":"AT","des_condic":"Aguardando analise"},"geometry":{"type":"Polygon","coordinates":[[[-42.122,-21.6324],[-42.118,-21.6314],[-42.1188,-21.6358],[-42.1221,-21.6324],[-42.122,-21.6324]],[[-42.1219,-21.6327],[-42.1207,-21.6368],[-42.122,-21.6324],[-42.1219,-21.6327]]]}},{"type":"Feature","properties":{"cod_imovel":"RJ-3300159-5622A311430947E18B5B7F17458707E0","num_area":"11.687100000000000000000000000000","ind_status":"AT","des_condic":"Aguardando analise"},"geometry":{"type":"Polygon","coordinates":[[[-42.1321,-21.6996],[-42.1305,-21.7025],[-42.1321,-21.6998],[-42.1321,-21.6996]],[[-42.1322,-21.6937],[-42.1309,-21.6995],[-42.1327,-21.6936],[-42.1322,-21.6937]]]}},{"type":"Feature","properties":{"cod_imovel":"RJ-3300159-57926F761F2E431CB24641B216A4BEAC","num_area":"6.3694000000000000000000000000000","ind_status":"AT","des_condic":"Aguardando analise"},"geometry":{"type":"Polygon","coordinates":[[[-42.1205,-21.68],[-42.119,-21.6745],[-42.1199,-21.6806],[-42.1205,-21.68]]]}},{"type":"Feature","properties":{"cod_imovel":"RJ-3300159-57CF7051C0774D89A9318807AC1C42C2","num_area":"13.418000000000000000000000000000","ind_status":"AT","des_condic":"Aguardando analise"},"geometry":{"type":"Polygon","coordinates":[[[-42.1099,-21.6321],[-42.1047,-21.6296],[-42.1055,-21.6335],[-42.1099,-21.6321],[-42.1099,-21.6321]]]}},{"type":"Feature","properties":{"cod_imovel":"RJ-3300159-5C854605AB8F41A5A516EEB94EEDCF7F","num_area":"23.565900000000000000000000000000","ind_status":"AT","des_condic":"Aguardando analise"},"geometry":{"type":"Polygon","coordinates":[[[-42.1584,-21.65],[-42.1618,-21.6429],[-42.1587,-21.6496],[-42.1584,-21.65]]]}},{"type":"Feature","properties":{"cod_imovel":"RJ-3300159-63FF5E4EB1144B3A82BDF8AAED67E036","num_area":"11.198200000000000000000000000000","ind_status":"AT","des_condic":"Aguardando analise"},"geometry":{"type":"Polygon","coordinates":[[[-42.102,-21.6754],[-42.1058,-21.6786],[-42.1019,-21.6753],[-42.102,-21.6754]],[[-42.1068,-21.6758],[-42.1017,-21.675],[-42.1074,-21.6762],[-42.1068,-21.6758]]]}},{"type":"Feature","properties":{"cod_imovel":"RJ-3300159-66C7FBE9A62847C68F5B39A37BEC5F61","num_area":"2.7753000000000000000000000000000","ind_status":"AT","des_condic":"Aguardando analise"},"geometry":{"type":"Polygon","coordinates":[[[-42.0845,-21.6502],[-42.0814,-21.6492],[-42.0845,-21.6502],[-42.0845,-21.6502]],[[-42.0844,-21.6502],[-42.0807,-21.65],[-42.0844,-21.6503],[-42.0844,-21.6502]]]}},{"type":"Feature","properties":{"cod_imovel":"RJ-3300159-68BBC96810BA4A2087C6CBC2932A1C19","num_area":"12.122800000000000000000000000000","ind_status":"AT","des_condic":"Aguardando analise"},"geometry":{"type":"Polygon","coordinates":[[[-42.1922,-21.6586],[-42.1926,-21.6547],[-42.1919,-21.6582],[-42.1922,-21.6586]]]}},{"type":"Feature","properties":{"cod_imovel":"RJ-3300159-6CC26839337F47A2B3F327D69B656E4D","num_area":"23.047100000000000000000000000000","ind_status":"PE","des_condic":"Analisado, aguardando atendimento a notificacao"},"geometry":{"type":"Polygon","coordinates":[[[-42.0984,-21.6359],[-42.1016,-21.6315],[-42.0967,-21.6269],[-42.0969,-21.6314],[-42.0984,-21.6359]]]}},{"type":"Feature","properties":{"cod_imovel":"RJ-3300159-6CD05AD4E7654801B6E44A4A8EF3E81B","num_area":"62.471200000000000000000000000000","ind_status":"AT","des_condic":"Aguardando analise"},"geometry":{"type":"Polygon","coordinates":[[[-42.1335,-21.6145],[-42.1345,-21.6104],[-42.1284,-21.6128],[-42.1269,-21.6176],[-42.1347,-21.6173],[-42.1269,-21.6177],[-42.1278,-21.6224],[-42.1345,-21.6193],[-42.1335,-21.6145],[-42.1335,-21.6145]]]}},{"type":"Feature","properties":{"cod_imovel":"RJ-3300159-7386529C203B49759FEA211F676D46D0","num_area":"15.285600000000000000000000000000","ind_status":"AT","des_condic":"Aguardando analise"},"geometry":{"type":"Polygon","coordinates":[[[-42.1372,-21.6181],[-42.1424,-21.6188],[-42.1385,-21.6151],[-42.1372,-21.6181],[-42.1372,-21.6181]]]}},{"type":"Feature","properties":{"cod_imovel":"RJ-3300159-7AAE4BE54A7D4F2E8CF739EEBB589A69","num_area":"6.1197000000000000000000000000000","ind_status":"AT","des_condic":"Aguardando analise"},"geometry":{"type":"Polygon","coordinates":[[[-42.0924,-21.6585],[-42.0927,-21.6616],[-42.0924,-21.6585],[-42.0924,-21.6585]]]}},{"type":"Feature","properties":{"cod_imovel":"RJ-3300159-7D63E6ADA9E045BFA1E114F5835FD881","num_area":"4.4555000000000000000000000000000","ind_status":"AT","des_condic":"Aguardando analise"},"geometry":{"type":"Polygon","coordinates":[[[-42.075,-21.6497],[-42.0783,-21.6467],[-42.0742,-21.6493],[-42.075,-21.6497]]]}},{"type":"Feature","properties":{"cod_imovel":"RJ-3300159-7FB00B994EAD4CDEAB6BC6DA8015126E","num_area":"24.876100000000000000000000000000","ind_status":"AT","des_condic":"Aguardando analise"},"geometry":{"type":"Polygon","coordinates":[[[-42.1591,-21.6428],[-42.1514,-21.6402],[-42.159,-21.6428],[-42.1591,-21.6428]],[[-42.1528,-21.6432],[-42.1565,-21.6444],[-42.1518,-21.6427],[-42.1528,-21.6432]]]}},{"type":"Feature","properties":{"cod_imovel":"RJ-3300159-8E287D3BDF1E40A5B15E9074F8869511","num_area":"20.133300000000000000000000000000","ind_status":"AT","des_condic":"Aguardando analise"},"geometry":{"type":"Polygon","coordinates":[[[-42.1448,-21.6696],[-42.1407,-21.6714],[-42.1451,-21.6738],[-42.1448,-21.6696]]]}},{"type":"Feature","properties":{"cod_imovel":"RJ-3300159-90C5CCE6DD4841FF9F5087FF0D8BC66C","num_area":"8.0947000000000000000000000000000","ind_status":"AT","des_condic":"Aguardando analise"},"geometry":{"type":"Polygon","coordinates":[[[-42.1731,-21.636],[-42.1697,-21.6349],[-42.1731,-21.636],[-42.1731,-21.636]],[[-42.1736,-21.6347],[-42.1764,-21.6359],[-42.1736,-21.6347],[-42.1736,-21.6347]]]}},{"type":"Feature","properties":{"cod_imovel":"RJ-3300159-92E3D51F0C914A23A45422D746C86B7C","num_area":"6.5693000000000000000000000000000","ind_status":"AT","des_condic":"Aguardando analise"},"geometry":{"type":"Polygon","coordinates":[[[-42.1782,-21.683],[-42.1752,-21.6842],[-42.178,-21.6831],[-42.1782,-21.683]]]}},{"type":"Feature","properties":{"cod_imovel":"RJ-3300159-94623793F74349319622B4EF13461F34","num_area":"21.520400000000000000000000000000","ind_status":"AT","des_condic":"Aguardando analise"},"geometry":{"type":"Polygon","coordinates":[[[-42.1781,-21.6653],[-42.1748,-21.67],[-42.1806,-21.6715],[-42.1824,-21.6673],[-42.1782,-21.6655],[-42.1781,-21.6653]]]}},{"type":"Feature","properties":{"cod_imovel":"RJ-3300159-96F473F5D6774CDAB423D49D7B34D719","num_area":"4.9619000000000000000000000000000","ind_status":"AT","des_condic":"Aguardando analise"},"geometry":{"type":"Polygon","coordinates":[[[-42.1694,-21.6722],[-42.166,-21.6735],[-42.1696,-21.6727],[-42.1694,-21.6722]]]}},{"type":"Feature","properties":{"cod_imovel":"RJ-3300159-98C40F1874424132B5A7AE81145A6D93","num_area":"2.5989000000000000000000000000000","ind_status":"AT","des_condic":"Aguardando analise"},"geometry":{"type":"Polygon","coordinates":[[[-42.0743,-21.6489],[-42.0778,-21.6465],[-42.0745,-21.6488],[-42.0743,-21.6489]]]}},{"type":"Feature","properties":{"cod_imovel":"RJ-3300159-9EECAAD5F93F4507AA75011822C38528","num_area":"6.6768000000000000000000000000000","ind_status":"AT","des_condic":"Aguardando analise"},"geometry":{"type":"Polygon","coordinates":[[[-42.1142,-21.6173],[-42.1153,-21.6209],[-42.1144,-21.617],[-42.1142,-21.6173]]]}},{"type":"Feature","properties":{"cod_imovel":"RJ-3300159-A4CA0582C0CA48579DDA5692F4BB06C1","num_area":"52.855000000000000000000000000000","ind_status":"AT","des_condic":"Aguardando analise"},"geometry":{"type":"Polygon","coordinates":[[[-42.1247,-21.6119],[-42.1275,-21.6149],[-42.1346,-21.6103],[-42.1294,-21.6063],[-42.1248,-21.6117],[-42.1247,-21.6119]],[[-42.1249,-21.6103],[-42.1281,-21.6133],[-42.1248,-21.6103],[-42.1249,-21.6103]]]}},{"type":"Feature","properties":{"cod_imovel":"RJ-3300159-A6C3C793503E4AEE95D41E48316B6741","num_area":"22.977500000000000000000000000000","ind_status":"AT","des_condic":"Aguardando analise"},"geometry":{"type":"Polygon","coordinates":[[[-42.1837,-21.6746],[-42.1856,-21.6793],[-42.1846,-21.6733],[-42.1837,-21.6746]],[[-42.1856,-21.6794],[-42.182,-21.6819],[-42.1856,-21.6799],[-42.1856,-21.6794]],[[-42.1821,-21.6804],[-42.1837,-21.6746],[-42.1824,-21.6774],[-42.1821,-21.6804]]]}},{"type":"Feature","properties":{"cod_imovel":"RJ-3300159-A8C9C843FF044BEF88780825912E52C3","num_area":"12.501100000000000000000000000000","ind_status":"AT","des_condic":"Aguardando analise"},"geometry":{"type":"Polygon","coordinates":[[[-42.0797,-21.6422],[-42.0803,-21.6466],[-42.0799,-21.6422],[-42.0797,-21.6422]]]}},{"type":"Feature","properties":{"cod_imovel":"RJ-3300159-9F8A3200C36F4563A1DE4ABC9657294A","num_area":"14.998400000000000000000000000000","ind_status":"AT","des_condic":"Aguardando analise"},"geometry":{"type":"Polygon","coordinates":[[[-42.1431,-21.6503],[-42.1403,-21.6546],[-42.1437,-21.6555],[-42.1435,-21.6507],[-42.1431,-21.6503]]]}},{"type":"Feature","properties":{"cod_imovel":"RJ-3300159-AD0BE8D8BFAA403194DF9C9C08E82B8A","num_area":"22.109300000000000000000000000000","ind_status":"AT","des_condic":"Aguardando analise"},"geometry":{"type":"Polygon","coordinates":[[[-42.1304,-21.6717],[-42.1283,-21.6765],[-42.1342,-21.6764],[-42.1306,-21.6712],[-42.1304,-21.6717]],[[-42.1339,-21.6756],[-42.1296,-21.6764],[-42.1336,-21.6742],[-42.1339,-21.6756]]]}},{"type":"Feature","properties":{"cod_imovel":"RJ-3300159-AE06A441CE7F474980AB5DF43BB1DC4A","num_area":"12.338900000000000000000000000000","ind_status":"AT","des_condic":"Aguardando analise"},"geometry":{"type":"Polygon","coordinates":[[[-42.0991,-21.652],[-42.0953,-21.6548],[-42.099,-21.6522],[-42.0991,-21.652]]]}},{"type":"Feature","properties":{"cod_imovel":"RJ-3300159-B1C605DE21C64B9192805F5A3FE21632","num_area":"12.331000000000000000000000000000","ind_status":"AT","des_condic":"Aguardando analise"},"geometry":{"type":"Polygon","coordinates":[[[-42.1124,-21.6368],[-42.1123,-21.6318],[-42.1122,-21.6367],[-42.1124,-21.6368]],[[-42.1113,-21.6385],[-42.1106,-21.6349],[-42.1112,-21.6384],[-42.1113,-21.6385]]]}},{"type":"Feature","properties":{"cod_imovel":"RJ-3300159-BB0E729429D042678C93A9AC8DFF1501","num_area":"5.1920000000000000000000000000000","ind_status":"AT","des_condic":"Aguardando analise"},"geometry":{"type":"Polygon","coordinates":[[[-42.0774,-21.6386],[-42.0746,-21.6364],[-42.0782,-21.6396],[-42.0774,-21.6386]]]}},{"type":"Feature","properties":{"cod_imovel":"RJ-3300159-C4AFDA74E93345D393BC7F6674BE6B6D","num_area":"84.225200000000000000000000000000","ind_status":"AT","des_condic":"Aguardando analise"},"geometry":{"type":"Polygon","coordinates":[[[-42.1836,-21.6745],[-42.1876,-21.6677],[-42.1822,-21.6675],[-42.1787,-21.6828],[-42.1843,-21.6677],[-42.1834,-21.6726],[-42.1874,-21.6729],[-42.1836,-21.6742],[-42.1836,-21.6745]]]}},{"type":"Feature","properties":{"cod_imovel":"RJ-3300159-C9D4B0A127BC48F1A687E079A9C03F00","num_area":"34.426700000000000000000000000000","ind_status":"AT","des_condic":"Aguardando analise"},"geometry":{"type":"Polygon","coordinates":[[[-42.1241,-21.6026],[-42.1213,-21.6073],[-42.1248,-21.6103],[-42.1242,-21.6027],[-42.1241,-21.6026]],[[-42.1262,-21.6083],[-42.1243,-21.6027],[-42.1261,-21.6099],[-42.1262,-21.6083]]]}},{"type":"Feature","properties":{"cod_imovel":"RJ-3300159-CB1C62E865094EA297E900C66F664B97","num_area":"74.274500000000000000000000000000","ind_status":"AT","des_condic":"Aguardando analise"},"geometry":{"type":"Polygon","coordinates":[[[-42.1694,-21.6595],[-42.1681,-21.6631],[-42.1693,-21.6597],[-42.1694,-21.6595]],[[-42.1679,-21.6662],[-42.1683,-21.672],[-42.1748,-21.6683],[-42.1679,-21.6659],[-42.1679,-21.6662]],[[-42.175,-21.6665],[-42.1753,-21.6608],[-42.1695,-21.6595],[-42.1749,-21.6672],[-42.175,-21.6665]]]}},{"type":"Feature","properties":{"cod_imovel":"RJ-3300159-CD1839544E8B406D844F6C2F324788D2","num_area":"43.476000000000000000000000000000","ind_status":"AT","des_condic":"Aguardando analise"},"geometry":{"type":"Polygon","coordinates":[[[-42.1842,-21.668],[-42.1889,-21.6624],[-42.1842,-21.668],[-42.1842,-21.668]],[[-42.1889,-21.6623],[-42.1848,-21.6604],[-42.1823,-21.6672],[-42.1889,-21.6623],[-42.1889,-21.6623]]]}},{"type":"Feature","properties":{"cod_imovel":"RJ-3300159-D317A4DEC36643DB8C477832A0330045","num_area":"6.4919000000000000000000000000000","ind_status":"AT","des_condic":"Aguardando analise"},"geometry":{"type":"Polygon","coordinates":[[[-42.0839,-21.6583],[-42.0859,-21.6611],[-42.0838,-21.6578],[-42.0839,-21.6583]],[[-42.0861,-21.6599],[-42.0841,-21.6577],[-42.0861,-21.6603],[-42.0861,-21.6599]]]}},{"type":"Feature","properties":{"cod_imovel":"RJ-3300159-D9A2F60B049343F58875785742A9929C","num_area":"8.2632000000000000000000000000000","ind_status":"AT","des_condic":"Aguardando analise"},"geometry":{"type":"Polygon","coordinates":[[[-42.1788,-21.6814],[-42.1776,-21.6785],[-42.1788,-21.6816],[-42.1788,-21.6814]]]}},{"type":"Feature","properties":{"cod_imovel":"RJ-3300159-DC0B484BE94645DC858FD974098B174C","num_area":"18.054300000000000000000000000000","ind_status":"AT","des_condic":"Aguardando analise"},"geometry":{"type":"Polygon","coordinates":[[[-42.1752,-21.6641],[-42.1749,-21.6682],[-42.1753,-21.6623],[-42.1752,-21.6641]],[[-42.176,-21.6636],[-42.1796,-21.6574],[-42.1754,-21.6627],[-42.176,-21.6636]]]}},{"type":"Feature","properties":{"cod_imovel":"RJ-3300159-DDC59D13152A4569A3B50E1514552423","num_area":"54.387200000000000000000000000000","ind_status":"AT","des_condic":"Aguardando analise"},"geometry":{"type":"Polygon","coordinates":[[[-42.1208,-21.637],[-42.1145,-21.6328],[-42.1148,-21.6404],[-42.1183,-21.6421],[-42.1208,-21.6376],[-42.1208,-21.637]]]}},{"type":"Feature","properties":{"cod_imovel":"RJ-3300159-E96C513AEF54424BA34DD69D843797C4","num_area":"5.7986000000000000000000000000000","ind_status":"AT","des_condic":"Aguardando analise"},"geometry":{"type":"Polygon","coordinates":[[[-42.0762,-21.6369],[-42.0793,-21.6392],[-42.0762,-21.6369],[-42.0762,-21.6369]]]}},{"type":"Feature","properties":{"cod_imovel":"RJ-3300159-E9A38D76B6DE443795661D47DF3B657F","num_area":"8.7122000000000000000000000000000","ind_status":"AT","des_condic":"Aguardando analise"},"geometry":{"type":"Polygon","coordinates":[[[-42.1285,-21.6735],[-42.1259,-21.6772],[-42.1285,-21.6734],[-42.1285,-21.6735]]]}},{"type":"Feature","properties":{"cod_imovel":"RJ-3300159-ED760213127245978A671E0A6CA22E0F","num_area":"5.7314000000000000000000000000000","ind_status":"AT","des_condic":"Aguardando analise"},"geometry":{"type":"Polygon","coordinates":[[[-42.0821,-21.6433],[-42.0817,-21.6473],[-42.0821,-21.6433],[-42.0821,-21.6433]]]}},{"type":"Feature","properties":{"cod_imovel":"RJ-3300159-EDA249E940E9480495CC3EEB799E24E5","num_area":"19.753700000000000000000000000000","ind_status":"AT","des_condic":"Aguardando analise"},"geometry":{"type":"Polygon","coordinates":[[[-42.1395,-21.6206],[-42.132,-21.6162],[-42.1391,-21.6205],[-42.1395,-21.6206]]]}},{"type":"Feature","properties":{"cod_imovel":"RJ-3300159-EE53FF7EED1B49BC83082387B0E62A26","num_area":"6.5358000000000000000000000000000","ind_status":"AT","des_condic":"Aguardando analise"},"geometry":{"type":"Polygon","coordinates":[[[-42.1166,-21.6198],[-42.1162,-21.6154],[-42.1163,-21.62],[-42.1166,-21.6198]]]}},{"type":"Feature","properties":{"cod_imovel":"RJ-3300159-EF0D035A785C49E9AFC82A66035AE679","num_area":"7.2412000000000000000000000000000","ind_status":"AT","des_condic":"Aguardando analise"},"geometry":{"type":"Polygon","coordinates":[[[-42.1433,-21.6317],[-42.1453,-21.6354],[-42.1426,-21.6321],[-42.1433,-21.6317]]]}},{"type":"Feature","properties":{"cod_imovel":"RJ-3300159-EF858A1C6CCD472EB8C009D666F55C95","num_area":"14.776400000000000000000000000000","ind_status":"AT","des_condic":"Aguardando analise"},"geometry":{"type":"Polygon","coordinates":[[[-42.1217,-21.6954],[-42.126,-21.6898],[-42.1212,-21.696],[-42.1217,-21.6954]]]}},{"type":"Feature","properties":{"cod_imovel":"RJ-3300159-F1BA4855A86946E5A56E6941CEF069CC","num_area":"19.750500000000000000000000000000","ind_status":"AT","des_condic":"Aguardando analise"},"geometry":{"type":"Polygon","coordinates":[[[-42.1398,-21.6207],[-42.1324,-21.6188],[-42.1327,-21.6222],[-42.1398,-21.6207],[-42.1398,-21.6207]]]}}]}