{"type":"FeatureCollection","features":[{"type":"Feature","properties":{"cod_imovel":"RJ-3300704-9771BC85180D42EE93E32D4FE929A7F1","num_area":"10.267200000000000000000000000000","ind_status":"AT","des_condic":"Em analise"},"geometry":{"type":"Polygon","coordinates":[[[-41.993,-22.8217],[-41.9873,-22.8275],[-41.993,-22.8218],[-41.993,-22.8217]]]}},{"type":"Feature","properties":{"cod_imovel":"RJ-3300704-AF971A33F39A4AD985B3BEED68DAC360","num_area":"1369.6789000000000000000000000000","ind_status":"PE","des_condic":"Analisado, aguardando atendimento a notificacao"},"geometry":{"type":"Polygon","coordinates":[[[-42.1288,-22.6382],[-42.134,-22.6304],[-42.1208,-22.6293],[-42.1233,-22.6174],[-42.1162,-22.613],[-42.1098,-22.5968],[-42.1027,-22.6011],[-42.0786,-22.6012],[-42.0836,-22.6202],[-42.102,-22.6285],[-42.105,-22.6398],[-42.1229,-22.6475],[-42.128,-22.64],[-42.1288,-22.6382]],[[-42.1144,-22.6176],[-42.1127,-22.6206],[-42.1141,-22.6171],[-42.1144,-22.6176]],[[-42.1118,-22.6231],[-42.1086,-22.6206],[-42.1127,-22.6212],[-42.1114,-22.6249],[-42.1118,-22.6231]],[[-42.1177,-22.6294],[-42.1181,-22.6246],[-42.1176,-22.6287],[-42.1177,-22.6294]],[[-42.1074,-22.613],[-42.1044,-22.6108],[-42.1074,-22.6126],[-42.1074,-22.613]],[[-42.0979,-22.6227],[-42.0964,-22.6191],[-42.0983,-22.6229],[-42.0979,-22.6227]],[[-42.1052,-22.6212],[-42.101,-22.6201],[-42.1005,-22.6118],[-42.1088,-22.6171],[-42.1053,-22.6213],[-42.1052,-22.6212]],[[-42.0918,-22.6103],[-42.085,-22.6155],[-42.0823,-22.6023],[-42.0916,-22.6105],[-42.0918,-22.6103]],[[-42.1231,-22.6476],[-42.1259,-22.6499],[-42.1309,-22.6441],[-42.1289,-22.6384],[-42.1231,-22.6475],[-42.1231,-22.6476]]]}},{"type":"Feature","properties":{"cod_imovel":"RJ-3300704-323E2DF22FA6417180EAA7494356E8C2","num_area":"19.835000000000000000000000000000","ind_status":"AT","des_condic":"Em analise"},"geometry":{"type":"Polygon","coordinates":[[[-42.0376,-22.6877],[-42.0311,-22.6832],[-42.0374,-22.6885],[-42.0376,-22.6877]]]}},{"type":"Feature","properties":{"cod_imovel":"RJ-3300704-CB05EC3C6A664EC0ADAD940CCC461DF7","num_area":"891.82410000000000000000000000000","ind_status":"AT","des_condic":"Em analise"},"geometry":{"type":"Polygon","coordinates":[[[-42.0022,-22.7421],[-42.0057,-22.7447],[-42.0023,-22.7567],[-42.0215,-22.7714],[-42.0233,-22.7329],[-42.0082,-22.7222],[-42.0026,-22.7236],[-42.0048,-22.7339],[-41.9966,-22.738],[-42.0008,-22.7411],[-42.0022,-22.7421]],[[-42.0208,-22.7521],[-42.0277,-22.7419],[-42.0233,-22.7329],[-42.0209,-22.7515],[-42.0208,-22.7521]]]}},{"type":"Feature","properties":{"cod_imovel":"RJ-3300704-2E47F7CDC92D4EDEBC9D87ABD9256652","num_area":"215.64740000000000000000000000000","ind_status":"AT","des_condic":"Em analise"},"geometry":{"type":"Polygon","coordinates":[[[-42.0971,-22.6446],[-42.1049,-22.6399],[-42.099,-22.6384],[-42.0971,-22.6446]],[[-42.105,-22.6398],[-42.1021,-22.6286],[-42.091,-22.6231],[-42.0906,-22.6355],[-42.1045,-22.6396],[-42.105,-22.6398]]]}},{"type":"Feature","properties":{"cod_imovel":"RJ-3300704-1B3DD209C2AC40E593284DA69AEBE956","num_area":"610.28660000000000000000000000000","ind_status":"AT","des_condic":"Analisado, aguardando atendimento a notificacao"},"geometry":{"type":"Polygon","coordinates":[[[-42.0512,-22.6341],[-42.0234,-22.6362],[-42.0237,-22.6465],[-42.0344,-22.6466],[-42.0358,-22.6428],[-42.0357,-22.6466],[-42.0757,-22.6442],[-42.0756,-22.6367],[-42.0513,-22.6341],[-42.0512,-22.6341]]]}},{"type":"Feature","properties":{"cod_imovel":"RJ-3300704-B307EC5A916B4C2E9AD1F063B81E4EAB","num_area":"96.067700000000000000000000000000","ind_status":"PE","des_condic":"Analisado, aguardando atendimento a notificacao"},"geometry":{"type":"Polygon","coordinates":[[[-42.029,-22.7155],[-42.0397,-22.7106],[-42.0269,-22.7135],[-42.029,-22.7155]],[[-42.0307,-22.723],[-42.0358,-22.7201],[-42.0334,-22.7171],[-42.0307,-22.723]],[[-42.0361,-22.7196],[-42.0343,-22.7153],[-42.0352,-22.7191],[-42.0361,-22.7196]],[[-42.0236,-22.7163],[-42.0267,-22.7181],[-42.0237,-22.7162],[-42.0236,-22.7163]]]}},{"type":"Feature","properties":{"cod_imovel":"RJ-3300704-D35E0794651C414BA6DD89FD5A24200A","num_area":"12.738600000000000000000000000000","ind_status":"AT","des_condic":"Analisado, aguardando atendimento a notificacao"},"geometry":{"type":"Polygon","coordinates":[[[-42.0504,-22.7327],[-42.0505,-22.7286],[-42.0488,-22.7336],[-42.0504,-22.7327]]]}},{"type":"Feature","properties":{"cod_imovel":"RJ-3300704-88A053ADE1D34396845E71DF0D07ED61","num_area":"24.607400000000000000000000000000","ind_status":"AT","des_condic":"Analisado, aguardando atendimento a notificacao"},"geometry":{"type":"Polygon","coordinates":[[[-42.0974,-22.6591],[-42.1065,-22.6625],[-42.1069,-22.6589],[-42.0982,-22.658],[-42.0974,-22.6591]]]}},{"type":"Feature","properties":{"cod_imovel":"RJ-3300704-E3376F2461F040B1957E4AEDDB8C1497","num_area":"86.477600000000000000000000000000","ind_status":"AT","des_condic":"Aguardando analise"},"geometry":{"type":"Polygon","coordinates":[[[-42.0001,-22.7359],[-42.0103,-22.7433],[-42.0104,-22.733],[-42.0045,-22.7309],[-42.0005,-22.7358],[-42.0001,-22.7359]]]}},{"type":"Feature","properties":{"cod_imovel":"RJ-3300704-ABB7C89C239F41709069C0E4820AEE7B","num_area":"9.3775000000000000000000000000000","ind_status":"AT","des_condic":"Analisado, aguardando atendimento a notificacao"},"geometry":{"type":"Polygon","coordinates":[[[-42.1009,-22.6593],[-42.0972,-22.6594],[-42.1007,-22.6593],[-42.1009,-22.6593]]]}},{"type":"Feature","properties":{"cod_imovel":"RJ-3300704-A0C59030B41D4761A3CE6D6700FB5EE1","num_area":"44.249200000000000000000000000000","ind_status":"PE","des_condic":"Aguardando analise, apos revisao ou atendimento da notificacao"},"geometry":{"type":"Polygon","coordinates":[[[-42.0569,-22.6807],[-42.0473,-22.6794],[-42.0484,-22.6879],[-42.0565,-22.6817],[-42.0569,-22.6807]]]}},{"type":"Feature","properties":{"cod_imovel":"RJ-3300704-31B5B96F0E0445C6A67D04F9B11897E8","num_area":"89.929300000000000000000000000000","ind_status":"AT","des_condic":"Em analise"},"geometry":{"type":"Polygon","coordinates":[[[-42.0949,-22.6376],[-42.0885,-22.6373],[-42.0882,-22.6456],[-42.0969,-22.6446],[-42.0991,-22.6385],[-42.0956,-22.6376],[-42.0949,-22.6376]]]}},{"type":"Feature","properties":{"cod_imovel":"RJ-3300704-E80CBD533AD4471DBDEAD9EB7B9004B8","num_area":"628.24250000000000000000000000000","ind_status":"PE","des_condic":"Analisado, aguardando atendimento a notificacao"},"geometry":{"type":"Polygon","coordinates":[[[-42.08,-22.5753],[-42.074,-22.602],[-42.0825,-22.6161],[-42.0756,-22.5963],[-42.0833,-22.599],[-42.0768,-22.5985],[-42.0787,-22.6012],[-42.1075,-22.5982],[-42.0942,-22.5945],[-42.089,-22.5857],[-42.0921,-22.5807],[-42.099,-22.5878],[-42.099,-22.5949],[-42.1013,-22.5887],[-42.1098,-22.5968],[-42.0977,-22.5763],[-42.0902,-22.573],[-42.0925,-22.5772],[-42.0804,-22.5797],[-42.0807,-22.5752],[-42.08,-22.5753]],[[-42.1003,-22.601],[-42.0975,-22.5974],[-42.1018,-22.601],[-42.1003,-22.601]]]}},{"type":"Feature","properties":{"cod_imovel":"RJ-3300704-0E405D507E0A4252AB4B0F4060BA7B38","num_area":"1013.5843000000000000000000000000","ind_status":"AT","des_condic":"Em analise"},"geometry":{"type":"Polygon","coordinates":[[[-42.1291,-22.6393],[-42.1345,-22.6417],[-42.1291,-22.6393],[-42.1291,-22.6393]],[[-42.1345,-22.6416],[-42.1369,-22.6381],[-42.1469,-22.6449],[-42.1523,-22.6352],[-42.1549,-22.6384],[-42.1615,-22.6355],[-42.1718,-22.6213],[-42.1447,-22.615],[-42.1292,-22.6392],[-42.1344,-22.6414],[-42.1345,-22.6416]],[[-42.1556,-22.6305],[-42.1585,-22.6316],[-42.1553,-22.6318],[-42.1556,-22.6305]],[[-42.159,-22.6218],[-42.1676,-22.6188],[-42.1602,-22.6228],[-42.159,-22.6218]],[[-42.1446,-22.6148],[-42.1375,-22.6098],[-42.1168,-22.6132],[-42.1324,-22.622],[-42.134,-22.6304],[-42.1442,-22.6153],[-42.1446,-22.6148]]]}},{"type":"Feature","properties":{"cod_imovel":"RJ-3300704-A533D3A5EC4F4138A7CC3B52043EBEE7","num_area":"1009.4005000000000000000000000000","ind_status":"AT","des_condic":"Em analise"},"geometry":{"type":"Polygon","coordinates":[[[-42.0256,-22.6991],[-42.0419,-22.7003],[-42.0472,-22.688],[-42.0199,-22.6862],[-42.0133,-22.6744],[-42.0141,-22.6564],[-42.0047,-22.6561],[-42.0075,-22.6822],[-42.0114,-22.6762],[-42.0075,-22.6823],[-42.011,-22.6979],[-42.0256,-22.6991]],[[-42.0103,-22.6865],[-42.0102,-22.683],[-42.0103,-22.6865],[-42.0103,-22.6865]],[[-42.0206,-22.6819],[-42.025,-22.6563],[-42.0149,-22.6562],[-42.0157,-22.6824],[-42.0203,-22.6818],[-42.0206,-22.6819]],[[-42.0179,-22.6621],[-42.0202,-22.66],[-42.0179,-22.6621],[-42.0179,-22.6621]]]}},{"type":"Feature","properties":{"cod_imovel":"RJ-3300704-D62AF994A07B42E8AEF514CEA61DDFD0","num_area":"28.016900000000000000000000000000","ind_status":"AT","des_condic":"Aguardando analise"},"geometry":{"type":"Polygon","coordinates":[[[-42.0282,-22.6953],[-42.0341,-22.6983],[-42.0359,-22.6943],[-42.0296,-22.6925],[-42.0282,-22.6953]]]}},{"type":"Feature","properties":{"cod_imovel":"RJ-3300704-64FE18DC9AF74258AFE7A62F926EA2ED","num_area":"20.584900000000000000000000000000","ind_status":"PE","des_condic":"Analisado, aguardando atendimento a notificacao"},"geometry":{"type":"Polygon","coordinates":[[[-42.0025,-22.8116],[-41.9963,-22.8203],[-42.0025,-22.8116],[-42.0025,-22.8116]],[[-42.0069,-22.8077],[-42.0059,-22.812],[-42.007,-22.8083],[-42.0069,-22.8077]]]}},{"type":"Feature","properties":{"cod_imovel":"RJ-3300704-BF27670B7F0A4AE49AB37AA47D68781D","num_area":"36.291600000000000000000000000000","ind_status":"PE","des_condic":"Analisado, aguardando atendimento a notificacao"},"geometry":{"type":"Polygon","coordinates":[[[-42.0436,-22.6568],[-42.0529,-22.6568],[-42.0529,-22.6534],[-42.0432,-22.6535],[-42.0436,-22.6568]]]}},{"type":"Feature","properties":{"cod_imovel":"RJ-3300704-C69AB0C8BBCC440DA453259E3C547A28","num_area":"47.169800000000000000000000000000","ind_status":"PE","des_condic":"Analisado, aguardando atendimento a notificacao"},"geometry":{"type":"Polygon","coordinates":[[[-42.0583,-22.6754],[-42.0464,-22.676],[-42.0469,-22.6793],[-42.0573,-22.6794],[-42.0583,-22.6756],[-42.0583,-22.6754]]]}},{"type":"Feature","properties":{"cod_imovel":"RJ-3300704-C65989F89A3741858A9DF9448A471EAA","num_area":"4.5358000000000000000000000000000","ind_status":"AT","des_condic":"Aguardando analise"},"geometry":{"type":"Polygon","coordinates":[[[-42.0208,-22.583],[-42.0179,-22.5787],[-42.0208,-22.583],[-42.0208,-22.583]]]}},{"type":"Feature","properties":{"cod_imovel":"RJ-3300704-4BC98664CC7C423D80F2EED4B4875BA6","num_area":"22.410000000000000000000000000000","ind_status":"AT","des_condic":"Aguardando analise"},"geometry":{"type":"Polygon","coordinates":[[[-42.0874,-22.662],[-42.084,-22.659],[-42.0821,-22.6651],[-42.0867,-22.6626],[-42.0874,-22.662]]]}},{"type":"Feature","properties":{"cod_imovel":"RJ-3300704-BE64D455FFC5443BBE1EDB9B20409732","num_area":"36.095800000000000000000000000000","ind_status":"PE","des_condic":"Analisado, aguardando atendimento a notificacao"},"geometry":{"type":"Polygon","coordinates":[[[-42.0236,-22.6412],[-42.0234,-22.636],[-42.015,-22.6376],[-42.0147,-22.6419],[-42.0236,-22.6412]],[[-42.0178,-22.6411],[-42.0153,-22.6376],[-42.0177,-22.6405],[-42.0178,-22.6411]]]}},{"type":"Feature","properties":{"cod_imovel":"RJ-3300704-757C9AA3E3BF41D68E77B8B0B46668DA","num_area":"66.534700000000000000000000000000","ind_status":"PE","des_condic":"Analisado, aguardando atendimento a notificacao"},"geometry":{"type":"Polygon","coordinates":[[[-42.0105,-22.8128],[-42.0014,-22.7959],[-41.9983,-22.7999],[-42.0039,-22.8087],[-42.0065,-22.8064],[-42.0105,-22.8128]],[[-42.0014,-22.7958],[-41.9983,-22.7999],[-42.0013,-22.7959],[-42.0014,-22.7958]]]}},{"type":"Feature","properties":{"cod_imovel":"RJ-3300704-911E0A20805541158EAF33338ED5F017","num_area":"14.704700000000000000000000000000","ind_status":"PE","des_condic":"Analisado, aguardando atendimento a notificacao"},"geometry":{"type":"Polygon","coordinates":[[[-42.023,-22.7268],[-42.0131,-22.7256],[-42.0232,-22.7287],[-42.023,-22.7268]]]}},{"type":"Feature","properties":{"cod_imovel":"RJ-3300704-FCB6EAA3982947299049885798CA6677","num_area":"8.9320000000000000000000000000000","ind_status":"PE","des_condic":"Analisado, aguardando atendimento a notificacao"},"geometry":{"type":"Polygon","coordinates":[[[-42.0199,-22.7889],[-42.0222,-22.7928],[-42.0202,-22.7889],[-42.0199,-22.7889]]]}},{"type":"Feature","properties":{"cod_imovel":"RJ-3300704-4C16ED783E3F4C1D874A7CA094D7DE35","num_area":"31.546500000000000000000000000000","ind_status":"AT","des_condic":"Aguardando analise"},"geometry":{"type":"Polygon","coordinates":[[[-42.0124,-22.7749],[-42.0234,-22.7782],[-42.0136,-22.7723],[-42.0124,-22.7749]]]}},{"type":"Feature","properties":{"cod_imovel":"RJ-3300704-9FB72CF251014906AAAF85C615007860","num_area":"7.8388000000000000000000000000000","ind_status":"AT","des_condic":"Aguardando analise"},"geometry":{"type":"Polygon","coordinates":[[[-42.0996,-22.683],[-42.1024,-22.681],[-42.099,-22.6825],[-42.0996,-22.683]]]}},{"type":"Feature","properties":{"cod_imovel":"RJ-3300704-CAE1ED1AB142454DA26210375F8BA5DB","num_area":"25.860900000000000000000000000000","ind_status":"AT","des_condic":"Aguardando analise"},"geometry":{"type":"Polygon","coordinates":[[[-42.0307,-22.6536],[-42.0402,-22.6559],[-42.0303,-22.6536],[-42.0307,-22.6536]]]}},{"type":"Feature","properties":{"cod_imovel":"RJ-3300704-9443E98A925C4FA2AA4971044148ECC4","num_area":"19.442300000000000000000000000000","ind_status":"AT","des_condic":"Aguardando analise"},"geometry":{"type":"Polygon","coordinates":[[[-42.0702,-22.6666],[-42.0628,-22.6677],[-42.0702,-22.6666],[-42.0702,-22.6666]]]}},{"type":"Feature","properties":{"cod_imovel":"RJ-3300704-8E00ACFA595D42538ACD525331E0116F","num_area":"165.98020000000000000000000000000","ind_status":"AT","des_condic":"Aguardando analise"},"geometry":{"type":"Polygon","coordinates":[[[-42.1257,-22.5657],[-42.1334,-22.5823],[-42.1393,-22.577],[-42.1346,-22.5846],[-42.1422,-22.5834],[-42.1408,-22.5801],[-42.1368,-22.5843],[-42.1408,-22.58],[-42.1347,-22.5673],[-42.1258,-22.5657],[-42.1257,-22.5657]]]}},{"type":"Feature","properties":{"cod_imovel":"RJ-3300704-421B6D9AB3BC42E48B6DD9291B38FF92","num_area":"297.10600000000000000000000000000","ind_status":"AT","des_condic":"Aguardando analise"},"geometry":{"type":"Polygon","coordinates":[[[-42.1413,-22.5576],[-42.1207,-22.5574],[-42.1356,-22.5659],[-42.1427,-22.5644],[-42.1419,-22.5599],[-42.1413,-22.5576]],[[-42.1326,-22.5558],[-42.1487,-22.5563],[-42.1408,-22.5482],[-42.1468,-22.5413],[-42.1337,-22.5433],[-42.1341,-22.5551],[-42.1326,-22.5558]]]}},{"type":"Feature","properties":{"cod_imovel":"RJ-3300704-8CA8D0F3A5A84BEFB5408E62D5BB97F0","num_area":"3569.5219000000000000000000000000","ind_status":"AT","des_condic":"Em analise"},"geometry":{"type":"Polygon","coordinates":[[[-42.0693,-22.57],[-42.0617,-22.5732],[-42.0572,-22.568],[-42.0605,-22.569],[-42.0604,-22.565],[-42.0493,-22.5615],[-42.0402,-22.5689],[-42.0348,-22.5601],[-42.0294,-22.5714],[-42.0214,-22.5688],[-42.0209,-22.5831],[-42.0303,-22.5902],[-42.0192,-22.5927],[-42.0225,-22.6078],[-42.0504,-22.6249],[-42.0533,-22.6364],[-42.0903,-22.6374],[-42.0735,-22.6022],[-42.08,-22.5788],[-42.0716,-22.5723],[-42.0693,-22.57]],[[-42.0549,-22.6276],[-42.0583,-22.6249],[-42.0635,-22.6286],[-42.0591,-22.6357],[-42.0666,-22.6343],[-42.0584,-22.6361],[-42.0549,-22.6276],[-42.0549,-22.6276]],[[-42.0535,-22.6139],[-42.0508,-22.6104],[-42.0536,-22.6144],[-42.0535,-22.6139]],[[-42.0217,-22.6044],[-42.0254,-22.6056],[-42.0225,-22.6079],[-42.0217,-22.6044]],[[-42.0247,-22.6073],[-42.0258,-22.6108],[-42.0246,-22.6074],[-42.0247,-22.6073]],[[-42.056,-22.6082],[-42.0489,-22.6117],[-42.0464,-22.6068],[-42.056,-22.6081],[-42.056,-22.6082]],[[-42.0704,-22.5761],[-42.0736,-22.5763],[-42.0706,-22.5762],[-42.0704,-22.5761]],[[-42.0674,-22.5915],[-42.0699,-22.5895],[-42.0675,-22.5919],[-42.0674,-22.5915]],[[-42.0362,-22.5811],[-42.0394,-22.58],[-42.0363,-22.5813],[-42.0362,-22.5811]],[[-42.0472,-22.5691],[-42.0507,-22.5696],[-42.047,-22.5694],[-42.0472,-22.5691]],[[-42.0434,-22.5788],[-42.0394,-22.5808],[-42.0426,-22.5782],[-42.0434,-22.5788]],[[-42.0437,-22.5787],[-42.0471,-22.5782],[-42.0421,-22.5816],[-42.0437,-22.5787]],[[-42.0433,-22.5733],[-42.0463,-22.5735],[-42.0431,-22.5738],[-42.0433,-22.5733]],[[-42.0781,-22.5756],[-42.0742,-22.5719],[-42.0763,-22.5743],[-42.0781,-22.5756]],[[-42.077,-22.5737],[-42.0723,-22.5677],[-42.077,-22.5737],[-42.077,-22.5737]]]}},{"type":"Feature","properties":{"cod_imovel":"RJ-3300704-B2FF56719E4847BD8523F8A1DEF3E36A","num_area":"674.57380000000000000000000000000","ind_status":"AT","des_condic":"Em analise"},"geometry":{"type":"Polygon","coordinates":[[[-42.1429,-22.6029],[-42.1252,-22.5645],[-42.125,-22.5694],[-42.1094,-22.5707],[-42.1375,-22.6096],[-42.1429,-22.6029]],[[-42.1327,-22.589],[-42.1349,-22.5856],[-42.1372,-22.5897],[-42.1328,-22.5891],[-42.1327,-22.589]]]}},{"type":"Feature","properties":{"cod_imovel":"RJ-3300704-4A73583EB6D64079A35A45448C3380E0","num_area":"810.27290000000000000000000000000","ind_status":"PE","des_condic":"Aguardando analise, apos revisao ou atendimento da notificacao"},"geometry":{"type":"Polygon","coordinates":[[[-42.0988,-22.5633],[-42.0957,-22.5719],[-42.0908,-22.5729],[-42.1066,-22.5887],[-42.1162,-22.613],[-42.1352,-22.6126],[-42.1375,-22.6098],[-42.1064,-22.5625],[-42.1075,-22.5699],[-42.0987,-22.5634],[-42.0988,-22.5633]],[[-42.1178,-22.5967],[-42.1146,-22.5983],[-42.1176,-22.5967],[-42.1178,-22.5967]],[[-42.1149,-22.5908],[-42.115,-22.5948],[-42.1147,-22.5908],[-42.1149,-22.5908]]]}},{"type":"Feature","properties":{"cod_imovel":"RJ-3300704-469D90A4612C4183943A2D5E2280C17E","num_area":"671.49380000000000000000000000000","ind_status":"AT","des_condic":"Em analise"},"geometry":{"type":"Polygon","coordinates":[[[-42.0801,-22.7193],[-42.086,-22.7133],[-42.0489,-22.6938],[-42.0515,-22.7112],[-42.056,-22.7137],[-42.0801,-22.7193]],[[-42.0487,-22.6936],[-42.0473,-22.6885],[-42.0372,-22.7093],[-42.0525,-22.7128],[-42.0487,-22.6941],[-42.0487,-22.6936]]]}},{"type":"Feature","properties":{"cod_imovel":"RJ-3300704-304AE086636846E58DA7623FB6622EF9","num_area":"241.19050000000000000000000000000","ind_status":"AT","des_condic":"Aguardando analise"},"geometry":{"type":"Polygon","coordinates":[[[-42.0001,-22.7644],[-41.9894,-22.7832],[-41.9912,-22.7883],[-41.9896,-22.7828],[-42.0001,-22.7644],[-42.0001,-22.7644]],[[-41.9872,-22.7828],[-41.9817,-22.7787],[-41.9843,-22.7807],[-41.9872,-22.7828]],[[-41.9944,-22.7869],[-42.0023,-22.7938],[-42.0094,-22.7785],[-42.0024,-22.7674],[-41.9955,-22.7878],[-41.9944,-22.7869]]]}},{"type":"Feature","properties":{"cod_imovel":"RJ-3300704-3E6AE9B722114DC9A18D07B3372C5B3F","num_area":"211.39510000000000000000000000000","ind_status":"AT","des_condic":"Aguardando analise"},"geometry":{"type":"Polygon","coordinates":[[[-42.0024,-22.7569],[-42.0002,-22.7644],[-42.0099,-22.7768],[-42.01,-22.7706],[-42.0239,-22.7769],[-42.0066,-22.7603],[-42.0024,-22.7569]]]}},{"type":"Feature","properties":{"cod_imovel":"RJ-3300704-A22EF7F254B641288DCE53193597C07F","num_area":"26.077700000000000000000000000000","ind_status":"AT","des_condic":"Aguardando analise"},"geometry":{"type":"Polygon","coordinates":[[[-41.9974,-22.8002],[-41.9956,-22.8034],[-41.9977,-22.8007],[-41.9974,-22.8002]],[[-41.9956,-22.8035],[-41.9989,-22.8095],[-41.9977,-22.8007],[-41.9956,-22.8035]]]}},{"type":"Feature","properties":{"cod_imovel":"RJ-3300704-78F598EF6DF4448787C9DF8EC3C6FA5A","num_area":"15.501200000000000000000000000000","ind_status":"AT","des_condic":"Aguardando analise"},"geometry":{"type":"Polygon","coordinates":[[[-42.0207,-22.7909],[-42.0238,-22.7947],[-42.0208,-22.7909],[-42.0207,-22.7909]],[[-42.0245,-22.7936],[-42.0215,-22.7878],[-42.0243,-22.7938],[-42.0245,-22.7936]]]}},{"type":"Feature","properties":{"cod_imovel":"RJ-3300704-C084A219A5D34A4AB28F0C7FE2BC7A97","num_area":"85.110300000000000000000000000000","ind_status":"AT","des_condic":"Aguardando analise"},"geometry":{"type":"Polygon","coordinates":[[[-41.9888,-22.8248],[-41.995,-22.82],[-41.9818,-22.8175],[-41.9864,-22.8262],[-41.9888,-22.8248]]]}},{"type":"Feature","properties":{"cod_imovel":"RJ-3300704-7179B2BFF58D460E821D486DDC633520","num_area":"167.05800000000000000000000000000","ind_status":"AT","des_condic":"Aguardando analise"},"geometry":{"type":"Polygon","coordinates":[[[-41.9868,-22.8172],[-41.9988,-22.8123],[-41.993,-22.8141],[-41.9935,-22.8066],[-41.9979,-22.8103],[-41.9978,-22.8004],[-41.9904,-22.7932],[-41.9948,-22.8022],[-41.9803,-22.8085],[-41.9873,-22.8139],[-41.9855,-22.8175],[-41.9868,-22.8172]],[[-41.9916,-22.8073],[-41.9869,-22.8082],[-41.9915,-22.8073],[-41.9916,-22.8073]]]}},{"type":"Feature","properties":{"cod_imovel":"RJ-3300704-D48FF29A6A324046AE2D9B3406AC61C2","num_area":"32.369400000000000000000000000000","ind_status":"AT","des_condic":"Aguardando analise"},"geometry":{"type":"Polygon","coordinates":[[[-41.9887,-22.8153],[-41.9789,-22.8142],[-41.9903,-22.8167],[-41.9887,-22.8153]]]}},{"type":"Feature","properties":{"cod_imovel":"RJ-3300704-7CBBC54F53D4483A80ACFA7BFAECA33D","num_area":"477.39610000000000000000000000000","ind_status":"AT","des_condic":"Aguardando analise"},"geometry":{"type":"Polygon","coordinates":[[[-42.0207,-22.7185],[-42.0079,-22.7219],[-42.031,-22.7383],[-42.0345,-22.7286],[-42.0214,-22.7184],[-42.0207,-22.7185]],[[-42.0259,-22.7202],[-42.0227,-22.7228],[-42.0257,-22.7202],[-42.0259,-22.7202]],[[-42.0311,-22.7384],[-42.0381,-22.7384],[-42.0335,-22.7401],[-42.0451,-22.7487],[-42.052,-22.7409],[-42.0343,-22.728],[-42.031,-22.7379],[-42.0311,-22.7384]]]}},{"type":"Feature","properties":{"cod_imovel":"RJ-3300704-0154F2C53A2C4F2892B4A28341FD0177","num_area":"17.267000000000000000000000000000","ind_status":"AT","des_condic":"Analisado, aguardando atendimento a notificacao"},"geometry":{"type":"Polygon","coordinates":[[[-42.0205,-22.7235],[-42.014,-22.7251],[-42.0212,-22.7244],[-42.0205,-22.7235]]]}},{"type":"Feature","properties":{"cod_imovel":"RJ-3300704-2AAFC744D6AF43CBA8E6D1BAC2393429","num_area":"15.305800000000000000000000000000","ind_status":"AT","des_condic":"Aguardando analise"},"geometry":{"type":"Polygon","coordinates":[[[-42.0879,-22.6983],[-42.0905,-22.6921],[-42.0857,-22.6972],[-42.0879,-22.6983]]]}},{"type":"Feature","properties":{"cod_imovel":"RJ-3300704-886DE13A475B47ADA63E5F51516B5BA1","num_area":"83.057000000000000000000000000000","ind_status":"PE","des_condic":"Analisado, aguardando atendimento a notificacao"},"geometry":{"type":"Polygon","coordinates":[[[-42.0425,-22.6516],[-42.0419,-22.6467],[-42.0275,-22.6465],[-42.0273,-22.6515],[-42.0403,-22.6516],[-42.0425,-22.6516]]]}},{"type":"Feature","properties":{"cod_imovel":"RJ-3300704-199FD36E58E84497BEA0CE1C9E729E76","num_area":"30.037100000000000000000000000000","ind_status":"PE","des_condic":"Analisado, aguardando atendimento a notificacao"},"geometry":{"type":"Polygon","coordinates":[[[-42.0371,-22.7258],[-42.0483,-22.7121],[-42.0371,-22.7258],[-42.0371,-22.7258]]]}},{"type":"Feature","properties":{"cod_imovel":"RJ-3300704-5B7E6F57179E4947A1D5A31F465A2249","num_area":"12.039700000000000000000000000000","ind_status":"PE","des_condic":"Analisado, aguardando atendimento a notificacao"},"geometry":{"type":"Polygon","coordinates":[[[-42.0243,-22.7232],[-42.0281,-22.7206],[-42.0243,-22.7232],[-42.0243,-22.7232]]]}},{"type":"Feature","properties":{"cod_imovel":"RJ-3300704-25AFF557EA0241D09A6FA07875400B09","num_area":"636.32760000000000000000000000000","ind_status":"PE","des_condic":"Analisado, aguardando atendimento a notificacao"},"geometry":{"type":"Polygon","coordinates":[[[-42.094,-22.7019],[-42.0565,-22.6819],[-42.0483,-22.6886],[-42.0872,-22.7119],[-42.0945,-22.7025],[-42.094,-22.7019]]]}},{"type":"Feature","properties":{"cod_imovel":"RJ-3300704-B5A374F7BD5F44AE8F3D52BC93F1F409","num_area":"10.780200000000000000000000000000","ind_status":"PE","des_condic":"Analisado, aguardando atendimento a notificacao"},"geometry":{"type":"Polygon","coordinates":[[[-42.0206,-22.6946],[-42.0258,-22.6943],[-42.0207,-22.6944],[-42.0206,-22.6946]]]}},{"type":"Feature","properties":{"cod_imovel":"RJ-3300704-A2092F84E2DA4D93B1EC2F427375E9ED","num_area":"64.899800000000000000000000000000","ind_status":"PE","des_condic":"Analisado, aguardando atendimento a notificacao"},"geometry":{"type":"Polygon","coordinates":[[[-42.0457,-22.691],[-42.0463,-22.6806],[-42.0389,-22.6833],[-42.0421,-22.6883],[-42.0457,-22.691]]]}},{"type":"Feature","properties":{"cod_imovel":"RJ-3300704-E992613E026142BFB89B8FF0CABB6C79","num_area":"19.504100000000000000000000000000","ind_status":"PE","des_condic":"Analisado, aguardando atendimento a notificacao"},"geometry":{"type":"Polygon","coordinates":[[[-42.0232,-22.6983],[-42.0158,-22.6974],[-42.0191,-22.6978],[-42.0232,-22.6983]]]}},{"type":"Feature","properties":{"cod_imovel":"RJ-3300704-56B41B42F2B64EC48DFC6C4AC71E40A4","num_area":"15.708200000000000000000000000000","ind_status":"PE","des_condic":"Analisado, aguardando atendimento a notificacao"},"geometry":{"type":"Polygon","coordinates":[[[-42.0757,-22.6848],[-42.0748,-22.6799],[-42.0711,-22.686],[-42.0755,-22.6851],[-42.0757,-22.6848]]]}},{"type":"Feature","properties":{"cod_imovel":"RJ-3300704-C6E2395E5A444D5D9512D1DCBBD0C51B","num_area":"11.858700000000000000000000000000","ind_status":"PE","des_condic":"Analisado, aguardando atendimento a notificacao"},"geometry":{"type":"Polygon","coordinates":[[[-42.016,-22.6889],[-42.0144,-22.6857],[-42.0158,-22.6896],[-42.016,-22.6889]]]}},{"type":"Feature","properties":{"cod_imovel":"RJ-3300704-9FF86A0395234767AACC0E139775959B","num_area":"7.3975000000000000000000000000000","ind_status":"PE","des_condic":"Analisado, aguardando atendimento a notificacao"},"geometry":{"type":"Polygon","coordinates":[[[-42.0651,-22.6623],[-42.0682,-22.6621],[-42.0651,-22.6621],[-42.0651,-22.6623]]]}},{"type":"Feature","properties":{"cod_imovel":"RJ-3300704-65BBFC516FC648C59A57AA1AFEBB4639","num_area":"57.833100000000000000000000000000","ind_status":"PE","des_condic":"Analisado, aguardando atendimento a notificacao"},"geometry":{"type":"Polygon","coordinates":[[[-42.0369,-22.7294],[-42.0527,-22.7132],[-42.0488,-22.7122],[-42.0365,-22.7291],[-42.0369,-22.7294]]]}},{"type":"Feature","properties":{"cod_imovel":"RJ-3300704-EF851E4C7AD94ED09985DC459D958B67","num_area":"9.7286000000000000000000000000000","ind_status":"PE","des_condic":"Analisado, aguardando atendimento a notificacao"},"geometry":{"type":"Polygon","coordinates":[[[-42.0399,-22.6804],[-42.0334,-22.6787],[-42.0398,-22.6808],[-42.0399,-22.6804]]]}},{"type":"Feature","properties":{"cod_imovel":"RJ-3300704-1E9A33FE375949A19034752DD4563A4C","num_area":"113.50710000000000000000000000000","ind_status":"PE","des_condic":"Analisado, aguardando atendimento a notificacao"},"geometry":{"type":"Polygon","coordinates":[[[-42.0898,-22.656],[-42.1008,-22.6447],[-42.0882,-22.6456],[-42.0852,-22.6523],[-42.0885,-22.6558],[-42.0898,-22.656]],[[-42.0929,-22.6493],[-42.0904,-22.6514],[-42.0928,-22.6489],[-42.0929,-22.6493]]]}},{"type":"Feature","properties":{"cod_imovel":"RJ-3300704-071BD0C3395E454190C1AFBD80E19E51","num_area":"4.9116000000000000000000000000000","ind_status":"PE","des_condic":"Analisado, aguardando atendimento a notificacao"},"geometry":{"type":"Polygon","coordinates":[[[-42.0444,-22.7464],[-42.0508,-22.7398],[-42.0471,-22.7433],[-42.0444,-22.7464]]]}},{"type":"Feature","properties":{"cod_imovel":"RJ-3300704-75CD6CF3C46146F49F2F802F5D651344","num_area":"6.3870000000000000000000000000000","ind_status":"PE","des_condic":"Analisado, aguardando atendimento a notificacao"},"geometry":{"type":"Polygon","coordinates":[[[-42.0284,-22.7344],[-42.0234,-22.7317],[-42.0283,-22.7348],[-42.0284,-22.7344]]]}},{"type":"Feature","properties":{"cod_imovel":"RJ-3300704-60DC7ADD394F428B916A81A7CBE27C48","num_area":"43.977200000000000000000000000000","ind_status":"PE","des_condic":"Analisado, aguardando atendimento a notificacao"},"geometry":{"type":"Polygon","coordinates":[[[-42.0447,-22.6616],[-42.0568,-22.6591],[-42.0442,-22.6584],[-42.0447,-22.6616],[-42.0447,-22.6616]]]}},{"type":"Feature","properties":{"cod_imovel":"RJ-3300704-CDE91F6D5DBB40B0BC3BC9631538688E","num_area":"39.200600000000000000000000000000","ind_status":"PE","des_condic":"Analisado, aguardando atendimento a notificacao"},"geometry":{"type":"Polygon","coordinates":[[[-42.0452,-22.6721],[-42.04,-22.6816],[-42.0462,-22.6801],[-42.0452,-22.6721]]]}},{"type":"Feature","properties":{"cod_imovel":"RJ-3300704-C723A32DDAD646CFA9AB0D5FF03CE046","num_area":"45.638700000000000000000000000000","ind_status":"PE","des_condic":"Analisado, aguardando atendimento a notificacao"},"geometry":{"type":"Polygon","coordinates":[[[-42.0453,-22.6921],[-42.0391,-22.6859],[-42.037,-22.6912],[-42.0443,-22.6954],[-42.0453,-22.6922],[-42.0453,-22.6921]]]}},{"type":"Feature","properties":{"cod_imovel":"RJ-3300704-EA1B778DF50744B48DE422D17998499D","num_area":"17.109900000000000000000000000000","ind_status":"PE","des_condic":"Analisado, aguardando atendimento a notificacao"},"geometry":{"type":"Polygon","coordinates":[[[-42.0401,-22.6987],[-42.0434,-22.698],[-42.0378,-22.6979],[-42.0401,-22.6987]]]}},{"type":"Feature","properties":{"cod_imovel":"RJ-3300704-1274FE4C877745FAA186FCF31D99E8A7","num_area":"28.306400000000000000000000000000","ind_status":"PE","des_condic":"Analisado, aguardando atendimento a notificacao"},"geometry":{"type":"Polygon","coordinates":[[[-42.0436,-22.6975],[-42.0369,-22.6914],[-42.0358,-22.6949],[-42.0435,-22.6975],[-42.0436,-22.6975]]]}},{"type":"Feature","properties":{"cod_imovel":"RJ-3300704-FC94DC8A4EA94CFDBBEA7E77C9A091DF","num_area":"24.967400000000000000000000000000","ind_status":"PE","des_condic":"Analisado, aguardando atendimento a notificacao"},"geometry":{"type":"Polygon","coordinates":[[[-42.0208,-22.6769],[-42.0156,-22.6751],[-42.016,-22.679],[-42.0214,-22.6806],[-42.0206,-22.6773],[-42.0208,-22.6769]]]}},{"type":"Feature","properties":{"cod_imovel":"RJ-3300704-8F65CD7BB8F04DBE854E64A5293BF97A","num_area":"24.347400000000000000000000000000","ind_status":"PE","des_condic":"Analisado, aguardando atendimento a notificacao"},"geometry":{"type":"Polygon","coordinates":[[[-42.0328,-22.7083],[-42.0255,-22.6994],[-42.0324,-22.7084],[-42.0328,-22.7083]]]}},{"type":"Feature","properties":{"cod_imovel":"RJ-3300704-47797B457E764845A226F47C119F2515","num_area":"3.8437000000000000000000000000000","ind_status":"PE","des_condic":"Analisado, aguardando atendimento a notificacao"},"geometry":{"type":"Polygon","coordinates":[[[-42.0314,-22.73],[-42.0333,-22.7273],[-42.0305,-22.729],[-42.0314,-22.73]]]}},{"type":"Feature","properties":{"cod_imovel":"RJ-3300704-3437819E1DCC47DE9BE0FE4B9E3526FE","num_area":"7.4738000000000000000000000000000","ind_status":"PE","des_condic":"Analisado, aguardando atendimento a notificacao"},"geometry":{"type":"Polygon","coordinates":[[[-42.0723,-22.6672],[-42.0676,-22.6693],[-42.072,-22.6677],[-42.0723,-22.6672]]]}},{"type":"Feature","properties":{"cod_imovel":"RJ-3300704-F9651ECD6F594BF89944ECBB69442042","num_area":"7.3029000000000000000000000000000","ind_status":"PE","des_condic":"Analisado, aguardando atendimento a notificacao"},"geometry":{"type":"Polygon","coordinates":[[[-42.0631,-22.6772],[-42.0676,-22.6769],[-42.063,-22.6769],[-42.0631,-22.6772]]]}},{"type":"Feature","properties":{"cod_imovel":"RJ-3300704-15AB129C8A1148388AB63FDAC7C02081","num_area":"4.5861000000000000000000000000000","ind_status":"PE","des_condic":"Analisado, aguardando atendimento a notificacao"},"geometry":{"type":"Polygon","coordinates":[[[-42.0426,-22.7355],[-42.0395,-22.7401],[-42.043,-22.7359],[-42.0426,-22.7355]]]}},{"type":"Feature","properties":{"cod_imovel":"RJ-3300704-9565D5EFD9DD42B98D3BF2F8136812D2","num_area":"36.999900000000000000000000000000","ind_status":"AT","des_condic":"Aguardando analise"},"geometry":{"type":"Polygon","coordinates":[[[-42.0529,-22.6568],[-42.0567,-22.6537],[-42.0633,-22.6569],[-42.0634,-22.6534],[-42.0529,-22.6534],[-42.0529,-22.6568]]]}},{"type":"Feature","properties":{"cod_imovel":"RJ-3300704-4EE4E78E482C4217ACBE35AD2930BCB5","num_area":"21.642900000000000000000000000000","ind_status":"AT","des_condic":"Aguardando analise"},"geometry":{"type":"Polygon","coordinates":[[[-42.0602,-22.661],[-42.0609,-22.665],[-42.0656,-22.6611],[-42.0612,-22.6601],[-42.0602,-22.661]]]}},{"type":"Feature","properties":{"cod_imovel":"RJ-3300704-375C943A325A42F59D4188C180ECEA07","num_area":"9.3072000000000000000000000000000","ind_status":"AT","des_condic":"Aguardando analise"},"geometry":{"type":"Polygon","coordinates":[[[-42.0675,-22.7166],[-42.0633,-22.7156],[-42.0654,-22.7191],[-42.0675,-22.7166]]]}},{"type":"Feature","properties":{"cod_imovel":"RJ-3300704-3DA98927760E4A7FA74CF51CB643E9D6","num_area":"8.0838000000000000000000000000000","ind_status":"AT","des_condic":"Aguardando analise"},"geometry":{"type":"Polygon","coordinates":[[[-42.0761,-22.6651],[-42.0787,-22.6688],[-42.0765,-22.6648],[-42.0761,-22.6651]]]}},{"type":"Feature","properties":{"cod_imovel":"RJ-3300704-8F385D4174024C669B4D27B5874BAD79","num_area":"21.277200000000000000000000000000","ind_status":"PE","des_condic":"Analisado, aguardando atendimento a notificacao"},"geometry":{"type":"Polygon","coordinates":[[[-42.0384,-22.6645],[-42.0305,-22.666],[-42.0379,-22.6671],[-42.0384,-22.6645]]]}},{"type":"Feature","properties":{"cod_imovel":"RJ-3300704-D21CF536B30F46D7B951689F9F3FBB2D","num_area":"2.6672000000000000000000000000000","ind_status":"PE","des_condic":"Analisado, aguardando atendimento a notificacao"},"geometry":{"type":"Polygon","coordinates":[[[-42.0302,-22.7663],[-42.0268,-22.7662],[-42.0299,-22.7671],[-42.0302,-22.7663]]]}},{"type":"Feature","properties":{"cod_imovel":"RJ-3300704-E798549113FE4733BE02A80CE5721228","num_area":"29.301500000000000000000000000000","ind_status":"AT","des_condic":"Aguardando analise"},"geometry":{"type":"Polygon","coordinates":[[[-42.0779,-22.6934],[-42.0838,-22.6876],[-42.0803,-22.6844],[-42.0769,-22.6929],[-42.0779,-22.6934]]]}},{"type":"Feature","properties":{"cod_imovel":"RJ-3300704-F278A6233FAC40219E9FE8B30511C2CC","num_area":"4.0635000000000000000000000000000","ind_status":"PE","des_condic":"Analisado, aguardando atendimento a notificacao"},"geometry":{"type":"Polygon","coordinates":[[[-41.998,-22.7414],[-42.0015,-22.7427],[-41.9973,-22.7405],[-41.998,-22.7414]]]}},{"type":"Feature","properties":{"cod_imovel":"RJ-3300704-ECF0BD18943448868D315621C3006E42","num_area":"14.534000000000000000000000000000","ind_status":"PE","des_condic":"Analisado, aguardando atendimento a notificacao"},"geometry":{"type":"Polygon","coordinates":[[[-42.0676,-22.679],[-42.0712,-22.6767],[-42.0673,-22.6772],[-42.0676,-22.679]],[[-42.071,-22.6797],[-42.0712,-22.6767],[-42.0704,-22.6799],[-42.071,-22.6797]]]}},{"type":"Feature","properties":{"cod_imovel":"RJ-3300704-7F85D9D77D3A46109A980D75ACB99862","num_area":"20.071300000000000000000000000000","ind_status":"PE","des_condic":"Analisado, aguardando atendimento a notificacao"},"geometry":{"type":"Polygon","coordinates":[[[-42.0709,-22.6721],[-42.0687,-22.6693],[-42.0684,-22.6759],[-42.071,-22.6727],[-42.0709,-22.6721]]]}},{"type":"Feature","properties":{"cod_imovel":"RJ-3300704-2A768AE8A7A240AE994D091FFD8D54CB","num_area":"9.8169000000000000000000000000000","ind_status":"PE","des_condic":"Analisado, aguardando atendimento a notificacao"},"geometry":{"type":"Polygon","coordinates":[[[-42.0301,-22.6857],[-42.0376,-22.6881],[-42.0308,-22.6844],[-42.0301,-22.6857]]]}},{"type":"Feature","properties":{"cod_imovel":"RJ-3300704-71391BEA847E488FAC3DAE071B352F39","num_area":"5.8395000000000000000000000000000","ind_status":"PE","des_condic":"Analisado, aguardando atendimento a notificacao"},"geometry":{"type":"Polygon","coordinates":[[[-42.0123,-22.6806],[-42.0153,-22.6808],[-42.0124,-22.6786],[-42.0123,-22.6806]]]}},{"type":"Feature","properties":{"cod_imovel":"RJ-3300704-DB0A91BA636C4065BDD718E8BB868479","num_area":"90.851900000000000000000000000000","ind_status":"PE","des_condic":"Analisado, aguardando atendimento a notificacao"},"geometry":{"type":"Polygon","coordinates":[[[-42.1489,-22.5967],[-42.1411,-22.5979],[-42.1509,-22.6029],[-42.1481,-22.6095],[-42.1517,-22.606],[-42.1491,-22.5978],[-42.1489,-22.5967]],[[-42.1411,-22.5979],[-42.1456,-22.5972],[-42.1416,-22.5991],[-42.1411,-22.5979]],[[-42.1432,-22.6025],[-42.1472,-22.6089],[-42.1437,-22.6048],[-42.147,-22.6022],[-42.1429,-22.6028],[-42.1432,-22.6025]],[[-42.142,-22.604],[-42.1429,-22.6141],[-42.1477,-22.6161],[-42.1437,-22.6072],[-42.142,-22.604]],[[-42.1493,-22.6173],[-42.1503,-22.6116],[-42.1495,-22.6173],[-42.1493,-22.6173]],[[-42.1416,-22.6045],[-42.1401,-22.6079],[-42.1416,-22.6045],[-42.1416,-22.6045]],[[-42.1382,-22.6104],[-42.1424,-22.6128],[-42.1396,-22.6093],[-42.1382,-22.6104]]]}},{"type":"Feature","properties":{"cod_imovel":"RJ-3300704-47259C076D9B43F8A0382C23C2B39DBA","num_area":"18.389800000000000000000000000000","ind_status":"PE","des_condic":"Analisado, aguardando atendimento a notificacao"},"geometry":{"type":"Polygon","coordinates":[[[-42.0794,-22.6655],[-42.0789,-22.6698],[-42.0828,-22.6699],[-42.0796,-22.6657],[-42.0794,-22.6655]]]}},{"type":"Feature","properties":{"cod_imovel":"RJ-3300704-970BFCDBEF894EE6A498BC5DB52ABA8E","num_area":"14.143900000000000000000000000000","ind_status":"PE","des_condic":"Analisado, aguardando atendimento a notificacao"},"geometry":{"type":"Polygon","coordinates":[[[-42.0611,-22.6845],[-42.0639,-22.678],[-42.0606,-22.6842],[-42.0611,-22.6845]]]}},{"type":"Feature","properties":{"cod_imovel":"RJ-3300704-B748A5B2AA8446E2ADAAC26156EA19A3","num_area":"32.594000000000000000000000000000","ind_status":"AT","des_condic":"Aguardando analise"},"geometry":{"type":"Polygon","coordinates":[[[-42.0607,-22.719],[-42.0583,-22.7145],[-42.0518,-22.715],[-42.0603,-22.7193],[-42.0607,-22.719]]]}},{"type":"Feature","properties":{"cod_imovel":"RJ-3300704-16F7CB0838034958BF7F35D2984360CE","num_area":"33.203800000000000000000000000000","ind_status":"AT","des_condic":"Aguardando analise"},"geometry":{"type":"Polygon","coordinates":[[[-42.0316,-22.6818],[-42.0219,-22.6778],[-42.0211,-22.682],[-42.031,-22.6833],[-42.0316,-22.6818]]]}},{"type":"Feature","properties":{"cod_imovel":"RJ-3300704-DEE0960553D6442F9D8D6F5E1D92B69A","num_area":"23.574200000000000000000000000000","ind_status":"AT","des_condic":"Aguardando analise"},"geometry":{"type":"Polygon","coordinates":[[[-42.1021,-22.681],[-42.1071,-22.6766],[-42.1001,-22.6765],[-42.1016,-22.681],[-42.1021,-22.681]]]}},{"type":"Feature","properties":{"cod_imovel":"RJ-3300704-4C0E5DF67D2D4682B55851FFAB27D4AC","num_area":"74.541700000000000000000000000000","ind_status":"AT","des_condic":"Aguardando analise"},"geometry":{"type":"Polygon","coordinates":[[[-42.0239,-22.6608],[-42.0396,-22.6642],[-42.0412,-22.6608],[-42.0247,-22.6603],[-42.0239,-22.6608]]]}},{"type":"Feature","properties":{"cod_imovel":"RJ-3300704-9ADB1AEFA49641EFB2C6B7C2A8F92875","num_area":"9.7666000000000000000000000000000","ind_status":"AT","des_condic":"Aguardando analise"},"geometry":{"type":"Polygon","coordinates":[[[-42.1018,-22.6813],[-42.1018,-22.6846],[-42.1019,-22.6813],[-42.1018,-22.6813]]]}},{"type":"Feature","properties":{"cod_imovel":"RJ-3300704-AE3EA04A723C4F6E8E18386F293FAFEB","num_area":"21.347100000000000000000000000000","ind_status":"AT","des_condic":"Aguardando analise"},"geometry":{"type":"Polygon","coordinates":[[[-42.0211,-22.6912],[-42.0171,-22.6924],[-42.0261,-22.6942],[-42.0241,-22.6916],[-42.0211,-22.6912]]]}},{"type":"Feature","properties":{"cod_imovel":"RJ-3300704-94D491283AAF4F82A5772EBA1254FFE1","num_area":"23.921700000000000000000000000000","ind_status":"AT","des_condic":"Aguardando analise"},"geometry":{"type":"Polygon","coordinates":[[[-42.1036,-22.681],[-42.1115,-22.6762],[-42.1034,-22.681],[-42.1036,-22.681]]]}},{"type":"Feature","properties":{"cod_imovel":"RJ-3300704-0B0AD21AD9D544F3A3B59B7C081EFA67","num_area":"25.658300000000000000000000000000","ind_status":"AT","des_condic":"Aguardando analise"},"geometry":{"type":"Polygon","coordinates":[[[-42.03,-22.6963],[-42.0254,-22.696],[-42.0339,-22.6982],[-42.03,-22.6963]]]}},{"type":"Feature","properties":{"cod_imovel":"RJ-3300704-02808AB433A0477F8D20ABAB6BF57D36","num_area":"13.794800000000000000000000000000","ind_status":"AT","des_condic":"Aguardando analise"},"geometry":{"type":"Polygon","coordinates":[[[-42.0647,-22.6833],[-42.061,-22.6845],[-42.0647,-22.6841],[-42.0647,-22.6833]],[[-42.0644,-22.6863],[-42.0671,-22.6834],[-42.0645,-22.6859],[-42.0644,-22.6863]]]}},{"type":"Feature","properties":{"cod_imovel":"RJ-3300704-B2F0E854331746B7951BDF20575CC14E","num_area":"14.594700000000000000000000000000","ind_status":"AT","des_condic":"Aguardando analise"},"geometry":{"type":"Polygon","coordinates":[[[-42.0742,-22.6886],[-42.0685,-22.6885],[-42.0733,-22.691],[-42.0742,-22.6886]]]}},{"type":"Feature","properties":{"cod_imovel":"RJ-3300704-1499D61425884E948AB4108008615D7E","num_area":"25.406100000000000000000000000000","ind_status":"AT","des_condic":"Aguardando analise"},"geometry":{"type":"Polygon","coordinates":[[[-42.0146,-22.6725],[-42.0207,-22.6712],[-42.0152,-22.6669],[-42.0146,-22.6725]]]}},{"type":"Feature","properties":{"cod_imovel":"RJ-3300704-E24785C655C543E19DD2342AB698F6B7","num_area":"9.9313000000000000000000000000000","ind_status":"AT","des_condic":"Aguardando analise"},"geometry":{"type":"Polygon","coordinates":[[[-42.0863,-22.6847],[-42.08,-22.6844],[-42.0838,-22.6876],[-42.0863,-22.6847]]]}},{"type":"Feature","properties":{"cod_imovel":"RJ-3300704-3F2C39B967F846D8A9DB22F5DD481292","num_area":"8.3512000000000000000000000000000","ind_status":"AT","des_condic":"Aguardando analise"},"geometry":{"type":"Polygon","coordinates":[[[-42.0852,-22.684],[-42.082,-22.6839],[-42.0852,-22.6844],[-42.0852,-22.684]]]}},{"type":"Feature","properties":{"cod_imovel":"RJ-3300704-7289DF9047A14E3AAED5A531E56CCCC6","num_area":"17.595900000000000000000000000000","ind_status":"AT","des_condic":"Aguardando analise"},"geometry":{"type":"Polygon","coordinates":[[[-42.0783,-22.6369],[-42.0758,-22.6429],[-42.0756,-22.6381],[-42.0771,-22.643],[-42.0812,-22.6395],[-42.0783,-22.6375],[-42.0783,-22.6369]]]}},{"type":"Feature","properties":{"cod_imovel":"RJ-3300704-29B8B4FD6E1343998D9B7C7F3EF8BA20","num_area":"23.130600000000000000000000000000","ind_status":"AT","des_condic":"Aguardando analise"},"geometry":{"type":"Polygon","coordinates":[[[-42.1022,-22.6288],[-42.0972,-22.6262],[-42.0971,-22.633],[-42.1026,-22.6297],[-42.1022,-22.6288]]]}},{"type":"Feature","properties":{"cod_imovel":"RJ-3300704-FE3A55722E66464EBA2408CE2B026E4A","num_area":"22.968700000000000000000000000000","ind_status":"AT","des_condic":"Aguardando analise"},"geometry":{"type":"Polygon","coordinates":[[[-42.1019,-22.6407],[-42.0991,-22.6384],[-42.0972,-22.6444],[-42.1018,-22.6408],[-42.1019,-22.6407]],[[-42.1031,-22.6409],[-42.0998,-22.6443],[-42.103,-22.6412],[-42.1031,-22.6409]]]}},{"type":"Feature","properties":{"cod_imovel":"RJ-3300704-040BEE567E55412B939AB8735D9EBB7E","num_area":"18.196800000000000000000000000000","ind_status":"AT","des_condic":"Aguardando analise"},"geometry":{"type":"Polygon","coordinates":[[[-42.1012,-22.6364],[-42.1063,-22.6382],[-42.1012,-22.6364],[-42.1012,-22.6364]]]}},{"type":"Feature","properties":{"cod_imovel":"RJ-3300704-E3C2514AD1734D5A9D9AC7F0FD1EF987","num_area":"34.693100000000000000000000000000","ind_status":"AT","des_condic":"Aguardando analise"},"geometry":{"type":"Polygon","coordinates":[[[-42.0883,-22.6281],[-42.0906,-22.631],[-42.0888,-22.6273],[-42.0883,-22.6281]],[[-42.0958,-22.63],[-42.0898,-22.6254],[-42.0906,-22.631],[-42.0957,-22.6301],[-42.0958,-22.63]]]}},{"type":"Feature","properties":{"cod_imovel":"RJ-3300704-3C94BE2A53414E9889E6555A6ED9724C","num_area":"10.382500000000000000000000000000","ind_status":"PE","des_condic":"Analisado, aguardando atendimento a notificacao"},"geometry":{"type":"Polygon","coordinates":[[[-42.0651,-22.6623],[-42.0665,-22.6567],[-42.065,-22.6623],[-42.0651,-22.6623]]]}},{"type":"Feature","properties":{"cod_imovel":"RJ-3300704-A98046B2C0FE4420BFBE3B3F502899A0","num_area":"28.949300000000000000000000000000","ind_status":"PE","des_condic":"Analisado, aguardando atendimento a notificacao"},"geometry":{"type":"Polygon","coordinates":[[[-42.022,-22.709],[-42.0144,-22.7124],[-42.0219,-22.7104],[-42.022,-22.709]]]}},{"type":"Feature","properties":{"cod_imovel":"RJ-3300704-D1F4FBED57054303B3F3B2A5930FD0C4","num_area":"43.791600000000000000000000000000","ind_status":"PE","des_condic":"Analisado, aguardando atendimento a notificacao"},"geometry":{"type":"Polygon","coordinates":[[[-42.0448,-22.6695],[-42.0433,-22.6573],[-42.0405,-22.6626],[-42.0447,-22.6696],[-42.0448,-22.6695]]]}},{"type":"Feature","properties":{"cod_imovel":"RJ-3300704-4BF63C1EAE5B4B1281F5171EAF9F113F","num_area":"4.8298000000000000000000000000000","ind_status":"PE","des_condic":"Analisado, aguardando atendimento a notificacao"},"geometry":{"type":"Polygon","coordinates":[[[-42.0325,-22.766],[-42.0273,-22.7641],[-42.0315,-22.7658],[-42.0325,-22.766]]]}},{"type":"Feature","properties":{"cod_imovel":"RJ-3300704-ED700E431C6541BD9FB7841B0ABDC5BB","num_area":"25.495400000000000000000000000000","ind_status":"PE","des_condic":"Analisado, aguardando atendimento a notificacao"},"geometry":{"type":"Polygon","coordinates":[[[-42.0429,-22.6733],[-42.0386,-22.667],[-42.0366,-22.6712],[-42.0429,-22.6733]]]}},{"type":"Feature","properties":{"cod_imovel":"RJ-3300704-F8FB0D8FF5434BAFBF8A96D3020EF32C","num_area":"7.3066000000000000000000000000000","ind_status":"PE","des_condic":"Analisado, aguardando atendimento a notificacao"},"geometry":{"type":"Polygon","coordinates":[[[-42.0368,-22.6859],[-42.0315,-22.6826],[-42.0369,-22.6858],[-42.0368,-22.6859]]]}},{"type":"Feature","properties":{"cod_imovel":"RJ-3300704-B1FA484805654DAD93170A4F21685F03","num_area":"26.493100000000000000000000000000","ind_status":"PE","des_condic":"Analisado, aguardando atendimento a notificacao"},"geometry":{"type":"Polygon","coordinates":[[[-42.055,-22.6638],[-42.0605,-22.6649],[-42.0585,-22.6609],[-42.0498,-22.6615],[-42.0547,-22.6627],[-42.055,-22.6638]]]}},{"type":"Feature","properties":{"cod_imovel":"RJ-3300704-E89F1B4A31814E56BD25255BE2C97895","num_area":"17.484900000000000000000000000000","ind_status":"PE","des_condic":"Analisado, aguardando atendimento a notificacao"},"geometry":{"type":"Polygon","coordinates":[[[-42.0754,-22.6856],[-42.0733,-22.691],[-42.0767,-22.6927],[-42.0763,-22.6861],[-42.0754,-22.6856]]]}},{"type":"Feature","properties":{"cod_imovel":"RJ-3300704-373340EBE363438C9AD67EABACEE10A9","num_area":"32.995500000000000000000000000000","ind_status":"AT","des_condic":"Analisado, aguardando regularizacao ambiental (Lei n 12.651/2012)"},"geometry":{"type":"Polygon","coordinates":[[[-42.0352,-22.6553],[-42.0301,-22.6584],[-42.0411,-22.6607],[-42.0376,-22.6562],[-42.0352,-22.6553]]]}},{"type":"Feature","properties":{"cod_imovel":"RJ-3300704-9988E0FD76ED4277A541ABA9604E0234","num_area":"16.608900000000000000000000000000","ind_status":"AT","des_condic":"Analisado, aguardando regularizacao ambiental (Lei n 12.651/2012)"},"geometry":{"type":"Polygon","coordinates":[[[-42.0315,-22.6826],[-42.0383,-22.6851],[-42.0325,-22.6805],[-42.0315,-22.6826]]]}},{"type":"Feature","properties":{"cod_imovel":"RJ-3300704-5E2FC9D7AA7B426A992F8738E2BB8E68","num_area":"7.1697000000000000000000000000000","ind_status":"AT","des_condic":"Aguardando analise"},"geometry":{"type":"Polygon","coordinates":[[[-41.9908,-22.8673],[-41.9878,-22.8666],[-41.9899,-22.8693],[-41.9908,-22.8673]]]}},{"type":"Feature","properties":{"cod_imovel":"RJ-3300704-B8F8CF65528B48C4BA43DAD7168807B9","num_area":"19.059400000000000000000000000000","ind_status":"AT","des_condic":"Aguardando analise"},"geometry":{"type":"Polygon","coordinates":[[[-42.0316,-22.6351],[-42.0415,-22.6361],[-42.0325,-22.6349],[-42.0316,-22.6351]]]}},{"type":"Feature","properties":{"cod_imovel":"RJ-3300704-5048871B50364A91AAAA59709E739C18","num_area":"25.621300000000000000000000000000","ind_status":"AT","des_condic":"Aguardando analise"},"geometry":{"type":"Polygon","coordinates":[[[-42.0881,-22.6315],[-42.0919,-22.6351],[-42.0881,-22.6315],[-42.0881,-22.6315]],[[-42.095,-22.6352],[-42.0907,-22.6311],[-42.0943,-22.6351],[-42.095,-22.6352]]]}},{"type":"Feature","properties":{"cod_imovel":"RJ-3300704-C7EE0697B57348228A8DFF5B033B86A6","num_area":"86.164500000000000000000000000000","ind_status":"AT","des_condic":"Aguardando analise"},"geometry":{"type":"Polygon","coordinates":[[[-42.1067,-22.6577],[-42.1016,-22.6564],[-42.103,-22.6618],[-42.1067,-22.6577]],[[-42.1067,-22.6552],[-42.0975,-22.6565],[-42.1064,-22.6552],[-42.1067,-22.6552]],[[-42.0975,-22.6565],[-42.1019,-22.6573],[-42.0976,-22.6566],[-42.0975,-22.6565]],[[-42.1021,-22.6581],[-42.0986,-22.6668],[-42.1022,-22.6584],[-42.1021,-22.6581]],[[-42.0973,-22.6636],[-42.0951,-22.666],[-42.0972,-22.6637],[-42.0973,-22.6636]],[[-42.0951,-22.666],[-42.0938,-22.672],[-42.0985,-22.6668],[-42.0953,-22.666],[-42.0951,-22.666]],[[-42.0917,-22.6699],[-42.0936,-22.6723],[-42.0917,-22.6699],[-42.0917,-22.6699]]]}},{"type":"Feature","properties":{"cod_imovel":"RJ-3300704-58662E872EFE4798BC8D22872E1D0462","num_area":"10.945000000000000000000000000000","ind_status":"AT","des_condic":"Aguardando analise"},"geometry":{"type":"Polygon","coordinates":[[[-42.0178,-22.8243],[-42.0156,-22.8218],[-42.0177,-22.8243],[-42.0178,-22.8243]],[[-42.0151,-22.8196],[-42.0171,-22.822],[-42.0159,-22.819],[-42.0151,-22.8196]]]}},{"type":"Feature","properties":{"cod_imovel":"RJ-3300704-D88858EBE095440991B35234325EC579","num_area":"23.418200000000000000000000000000","ind_status":"AT","des_condic":"Aguardando analise"},"geometry":{"type":"Polygon","coordinates":[[[-42.0443,-22.7307],[-42.0392,-22.7311],[-42.0439,-22.7308],[-42.0443,-22.7307]],[[-42.0404,-22.732],[-42.0461,-22.7323],[-42.0396,-22.7314],[-42.0404,-22.732]]]}},{"type":"Feature","properties":{"cod_imovel":"RJ-3300704-EE5837D3A1874CEABCD6D84939008B62","num_area":"17.787600000000000000000000000000","ind_status":"AT","des_condic":"Aguardando analise"},"geometry":{"type":"Polygon","coordinates":[[[-42.0904,-22.6713],[-42.0894,-22.676],[-42.0929,-22.672],[-42.0904,-22.6713]],[[-42.089,-22.6758],[-42.0904,-22.6713],[-42.0865,-22.6748],[-42.089,-22.6758]]]}},{"type":"Feature","properties":{"cod_imovel":"RJ-3300704-7CC318B2F7E44B3B81C95D77D211CDD6","num_area":"16.643700000000000000000000000000","ind_status":"AT","des_condic":"Aguardando analise"},"geometry":{"type":"Polygon","coordinates":[[[-42.0582,-22.7431],[-42.0614,-22.7448],[-42.0573,-22.7425],[-42.0582,-22.7431]]]}},{"type":"Feature","properties":{"cod_imovel":"RJ-3300704-814EB5AE8E334B958FF8EBC786858AEF","num_area":"8.5877000000000000000000000000000","ind_status":"AT","des_condic":"Aguardando analise"},"geometry":{"type":"Polygon","coordinates":[[[-42.0229,-22.6655],[-42.0199,-22.6673],[-42.0228,-22.6657],[-42.0229,-22.6655]]]}},{"type":"Feature","properties":{"cod_imovel":"RJ-3300704-8AA73B509F2D4DB9B13C81122B158AE2","num_area":"11.721500000000000000000000000000","ind_status":"AT","des_condic":"Aguardando analise"},"geometry":{"type":"Polygon","coordinates":[[[-42.0098,-22.6813],[-42.0073,-22.6758],[-42.0079,-22.6814],[-42.0098,-22.6813]]]}},{"type":"Feature","properties":{"cod_imovel":"RJ-3300704-E237CFDFBE1342C8A19830F108A9ABA2","num_area":"160.75590000000000000000000000000","ind_status":"AT","des_condic":"Aguardando analise"},"geometry":{"type":"Polygon","coordinates":[[[-42.0338,-22.727],[-42.0367,-22.7291],[-42.0521,-22.7129],[-42.0427,-22.7107],[-42.0352,-22.7199],[-42.038,-22.7258],[-42.0338,-22.7269],[-42.0338,-22.727]],[[-42.0343,-22.721],[-42.0335,-22.725],[-42.0343,-22.721],[-42.0343,-22.721]]]}},{"type":"Feature","properties":{"cod_imovel":"RJ-3300704-E803AC8A926F485597ACD611EDB61B31","num_area":"53.802100000000000000000000000000","ind_status":"AT","des_condic":"Aguardando analise"},"geometry":{"type":"Polygon","coordinates":[[[-42.127,-22.6254],[-42.1238,-22.6274],[-42.1298,-22.6255],[-42.127,-22.6254]],[[-42.1238,-22.6275],[-42.1213,-22.6292],[-42.133,-22.6298],[-42.1339,-22.6256],[-42.1238,-22.6275],[-42.1238,-22.6275]],[[-42.1239,-22.6253],[-42.1208,-22.6292],[-42.1239,-22.6253],[-42.1239,-22.6253]]]}},{"type":"Feature","properties":{"cod_imovel":"RJ-3300704-FF74362B828A464D8965FBC0F7AC8CE2","num_area":"698.63670000000000000000000000000","ind_status":"AT","des_condic":"Aguardando analise"},"geometry":{"type":"Polygon","coordinates":[[[-42.1258,-22.65],[-42.1078,-22.6413],[-42.1105,-22.6526],[-42.1078,-22.647],[-42.1038,-22.651],[-42.1049,-22.6402],[-42.0982,-22.6551],[-42.1089,-22.6553],[-42.0901,-22.6763],[-42.1034,-22.6754],[-42.1027,-22.6699],[-42.1068,-22.6719],[-42.1036,-22.6754],[-42.1116,-22.6761],[-42.1256,-22.6557],[-42.1258,-22.6606],[-42.1306,-22.6551],[-42.1136,-22.6562],[-42.1204,-22.6486],[-42.1255,-22.6503],[-42.1258,-22.65]],[[-42.1089,-22.6553],[-42.1026,-22.6551],[-42.1086,-22.6549],[-42.1089,-22.6553]],[[-42.1095,-22.6722],[-42.1129,-22.674],[-42.1094,-22.6726],[-42.1095,-22.6722]],[[-42.1091,-22.6633],[-42.1099,-22.6683],[-42.1089,-22.6636],[-42.1091,-22.6633]],[[-42.1138,-22.652],[-42.1154,-22.6477],[-42.114,-22.652],[-42.1138,-22.652]],[[-42.0978,-22.6755],[-42.0958,-22.6724],[-42.0982,-22.6754],[-42.0978,-22.6755]],[[-42.1047,-22.6401],[-42.0917,-22.6569],[-42.0973,-22.6573],[-42.0931,-22.6557],[-42.1009,-22.6525],[-42.1047,-22.6402],[-42.1047,-22.6401]],[[-42.0999,-22.6528],[-42.0986,-22.6496],[-42.1002,-22.6531],[-42.0999,-22.6528]]]}},{"type":"Feature","properties":{"cod_imovel":"RJ-3300704-FFD9552A629748D6A1A2EB8B97E17A34","num_area":"22.527900000000000000000000000000","ind_status":"AT","des_condic":"Aguardando analise"},"geometry":{"type":"Polygon","coordinates":[[[-42.0137,-22.6142],[-42.0147,-22.62],[-42.0171,-22.6149],[-42.0134,-22.6101],[-42.0137,-22.6142]]]}}]}