{"type":"FeatureCollection","features":[{"type":"Feature","properties":{"cod_imovel":"RJ-3300951-B08A84C0B1804ED6BC40A5C7005A9FC0","num_area":"178.78490000000000000000000000000","ind_status":"AT","des_condic":"Aguardando analise"},"geometry":{"type":"Polygon","coordinates":[[[-43.1403,-22.0395],[-43.142,-22.0454],[-43.1512,-22.0486],[-43.1479,-22.0437],[-43.1551,-22.0418],[-43.1548,-22.033],[-43.1476,-22.0315],[-43.1404,-22.0394],[-43.1403,-22.0395]],[[-43.1551,-22.0418],[-43.1562,-22.0321],[-43.1551,-22.0416],[-43.1551,-22.0418]]]}},{"type":"Feature","properties":{"cod_imovel":"RJ-3300951-AF396300E7094A49B42D64E697BF857A","num_area":"199.28900000000000000000000000000","ind_status":"AT","des_condic":"Aguardando analise"},"geometry":{"type":"Polygon","coordinates":[[[-43.1648,-22.023],[-43.1638,-22.029],[-43.1562,-22.0321],[-43.1559,-22.0422],[-43.1594,-22.0325],[-43.1642,-22.0379],[-43.1562,-22.0324],[-43.1645,-22.0292],[-43.1648,-22.023],[-43.1648,-22.023]],[[-43.1559,-22.0426],[-43.1552,-22.0642],[-43.1609,-22.0593],[-43.1592,-22.0416],[-43.1627,-22.0397],[-43.1559,-22.0426],[-43.1559,-22.0426]],[[-43.1587,-22.053],[-43.1577,-22.0637],[-43.1587,-22.0528],[-43.1587,-22.053]],[[-43.1588,-22.0491],[-43.1575,-22.0557],[-43.1588,-22.0487],[-43.1588,-22.0491]],[[-43.1645,-22.0444],[-43.1664,-22.025],[-43.1615,-22.0304],[-43.1638,-22.0436],[-43.1645,-22.0444]]]}},{"type":"Feature","properties":{"cod_imovel":"RJ-3300951-A4E2D88B21F5445C97D1C9B27477F766","num_area":"207.58020000000000000000000000000","ind_status":"AT","des_condic":"Aguardando analise"},"geometry":{"type":"Polygon","coordinates":[[[-43.1725,-22.0236],[-43.1648,-22.0229],[-43.1725,-22.0236],[-43.1725,-22.0236]],[[-43.1753,-22.034],[-43.1719,-22.0246],[-43.1665,-22.025],[-43.1663,-22.0317],[-43.1718,-22.0326],[-43.1663,-22.0357],[-43.1743,-22.0391],[-43.1691,-22.0363],[-43.17,-22.0413],[-43.1663,-22.0357],[-43.1665,-22.0462],[-43.1727,-22.0507],[-43.1698,-22.048],[-43.1753,-22.0343],[-43.1753,-22.034]],[[-43.1753,-22.0327],[-43.1736,-22.027],[-43.175,-22.0327],[-43.1753,-22.0327]],[[-43.1753,-22.0338],[-43.1739,-22.0285],[-43.1752,-22.0338],[-43.1753,-22.0338]]]}},{"type":"Feature","properties":{"cod_imovel":"RJ-3300951-E5373A4F53344DD082E29DABBA01BF41","num_area":"331.76290000000000000000000000000","ind_status":"AT","des_condic":"Aguardando analise"},"geometry":{"type":"Polygon","coordinates":[[[-43.1559,-22.0417],[-43.1479,-22.0437],[-43.1516,-22.049],[-43.1382,-22.0488],[-43.1346,-22.0571],[-43.1432,-22.0651],[-43.1552,-22.0642],[-43.1555,-22.0545],[-43.1559,-22.0417]]]}},{"type":"Feature","properties":{"cod_imovel":"RJ-3300951-DE0137212BCD4F5481EF67B035ECDEA2","num_area":"54.018200000000000000000000000000","ind_status":"AT","des_condic":"Aguardando analise"},"geometry":{"type":"Polygon","coordinates":[[[-43.1328,-22.0358],[-43.1368,-22.0377],[-43.1364,-22.0339],[-43.1326,-22.0354],[-43.1328,-22.0358]],[[-43.1376,-22.0371],[-43.14,-22.0394],[-43.1381,-22.0336],[-43.1378,-22.0367],[-43.1376,-22.0371]],[[-43.1398,-22.0351],[-43.1457,-22.0348],[-43.1397,-22.0354],[-43.1398,-22.0351]],[[-43.1333,-22.0316],[-43.139,-22.0336],[-43.1335,-22.0313],[-43.1333,-22.0316]]]}},{"type":"Feature","properties":{"cod_imovel":"RJ-3300951-5F6A6A49CBF6486890A4996A064D320E","num_area":"0.6696000000000000000000000000000","ind_status":"AT","des_condic":"Aguardando analise"},"geometry":{"type":"Polygon","coordinates":[[[-43.2027,-22.0505],[-43.1961,-22.0526],[-43.2026,-22.0506],[-43.2027,-22.0505]],[[-43.196,-22.0528],[-43.1991,-22.0553],[-43.196,-22.0528],[-43.196,-22.0528]]]}},{"type":"Feature","properties":{"cod_imovel":"RJ-3300951-2749357B9B4D40638CDB5CCF8CB429B1","num_area":"440.97840000000000000000000000000","ind_status":"AT","des_condic":"Aguardando analise"},"geometry":{"type":"Polygon","coordinates":[[[-43.2963,-22.0307],[-43.2914,-22.0327],[-43.2964,-22.0307],[-43.2963,-22.0307]],[[-43.2845,-22.051],[-43.2851,-22.0443],[-43.2795,-22.0402],[-43.2734,-22.0439],[-43.2727,-22.0492],[-43.2787,-22.0455],[-43.2727,-22.0492],[-43.2742,-22.0607],[-43.283,-22.0624],[-43.2846,-22.051],[-43.2845,-22.051]],[[-43.2848,-22.0518],[-43.2918,-22.048],[-43.301,-22.0507],[-43.3143,-22.0423],[-43.303,-22.0457],[-43.2933,-22.0428],[-43.3,-22.0368],[-43.285,-22.0361],[-43.2831,-22.0387],[-43.2906,-22.0442],[-43.2848,-22.0518],[-43.2848,-22.0518]]]}},{"type":"Feature","properties":{"cod_imovel":"RJ-3300951-E14AB23889094859A6A1D59A503E3072","num_area":"315.51870000000000000000000000000","ind_status":"AT","des_condic":"Aguardando analise"},"geometry":{"type":"Polygon","coordinates":[[[-43.1416,-22.0493],[-43.1335,-22.0582],[-43.1422,-22.0633],[-43.1555,-22.062],[-43.1548,-22.0419],[-43.1473,-22.0441],[-43.1518,-22.049],[-43.1431,-22.0481],[-43.1416,-22.0493]],[[-43.1453,-22.0573],[-43.1388,-22.0583],[-43.1433,-22.0564],[-43.1453,-22.0573]]]}},{"type":"Feature","properties":{"cod_imovel":"RJ-3300951-EE2E6A6D851B4400805E84B50F4896D4","num_area":"113.93470000000000000000000000000","ind_status":"AT","des_condic":"Aguardando analise"},"geometry":{"type":"Polygon","coordinates":[[[-43.2721,-22.0444],[-43.2644,-22.0432],[-43.2647,-22.0471],[-43.2727,-22.0491],[-43.2721,-22.0444]],[[-43.2725,-22.0477],[-43.2685,-22.0472],[-43.2722,-22.0448],[-43.2725,-22.0477]],[[-43.2647,-22.0471],[-43.262,-22.0533],[-43.2734,-22.0567],[-43.2723,-22.0483],[-43.2647,-22.0471],[-43.2647,-22.0471]],[[-43.2715,-22.0549],[-43.2713,-22.049],[-43.2715,-22.0549],[-43.2715,-22.0549]]]}},{"type":"Feature","properties":{"cod_imovel":"RJ-3300951-C44A6AF32B1E4054925BA5C57CD9A870","num_area":"220.38350000000000000000000000000","ind_status":"AT","des_condic":"Aguardando analise"},"geometry":{"type":"Polygon","coordinates":[[[-43.2796,-22.0407],[-43.2842,-22.0438],[-43.2797,-22.0412],[-43.2796,-22.0407]],[[-43.2791,-22.0406],[-43.2721,-22.0444],[-43.2736,-22.0494],[-43.2784,-22.0457],[-43.2767,-22.0511],[-43.2727,-22.0492],[-43.277,-22.0613],[-43.2857,-22.0489],[-43.2792,-22.0407],[-43.2791,-22.0406]],[[-43.2771,-22.0613],[-43.283,-22.0624],[-43.282,-22.0571],[-43.2773,-22.0612],[-43.2771,-22.0613]],[[-43.2829,-22.0588],[-43.2833,-22.0557],[-43.2829,-22.0588],[-43.2829,-22.0588]]]}},{"type":"Feature","properties":{"cod_imovel":"RJ-3300951-C9895D9235D7409E85972DF71B296CA1","num_area":"0.7825000000000000000000000000000","ind_status":"AT","des_condic":"Aguardando analise"},"geometry":{"type":"Polygon","coordinates":[[[-43.3233,-22.0091],[-43.3264,-22.0109],[-43.3234,-22.0091],[-43.3233,-22.0091]]]}},{"type":"Feature","properties":{"cod_imovel":"RJ-3300951-34FC306742C94854B63827EDEB304A22","num_area":"21.318200000000000000000000000000","ind_status":"AT","des_condic":"Aguardando analise"},"geometry":{"type":"Polygon","coordinates":[[[-43.2234,-22.0495],[-43.2208,-22.0546],[-43.2234,-22.0497],[-43.2234,-22.0495]]]}},{"type":"Feature","properties":{"cod_imovel":"RJ-3300951-2DD5D7507AEF458FAE8E77ABB8AA48E1","num_area":"2.5245000000000000000000000000000","ind_status":"AT","des_condic":"Aguardando analise"},"geometry":{"type":"Polygon","coordinates":[[[-43.2235,-22.0539],[-43.2207,-22.0568],[-43.2235,-22.0538],[-43.2235,-22.0539]]]}},{"type":"Feature","properties":{"cod_imovel":"RJ-3300951-DE2E1D23E0C346CC873F865BA95BDE10","num_area":"188.36310000000000000000000000000","ind_status":"AT","des_condic":"Aguardando analise"},"geometry":{"type":"Polygon","coordinates":[[[-43.2383,-22.0182],[-43.2387,-22.0243],[-43.2484,-22.013],[-43.2553,-22.0178],[-43.2645,-22.0109],[-43.2484,-22.013],[-43.2442,-22.0082],[-43.2359,-22.0142],[-43.242,-22.0168],[-43.2381,-22.0178],[-43.2383,-22.0182]]]}},{"type":"Feature","properties":{"cod_imovel":"RJ-3300951-16FD10410ADB496DA9B9903EE142ECBB","num_area":"1.6396000000000000000000000000000","ind_status":"AT","des_condic":"Aguardando analise"},"geometry":{"type":"Polygon","coordinates":[[[-43.2604,-22.0316],[-43.2596,-22.0377],[-43.2527,-22.0364],[-43.2596,-22.0377],[-43.2604,-22.0317],[-43.2604,-22.0316]],[[-43.2575,-22.0344],[-43.2575,-22.0308],[-43.2575,-22.0344],[-43.2575,-22.0344]],[[-43.2604,-22.0316],[-43.267,-22.0288],[-43.2602,-22.0269],[-43.2568,-22.0302],[-43.267,-22.0288],[-43.2604,-22.0316],[-43.2604,-22.0316]]]}},{"type":"Feature","properties":{"cod_imovel":"RJ-3300951-E0C26C0F565C4532A67F6295D287172A","num_area":"2.1932000000000000000000000000000","ind_status":"AT","des_condic":"Aguardando analise"},"geometry":{"type":"Polygon","coordinates":[[[-43.2347,-22.04],[-43.2294,-22.0399],[-43.2347,-22.04],[-43.2347,-22.04]],[[-43.2323,-22.0394],[-43.2334,-22.0359],[-43.2323,-22.0394],[-43.2323,-22.0394]],[[-43.2323,-22.0395],[-43.2361,-22.0404],[-43.2323,-22.0395],[-43.2323,-22.0395]],[[-43.234,-22.0428],[-43.231,-22.0402],[-43.2339,-22.0428],[-43.234,-22.0428]]]}},{"type":"Feature","properties":{"cod_imovel":"RJ-3300951-83E8C32DDC51433099ECECD883C851AB","num_area":"0.7112000000000000000000000000000","ind_status":"AT","des_condic":"Aguardando analise"},"geometry":{"type":"Polygon","coordinates":[[[-43.2516,-22.061],[-43.2413,-22.0648],[-43.2506,-22.0615],[-43.2516,-22.061]]]}},{"type":"Feature","properties":{"cod_imovel":"RJ-3300951-B91772DD3EE9421A8035B30A0CE817EA","num_area":"0.4097000000000000000000000000000","ind_status":"AT","des_condic":"Aguardando analise"},"geometry":{"type":"Polygon","coordinates":[[[-43.2314,-22.0643],[-43.2301,-22.0697],[-43.2335,-22.0695],[-43.2315,-22.0643],[-43.2314,-22.0643]]]}},{"type":"Feature","properties":{"cod_imovel":"RJ-3300951-0D558F3387A349F9B0957678B8E0AD88","num_area":"8.4393000000000000000000000000000","ind_status":"AT","des_condic":"Aguardando analise"},"geometry":{"type":"Polygon","coordinates":[[[-43.2893,-22.0156],[-43.2857,-22.0144],[-43.2862,-22.0182],[-43.2893,-22.0156],[-43.2893,-22.0156]]]}},{"type":"Feature","properties":{"cod_imovel":"RJ-3300951-E23B7FB7CB6A4775AC70037F2DE35658","num_area":"20.525600000000000000000000000000","ind_status":"AT","des_condic":"Aguardando analise"},"geometry":{"type":"Polygon","coordinates":[[[-43.2924,-22.0206],[-43.295,-22.0179],[-43.2896,-22.0153],[-43.2868,-22.0212],[-43.2896,-22.0175],[-43.2923,-22.0205],[-43.2924,-22.0206]]]}},{"type":"Feature","properties":{"cod_imovel":"RJ-3300951-4DAD759E861149F08FC99276C1884AAB","num_area":"66.272700000000000000000000000000","ind_status":"AT","des_condic":"Aguardando analise"},"geometry":{"type":"Polygon","coordinates":[[[-43.2375,-22.0251],[-43.2413,-22.0296],[-43.245,-22.0248],[-43.2496,-22.0281],[-43.2481,-22.0196],[-43.2378,-22.0249],[-43.2375,-22.0251]],[[-43.2422,-22.0295],[-43.2451,-22.0267],[-43.2422,-22.0295],[-43.2422,-22.0295]]]}},{"type":"Feature","properties":{"cod_imovel":"RJ-3300951-AA5A0F85E61042C8ACA5B9A698D45523","num_area":"59.557300000000000000000000000000","ind_status":"AT","des_condic":"Aguardando analise"},"geometry":{"type":"Polygon","coordinates":[[[-43.2751,-22.0201],[-43.2719,-22.0167],[-43.2746,-22.0197],[-43.2751,-22.0201]],[[-43.275,-22.0162],[-43.2724,-22.0132],[-43.2748,-22.0163],[-43.275,-22.0162]],[[-43.273,-22.0157],[-43.2688,-22.0171],[-43.2732,-22.0157],[-43.273,-22.0157]],[[-43.2772,-22.0143],[-43.276,-22.0199],[-43.2775,-22.0146],[-43.2772,-22.0143]],[[-43.2657,-22.0136],[-43.2672,-22.0207],[-43.2656,-22.0138],[-43.2657,-22.0136]]]}},{"type":"Feature","properties":{"cod_imovel":"RJ-3300951-AF9800B84E6F4A6D8B9D2832EE685F45","num_area":"69.832200000000000000000000000000","ind_status":"AT","des_condic":"Aguardando analise"},"geometry":{"type":"Polygon","coordinates":[[[-43.2299,-22.0453],[-43.2228,-22.035],[-43.2278,-22.0494],[-43.2299,-22.0453]]]}},{"type":"Feature","properties":{"cod_imovel":"RJ-3300951-0C0872AFA24F4671B8A24CE7EF32E5D3","num_area":"0.6670000000000000000000000000000","ind_status":"AT","des_condic":"Aguardando analise"},"geometry":{"type":"Polygon","coordinates":[[[-43.2315,-22.0419],[-43.2368,-22.0405],[-43.2321,-22.0467],[-43.2368,-22.0404],[-43.2325,-22.0421],[-43.2315,-22.0419]]]}},{"type":"Feature","properties":{"cod_imovel":"RJ-3300951-F220B0EC38454C5DBE9A5B95C6F5D193","num_area":"48.400000000000000000000000000000","ind_status":"AT","des_condic":"Aguardando analise"},"geometry":{"type":"Polygon","coordinates":[[[-43.2661,-22.0222],[-43.2647,-22.0125],[-43.259,-22.0218],[-43.2661,-22.0222]]]}},{"type":"Feature","properties":{"cod_imovel":"RJ-3300951-CEE701DD4CC742AC96359F5B6350CB86","num_area":"19.359500000000000000000000000000","ind_status":"AT","des_condic":"Aguardando analise"},"geometry":{"type":"Polygon","coordinates":[[[-43.2385,-22.0327],[-43.2353,-22.0275],[-43.2325,-22.0315],[-43.236,-22.0334],[-43.2385,-22.0327]]]}},{"type":"Feature","properties":{"cod_imovel":"RJ-3300951-32D058C1E043401CA4397F1FEAFDFD80","num_area":"4.0889000000000000000000000000000","ind_status":"AT","des_condic":"Aguardando analise"},"geometry":{"type":"Polygon","coordinates":[[[-43.2384,-22.0312],[-43.2358,-22.0293],[-43.2388,-22.0318],[-43.2384,-22.0312]]]}},{"type":"Feature","properties":{"cod_imovel":"RJ-3300951-E7CD71AC8232461F9F0DE8121E8BD6CB","num_area":"7.2124000000000000000000000000000","ind_status":"AT","des_condic":"Aguardando analise"},"geometry":{"type":"Polygon","coordinates":[[[-43.3038,-22.0223],[-43.2997,-22.0235],[-43.306,-22.0255],[-43.304,-22.0224],[-43.3038,-22.0223]]]}},{"type":"Feature","properties":{"cod_imovel":"RJ-3300951-3A82C9E285904319A5131BC444F8146E","num_area":"25.099000000000000000000000000000","ind_status":"AT","des_condic":"Aguardando analise"},"geometry":{"type":"Polygon","coordinates":[[[-43.2253,-22.0546],[-43.2317,-22.0501],[-43.2253,-22.0545],[-43.2253,-22.0546]]]}},{"type":"Feature","properties":{"cod_imovel":"RJ-3300951-77ABF704D4C044259A179D14B8ADC610","num_area":"32.021400000000000000000000000000","ind_status":"AT","des_condic":"Aguardando analise"},"geometry":{"type":"Polygon","coordinates":[[[-43.2288,-22.057],[-43.2344,-22.051],[-43.229,-22.0511],[-43.2255,-22.058],[-43.2286,-22.0571],[-43.2288,-22.057]]]}},{"type":"Feature","properties":{"cod_imovel":"RJ-3300951-8A121CBF2B0F446DAF103C0F1E52C929","num_area":"15.588700000000000000000000000000","ind_status":"AT","des_condic":"Aguardando analise"},"geometry":{"type":"Polygon","coordinates":[[[-43.2442,-22.0401],[-43.2386,-22.0428],[-43.2442,-22.0401],[-43.2442,-22.0401]]]}},{"type":"Feature","properties":{"cod_imovel":"RJ-3300951-C6F392ED497D43C6B2FF51788EE616B1","num_area":"14.140700000000000000000000000000","ind_status":"AT","des_condic":"Aguardando analise"},"geometry":{"type":"Polygon","coordinates":[[[-43.2198,-22.0582],[-43.2268,-22.0563],[-43.2198,-22.058],[-43.2198,-22.0582]]]}},{"type":"Feature","properties":{"cod_imovel":"RJ-3300951-EE1D9FE52A68435EAA787BF468D9931D","num_area":"40.403600000000000000000000000000","ind_status":"AT","des_condic":"Aguardando analise"},"geometry":{"type":"Polygon","coordinates":[[[-43.3226,-22.0263],[-43.3218,-22.0192],[-43.318,-22.024],[-43.3145,-22.0199],[-43.3225,-22.0266],[-43.3226,-22.0263]],[[-43.3247,-22.0262],[-43.3247,-22.02],[-43.3213,-22.0215],[-43.3248,-22.027],[-43.3247,-22.0262]]]}},{"type":"Feature","properties":{"cod_imovel":"RJ-3300951-CFB27A41A9AE4F04B62752B20CDEF351","num_area":"6.7073000000000000000000000000000","ind_status":"AT","des_condic":"Aguardando analise"},"geometry":{"type":"Polygon","coordinates":[[[-43.2231,-22.0542],[-43.2194,-22.0578],[-43.2229,-22.0543],[-43.2231,-22.0542]]]}}]}