{"type":"FeatureCollection","features":[{"type":"Feature","properties":{"cod_imovel":"RJ-3301504-5D08DC79B35A42099783D28F35B4371B","num_area":"13.001000000000000000000000000000","ind_status":"AT","des_condic":"Aguardando analise"},"geometry":{"type":"Polygon","coordinates":[[[-42.3713,-22.0589],[-42.3751,-22.0595],[-42.3709,-22.0586],[-42.3713,-22.0589]]]}},{"type":"Feature","properties":{"cod_imovel":"RJ-3301504-276E65AD066E495B8F8F540DFC4C8D02","num_area":"67.153100000000000000000000000000","ind_status":"AT","des_condic":"Aguardando analise"},"geometry":{"type":"Polygon","coordinates":[[[-42.2815,-22.0887],[-42.2846,-22.088],[-42.2815,-22.0887],[-42.2815,-22.0887]],[[-42.2813,-22.0893],[-42.2779,-22.0923],[-42.2877,-22.0951],[-42.283,-22.0884],[-42.2881,-22.0946],[-42.2921,-22.089],[-42.2814,-22.0891],[-42.2813,-22.0893]],[[-42.2897,-22.0878],[-42.2939,-22.0853],[-42.29,-22.0878],[-42.2897,-22.0878]]]}},{"type":"Feature","properties":{"cod_imovel":"RJ-3301504-8614750584BA4F41B74CF6241BDCA281","num_area":"196.24560000000000000000000000000","ind_status":"AT","des_condic":"Aguardando analise"},"geometry":{"type":"Polygon","coordinates":[[[-42.3264,-22.05],[-42.324,-22.0656],[-42.3294,-22.0617],[-42.3425,-22.0757],[-42.3401,-22.0625],[-42.3324,-22.0624],[-42.3384,-22.0605],[-42.3272,-22.0576],[-42.3266,-22.0501],[-42.3264,-22.05]],[[-42.3287,-22.0616],[-42.323,-22.0601],[-42.3336,-22.0638],[-42.3287,-22.0616],[-42.3287,-22.0616]],[[-42.3392,-22.0647],[-42.3351,-22.0673],[-42.3392,-22.0647],[-42.3392,-22.0647]]]}},{"type":"Feature","properties":{"cod_imovel":"RJ-3301504-6EEB97691DB4425E9DCB40C8750CBE90","num_area":"40.555200000000000000000000000000","ind_status":"AT","des_condic":"Aguardando analise"},"geometry":{"type":"Polygon","coordinates":[[[-42.4041,-22.0398],[-42.4088,-22.0345],[-42.4041,-22.0367],[-42.4023,-22.0323],[-42.404,-22.0397],[-42.4041,-22.0398]],[[-42.4008,-22.0393],[-42.4038,-22.04],[-42.4008,-22.0394],[-42.4008,-22.0393]]]}},{"type":"Feature","properties":{"cod_imovel":"RJ-3301504-74D5C290CE694B04A7086A62F75C06BE","num_area":"42.405400000000000000000000000000","ind_status":"AT","des_condic":"Aguardando analise"},"geometry":{"type":"Polygon","coordinates":[[[-42.3202,-22.0897],[-42.3191,-22.0868],[-42.3167,-22.0929],[-42.3175,-22.0853],[-42.3135,-22.0885],[-42.3183,-22.093],[-42.3202,-22.0897]]]}},{"type":"Feature","properties":{"cod_imovel":"RJ-3301504-81AB3D93D66244AC8416D0D2E8334CCF","num_area":"8.0525000000000000000000000000000","ind_status":"AT","des_condic":"Aguardando analise"},"geometry":{"type":"Polygon","coordinates":[[[-42.3713,-22.0677],[-42.3749,-22.0656],[-42.3713,-22.0677],[-42.3713,-22.0677]]]}},{"type":"Feature","properties":{"cod_imovel":"RJ-3301504-266BAB5F52DA43079EAAC03F2F4F06DE","num_area":"18.345200000000000000000000000000","ind_status":"AT","des_condic":"Aguardando analise"},"geometry":{"type":"Polygon","coordinates":[[[-42.3016,-22.0384],[-42.3011,-22.0347],[-42.3013,-22.0379],[-42.3016,-22.0384]],[[-42.3024,-22.0381],[-42.3037,-22.0339],[-42.3021,-22.0378],[-42.3024,-22.0381]]]}},{"type":"Feature","properties":{"cod_imovel":"RJ-3301504-D1BBD2AC3AB249B2AC1B0ECD9BB7FEA7","num_area":"11.594900000000000000000000000000","ind_status":"AT","des_condic":"Aguardando analise"},"geometry":{"type":"Polygon","coordinates":[[[-42.3775,-22.0515],[-42.3734,-22.0517],[-42.3772,-22.0512],[-42.3775,-22.0515]],[[-42.3737,-22.0523],[-42.3775,-22.0515],[-42.3734,-22.0521],[-42.3737,-22.0523]]]}},{"type":"Feature","properties":{"cod_imovel":"RJ-3301504-AE9F15843A5049119E559730672C4780","num_area":"19.086700000000000000000000000000","ind_status":"AT","des_condic":"Aguardando analise"},"geometry":{"type":"Polygon","coordinates":[[[-42.3722,-22.0557],[-42.3663,-22.0541],[-42.3723,-22.0558],[-42.3722,-22.0557]]]}},{"type":"Feature","properties":{"cod_imovel":"RJ-3301504-ED895DBFF15542D9B98B7C555D2F5555","num_area":"10.163800000000000000000000000000","ind_status":"AT","des_condic":"Aguardando analise"},"geometry":{"type":"Polygon","coordinates":[[[-42.3236,-22.0258],[-42.3277,-22.0241],[-42.316,-22.0255],[-42.3232,-22.0253],[-42.3236,-22.0258]]]}},{"type":"Feature","properties":{"cod_imovel":"RJ-3301504-665466BB333840E9BB64F967582796E4","num_area":"3.6489000000000000000000000000000","ind_status":"AT","des_condic":"Aguardando analise"},"geometry":{"type":"Polygon","coordinates":[[[-42.277,-22.0977],[-42.2797,-22.0961],[-42.277,-22.0974],[-42.277,-22.0977]]]}},{"type":"Feature","properties":{"cod_imovel":"RJ-3301504-EFCB9FAD46FD4FFAADBF0DA0CEC866BE","num_area":"7.7421000000000000000000000000000","ind_status":"AT","des_condic":"Aguardando analise"},"geometry":{"type":"Polygon","coordinates":[[[-42.3646,-22.0544],[-42.3601,-22.0536],[-42.3642,-22.0546],[-42.3646,-22.0544]],[[-42.3652,-22.0536],[-42.3582,-22.0527],[-42.3651,-22.0537],[-42.3652,-22.0536]]]}},{"type":"Feature","properties":{"cod_imovel":"RJ-3301504-A03C4BCB6C7F4B1BB9D0FD5F8675D1DC","num_area":"10.429000000000000000000000000000","ind_status":"AT","des_condic":"Aguardando analise"},"geometry":{"type":"Polygon","coordinates":[[[-42.3661,-22.0412],[-42.3706,-22.0416],[-42.3662,-22.0411],[-42.3661,-22.0412]]]}},{"type":"Feature","properties":{"cod_imovel":"RJ-3301504-473E5FFE1050410E868BA794A41119E8","num_area":"10.063400000000000000000000000000","ind_status":"AT","des_condic":"Aguardando analise"},"geometry":{"type":"Polygon","coordinates":[[[-42.3434,-22.0926],[-42.349,-22.0959],[-42.3438,-22.0925],[-42.3434,-22.0926]]]}},{"type":"Feature","properties":{"cod_imovel":"RJ-3301504-F4A65F0D9CC0436CBC8E60AAD6893B1A","num_area":"9.0968000000000000000000000000000","ind_status":"AT","des_condic":"Aguardando analise"},"geometry":{"type":"Polygon","coordinates":[[[-42.3358,-22.0235],[-42.33,-22.0171],[-42.3338,-22.0229],[-42.3358,-22.0235]]]}},{"type":"Feature","properties":{"cod_imovel":"RJ-3301504-67FABD3F58C74BFE80CE208F75254E5E","num_area":"43.812400000000000000000000000000","ind_status":"AT","des_condic":"Aguardando analise"},"geometry":{"type":"Polygon","coordinates":[[[-42.3806,-22.0541],[-42.3901,-22.0474],[-42.3882,-22.0446],[-42.3811,-22.0475],[-42.38,-22.0531],[-42.3806,-22.0541]]]}},{"type":"Feature","properties":{"cod_imovel":"RJ-3301504-9C5B61E1DCBE40BFBD2756DC5D8347A6","num_area":"35.082300000000000000000000000000","ind_status":"AT","des_condic":"Aguardando analise"},"geometry":{"type":"Polygon","coordinates":[[[-42.3175,-22.0019],[-42.3201,-22.0057],[-42.3199,-21.9997],[-42.3174,-22.0017],[-42.3175,-22.0019]],[[-42.3201,-22.0053],[-42.323,-22.001],[-42.3199,-21.999],[-42.3201,-22.0048],[-42.3201,-22.0053]]]}},{"type":"Feature","properties":{"cod_imovel":"RJ-3301504-B461A9007F4A4E8F9559A10C347BF815","num_area":"13.729900000000000000000000000000","ind_status":"AT","des_condic":"Aguardando analise"},"geometry":{"type":"Polygon","coordinates":[[[-42.3797,-22.0399],[-42.371,-22.0384],[-42.3795,-22.0401],[-42.3797,-22.0399]]]}},{"type":"Feature","properties":{"cod_imovel":"RJ-3301504-0571427FC7534B3BBD35D6C214C8404B","num_area":"10.141400000000000000000000000000","ind_status":"AT","des_condic":"Aguardando analise"},"geometry":{"type":"Polygon","coordinates":[[[-42.3556,-22.0508],[-42.3537,-22.0546],[-42.3556,-22.0511],[-42.3556,-22.0508]]]}},{"type":"Feature","properties":{"cod_imovel":"RJ-3301504-E4C921E533494B56A39254C5375AF945","num_area":"11.335300000000000000000000000000","ind_status":"AT","des_condic":"Aguardando analise"},"geometry":{"type":"Polygon","coordinates":[[[-42.3497,-22.0413],[-42.354,-22.0393],[-42.3494,-22.0409],[-42.3497,-22.0413]]]}},{"type":"Feature","properties":{"cod_imovel":"RJ-3301504-79529AE5310F4CA1B8A5862FABFDDA15","num_area":"21.972700000000000000000000000000","ind_status":"AT","des_condic":"Aguardando analise"},"geometry":{"type":"Polygon","coordinates":[[[-42.3242,-22.061],[-42.3245,-22.0644],[-42.3245,-22.061],[-42.3242,-22.061]],[[-42.3211,-22.0639],[-42.3243,-22.0682],[-42.3213,-22.0639],[-42.3211,-22.0639]],[[-42.3243,-22.0679],[-42.3203,-22.0657],[-42.3242,-22.0678],[-42.3243,-22.0679]]]}},{"type":"Feature","properties":{"cod_imovel":"RJ-3301504-998CB7C941BB4D05A9775D8FD2D7A1E5","num_area":"94.166000000000000000000000000000","ind_status":"AT","des_condic":"Aguardando analise"},"geometry":{"type":"Polygon","coordinates":[[[-42.3768,-22.0439],[-42.3709,-22.0419],[-42.3733,-22.0517],[-42.3809,-22.0482],[-42.3768,-22.0441],[-42.3768,-22.0439]],[[-42.3708,-22.0418],[-42.3711,-22.0497],[-42.3676,-22.0496],[-42.3713,-22.0529],[-42.3708,-22.0418],[-42.3708,-22.0418]]]}},{"type":"Feature","properties":{"cod_imovel":"RJ-3301504-3A74E51BBECD489B8088B2F7AB7AE338","num_area":"47.680200000000000000000000000000","ind_status":"AT","des_condic":"Aguardando analise"},"geometry":{"type":"Polygon","coordinates":[[[-42.3481,-22.0599],[-42.3537,-22.0514],[-42.3436,-22.0563],[-42.3481,-22.0598],[-42.3481,-22.0599]]]}},{"type":"Feature","properties":{"cod_imovel":"RJ-3301504-49E6EECDEA904660ABC73384D26826DA","num_area":"14.927700000000000000000000000000","ind_status":"AT","des_condic":"Aguardando analise"},"geometry":{"type":"Polygon","coordinates":[[[-42.3222,-22.0225],[-42.3175,-22.024],[-42.328,-22.023],[-42.3223,-22.0226],[-42.3222,-22.0225]]]}},{"type":"Feature","properties":{"cod_imovel":"RJ-3301504-6D45F9F02EAE4C8CBDBF725640FE0176","num_area":"113.29290000000000000000000000000","ind_status":"AT","des_condic":"Aguardando analise"},"geometry":{"type":"Polygon","coordinates":[[[-42.3453,-22.062],[-42.3435,-22.0556],[-42.3396,-22.0583],[-42.3271,-22.0515],[-42.3453,-22.0625],[-42.3453,-22.062]],[[-42.3389,-22.062],[-42.3443,-22.0701],[-42.3453,-22.063],[-42.339,-22.0621],[-42.3389,-22.062]]]}},{"type":"Feature","properties":{"cod_imovel":"RJ-3301504-75DA8FB579F2456991E41F4B0B5B2C05","num_area":"3.0476000000000000000000000000000","ind_status":"AT","des_condic":"Aguardando analise"},"geometry":{"type":"Polygon","coordinates":[[[-42.3518,-22.0415],[-42.355,-22.0391],[-42.3522,-22.0413],[-42.3518,-22.0415]]]}},{"type":"Feature","properties":{"cod_imovel":"RJ-3301504-C9D7C9043B444E999586A094DD6BFDB5","num_area":"54.727400000000000000000000000000","ind_status":"AT","des_condic":"Aguardando analise"},"geometry":{"type":"Polygon","coordinates":[[[-42.322,-21.9996],[-42.3201,-22.0058],[-42.3178,-21.9963],[-42.3196,-22.0076],[-42.3272,-22.0049],[-42.3225,-22.0048],[-42.3221,-22.0003],[-42.322,-21.9996]]]}},{"type":"Feature","properties":{"cod_imovel":"RJ-3301504-60B6CC7D7F26404084201B24A4C67AB5","num_area":"45.285900000000000000000000000000","ind_status":"AT","des_condic":"Aguardando analise"},"geometry":{"type":"Polygon","coordinates":[[[-42.3685,-22.0774],[-42.3719,-22.0698],[-42.3746,-22.0782],[-42.3722,-22.069],[-42.3686,-22.0773],[-42.3685,-22.0774]]]}},{"type":"Feature","properties":{"cod_imovel":"RJ-3301504-A6B9D150D0A541D6AA208959B5ACAD6A","num_area":"24.984700000000000000000000000000","ind_status":"AT","des_condic":"Aguardando analise"},"geometry":{"type":"Polygon","coordinates":[[[-42.3723,-22.0106],[-42.3684,-22.0092],[-42.3695,-22.0155],[-42.373,-22.0107],[-42.3723,-22.0106]]]}},{"type":"Feature","properties":{"cod_imovel":"RJ-3301504-94B5BE0BBA6A4BD98864CC845262B0C5","num_area":"36.136000000000000000000000000000","ind_status":"AT","des_condic":"Aguardando analise"},"geometry":{"type":"Polygon","coordinates":[[[-42.4046,-22.0404],[-42.4142,-22.0382],[-42.4144,-22.0329],[-42.4042,-22.0398],[-42.413,-22.0381],[-42.4044,-22.0401],[-42.4046,-22.0404]]]}},{"type":"Feature","properties":{"cod_imovel":"RJ-3301504-390A59CE05084048BEA44A9DE39D77E8","num_area":"12.127000000000000000000000000000","ind_status":"AT","des_condic":"Aguardando analise"},"geometry":{"type":"Polygon","coordinates":[[[-42.3894,-22.0316],[-42.3928,-22.0299],[-42.3897,-22.0275],[-42.3894,-22.0316]]]}},{"type":"Feature","properties":{"cod_imovel":"RJ-3301504-11391F514F8E4154BC08962E35060EC5","num_area":"27.334900000000000000000000000000","ind_status":"AT","des_condic":"Aguardando analise"},"geometry":{"type":"Polygon","coordinates":[[[-42.3754,-22.0657],[-42.3727,-22.0706],[-42.3779,-22.0693],[-42.3755,-22.0657],[-42.3754,-22.0657]]]}},{"type":"Feature","properties":{"cod_imovel":"RJ-3301504-6C8F6A7152BC45B4AFE9A56A9B638C6B","num_area":"42.703500000000000000000000000000","ind_status":"AT","des_condic":"Aguardando analise"},"geometry":{"type":"Polygon","coordinates":[[[-42.4158,-22.0396],[-42.4144,-22.0369],[-42.406,-22.0438],[-42.4143,-22.0452],[-42.4146,-22.0404],[-42.4158,-22.0396]],[[-42.4145,-22.0407],[-42.4143,-22.0449],[-42.4138,-22.0415],[-42.4145,-22.0407]]]}},{"type":"Feature","properties":{"cod_imovel":"RJ-3301504-58FB9F8FB18741F3B8F4BB2B88F660AB","num_area":"106.64280000000000000000000000000","ind_status":"AT","des_condic":"Aguardando analise"},"geometry":{"type":"Polygon","coordinates":[[[-42.3202,-22.0412],[-42.3246,-22.0443],[-42.326,-22.0408],[-42.3199,-22.0308],[-42.3204,-22.0413],[-42.3202,-22.0412]],[[-42.3273,-22.0478],[-42.3214,-22.0423],[-42.3274,-22.0479],[-42.3273,-22.0478]],[[-42.3292,-22.0448],[-42.3284,-22.0388],[-42.3289,-22.0447],[-42.3292,-22.0448]]]}},{"type":"Feature","properties":{"cod_imovel":"RJ-3301504-8ADD91373D094D0AB6723E3F6A5FFC1C","num_area":"18.985500000000000000000000000000","ind_status":"AT","des_condic":"Aguardando analise"},"geometry":{"type":"Polygon","coordinates":[[[-42.3231,-22.0614],[-42.32,-22.0589],[-42.3169,-22.0631],[-42.3229,-22.0618],[-42.3231,-22.0614]]]}},{"type":"Feature","properties":{"cod_imovel":"RJ-3301504-CB6C1BC1E2EA4037A648C0C97D026E4D","num_area":"4.8555000000000000000000000000000","ind_status":"AT","des_condic":"Aguardando analise"},"geometry":{"type":"Polygon","coordinates":[[[-42.3173,-22.0645],[-42.3162,-22.0616],[-42.3176,-22.0648],[-42.3173,-22.0645]]]}},{"type":"Feature","properties":{"cod_imovel":"RJ-3301504-95178DACDC964F0084372D043D2EEFC2","num_area":"20.907300000000000000000000000000","ind_status":"AT","des_condic":"Aguardando analise"},"geometry":{"type":"Polygon","coordinates":[[[-42.3483,-22.0434],[-42.3472,-22.0483],[-42.3503,-22.0439],[-42.3483,-22.0434]]]}},{"type":"Feature","properties":{"cod_imovel":"RJ-3301504-7F8B972B0770455D88AB6DC594B16858","num_area":"4.9589000000000000000000000000000","ind_status":"AT","des_condic":"Aguardando analise"},"geometry":{"type":"Polygon","coordinates":[[[-42.3073,-22.0783],[-42.3036,-22.0783],[-42.307,-22.0792],[-42.3073,-22.0783]]]}},{"type":"Feature","properties":{"cod_imovel":"RJ-3301504-AF03F9D078264406BECFA3C1504FB3CA","num_area":"15.255100000000000000000000000000","ind_status":"AT","des_condic":"Aguardando analise"},"geometry":{"type":"Polygon","coordinates":[[[-42.3882,-22.0301],[-42.3859,-22.0329],[-42.3907,-22.0331],[-42.3882,-22.0301],[-42.3882,-22.0301]],[[-42.3874,-22.0332],[-42.3907,-22.0334],[-42.3877,-22.0333],[-42.3874,-22.0332]]]}},{"type":"Feature","properties":{"cod_imovel":"RJ-3301504-18511BB9B57D408189DB364360F59A32","num_area":"46.682500000000000000000000000000","ind_status":"AT","des_condic":"Aguardando analise"},"geometry":{"type":"Polygon","coordinates":[[[-42.3354,-22.0002],[-42.3354,-21.9953],[-42.3245,-21.9968],[-42.3352,-22.0005],[-42.3354,-22.0002]]]}},{"type":"Feature","properties":{"cod_imovel":"RJ-3301504-3E8909B911BD4AA3AF7A0F7152C61289","num_area":"28.232000000000000000000000000000","ind_status":"AT","des_condic":"Aguardando analise"},"geometry":{"type":"Polygon","coordinates":[[[-42.3507,-22.1096],[-42.3483,-22.1016],[-42.3453,-22.1063],[-42.3501,-22.1093],[-42.3507,-22.1096]]]}},{"type":"Feature","properties":{"cod_imovel":"RJ-3301504-0C23D61CF596447695A3E9FBBD368802","num_area":"5.0500000000000000000000000000000","ind_status":"AT","des_condic":"Aguardando analise"},"geometry":{"type":"Polygon","coordinates":[[[-42.324,-22.0609],[-42.3258,-22.0638],[-42.324,-22.0606],[-42.324,-22.0609]]]}},{"type":"Feature","properties":{"cod_imovel":"RJ-3301504-9FD18595C9124AF69DB00BC246BB4162","num_area":"8.2082000000000000000000000000000","ind_status":"AT","des_condic":"Aguardando analise"},"geometry":{"type":"Polygon","coordinates":[[[-42.305,-22.0788],[-42.3059,-22.0827],[-42.3053,-22.0791],[-42.305,-22.0788]]]}},{"type":"Feature","properties":{"cod_imovel":"RJ-3301504-4E2DD5A278EA495DA88800EBBACD0B68","num_area":"8.4173000000000000000000000000000","ind_status":"AT","des_condic":"Aguardando analise"},"geometry":{"type":"Polygon","coordinates":[[[-42.3561,-22.0262],[-42.3526,-22.0286],[-42.3562,-22.0262],[-42.3561,-22.0262]]]}},{"type":"Feature","properties":{"cod_imovel":"RJ-3301504-FD2CF9A1D05D4C7E964E54CA4551B986","num_area":"5.1796000000000000000000000000000","ind_status":"AT","des_condic":"Aguardando analise"},"geometry":{"type":"Polygon","coordinates":[[[-42.3475,-22.1001],[-42.3524,-22.104],[-42.348,-22.0999],[-42.3475,-22.1001]]]}},{"type":"Feature","properties":{"cod_imovel":"RJ-3301504-B72C3FAFEB734EED800000964DBC90CF","num_area":"25.460200000000000000000000000000","ind_status":"AT","des_condic":"Aguardando analise"},"geometry":{"type":"Polygon","coordinates":[[[-42.3561,-22.0741],[-42.3656,-22.0692],[-42.3567,-22.0727],[-42.3561,-22.0741]]]}},{"type":"Feature","properties":{"cod_imovel":"RJ-3301504-CFCB97710F8B42E5881A4CABBCC5B9DD","num_area":"23.931700000000000000000000000000","ind_status":"AT","des_condic":"Aguardando analise"},"geometry":{"type":"Polygon","coordinates":[[[-42.3759,-22.0252],[-42.3803,-22.0264],[-42.3793,-22.0209],[-42.3756,-22.0237],[-42.3759,-22.0252]]]}},{"type":"Feature","properties":{"cod_imovel":"RJ-3301504-4AE21B61D1B74EAD86C4632EDC09D778","num_area":"12.637900000000000000000000000000","ind_status":"AT","des_condic":"Aguardando analise"},"geometry":{"type":"Polygon","coordinates":[[[-42.3943,-22.0404],[-42.3994,-22.0384],[-42.3959,-22.0362],[-42.3942,-22.0404],[-42.3943,-22.0404]]]}},{"type":"Feature","properties":{"cod_imovel":"RJ-3301504-0861FED754724A1E883FD7954612555E","num_area":"16.331900000000000000000000000000","ind_status":"AT","des_condic":"Aguardando analise"},"geometry":{"type":"Polygon","coordinates":[[[-42.3409,-22.0359],[-42.3365,-22.0405],[-42.3407,-22.0377],[-42.3409,-22.0359]]]}},{"type":"Feature","properties":{"cod_imovel":"RJ-3301504-F7A4DB14FFD648C4BD3B7AEF99663A75","num_area":"23.443700000000000000000000000000","ind_status":"AT","des_condic":"Aguardando analise"},"geometry":{"type":"Polygon","coordinates":[[[-42.3369,-22.0272],[-42.3415,-22.0355],[-42.3479,-22.0359],[-42.3368,-22.0273],[-42.3369,-22.0272]],[[-42.3359,-22.0265],[-42.3405,-22.0349],[-42.347,-22.0358],[-42.3414,-22.0356],[-42.3365,-22.028],[-42.3359,-22.0265]]]}},{"type":"Feature","properties":{"cod_imovel":"RJ-3301504-8DB8FD7A091C4A64A33CBCE0E0721B10","num_area":"32.975500000000000000000000000000","ind_status":"AT","des_condic":"Aguardando analise"},"geometry":{"type":"Polygon","coordinates":[[[-42.3238,-22.0412],[-42.3205,-22.0376],[-42.3246,-22.0506],[-42.3206,-22.0381],[-42.3264,-22.0496],[-42.3249,-22.0423],[-42.3238,-22.0412]]]}},{"type":"Feature","properties":{"cod_imovel":"RJ-3301504-178D98A2007845A48A9AB88315716A5B","num_area":"11.114000000000000000000000000000","ind_status":"AT","des_condic":"Aguardando analise"},"geometry":{"type":"Polygon","coordinates":[[[-42.3354,-22.1147],[-42.3412,-22.1147],[-42.3357,-22.1144],[-42.3354,-22.1147]]]}},{"type":"Feature","properties":{"cod_imovel":"RJ-3301504-813DF9B915804C049FB2DBB960829FD3","num_area":"16.195400000000000000000000000000","ind_status":"AT","des_condic":"Aguardando analise"},"geometry":{"type":"Polygon","coordinates":[[[-42.4039,-22.0544],[-42.3973,-22.0495],[-42.4036,-22.0559],[-42.4039,-22.0544]]]}},{"type":"Feature","properties":{"cod_imovel":"RJ-3301504-5009C8985F6540DAA4B4A0E6FFEE9ECA","num_area":"30.915500000000000000000000000000","ind_status":"AT","des_condic":"Aguardando analise"},"geometry":{"type":"Polygon","coordinates":[[[-42.4118,-22.0395],[-42.4045,-22.0406],[-42.4116,-22.0395],[-42.4118,-22.0395]],[[-42.4119,-22.0382],[-42.4091,-22.0332],[-42.4041,-22.0398],[-42.4119,-22.0382],[-42.4119,-22.0382]],[[-42.4041,-22.0398],[-42.4087,-22.0387],[-42.4042,-22.0397],[-42.4041,-22.0398]]]}},{"type":"Feature","properties":{"cod_imovel":"RJ-3301504-D817B934BCD84773A204DD543CF88BEB","num_area":"55.852500000000000000000000000000","ind_status":"AT","des_condic":"Aguardando analise"},"geometry":{"type":"Polygon","coordinates":[[[-42.3039,-22.0334],[-42.3091,-22.0302],[-42.2987,-22.0298],[-42.3023,-22.0339],[-42.3039,-22.0334]]]}},{"type":"Feature","properties":{"cod_imovel":"RJ-3301504-598FCB9E144F43198E485E4F28F13ED4","num_area":"7.7292000000000000000000000000000","ind_status":"AT","des_condic":"Aguardando analise"},"geometry":{"type":"Polygon","coordinates":[[[-42.3255,-22.0917],[-42.3271,-22.0875],[-42.3254,-22.0916],[-42.3255,-22.0917]]]}},{"type":"Feature","properties":{"cod_imovel":"RJ-3301504-A47EB33D3FC04BF3978CE141203EECF6","num_area":"141.51550000000000000000000000000","ind_status":"AT","des_condic":"Aguardando analise"},"geometry":{"type":"Polygon","coordinates":[[[-42.3265,-22.0496],[-42.329,-22.0454],[-42.3251,-22.0438],[-42.3265,-22.0496],[-42.3265,-22.0496]],[[-42.3237,-22.0496],[-42.326,-22.0401],[-42.3187,-22.0309],[-42.318,-22.0499],[-42.321,-22.0464],[-42.3236,-22.0495],[-42.3237,-22.0496]],[[-42.3261,-22.0413],[-42.329,-22.0448],[-42.3295,-22.0397],[-42.3258,-22.0381],[-42.326,-22.0413],[-42.3261,-22.0413]]]}},{"type":"Feature","properties":{"cod_imovel":"RJ-3301504-E002B0CBCBBB4AA2A377F7965A8F67BF","num_area":"14.927000000000000000000000000000","ind_status":"AT","des_condic":"Aguardando analise"},"geometry":{"type":"Polygon","coordinates":[[[-42.3929,-22.0535],[-42.389,-22.0515],[-42.3927,-22.0534],[-42.3929,-22.0535]],[[-42.3838,-22.0539],[-42.3805,-22.0542],[-42.3843,-22.0537],[-42.3838,-22.0539]],[[-42.3853,-22.0553],[-42.3909,-22.0561],[-42.3885,-22.0508],[-42.3853,-22.0553],[-42.3853,-22.0553]]]}},{"type":"Feature","properties":{"cod_imovel":"RJ-3301504-AD559BF54C2D45DCAEA8CDB53753B81A","num_area":"4.1900000000000000000000000000000","ind_status":"AT","des_condic":"Aguardando analise"},"geometry":{"type":"Polygon","coordinates":[[[-42.3709,-22.0691],[-42.3689,-22.0639],[-42.3693,-22.0672],[-42.3709,-22.0691]]]}},{"type":"Feature","properties":{"cod_imovel":"RJ-3301504-25AFE087A2E94F84AEB965876715C541","num_area":"4.3000000000000000000000000000000","ind_status":"AT","des_condic":"Aguardando analise"},"geometry":{"type":"Polygon","coordinates":[[[-42.353,-22.0337],[-42.3528,-22.0295],[-42.3529,-22.0328],[-42.353,-22.0337]]]}},{"type":"Feature","properties":{"cod_imovel":"RJ-3301504-EE0A829A5A114282A97DCD2E66F108FC","num_area":"91.472700000000000000000000000000","ind_status":"AT","des_condic":"Aguardando analise"},"geometry":{"type":"Polygon","coordinates":[[[-42.3171,-22.0691],[-42.3193,-22.0738],[-42.3238,-22.0698],[-42.3207,-22.072],[-42.3242,-22.0739],[-42.3248,-22.0683],[-42.3173,-22.0643],[-42.3171,-22.0687],[-42.3171,-22.0691]],[[-42.3246,-22.0724],[-42.3299,-22.0657],[-42.3244,-22.0663],[-42.3246,-22.0723],[-42.3246,-22.0724]]]}},{"type":"Feature","properties":{"cod_imovel":"RJ-3301504-16820D7778DC446FBC8097431F27977A","num_area":"22.085800000000000000000000000000","ind_status":"AT","des_condic":"Aguardando analise"},"geometry":{"type":"Polygon","coordinates":[[[-42.3107,-22.0867],[-42.3175,-22.0853],[-42.3119,-22.0856],[-42.3107,-22.0867]]]}},{"type":"Feature","properties":{"cod_imovel":"RJ-3301504-9E411069BBE84E458A1A0EB92756AE09","num_area":"3.8509000000000000000000000000000","ind_status":"AT","des_condic":"Aguardando analise"},"geometry":{"type":"Polygon","coordinates":[[[-42.3682,-22.054],[-42.3675,-22.0504],[-42.3681,-22.0539],[-42.3682,-22.054]]]}},{"type":"Feature","properties":{"cod_imovel":"RJ-3301504-38A8F855C03241CC92E5BFF22A0B7EB9","num_area":"10.638200000000000000000000000000","ind_status":"AT","des_condic":"Aguardando analise"},"geometry":{"type":"Polygon","coordinates":[[[-42.3779,-22.0584],[-42.3728,-22.0561],[-42.3782,-22.0586],[-42.3779,-22.0584]]]}},{"type":"Feature","properties":{"cod_imovel":"RJ-3301504-1B6F97FBB63E45978CC1E3EF145CF3F7","num_area":"19.623400000000000000000000000000","ind_status":"AT","des_condic":"Aguardando analise"},"geometry":{"type":"Polygon","coordinates":[[[-42.3188,-22.0216],[-42.3158,-22.0133],[-42.3152,-22.0229],[-42.3186,-22.0219],[-42.3188,-22.0216]]]}},{"type":"Feature","properties":{"cod_imovel":"RJ-3301504-F17A48FDF13E4F3CB1CD2C225FEA643E","num_area":"4.1588000000000000000000000000000","ind_status":"AT","des_condic":"Aguardando analise"},"geometry":{"type":"Polygon","coordinates":[[[-42.3338,-22.0296],[-42.3296,-22.0284],[-42.3332,-22.0299],[-42.3338,-22.0296]]]}},{"type":"Feature","properties":{"cod_imovel":"RJ-3301504-2036AC9925044E41A34B9F01D6834C86","num_area":"34.024000000000000000000000000000","ind_status":"AT","des_condic":"Aguardando analise"},"geometry":{"type":"Polygon","coordinates":[[[-42.3022,-22.1054],[-42.3036,-22.0997],[-42.2973,-22.1012],[-42.302,-22.1057],[-42.3022,-22.1054]]]}},{"type":"Feature","properties":{"cod_imovel":"RJ-3301504-B9F31F5FAA7040C6BCCA9A8FAA36B5E6","num_area":"13.996600000000000000000000000000","ind_status":"AT","des_condic":"Aguardando analise"},"geometry":{"type":"Polygon","coordinates":[[[-42.3354,-22.1142],[-42.3389,-22.1143],[-42.332,-22.1131],[-42.3352,-22.114],[-42.3354,-22.1142]]]}},{"type":"Feature","properties":{"cod_imovel":"RJ-3301504-980CF6CEBDED42CCB647B45EB15B041E","num_area":"22.222700000000000000000000000000","ind_status":"AT","des_condic":"Aguardando analise"},"geometry":{"type":"Polygon","coordinates":[[[-42.3363,-22.0425],[-42.332,-22.0409],[-42.3363,-22.043],[-42.3363,-22.0425]],[[-42.3261,-22.0501],[-42.3301,-22.0473],[-42.3264,-22.0457],[-42.3265,-22.0498],[-42.3261,-22.0501]]]}},{"type":"Feature","properties":{"cod_imovel":"RJ-3301504-496E477658BC400C980301F48CA8906C","num_area":"25.806600000000000000000000000000","ind_status":"AT","des_condic":"Aguardando analise"},"geometry":{"type":"Polygon","coordinates":[[[-42.3407,-22.1057],[-42.3385,-22.1033],[-42.3386,-22.108],[-42.3406,-22.1057],[-42.3407,-22.1057]],[[-42.3408,-22.1058],[-42.3444,-22.1057],[-42.3397,-22.1019],[-42.3408,-22.1057],[-42.3408,-22.1058]]]}},{"type":"Feature","properties":{"cod_imovel":"RJ-3301504-A9978217B2084D6C88C52F05A4799DCE","num_area":"34.790600000000000000000000000000","ind_status":"AT","des_condic":"Aguardando analise"},"geometry":{"type":"Polygon","coordinates":[[[-42.3862,-22.012],[-42.3926,-22.0117],[-42.3894,-22.0063],[-42.3868,-22.0115],[-42.3862,-22.012]]]}},{"type":"Feature","properties":{"cod_imovel":"RJ-3301504-97D2DF4D74BA4E92BFBA513A8A0FB393","num_area":"2.2614000000000000000000000000000","ind_status":"AT","des_condic":"Aguardando analise"},"geometry":{"type":"Polygon","coordinates":[[[-42.3284,-22.0141],[-42.3307,-22.0118],[-42.3283,-22.014],[-42.3284,-22.0141]]]}},{"type":"Feature","properties":{"cod_imovel":"RJ-3301504-F0848A98D99D40148B26E37228964C49","num_area":"11.906600000000000000000000000000","ind_status":"CA","des_condic":"Cancelado por duplicidade"},"geometry":{"type":"Polygon","coordinates":[[[-42.3051,-22.0775],[-42.3108,-22.0761],[-42.3046,-22.0772],[-42.3051,-22.0775]]]}},{"type":"Feature","properties":{"cod_imovel":"RJ-3301504-07CD2AE33C9A410AA0C727959FD9C171","num_area":"80.424200000000000000000000000000","ind_status":"AT","des_condic":"Aguardando analise"},"geometry":{"type":"Polygon","coordinates":[[[-42.3089,-22.0558],[-42.3107,-22.0588],[-42.3052,-22.0537],[-42.3109,-22.07],[-42.3096,-22.0561],[-42.3089,-22.0558]],[[-42.3118,-22.0687],[-42.3111,-22.0642],[-42.3119,-22.0682],[-42.3118,-22.0687]],[[-42.311,-22.0636],[-42.3134,-22.0571],[-42.311,-22.0636],[-42.311,-22.0636]],[[-42.3108,-22.0588],[-42.3135,-22.0559],[-42.3108,-22.0588],[-42.3108,-22.0588]]]}},{"type":"Feature","properties":{"cod_imovel":"RJ-3301504-6C3FBE86A31949FC9E497C5A4FD7F92A","num_area":"14.651600000000000000000000000000","ind_status":"AT","des_condic":"Aguardando analise"},"geometry":{"type":"Polygon","coordinates":[[[-42.3801,-22.0115],[-42.3854,-22.0118],[-42.3802,-22.0114],[-42.3801,-22.0115]]]}},{"type":"Feature","properties":{"cod_imovel":"RJ-3301504-B60AAD0E375047A19B31AC27389727F9","num_area":"6.4133000000000000000000000000000","ind_status":"AT","des_condic":"Aguardando analise"},"geometry":{"type":"Polygon","coordinates":[[[-42.3207,-22.1104],[-42.3214,-22.1133],[-42.3207,-22.1104],[-42.3207,-22.1104]]]}},{"type":"Feature","properties":{"cod_imovel":"RJ-3301504-D1F3542AA64C40AB98B17D7EAAB39AE4","num_area":"66.556700000000000000000000000000","ind_status":"AT","des_condic":"Aguardando analise"},"geometry":{"type":"Polygon","coordinates":[[[-42.3081,-22.0933],[-42.3005,-22.0856],[-42.3008,-22.0982],[-42.3081,-22.0933],[-42.3081,-22.0933]],[[-42.3014,-22.0888],[-42.3064,-22.0919],[-42.3014,-22.0888],[-42.3014,-22.0888]],[[-42.3018,-22.0856],[-42.3042,-22.0899],[-42.3073,-22.0872],[-42.303,-22.0856],[-42.3018,-22.0856]]]}},{"type":"Feature","properties":{"cod_imovel":"RJ-3301504-701E9DDE1FB04F3A87E9B64222E49441","num_area":"57.987300000000000000000000000000","ind_status":"AT","des_condic":"Aguardando analise"},"geometry":{"type":"Polygon","coordinates":[[[-42.3772,-22.0309],[-42.383,-22.033],[-42.3832,-22.0266],[-42.38,-22.0304],[-42.3789,-22.0263],[-42.3718,-22.0262],[-42.3696,-22.0324],[-42.3766,-22.0302],[-42.3714,-22.0272],[-42.3772,-22.0309],[-42.3772,-22.0309]],[[-42.3836,-22.0263],[-42.3899,-22.0254],[-42.3846,-22.0262],[-42.3836,-22.0263]],[[-42.387,-22.0231],[-42.3832,-22.0252],[-42.3866,-22.0234],[-42.387,-22.0231]],[[-42.3832,-22.0252],[-42.3805,-22.0271],[-42.3829,-22.0253],[-42.3832,-22.0252]]]}},{"type":"Feature","properties":{"cod_imovel":"RJ-3301504-C34CABB3CB274BF9A7A34E8188F4EA4D","num_area":"74.114700000000000000000000000000","ind_status":"AT","des_condic":"Aguardando analise"},"geometry":{"type":"Polygon","coordinates":[[[-42.4063,-22.0454],[-42.404,-22.0478],[-42.4062,-22.0456],[-42.4063,-22.0454]],[[-42.4059,-22.0453],[-42.3925,-22.0451],[-42.3901,-22.0512],[-42.4002,-22.0471],[-42.4047,-22.0501],[-42.4057,-22.046],[-42.4059,-22.0453]],[[-42.4034,-22.0463],[-42.3971,-22.0454],[-42.4031,-22.0462],[-42.4034,-22.0463]],[[-42.405,-22.0474],[-42.4129,-22.0476],[-42.4055,-22.0472],[-42.405,-22.0474]]]}},{"type":"Feature","properties":{"cod_imovel":"RJ-3301504-4C777E96B57E404CB78DD627F7DFB216","num_area":"26.847500000000000000000000000000","ind_status":"AT","des_condic":"Aguardando analise"},"geometry":{"type":"Polygon","coordinates":[[[-42.3124,-22.0816],[-42.309,-22.0809],[-42.3096,-22.0866],[-42.3152,-22.0828],[-42.3102,-22.0854],[-42.3124,-22.0817],[-42.3124,-22.0816]]]}},{"type":"Feature","properties":{"cod_imovel":"RJ-3301504-040CEC11DAA7459F9947C56E8F5357CE","num_area":"58.155000000000000000000000000000","ind_status":"AT","des_condic":"Aguardando analise"},"geometry":{"type":"Polygon","coordinates":[[[-42.403,-22.0427],[-42.4004,-22.0391],[-42.3938,-22.0409],[-42.3952,-22.0455],[-42.4029,-22.0441],[-42.403,-22.0427]],[[-42.4037,-22.0468],[-42.4042,-22.0426],[-42.4033,-22.0457],[-42.4037,-22.0468]]]}},{"type":"Feature","properties":{"cod_imovel":"RJ-3301504-4748114A4DDA4D698B484F73D8885B55","num_area":"58.155000000000000000000000000000","ind_status":"AT","des_condic":"Aguardando analise"},"geometry":{"type":"Polygon","coordinates":[[[-42.403,-22.0427],[-42.4004,-22.0391],[-42.3938,-22.0409],[-42.3952,-22.0455],[-42.4029,-22.0441],[-42.403,-22.0427]],[[-42.4037,-22.0468],[-42.4042,-22.0426],[-42.4033,-22.0457],[-42.4037,-22.0468]]]}},{"type":"Feature","properties":{"cod_imovel":"RJ-3301504-87A7A1C4F16043A88F200B02D08EB657","num_area":"6.9883000000000000000000000000000","ind_status":"AT","des_condic":"Aguardando analise"},"geometry":{"type":"Polygon","coordinates":[[[-42.365,-22.0044],[-42.362,-22.0066],[-42.365,-22.0044],[-42.365,-22.0044]]]}},{"type":"Feature","properties":{"cod_imovel":"RJ-3301504-484F127659714375B071FEA2C8E8D47F","num_area":"46.765600000000000000000000000000","ind_status":"AT","des_condic":"Em analise"},"geometry":{"type":"Polygon","coordinates":[[[-42.3206,-22.0873],[-42.3148,-22.0816],[-42.32,-22.0874],[-42.3206,-22.0873]],[[-42.3271,-22.0862],[-42.3165,-22.0822],[-42.32,-22.0869],[-42.3269,-22.0859],[-42.3271,-22.0862]],[[-42.3185,-22.081],[-42.3128,-22.0809],[-42.3185,-22.0811],[-42.3185,-22.081]]]}},{"type":"Feature","properties":{"cod_imovel":"RJ-3301504-14BAE513634A41E7B4E1CDE7CAB749CC","num_area":"50.707500000000000000000000000000","ind_status":"AT","des_condic":"Aguardando analise"},"geometry":{"type":"Polygon","coordinates":[[[-42.34,-22.1066],[-42.3397,-22.1132],[-42.3404,-22.1064],[-42.34,-22.1066]],[[-42.3405,-22.1063],[-42.3427,-22.1163],[-42.3447,-22.1099],[-42.3405,-22.1061],[-42.3405,-22.1063]],[[-42.3447,-22.1098],[-42.3409,-22.1059],[-42.3435,-22.1096],[-42.3447,-22.1098]],[[-42.3465,-22.1068],[-42.3418,-22.1068],[-42.3451,-22.1087],[-42.3465,-22.1068]]]}},{"type":"Feature","properties":{"cod_imovel":"RJ-3301504-92EC243620074BC3A51EAD6BB534F3B1","num_area":"10.613200000000000000000000000000","ind_status":"AT","des_condic":"Aguardando analise"},"geometry":{"type":"Polygon","coordinates":[[[-42.2771,-22.0894],[-42.2719,-22.0894],[-42.2772,-22.0897],[-42.2771,-22.0894]]]}},{"type":"Feature","properties":{"cod_imovel":"RJ-3301504-0CF336DA2CE04E8CB2E7D4E5329E388A","num_area":"184.48980000000000000000000000000","ind_status":"CA","des_condic":"Cancelado por decisao administrativa"},"geometry":{"type":"Polygon","coordinates":[[[-42.3495,-22.0002],[-42.3451,-22.001],[-42.3514,-22.0039],[-42.3355,-21.9988],[-42.3397,-22.0042],[-42.3351,-22.0103],[-42.3425,-22.0102],[-42.3351,-22.0103],[-42.3344,-22.0162],[-42.3443,-22.0144],[-42.3468,-22.0032],[-42.3533,-22.0061],[-42.3494,-22.0003],[-42.3495,-22.0002]]]}},{"type":"Feature","properties":{"cod_imovel":"RJ-3301504-4DACB7895AD54EF688E67C3B8ACFD59D","num_area":"52.311700000000000000000000000000","ind_status":"AT","des_condic":"Aguardando analise"},"geometry":{"type":"Polygon","coordinates":[[[-42.3108,-22.0765],[-42.3091,-22.0823],[-42.3124,-22.0808],[-42.3079,-22.0754],[-42.3119,-22.0806],[-42.3108,-22.0766],[-42.3108,-22.0765]],[[-42.3124,-22.0808],[-42.3161,-22.0788],[-42.3116,-22.0731],[-42.3085,-22.0752],[-42.3122,-22.0807],[-42.3124,-22.0808]],[[-42.3127,-22.0731],[-42.3083,-22.0748],[-42.3124,-22.0733],[-42.3127,-22.0731]]]}},{"type":"Feature","properties":{"cod_imovel":"RJ-3301504-C14B92DD431F4286A0412680B635E676","num_area":"5.4450000000000000000000000000000","ind_status":"AT","des_condic":"Aguardando analise"},"geometry":{"type":"Polygon","coordinates":[[[-42.3653,-22.0094],[-42.3616,-22.0071],[-42.3645,-22.009],[-42.3653,-22.0094]]]}},{"type":"Feature","properties":{"cod_imovel":"RJ-3301504-5857D98B6B7441A2AF6AB5BAD2F8A452","num_area":"14.207400000000000000000000000000","ind_status":"AT","des_condic":"Aguardando analise"},"geometry":{"type":"Polygon","coordinates":[[[-42.3197,-22.0194],[-42.327,-22.0203],[-42.3198,-22.0192],[-42.3197,-22.0194]]]}},{"type":"Feature","properties":{"cod_imovel":"RJ-3301504-FA4D4634BF294875AAA139D4C698CC14","num_area":"9.2793000000000000000000000000000","ind_status":"AT","des_condic":"Aguardando analise"},"geometry":{"type":"Polygon","coordinates":[[[-42.3337,-22.0977],[-42.3366,-22.1027],[-42.3338,-22.0977],[-42.3337,-22.0977]]]}},{"type":"Feature","properties":{"cod_imovel":"RJ-3301504-11A63FF3EF3E47F193414CD5ECA37982","num_area":"137.10390000000000000000000000000","ind_status":"AT","des_condic":"Aguardando analise"},"geometry":{"type":"Polygon","coordinates":[[[-42.3469,-22.0706],[-42.3508,-22.0713],[-42.3534,-22.0617],[-42.3606,-22.066],[-42.3569,-22.0558],[-42.3481,-22.0569],[-42.3497,-22.0602],[-42.3556,-22.0562],[-42.3469,-22.0706],[-42.3469,-22.0706]],[[-42.3461,-22.0657],[-42.3516,-22.0637],[-42.3461,-22.0654],[-42.3461,-22.0657]],[[-42.3465,-22.069],[-42.3511,-22.0644],[-42.3464,-22.069],[-42.3465,-22.069]]]}},{"type":"Feature","properties":{"cod_imovel":"RJ-3301504-121335439E9A47CA928AC5F6C473A487","num_area":"6.3058000000000000000000000000000","ind_status":"AT","des_condic":"Aguardando analise"},"geometry":{"type":"Polygon","coordinates":[[[-42.3349,-22.0958],[-42.3366,-22.0988],[-42.3351,-22.0959],[-42.3349,-22.0958]]]}},{"type":"Feature","properties":{"cod_imovel":"RJ-3301504-03881E8F535B4B5E83B9B59A6CC2057E","num_area":"17.567900000000000000000000000000","ind_status":"AT","des_condic":"Aguardando analise"},"geometry":{"type":"Polygon","coordinates":[[[-42.3244,-22.0906],[-42.3201,-22.0903],[-42.3245,-22.0907],[-42.3244,-22.0906]],[[-42.3227,-22.0929],[-42.326,-22.0923],[-42.3227,-22.0927],[-42.3227,-22.0929]]]}},{"type":"Feature","properties":{"cod_imovel":"RJ-3301504-49840F3FBCB64CEDB0F17BEBC0F73D84","num_area":"29.364300000000000000000000000000","ind_status":"AT","des_condic":"Aguardando analise"},"geometry":{"type":"Polygon","coordinates":[[[-42.3202,-22.0897],[-42.3219,-22.094],[-42.3208,-22.0897],[-42.3202,-22.0897]],[[-42.325,-22.092],[-42.3228,-22.0886],[-42.3242,-22.0916],[-42.325,-22.092]],[[-42.3277,-22.093],[-42.3266,-22.0875],[-42.3234,-22.0895],[-42.3276,-22.093],[-42.3277,-22.093]]]}},{"type":"Feature","properties":{"cod_imovel":"RJ-3301504-05B80198DD25402893E9A0FCB36019F0","num_area":"217.03940000000000000000000000000","ind_status":"AT","des_condic":"Aguardando analise"},"geometry":{"type":"Polygon","coordinates":[[[-42.3357,-22.0749],[-42.3314,-22.0779],[-42.3354,-22.0844],[-42.336,-22.075],[-42.3357,-22.0749]],[[-42.3312,-22.0748],[-42.3244,-22.0742],[-42.3224,-22.079],[-42.3237,-22.0741],[-42.3132,-22.0742],[-42.3272,-22.0862],[-42.3353,-22.0866],[-42.3311,-22.0748],[-42.3312,-22.0748]],[[-42.3307,-22.0859],[-42.3352,-22.0851],[-42.331,-22.0859],[-42.3307,-22.0859]]]}},{"type":"Feature","properties":{"cod_imovel":"RJ-3301504-16F3A860848C405C91F2548CC66A41D9","num_area":"20.840800000000000000000000000000","ind_status":"AT","des_condic":"Aguardando analise"},"geometry":{"type":"Polygon","coordinates":[[[-42.3672,-22.0573],[-42.3626,-22.0551],[-42.3648,-22.0611],[-42.3671,-22.0574],[-42.3672,-22.0573]]]}},{"type":"Feature","properties":{"cod_imovel":"RJ-3301504-2291E49142094AE2ACB1304CD5E520EA","num_area":"47.377200000000000000000000000000","ind_status":"AT","des_condic":"Aguardando analise"},"geometry":{"type":"Polygon","coordinates":[[[-42.3003,-22.0928],[-42.3013,-22.0825],[-42.295,-22.0894],[-42.3002,-22.0941],[-42.3003,-22.0928]]]}},{"type":"Feature","properties":{"cod_imovel":"RJ-3301504-22E7585691104128BD0BE4A51E3A35DB","num_area":"17.446500000000000000000000000000","ind_status":"AT","des_condic":"Aguardando analise"},"geometry":{"type":"Polygon","coordinates":[[[-42.3087,-22.0413],[-42.3017,-22.0385],[-42.3088,-22.042],[-42.3087,-22.0413]],[[-42.3054,-22.0449],[-42.3087,-22.0428],[-42.3044,-22.0444],[-42.3054,-22.0449]]]}},{"type":"Feature","properties":{"cod_imovel":"RJ-3301504-2303C662482A4947AF2FC3E982C507C5","num_area":"11.906600000000000000000000000000","ind_status":"AT","des_condic":"Aguardando analise"},"geometry":{"type":"Polygon","coordinates":[[[-42.3051,-22.0775],[-42.3108,-22.0761],[-42.3046,-22.0772],[-42.3051,-22.0775]]]}},{"type":"Feature","properties":{"cod_imovel":"RJ-3301504-2DB34A7927A042EEB528383ACE3D0140","num_area":"7.4088000000000000000000000000000","ind_status":"AT","des_condic":"Aguardando analise"},"geometry":{"type":"Polygon","coordinates":[[[-42.3088,-22.0902],[-42.3119,-22.09],[-42.3088,-22.0902],[-42.3088,-22.0902]]]}},{"type":"Feature","properties":{"cod_imovel":"RJ-3301504-3B35B978C265494D89B4F8A8CB12539C","num_area":"74.077200000000000000000000000000","ind_status":"AT","des_condic":"Aguardando analise"},"geometry":{"type":"Polygon","coordinates":[[[-42.3408,-22.0853],[-42.3455,-22.0818],[-42.3462,-22.0868],[-42.3481,-22.0822],[-42.347,-22.0863],[-42.3483,-22.0796],[-42.342,-22.0793],[-42.3408,-22.085],[-42.3408,-22.0853]],[[-42.3415,-22.0867],[-42.3353,-22.0865],[-42.3414,-22.0867],[-42.3415,-22.0867]],[[-42.3403,-22.086],[-42.3365,-22.0845],[-42.3396,-22.0853],[-42.3403,-22.086]],[[-42.349,-22.0837],[-42.3463,-22.0868],[-42.3492,-22.0843],[-42.349,-22.0837]],[[-42.3453,-22.0714],[-42.3422,-22.0697],[-42.3419,-22.0793],[-42.3475,-22.0778],[-42.3453,-22.0714],[-42.3453,-22.0714]]]}},{"type":"Feature","properties":{"cod_imovel":"RJ-3301504-4B279D9276B64CCEBDC13E04079A416D","num_area":"37.936000000000000000000000000000","ind_status":"AT","des_condic":"Aguardando analise"},"geometry":{"type":"Polygon","coordinates":[[[-42.3052,-22.0525],[-42.3088,-22.0512],[-42.3043,-22.0443],[-42.3016,-22.0483],[-42.3052,-22.0518],[-42.3052,-22.0525]]]}},{"type":"Feature","properties":{"cod_imovel":"RJ-3301504-4E3BC1E042EA4538B26667ADBE8B833E","num_area":"52.337500000000000000000000000000","ind_status":"AT","des_condic":"Aguardando analise"},"geometry":{"type":"Polygon","coordinates":[[[-42.3282,-22.0156],[-42.3307,-22.011],[-42.3261,-22.0126],[-42.3283,-22.015],[-42.3255,-22.0128],[-42.3281,-22.0155],[-42.3282,-22.0156]],[[-42.329,-22.0152],[-42.3363,-22.016],[-42.3355,-22.0087],[-42.3291,-22.0151],[-42.329,-22.0152]]]}},{"type":"Feature","properties":{"cod_imovel":"RJ-3301504-52F381BEC9F04E7EB02C5F884AE224A2","num_area":"55.363400000000000000000000000000","ind_status":"AT","des_condic":"Aguardando analise"},"geometry":{"type":"Polygon","coordinates":[[[-42.3576,-22.0917],[-42.3594,-22.098],[-42.3577,-22.0917],[-42.3576,-22.0917]],[[-42.3603,-22.0916],[-42.3573,-22.0906],[-42.3602,-22.0924],[-42.3603,-22.0916]],[[-42.3604,-22.0909],[-42.3647,-22.0851],[-42.3593,-22.0812],[-42.3604,-22.0909],[-42.3604,-22.0909]]]}},{"type":"Feature","properties":{"cod_imovel":"RJ-3301504-566F07DFE0694671B48CE73504B8DF52","num_area":"17.222900000000000000000000000000","ind_status":"AT","des_condic":"Aguardando analise"},"geometry":{"type":"Polygon","coordinates":[[[-42.3822,-22.0064],[-42.3742,-22.0059],[-42.3818,-22.0065],[-42.3822,-22.0064]],[[-42.3779,-22.0056],[-42.3742,-22.0058],[-42.3778,-22.0056],[-42.3779,-22.0056]]]}},{"type":"Feature","properties":{"cod_imovel":"RJ-3301504-5C6FB58DB31C410EAE4822636107ADA1","num_area":"7.8085000000000000000000000000000","ind_status":"AT","des_condic":"Aguardando analise"},"geometry":{"type":"Polygon","coordinates":[[[-42.3998,-22.0508],[-42.3966,-22.0501],[-42.3998,-22.0509],[-42.3998,-22.0508]]]}},{"type":"Feature","properties":{"cod_imovel":"RJ-3301504-645E5A9287E2449B882908F8DCBD17E4","num_area":"12.908300000000000000000000000000","ind_status":"AT","des_condic":"Aguardando analise"},"geometry":{"type":"Polygon","coordinates":[[[-42.3224,-22.0098],[-42.3262,-22.0124],[-42.3221,-22.0095],[-42.3224,-22.0098]],[[-42.3263,-22.0124],[-42.3234,-22.0079],[-42.3259,-22.0114],[-42.3263,-22.0124]]]}},{"type":"Feature","properties":{"cod_imovel":"RJ-3301504-65B3939C15524607862F70D7A89F93DB","num_area":"5.4450000000000000000000000000000","ind_status":"AT","des_condic":"Aguardando analise"},"geometry":{"type":"Polygon","coordinates":[[[-42.3653,-22.0094],[-42.3616,-22.0071],[-42.3645,-22.009],[-42.3653,-22.0094]]]}},{"type":"Feature","properties":{"cod_imovel":"RJ-3301504-6ABAC83AD22D454CB90C8C71F4BDCE68","num_area":"19.625400000000000000000000000000","ind_status":"AT","des_condic":"Aguardando analise"},"geometry":{"type":"Polygon","coordinates":[[[-42.3452,-22.0999],[-42.3448,-22.1062],[-42.3454,-22.0999],[-42.3452,-22.0999]]]}},{"type":"Feature","properties":{"cod_imovel":"RJ-3301504-6B4370F0FDE04413AF443CE78A810F67","num_area":"13.026600000000000000000000000000","ind_status":"AT","des_condic":"Aguardando analise"},"geometry":{"type":"Polygon","coordinates":[[[-42.3209,-22.0991],[-42.3163,-22.0983],[-42.3208,-22.0991],[-42.3209,-22.0991]],[[-42.3182,-22.1004],[-42.3211,-22.1031],[-42.3183,-22.1002],[-42.3182,-22.1004]]]}},{"type":"Feature","properties":{"cod_imovel":"RJ-3301504-79E8AE06559E4024A99CE58E383439E2","num_area":"115.21240000000000000000000000000","ind_status":"AT","des_condic":"Aguardando analise"},"geometry":{"type":"Polygon","coordinates":[[[-42.2998,-22.099],[-42.2844,-22.0947],[-42.2929,-22.1062],[-42.2976,-22.106],[-42.2992,-22.0995],[-42.2998,-22.099]],[[-42.2916,-22.0985],[-42.2948,-22.0995],[-42.2915,-22.0993],[-42.2916,-22.0985]]]}},{"type":"Feature","properties":{"cod_imovel":"RJ-3301504-8AF50B89AE234B1DB0B378CB21367C7B","num_area":"16.542400000000000000000000000000","ind_status":"AT","des_condic":"Aguardando analise"},"geometry":{"type":"Polygon","coordinates":[[[-42.3742,-22.0212],[-42.371,-22.0217],[-42.374,-22.0212],[-42.3742,-22.0212]],[[-42.3718,-22.0229],[-42.376,-22.0257],[-42.3724,-22.0224],[-42.3718,-22.0229]]]}},{"type":"Feature","properties":{"cod_imovel":"RJ-3301504-94B4B14D60B9496291DEB96D2471ECE0","num_area":"52.621900000000000000000000000000","ind_status":"AT","des_condic":"Aguardando analise"},"geometry":{"type":"Polygon","coordinates":[[[-42.3703,-22.0099],[-42.3807,-22.0145],[-42.372,-22.0073],[-42.3703,-22.0099]],[[-42.3772,-22.0092],[-42.3744,-22.0069],[-42.377,-22.0093],[-42.3772,-22.0092]],[[-42.3771,-22.0091],[-42.3735,-22.0051],[-42.377,-22.0092],[-42.3771,-22.0091]]]}},{"type":"Feature","properties":{"cod_imovel":"RJ-3301504-956CC568AE394ACB864C817EC7E08BA3","num_area":"90.329300000000000000000000000000","ind_status":"AT","des_condic":"Aguardando analise"},"geometry":{"type":"Polygon","coordinates":[[[-42.3322,-22.1026],[-42.3346,-22.1007],[-42.329,-22.0991],[-42.3327,-22.0992],[-42.3256,-22.1006],[-42.3319,-22.1025],[-42.3322,-22.1026]],[[-42.3348,-22.1012],[-42.3319,-22.0949],[-42.3291,-22.0989],[-42.3348,-22.1012],[-42.3348,-22.1012]],[[-42.3291,-22.0922],[-42.3204,-22.0964],[-42.3268,-22.1002],[-42.3319,-22.0949],[-42.3291,-22.0922],[-42.3291,-22.0922]]]}},{"type":"Feature","properties":{"cod_imovel":"RJ-3301504-969ACAB813A94A2ABD12028F9512ED59","num_area":"14.145900000000000000000000000000","ind_status":"AT","des_condic":"Aguardando analise"},"geometry":{"type":"Polygon","coordinates":[[[-42.2771,-22.0877],[-42.2771,-22.0923],[-42.2817,-22.0888],[-42.2771,-22.0876],[-42.2771,-22.0877]]]}},{"type":"Feature","properties":{"cod_imovel":"RJ-3301504-C7E1EF889225451091E3298D6FDBFBA4","num_area":"15.736800000000000000000000000000","ind_status":"AT","des_condic":"Aguardando analise"},"geometry":{"type":"Polygon","coordinates":[[[-42.3961,-22.0341],[-42.3956,-22.0297],[-42.3925,-22.0326],[-42.3959,-22.034],[-42.3961,-22.0341]]]}},{"type":"Feature","properties":{"cod_imovel":"RJ-3301504-B243349C16E24EDBBCC86846DF49072F","num_area":"51.495300000000000000000000000000","ind_status":"AT","des_condic":"Aguardando analise"},"geometry":{"type":"Polygon","coordinates":[[[-42.3261,-22.1014],[-42.3254,-22.107],[-42.3253,-22.1021],[-42.3203,-22.1064],[-42.3212,-22.113],[-42.3277,-22.1059],[-42.3262,-22.1015],[-42.3261,-22.1014]],[[-42.3288,-22.1017],[-42.3279,-22.109],[-42.3282,-22.1032],[-42.3288,-22.1017]]]}},{"type":"Feature","properties":{"cod_imovel":"RJ-3301504-C7116B886F8443079E50E6C7C7419E72","num_area":"7.7694000000000000000000000000000","ind_status":"AT","des_condic":"Aguardando analise"},"geometry":{"type":"Polygon","coordinates":[[[-42.3076,-22.092],[-42.3072,-22.0883],[-42.3072,-22.0919],[-42.3076,-22.092]]]}},{"type":"Feature","properties":{"cod_imovel":"RJ-3301504-D3B3350D88FF4A3A89BF1B6D6FBE6560","num_area":"28.633100000000000000000000000000","ind_status":"AT","des_condic":"Aguardando analise"},"geometry":{"type":"Polygon","coordinates":[[[-42.3199,-22.0291],[-42.3152,-22.0263],[-42.3153,-22.0309],[-42.3147,-22.0259],[-42.3151,-22.0309],[-42.3124,-22.0266],[-42.3145,-22.0309],[-42.3198,-22.0294],[-42.3199,-22.0291]]]}},{"type":"Feature","properties":{"cod_imovel":"RJ-3301504-E1BB67F6672B403F81285BC177023C3D","num_area":"16.432500000000000000000000000000","ind_status":"AT","des_condic":"Aguardando analise"},"geometry":{"type":"Polygon","coordinates":[[[-42.3541,-22.0491],[-42.353,-22.0457],[-42.354,-22.0494],[-42.3541,-22.0491]],[[-42.3525,-22.0462],[-42.35,-22.051],[-42.3526,-22.0462],[-42.3525,-22.0462]]]}},{"type":"Feature","properties":{"cod_imovel":"RJ-3301504-E5CB4A29545E434EBA37FD80039F8E50","num_area":"17.307800000000000000000000000000","ind_status":"AT","des_condic":"Aguardando analise"},"geometry":{"type":"Polygon","coordinates":[[[-42.3497,-22.0963],[-42.3528,-22.0991],[-42.3528,-22.0939],[-42.3495,-22.0952],[-42.3497,-22.0963]],[[-42.3496,-22.0946],[-42.3528,-22.0939],[-42.35,-22.0927],[-42.3496,-22.0946]]]}},{"type":"Feature","properties":{"cod_imovel":"RJ-3301504-EE6551C5958C4243BD19FD10C6FF7725","num_area":"11.286100000000000000000000000000","ind_status":"AT","des_condic":"Aguardando analise"},"geometry":{"type":"Polygon","coordinates":[[[-42.4096,-22.0394],[-42.4063,-22.0427],[-42.4096,-22.0398],[-42.4096,-22.0394]]]}}]}