{"type":"FeatureCollection","features":[{"type":"Feature","properties":{"cod_imovel":"RJ-3301801-018B01957E174C0683ADE96DD1B97B91","num_area":"1.7884000000000000000000000000000","ind_status":"AT","des_condic":"Aguardando analise"},"geometry":{"type":"Polygon","coordinates":[[[-43.6911,-22.4971],[-43.6873,-22.4978],[-43.6909,-22.4968],[-43.6911,-22.4971]]]}},{"type":"Feature","properties":{"cod_imovel":"RJ-3301801-9E8D203953A24FF88B523E24AA51674A","num_area":"6.6985000000000000000000000000000","ind_status":"AT","des_condic":"Aguardando analise"},"geometry":{"type":"Polygon","coordinates":[[[-43.5691,-22.4948],[-43.5699,-22.4918],[-43.5689,-22.4947],[-43.5691,-22.4948]]]}},{"type":"Feature","properties":{"cod_imovel":"RJ-3301801-E9688363F5674E0EBCA35A109997C1BE","num_area":"3.7325000000000000000000000000000","ind_status":"AT","des_condic":"Aguardando analise"},"geometry":{"type":"Polygon","coordinates":[[[-43.5673,-22.4951],[-43.5641,-22.5006],[-43.5672,-22.4956],[-43.5673,-22.4951]]]}},{"type":"Feature","properties":{"cod_imovel":"RJ-3301801-F98E6208987D4F9DA6D530640B11D5BF","num_area":"67.416500000000000000000000000000","ind_status":"AT","des_condic":"Aguardando analise"},"geometry":{"type":"Polygon","coordinates":[[[-43.6433,-22.4681],[-43.646,-22.4716],[-43.6432,-22.468],[-43.6433,-22.4681]],[[-43.649,-22.4847],[-43.6516,-22.4783],[-43.6429,-22.479],[-43.6434,-22.4845],[-43.6489,-22.4848],[-43.649,-22.4847]]]}},{"type":"Feature","properties":{"cod_imovel":"RJ-3301801-B899D2D30D7E432391A711A493C373D8","num_area":"5.8948000000000000000000000000000","ind_status":"AT","des_condic":"Analisado, em conformidade com a Lei n 12.651/2012, com ativos ambientais"},"geometry":{"type":"Polygon","coordinates":[[[-43.6606,-22.4955],[-43.655,-22.4992],[-43.6601,-22.4959],[-43.6606,-22.4955]]]}},{"type":"Feature","properties":{"cod_imovel":"RJ-3301801-246869FDD8724F7D9ED06F3DD273AE5D","num_area":"8.2759000000000000000000000000000","ind_status":"AT","des_condic":"Aguardando analise"},"geometry":{"type":"Polygon","coordinates":[[[-43.6848,-22.5069],[-43.6893,-22.5053],[-43.6857,-22.5059],[-43.6848,-22.5069]]]}},{"type":"Feature","properties":{"cod_imovel":"RJ-3301801-328E05337B37436798556A001A0E52F8","num_area":"15.908500000000000000000000000000","ind_status":"PE","des_condic":"Aguardando analise, apos revisao ou atendimento da notificacao"},"geometry":{"type":"Polygon","coordinates":[[[-43.6598,-22.5243],[-43.6621,-22.5218],[-43.6598,-22.5242],[-43.6598,-22.5243]]]}},{"type":"Feature","properties":{"cod_imovel":"RJ-3301801-F69950A2F5AD4F78BC68CC04316777EC","num_area":"27.950100000000000000000000000000","ind_status":"PE","des_condic":"Aguardando analise, apos revisao ou atendimento da notificacao"},"geometry":{"type":"Polygon","coordinates":[[[-43.6586,-22.4808],[-43.6533,-22.4848],[-43.6594,-22.4866],[-43.6588,-22.4808],[-43.6586,-22.4808]]]}},{"type":"Feature","properties":{"cod_imovel":"RJ-3301801-391516876D4E4C9D8A55FEA96DE6E875","num_area":"7.5713000000000000000000000000000","ind_status":"AT","des_condic":"Aguardando analise"},"geometry":{"type":"Polygon","coordinates":[[[-43.6501,-22.4843],[-43.6472,-22.4869],[-43.6506,-22.4857],[-43.6501,-22.4843]]]}},{"type":"Feature","properties":{"cod_imovel":"RJ-3301801-C97679C3B7044B5397A0514A6586D1D2","num_area":"17.827500000000000000000000000000","ind_status":"AT","des_condic":"Aguardando analise"},"geometry":{"type":"Polygon","coordinates":[[[-43.6597,-22.4793],[-43.6561,-22.4805],[-43.6614,-22.4831],[-43.6601,-22.4793],[-43.6597,-22.4793]]]}},{"type":"Feature","properties":{"cod_imovel":"RJ-3301801-9D23E227114C481FA570236C02DAB8D1","num_area":"8.1442000000000000000000000000000","ind_status":"AT","des_condic":"Aguardando analise"},"geometry":{"type":"Polygon","coordinates":[[[-43.6156,-22.5045],[-43.6157,-22.5112],[-43.6156,-22.5046],[-43.6156,-22.5045]],[[-43.6151,-22.5098],[-43.6148,-22.5063],[-43.6146,-22.5094],[-43.6151,-22.5098]]]}},{"type":"Feature","properties":{"cod_imovel":"RJ-3301801-BAEFD18F75A9434F8B096CFAC0E72BBB","num_area":"153.27680000000000000000000000000","ind_status":"AT","des_condic":"Aguardando analise"},"geometry":{"type":"Polygon","coordinates":[[[-43.6169,-22.5059],[-43.623,-22.5081],[-43.6165,-22.5061],[-43.6195,-22.5144],[-43.6274,-22.5132],[-43.623,-22.5083],[-43.6298,-22.5051],[-43.6316,-22.4981],[-43.6231,-22.5082],[-43.6281,-22.4995],[-43.6169,-22.5061],[-43.6169,-22.5059]],[[-43.6206,-22.504],[-43.6271,-22.5],[-43.6232,-22.5025],[-43.6206,-22.504]],[[-43.6298,-22.5051],[-43.6354,-22.5022],[-43.6316,-22.4981],[-43.63,-22.5034],[-43.6298,-22.5051]]]}},{"type":"Feature","properties":{"cod_imovel":"RJ-3306206-E0D827D3B21A4B33ADE0B53C7B825AF5","num_area":"19.704800000000000000000000000000","ind_status":"AT","des_condic":"Aguardando analise"},"geometry":{"type":"Polygon","coordinates":[[[-43.6763,-22.4741],[-43.6784,-22.4766],[-43.6765,-22.4732],[-43.6763,-22.4741]],[[-43.68,-22.4725],[-43.6787,-22.4762],[-43.681,-22.4729],[-43.68,-22.4725]],[[-43.6794,-22.4761],[-43.6839,-22.4777],[-43.6795,-22.476],[-43.6794,-22.4761]]]}},{"type":"Feature","properties":{"cod_imovel":"RJ-3301801-2C76E8BF6F3348ED9FA9049C1B907192","num_area":"4.6483000000000000000000000000000","ind_status":"AT","des_condic":"Aguardando analise"},"geometry":{"type":"Polygon","coordinates":[[[-43.684,-22.5182],[-43.6802,-22.5174],[-43.6842,-22.5188],[-43.684,-22.5182]]]}},{"type":"Feature","properties":{"cod_imovel":"RJ-3301801-AE8B2F645E9F489D95B6FCD2F661EB77","num_area":"7.0487000000000000000000000000000","ind_status":"AT","des_condic":"Aguardando analise"},"geometry":{"type":"Polygon","coordinates":[[[-43.6758,-22.471],[-43.6725,-22.4722],[-43.6759,-22.4718],[-43.6758,-22.471]]]}},{"type":"Feature","properties":{"cod_imovel":"RJ-3301801-A57F3D15556D483F8993D7BC24CF2BB5","num_area":"8.2632000000000000000000000000000","ind_status":"AT","des_condic":"Aguardando analise"},"geometry":{"type":"Polygon","coordinates":[[[-43.6443,-22.4852],[-43.6443,-22.489],[-43.6448,-22.4854],[-43.6443,-22.4852]]]}},{"type":"Feature","properties":{"cod_imovel":"RJ-3301801-976CC38636CD4E9DBE92CD2C8A4E7ADC","num_area":"103.26660000000000000000000000000","ind_status":"AT","des_condic":"Analisado, aguardando atendimento a notificacao"},"geometry":{"type":"Polygon","coordinates":[[[-43.6996,-22.5664],[-43.699,-22.5608],[-43.6989,-22.5653],[-43.6996,-22.5664]],[[-43.699,-22.5486],[-43.703,-22.5489],[-43.702,-22.5441],[-43.699,-22.5486],[-43.699,-22.5486]],[[-43.7019,-22.5649],[-43.701,-22.5613],[-43.702,-22.5648],[-43.7019,-22.5649]],[[-43.7058,-22.5601],[-43.7082,-22.5547],[-43.7038,-22.5603],[-43.7058,-22.5601]],[[-43.7069,-22.5466],[-43.7015,-22.5421],[-43.7067,-22.5468],[-43.7069,-22.5466]],[[-43.7112,-22.5447],[-43.7058,-22.5446],[-43.7115,-22.5449],[-43.7112,-22.5447]],[[-43.7103,-22.5499],[-43.7148,-22.5468],[-43.7094,-22.5467],[-43.7096,-22.5508],[-43.7103,-22.5499]]]}},{"type":"Feature","properties":{"cod_imovel":"RJ-3301801-EBC6FDC8DFCB4377BC3BD9B41EC4B553","num_area":"4.0961000000000000000000000000000","ind_status":"AT","des_condic":"Aguardando analise"},"geometry":{"type":"Polygon","coordinates":[[[-43.6645,-22.4747],[-43.6708,-22.4732],[-43.6648,-22.4744],[-43.6645,-22.4747]]]}},{"type":"Feature","properties":{"cod_imovel":"RJ-3301801-1CD3902D664546CE914CE3AC92458079","num_area":"96.345600000000000000000000000000","ind_status":"AT","des_condic":"Aguardando analise"},"geometry":{"type":"Polygon","coordinates":[[[-43.5953,-22.4782],[-43.5934,-22.4695],[-43.5882,-22.4766],[-43.5933,-22.4744],[-43.5904,-22.487],[-43.596,-22.4892],[-43.5958,-22.4774],[-43.5953,-22.4782]]]}},{"type":"Feature","properties":{"cod_imovel":"RJ-3301801-6156D3E242ED45ADAC5CE0AA62715383","num_area":"0.8880000000000000000000000000000","ind_status":"AT","des_condic":"Aguardando analise"},"geometry":{"type":"Polygon","coordinates":[[[-43.5834,-22.5081],[-43.5873,-22.5093],[-43.584,-22.5081],[-43.5834,-22.5081]]]}},{"type":"Feature","properties":{"cod_imovel":"RJ-3301801-E1C0EF61F3D1470EB7D1B7BAB3E2466C","num_area":"1.1650000000000000000000000000000","ind_status":"AT","des_condic":"Aguardando analise"},"geometry":{"type":"Polygon","coordinates":[[[-43.5859,-22.5075],[-43.5817,-22.5102],[-43.5859,-22.5075],[-43.5859,-22.5075]]]}},{"type":"Feature","properties":{"cod_imovel":"RJ-3301801-D3F35BE5ABF74FF689802DB40CD620C9","num_area":"14.502700000000000000000000000000","ind_status":"AT","des_condic":"Em analise"},"geometry":{"type":"Polygon","coordinates":[[[-43.6199,-22.4867],[-43.6246,-22.4836],[-43.6192,-22.4865],[-43.6199,-22.4867]]]}},{"type":"Feature","properties":{"cod_imovel":"RJ-3301801-3443C4EB3FE34A58A540607DF2AD94D6","num_area":"1.7853000000000000000000000000000","ind_status":"AT","des_condic":"Aguardando analise"},"geometry":{"type":"Polygon","coordinates":[[[-43.586,-22.5076],[-43.5819,-22.5105],[-43.586,-22.5076],[-43.586,-22.5076]]]}},{"type":"Feature","properties":{"cod_imovel":"RJ-3301801-61D3063DC59345F698371941602D8A9D","num_area":"0.7492000000000000000000000000000","ind_status":"AT","des_condic":"Aguardando analise"},"geometry":{"type":"Polygon","coordinates":[[[-43.5862,-22.5076],[-43.583,-22.5084],[-43.5862,-22.5076],[-43.5862,-22.5076]]]}},{"type":"Feature","properties":{"cod_imovel":"RJ-3301801-003ADA1EB6E9472EA6EAA7517991AFF0","num_area":"0.6869000000000000000000000000000","ind_status":"AT","des_condic":"Aguardando analise"},"geometry":{"type":"Polygon","coordinates":[[[-43.5842,-22.5036],[-43.5886,-22.5119],[-43.5853,-22.5041],[-43.5842,-22.5036]]]}},{"type":"Feature","properties":{"cod_imovel":"RJ-3301801-E17DAFB3FBBB46FBAFC2F5D65BC1C50D","num_area":"0.8936000000000000000000000000000","ind_status":"AT","des_condic":"Aguardando analise"},"geometry":{"type":"Polygon","coordinates":[[[-43.5844,-22.5032],[-43.5889,-22.5119],[-43.5857,-22.5037],[-43.5844,-22.5032]]]}},{"type":"Feature","properties":{"cod_imovel":"RJ-3301801-4CB8C09303484B07B089FD1C029C324B","num_area":"0.8883000000000000000000000000000","ind_status":"AT","des_condic":"Aguardando analise"},"geometry":{"type":"Polygon","coordinates":[[[-43.5845,-22.5027],[-43.5885,-22.5101],[-43.5852,-22.503],[-43.5845,-22.5027]]]}},{"type":"Feature","properties":{"cod_imovel":"RJ-3301801-271E72A300A646FFB96D106E50A01A85","num_area":"24.683500000000000000000000000000","ind_status":"AT","des_condic":"Aguardando analise"},"geometry":{"type":"Polygon","coordinates":[[[-43.6498,-22.5604],[-43.6545,-22.5643],[-43.6561,-22.5597],[-43.648,-22.558],[-43.6571,-22.5574],[-43.6479,-22.5581],[-43.6544,-22.5645],[-43.65,-22.5606],[-43.6498,-22.5604]],[[-43.6554,-22.5639],[-43.6564,-22.5602],[-43.6555,-22.5638],[-43.6554,-22.5639]]]}},{"type":"Feature","properties":{"cod_imovel":"RJ-3301801-0DA7AC961B0448FAA030D5A138C22727","num_area":"3.7183000000000000000000000000000","ind_status":"AT","des_condic":"Aguardando analise"},"geometry":{"type":"Polygon","coordinates":[[[-43.6612,-22.527],[-43.6635,-22.5293],[-43.6612,-22.527],[-43.6612,-22.527]]]}},{"type":"Feature","properties":{"cod_imovel":"RJ-3301801-ACFD2B0223E544A09DFB6E758F515395","num_area":"5.0229000000000000000000000000000","ind_status":"AT","des_condic":"Aguardando analise"},"geometry":{"type":"Polygon","coordinates":[[[-43.5813,-22.5126],[-43.5821,-22.5157],[-43.5813,-22.5122],[-43.5813,-22.5126]]]}},{"type":"Feature","properties":{"cod_imovel":"RJ-3301801-6C5A7970BF504336963FFF440D33C52A","num_area":"71.806000000000000000000000000000","ind_status":"AT","des_condic":"Aguardando analise"},"geometry":{"type":"Polygon","coordinates":[[[-43.5814,-22.4882],[-43.5775,-22.4862],[-43.5818,-22.489],[-43.5814,-22.4882]],[[-43.5788,-22.485],[-43.5681,-22.4859],[-43.5704,-22.493],[-43.5788,-22.485],[-43.5788,-22.485]]]}},{"type":"Feature","properties":{"cod_imovel":"RJ-3301801-BED6FCCFFEE44A1F90164AC9F048C868","num_area":"11.532100000000000000000000000000","ind_status":"AT","des_condic":"Aguardando analise"},"geometry":{"type":"Polygon","coordinates":[[[-43.6769,-22.561],[-43.6724,-22.5582],[-43.676,-22.5617],[-43.6769,-22.561]]]}},{"type":"Feature","properties":{"cod_imovel":"RJ-3301801-2FADC873FEFE463F835D25740BA723DA","num_area":"4.3058000000000000000000000000000","ind_status":"AT","des_condic":"Aguardando analise"},"geometry":{"type":"Polygon","coordinates":[[[-43.6517,-22.5433],[-43.6467,-22.5444],[-43.6519,-22.5431],[-43.6517,-22.5433]]]}},{"type":"Feature","properties":{"cod_imovel":"RJ-3301801-26A1075FAEFA4B638044D1F25F6E83F3","num_area":"5.2833000000000000000000000000000","ind_status":"AT","des_condic":"Aguardando analise"},"geometry":{"type":"Polygon","coordinates":[[[-43.6174,-22.5125],[-43.6149,-22.5103],[-43.6174,-22.5125],[-43.6174,-22.5125]],[[-43.6149,-22.5103],[-43.6144,-22.514],[-43.6143,-22.5108],[-43.6149,-22.5103]]]}},{"type":"Feature","properties":{"cod_imovel":"RJ-3301801-27B481942774429C8CA4ACE52F7E0F91","num_area":"23.261900000000000000000000000000","ind_status":"AT","des_condic":"Aguardando analise"},"geometry":{"type":"Polygon","coordinates":[[[-43.6785,-22.5103],[-43.6755,-22.5198],[-43.6819,-22.5128],[-43.679,-22.5107],[-43.6785,-22.5103]],[[-43.6841,-22.5221],[-43.6859,-22.5164],[-43.6801,-22.517],[-43.6852,-22.5188],[-43.6841,-22.5221]]]}},{"type":"Feature","properties":{"cod_imovel":"RJ-3301801-5926DBECA9184BF7BAB3F9843B3888DC","num_area":"4.0033000000000000000000000000000","ind_status":"AT","des_condic":"Aguardando analise"},"geometry":{"type":"Polygon","coordinates":[[[-43.5837,-22.4649],[-43.579,-22.4682],[-43.5838,-22.4653],[-43.5837,-22.4649]]]}},{"type":"Feature","properties":{"cod_imovel":"RJ-3301801-B235414C05C94800B9EA83289DF46170","num_area":"13.927100000000000000000000000000","ind_status":"AT","des_condic":"Aguardando analise"},"geometry":{"type":"Polygon","coordinates":[[[-43.5955,-22.4693],[-43.599,-22.4673],[-43.5955,-22.4693],[-43.5955,-22.4693]]]}},{"type":"Feature","properties":{"cod_imovel":"RJ-3301801-C1296940DC864C509EF21FCCAF10C786","num_area":"3.3281000000000000000000000000000","ind_status":"AT","des_condic":"Aguardando analise"},"geometry":{"type":"Polygon","coordinates":[[[-43.5817,-22.5101],[-43.584,-22.5076],[-43.5817,-22.51],[-43.5817,-22.5101]]]}},{"type":"Feature","properties":{"cod_imovel":"RJ-3301801-25FE7B9FC9B14EABA8F9EDD7257C6DA7","num_area":"9.1383000000000000000000000000000","ind_status":"AT","des_condic":"Aguardando analise"},"geometry":{"type":"Polygon","coordinates":[[[-43.5917,-22.5147],[-43.5952,-22.5131],[-43.5917,-22.5147],[-43.5917,-22.5147]]]}},{"type":"Feature","properties":{"cod_imovel":"RJ-3301801-16EB72EC3B0D4AFEB7053F0F64374329","num_area":"4.0936000000000000000000000000000","ind_status":"AT","des_condic":"Aguardando analise"},"geometry":{"type":"Polygon","coordinates":[[[-43.6574,-22.5437],[-43.6547,-22.5459],[-43.6574,-22.5438],[-43.6574,-22.5437]]]}},{"type":"Feature","properties":{"cod_imovel":"RJ-3301801-9B286A090307415DBE203BE34A3DA84E","num_area":"17.599500000000000000000000000000","ind_status":"AT","des_condic":"Aguardando analise"},"geometry":{"type":"Polygon","coordinates":[[[-43.5757,-22.4662],[-43.5847,-22.4644],[-43.5773,-22.4627],[-43.5755,-22.4662],[-43.5757,-22.4662]]]}},{"type":"Feature","properties":{"cod_imovel":"RJ-3301801-2D7C57FCB8DD4D0D884A77509547A492","num_area":"12.852400000000000000000000000000","ind_status":"AT","des_condic":"Aguardando analise"},"geometry":{"type":"Polygon","coordinates":[[[-43.6539,-22.5541],[-43.6482,-22.5564],[-43.6539,-22.5542],[-43.6539,-22.5541]],[[-43.6492,-22.5569],[-43.6536,-22.5568],[-43.6493,-22.5564],[-43.6492,-22.5569]]]}},{"type":"Feature","properties":{"cod_imovel":"RJ-3301801-513815FEB1F147EC986E3FF650BE35D8","num_area":"8.8719000000000000000000000000000","ind_status":"AT","des_condic":"Aguardando analise"},"geometry":{"type":"Polygon","coordinates":[[[-43.6568,-22.5654],[-43.6589,-22.562],[-43.6564,-22.5651],[-43.6568,-22.5654]]]}},{"type":"Feature","properties":{"cod_imovel":"RJ-3301801-786B79EBBBEE4301A45BF4ABC021FE1C","num_area":"11.447300000000000000000000000000","ind_status":"AT","des_condic":"Aguardando analise"},"geometry":{"type":"Polygon","coordinates":[[[-43.6583,-22.5379],[-43.6555,-22.5362],[-43.6582,-22.5379],[-43.6583,-22.5379]],[[-43.6658,-22.5407],[-43.6624,-22.5398],[-43.6657,-22.5408],[-43.6658,-22.5407]]]}},{"type":"Feature","properties":{"cod_imovel":"RJ-3301801-0A412C69A3854ACA9F974E70286AFD5B","num_area":"6.3665000000000000000000000000000","ind_status":"AT","des_condic":"Aguardando analise"},"geometry":{"type":"Polygon","coordinates":[[[-43.6343,-22.5546],[-43.6372,-22.5533],[-43.6343,-22.5546],[-43.6343,-22.5546]]]}},{"type":"Feature","properties":{"cod_imovel":"RJ-3301801-1FD20D5EB6DD47CAA5C608AC60908C9C","num_area":"52.358400000000000000000000000000","ind_status":"AT","des_condic":"Aguardando analise"},"geometry":{"type":"Polygon","coordinates":[[[-43.5796,-22.5204],[-43.5663,-22.5111],[-43.564,-22.5149],[-43.5791,-22.5208],[-43.5796,-22.5204]]]}},{"type":"Feature","properties":{"cod_imovel":"RJ-3301801-4C3F57BE2DB34389BF36CD52C3CD7106","num_area":"4.6485000000000000000000000000000","ind_status":"AT","des_condic":"Aguardando analise"},"geometry":{"type":"Polygon","coordinates":[[[-43.5815,-22.5035],[-43.584,-22.5008],[-43.5815,-22.5035],[-43.5815,-22.5035]]]}},{"type":"Feature","properties":{"cod_imovel":"RJ-3301801-A9318ACEAEC54AB08A874462F6B56CCC","num_area":"25.263600000000000000000000000000","ind_status":"AT","des_condic":"Aguardando analise"},"geometry":{"type":"Polygon","coordinates":[[[-43.6781,-22.5699],[-43.6822,-22.5706],[-43.6781,-22.5697],[-43.6781,-22.5699]],[[-43.6822,-22.5706],[-43.6815,-22.5648],[-43.6821,-22.5705],[-43.6822,-22.5706]]]}},{"type":"Feature","properties":{"cod_imovel":"RJ-3301801-323328BB08784FECB964FB071DBE6A43","num_area":"14.241300000000000000000000000000","ind_status":"AT","des_condic":"Aguardando analise"},"geometry":{"type":"Polygon","coordinates":[[[-43.6649,-22.4768],[-43.6618,-22.4808],[-43.6651,-22.4769],[-43.6649,-22.4768]],[[-43.6618,-22.4809],[-43.6655,-22.4796],[-43.6618,-22.4809],[-43.6618,-22.4809]]]}},{"type":"Feature","properties":{"cod_imovel":"RJ-3301801-33D573E2A7A043B3B47BF862550D57E6","num_area":"8.2139000000000000000000000000000","ind_status":"AT","des_condic":"Aguardando analise"},"geometry":{"type":"Polygon","coordinates":[[[-43.6287,-22.4794],[-43.625,-22.4834],[-43.6285,-22.4795],[-43.6287,-22.4794]]]}},{"type":"Feature","properties":{"cod_imovel":"RJ-3301801-4CB1B74DC4E94B3F9807E2CC2D24C114","num_area":"11.308400000000000000000000000000","ind_status":"AT","des_condic":"Aguardando analise"},"geometry":{"type":"Polygon","coordinates":[[[-43.6222,-22.4835],[-43.617,-22.4871],[-43.6226,-22.4834],[-43.6222,-22.4835]]]}},{"type":"Feature","properties":{"cod_imovel":"RJ-3301801-58753439411C4AE1AEE747AAD2EDDA56","num_area":"6.0872000000000000000000000000000","ind_status":"AT","des_condic":"Aguardando analise"},"geometry":{"type":"Polygon","coordinates":[[[-43.5798,-22.4968],[-43.5774,-22.5015],[-43.5799,-22.4968],[-43.5798,-22.4968]]]}},{"type":"Feature","properties":{"cod_imovel":"RJ-3301801-FDD9C2CD1FCD49C7B42553FDAF73C716","num_area":"14.812300000000000000000000000000","ind_status":"AT","des_condic":"Aguardando analise"},"geometry":{"type":"Polygon","coordinates":[[[-43.5834,-22.5089],[-43.5845,-22.5027],[-43.5829,-22.5107],[-43.5834,-22.5089]]]}},{"type":"Feature","properties":{"cod_imovel":"RJ-3301801-6968423B9F10415B8625644C8ACAF03C","num_area":"11.431700000000000000000000000000","ind_status":"AT","des_condic":"Aguardando analise"},"geometry":{"type":"Polygon","coordinates":[[[-43.5964,-22.4946],[-43.5918,-22.4962],[-43.5994,-22.494],[-43.5964,-22.4946]],[[-43.5963,-22.5003],[-43.5996,-22.4941],[-43.5963,-22.5003],[-43.5963,-22.5003]]]}},{"type":"Feature","properties":{"cod_imovel":"RJ-3301801-5EA840928D5E4CA184B3404DFBAFD525","num_area":"6.7240000000000000000000000000000","ind_status":"AT","des_condic":"Aguardando analise"},"geometry":{"type":"Polygon","coordinates":[[[-43.6884,-22.504],[-43.6934,-22.5028],[-43.689,-22.5027],[-43.6884,-22.504]]]}},{"type":"Feature","properties":{"cod_imovel":"RJ-3301801-F107B0CEBF20480C8C292AA62B25BE8C","num_area":"10.221700000000000000000000000000","ind_status":"AT","des_condic":"Aguardando analise"},"geometry":{"type":"Polygon","coordinates":[[[-43.5694,-22.5046],[-43.5731,-22.5023],[-43.5693,-22.5046],[-43.5694,-22.5046]],[[-43.5732,-22.5025],[-43.573,-22.4974],[-43.5735,-22.5018],[-43.5732,-22.5025]]]}},{"type":"Feature","properties":{"cod_imovel":"RJ-3301801-FA42E4855D244A77B8796F64BDFE5EA0","num_area":"10.377800000000000000000000000000","ind_status":"AT","des_condic":"Aguardando analise"},"geometry":{"type":"Polygon","coordinates":[[[-43.673,-22.4854],[-43.6768,-22.4841],[-43.6709,-22.4807],[-43.673,-22.4851],[-43.673,-22.4854]]]}},{"type":"Feature","properties":{"cod_imovel":"RJ-3301801-C1C11958DFBF416FB4409B64C85A018C","num_area":"3.6353000000000000000000000000000","ind_status":"AT","des_condic":"Aguardando analise"},"geometry":{"type":"Polygon","coordinates":[[[-43.6051,-22.5012],[-43.6056,-22.5046],[-43.6052,-22.5012],[-43.6051,-22.5012]]]}},{"type":"Feature","properties":{"cod_imovel":"RJ-3301801-C9CA7D86F8DE4674837905FA048692D7","num_area":"10.743500000000000000000000000000","ind_status":"AT","des_condic":"Aguardando analise"},"geometry":{"type":"Polygon","coordinates":[[[-43.6316,-22.5373],[-43.6291,-22.5351],[-43.6314,-22.5374],[-43.6316,-22.5373]]]}},{"type":"Feature","properties":{"cod_imovel":"RJ-3301801-5D067D1BA7B24F3BAA73EE698E259692","num_area":"4.1501000000000000000000000000000","ind_status":"AT","des_condic":"Aguardando analise"},"geometry":{"type":"Polygon","coordinates":[[[-43.6092,-22.506],[-43.6111,-22.5034],[-43.6091,-22.506],[-43.6092,-22.506]]]}},{"type":"Feature","properties":{"cod_imovel":"RJ-3301801-88BA0A6548DB41F7AF4B78DDF554CBC3","num_area":"6.7344000000000000000000000000000","ind_status":"AT","des_condic":"Aguardando analise"},"geometry":{"type":"Polygon","coordinates":[[[-43.6524,-22.4807],[-43.6565,-22.479],[-43.6523,-22.4806],[-43.6524,-22.4807]]]}},{"type":"Feature","properties":{"cod_imovel":"RJ-3301801-8E3B8B2DF4A64D03B9A19C811E578D52","num_area":"14.511900000000000000000000000000","ind_status":"AT","des_condic":"Aguardando analise"},"geometry":{"type":"Polygon","coordinates":[[[-43.6705,-22.4894],[-43.6763,-22.4849],[-43.6697,-22.4886],[-43.6705,-22.4894]]]}},{"type":"Feature","properties":{"cod_imovel":"RJ-3301801-E01D607F895241A4B7E7A71D5452B834","num_area":"12.520600000000000000000000000000","ind_status":"AT","des_condic":"Aguardando analise"},"geometry":{"type":"Polygon","coordinates":[[[-43.673,-22.4942],[-43.6756,-22.4879],[-43.6708,-22.4894],[-43.6731,-22.4941],[-43.673,-22.4942]]]}},{"type":"Feature","properties":{"cod_imovel":"RJ-3301801-DC01CFC164B0472398C7DD5D9252679A","num_area":"6.2992000000000000000000000000000","ind_status":"AT","des_condic":"Aguardando analise"},"geometry":{"type":"Polygon","coordinates":[[[-43.6078,-22.4822],[-43.6041,-22.4851],[-43.6078,-22.4822],[-43.6078,-22.4822]]]}},{"type":"Feature","properties":{"cod_imovel":"RJ-3301801-A4BCC14769F9497E85ECB87F540B4695","num_area":"8.4749000000000000000000000000000","ind_status":"AT","des_condic":"Aguardando analise"},"geometry":{"type":"Polygon","coordinates":[[[-43.6429,-22.4888],[-43.6414,-22.492],[-43.6429,-22.4888],[-43.6429,-22.4888]]]}},{"type":"Feature","properties":{"cod_imovel":"RJ-3301801-1AC46182D88E4E05837E5D01F9ED8E98","num_area":"15.737500000000000000000000000000","ind_status":"AT","des_condic":"Aguardando analise"},"geometry":{"type":"Polygon","coordinates":[[[-43.6167,-22.4803],[-43.6137,-22.4744],[-43.6179,-22.481],[-43.6167,-22.4803]],[[-43.6163,-22.4845],[-43.6177,-22.4815],[-43.6169,-22.4853],[-43.6163,-22.4845]]]}},{"type":"Feature","properties":{"cod_imovel":"RJ-3301801-BE508B92AC35434186FDDD622DDB0B20","num_area":"15.649000000000000000000000000000","ind_status":"AT","des_condic":"Aguardando analise"},"geometry":{"type":"Polygon","coordinates":[[[-43.59,-22.5111],[-43.5911,-22.5059],[-43.5898,-22.5112],[-43.59,-22.5111]]]}},{"type":"Feature","properties":{"cod_imovel":"RJ-3301801-3BA792D8421E4167897679EC2FA80AFD","num_area":"10.931200000000000000000000000000","ind_status":"AT","des_condic":"Aguardando analise"},"geometry":{"type":"Polygon","coordinates":[[[-43.6673,-22.4867],[-43.6632,-22.4902],[-43.6675,-22.4868],[-43.6673,-22.4867]],[[-43.6681,-22.4896],[-43.6632,-22.4901],[-43.6679,-22.4894],[-43.6681,-22.4896]]]}},{"type":"Feature","properties":{"cod_imovel":"RJ-3301801-647A65BA0B1840E3ADA90E538E3D7823","num_area":"29.403200000000000000000000000000","ind_status":"AT","des_condic":"Aguardando analise"},"geometry":{"type":"Polygon","coordinates":[[[-43.6705,-22.503],[-43.6785,-22.5103],[-43.6742,-22.508],[-43.6781,-22.4971],[-43.6707,-22.5035],[-43.6705,-22.503]],[[-43.6826,-22.4968],[-43.6798,-22.5061],[-43.6827,-22.4968],[-43.6826,-22.4968]]]}},{"type":"Feature","properties":{"cod_imovel":"RJ-3301801-8D4BC8A0A1C34FB2A57B3A287450D245","num_area":"13.349600000000000000000000000000","ind_status":"AT","des_condic":"Aguardando analise"},"geometry":{"type":"Polygon","coordinates":[[[-43.6651,-22.4769],[-43.6616,-22.4829],[-43.6654,-22.4768],[-43.6651,-22.4769]]]}},{"type":"Feature","properties":{"cod_imovel":"RJ-3301801-DCC61134CEA04BA2987C0C38F15EDD65","num_area":"12.435100000000000000000000000000","ind_status":"AT","des_condic":"Aguardando analise"},"geometry":{"type":"Polygon","coordinates":[[[-43.6622,-22.483],[-43.6591,-22.4868],[-43.6628,-22.4829],[-43.6622,-22.483]]]}},{"type":"Feature","properties":{"cod_imovel":"RJ-3301801-98B5A31947344CFF9EEAC5C15BB02246","num_area":"15.620200000000000000000000000000","ind_status":"AT","des_condic":"Aguardando analise"},"geometry":{"type":"Polygon","coordinates":[[[-43.6604,-22.4897],[-43.656,-22.4902],[-43.659,-22.4936],[-43.6602,-22.4894],[-43.6604,-22.4897]]]}},{"type":"Feature","properties":{"cod_imovel":"RJ-3301801-A574251AF4534F729345A5E6E1B82A2B","num_area":"13.308200000000000000000000000000","ind_status":"AT","des_condic":"Aguardando analise"},"geometry":{"type":"Polygon","coordinates":[[[-43.6638,-22.4859],[-43.661,-22.4904],[-43.6637,-22.4856],[-43.6638,-22.4859]]]}},{"type":"Feature","properties":{"cod_imovel":"RJ-3301801-09E473BEB1174111853AF81B2A99AFF3","num_area":"6.8595000000000000000000000000000","ind_status":"AT","des_condic":"Aguardando analise"},"geometry":{"type":"Polygon","coordinates":[[[-43.6754,-22.491],[-43.6792,-22.4924],[-43.6763,-22.4908],[-43.6754,-22.491]],[[-43.677,-22.4938],[-43.6788,-22.488],[-43.6771,-22.4938],[-43.677,-22.4938]]]}},{"type":"Feature","properties":{"cod_imovel":"RJ-3301801-1C877D0A550B459EBDF09FCBDB00A6FD","num_area":"39.897000000000000000000000000000","ind_status":"AT","des_condic":"Aguardando analise"},"geometry":{"type":"Polygon","coordinates":[[[-43.6765,-22.5091],[-43.6746,-22.5223],[-43.668,-22.5203],[-43.6746,-22.5224],[-43.6769,-22.5095],[-43.6765,-22.5091]],[[-43.6734,-22.5076],[-43.6653,-22.5029],[-43.6733,-22.5072],[-43.6734,-22.5076]],[[-43.6652,-22.5029],[-43.6572,-22.5011],[-43.6604,-22.5062],[-43.6596,-22.5022],[-43.6645,-22.5044],[-43.6652,-22.5029]]]}},{"type":"Feature","properties":{"cod_imovel":"RJ-3301801-D45E90F6ADA8450EAB4C7E87658816AB","num_area":"3.7452000000000000000000000000000","ind_status":"AT","des_condic":"Aguardando analise"},"geometry":{"type":"Polygon","coordinates":[[[-43.6754,-22.4918],[-43.675,-22.4958],[-43.6756,-22.4919],[-43.6754,-22.4918]]]}},{"type":"Feature","properties":{"cod_imovel":"RJ-3301801-084F05AF62E84B63B3D3231FBFC667F5","num_area":"11.326800000000000000000000000000","ind_status":"AT","des_condic":"Aguardando analise"},"geometry":{"type":"Polygon","coordinates":[[[-43.6075,-22.5091],[-43.6093,-22.5065],[-43.604,-22.5083],[-43.6074,-22.509],[-43.6075,-22.5091]]]}},{"type":"Feature","properties":{"cod_imovel":"RJ-3301801-EDD94F72CB19435F985BC219E00533EC","num_area":"7.3961000000000000000000000000000","ind_status":"AT","des_condic":"Aguardando analise"},"geometry":{"type":"Polygon","coordinates":[[[-43.6315,-22.4821],[-43.6367,-22.4816],[-43.6316,-22.4821],[-43.6315,-22.4821]],[[-43.6367,-22.4824],[-43.6417,-22.4814],[-43.6368,-22.4819],[-43.6367,-22.4824]]]}},{"type":"Feature","properties":{"cod_imovel":"RJ-3301801-BCCE0500E954445595E27014F11ECBC7","num_area":"6.9413000000000000000000000000000","ind_status":"AT","des_condic":"Aguardando analise"},"geometry":{"type":"Polygon","coordinates":[[[-43.6579,-22.4866],[-43.6553,-22.49],[-43.6576,-22.4865],[-43.6579,-22.4866]]]}},{"type":"Feature","properties":{"cod_imovel":"RJ-3301801-C9355C153DA54FF9A2BE570ABEB6EF08","num_area":"13.984300000000000000000000000000","ind_status":"AT","des_condic":"Aguardando analise"},"geometry":{"type":"Polygon","coordinates":[[[-43.6101,-22.4936],[-43.6054,-22.4976],[-43.6097,-22.4945],[-43.6101,-22.4936]]]}},{"type":"Feature","properties":{"cod_imovel":"RJ-3301801-CCA35D31832B4C7793AA52AB0B612229","num_area":"8.1649000000000000000000000000000","ind_status":"AT","des_condic":"Aguardando analise"},"geometry":{"type":"Polygon","coordinates":[[[-43.5974,-22.4921],[-43.5934,-22.4947],[-43.5964,-22.4946],[-43.5974,-22.4921]]]}},{"type":"Feature","properties":{"cod_imovel":"RJ-3301801-49C62A5E331141B2ABA39A4BA0CDDC58","num_area":"241.51460000000000000000000000000","ind_status":"AT","des_condic":"Aguardando analise"},"geometry":{"type":"Polygon","coordinates":[[[-43.6458,-22.4881],[-43.6468,-22.497],[-43.6433,-22.5026],[-43.6301,-22.5054],[-43.6267,-22.5195],[-43.6379,-22.5075],[-43.637,-22.5136],[-43.6405,-22.5108],[-43.6431,-22.5152],[-43.6433,-22.5034],[-43.6514,-22.5027],[-43.6533,-22.4924],[-43.6459,-22.4881],[-43.6458,-22.4881]],[[-43.6502,-22.4971],[-43.6485,-22.4995],[-43.6503,-22.4965],[-43.6502,-22.4971]],[[-43.6416,-22.505],[-43.6359,-22.5041],[-43.6418,-22.5047],[-43.6416,-22.505]],[[-43.6269,-22.5206],[-43.6295,-22.5225],[-43.6269,-22.5206],[-43.6269,-22.5206]],[[-43.6369,-22.5199],[-43.6506,-22.5154],[-43.6464,-22.5081],[-43.6478,-22.5163],[-43.6369,-22.5199]],[[-43.6491,-22.5078],[-43.6472,-22.5043],[-43.6427,-22.5077],[-43.6491,-22.5078],[-43.6491,-22.5078]]]}},{"type":"Feature","properties":{"cod_imovel":"RJ-3301801-D2E2A64CCBCF4A3EB3E6F8C1C01EFEA7","num_area":"12.138200000000000000000000000000","ind_status":"AT","des_condic":"Aguardando analise"},"geometry":{"type":"Polygon","coordinates":[[[-43.6619,-22.4881],[-43.6665,-22.4853],[-43.6618,-22.4881],[-43.6619,-22.4881]]]}},{"type":"Feature","properties":{"cod_imovel":"RJ-3301801-F2F82AF60ADA4D0C8133EC8BFBBE8F01","num_area":"5.5608000000000000000000000000000","ind_status":"AT","des_condic":"Aguardando analise"},"geometry":{"type":"Polygon","coordinates":[[[-43.6696,-22.4871],[-43.6681,-22.4813],[-43.6696,-22.4871],[-43.6696,-22.4871]]]}},{"type":"Feature","properties":{"cod_imovel":"RJ-3301801-D98A8A38F33545EB915561B91AE023B4","num_area":"91.299600000000000000000000000000","ind_status":"AT","des_condic":"Aguardando analise"},"geometry":{"type":"Polygon","coordinates":[[[-43.6174,-22.4988],[-43.6152,-22.5035],[-43.6206,-22.4987],[-43.6158,-22.4981],[-43.6174,-22.4988]],[[-43.6129,-22.4979],[-43.6141,-22.5007],[-43.6127,-22.4975],[-43.6129,-22.4979]],[[-43.6261,-22.5018],[-43.625,-22.5051],[-43.6289,-22.5049],[-43.6305,-22.497],[-43.6266,-22.5013],[-43.6261,-22.5018]],[[-43.6252,-22.5031],[-43.6177,-22.5069],[-43.6233,-22.508],[-43.6252,-22.5031],[-43.6252,-22.5031]],[[-43.6233,-22.5029],[-43.6273,-22.4979],[-43.6232,-22.5029],[-43.6233,-22.5029]],[[-43.6307,-22.5001],[-43.6338,-22.5033],[-43.6307,-22.5],[-43.6307,-22.5001]]]}},{"type":"Feature","properties":{"cod_imovel":"RJ-3301801-A2BC44B16C0C4E1F94D62A028C13B69F","num_area":"13.197300000000000000000000000000","ind_status":"AT","des_condic":"Aguardando analise"},"geometry":{"type":"Polygon","coordinates":[[[-43.6662,-22.4787],[-43.6665,-22.483],[-43.6708,-22.4807],[-43.6663,-22.4786],[-43.6662,-22.4787]],[[-43.6671,-22.4807],[-43.6697,-22.4783],[-43.6671,-22.4809],[-43.6671,-22.4807]]]}},{"type":"Feature","properties":{"cod_imovel":"RJ-3301801-4F3C71C43A2747529F47D9FA57244D27","num_area":"8.9839000000000000000000000000000","ind_status":"AT","des_condic":"Aguardando analise"},"geometry":{"type":"Polygon","coordinates":[[[-43.6656,-22.4798],[-43.6629,-22.4829],[-43.6689,-22.4863],[-43.6638,-22.4839],[-43.6656,-22.4799],[-43.6656,-22.4798]]]}},{"type":"Feature","properties":{"cod_imovel":"RJ-3301801-61F87A675DB544F99B760834E6E27457","num_area":"12.753700000000000000000000000000","ind_status":"AT","des_condic":"Aguardando analise"},"geometry":{"type":"Polygon","coordinates":[[[-43.573,-22.4975],[-43.5688,-22.4952],[-43.5721,-22.4992],[-43.573,-22.4975]]]}},{"type":"Feature","properties":{"cod_imovel":"RJ-3301801-86EF97C06DB44114B0666A134FFFE1F1","num_area":"60.351300000000000000000000000000","ind_status":"AT","des_condic":"Aguardando analise"},"geometry":{"type":"Polygon","coordinates":[[[-43.6565,-22.4965],[-43.6542,-22.4998],[-43.6635,-22.5025],[-43.6544,-22.4993],[-43.657,-22.4973],[-43.6565,-22.4965]],[[-43.6656,-22.5027],[-43.6707,-22.5041],[-43.6708,-22.4996],[-43.6661,-22.5023],[-43.6656,-22.5027]],[[-43.683,-22.4878],[-43.6841,-22.4842],[-43.6831,-22.4875],[-43.683,-22.4878]],[[-43.6793,-22.4892],[-43.6793,-22.4936],[-43.6793,-22.4893],[-43.6793,-22.4892]],[[-43.6724,-22.491],[-43.6718,-22.4833],[-43.6723,-22.4907],[-43.6724,-22.491]],[[-43.6601,-22.4936],[-43.6513,-22.4876],[-43.6536,-22.4832],[-43.651,-22.4873],[-43.6571,-22.4973],[-43.6603,-22.4937],[-43.6601,-22.4936]],[[-43.6543,-22.4833],[-43.6628,-22.4761],[-43.6699,-22.4783],[-43.6628,-22.4759],[-43.6544,-22.4831],[-43.6543,-22.4833]]]}},{"type":"Feature","properties":{"cod_imovel":"RJ-3301801-7CFD2C8C1E9740769923DBDC5E9E13C2","num_area":"18.474900000000000000000000000000","ind_status":"AT","des_condic":"Aguardando analise"},"geometry":{"type":"Polygon","coordinates":[[[-43.6277,-22.5325],[-43.6303,-22.5284],[-43.6245,-22.5272],[-43.6256,-22.523],[-43.6277,-22.5324],[-43.6277,-22.5325]],[[-43.6286,-22.5319],[-43.6309,-22.5365],[-43.6287,-22.5319],[-43.6286,-22.5319]],[[-43.6314,-22.5337],[-43.632,-22.5303],[-43.6319,-22.5336],[-43.6314,-22.5337]],[[-43.6317,-22.5258],[-43.6306,-22.5229],[-43.6317,-22.5258],[-43.6317,-22.5258]]]}},{"type":"Feature","properties":{"cod_imovel":"RJ-3301801-42E7814A01114822BE05795E7A51691C","num_area":"7.7184000000000000000000000000000","ind_status":"AT","des_condic":"Aguardando analise"},"geometry":{"type":"Polygon","coordinates":[[[-43.6753,-22.4909],[-43.6766,-22.4858],[-43.6753,-22.4907],[-43.6753,-22.4909]]]}},{"type":"Feature","properties":{"cod_imovel":"RJ-3301801-D46C2D3692964A4195B55BAA8B80D529","num_area":"9.4858000000000000000000000000000","ind_status":"AT","des_condic":"Aguardando analise"},"geometry":{"type":"Polygon","coordinates":[[[-43.6247,-22.4857],[-43.6289,-22.4845],[-43.6247,-22.4857],[-43.6247,-22.4857]]]}},{"type":"Feature","properties":{"cod_imovel":"RJ-3301801-729833CDD6744FEBAF1FFCFBB7BA022B","num_area":"3.1365000000000000000000000000000","ind_status":"AT","des_condic":"Aguardando analise"},"geometry":{"type":"Polygon","coordinates":[[[-43.6093,-22.5362],[-43.6061,-22.5378],[-43.6093,-22.5363],[-43.6093,-22.5362]]]}},{"type":"Feature","properties":{"cod_imovel":"RJ-3301801-3A4946D0D63C4906A06420EEA06EA170","num_area":"14.083800000000000000000000000000","ind_status":"AT","des_condic":"Aguardando analise"},"geometry":{"type":"Polygon","coordinates":[[[-43.5688,-22.4839],[-43.5649,-22.4882],[-43.5688,-22.4839],[-43.5688,-22.4839]]]}},{"type":"Feature","properties":{"cod_imovel":"RJ-3301801-E8DEC4B3604B4C69AD4B804B97C89E7D","num_area":"4.9973000000000000000000000000000","ind_status":"AT","des_condic":"Aguardando analise"},"geometry":{"type":"Polygon","coordinates":[[[-43.6831,-22.5293],[-43.6822,-22.5323],[-43.6831,-22.5293],[-43.6831,-22.5293]]]}},{"type":"Feature","properties":{"cod_imovel":"RJ-3301801-92830B76EE564F2296A32009C3A14607","num_area":"14.642600000000000000000000000000","ind_status":"AT","des_condic":"Aguardando analise"},"geometry":{"type":"Polygon","coordinates":[[[-43.6101,-22.4776],[-43.6109,-22.4734],[-43.6101,-22.4773],[-43.6101,-22.4776]],[[-43.6138,-22.4762],[-43.6109,-22.4735],[-43.6101,-22.4775],[-43.6134,-22.476],[-43.6138,-22.4762]]]}},{"type":"Feature","properties":{"cod_imovel":"RJ-3301801-8524BE6DADD241BD8738A1B6B22664E6","num_area":"90.374800000000000000000000000000","ind_status":"AT","des_condic":"Aguardando analise"},"geometry":{"type":"Polygon","coordinates":[[[-43.7009,-22.5094],[-43.6952,-22.5048],[-43.6878,-22.5064],[-43.6972,-22.5165],[-43.6988,-22.5103],[-43.7009,-22.5094]],[[-43.6898,-22.5136],[-43.6972,-22.5167],[-43.6908,-22.5131],[-43.6898,-22.5136]],[[-43.692,-22.5177],[-43.6958,-22.5158],[-43.6921,-22.5175],[-43.692,-22.5177]]]}},{"type":"Feature","properties":{"cod_imovel":"RJ-3301801-7AFD19EFE494436FAE866A1BA386E7EB","num_area":"87.036500000000000000000000000000","ind_status":"AT","des_condic":"Aguardando analise"},"geometry":{"type":"Polygon","coordinates":[[[-43.6986,-22.503],[-43.7011,-22.5052],[-43.6985,-22.5029],[-43.6986,-22.503]],[[-43.708,-22.5058],[-43.7073,-22.5004],[-43.7101,-22.5035],[-43.7073,-22.5009],[-43.7032,-22.505],[-43.7082,-22.5056],[-43.708,-22.5058]],[[-43.7057,-22.4994],[-43.6982,-22.5026],[-43.7018,-22.5044],[-43.7056,-22.4994],[-43.7057,-22.4994]],[[-43.6979,-22.502],[-43.6933,-22.5046],[-43.7031,-22.5103],[-43.6978,-22.5021],[-43.6979,-22.502]]]}},{"type":"Feature","properties":{"cod_imovel":"RJ-3301801-7EAA95DEB9E743D384237E0695AEDC56","num_area":"4.0376000000000000000000000000000","ind_status":"AT","des_condic":"Aguardando analise"},"geometry":{"type":"Polygon","coordinates":[[[-43.6155,-22.5316],[-43.6189,-22.5299],[-43.6161,-22.5324],[-43.6155,-22.5316]]]}},{"type":"Feature","properties":{"cod_imovel":"RJ-3301801-E9DF153BBBE84B0AA31EEFA0670D8CB0","num_area":"7.6711000000000000000000000000000","ind_status":"AT","des_condic":"Aguardando analise"},"geometry":{"type":"Polygon","coordinates":[[[-43.6465,-22.5386],[-43.6489,-22.5419],[-43.6465,-22.5386],[-43.6465,-22.5386]],[[-43.6456,-22.5417],[-43.65,-22.5422],[-43.6459,-22.5416],[-43.6456,-22.5417]]]}},{"type":"Feature","properties":{"cod_imovel":"RJ-3301801-263C8FD97C364D2B90B703AECDC45072","num_area":"2.3429000000000000000000000000000","ind_status":"AT","des_condic":"Aguardando analise"},"geometry":{"type":"Polygon","coordinates":[[[-43.5722,-22.496],[-43.5788,-22.4992],[-43.5743,-22.4953],[-43.5722,-22.496]]]}},{"type":"Feature","properties":{"cod_imovel":"RJ-3301801-7FCB5BDF46394F63A099CC8826BD427B","num_area":"38.392800000000000000000000000000","ind_status":"AT","des_condic":"Aguardando analise"},"geometry":{"type":"Polygon","coordinates":[[[-43.6967,-22.5221],[-43.6944,-22.5256],[-43.6965,-22.5227],[-43.6967,-22.5221]],[[-43.6933,-22.5181],[-43.6935,-22.5253],[-43.6985,-22.5182],[-43.6935,-22.5181],[-43.6933,-22.5181]]]}},{"type":"Feature","properties":{"cod_imovel":"RJ-3301801-70E1D00D82C5467F8325CB7443684A2B","num_area":"7.6852000000000000000000000000000","ind_status":"AT","des_condic":"Aguardando analise"},"geometry":{"type":"Polygon","coordinates":[[[-43.571,-22.4812],[-43.5686,-22.4855],[-43.5732,-22.4839],[-43.571,-22.4812],[-43.571,-22.4812]]]}},{"type":"Feature","properties":{"cod_imovel":"RJ-3301801-41A6243C47EF45EBB05AFA139EE6393E","num_area":"18.057100000000000000000000000000","ind_status":"AT","des_condic":"Aguardando analise"},"geometry":{"type":"Polygon","coordinates":[[[-43.6387,-22.5378],[-43.6359,-22.543],[-43.6405,-22.5449],[-43.6426,-22.5396],[-43.6371,-22.5408],[-43.6384,-22.5381],[-43.6387,-22.5378]]]}},{"type":"Feature","properties":{"cod_imovel":"RJ-3301801-D4AE0AF718C9491B8F9D1C5D2C5C9310","num_area":"9.7427000000000000000000000000000","ind_status":"AT","des_condic":"Aguardando analise"},"geometry":{"type":"Polygon","coordinates":[[[-43.597,-22.5096],[-43.5992,-22.5059],[-43.597,-22.5096],[-43.597,-22.5096]]]}},{"type":"Feature","properties":{"cod_imovel":"RJ-3306206-DACA82AA165840F1AC6515651669F9EC","num_area":"79.914100000000000000000000000000","ind_status":"CA","des_condic":"Cancelado por decisao administrativa"},"geometry":{"type":"Polygon","coordinates":[[[-43.6266,-22.4647],[-43.6412,-22.4658],[-43.6303,-22.4667],[-43.636,-22.4615],[-43.6267,-22.4647],[-43.6266,-22.4647]],[[-43.6196,-22.4632],[-43.6147,-22.4621],[-43.6193,-22.4632],[-43.6196,-22.4632]],[[-43.6209,-22.4622],[-43.6198,-22.4662],[-43.6205,-22.4624],[-43.6209,-22.4622]],[[-43.6114,-22.4689],[-43.6174,-22.4672],[-43.6114,-22.4689],[-43.6114,-22.4689]],[[-43.6119,-22.4649],[-43.6147,-22.467],[-43.6125,-22.4645],[-43.6119,-22.4649]],[[-43.6412,-22.4658],[-43.6387,-22.4631],[-43.6412,-22.4658],[-43.6412,-22.4658]]]}},{"type":"Feature","properties":{"cod_imovel":"RJ-3301801-38C2AAA7F6A24E1C8B07D7605B43F8FC","num_area":"25.020800000000000000000000000000","ind_status":"AT","des_condic":"Aguardando analise"},"geometry":{"type":"Polygon","coordinates":[[[-43.6275,-22.4787],[-43.6242,-22.4822],[-43.6287,-22.4793],[-43.6275,-22.4787]],[[-43.6238,-22.4832],[-43.6282,-22.4809],[-43.6238,-22.4832],[-43.6238,-22.4832]],[[-43.6275,-22.4831],[-43.6313,-22.4805],[-43.6279,-22.4827],[-43.6275,-22.4831]]]}},{"type":"Feature","properties":{"cod_imovel":"RJ-3301801-0DE3208D00944ED2A52AB2F69DDFCB47","num_area":"27.644600000000000000000000000000","ind_status":"AT","des_condic":"Aguardando analise"},"geometry":{"type":"Polygon","coordinates":[[[-43.61,-22.5298],[-43.6134,-22.531],[-43.6101,-22.5295],[-43.61,-22.5298]],[[-43.611,-22.5241],[-43.615,-22.5259],[-43.611,-22.5241],[-43.611,-22.5241]],[[-43.6186,-22.5258],[-43.6136,-22.5214],[-43.6184,-22.5258],[-43.6186,-22.5258]],[[-43.6162,-22.5305],[-43.6187,-22.5258],[-43.6119,-22.5207],[-43.6174,-22.5255],[-43.6158,-22.5302],[-43.6162,-22.5305]]]}},{"type":"Feature","properties":{"cod_imovel":"RJ-3301801-14D0C79BEF7B48B2AE82F9F8B3BF7AC7","num_area":"16.598400000000000000000000000000","ind_status":"AT","des_condic":"Aguardando analise"},"geometry":{"type":"Polygon","coordinates":[[[-43.5827,-22.5078],[-43.5812,-22.5034],[-43.5777,-22.5118],[-43.5812,-22.5074],[-43.5827,-22.5078]],[[-43.5738,-22.51],[-43.5689,-22.5111],[-43.5733,-22.5099],[-43.5738,-22.51]]]}},{"type":"Feature","properties":{"cod_imovel":"RJ-3301801-64A9D631200941F48C26A6614DCA123E","num_area":"11.165900000000000000000000000000","ind_status":"AT","des_condic":"Aguardando analise"},"geometry":{"type":"Polygon","coordinates":[[[-43.6712,-22.5386],[-43.669,-22.5343],[-43.6711,-22.5385],[-43.6712,-22.5386]],[[-43.6691,-22.5343],[-43.6712,-22.538],[-43.6691,-22.5342],[-43.6691,-22.5343]]]}},{"type":"Feature","properties":{"cod_imovel":"RJ-3301801-4FAF21B79EB2448DBD7DBA1D0F0C51BC","num_area":"27.842800000000000000000000000000","ind_status":"AT","des_condic":"Aguardando analise"},"geometry":{"type":"Polygon","coordinates":[[[-43.6378,-22.4831],[-43.6432,-22.4845],[-43.6377,-22.483],[-43.6378,-22.4831]],[[-43.6313,-22.4817],[-43.6282,-22.4847],[-43.6312,-22.4818],[-43.6313,-22.4817]],[[-43.636,-22.4825],[-43.6303,-22.4844],[-43.636,-22.4825],[-43.636,-22.4825]]]}},{"type":"Feature","properties":{"cod_imovel":"RJ-3301801-4B561C3C9AC0477085F6C44693C5838C","num_area":"10.254400000000000000000000000000","ind_status":"AT","des_condic":"Aguardando analise"},"geometry":{"type":"Polygon","coordinates":[[[-43.6261,-22.4878],[-43.6287,-22.4906],[-43.6267,-22.4879],[-43.6261,-22.4878]]]}},{"type":"Feature","properties":{"cod_imovel":"RJ-3301801-52AFC5C4A94B45E5BADCFBA4B5EF5B08","num_area":"68.161700000000000000000000000000","ind_status":"AT","des_condic":"Aguardando analise"},"geometry":{"type":"Polygon","coordinates":[[[-43.63,-22.4927],[-43.6348,-22.502],[-43.6426,-22.4933],[-43.6353,-22.4979],[-43.6317,-22.4952],[-43.6359,-22.4961],[-43.635,-22.4923],[-43.6301,-22.4927],[-43.63,-22.4927]],[[-43.6295,-22.497],[-43.6303,-22.4927],[-43.6296,-22.4967],[-43.6295,-22.497]],[[-43.6373,-22.5009],[-43.64,-22.4978],[-43.6369,-22.5008],[-43.6373,-22.5009]]]}},{"type":"Feature","properties":{"cod_imovel":"RJ-3301801-687A304B12234D119FB9F4374BE0245A","num_area":"8.1681000000000000000000000000000","ind_status":"AT","des_condic":"Aguardando analise"},"geometry":{"type":"Polygon","coordinates":[[[-43.6889,-22.4914],[-43.6892,-22.4873],[-43.6889,-22.4912],[-43.6889,-22.4914]],[[-43.6893,-22.4873],[-43.6923,-22.4918],[-43.6893,-22.4873],[-43.6893,-22.4873]]]}},{"type":"Feature","properties":{"cod_imovel":"RJ-3301801-6B0982EBAF814D49914D283F1920F0AF","num_area":"12.844400000000000000000000000000","ind_status":"AT","des_condic":"Aguardando analise"},"geometry":{"type":"Polygon","coordinates":[[[-43.6861,-22.5348],[-43.6922,-22.5304],[-43.6861,-22.5347],[-43.6861,-22.5348]]]}},{"type":"Feature","properties":{"cod_imovel":"RJ-3301801-979152B1416F4350A6129F83F8326042","num_area":"157.83580000000000000000000000000","ind_status":"AT","des_condic":"Aguardando analise"},"geometry":{"type":"Polygon","coordinates":[[[-43.6379,-22.4715],[-43.6444,-22.4696],[-43.6404,-22.4706],[-43.6379,-22.4715]],[[-43.6368,-22.4717],[-43.6426,-22.4672],[-43.6327,-22.4742],[-43.6354,-22.4721],[-43.6368,-22.4717]],[[-43.6313,-22.4806],[-43.6317,-22.4775],[-43.6313,-22.4806],[-43.6313,-22.4806]],[[-43.6351,-22.4709],[-43.6306,-22.4733],[-43.6317,-22.4683],[-43.6277,-22.4759],[-43.6336,-22.4718],[-43.6351,-22.4709]],[[-43.6323,-22.4687],[-43.6423,-22.4669],[-43.6324,-22.4687],[-43.6323,-22.4687]],[[-43.6227,-22.465],[-43.6249,-22.4712],[-43.6235,-22.4657],[-43.6227,-22.465]],[[-43.6164,-22.4676],[-43.6116,-22.4695],[-43.6131,-22.473],[-43.6194,-22.4682],[-43.6164,-22.4677],[-43.6164,-22.4676]],[[-43.6158,-22.4747],[-43.6231,-22.4721],[-43.6169,-22.4688],[-43.6161,-22.4741],[-43.6158,-22.4747]],[[-43.6148,-22.4749],[-43.6275,-22.4739],[-43.6153,-22.4751],[-43.6148,-22.4749]],[[-43.6225,-22.4785],[-43.6303,-22.4778],[-43.6236,-22.4793],[-43.6225,-22.4785]],[[-43.6268,-22.4765],[-43.6236,-22.4774],[-43.6273,-22.4762],[-43.6268,-22.4765]]]}},{"type":"Feature","properties":{"cod_imovel":"RJ-3301801-9D9D83D4844646C6A577A59AA827798A","num_area":"12.931000000000000000000000000000","ind_status":"AT","des_condic":"Aguardando analise"},"geometry":{"type":"Polygon","coordinates":[[[-43.6098,-22.5146],[-43.6125,-22.5181],[-43.6098,-22.5145],[-43.6098,-22.5146]]]}},{"type":"Feature","properties":{"cod_imovel":"RJ-3301801-A7C218538D72406D876D928F6D8C286C","num_area":"5.0069000000000000000000000000000","ind_status":"AT","des_condic":"Aguardando analise"},"geometry":{"type":"Polygon","coordinates":[[[-43.6137,-22.502],[-43.6116,-22.5054],[-43.6145,-22.5031],[-43.6137,-22.502]]]}},{"type":"Feature","properties":{"cod_imovel":"RJ-3301801-A9F0D314D5F64CE7B0EB793E90E97D29","num_area":"4.9409000000000000000000000000000","ind_status":"AT","des_condic":"Aguardando analise"},"geometry":{"type":"Polygon","coordinates":[[[-43.63,-22.4879],[-43.6334,-22.4893],[-43.63,-22.4879],[-43.63,-22.4879]]]}},{"type":"Feature","properties":{"cod_imovel":"RJ-3301801-B68BF5E6FA1C4243B955CC8BBB9023FC","num_area":"27.904500000000000000000000000000","ind_status":"AT","des_condic":"Aguardando analise"},"geometry":{"type":"Polygon","coordinates":[[[-43.6251,-22.4833],[-43.618,-22.481],[-43.6243,-22.4834],[-43.6251,-22.4833]],[[-43.6251,-22.4829],[-43.6219,-22.4776],[-43.6251,-22.4829],[-43.6251,-22.4829]],[[-43.6203,-22.4759],[-43.616,-22.4772],[-43.6191,-22.476],[-43.6203,-22.4759]],[[-43.616,-22.4773],[-43.618,-22.481],[-43.6163,-22.4774],[-43.616,-22.4773]]]}},{"type":"Feature","properties":{"cod_imovel":"RJ-3301801-E07E2ECEB1EF48F2AC5773C082B17A8E","num_area":"6.2765000000000000000000000000000","ind_status":"AT","des_condic":"Aguardando analise"},"geometry":{"type":"Polygon","coordinates":[[[-43.6648,-22.5274],[-43.6674,-22.5302],[-43.6649,-22.5273],[-43.6648,-22.5274]]]}},{"type":"Feature","properties":{"cod_imovel":"RJ-3301801-F6961AF72FDF43D28987EDAE5866C889","num_area":"45.359400000000000000000000000000","ind_status":"AT","des_condic":"Aguardando analise"},"geometry":{"type":"Polygon","coordinates":[[[-43.6722,-22.4729],[-43.6676,-22.4739],[-43.672,-22.4777],[-43.6723,-22.473],[-43.6722,-22.4729]],[[-43.677,-22.4774],[-43.67,-22.4783],[-43.672,-22.4816],[-43.6769,-22.4776],[-43.677,-22.4774]],[[-43.6721,-22.4816],[-43.6776,-22.4814],[-43.6721,-22.4816],[-43.6721,-22.4816]],[[-43.6765,-22.4722],[-43.6725,-22.4721],[-43.6761,-22.472],[-43.6765,-22.4722]]]}}]}