{"type":"FeatureCollection","features":[{"type":"Feature","properties":{"cod_imovel":"RJ-3305554-72EF761C937B4A418759ACBEE98E8103","num_area":"2.6426000000000000000000000000000","ind_status":"AT","des_condic":"Aguardando analise"},"geometry":{"type":"Polygon","coordinates":[[[-43.7891,-22.7719],[-43.7914,-22.775],[-43.7884,-22.7716],[-43.7891,-22.7719]]]}},{"type":"Feature","properties":{"cod_imovel":"RJ-3302007-1ED8B1BABDFA41D78FBCC97B4986EA8A","num_area":"57.721800000000000000000000000000","ind_status":"AT","des_condic":"Aguardando analise"},"geometry":{"type":"Polygon","coordinates":[[[-43.7616,-22.7257],[-43.7569,-22.7289],[-43.7615,-22.7367],[-43.7657,-22.7351],[-43.7596,-22.7308],[-43.7618,-22.7257],[-43.7616,-22.7257]],[[-43.7591,-22.7349],[-43.7596,-22.7382],[-43.7651,-22.7362],[-43.7591,-22.7349],[-43.7591,-22.7349]]]}},{"type":"Feature","properties":{"cod_imovel":"RJ-3305554-1F58972E195849C9B488772CAFEA983E","num_area":"13.997400000000000000000000000000","ind_status":"AT","des_condic":"Aguardando analise"},"geometry":{"type":"Polygon","coordinates":[[[-43.7897,-22.7749],[-43.7952,-22.7783],[-43.7912,-22.775],[-43.7951,-22.7752],[-43.7897,-22.7749]]]}},{"type":"Feature","properties":{"cod_imovel":"RJ-3302007-FD3A0969FE9C4C269934F3616D48178F","num_area":"166.90480000000000000000000000000","ind_status":"PE","des_condic":"Aguardando analise"},"geometry":{"type":"Polygon","coordinates":[[[-43.8832,-22.9047],[-43.8827,-22.9094],[-43.8773,-22.9091],[-43.8798,-22.912],[-43.8831,-22.9055],[-43.8867,-22.9069],[-43.8837,-22.9048],[-43.8832,-22.9047]],[[-43.8799,-22.9123],[-43.8826,-22.9209],[-43.8912,-22.9204],[-43.8852,-22.9074],[-43.8799,-22.9123],[-43.8799,-22.9123]],[[-43.8877,-22.909],[-43.8964,-22.9133],[-43.8881,-22.9093],[-43.8877,-22.909]],[[-43.8969,-22.9094],[-43.8896,-22.9065],[-43.896,-22.9102],[-43.8969,-22.9094]],[[-43.8843,-22.9042],[-43.8878,-22.9053],[-43.8847,-22.9043],[-43.8843,-22.9042]],[[-43.8828,-22.9014],[-43.8859,-22.9032],[-43.883,-22.9021],[-43.8828,-22.9014]],[[-43.8914,-22.9054],[-43.8945,-22.9065],[-43.8915,-22.9051],[-43.8914,-22.9054]]]}},{"type":"Feature","properties":{"cod_imovel":"RJ-3302007-6659544E30754BE693AD9F587957282F","num_area":"653.40300000000000000000000000000","ind_status":"AT","des_condic":"Em analise"},"geometry":{"type":"Polygon","coordinates":[[[-43.7733,-22.8346],[-43.7741,-22.8423],[-43.7941,-22.8384],[-43.7979,-22.8313],[-43.79,-22.8312],[-43.7922,-22.8252],[-43.7987,-22.8285],[-43.7993,-22.8228],[-43.7838,-22.8106],[-43.7708,-22.8192],[-43.7732,-22.8342],[-43.7733,-22.8346]]]}},{"type":"Feature","properties":{"cod_imovel":"RJ-3302007-02FBBFE0DDD64B68946AEC1FFA88B831","num_area":"7.5636000000000000000000000000000","ind_status":"PE","des_condic":"Analisado, aguardando atendimento a notificacao"},"geometry":{"type":"Polygon","coordinates":[[[-43.8148,-22.7401],[-43.8196,-22.7403],[-43.8148,-22.7401],[-43.8148,-22.7401]]]}},{"type":"Feature","properties":{"cod_imovel":"RJ-3302007-CECBAE3C50A849DF9CF2CD6EA86AA378","num_area":"212.31620000000000000000000000000","ind_status":"AT","des_condic":"Aguardando analise, apos revisao ou atendimento da notificacao"},"geometry":{"type":"Polygon","coordinates":[[[-43.8334,-22.7411],[-43.8305,-22.7398],[-43.8334,-22.7411],[-43.8334,-22.7411]],[[-43.8322,-22.7477],[-43.8359,-22.7497],[-43.8259,-22.7387],[-43.825,-22.7423],[-43.8354,-22.7462],[-43.8321,-22.7477],[-43.8322,-22.7477]],[[-43.8174,-22.7377],[-43.8216,-22.7384],[-43.8176,-22.7375],[-43.8174,-22.7377]],[[-43.8171,-22.738],[-43.8233,-22.7397],[-43.8171,-22.738],[-43.8171,-22.738]],[[-43.8193,-22.7403],[-43.8157,-22.7414],[-43.8224,-22.7462],[-43.8107,-22.7407],[-43.8178,-22.7477],[-43.829,-22.7457],[-43.8193,-22.7403],[-43.8193,-22.7403]],[[-43.8108,-22.7384],[-43.8113,-22.7421],[-43.8108,-22.7384],[-43.8108,-22.7384]],[[-43.8217,-22.747],[-43.8252,-22.7488],[-43.8217,-22.747],[-43.8217,-22.747]],[[-43.8264,-22.748],[-43.83,-22.7495],[-43.8264,-22.748],[-43.8264,-22.748]],[[-43.83,-22.7495],[-43.8267,-22.7463],[-43.83,-22.7495],[-43.83,-22.7495]],[[-43.8285,-22.7389],[-43.8239,-22.7379],[-43.8286,-22.7389],[-43.8285,-22.7389]],[[-43.8387,-22.7483],[-43.8366,-22.7461],[-43.8387,-22.7483],[-43.8387,-22.7483]],[[-43.8432,-22.747],[-43.833,-22.7419],[-43.843,-22.7473],[-43.8432,-22.747]]]}},{"type":"Feature","properties":{"cod_imovel":"RJ-3302007-E6CBBAB3AC284141B7DC9BDB10E43EA7","num_area":"6.9629000000000000000000000000000","ind_status":"PE","des_condic":"Analisado, aguardando atendimento a notificacao"},"geometry":{"type":"Polygon","coordinates":[[[-43.8638,-22.8475],[-43.8625,-22.8525],[-43.8638,-22.8478],[-43.8638,-22.8475]]]}},{"type":"Feature","properties":{"cod_imovel":"RJ-3302007-F7971C56EF73449AA3E4B05CCDCCF907","num_area":"4.9513000000000000000000000000000","ind_status":"AT","des_condic":"Aguardando analise"},"geometry":{"type":"Polygon","coordinates":[[[-43.8095,-22.8123],[-43.806,-22.8127],[-43.8095,-22.8123],[-43.8095,-22.8123]]]}},{"type":"Feature","properties":{"cod_imovel":"RJ-3302007-9D0C3C79F2B3451BB870FC97B49E927E","num_area":"85.629200000000000000000000000000","ind_status":"AT","des_condic":"Aguardando analise"},"geometry":{"type":"Polygon","coordinates":[[[-43.8523,-22.8402],[-43.848,-22.8442],[-43.8529,-22.842],[-43.8523,-22.8402]],[[-43.8584,-22.8445],[-43.8642,-22.8419],[-43.8584,-22.8445],[-43.8584,-22.8445]],[[-43.8579,-22.8429],[-43.8646,-22.8378],[-43.8524,-22.8402],[-43.8579,-22.8429],[-43.8579,-22.8429]],[[-43.8551,-22.8413],[-43.8599,-22.8394],[-43.8543,-22.8418],[-43.8551,-22.8413]],[[-43.8585,-22.8453],[-43.8642,-22.8463],[-43.8585,-22.8452],[-43.8585,-22.8453]],[[-43.8598,-22.8463],[-43.863,-22.8478],[-43.8598,-22.8463],[-43.8598,-22.8463]]]}},{"type":"Feature","properties":{"cod_imovel":"RJ-3302007-5B65FACCB3B44987987B7480C7D30EA6","num_area":"74.864000000000000000000000000000","ind_status":"AT","des_condic":"Aguardando analise"},"geometry":{"type":"Polygon","coordinates":[[[-43.9067,-22.884],[-43.9016,-22.8749],[-43.8995,-22.884],[-43.9066,-22.8841],[-43.9067,-22.884]]]}},{"type":"Feature","properties":{"cod_imovel":"RJ-3302007-334AA35E5031453689A6012D498CB242","num_area":"240.48280000000000000000000000000","ind_status":"SU","des_condic":"Analisado, aguardando atendimento a notificacao"},"geometry":{"type":"Polygon","coordinates":[[[-43.8254,-22.769],[-43.828,-22.766],[-43.8259,-22.7685],[-43.8254,-22.769]],[[-43.8169,-22.7487],[-43.8185,-22.7514],[-43.8165,-22.748],[-43.8169,-22.7487]],[[-43.8207,-22.7578],[-43.8277,-22.7588],[-43.8191,-22.7511],[-43.8207,-22.7579],[-43.8207,-22.7578]],[[-43.8292,-22.7587],[-43.8351,-22.7607],[-43.8408,-22.751],[-43.8184,-22.749],[-43.8293,-22.7587],[-43.8292,-22.7587]],[[-43.8184,-22.755],[-43.8156,-22.7635],[-43.8202,-22.7632],[-43.8183,-22.755],[-43.8184,-22.755]],[[-43.8199,-22.748],[-43.8168,-22.7475],[-43.8199,-22.748],[-43.8199,-22.748]],[[-43.8164,-22.7477],[-43.8189,-22.7512],[-43.8164,-22.7477],[-43.8164,-22.7477]]]}},{"type":"Feature","properties":{"cod_imovel":"RJ-3302007-6B5D4218BFF249ADA8ADEE72D6D394EA","num_area":"69.440700000000000000000000000000","ind_status":"SU","des_condic":"Analisado, aguardando atendimento a notificacao"},"geometry":{"type":"Polygon","coordinates":[[[-43.7945,-22.7328],[-43.7914,-22.7343],[-43.7959,-22.7337],[-43.7945,-22.7328]],[[-43.8106,-22.7385],[-43.798,-22.7321],[-43.7948,-22.7365],[-43.8005,-22.7407],[-43.7991,-22.7365],[-43.8104,-22.7386],[-43.8106,-22.7385]],[[-43.7992,-22.7397],[-43.7947,-22.7365],[-43.7986,-22.7393],[-43.7992,-22.7397]]]}},{"type":"Feature","properties":{"cod_imovel":"RJ-3302007-4D7C0DD93F144B07A424C378F2DAA21D","num_area":"84.851700000000000000000000000000","ind_status":"AT","des_condic":"Analisado, aguardando atendimento a notificacao"},"geometry":{"type":"Polygon","coordinates":[[[-43.8455,-22.7855],[-43.843,-22.7907],[-43.8554,-22.7914],[-43.856,-22.7847],[-43.8495,-22.785],[-43.8455,-22.7855]]]}},{"type":"Feature","properties":{"cod_imovel":"RJ-3302007-CD65D6632F6140DAB96F89DE1C049ED3","num_area":"54.680300000000000000000000000000","ind_status":"AT","des_condic":"Analisado, aguardando atendimento a notificacao"},"geometry":{"type":"Polygon","coordinates":[[[-43.8184,-22.7401],[-43.8344,-22.7404],[-43.8294,-22.7354],[-43.8172,-22.7398],[-43.8184,-22.7401]]]}},{"type":"Feature","properties":{"cod_imovel":"RJ-3302007-1805D8F4B6BE45C8B67C150A2E1A62D0","num_area":"9.0101000000000000000000000000000","ind_status":"AT","des_condic":"Analisado, em conformidade com a Lei n 12.651/2012, com ativos ambientais"},"geometry":{"type":"Polygon","coordinates":[[[-43.7438,-22.8616],[-43.7402,-22.8621],[-43.744,-22.862],[-43.7438,-22.8616]]]}},{"type":"Feature","properties":{"cod_imovel":"RJ-3302007-0215A4391B274F2FA9F08FA584264B3B","num_area":"95.736000000000000000000000000000","ind_status":"AT","des_condic":"Aguardando analise"},"geometry":{"type":"Polygon","coordinates":[[[-43.8634,-22.8858],[-43.8808,-22.8914],[-43.8768,-22.8875],[-43.88,-22.8838],[-43.8634,-22.8857],[-43.8634,-22.8858]]]}},{"type":"Feature","properties":{"cod_imovel":"RJ-3302007-8EBFF6D25AA0471AB9D6250A1E4611FE","num_area":"5.7626000000000000000000000000000","ind_status":"AT","des_condic":"Aguardando analise, apos revisao ou atendimento da notificacao"},"geometry":{"type":"Polygon","coordinates":[[[-43.8485,-22.8947],[-43.8503,-22.892],[-43.8485,-22.8947],[-43.8485,-22.8947]]]}},{"type":"Feature","properties":{"cod_imovel":"RJ-3302007-0D0938407AA947B8981293C6BCB00A2B","num_area":"8.3967000000000000000000000000000","ind_status":"AT","des_condic":"Aguardando analise"},"geometry":{"type":"Polygon","coordinates":[[[-43.7704,-22.8957],[-43.7665,-22.8945],[-43.7704,-22.8957],[-43.7704,-22.8957]]]}},{"type":"Feature","properties":{"cod_imovel":"RJ-3302007-C881053014B94F8FB82D3D2DF04E372C","num_area":"7.7281000000000000000000000000000","ind_status":"AT","des_condic":"Aguardando analise"},"geometry":{"type":"Polygon","coordinates":[[[-43.8564,-22.8938],[-43.8576,-22.8821],[-43.854,-22.893],[-43.8564,-22.8938]]]}},{"type":"Feature","properties":{"cod_imovel":"RJ-3302007-2209D7DF05DB4F53B24730F82507677B","num_area":"0.8921000000000000000000000000000","ind_status":"AT","des_condic":"Aguardando analise"},"geometry":{"type":"Polygon","coordinates":[[[-43.8649,-22.8864],[-43.8621,-22.8898],[-43.8642,-22.8872],[-43.8649,-22.8864]]]}},{"type":"Feature","properties":{"cod_imovel":"RJ-3302007-5494BA5A9A774303AAB6119F64C0FC43","num_area":"27.414300000000000000000000000000","ind_status":"AT","des_condic":"Aguardando analise"},"geometry":{"type":"Polygon","coordinates":[[[-43.8551,-22.8684],[-43.8518,-22.8785],[-43.8552,-22.8685],[-43.8551,-22.8684]],[[-43.8526,-22.8702],[-43.8485,-22.8768],[-43.8525,-22.87],[-43.8526,-22.8702]]]}},{"type":"Feature","properties":{"cod_imovel":"RJ-3302007-EAA781FB450F4958A6BA631D4655E652","num_area":"13.745200000000000000000000000000","ind_status":"AT","des_condic":"Aguardando analise"},"geometry":{"type":"Polygon","coordinates":[[[-43.8726,-22.8874],[-43.8692,-22.8845],[-43.8722,-22.8875],[-43.8726,-22.8874]],[[-43.869,-22.8863],[-43.8657,-22.8866],[-43.8688,-22.8863],[-43.869,-22.8863]]]}},{"type":"Feature","properties":{"cod_imovel":"RJ-3302007-8F6D4C95AF444EF2BE61DD800620D05D","num_area":"25.557000000000000000000000000000","ind_status":"AT","des_condic":"Aguardando analise"},"geometry":{"type":"Polygon","coordinates":[[[-43.8847,-22.8276],[-43.8731,-22.8228],[-43.871,-22.8267],[-43.8737,-22.8229],[-43.8834,-22.826],[-43.8847,-22.8276]],[[-43.8764,-22.827],[-43.8757,-22.832],[-43.8794,-22.8315],[-43.8768,-22.827],[-43.8764,-22.827]],[[-43.8708,-22.827],[-43.8663,-22.8352],[-43.8703,-22.8279],[-43.8708,-22.827]],[[-43.8674,-22.8365],[-43.8736,-22.8403],[-43.8674,-22.8364],[-43.8674,-22.8365]],[[-43.8771,-22.8384],[-43.8818,-22.836],[-43.8771,-22.8384],[-43.8771,-22.8384]],[[-43.882,-22.8359],[-43.8867,-22.8335],[-43.8822,-22.8358],[-43.882,-22.8359]]]}},{"type":"Feature","properties":{"cod_imovel":"RJ-3302007-3F780F3E21794A78A6F4F448545A44D9","num_area":"10.736900000000000000000000000000","ind_status":"AT","des_condic":"Aguardando analise"},"geometry":{"type":"Polygon","coordinates":[[[-43.8717,-22.8918],[-43.8725,-22.8953],[-43.8738,-22.8919],[-43.8717,-22.8918]],[[-43.8687,-22.8978],[-43.8721,-22.8965],[-43.8688,-22.8979],[-43.8687,-22.8978]]]}},{"type":"Feature","properties":{"cod_imovel":"RJ-3302007-609B14EB47364386A43FF06C7C0E7C19","num_area":"13.317900000000000000000000000000","ind_status":"AT","des_condic":"Aguardando analise"},"geometry":{"type":"Polygon","coordinates":[[[-43.8975,-22.8423],[-43.8917,-22.8368],[-43.8971,-22.8423],[-43.8975,-22.8423]]]}},{"type":"Feature","properties":{"cod_imovel":"RJ-3302007-AF4C95D8CC52497E930CE90D888A18BF","num_area":"5.8994000000000000000000000000000","ind_status":"AT","des_condic":"Aguardando analise"},"geometry":{"type":"Polygon","coordinates":[[[-43.8926,-22.844],[-43.8872,-22.8434],[-43.8925,-22.844],[-43.8926,-22.844]],[[-43.8863,-22.8422],[-43.8819,-22.8418],[-43.8863,-22.8434],[-43.8863,-22.8422]],[[-43.8819,-22.8418],[-43.8772,-22.8483],[-43.8819,-22.8419],[-43.8819,-22.8418]]]}},{"type":"Feature","properties":{"cod_imovel":"RJ-3302007-61199C5D11C744FE97C699BB29C8FDFA","num_area":"4.8502000000000000000000000000000","ind_status":"AT","des_condic":"Aguardando analise"},"geometry":{"type":"Polygon","coordinates":[[[-43.8964,-22.8633],[-43.9003,-22.8633],[-43.8966,-22.8632],[-43.8964,-22.8633]]]}},{"type":"Feature","properties":{"cod_imovel":"RJ-3302007-05EF3659AEC3450B97B4087E67180A36","num_area":"9.0130000000000000000000000000000","ind_status":"AT","des_condic":"Aguardando analise"},"geometry":{"type":"Polygon","coordinates":[[[-43.8854,-22.8492],[-43.8851,-22.8527],[-43.8872,-22.8493],[-43.8854,-22.8492]]]}},{"type":"Feature","properties":{"cod_imovel":"RJ-3302007-91593F51A4884D7DA2BADF0B7D0061B3","num_area":"79.117000000000000000000000000000","ind_status":"AT","des_condic":"Aguardando analise"},"geometry":{"type":"Polygon","coordinates":[[[-43.8706,-22.8524],[-43.8727,-22.8484],[-43.8637,-22.8475],[-43.8639,-22.8538],[-43.8706,-22.8524],[-43.8706,-22.8524]],[[-43.864,-22.8539],[-43.8721,-22.8561],[-43.864,-22.8539],[-43.864,-22.8539]],[[-43.8704,-22.8597],[-43.8689,-22.857],[-43.8702,-22.8597],[-43.8704,-22.8597]],[[-43.8682,-22.8564],[-43.865,-22.8548],[-43.868,-22.8565],[-43.8682,-22.8564]],[[-43.8651,-22.8558],[-43.8623,-22.854],[-43.8649,-22.8556],[-43.8651,-22.8558]]]}},{"type":"Feature","properties":{"cod_imovel":"RJ-3302007-DDC319F6198A48B6908D2C2DEF993FAC","num_area":"30.424800000000000000000000000000","ind_status":"AT","des_condic":"Aguardando analise"},"geometry":{"type":"Polygon","coordinates":[[[-43.8735,-22.8813],[-43.8721,-22.8743],[-43.8667,-22.8742],[-43.8727,-22.8812],[-43.8735,-22.8813]]]}},{"type":"Feature","properties":{"cod_imovel":"RJ-3302007-71C9850700F34487BDF3A527701EA77E","num_area":"43.298600000000000000000000000000","ind_status":"AT","des_condic":"Aguardando analise"},"geometry":{"type":"Polygon","coordinates":[[[-43.8952,-22.8764],[-43.8935,-22.8657],[-43.8912,-22.8759],[-43.8948,-22.8767],[-43.8952,-22.8764]]]}},{"type":"Feature","properties":{"cod_imovel":"RJ-3302007-B5F29139AC10484BB4121AC6BD41B25E","num_area":"15.781400000000000000000000000000","ind_status":"AT","des_condic":"Aguardando analise"},"geometry":{"type":"Polygon","coordinates":[[[-43.9014,-22.8648],[-43.9061,-22.861],[-43.9014,-22.8643],[-43.9014,-22.8648]]]}},{"type":"Feature","properties":{"cod_imovel":"RJ-3302007-E889C9E3B7B749E3B7C265F02241BDA8","num_area":"35.804000000000000000000000000000","ind_status":"AT","des_condic":"Aguardando analise"},"geometry":{"type":"Polygon","coordinates":[[[-43.8991,-22.8679],[-43.8952,-22.8772],[-43.8991,-22.8765],[-43.8991,-22.8679],[-43.8991,-22.8679]]]}},{"type":"Feature","properties":{"cod_imovel":"RJ-3302007-6D2A15932DE9496C9B915BC70A3DF7AB","num_area":"21.135400000000000000000000000000","ind_status":"AT","des_condic":"Aguardando analise"},"geometry":{"type":"Polygon","coordinates":[[[-43.879,-22.8508],[-43.8688,-22.8482],[-43.8787,-22.8509],[-43.879,-22.8508]]]}},{"type":"Feature","properties":{"cod_imovel":"RJ-3302007-A4F492EFCC614679B73EE9466A57EEA4","num_area":"4.5259000000000000000000000000000","ind_status":"AT","des_condic":"Aguardando analise"},"geometry":{"type":"Polygon","coordinates":[[[-43.8796,-22.8498],[-43.8827,-22.8503],[-43.8797,-22.8496],[-43.8796,-22.8498]]]}},{"type":"Feature","properties":{"cod_imovel":"RJ-3302007-2A63ECAC5F7542FA9FCE005585324FBE","num_area":"34.233500000000000000000000000000","ind_status":"AT","des_condic":"Aguardando analise"},"geometry":{"type":"Polygon","coordinates":[[[-43.8761,-22.8544],[-43.8813,-22.8531],[-43.8689,-22.8506],[-43.8758,-22.8544],[-43.8761,-22.8544]]]}},{"type":"Feature","properties":{"cod_imovel":"RJ-3302007-906C1C73D3A646BD87E522DA5547B445","num_area":"3.9998000000000000000000000000000","ind_status":"AT","des_condic":"Aguardando analise"},"geometry":{"type":"Polygon","coordinates":[[[-43.8759,-22.8643],[-43.8769,-22.8672],[-43.8759,-22.8643],[-43.8759,-22.8643]]]}},{"type":"Feature","properties":{"cod_imovel":"RJ-3302007-E4E827C4047F4A65897245C7AC5BEC01","num_area":"4.3766000000000000000000000000000","ind_status":"AT","des_condic":"Aguardando analise"},"geometry":{"type":"Polygon","coordinates":[[[-43.8706,-22.8676],[-43.8688,-22.8643],[-43.8705,-22.8676],[-43.8706,-22.8676]]]}},{"type":"Feature","properties":{"cod_imovel":"RJ-3302007-7F8A57BAC67A48E8B3CCFF1B928A06D2","num_area":"31.032500000000000000000000000000","ind_status":"AT","des_condic":"Analisado, aguardando atendimento a notificacao"},"geometry":{"type":"Polygon","coordinates":[[[-43.8618,-22.8536],[-43.8566,-22.8444],[-43.8617,-22.8536],[-43.8618,-22.8536]]]}},{"type":"Feature","properties":{"cod_imovel":"RJ-3302007-F07015B93FE14207B8E44FACD5AC1E65","num_area":"14.502000000000000000000000000000","ind_status":"AT","des_condic":"Aguardando analise"},"geometry":{"type":"Polygon","coordinates":[[[-43.7771,-22.7266],[-43.7745,-22.7243],[-43.7769,-22.7266],[-43.7771,-22.7266]],[[-43.7745,-22.7242],[-43.7776,-22.7239],[-43.7728,-22.7213],[-43.7745,-22.724],[-43.7745,-22.7242]]]}},{"type":"Feature","properties":{"cod_imovel":"RJ-3302007-4DC41B3129D541578B81728FD233C030","num_area":"16.495000000000000000000000000000","ind_status":"AT","des_condic":"Aguardando analise"},"geometry":{"type":"Polygon","coordinates":[[[-43.8486,-22.8367],[-43.8408,-22.8429],[-43.8484,-22.8367],[-43.8486,-22.8367]]]}},{"type":"Feature","properties":{"cod_imovel":"RJ-3302007-FED230FF89884EECB3891A0045F0FBF4","num_area":"47.026800000000000000000000000000","ind_status":"AT","des_condic":"Aguardando analise"},"geometry":{"type":"Polygon","coordinates":[[[-43.848,-22.8443],[-43.8521,-22.84],[-43.8491,-22.8364],[-43.8421,-22.8426],[-43.8464,-22.8432],[-43.848,-22.8443]]]}},{"type":"Feature","properties":{"cod_imovel":"RJ-3302007-81DA3AECFFDC463894C304764E72E5C5","num_area":"14.607400000000000000000000000000","ind_status":"PE","des_condic":"Analisado, aguardando atendimento a notificacao"},"geometry":{"type":"Polygon","coordinates":[[[-43.837,-22.8572],[-43.8341,-22.8451],[-43.8368,-22.8574],[-43.837,-22.8572]]]}},{"type":"Feature","properties":{"cod_imovel":"RJ-3302007-561DAEC0DE014DF0A4DA9377903903D9","num_area":"11.307400000000000000000000000000","ind_status":"PE","des_condic":"Analisado, aguardando atendimento a notificacao"},"geometry":{"type":"Polygon","coordinates":[[[-43.8359,-22.8481],[-43.8373,-22.8573],[-43.8364,-22.848],[-43.8359,-22.8481]]]}},{"type":"Feature","properties":{"cod_imovel":"RJ-3302007-3ACFE16E18C2484B9AD229C3C312031B","num_area":"9.7732000000000000000000000000000","ind_status":"PE","des_condic":"Analisado, aguardando atendimento a notificacao"},"geometry":{"type":"Polygon","coordinates":[[[-43.8421,-22.8559],[-43.8394,-22.8475],[-43.8417,-22.8559],[-43.8421,-22.8559]]]}},{"type":"Feature","properties":{"cod_imovel":"RJ-3302007-92A77D2CE4DE4153B79E55658FA34F2F","num_area":"10.878000000000000000000000000000","ind_status":"PE","des_condic":"Analisado, aguardando atendimento a notificacao"},"geometry":{"type":"Polygon","coordinates":[[[-43.6994,-22.853],[-43.7002,-22.8561],[-43.7,-22.8523],[-43.6994,-22.853]]]}},{"type":"Feature","properties":{"cod_imovel":"RJ-3302007-BDFF3C4E1C7A4A42BF0B6D00DF27B32C","num_area":"10.306100000000000000000000000000","ind_status":"PE","des_condic":"Analisado, aguardando atendimento a notificacao"},"geometry":{"type":"Polygon","coordinates":[[[-43.7474,-22.8405],[-43.7418,-22.8447],[-43.7482,-22.8415],[-43.7474,-22.8405]]]}},{"type":"Feature","properties":{"cod_imovel":"RJ-3302007-7D826DBED674424F9E5489D8BDA9E49E","num_area":"15.427000000000000000000000000000","ind_status":"PE","des_condic":"Analisado, aguardando atendimento a notificacao"},"geometry":{"type":"Polygon","coordinates":[[[-43.698,-22.8547],[-43.699,-22.8594],[-43.699,-22.8553],[-43.698,-22.8547]]]}},{"type":"Feature","properties":{"cod_imovel":"RJ-3302007-F6DFAA5DA3CE43C59ABCBA65C2102074","num_area":"8.1286000000000000000000000000000","ind_status":"PE","des_condic":"Analisado, aguardando atendimento a notificacao"},"geometry":{"type":"Polygon","coordinates":[[[-43.7916,-22.8567],[-43.7967,-22.856],[-43.7919,-22.8565],[-43.7916,-22.8567]]]}},{"type":"Feature","properties":{"cod_imovel":"RJ-3302007-4BFF6706F84E42C6B87AF3C281341DD4","num_area":"17.941600000000000000000000000000","ind_status":"PE","des_condic":"Analisado, aguardando atendimento a notificacao"},"geometry":{"type":"Polygon","coordinates":[[[-43.6976,-22.859],[-43.6959,-22.8648],[-43.6979,-22.8587],[-43.6976,-22.859]]]}},{"type":"Feature","properties":{"cod_imovel":"RJ-3302007-4926C6E9394044459E8B84F52EA3B062","num_area":"25.483900000000000000000000000000","ind_status":"PE","des_condic":"Analisado, aguardando atendimento a notificacao"},"geometry":{"type":"Polygon","coordinates":[[[-43.8504,-22.8554],[-43.8445,-22.8443],[-43.8503,-22.8553],[-43.8504,-22.8554]]]}},{"type":"Feature","properties":{"cod_imovel":"RJ-3302007-28B611FC9F124DC28EE3C5CB5109B7A0","num_area":"11.321600000000000000000000000000","ind_status":"PE","des_condic":"Analisado, aguardando atendimento a notificacao"},"geometry":{"type":"Polygon","coordinates":[[[-43.8409,-22.857],[-43.8389,-22.8513],[-43.8408,-22.857],[-43.8409,-22.857]]]}},{"type":"Feature","properties":{"cod_imovel":"RJ-3302007-7B3D2E2FCD15458C89C61D3946CAECF3","num_area":"6.6552000000000000000000000000000","ind_status":"AT","des_condic":"Aguardando analise"},"geometry":{"type":"Polygon","coordinates":[[[-43.877,-22.8842],[-43.8727,-22.8867],[-43.8763,-22.8888],[-43.8743,-22.8855],[-43.877,-22.8842]],[[-43.8799,-22.8783],[-43.8769,-22.8821],[-43.8799,-22.8783],[-43.8804,-22.8861],[-43.8799,-22.8783]]]}},{"type":"Feature","properties":{"cod_imovel":"RJ-3302007-4A38DB7868E94F2EAEF375C9E76D0E37","num_area":"11.939000000000000000000000000000","ind_status":"AT","des_condic":"Aguardando analise"},"geometry":{"type":"Polygon","coordinates":[[[-43.8804,-22.8559],[-43.8846,-22.8528],[-43.8807,-22.8552],[-43.8804,-22.8559]]]}},{"type":"Feature","properties":{"cod_imovel":"RJ-3302007-795B478E235149CF82653C7925CFD0B3","num_area":"13.757600000000000000000000000000","ind_status":"AT","des_condic":"Aguardando analise"},"geometry":{"type":"Polygon","coordinates":[[[-43.8689,-22.8603],[-43.8716,-22.8646],[-43.8689,-22.8603],[-43.8689,-22.8603]]]}},{"type":"Feature","properties":{"cod_imovel":"RJ-3302007-8A8C5967734A4C23A7787AC3BC152812","num_area":"7.7224000000000000000000000000000","ind_status":"AT","des_condic":"Aguardando analise"},"geometry":{"type":"Polygon","coordinates":[[[-43.8724,-22.8555],[-43.8729,-22.8592],[-43.8725,-22.8553],[-43.8724,-22.8555]]]}},{"type":"Feature","properties":{"cod_imovel":"RJ-3302007-D4A98A26CF5841C6A2A1EA1A04C06E56","num_area":"7.9017000000000000000000000000000","ind_status":"PE","des_condic":"Analisado, aguardando atendimento a notificacao"},"geometry":{"type":"Polygon","coordinates":[[[-43.843,-22.8568],[-43.8411,-22.8498],[-43.8428,-22.8569],[-43.843,-22.8568]],[[-43.8421,-22.8503],[-43.8411,-22.8473],[-43.8421,-22.8503],[-43.8421,-22.8503]]]}},{"type":"Feature","properties":{"cod_imovel":"RJ-3302007-9C564979A13948539552837D98247604","num_area":"17.016300000000000000000000000000","ind_status":"PE","des_condic":"Analisado, aguardando atendimento a notificacao"},"geometry":{"type":"Polygon","coordinates":[[[-43.7106,-22.8571],[-43.7054,-22.8647],[-43.711,-22.8569],[-43.7106,-22.8571]]]}},{"type":"Feature","properties":{"cod_imovel":"RJ-3302007-A29D39C264FD42149298BADA0FFDE404","num_area":"6.7013000000000000000000000000000","ind_status":"PE","des_condic":"Analisado, aguardando atendimento a notificacao"},"geometry":{"type":"Polygon","coordinates":[[[-43.8333,-22.8474],[-43.8335,-22.8541],[-43.8334,-22.8477],[-43.8333,-22.8474]]]}},{"type":"Feature","properties":{"cod_imovel":"RJ-3302007-91822491D172474595941012D6AB5E46","num_area":"18.878000000000000000000000000000","ind_status":"AT","des_condic":"Aguardando analise"},"geometry":{"type":"Polygon","coordinates":[[[-43.8042,-22.7791],[-43.8049,-22.776],[-43.7989,-22.7773],[-43.804,-22.7793],[-43.8042,-22.7791]]]}},{"type":"Feature","properties":{"cod_imovel":"RJ-3302007-8D162734BEAF4350ACCB8E5B0AE8DDFB","num_area":"11.814600000000000000000000000000","ind_status":"AT","des_condic":"Aguardando analise"},"geometry":{"type":"Polygon","coordinates":[[[-43.9111,-22.8671],[-43.9121,-22.871],[-43.9147,-22.8673],[-43.9112,-22.867],[-43.9111,-22.8671]]]}},{"type":"Feature","properties":{"cod_imovel":"RJ-3302007-7447244B22B847DCACC25DDA2FFD4A79","num_area":"10.788000000000000000000000000000","ind_status":"AT","des_condic":"Aguardando analise"},"geometry":{"type":"Polygon","coordinates":[[[-43.8168,-22.8079],[-43.8215,-22.8087],[-43.8169,-22.8078],[-43.8168,-22.8079]]]}},{"type":"Feature","properties":{"cod_imovel":"RJ-3302007-53E37ACB86DD4FE68842A95E073F187F","num_area":"34.738600000000000000000000000000","ind_status":"AT","des_condic":"Aguardando analise"},"geometry":{"type":"Polygon","coordinates":[[[-43.7952,-22.7233],[-43.7939,-22.7137],[-43.7897,-22.7159],[-43.795,-22.7233],[-43.7952,-22.7233]]]}},{"type":"Feature","properties":{"cod_imovel":"RJ-3302007-64D8C015B28E47C5B8D8985D3A90CB99","num_area":"10.064800000000000000000000000000","ind_status":"AT","des_condic":"Aguardando analise"},"geometry":{"type":"Polygon","coordinates":[[[-43.8127,-22.7994],[-43.817,-22.8016],[-43.8164,-22.7962],[-43.8121,-22.7976],[-43.8127,-22.7994]],[[-43.8158,-22.8016],[-43.8158,-22.7964],[-43.8169,-22.8015],[-43.8158,-22.8016]]]}},{"type":"Feature","properties":{"cod_imovel":"RJ-3302007-AAD8FF950EFD4345B9D8EED0B1277458","num_area":"13.238700000000000000000000000000","ind_status":"AT","des_condic":"Aguardando analise"},"geometry":{"type":"Polygon","coordinates":[[[-43.7926,-22.7209],[-43.7878,-22.717],[-43.7921,-22.7212],[-43.7926,-22.7209]]]}},{"type":"Feature","properties":{"cod_imovel":"RJ-3302007-7557FCDC9CE540FB919C7C997478CB59","num_area":"26.574700000000000000000000000000","ind_status":"AT","des_condic":"Aguardando analise"},"geometry":{"type":"Polygon","coordinates":[[[-43.8521,-22.8392],[-43.8558,-22.8381],[-43.8537,-22.8336],[-43.849,-22.836],[-43.8521,-22.8391],[-43.8521,-22.8392]]]}},{"type":"Feature","properties":{"cod_imovel":"RJ-3302007-E9AAADB937D24637A42A28AA6C4AE7AC","num_area":"15.210600000000000000000000000000","ind_status":"AT","des_condic":"Aguardando analise"},"geometry":{"type":"Polygon","coordinates":[[[-43.8194,-22.8735],[-43.8244,-22.8715],[-43.8193,-22.8734],[-43.8194,-22.8735]]]}},{"type":"Feature","properties":{"cod_imovel":"RJ-3302007-9F0E8F0BE6094911B2E817BE01EBABAA","num_area":"23.741300000000000000000000000000","ind_status":"AT","des_condic":"Aguardando analise"},"geometry":{"type":"Polygon","coordinates":[[[-43.8284,-22.8627],[-43.8251,-22.8598],[-43.8243,-22.8648],[-43.8283,-22.8631],[-43.8284,-22.8627]]]}},{"type":"Feature","properties":{"cod_imovel":"RJ-3302007-892313C5E9EB4F8491CD402CA21A04B0","num_area":"20.267100000000000000000000000000","ind_status":"AT","des_condic":"Aguardando analise"},"geometry":{"type":"Polygon","coordinates":[[[-43.9058,-22.8629],[-43.9042,-22.8687],[-43.9068,-22.8632],[-43.9058,-22.8629]]]}},{"type":"Feature","properties":{"cod_imovel":"RJ-3302007-B692454A8C194F27AFDB3D570E06E7E1","num_area":"14.739700000000000000000000000000","ind_status":"AT","des_condic":"Aguardando analise"},"geometry":{"type":"Polygon","coordinates":[[[-43.8157,-22.8132],[-43.8105,-22.812],[-43.8155,-22.8133],[-43.8157,-22.8132]]]}},{"type":"Feature","properties":{"cod_imovel":"RJ-3302007-E780DC5EAF6A47F4B6F0FF6BE464EC45","num_area":"93.638300000000000000000000000000","ind_status":"AT","des_condic":"Aguardando analise"},"geometry":{"type":"Polygon","coordinates":[[[-43.8357,-22.819],[-43.8288,-22.827],[-43.8396,-22.8267],[-43.8465,-22.8212],[-43.8357,-22.819],[-43.8357,-22.819]]]}},{"type":"Feature","properties":{"cod_imovel":"RJ-3302007-0FAA1A9F80634507A1BE88C47ADE57B4","num_area":"8.5649000000000000000000000000000","ind_status":"AT","des_condic":"Aguardando analise"},"geometry":{"type":"Polygon","coordinates":[[[-43.7956,-22.7164],[-43.8002,-22.7197],[-43.7957,-22.7163],[-43.7956,-22.7164]]]}},{"type":"Feature","properties":{"cod_imovel":"RJ-3302007-33793E4C099B47ADBC3419A79207C0F5","num_area":"11.451100000000000000000000000000","ind_status":"AT","des_condic":"Aguardando analise"},"geometry":{"type":"Polygon","coordinates":[[[-43.8009,-22.7241],[-43.7975,-22.7212],[-43.8004,-22.7239],[-43.8009,-22.7241]]]}},{"type":"Feature","properties":{"cod_imovel":"RJ-3302007-83A75FD240D2403C9938B532E9921184","num_area":"9.6035000000000000000000000000000","ind_status":"AT","des_condic":"Aguardando analise"},"geometry":{"type":"Polygon","coordinates":[[[-43.7964,-22.7231],[-43.8008,-22.7242],[-43.7965,-22.7232],[-43.7964,-22.7231]]]}},{"type":"Feature","properties":{"cod_imovel":"RJ-3302007-1E310D63C4804D79B656F5EA93C8CA83","num_area":"29.095200000000000000000000000000","ind_status":"AT","des_condic":"Aguardando analise"},"geometry":{"type":"Polygon","coordinates":[[[-43.8157,-22.7911],[-43.8265,-22.7874],[-43.8213,-22.7853],[-43.8159,-22.7905],[-43.8157,-22.7911]]]}},{"type":"Feature","properties":{"cod_imovel":"RJ-3302007-55C0B86E93D946F38877004D774FE4E7","num_area":"13.860400000000000000000000000000","ind_status":"AT","des_condic":"Aguardando analise"},"geometry":{"type":"Polygon","coordinates":[[[-43.8179,-22.7274],[-43.8161,-22.7301],[-43.8214,-22.7305],[-43.8179,-22.7274],[-43.8179,-22.7274]]]}},{"type":"Feature","properties":{"cod_imovel":"RJ-3302007-7CAC9BFA82664878A87D207412222C98","num_area":"6.5928000000000000000000000000000","ind_status":"AT","des_condic":"Aguardando analise"},"geometry":{"type":"Polygon","coordinates":[[[-43.8334,-22.8439],[-43.8349,-22.8413],[-43.8331,-22.8445],[-43.8334,-22.8439]]]}},{"type":"Feature","properties":{"cod_imovel":"RJ-3302007-98D23CBDA9DF4943BE5754DA0BF130B6","num_area":"6.5435000000000000000000000000000","ind_status":"AT","des_condic":"Aguardando analise"},"geometry":{"type":"Polygon","coordinates":[[[-43.8068,-22.857],[-43.8091,-22.8541],[-43.8068,-22.857],[-43.8068,-22.857]]]}},{"type":"Feature","properties":{"cod_imovel":"RJ-3302007-809E819466674B53B6B8CE7C1FB5966A","num_area":"6.0741000000000000000000000000000","ind_status":"AT","des_condic":"Aguardando analise"},"geometry":{"type":"Polygon","coordinates":[[[-43.808,-22.8544],[-43.8088,-22.8515],[-43.8055,-22.8554],[-43.808,-22.8544]]]}},{"type":"Feature","properties":{"cod_imovel":"RJ-3302007-1F571D08064541418782A8B55E78517C","num_area":"8.0236000000000000000000000000000","ind_status":"AT","des_condic":"Aguardando analise"},"geometry":{"type":"Polygon","coordinates":[[[-43.7458,-22.8516],[-43.7419,-22.8561],[-43.7458,-22.8533],[-43.7458,-22.8516]]]}},{"type":"Feature","properties":{"cod_imovel":"RJ-3302007-5B9B9CC4427F42829C113C19306CF56F","num_area":"10.029700000000000000000000000000","ind_status":"AT","des_condic":"Aguardando analise"},"geometry":{"type":"Polygon","coordinates":[[[-43.7458,-22.8533],[-43.7426,-22.8583],[-43.7458,-22.8554],[-43.7458,-22.8533]]]}},{"type":"Feature","properties":{"cod_imovel":"RJ-3302007-BEB56D9183364EB4ADE62D27D6FF000C","num_area":"8.4130000000000000000000000000000","ind_status":"AT","des_condic":"Aguardando analise"},"geometry":{"type":"Polygon","coordinates":[[[-43.7372,-22.8534],[-43.7352,-22.8566],[-43.7377,-22.8539],[-43.7372,-22.8534]]]}},{"type":"Feature","properties":{"cod_imovel":"RJ-3302007-47B38E8DCCDC4DE6B54B736EABA31D27","num_area":"10.929000000000000000000000000000","ind_status":"AT","des_condic":"Aguardando analise"},"geometry":{"type":"Polygon","coordinates":[[[-43.8215,-22.8507],[-43.8248,-22.8517],[-43.8214,-22.8507],[-43.8215,-22.8507]]]}},{"type":"Feature","properties":{"cod_imovel":"RJ-3302007-C7E3F167D6A5490794A330C458EC95B4","num_area":"241.77350000000000000000000000000","ind_status":"AT","des_condic":"Aguardando analise"},"geometry":{"type":"Polygon","coordinates":[[[-43.826,-22.8326],[-43.8271,-22.8289],[-43.8254,-22.8329],[-43.826,-22.8326]],[[-43.8265,-22.8404],[-43.8272,-22.8456],[-43.8402,-22.8335],[-43.84,-22.8379],[-43.841,-22.8305],[-43.8332,-22.831],[-43.8355,-22.835],[-43.8332,-22.831],[-43.8237,-22.8337],[-43.8255,-22.8464],[-43.8265,-22.8402],[-43.8328,-22.8397],[-43.8267,-22.8404],[-43.8265,-22.8404]],[[-43.8307,-22.8277],[-43.8268,-22.8324],[-43.8357,-22.829],[-43.831,-22.8278],[-43.8307,-22.8277]],[[-43.8295,-22.8455],[-43.8288,-22.8507],[-43.8296,-22.846],[-43.8295,-22.8455]],[[-43.8381,-22.8393],[-43.8353,-22.8404],[-43.8383,-22.8396],[-43.8381,-22.8393]]]}},{"type":"Feature","properties":{"cod_imovel":"RJ-3302007-455B33E3621C4659871F49D1BD308E52","num_area":"8.5687000000000000000000000000000","ind_status":"AT","des_condic":"Aguardando analise"},"geometry":{"type":"Polygon","coordinates":[[[-43.7587,-22.7207],[-43.7625,-22.7168],[-43.7573,-22.721],[-43.7587,-22.7207]]]}},{"type":"Feature","properties":{"cod_imovel":"RJ-3302007-A7F51C6596C54C3699A6D0B6AABF5AA5","num_area":"4.6746000000000000000000000000000","ind_status":"AT","des_condic":"Aguardando analise"},"geometry":{"type":"Polygon","coordinates":[[[-43.8202,-22.8123],[-43.8212,-22.8156],[-43.8203,-22.8125],[-43.8202,-22.8123]]]}},{"type":"Feature","properties":{"cod_imovel":"RJ-3302007-732E1CABD155417D830A56FADB83690E","num_area":"43.661700000000000000000000000000","ind_status":"AT","des_condic":"Aguardando analise"},"geometry":{"type":"Polygon","coordinates":[[[-43.8785,-22.8173],[-43.8694,-22.8228],[-43.8799,-22.822],[-43.8786,-22.8178],[-43.8785,-22.8173]]]}},{"type":"Feature","properties":{"cod_imovel":"RJ-3302007-45659B7B48674A249BC6DC3F1C49EA08","num_area":"115.99420000000000000000000000000","ind_status":"AT","des_condic":"Aguardando analise"},"geometry":{"type":"Polygon","coordinates":[[[-43.8045,-22.7205],[-43.7931,-22.7085],[-43.7934,-22.7136],[-43.7968,-22.7117],[-43.7908,-22.7163],[-43.7985,-22.7125],[-43.8014,-22.7172],[-43.7964,-22.7162],[-43.7975,-22.7206],[-43.8023,-22.7175],[-43.799,-22.7208],[-43.8044,-22.7204],[-43.8045,-22.7205]],[[-43.7915,-22.7166],[-43.7964,-22.7264],[-43.7994,-22.7252],[-43.8004,-22.7216],[-43.7915,-22.7166],[-43.7915,-22.7166]]]}},{"type":"Feature","properties":{"cod_imovel":"RJ-3302007-74C1B2E6ECD84FF0B4D7F95860680A56","num_area":"47.245600000000000000000000000000","ind_status":"AT","des_condic":"Aguardando analise"},"geometry":{"type":"Polygon","coordinates":[[[-43.8128,-22.7389],[-43.8266,-22.7359],[-43.8276,-22.7315],[-43.8119,-22.7385],[-43.8128,-22.7389]]]}},{"type":"Feature","properties":{"cod_imovel":"RJ-3302007-C56C336145714B80BB953AF69A0BA044","num_area":"14.076600000000000000000000000000","ind_status":"AT","des_condic":"Aguardando analise"},"geometry":{"type":"Polygon","coordinates":[[[-43.8126,-22.7741],[-43.8132,-22.779],[-43.8163,-22.7754],[-43.8127,-22.7744],[-43.8126,-22.7741]]]}},{"type":"Feature","properties":{"cod_imovel":"RJ-3302007-2F16AFF43B6E43169D8A234A5B404546","num_area":"10.172000000000000000000000000000","ind_status":"AT","des_condic":"Analisado, em conformidade com a Lei n 12.651/2012"},"geometry":{"type":"Polygon","coordinates":[[[-43.7488,-22.8223],[-43.7543,-22.8184],[-43.7492,-22.8219],[-43.7488,-22.8223]]]}},{"type":"Feature","properties":{"cod_imovel":"RJ-3302007-40784A8BBD2949CFA53F2119D47A61E4","num_area":"31.762800000000000000000000000000","ind_status":"AT","des_condic":"Analisado, em conformidade com a Lei n 12.651/2012"},"geometry":{"type":"Polygon","coordinates":[[[-43.7324,-22.8639],[-43.7267,-22.8681],[-43.7299,-22.8708],[-43.7342,-22.866],[-43.7324,-22.8639]]]}},{"type":"Feature","properties":{"cod_imovel":"RJ-3302007-97B37C821DA84070AD809898249338BE","num_area":"10.121700000000000000000000000000","ind_status":"AT","des_condic":"Analisado, em conformidade com a Lei n 12.651/2012"},"geometry":{"type":"Polygon","coordinates":[[[-43.7314,-22.8527],[-43.7261,-22.8567],[-43.7323,-22.8537],[-43.7314,-22.8527]]]}},{"type":"Feature","properties":{"cod_imovel":"RJ-3302007-F8BF2072CF3641908401A5BE6A9292FA","num_area":"12.989300000000000000000000000000","ind_status":"AT","des_condic":"Aguardando analise"},"geometry":{"type":"Polygon","coordinates":[[[-43.9081,-22.8713],[-43.9036,-22.8737],[-43.9081,-22.8713],[-43.9081,-22.8713]]]}},{"type":"Feature","properties":{"cod_imovel":"RJ-3302007-7E7DD9AFB2314B52AA7C972B302125F1","num_area":"10.189900000000000000000000000000","ind_status":"AT","des_condic":"Aguardando analise"},"geometry":{"type":"Polygon","coordinates":[[[-43.8004,-22.7198],[-43.8047,-22.7203],[-43.8005,-22.7197],[-43.8004,-22.7198]]]}},{"type":"Feature","properties":{"cod_imovel":"RJ-3302007-251644574A5645458359CC20CAA14CA0","num_area":"10.273500000000000000000000000000","ind_status":"AT","des_condic":"Aguardando analise"},"geometry":{"type":"Polygon","coordinates":[[[-43.7941,-22.7228],[-43.7967,-22.7182],[-43.7945,-22.7227],[-43.7941,-22.7228]]]}},{"type":"Feature","properties":{"cod_imovel":"RJ-3302007-5BD44996C10C43828368E6FD15D92693","num_area":"14.452000000000000000000000000000","ind_status":"PE","des_condic":"Analisado, aguardando atendimento a notificacao"},"geometry":{"type":"Polygon","coordinates":[[[-43.8396,-22.8569],[-43.8369,-22.8464],[-43.8389,-22.8569],[-43.8396,-22.8569]]]}},{"type":"Feature","properties":{"cod_imovel":"RJ-3302007-90E2F51F561F49D793F7556B13A72456","num_area":"10.160900000000000000000000000000","ind_status":"PE","des_condic":"Analisado, aguardando atendimento a notificacao"},"geometry":{"type":"Polygon","coordinates":[[[-43.8422,-22.8441],[-43.8452,-22.8472],[-43.8421,-22.8435],[-43.8422,-22.8441]]]}},{"type":"Feature","properties":{"cod_imovel":"RJ-3302007-4941757CE0CA4DA0AE57890B6837870C","num_area":"9.8737000000000000000000000000000","ind_status":"PE","des_condic":"Analisado, aguardando atendimento a notificacao"},"geometry":{"type":"Polygon","coordinates":[[[-43.8272,-22.8509],[-43.828,-22.8458],[-43.8269,-22.851],[-43.8272,-22.8509]]]}},{"type":"Feature","properties":{"cod_imovel":"RJ-3302007-D0BE6C8B0F044556B48054E14367EA5C","num_area":"15.216700000000000000000000000000","ind_status":"PE","des_condic":"Analisado, aguardando atendimento a notificacao"},"geometry":{"type":"Polygon","coordinates":[[[-43.7006,-22.8697],[-43.7058,-22.8687],[-43.7019,-22.8684],[-43.7006,-22.8697]],[[-43.7053,-22.8649],[-43.7034,-22.8677],[-43.7066,-22.8662],[-43.7053,-22.8649]]]}},{"type":"Feature","properties":{"cod_imovel":"RJ-3302007-9130AA84E5AC4241ADEFB8FF06924A4B","num_area":"3.1607000000000000000000000000000","ind_status":"PE","des_condic":"Analisado, aguardando atendimento a notificacao"},"geometry":{"type":"Polygon","coordinates":[[[-43.7412,-22.8572],[-43.7381,-22.8599],[-43.7414,-22.858],[-43.7412,-22.8572]]]}},{"type":"Feature","properties":{"cod_imovel":"RJ-3302007-8658F1920112488CB85F427A46DB1867","num_area":"8.6534000000000000000000000000000","ind_status":"PE","des_condic":"Analisado, aguardando atendimento a notificacao"},"geometry":{"type":"Polygon","coordinates":[[[-43.7349,-22.8569],[-43.7287,-22.8602],[-43.7349,-22.8569],[-43.7349,-22.8569]]]}},{"type":"Feature","properties":{"cod_imovel":"RJ-3302007-A1CDDA28A08D420A8260D62E1E4CE5C7","num_area":"3.1586000000000000000000000000000","ind_status":"PE","des_condic":"Analisado, aguardando atendimento a notificacao"},"geometry":{"type":"Polygon","coordinates":[[[-43.7409,-22.8566],[-43.7381,-22.8599],[-43.7409,-22.8567],[-43.7409,-22.8566]]]}},{"type":"Feature","properties":{"cod_imovel":"RJ-3302007-40B10FF67ABA4636B734269536412B7B","num_area":"12.779000000000000000000000000000","ind_status":"PE","des_condic":"Analisado, aguardando atendimento a notificacao"},"geometry":{"type":"Polygon","coordinates":[[[-43.709,-22.8569],[-43.7043,-22.8638],[-43.71,-22.8571],[-43.709,-22.8569]]]}},{"type":"Feature","properties":{"cod_imovel":"RJ-3302007-3F7E0BE375224E558C721B90DC025D9B","num_area":"20.149300000000000000000000000000","ind_status":"PE","des_condic":"Analisado, aguardando atendimento a notificacao"},"geometry":{"type":"Polygon","coordinates":[[[-43.7242,-22.8547],[-43.7279,-22.8488],[-43.7241,-22.8546],[-43.7242,-22.8547]]]}},{"type":"Feature","properties":{"cod_imovel":"RJ-3302007-FD9C9C8172C94A09BFC19F743A7B2E8E","num_area":"6.6650000000000000000000000000000","ind_status":"PE","des_condic":"Analisado, aguardando atendimento a notificacao"},"geometry":{"type":"Polygon","coordinates":[[[-43.739,-22.8609],[-43.7425,-22.8604],[-43.7389,-22.8606],[-43.739,-22.8609]]]}},{"type":"Feature","properties":{"cod_imovel":"RJ-3302007-966925EEFE42470494DDA3092FA8C4BC","num_area":"10.150000000000000000000000000000","ind_status":"PE","des_condic":"Analisado, aguardando atendimento a notificacao"},"geometry":{"type":"Polygon","coordinates":[[[-43.7433,-22.8466],[-43.7382,-22.8504],[-43.7443,-22.8477],[-43.7433,-22.8466]]]}},{"type":"Feature","properties":{"cod_imovel":"RJ-3302007-D7BF542A585242CA8A6BC3A1F224621B","num_area":"8.9934000000000000000000000000000","ind_status":"PE","des_condic":"Analisado, aguardando atendimento a notificacao"},"geometry":{"type":"Polygon","coordinates":[[[-43.8555,-22.8438],[-43.855,-22.8483],[-43.8554,-22.8439],[-43.8555,-22.8438]]]}},{"type":"Feature","properties":{"cod_imovel":"RJ-3302007-1118E7F8C62A49F9BB0D06BC757BED03","num_area":"20.857700000000000000000000000000","ind_status":"PE","des_condic":"Analisado, aguardando atendimento a notificacao"},"geometry":{"type":"Polygon","coordinates":[[[-43.7298,-22.8619],[-43.7244,-22.865],[-43.7268,-22.8678],[-43.7287,-22.8626],[-43.7298,-22.8619]]]}},{"type":"Feature","properties":{"cod_imovel":"RJ-3302007-627792FA6EA240FEB88E1DF8B8DC7A68","num_area":"9.2900000000000000000000000000000","ind_status":"PE","des_condic":"Analisado, aguardando atendimento a notificacao"},"geometry":{"type":"Polygon","coordinates":[[[-43.7452,-22.8488],[-43.74,-22.8525],[-43.746,-22.8498],[-43.7452,-22.8488]]]}},{"type":"Feature","properties":{"cod_imovel":"RJ-3302007-02AD8B36AE1844FE8D1983C2FC7586E9","num_area":"20.069800000000000000000000000000","ind_status":"PE","des_condic":"Analisado, aguardando atendimento a notificacao"},"geometry":{"type":"Polygon","coordinates":[[[-43.7478,-22.8508],[-43.7457,-22.8596],[-43.7478,-22.8518],[-43.7478,-22.8508]]]}},{"type":"Feature","properties":{"cod_imovel":"RJ-3302007-45A84751A6AA4627A9EF189D00D49551","num_area":"10.100500000000000000000000000000","ind_status":"PE","des_condic":"Analisado, aguardando atendimento a notificacao"},"geometry":{"type":"Polygon","coordinates":[[[-43.7323,-22.8537],[-43.727,-22.8577],[-43.7332,-22.8547],[-43.7323,-22.8537]]]}},{"type":"Feature","properties":{"cod_imovel":"RJ-3302007-0DA5E11FE5D74F838BB96DF02123F34E","num_area":"8.6697000000000000000000000000000","ind_status":"PE","des_condic":"Analisado, aguardando atendimento a notificacao"},"geometry":{"type":"Polygon","coordinates":[[[-43.7352,-22.8498],[-43.7325,-22.8536],[-43.7362,-22.849],[-43.7352,-22.8498]]]}},{"type":"Feature","properties":{"cod_imovel":"RJ-3302007-D88E081B98054F6B9957BDFA5ABB1D02","num_area":"14.765800000000000000000000000000","ind_status":"PE","des_condic":"Analisado, aguardando atendimento a notificacao"},"geometry":{"type":"Polygon","coordinates":[[[-43.7966,-22.8075],[-43.8007,-22.8041],[-43.7965,-22.8076],[-43.7966,-22.8075]]]}},{"type":"Feature","properties":{"cod_imovel":"RJ-3302007-26C069C27D4D42A6AF42F15B179FF3C3","num_area":"9.2283000000000000000000000000000","ind_status":"PE","des_condic":"Analisado, aguardando atendimento a notificacao"},"geometry":{"type":"Polygon","coordinates":[[[-43.8438,-22.85],[-43.8454,-22.8533],[-43.8436,-22.8494],[-43.8438,-22.85]],[[-43.8448,-22.8535],[-43.8467,-22.8573],[-43.8448,-22.8535],[-43.8448,-22.8535]]]}},{"type":"Feature","properties":{"cod_imovel":"RJ-3302007-CC9F2DDD40B04C36911189ED10790306","num_area":"3.0077000000000000000000000000000","ind_status":"PE","des_condic":"Analisado, aguardando atendimento a notificacao"},"geometry":{"type":"Polygon","coordinates":[[[-43.8009,-22.8056],[-43.8044,-22.8059],[-43.8009,-22.8056],[-43.8009,-22.8056]]]}},{"type":"Feature","properties":{"cod_imovel":"RJ-3302007-08BAD1AA4116445FB2A31C4DFD459BC5","num_area":"8.1520000000000000000000000000000","ind_status":"PE","des_condic":"Analisado, aguardando atendimento a notificacao"},"geometry":{"type":"Polygon","coordinates":[[[-43.7926,-22.8587],[-43.7972,-22.8571],[-43.7924,-22.8581],[-43.7926,-22.8587]]]}},{"type":"Feature","properties":{"cod_imovel":"RJ-3302007-2AD194CD7BBF48A4BFD385F39AC87228","num_area":"8.1422000000000000000000000000000","ind_status":"PE","des_condic":"Analisado, aguardando atendimento a notificacao"},"geometry":{"type":"Polygon","coordinates":[[[-43.7964,-22.8599],[-43.7929,-22.8593],[-43.7963,-22.8598],[-43.7964,-22.8599]]]}},{"type":"Feature","properties":{"cod_imovel":"RJ-3302007-4329A91BF80E4DB8AFB6156F0837FF2A","num_area":"8.7850000000000000000000000000000","ind_status":"PE","des_condic":"Analisado, aguardando atendimento a notificacao"},"geometry":{"type":"Polygon","coordinates":[[[-43.821,-22.8525],[-43.8163,-22.85],[-43.8204,-22.8523],[-43.821,-22.8525]]]}},{"type":"Feature","properties":{"cod_imovel":"RJ-3302007-606F6900AB3F42B7BFF1EAB12FA43B1F","num_area":"4.9825000000000000000000000000000","ind_status":"PE","des_condic":"Analisado, aguardando atendimento a notificacao"},"geometry":{"type":"Polygon","coordinates":[[[-43.8521,-22.8529],[-43.8494,-22.8456],[-43.8521,-22.8529],[-43.8521,-22.8529]]]}},{"type":"Feature","properties":{"cod_imovel":"RJ-3302007-852A08EC5C17483E92F5C9D9CE17AAE0","num_area":"7.6606000000000000000000000000000","ind_status":"PE","des_condic":"Analisado, aguardando atendimento a notificacao"},"geometry":{"type":"Polygon","coordinates":[[[-43.8066,-22.8088],[-43.8032,-22.812],[-43.8066,-22.8091],[-43.8066,-22.8088]]]}},{"type":"Feature","properties":{"cod_imovel":"RJ-3302007-94CDA3F0EF2E455BA781CB3CC4775B4E","num_area":"15.234500000000000000000000000000","ind_status":"PE","des_condic":"Analisado, aguardando atendimento a notificacao"},"geometry":{"type":"Polygon","coordinates":[[[-43.7096,-22.8512],[-43.7052,-22.8553],[-43.7111,-22.8524],[-43.7096,-22.8512]]]}},{"type":"Feature","properties":{"cod_imovel":"RJ-3302007-09125E08B0DF474FA8C89D6100B55A7D","num_area":"7.8223000000000000000000000000000","ind_status":"PE","des_condic":"Analisado, aguardando atendimento a notificacao"},"geometry":{"type":"Polygon","coordinates":[[[-43.7428,-22.8457],[-43.7467,-22.8427],[-43.7439,-22.8449],[-43.7428,-22.8457]]]}},{"type":"Feature","properties":{"cod_imovel":"RJ-3302007-CEC95E5CDECD4E03B68C03D93C58775F","num_area":"6.9445000000000000000000000000000","ind_status":"PE","des_condic":"Analisado, aguardando atendimento a notificacao"},"geometry":{"type":"Polygon","coordinates":[[[-43.7376,-22.8412],[-43.7353,-22.8445],[-43.7382,-22.8407],[-43.7376,-22.8412]]]}},{"type":"Feature","properties":{"cod_imovel":"RJ-3302007-AF8AD4C6057B47BD9856023AC39BE32C","num_area":"32.934100000000000000000000000000","ind_status":"PE","des_condic":"Analisado, aguardando atendimento a notificacao"},"geometry":{"type":"Polygon","coordinates":[[[-43.7324,-22.8639],[-43.7297,-22.8608],[-43.724,-22.8651],[-43.7267,-22.8681],[-43.7324,-22.8639],[-43.7324,-22.8639]]]}},{"type":"Feature","properties":{"cod_imovel":"RJ-3302007-3739E6F1A063403A978A96CF4C3F5CC5","num_area":"38.730600000000000000000000000000","ind_status":"PE","des_condic":"Analisado, aguardando atendimento a notificacao"},"geometry":{"type":"Polygon","coordinates":[[[-43.7989,-22.8283],[-43.7923,-22.825],[-43.7902,-22.8309],[-43.7987,-22.829],[-43.7989,-22.8283]]]}},{"type":"Feature","properties":{"cod_imovel":"RJ-3302007-3B0FC89FEAA244249ACEBD06A978472D","num_area":"10.068100000000000000000000000000","ind_status":"PE","des_condic":"Analisado, aguardando atendimento a notificacao"},"geometry":{"type":"Polygon","coordinates":[[[-43.7351,-22.857],[-43.7294,-22.8611],[-43.7359,-22.8578],[-43.7351,-22.857]]]}},{"type":"Feature","properties":{"cod_imovel":"RJ-3302007-4F0AC577EF8945D6B50A000F4F12DEA6","num_area":"4.6977000000000000000000000000000","ind_status":"PE","des_condic":"Analisado, aguardando atendimento a notificacao"},"geometry":{"type":"Polygon","coordinates":[[[-43.7151,-22.8603],[-43.7079,-22.8672],[-43.715,-22.8605],[-43.7151,-22.8603]]]}},{"type":"Feature","properties":{"cod_imovel":"RJ-3302007-0C34840B337C4340ABCC368DF3E18275","num_area":"15.267200000000000000000000000000","ind_status":"PE","des_condic":"Analisado, aguardando atendimento a notificacao"},"geometry":{"type":"Polygon","coordinates":[[[-43.6972,-22.8581],[-43.7029,-22.8555],[-43.6972,-22.8581],[-43.6972,-22.8581]]]}},{"type":"Feature","properties":{"cod_imovel":"RJ-3302007-5D5F0D658CB949B785A6950245C8B610","num_area":"3.2020000000000000000000000000000","ind_status":"PE","des_condic":"Analisado, aguardando atendimento a notificacao"},"geometry":{"type":"Polygon","coordinates":[[[-43.7166,-22.8624],[-43.7092,-22.8675],[-43.7158,-22.863],[-43.7166,-22.8624]]]}},{"type":"Feature","properties":{"cod_imovel":"RJ-3305554-65C1E288768A4A2EB773F319E7C73A74","num_area":"19.462000000000000000000000000000","ind_status":"PE","des_condic":"Analisado, aguardando atendimento a notificacao"},"geometry":{"type":"Polygon","coordinates":[[[-43.7914,-22.7979],[-43.7974,-22.7985],[-43.7909,-22.7924],[-43.7914,-22.7979]]]}},{"type":"Feature","properties":{"cod_imovel":"RJ-3305554-2D6D389BE6A64C37B589B7DF7F55D113","num_area":"19.801000000000000000000000000000","ind_status":"PE","des_condic":"Analisado, aguardando atendimento a notificacao"},"geometry":{"type":"Polygon","coordinates":[[[-43.7907,-22.7914],[-43.8003,-22.7986],[-43.7907,-22.7908],[-43.7907,-22.7914]]]}},{"type":"Feature","properties":{"cod_imovel":"RJ-3302007-4275DD4C4A944C29ADB33A0FCC8FEF4C","num_area":"17.757200000000000000000000000000","ind_status":"AT","des_condic":"Aguardando analise"},"geometry":{"type":"Polygon","coordinates":[[[-43.7904,-22.7391],[-43.797,-22.738],[-43.7904,-22.7391],[-43.7904,-22.7391]],[[-43.7943,-22.7364],[-43.7887,-22.7342],[-43.7943,-22.7364],[-43.7943,-22.7364]]]}},{"type":"Feature","properties":{"cod_imovel":"RJ-3302007-14085D746EAF489EA2F097A7A977B849","num_area":"20.468200000000000000000000000000","ind_status":"AT","des_condic":"Aguardando analise"},"geometry":{"type":"Polygon","coordinates":[[[-43.9059,-22.87],[-43.9094,-22.8638],[-43.9059,-22.8633],[-43.9059,-22.8696],[-43.9059,-22.87]]]}},{"type":"Feature","properties":{"cod_imovel":"RJ-3302007-589C3200EBCA424780E67EFD59068D81","num_area":"6.7751000000000000000000000000000","ind_status":"AT","des_condic":"Aguardando analise"},"geometry":{"type":"Polygon","coordinates":[[[-43.788,-22.7638],[-43.7889,-22.7595],[-43.788,-22.7638],[-43.788,-22.7638]]]}},{"type":"Feature","properties":{"cod_imovel":"RJ-3302007-7ECB77BB2B9A407095A824E768A4BA3B","num_area":"21.288300000000000000000000000000","ind_status":"AT","des_condic":"Aguardando analise"},"geometry":{"type":"Polygon","coordinates":[[[-43.7437,-22.7118],[-43.7479,-22.7097],[-43.7451,-22.7065],[-43.7418,-22.7104],[-43.7437,-22.7118]],[[-43.7478,-22.7095],[-43.7445,-22.7074],[-43.7478,-22.7095],[-43.7478,-22.7095]]]}},{"type":"Feature","properties":{"cod_imovel":"RJ-3302007-206BA40169F7405EB74166612D91A42E","num_area":"17.704400000000000000000000000000","ind_status":"AT","des_condic":"Aguardando analise"},"geometry":{"type":"Polygon","coordinates":[[[-43.8153,-22.7655],[-43.8197,-22.7635],[-43.8138,-22.7621],[-43.8153,-22.7653],[-43.8153,-22.7655]]]}},{"type":"Feature","properties":{"cod_imovel":"RJ-3302007-34E70934114C4A67A4CFA217AEDE2F75","num_area":"4.4648000000000000000000000000000","ind_status":"AT","des_condic":"Aguardando analise"},"geometry":{"type":"Polygon","coordinates":[[[-43.8492,-22.8568],[-43.8492,-22.8627],[-43.8493,-22.857],[-43.8492,-22.8568]]]}},{"type":"Feature","properties":{"cod_imovel":"RJ-3302007-EE41C9DD49894F3E8B5B757B8752B7C6","num_area":"7.1084000000000000000000000000000","ind_status":"AT","des_condic":"Aguardando analise"},"geometry":{"type":"Polygon","coordinates":[[[-43.7983,-22.8184],[-43.8014,-22.8147],[-43.7983,-22.8184],[-43.7983,-22.8184]]]}},{"type":"Feature","properties":{"cod_imovel":"RJ-3302007-B2C3B6D1D12441E0886DF2F6C1460A66","num_area":"9.9171000000000000000000000000000","ind_status":"AT","des_condic":"Aguardando analise"},"geometry":{"type":"Polygon","coordinates":[[[-43.7996,-22.8174],[-43.7946,-22.8145],[-43.7983,-22.8184],[-43.7996,-22.8174]]]}},{"type":"Feature","properties":{"cod_imovel":"RJ-3302007-324D203BD0F74F61A8386B7864E82A54","num_area":"14.162100000000000000000000000000","ind_status":"AT","des_condic":"Aguardando analise"},"geometry":{"type":"Polygon","coordinates":[[[-43.8188,-22.8005],[-43.8217,-22.7961],[-43.8186,-22.8002],[-43.8188,-22.8005]]]}},{"type":"Feature","properties":{"cod_imovel":"RJ-3302007-E4B0C5543D30445F8F823BC1EC5B0F2A","num_area":"15.815200000000000000000000000000","ind_status":"AT","des_condic":"Aguardando analise"},"geometry":{"type":"Polygon","coordinates":[[[-43.879,-22.937],[-43.8804,-22.9417],[-43.8795,-22.9373],[-43.879,-22.937]]]}},{"type":"Feature","properties":{"cod_imovel":"RJ-3302007-678501D1EDC24527A337EE600E3A38C5","num_area":"296.99250000000000000000000000000","ind_status":"AT","des_condic":"Aguardando analise"},"geometry":{"type":"Polygon","coordinates":[[[-43.8179,-22.8162],[-43.8092,-22.8142],[-43.8072,-22.8193],[-43.8159,-22.8327],[-43.8289,-22.8271],[-43.8279,-22.8144],[-43.8283,-22.8201],[-43.82,-22.82],[-43.8232,-22.8174],[-43.8179,-22.8162]]]}},{"type":"Feature","properties":{"cod_imovel":"RJ-3302007-245F96861CB0464BB37D7990848A3BB0","num_area":"24.492300000000000000000000000000","ind_status":"AT","des_condic":"Aguardando analise"},"geometry":{"type":"Polygon","coordinates":[[[-43.7773,-22.735],[-43.7749,-22.7312],[-43.7751,-22.7353],[-43.7705,-22.7335],[-43.7779,-22.7359],[-43.7773,-22.735]]]}},{"type":"Feature","properties":{"cod_imovel":"RJ-3302007-0126986B2EEB4162AC6806FE9ED2298C","num_area":"14.612600000000000000000000000000","ind_status":"AT","des_condic":"Aguardando analise"},"geometry":{"type":"Polygon","coordinates":[[[-43.7638,-22.6999],[-43.7582,-22.7024],[-43.7647,-22.7004],[-43.7638,-22.6999]]]}},{"type":"Feature","properties":{"cod_imovel":"RJ-3302007-595F0073F45349BAB7D39B2CF2FC9659","num_area":"6.1747000000000000000000000000000","ind_status":"AT","des_condic":"Aguardando analise"},"geometry":{"type":"Polygon","coordinates":[[[-43.7996,-22.8218],[-43.7949,-22.821],[-43.7995,-22.8222],[-43.7996,-22.8218]]]}},{"type":"Feature","properties":{"cod_imovel":"RJ-3302007-05C101F571934A1EAD71961C1F5F72A6","num_area":"7.3686000000000000000000000000000","ind_status":"AT","des_condic":"Aguardando analise"},"geometry":{"type":"Polygon","coordinates":[[[-43.8047,-22.7611],[-43.8069,-22.7585],[-43.8048,-22.7611],[-43.8047,-22.7611]]]}},{"type":"Feature","properties":{"cod_imovel":"RJ-3302007-333024B0DA2E45C08F3E692CC6DD768E","num_area":"8.9840000000000000000000000000000","ind_status":"AT","des_condic":"Aguardando analise"},"geometry":{"type":"Polygon","coordinates":[[[-43.8548,-22.8766],[-43.8572,-22.8796],[-43.8549,-22.8761],[-43.8548,-22.8766]]]}},{"type":"Feature","properties":{"cod_imovel":"RJ-3302007-8690924A4CA34D96A5709D142D9BD6A5","num_area":"9.0882000000000000000000000000000","ind_status":"AT","des_condic":"Aguardando analise"},"geometry":{"type":"Polygon","coordinates":[[[-43.7985,-22.8167],[-43.8006,-22.8134],[-43.798,-22.8161],[-43.7985,-22.8167]]]}},{"type":"Feature","properties":{"cod_imovel":"RJ-3302007-3DA4988A03AB46FC85D42AEF454DB801","num_area":"69.920300000000000000000000000000","ind_status":"AT","des_condic":"Aguardando analise"},"geometry":{"type":"Polygon","coordinates":[[[-43.7978,-22.732],[-43.7977,-22.7258],[-43.7945,-22.7272],[-43.7978,-22.7319],[-43.7978,-22.732]],[[-43.787,-22.7326],[-43.7901,-22.7293],[-43.7869,-22.7327],[-43.787,-22.7326]],[[-43.7906,-22.7308],[-43.7949,-22.7277],[-43.7906,-22.7308],[-43.7906,-22.7308]],[[-43.7933,-22.7352],[-43.799,-22.7292],[-43.7885,-22.731],[-43.7933,-22.7353],[-43.7933,-22.7352]]]}},{"type":"Feature","properties":{"cod_imovel":"RJ-3302007-C7D83C98CDEF4DD085D36577206281FB","num_area":"72.051600000000000000000000000000","ind_status":"PE","des_condic":"Aguardando analise"},"geometry":{"type":"Polygon","coordinates":[[[-43.8755,-22.8177],[-43.8774,-22.8148],[-43.8747,-22.8178],[-43.8755,-22.8177]],[[-43.8783,-22.8165],[-43.8749,-22.8142],[-43.878,-22.816],[-43.8783,-22.8165]],[[-43.8844,-22.8098],[-43.8897,-22.8014],[-43.8853,-22.8052],[-43.8822,-22.8013],[-43.8809,-22.8101],[-43.8844,-22.8098],[-43.8844,-22.8098]],[[-43.8815,-22.8028],[-43.8785,-22.8012],[-43.8816,-22.803],[-43.8815,-22.8028]],[[-43.8789,-22.8],[-43.8756,-22.8022],[-43.8788,-22.8],[-43.8789,-22.8]]]}},{"type":"Feature","properties":{"cod_imovel":"RJ-3302007-AE0D3FD4C7874A2CBA747B7875E8C7CA","num_area":"41.142300000000000000000000000000","ind_status":"AT","des_condic":"Em analise"},"geometry":{"type":"Polygon","coordinates":[[[-43.7553,-22.7016],[-43.7521,-22.7048],[-43.756,-22.7066],[-43.7559,-22.7015],[-43.7553,-22.7016]],[[-43.7591,-22.6967],[-43.7545,-22.6994],[-43.7595,-22.697],[-43.7591,-22.6967]],[[-43.7543,-22.6999],[-43.7593,-22.6985],[-43.7544,-22.6996],[-43.7543,-22.6999]]]}},{"type":"Feature","properties":{"cod_imovel":"RJ-3302007-CB16FEF77D9A4D139F8BCDD4712AB860","num_area":"30.990500000000000000000000000000","ind_status":"AT","des_condic":"Aguardando analise"},"geometry":{"type":"Polygon","coordinates":[[[-43.8222,-22.8343],[-43.8253,-22.8449],[-43.8223,-22.8343],[-43.8222,-22.8343]],[[-43.8237,-22.8451],[-43.8242,-22.8487],[-43.8237,-22.8451],[-43.8237,-22.8451]]]}},{"type":"Feature","properties":{"cod_imovel":"RJ-3302007-2DF098806E7B4454A4C92D79AB71EA44","num_area":"21.607000000000000000000000000000","ind_status":"CA","des_condic":"Cancelado por decisao administrativa"},"geometry":{"type":"Polygon","coordinates":[[[-43.7145,-22.8595],[-43.7097,-22.8625],[-43.7156,-22.8612],[-43.7145,-22.8595]]]}},{"type":"Feature","properties":{"cod_imovel":"RJ-3302007-DD6F5A1F440247628182341290C25211","num_area":"31.453800000000000000000000000000","ind_status":"CA","des_condic":"Cancelado por decisao administrativa"},"geometry":{"type":"Polygon","coordinates":[[[-43.8254,-22.8458],[-43.8253,-22.8332],[-43.8254,-22.8458],[-43.8254,-22.8458]]]}},{"type":"Feature","properties":{"cod_imovel":"RJ-3302007-C76F8A365AAB4C45B7BF602A569FFC96","num_area":"15.486500000000000000000000000000","ind_status":"CA","des_condic":"Cancelado por decisao administrativa"},"geometry":{"type":"Polygon","coordinates":[[[-43.8147,-22.7447],[-43.8094,-22.7388],[-43.8146,-22.7447],[-43.8147,-22.7447]]]}},{"type":"Feature","properties":{"cod_imovel":"RJ-3302007-33A3D4AE660944719E3552F2C6EAAAD0","num_area":"67.733400000000000000000000000000","ind_status":"CA","des_condic":"Cancelado por decisao administrativa"},"geometry":{"type":"Polygon","coordinates":[[[-43.8296,-22.7456],[-43.8216,-22.7482],[-43.8419,-22.7493],[-43.8295,-22.7455],[-43.8296,-22.7456]]]}},{"type":"Feature","properties":{"cod_imovel":"RJ-3302007-25FDA7811A79413CB98052599DB94220","num_area":"59.289900000000000000000000000000","ind_status":"CA","des_condic":"Cancelado por decisao administrativa"},"geometry":{"type":"Polygon","coordinates":[[[-43.8185,-22.7415],[-43.8438,-22.746],[-43.8346,-22.7459],[-43.8261,-22.739],[-43.8193,-22.7414],[-43.8185,-22.7415]]]}},{"type":"Feature","properties":{"cod_imovel":"RJ-3302007-04088396587541E88B4D799F967F383D","num_area":"7.2637000000000000000000000000000","ind_status":"AT","des_condic":"Aguardando analise"},"geometry":{"type":"Polygon","coordinates":[[[-43.8182,-22.8522],[-43.8181,-22.8554],[-43.8186,-22.8522],[-43.8182,-22.8522]]]}},{"type":"Feature","properties":{"cod_imovel":"RJ-3302007-44C1BFC2851A4229946F25263D27C70C","num_area":"11.301600000000000000000000000000","ind_status":"AT","des_condic":"Aguardando analise"},"geometry":{"type":"Polygon","coordinates":[[[-43.793,-22.7184],[-43.7965,-22.7182],[-43.7929,-22.7183],[-43.793,-22.7184]]]}},{"type":"Feature","properties":{"cod_imovel":"RJ-3302007-4C8F4EDA3E634EFA9ABA1D7C6934BF89","num_area":"17.495900000000000000000000000000","ind_status":"AT","des_condic":"Aguardando analise"},"geometry":{"type":"Polygon","coordinates":[[[-43.8486,-22.8569],[-43.8421,-22.8572],[-43.8487,-22.8608],[-43.8486,-22.8569]]]}},{"type":"Feature","properties":{"cod_imovel":"RJ-3302007-78D90FFE91904231A18A0AB7AABF5B1C","num_area":"12.290300000000000000000000000000","ind_status":"AT","des_condic":"Aguardando analise"},"geometry":{"type":"Polygon","coordinates":[[[-43.8778,-22.8382],[-43.8715,-22.8414],[-43.8778,-22.8383],[-43.8771,-22.8457],[-43.88,-22.8423],[-43.8778,-22.8382]],[[-43.8726,-22.843],[-43.8695,-22.8464],[-43.8739,-22.8493],[-43.8712,-22.8446],[-43.8726,-22.843]]]}},{"type":"Feature","properties":{"cod_imovel":"RJ-3302007-7DA1DA05D8BC41E48E788A65F38D280C","num_area":"10.917400000000000000000000000000","ind_status":"AT","des_condic":"Aguardando analise"},"geometry":{"type":"Polygon","coordinates":[[[-43.7801,-22.7589],[-43.7838,-22.7592],[-43.7803,-22.759],[-43.7801,-22.7589]],[[-43.7791,-22.7596],[-43.7819,-22.7625],[-43.7793,-22.7597],[-43.7791,-22.7596]]]}},{"type":"Feature","properties":{"cod_imovel":"RJ-3302007-8447AB10B85B40848C66CF6810126B20","num_area":"581.13080000000000000000000000000","ind_status":"AT","des_condic":"Aguardando analise"},"geometry":{"type":"Polygon","coordinates":[[[-43.7801,-22.7176],[-43.7825,-22.7225],[-43.7817,-22.7167],[-43.7862,-22.7171],[-43.7746,-22.7159],[-43.7744,-22.7209],[-43.7796,-22.719],[-43.7801,-22.7176]],[[-43.7781,-22.7329],[-43.781,-22.7308],[-43.7784,-22.7329],[-43.7781,-22.7329]],[[-43.7855,-22.7316],[-43.7811,-22.7289],[-43.7852,-22.7315],[-43.7855,-22.7316]],[[-43.7928,-22.7255],[-43.79,-22.7202],[-43.786,-22.7276],[-43.7929,-22.7257],[-43.7928,-22.7255]],[[-43.7875,-22.7233],[-43.7782,-22.7237],[-43.7875,-22.7232],[-43.7875,-22.7233]],[[-43.7869,-22.7212],[-43.79,-22.7202],[-43.7862,-22.7171],[-43.7837,-22.7204],[-43.7877,-22.7209],[-43.7869,-22.7212]],[[-43.7962,-22.7264],[-43.7909,-22.7219],[-43.7962,-22.7263],[-43.7962,-22.7264]],[[-43.7756,-22.7159],[-43.7725,-22.713],[-43.7698,-22.7174],[-43.7724,-22.713],[-43.768,-22.7166],[-43.7719,-22.7128],[-43.7665,-22.7132],[-43.7694,-22.7195],[-43.7746,-22.7159],[-43.7756,-22.7159]],[[-43.7935,-22.7209],[-43.79,-22.7201],[-43.7934,-22.7211],[-43.7935,-22.7209]],[[-43.7886,-22.7164],[-43.7849,-22.7088],[-43.779,-22.7103],[-43.7912,-22.7196],[-43.7883,-22.7166],[-43.7886,-22.7164]],[[-43.7921,-22.7118],[-43.7967,-22.7078],[-43.7892,-22.7076],[-43.7927,-22.7048],[-43.7857,-22.6997],[-43.7841,-22.7085],[-43.7885,-22.7081],[-43.7848,-22.7103],[-43.7927,-22.7101],[-43.7921,-22.7118]],[[-43.7876,-22.7106],[-43.7833,-22.7112],[-43.7896,-22.7155],[-43.7875,-22.7107],[-43.7876,-22.7106]],[[-43.7859,-22.6969],[-43.785,-22.6932],[-43.7859,-22.6969],[-43.7859,-22.6969]],[[-43.7833,-22.698],[-43.7825,-22.7027],[-43.7833,-22.698],[-43.7833,-22.698]],[[-43.7806,-22.709],[-43.7788,-22.7159],[-43.7805,-22.709],[-43.7806,-22.709]],[[-43.7816,-22.7066],[-43.7686,-22.7056],[-43.774,-22.7052],[-43.7699,-22.7024],[-43.7752,-22.7031],[-43.7742,-22.7],[-43.7817,-22.7035],[-43.7766,-22.6942],[-43.7704,-22.6946],[-43.7732,-22.7],[-43.7681,-22.699],[-43.7692,-22.7037],[-43.7638,-22.6999],[-43.7636,-22.7086],[-43.7684,-22.7113],[-43.7667,-22.707],[-43.7754,-22.7105],[-43.7815,-22.7067],[-43.7816,-22.7066]],[[-43.7779,-22.7068],[-43.7736,-22.7033],[-43.778,-22.7069],[-43.7779,-22.7068]],[[-43.7684,-22.7117],[-43.7756,-22.711],[-43.7685,-22.7115],[-43.7684,-22.7117]],[[-43.7687,-22.7124],[-43.7729,-22.7119],[-43.7688,-22.7124],[-43.7687,-22.7124]],[[-43.7725,-22.7129],[-43.7757,-22.7158],[-43.7789,-22.7126],[-43.7729,-22.7119],[-43.7725,-22.7129]]]}},{"type":"Feature","properties":{"cod_imovel":"RJ-3302007-A4D61EB860C744CA8AF74BBD40627EE0","num_area":"35.036800000000000000000000000000","ind_status":"AT","des_condic":"Aguardando analise"},"geometry":{"type":"Polygon","coordinates":[[[-43.8907,-22.8646],[-43.89,-22.8769],[-43.8908,-22.8643],[-43.8907,-22.8646]],[[-43.8873,-22.8772],[-43.8895,-22.881],[-43.8877,-22.8774],[-43.8873,-22.8772]]]}},{"type":"Feature","properties":{"cod_imovel":"RJ-3302007-C3DE5DE432C0442A8756EC211122F9AF","num_area":"4.4659000000000000000000000000000","ind_status":"AT","des_condic":"Aguardando analise"},"geometry":{"type":"Polygon","coordinates":[[[-43.8182,-22.8123],[-43.8197,-22.8152],[-43.8182,-22.8123],[-43.8182,-22.8123]]]}},{"type":"Feature","properties":{"cod_imovel":"RJ-3302007-C7C82B5A457F4ACAB255AE2010C156C6","num_area":"4.7554000000000000000000000000000","ind_status":"AT","des_condic":"Aguardando analise"},"geometry":{"type":"Polygon","coordinates":[[[-43.8333,-22.8444],[-43.8353,-22.842],[-43.8333,-22.8443],[-43.8333,-22.8444]]]}},{"type":"Feature","properties":{"cod_imovel":"RJ-3302007-CFA78A63E7894F449089A91AA92E889F","num_area":"17.357000000000000000000000000000","ind_status":"AT","des_condic":"Aguardando analise"},"geometry":{"type":"Polygon","coordinates":[[[-43.7405,-22.8407],[-43.7445,-22.8375],[-43.7395,-22.838],[-43.7405,-22.8407]]]}},{"type":"Feature","properties":{"cod_imovel":"RJ-3302007-D09ADB6A01934BAFA78E0F3A429299FC","num_area":"7.1218000000000000000000000000000","ind_status":"AT","des_condic":"Aguardando analise"},"geometry":{"type":"Polygon","coordinates":[[[-43.834,-22.8592],[-43.8412,-22.8658],[-43.834,-22.8592],[-43.834,-22.8592]]]}},{"type":"Feature","properties":{"cod_imovel":"RJ-3302007-E6CF279A135344608DEFDC194C177702","num_area":"13.254600000000000000000000000000","ind_status":"AT","des_condic":"Aguardando analise"},"geometry":{"type":"Polygon","coordinates":[[[-43.8372,-22.8423],[-43.8402,-22.8458],[-43.8372,-22.8425],[-43.8372,-22.8423]],[[-43.8365,-22.845],[-43.8402,-22.8469],[-43.8365,-22.845],[-43.8365,-22.845]]]}},{"type":"Feature","properties":{"cod_imovel":"RJ-3302007-F8ED67F473DC44BF80CAAE3C346E134E","num_area":"5.8307000000000000000000000000000","ind_status":"AT","des_condic":"Aguardando analise"},"geometry":{"type":"Polygon","coordinates":[[[-43.8151,-22.8681],[-43.8137,-22.8654],[-43.8147,-22.8683],[-43.8151,-22.8681]]]}},{"type":"Feature","properties":{"cod_imovel":"RJ-3302007-FD65DB2A41544F429A783BF418D2CDEA","num_area":"6.5249000000000000000000000000000","ind_status":"AT","des_condic":"Aguardando analise"},"geometry":{"type":"Polygon","coordinates":[[[-43.8365,-22.845],[-43.8355,-22.8417],[-43.8364,-22.845],[-43.8365,-22.845]]]}}]}