{"type":"FeatureCollection","features":[{"type":"Feature","properties":{"cod_imovel":"RJ-3302254-238469C80B5A4E89932D60C00E8EAC9A","num_area":"16.064900000000000000000000000000","ind_status":"AT","des_condic":"Em analise"},"geometry":{"type":"Polygon","coordinates":[[[-44.5561,-22.3319],[-44.5594,-22.3381],[-44.5603,-22.333],[-44.5594,-22.338],[-44.5562,-22.332],[-44.5561,-22.3319]],[[-44.5561,-22.3326],[-44.5524,-22.3309],[-44.5511,-22.3355],[-44.5558,-22.3321],[-44.5561,-22.3326]],[[-44.5512,-22.3355],[-44.5554,-22.3363],[-44.5518,-22.3355],[-44.5512,-22.3355]]]}},{"type":"Feature","properties":{"cod_imovel":"RJ-3302254-6296A2B71BD2472C83B34C3CEF45388A","num_area":"82.458200000000000000000000000000","ind_status":"PE","des_condic":"Aguardando analise"},"geometry":{"type":"Polygon","coordinates":[[[-44.6523,-22.4735],[-44.6452,-22.4704],[-44.6437,-22.4768],[-44.6521,-22.4736],[-44.6523,-22.4735]],[[-44.651,-22.479],[-44.6472,-22.4768],[-44.6465,-22.4835],[-44.6543,-22.4838],[-44.651,-22.479],[-44.651,-22.479]]]}},{"type":"Feature","properties":{"cod_imovel":"RJ-3302254-AB1C2FFB79FD4575BC4592DF65779199","num_area":"26.546300000000000000000000000000","ind_status":"PE","des_condic":"Analisado, aguardando atendimento a notificacao"},"geometry":{"type":"Polygon","coordinates":[[[-44.5098,-22.4496],[-44.508,-22.4548],[-44.5133,-22.4537],[-44.5101,-22.4494],[-44.5098,-22.4496]]]}},{"type":"Feature","properties":{"cod_imovel":"RJ-3302254-4660E7001F41409BBA544E747D735DEC","num_area":"25.211200000000000000000000000000","ind_status":"PE","des_condic":"Analisado, aguardando atendimento a notificacao"},"geometry":{"type":"Polygon","coordinates":[[[-44.5142,-22.4743],[-44.5142,-22.4811],[-44.5183,-22.4804],[-44.5148,-22.4738],[-44.5142,-22.4743]]]}},{"type":"Feature","properties":{"cod_imovel":"RJ-3302254-9E6E0E3F5AB34041AA5FF394885C2F44","num_area":"5.9848000000000000000000000000000","ind_status":"PE","des_condic":"Analisado, aguardando atendimento a notificacao"},"geometry":{"type":"Polygon","coordinates":[[[-44.5046,-22.4657],[-44.508,-22.4646],[-44.505,-22.4641],[-44.5046,-22.4657]]]}},{"type":"Feature","properties":{"cod_imovel":"RJ-3302254-84B6D3CB86B547578D9521A735261288","num_area":"15.338200000000000000000000000000","ind_status":"AT","des_condic":"Aguardando analise"},"geometry":{"type":"Polygon","coordinates":[[[-44.5166,-22.4833],[-44.5195,-22.4797],[-44.5166,-22.4833],[-44.5166,-22.4833]],[[-44.5155,-22.4808],[-44.5144,-22.4846],[-44.5154,-22.481],[-44.5155,-22.4808]]]}},{"type":"Feature","properties":{"cod_imovel":"RJ-3302254-B8978C0ABE9546C1ADC4C930B8C74E21","num_area":"7.6720000000000000000000000000000","ind_status":"PE","des_condic":"Analisado, aguardando atendimento a notificacao"},"geometry":{"type":"Polygon","coordinates":[[[-44.5603,-22.4915],[-44.5556,-22.4907],[-44.5602,-22.4915],[-44.5603,-22.4915]]]}},{"type":"Feature","properties":{"cod_imovel":"RJ-3302254-BBBA3CD58B4D467BAB59C19CFF592F86","num_area":"12.120400000000000000000000000000","ind_status":"AT","des_condic":"Aguardando analise"},"geometry":{"type":"Polygon","coordinates":[[[-44.5774,-22.335],[-44.574,-22.3306],[-44.5774,-22.335],[-44.5774,-22.335]]]}},{"type":"Feature","properties":{"cod_imovel":"RJ-3302254-8D4C89D83740446FB1735127BEA15D64","num_area":"12.601500000000000000000000000000","ind_status":"AT","des_condic":"Aguardando analise"},"geometry":{"type":"Polygon","coordinates":[[[-44.5954,-22.4718],[-44.593,-22.4666],[-44.5945,-22.4716],[-44.5954,-22.4718]],[[-44.5936,-22.4652],[-44.5963,-22.4633],[-44.5935,-22.4652],[-44.5936,-22.4652]]]}},{"type":"Feature","properties":{"cod_imovel":"RJ-3302254-FDBDDBC40EC246769A90125D284101F9","num_area":"124.64860000000000000000000000000","ind_status":"AT","des_condic":"Aguardando analise"},"geometry":{"type":"Polygon","coordinates":[[[-44.5468,-22.4562],[-44.5376,-22.4656],[-44.5413,-22.4735],[-44.5493,-22.4681],[-44.5466,-22.4648],[-44.5511,-22.4658],[-44.547,-22.4558],[-44.5468,-22.4562]]]}},{"type":"Feature","properties":{"cod_imovel":"RJ-3302254-50CDE039F7EF4DBBBA0F16F31C81B2B9","num_area":"51.513200000000000000000000000000","ind_status":"AT","des_condic":"Aguardando analise"},"geometry":{"type":"Polygon","coordinates":[[[-44.5419,-22.4525],[-44.5502,-22.4491],[-44.5551,-22.4407],[-44.5499,-22.445],[-44.5546,-22.4402],[-44.5482,-22.4418],[-44.5488,-22.4465],[-44.5428,-22.4494],[-44.5472,-22.4496],[-44.5418,-22.452],[-44.5419,-22.4525]]]}},{"type":"Feature","properties":{"cod_imovel":"RJ-3302254-773B2534CFC84CE2906592215C086AE4","num_area":"197.63910000000000000000000000000","ind_status":"AT","des_condic":"Aguardando analise"},"geometry":{"type":"Polygon","coordinates":[[[-44.5621,-22.4733],[-44.5571,-22.4725],[-44.5584,-22.4777],[-44.5672,-22.4748],[-44.5621,-22.4733],[-44.5621,-22.4733]],[[-44.5677,-22.4745],[-44.5594,-22.4791],[-44.5735,-22.4785],[-44.576,-22.4736],[-44.565,-22.4675],[-44.5703,-22.4723],[-44.5677,-22.4745],[-44.5677,-22.4745]],[[-44.5591,-22.4797],[-44.5587,-22.4836],[-44.5683,-22.4839],[-44.5736,-22.4785],[-44.5591,-22.4797],[-44.5591,-22.4797]]]}},{"type":"Feature","properties":{"cod_imovel":"RJ-3302254-5007EE7858C648C7AFE7541C710E3D01","num_area":"37.146200000000000000000000000000","ind_status":"AT","des_condic":"Aguardando analise"},"geometry":{"type":"Polygon","coordinates":[[[-44.5327,-22.4459],[-44.5391,-22.4527],[-44.5326,-22.4459],[-44.5327,-22.4459]]]}},{"type":"Feature","properties":{"cod_imovel":"RJ-3302254-85FCA252E710467282D4B905B7D583E4","num_area":"394.60590000000000000000000000000","ind_status":"AT","des_condic":"Aguardando analise"},"geometry":{"type":"Polygon","coordinates":[[[-44.6254,-22.4736],[-44.621,-22.4797],[-44.6418,-22.4879],[-44.6464,-22.4836],[-44.6471,-22.4761],[-44.6286,-22.4713],[-44.6254,-22.4736]],[[-44.6436,-22.4767],[-44.639,-22.4669],[-44.6286,-22.4713],[-44.6394,-22.4754],[-44.6436,-22.4767]],[[-44.6442,-22.4764],[-44.6491,-22.4667],[-44.639,-22.4669],[-44.6425,-22.4725],[-44.6442,-22.4764]]]}},{"type":"Feature","properties":{"cod_imovel":"RJ-3302254-55578C280B294A94B42F1DC9AEE62ED0","num_area":"27.335800000000000000000000000000","ind_status":"AT","des_condic":"Aguardando analise"},"geometry":{"type":"Polygon","coordinates":[[[-44.5508,-22.3445],[-44.5548,-22.3481],[-44.5594,-22.3456],[-44.5509,-22.3445],[-44.5508,-22.3445]]]}},{"type":"Feature","properties":{"cod_imovel":"RJ-3302254-A9202E93FE1E429C90E4B9688BC82AF4","num_area":"64.741900000000000000000000000000","ind_status":"AT","des_condic":"Aguardando analise"},"geometry":{"type":"Polygon","coordinates":[[[-44.5834,-22.3334],[-44.5862,-22.3361],[-44.5823,-22.3319],[-44.5789,-22.3353],[-44.5833,-22.333],[-44.5834,-22.3334]],[[-44.5801,-22.3359],[-44.5839,-22.3335],[-44.5804,-22.3357],[-44.5801,-22.3359]],[[-44.581,-22.3362],[-44.5859,-22.3364],[-44.5812,-22.3361],[-44.581,-22.3362]],[[-44.5723,-22.337],[-44.5708,-22.3331],[-44.5721,-22.3368],[-44.5723,-22.337]],[[-44.5832,-22.339],[-44.5732,-22.3344],[-44.5746,-22.3401],[-44.5792,-22.3409],[-44.578,-22.3364],[-44.5827,-22.339],[-44.5832,-22.339]]]}},{"type":"Feature","properties":{"cod_imovel":"RJ-3302254-015C9B64293246C58F69E8C26DCD91FD","num_area":"41.804700000000000000000000000000","ind_status":"AT","des_condic":"Em analise"},"geometry":{"type":"Polygon","coordinates":[[[-44.5177,-22.4628],[-44.5124,-22.461],[-44.5104,-22.4677],[-44.5178,-22.463],[-44.5177,-22.4628]]]}},{"type":"Feature","properties":{"cod_imovel":"RJ-3302254-FD64322961B84AD994122C681FA4CEB6","num_area":"49.085800000000000000000000000000","ind_status":"AT","des_condic":"Aguardando analise"},"geometry":{"type":"Polygon","coordinates":[[[-44.5835,-22.3273],[-44.5842,-22.3322],[-44.5928,-22.3335],[-44.5898,-22.3275],[-44.5835,-22.3273],[-44.5835,-22.3273]]]}},{"type":"Feature","properties":{"cod_imovel":"RJ-3302254-B492570FCC314A1EA7EEF80309C276F3","num_area":"10.297500000000000000000000000000","ind_status":"AT","des_condic":"Aguardando analise"},"geometry":{"type":"Polygon","coordinates":[[[-44.6103,-22.3322],[-44.6096,-22.3292],[-44.6103,-22.3322],[-44.6103,-22.3322]],[[-44.6121,-22.3307],[-44.6092,-22.3273],[-44.6121,-22.3305],[-44.6121,-22.3307]]]}},{"type":"Feature","properties":{"cod_imovel":"RJ-3302254-9C16238EC452491BBEC7354773FFA449","num_area":"37.275500000000000000000000000000","ind_status":"AT","des_condic":"Aguardando analise"},"geometry":{"type":"Polygon","coordinates":[[[-44.6059,-22.3269],[-44.6048,-22.3373],[-44.6091,-22.338],[-44.6047,-22.3364],[-44.6051,-22.333],[-44.6095,-22.3346],[-44.6102,-22.3275],[-44.6062,-22.3269],[-44.6059,-22.3269]]]}},{"type":"Feature","properties":{"cod_imovel":"RJ-3302254-8488E912A2DA45E893C8EAF30622C879","num_area":"7.1437000000000000000000000000000","ind_status":"AT","des_condic":"Aguardando analise"},"geometry":{"type":"Polygon","coordinates":[[[-44.5902,-22.3395],[-44.5849,-22.3409],[-44.5892,-22.3401],[-44.5902,-22.3395]]]}},{"type":"Feature","properties":{"cod_imovel":"RJ-3302254-AF54145114B2481498C9E90E5869923C","num_area":"5.6580000000000000000000000000000","ind_status":"AT","des_condic":"Aguardando analise"},"geometry":{"type":"Polygon","coordinates":[[[-44.5691,-22.3299],[-44.5658,-22.3292],[-44.5691,-22.3299],[-44.5691,-22.3299]]]}},{"type":"Feature","properties":{"cod_imovel":"RJ-3302254-02BBB009FDD94EC1B1FB06C7650FDD40","num_area":"4.8690000000000000000000000000000","ind_status":"AT","des_condic":"Aguardando analise"},"geometry":{"type":"Polygon","coordinates":[[[-44.5763,-22.3447],[-44.572,-22.3437],[-44.5761,-22.3446],[-44.5763,-22.3447]]]}},{"type":"Feature","properties":{"cod_imovel":"RJ-3302254-ADAFC7DFEF314A4480FC038864CCA719","num_area":"12.116600000000000000000000000000","ind_status":"AT","des_condic":"Aguardando analise"},"geometry":{"type":"Polygon","coordinates":[[[-44.5595,-22.3383],[-44.5628,-22.3323],[-44.5594,-22.3381],[-44.5595,-22.3383]]]}},{"type":"Feature","properties":{"cod_imovel":"RJ-3302254-299B01FF8A95432D80A740213B5DFD79","num_area":"23.993700000000000000000000000000","ind_status":"AT","des_condic":"Aguardando analise"},"geometry":{"type":"Polygon","coordinates":[[[-44.5552,-22.3467],[-44.5504,-22.3445],[-44.5509,-22.349],[-44.5552,-22.3468],[-44.5552,-22.3467]]]}},{"type":"Feature","properties":{"cod_imovel":"RJ-3302254-F9FBCEB467DC4493BB837E7D31E79983","num_area":"2.0464000000000000000000000000000","ind_status":"AT","des_condic":"Aguardando analise"},"geometry":{"type":"Polygon","coordinates":[[[-44.575,-22.3281],[-44.5729,-22.331],[-44.5752,-22.3282],[-44.575,-22.3281]]]}},{"type":"Feature","properties":{"cod_imovel":"RJ-3302254-3DAA22A3427F4A259BF0538F657AB2E7","num_area":"7.8467000000000000000000000000000","ind_status":"AT","des_condic":"Aguardando analise"},"geometry":{"type":"Polygon","coordinates":[[[-44.578,-22.3292],[-44.5751,-22.33],[-44.579,-22.3295],[-44.578,-22.3292]]]}},{"type":"Feature","properties":{"cod_imovel":"RJ-3302254-130FB09BD0A34F58A473E34CC6D4D8FA","num_area":"7.2187000000000000000000000000000","ind_status":"AT","des_condic":"Aguardando analise"},"geometry":{"type":"Polygon","coordinates":[[[-44.5422,-22.4971],[-44.5421,-22.4934],[-44.5419,-22.4971],[-44.5422,-22.4971]]]}},{"type":"Feature","properties":{"cod_imovel":"RJ-3302254-988C80205D4D4C6C850B8C3D68BE778C","num_area":"3.3302000000000000000000000000000","ind_status":"AT","des_condic":"Aguardando analise"},"geometry":{"type":"Polygon","coordinates":[[[-44.5366,-22.4193],[-44.539,-22.4173],[-44.5362,-22.4193],[-44.5366,-22.4193]]]}},{"type":"Feature","properties":{"cod_imovel":"RJ-3302254-0BABDA21C3B94EC0BE108D70FB3947D9","num_area":"46.160600000000000000000000000000","ind_status":"AT","des_condic":"Aguardando analise"},"geometry":{"type":"Polygon","coordinates":[[[-44.5529,-22.3475],[-44.5511,-22.3506],[-44.5555,-22.3513],[-44.5532,-22.3476],[-44.5529,-22.3475]],[[-44.5501,-22.3486],[-44.5495,-22.3569],[-44.5554,-22.3567],[-44.5504,-22.3493],[-44.5501,-22.3486]]]}},{"type":"Feature","properties":{"cod_imovel":"RJ-3302254-42B5BF253FBD4C108FABB7962E15987F","num_area":"5.5360000000000000000000000000000","ind_status":"AT","des_condic":"Aguardando analise"},"geometry":{"type":"Polygon","coordinates":[[[-44.5606,-22.3503],[-44.5636,-22.3509],[-44.5599,-22.3497],[-44.5606,-22.3503]]]}},{"type":"Feature","properties":{"cod_imovel":"RJ-3302254-ABC9003CFF7B47878EA4706B0620C43D","num_area":"9.3227000000000000000000000000000","ind_status":"AT","des_condic":"Aguardando analise"},"geometry":{"type":"Polygon","coordinates":[[[-44.556,-22.3575],[-44.5557,-22.352],[-44.5556,-22.3574],[-44.556,-22.3575]]]}},{"type":"Feature","properties":{"cod_imovel":"RJ-3302254-AB70BA7FA5B145B4BD423C9FFE624D37","num_area":"9.1297000000000000000000000000000","ind_status":"AT","des_condic":"Aguardando analise"},"geometry":{"type":"Polygon","coordinates":[[[-44.5605,-22.348],[-44.5644,-22.3506],[-44.5605,-22.3478],[-44.5605,-22.348]]]}},{"type":"Feature","properties":{"cod_imovel":"RJ-3302254-FB2E422A738C413691555C97FCDA47A7","num_area":"25.949700000000000000000000000000","ind_status":"AT","des_condic":"Aguardando analise"},"geometry":{"type":"Polygon","coordinates":[[[-44.5377,-22.4936],[-44.5321,-22.4863],[-44.538,-22.4938],[-44.5377,-22.4936]]]}},{"type":"Feature","properties":{"cod_imovel":"RJ-3302254-473B1781324C46EAB6847ECE4BDFF7D9","num_area":"34.673300000000000000000000000000","ind_status":"AT","des_condic":"Aguardando analise"},"geometry":{"type":"Polygon","coordinates":[[[-44.589,-22.5143],[-44.5825,-22.5127],[-44.5788,-22.5171],[-44.5895,-22.5138],[-44.589,-22.5143]]]}},{"type":"Feature","properties":{"cod_imovel":"RJ-3302254-9F6680533FC84C0FB2B744A3DBBD7A82","num_area":"14.948300000000000000000000000000","ind_status":"AT","des_condic":"Aguardando analise"},"geometry":{"type":"Polygon","coordinates":[[[-44.5507,-22.3442],[-44.5567,-22.3435],[-44.5498,-22.3432],[-44.5507,-22.3442]]]}},{"type":"Feature","properties":{"cod_imovel":"RJ-3302254-521373C67DAA494F88C372A21C660C51","num_area":"9.5888000000000000000000000000000","ind_status":"AT","des_condic":"Aguardando analise"},"geometry":{"type":"Polygon","coordinates":[[[-44.5507,-22.3396],[-44.5533,-22.3369],[-44.5506,-22.3396],[-44.5507,-22.3396]]]}},{"type":"Feature","properties":{"cod_imovel":"RJ-3302254-89277C6450824337A47D1342752951A4","num_area":"7.2168000000000000000000000000000","ind_status":"AT","des_condic":"Aguardando analise"},"geometry":{"type":"Polygon","coordinates":[[[-44.5868,-22.3386],[-44.583,-22.3374],[-44.5833,-22.341],[-44.5868,-22.3386],[-44.5868,-22.3386]]]}},{"type":"Feature","properties":{"cod_imovel":"RJ-3302254-9D44EC6B2EC4446FB9813D0FC4A4A726","num_area":"7.9258000000000000000000000000000","ind_status":"AT","des_condic":"Aguardando analise"},"geometry":{"type":"Polygon","coordinates":[[[-44.5911,-22.3392],[-44.5898,-22.3437],[-44.5913,-22.3392],[-44.5911,-22.3392]]]}},{"type":"Feature","properties":{"cod_imovel":"RJ-3302254-2BD926A23EAF4795B5A8FCF85A0812B9","num_area":"4.6075000000000000000000000000000","ind_status":"AT","des_condic":"Aguardando analise"},"geometry":{"type":"Polygon","coordinates":[[[-44.5655,-22.3356],[-44.563,-22.3337],[-44.5656,-22.3358],[-44.5655,-22.3356]]]}},{"type":"Feature","properties":{"cod_imovel":"RJ-3302254-45315E2E911D448CAC1575254BFDEDAD","num_area":"62.126400000000000000000000000000","ind_status":"AT","des_condic":"Aguardando analise"},"geometry":{"type":"Polygon","coordinates":[[[-44.5512,-22.4657],[-44.548,-22.4716],[-44.5575,-22.4697],[-44.5512,-22.4657],[-44.5512,-22.4657]],[[-44.5574,-22.4693],[-44.5493,-22.4729],[-44.5575,-22.4693],[-44.5574,-22.4693]]]}},{"type":"Feature","properties":{"cod_imovel":"RJ-3302254-31A8C8CEAF20423899842C66C777D287","num_area":"9.1169000000000000000000000000000","ind_status":"AT","des_condic":"Aguardando analise"},"geometry":{"type":"Polygon","coordinates":[[[-44.5494,-22.333],[-44.5451,-22.3327],[-44.5492,-22.3338],[-44.5494,-22.333]],[[-44.5467,-22.3321],[-44.5434,-22.3285],[-44.5451,-22.3327],[-44.5467,-22.3321]]]}},{"type":"Feature","properties":{"cod_imovel":"RJ-3302254-54D6806751254A75B4152D1D0FC08E37","num_area":"22.367500000000000000000000000000","ind_status":"AT","des_condic":"Aguardando analise"},"geometry":{"type":"Polygon","coordinates":[[[-44.5593,-22.4467],[-44.558,-22.4506],[-44.5627,-22.4459],[-44.5594,-22.4466],[-44.5593,-22.4467]],[[-44.5548,-22.4494],[-44.5582,-22.4473],[-44.5547,-22.4483],[-44.5548,-22.4494]]]}},{"type":"Feature","properties":{"cod_imovel":"RJ-3302254-0B204D6C4E8941C480C985CE3B74AB7E","num_area":"116.55430000000000000000000000000","ind_status":"AT","des_condic":"Aguardando analise"},"geometry":{"type":"Polygon","coordinates":[[[-44.5415,-22.4627],[-44.5467,-22.456],[-44.5414,-22.4625],[-44.5415,-22.4627]],[[-44.5474,-22.4521],[-44.541,-22.4627],[-44.5474,-22.4521],[-44.5474,-22.4521]],[[-44.5408,-22.455],[-44.5339,-22.4617],[-44.5376,-22.4648],[-44.5409,-22.455],[-44.5408,-22.455]],[[-44.5341,-22.4602],[-44.5409,-22.4547],[-44.5341,-22.4603],[-44.5341,-22.4602]]]}},{"type":"Feature","properties":{"cod_imovel":"RJ-3302254-E7F708A48EC44F298284161571891F74","num_area":"23.258300000000000000000000000000","ind_status":"AT","des_condic":"Aguardando analise"},"geometry":{"type":"Polygon","coordinates":[[[-44.5556,-22.3514],[-44.5592,-22.3506],[-44.5557,-22.3484],[-44.5556,-22.3514]],[[-44.5663,-22.3547],[-44.5608,-22.3534],[-44.566,-22.355],[-44.5663,-22.3547]],[[-44.5613,-22.3576],[-44.5576,-22.3555],[-44.56,-22.3577],[-44.5613,-22.3576]]]}},{"type":"Feature","properties":{"cod_imovel":"RJ-3302254-C191ADB096BF474992CBDF5AD1D541E5","num_area":"41.667200000000000000000000000000","ind_status":"AT","des_condic":"Aguardando analise"},"geometry":{"type":"Polygon","coordinates":[[[-44.5233,-22.4742],[-44.5135,-22.4722],[-44.529,-22.4789],[-44.525,-22.4754],[-44.5233,-22.4742]]]}},{"type":"Feature","properties":{"cod_imovel":"RJ-3302254-30E3FEEEC4734E3A86B55DDD02E34296","num_area":"61.405400000000000000000000000000","ind_status":"PE","des_condic":"Analisado, aguardando atendimento a notificacao"},"geometry":{"type":"Polygon","coordinates":[[[-44.5337,-22.4619],[-44.5357,-22.4642],[-44.5337,-22.4619],[-44.5337,-22.4619]],[[-44.5357,-22.4642],[-44.5278,-22.4688],[-44.5347,-22.4695],[-44.5355,-22.4643],[-44.5357,-22.4642]],[[-44.5401,-22.4725],[-44.5349,-22.4687],[-44.5344,-22.4744],[-44.5401,-22.4724],[-44.5401,-22.4725]]]}},{"type":"Feature","properties":{"cod_imovel":"RJ-3302254-254D615A5C064A5BBE4BCB775278282C","num_area":"213.41170000000000000000000000000","ind_status":"AT","des_condic":"Aguardando analise"},"geometry":{"type":"Polygon","coordinates":[[[-44.5228,-22.473],[-44.5244,-22.4607],[-44.5268,-22.4669],[-44.5323,-22.4641],[-44.5262,-22.4629],[-44.5315,-22.463],[-44.5284,-22.4548],[-44.5182,-22.4593],[-44.523,-22.472],[-44.5165,-22.4697],[-44.5221,-22.4725],[-44.5228,-22.473]],[[-44.5179,-22.466],[-44.5113,-22.4677],[-44.5165,-22.4697],[-44.5178,-22.466],[-44.5179,-22.466]],[[-44.5309,-22.4607],[-44.533,-22.464],[-44.5344,-22.4588],[-44.5312,-22.4606],[-44.5309,-22.4607]],[[-44.5273,-22.4499],[-44.5201,-22.458],[-44.5267,-22.4558],[-44.5256,-22.4512],[-44.5281,-22.4545],[-44.5272,-22.45],[-44.5273,-22.4499]],[[-44.5211,-22.4552],[-44.5181,-22.4591],[-44.5203,-22.4553],[-44.5211,-22.4552]]]}},{"type":"Feature","properties":{"cod_imovel":"RJ-3302254-6984B7EC57B544B3948F7FC04962FA4F","num_area":"53.691500000000000000000000000000","ind_status":"AT","des_condic":"Aguardando analise"},"geometry":{"type":"Polygon","coordinates":[[[-44.4885,-22.4536],[-44.4847,-22.4608],[-44.4885,-22.4536],[-44.4885,-22.4536]],[[-44.4847,-22.4608],[-44.4887,-22.4645],[-44.4847,-22.4608],[-44.4847,-22.4608]],[[-44.4891,-22.4629],[-44.4916,-22.4544],[-44.4885,-22.4536],[-44.4887,-22.4625],[-44.4891,-22.4629]]]}},{"type":"Feature","properties":{"cod_imovel":"RJ-3302254-0F2341F1A5BF45ACBCA8272ECAF776F3","num_area":"4.3759000000000000000000000000000","ind_status":"AT","des_condic":"Aguardando analise"},"geometry":{"type":"Polygon","coordinates":[[[-44.5291,-22.4679],[-44.5329,-22.4643],[-44.529,-22.4676],[-44.5291,-22.4679]]]}},{"type":"Feature","properties":{"cod_imovel":"RJ-3302254-F34757A243724AB5A34815E684CA77FC","num_area":"24.363500000000000000000000000000","ind_status":"AT","des_condic":"Aguardando analise"},"geometry":{"type":"Polygon","coordinates":[[[-44.5823,-22.4579],[-44.584,-22.4513],[-44.5823,-22.4579],[-44.5823,-22.4579]]]}},{"type":"Feature","properties":{"cod_imovel":"RJ-3302254-4F3AAF1CCCB341A8B408F5F6386AA4C6","num_area":"3.5392000000000000000000000000000","ind_status":"PE","des_condic":"Analisado, aguardando atendimento a notificacao"},"geometry":{"type":"Polygon","coordinates":[[[-44.5762,-22.4967],[-44.5799,-22.4961],[-44.5763,-22.4967],[-44.5762,-22.4967]]]}},{"type":"Feature","properties":{"cod_imovel":"RJ-3302254-CEB3FE170B2E41FEA0CDF193935E04DB","num_area":"2.0420000000000000000000000000000","ind_status":"PE","des_condic":"Analisado, aguardando atendimento a notificacao"},"geometry":{"type":"Polygon","coordinates":[[[-44.512,-22.4615],[-44.5086,-22.4603],[-44.512,-22.4619],[-44.512,-22.4615]]]}},{"type":"Feature","properties":{"cod_imovel":"RJ-3302254-38327731A30E413C88F5AD2EC705901A","num_area":"28.759300000000000000000000000000","ind_status":"PE","des_condic":"Analisado, aguardando atendimento a notificacao"},"geometry":{"type":"Polygon","coordinates":[[[-44.499,-22.4589],[-44.5013,-22.4553],[-44.4976,-22.4542],[-44.496,-22.4597],[-44.499,-22.4589],[-44.499,-22.4589]],[[-44.4999,-22.458],[-44.5024,-22.4556],[-44.4999,-22.4579],[-44.4999,-22.458]]]}},{"type":"Feature","properties":{"cod_imovel":"RJ-3302254-0753A0AEED7C452A8346CE51B0ECEFC4","num_area":"3.3936000000000000000000000000000","ind_status":"PE","des_condic":"Analisado, aguardando atendimento a notificacao"},"geometry":{"type":"Polygon","coordinates":[[[-44.5043,-22.4632],[-44.5065,-22.4582],[-44.5049,-22.4629],[-44.5043,-22.4632]]]}},{"type":"Feature","properties":{"cod_imovel":"RJ-3302254-9E75AC1F7EC24A21838672EC1C2AD05E","num_area":"55.680500000000000000000000000000","ind_status":"PE","des_condic":"Analisado, aguardando atendimento a notificacao"},"geometry":{"type":"Polygon","coordinates":[[[-44.5093,-22.4466],[-44.5133,-22.4523],[-44.5182,-22.448],[-44.5097,-22.4425],[-44.5094,-22.4461],[-44.5093,-22.4466]]]}},{"type":"Feature","properties":{"cod_imovel":"RJ-3302254-01D4ADB6336A43998D322A5B929DCCBE","num_area":"3.9706000000000000000000000000000","ind_status":"PE","des_condic":"Analisado, aguardando atendimento a notificacao"},"geometry":{"type":"Polygon","coordinates":[[[-44.6435,-22.498],[-44.6472,-22.4957],[-44.6433,-22.4977],[-44.6435,-22.498]]]}},{"type":"Feature","properties":{"cod_imovel":"RJ-3302254-00AB74887C2E4658A6B38E8A6869ABAB","num_area":"46.567500000000000000000000000000","ind_status":"AT","des_condic":"Aguardando analise"},"geometry":{"type":"Polygon","coordinates":[[[-44.5938,-22.4715],[-44.5818,-22.472],[-44.5753,-22.4784],[-44.5834,-22.4794],[-44.5855,-22.4766],[-44.5797,-22.475],[-44.5928,-22.472],[-44.5938,-22.4715]]]}},{"type":"Feature","properties":{"cod_imovel":"RJ-3302254-23CCA8BE88AA413EA28DDEC19F53A12B","num_area":"780.20910000000000000000000000000","ind_status":"AT","des_condic":"Aguardando analise"},"geometry":{"type":"Polygon","coordinates":[[[-44.5795,-22.4999],[-44.5787,-22.5068],[-44.5886,-22.5158],[-44.5965,-22.5133],[-44.6012,-22.5217],[-44.5933,-22.516],[-44.5944,-22.5219],[-44.6022,-22.5292],[-44.6047,-22.5269],[-44.607,-22.539],[-44.6126,-22.5323],[-44.6153,-22.5452],[-44.6187,-22.545],[-44.6148,-22.5329],[-44.6197,-22.5393],[-44.6237,-22.524],[-44.6086,-22.5295],[-44.6131,-22.524],[-44.6063,-22.5169],[-44.6018,-22.5184],[-44.6092,-22.5094],[-44.598,-22.5173],[-44.6097,-22.5067],[-44.5894,-22.5029],[-44.587,-22.5095],[-44.585,-22.5035],[-44.5854,-22.5129],[-44.5796,-22.5],[-44.5795,-22.4999]],[[-44.5906,-22.5039],[-44.5982,-22.5118],[-44.593,-22.5119],[-44.5906,-22.5041],[-44.5906,-22.5039]],[[-44.5974,-22.5059],[-44.5984,-22.5098],[-44.5974,-22.5059],[-44.5974,-22.5059]],[[-44.6014,-22.506],[-44.6011,-22.5096],[-44.6012,-22.5061],[-44.6014,-22.506]],[[-44.5975,-22.5193],[-44.6004,-22.5205],[-44.5973,-22.5194],[-44.5975,-22.5193]],[[-44.6258,-22.5337],[-44.623,-22.5297],[-44.6257,-22.5336],[-44.6258,-22.5337]]]}},{"type":"Feature","properties":{"cod_imovel":"RJ-3302254-ACC0754BE26949BE9FE313FDD14F0564","num_area":"0.1836000000000000000000000000000","ind_status":"AT","des_condic":"Aguardando analise"},"geometry":{"type":"Polygon","coordinates":[[[-44.5329,-22.4631],[-44.5328,-22.4599],[-44.5329,-22.4631],[-44.5329,-22.4631]]]}},{"type":"Feature","properties":{"cod_imovel":"RJ-3302254-8F8504FA7F71408DA650E4118E137E75","num_area":"181.06730000000000000000000000000","ind_status":"AT","des_condic":"Aguardando analise"},"geometry":{"type":"Polygon","coordinates":[[[-44.6008,-22.5357],[-44.6029,-22.5327],[-44.601,-22.5379],[-44.6045,-22.5383],[-44.6083,-22.5316],[-44.5977,-22.528],[-44.6005,-22.5357],[-44.6008,-22.5357]],[[-44.611,-22.5459],[-44.6052,-22.5424],[-44.6087,-22.5318],[-44.6003,-22.5448],[-44.6023,-22.5502],[-44.6107,-22.5499],[-44.6107,-22.554],[-44.6073,-22.5521],[-44.6108,-22.5573],[-44.6155,-22.552],[-44.6103,-22.5481],[-44.616,-22.5496],[-44.6109,-22.5461],[-44.611,-22.5459]]]}},{"type":"Feature","properties":{"cod_imovel":"RJ-3302254-CEFC01041D7546F59AF1230ECD074847","num_area":"8.9375000000000000000000000000000","ind_status":"AT","des_condic":"Aguardando analise"},"geometry":{"type":"Polygon","coordinates":[[[-44.5126,-22.4394],[-44.5144,-22.4343],[-44.5126,-22.4394],[-44.5126,-22.4394]]]}},{"type":"Feature","properties":{"cod_imovel":"RJ-3302254-F0381F68EC1C41E28911B95244E53EC5","num_area":"1.2040000000000000000000000000000","ind_status":"AT","des_condic":"Aguardando analise"},"geometry":{"type":"Polygon","coordinates":[[[-44.5361,-22.4194],[-44.5339,-22.4214],[-44.5361,-22.4193],[-44.5361,-22.4194]]]}},{"type":"Feature","properties":{"cod_imovel":"RJ-3302254-F5AC0BEE8B1E4A67902CAC111003E414","num_area":"15.845400000000000000000000000000","ind_status":"AT","des_condic":"Aguardando analise"},"geometry":{"type":"Polygon","coordinates":[[[-44.6285,-22.505],[-44.6221,-22.506],[-44.6283,-22.505],[-44.6285,-22.505]],[[-44.6224,-22.5048],[-44.6176,-22.5063],[-44.6225,-22.505],[-44.6224,-22.5048]]]}},{"type":"Feature","properties":{"cod_imovel":"RJ-3302254-0BD23A838AC0479F8F965CBDEBEA74B9","num_area":"15.062800000000000000000000000000","ind_status":"AT","des_condic":"Aguardando analise"},"geometry":{"type":"Polygon","coordinates":[[[-44.5876,-22.4895],[-44.5922,-22.484],[-44.5858,-22.4857],[-44.5875,-22.489],[-44.5876,-22.4895]]]}},{"type":"Feature","properties":{"cod_imovel":"RJ-3302254-0EEE86C09A4B41F2AB8FD60A14DAF750","num_area":"15.622200000000000000000000000000","ind_status":"AT","des_condic":"Aguardando analise"},"geometry":{"type":"Polygon","coordinates":[[[-44.6304,-22.5021],[-44.6223,-22.5026],[-44.6301,-22.5022],[-44.6304,-22.5021]],[[-44.6302,-22.502],[-44.6272,-22.5009],[-44.6302,-22.502],[-44.6302,-22.502]]]}},{"type":"Feature","properties":{"cod_imovel":"RJ-3302254-D3516BD936BF43AEBE42F75A8FB0473C","num_area":"224.86100000000000000000000000000","ind_status":"AT","des_condic":"Aguardando analise"},"geometry":{"type":"Polygon","coordinates":[[[-44.6466,-22.4949],[-44.64,-22.4881],[-44.6426,-22.4954],[-44.6465,-22.495],[-44.6466,-22.4949]],[[-44.6429,-22.4959],[-44.6358,-22.487],[-44.6397,-22.4983],[-44.643,-22.4959],[-44.6429,-22.4959]],[[-44.6393,-22.4974],[-44.635,-22.4903],[-44.6346,-22.4957],[-44.6395,-22.4976],[-44.6393,-22.4974]],[[-44.6341,-22.4931],[-44.6319,-22.4897],[-44.6272,-22.5009],[-44.6386,-22.4988],[-44.6341,-22.4938],[-44.6341,-22.4931]],[[-44.6304,-22.4946],[-44.6298,-22.4911],[-44.6262,-22.5007],[-44.6304,-22.4949],[-44.6304,-22.4946]],[[-44.6255,-22.4959],[-44.6262,-22.4917],[-44.6213,-22.4952],[-44.6245,-22.4997],[-44.6256,-22.4964],[-44.6255,-22.4959]],[[-44.6209,-22.4933],[-44.6191,-22.4876],[-44.6225,-22.5001],[-44.621,-22.4937],[-44.6209,-22.4933]],[[-44.6214,-22.5002],[-44.6272,-22.5009],[-44.6217,-22.5001],[-44.6214,-22.5002]]]}},{"type":"Feature","properties":{"cod_imovel":"RJ-3302254-32886B0AA8A74713BBFF238C1A7F234C","num_area":"12.405200000000000000000000000000","ind_status":"AT","des_condic":"Aguardando analise"},"geometry":{"type":"Polygon","coordinates":[[[-44.5698,-22.509],[-44.5702,-22.5034],[-44.5693,-22.5084],[-44.5698,-22.509]]]}},{"type":"Feature","properties":{"cod_imovel":"RJ-3302254-31EDB5FA7BF843BF986803946B02D059","num_area":"6.5269000000000000000000000000000","ind_status":"AT","des_condic":"Aguardando analise"},"geometry":{"type":"Polygon","coordinates":[[[-44.5704,-22.4984],[-44.5697,-22.5014],[-44.5711,-22.4987],[-44.5704,-22.4984]]]}},{"type":"Feature","properties":{"cod_imovel":"RJ-3302254-0175BE81DA1B4454B9451A0F60B1F26D","num_area":"88.384800000000000000000000000000","ind_status":"AT","des_condic":"Aguardando analise"},"geometry":{"type":"Polygon","coordinates":[[[-44.6275,-22.5008],[-44.631,-22.5018],[-44.6278,-22.4942],[-44.621,-22.4938],[-44.6193,-22.4877],[-44.6223,-22.5027],[-44.6275,-22.5008]]]}},{"type":"Feature","properties":{"cod_imovel":"RJ-3302254-681756189D3D4117AA659505BFA89666","num_area":"18.454700000000000000000000000000","ind_status":"AT","des_condic":"Aguardando analise"},"geometry":{"type":"Polygon","coordinates":[[[-44.5975,-22.3404],[-44.5981,-22.3344],[-44.5945,-22.3339],[-44.5964,-22.3408],[-44.5975,-22.3404]]]}},{"type":"Feature","properties":{"cod_imovel":"RJ-3302254-FE9CCC26882D40189BF03C27F6887AE8","num_area":"24.961100000000000000000000000000","ind_status":"AT","des_condic":"Aguardando analise"},"geometry":{"type":"Polygon","coordinates":[[[-44.5645,-22.3337],[-44.5707,-22.3363],[-44.5684,-22.3305],[-44.5643,-22.3331],[-44.5645,-22.3337]]]}},{"type":"Feature","properties":{"cod_imovel":"RJ-3302254-79BCCE2F91BA4D24902E8CCCA301FD12","num_area":"229.33390000000000000000000000000","ind_status":"AT","des_condic":"Aguardando analise"},"geometry":{"type":"Polygon","coordinates":[[[-44.5879,-22.5559],[-44.5944,-22.5576],[-44.5936,-22.562],[-44.5989,-22.5564],[-44.6002,-22.5631],[-44.6053,-22.5583],[-44.5882,-22.5555],[-44.5879,-22.5559]],[[-44.5832,-22.5323],[-44.58,-22.5332],[-44.5837,-22.5325],[-44.5832,-22.5323]],[[-44.5843,-22.5337],[-44.5803,-22.5397],[-44.5848,-22.5343],[-44.5843,-22.5337]],[[-44.5783,-22.5353],[-44.5812,-22.5334],[-44.578,-22.5352],[-44.5783,-22.5353]],[[-44.5962,-22.544],[-44.5952,-22.5469],[-44.5854,-22.5419],[-44.5858,-22.5463],[-44.5915,-22.5464],[-44.5867,-22.5506],[-44.5976,-22.5472],[-44.5961,-22.5439],[-44.5962,-22.544]],[[-44.5883,-22.537],[-44.5859,-22.5401],[-44.594,-22.5346],[-44.5883,-22.537],[-44.5883,-22.537]],[[-44.6012,-22.5375],[-44.5929,-22.5385],[-44.6013,-22.5358],[-44.5941,-22.5419],[-44.5978,-22.542],[-44.6009,-22.5379],[-44.6012,-22.5375]],[[-44.5991,-22.5349],[-44.5901,-22.5341],[-44.5986,-22.5349],[-44.5991,-22.5349]]]}},{"type":"Feature","properties":{"cod_imovel":"RJ-3302254-0A893E1842B34AECB66E3037F7F32200","num_area":"3.3453000000000000000000000000000","ind_status":"AT","des_condic":"Aguardando analise"},"geometry":{"type":"Polygon","coordinates":[[[-44.5238,-22.4287],[-44.5236,-22.4248],[-44.5237,-22.4284],[-44.5238,-22.4287]]]}},{"type":"Feature","properties":{"cod_imovel":"RJ-3302254-00CC4385A2A1452487E1D0894200B531","num_area":"54.484200000000000000000000000000","ind_status":"AT","des_condic":"Aguardando analise"},"geometry":{"type":"Polygon","coordinates":[[[-44.5838,-22.4801],[-44.5792,-22.4836],[-44.5757,-22.4789],[-44.5757,-22.4886],[-44.5787,-22.4906],[-44.584,-22.4802],[-44.5838,-22.4801]],[[-44.5853,-22.4802],[-44.5889,-22.4784],[-44.5859,-22.4814],[-44.5853,-22.4802]]]}},{"type":"Feature","properties":{"cod_imovel":"RJ-3302254-10412E6C4A1B4D7BB484DA18DCCE7CD5","num_area":"27.528600000000000000000000000000","ind_status":"AT","des_condic":"Aguardando analise"},"geometry":{"type":"Polygon","coordinates":[[[-44.6109,-22.5545],[-44.6141,-22.5521],[-44.6107,-22.5541],[-44.6109,-22.5545]],[[-44.6102,-22.5482],[-44.6104,-22.5513],[-44.6102,-22.5482],[-44.6102,-22.5482]],[[-44.6098,-22.5566],[-44.6071,-22.5521],[-44.6098,-22.5566],[-44.6098,-22.5566]]]}},{"type":"Feature","properties":{"cod_imovel":"RJ-3302254-1187E6AE50A4459CA54E7FA7F60F6635","num_area":"5.1373000000000000000000000000000","ind_status":"AT","des_condic":"Aguardando analise"},"geometry":{"type":"Polygon","coordinates":[[[-44.5812,-22.4873],[-44.5838,-22.4846],[-44.581,-22.4872],[-44.5812,-22.4873]]]}},{"type":"Feature","properties":{"cod_imovel":"RJ-3302254-863923A3F67443AE8C1E2F1A7BE5652F","num_area":"39.649400000000000000000000000000","ind_status":"AT","des_condic":"Aguardando analise"},"geometry":{"type":"Polygon","coordinates":[[[-44.5343,-22.4519],[-44.5316,-22.4467],[-44.5286,-22.4551],[-44.5317,-22.4573],[-44.5335,-22.4517],[-44.5341,-22.4586],[-44.534,-22.452],[-44.5343,-22.4519]]]}},{"type":"Feature","properties":{"cod_imovel":"RJ-3302254-F01588679DCC4CB29BD4F6A4A9EE6008","num_area":"20.200200000000000000000000000000","ind_status":"AT","des_condic":"Aguardando analise"},"geometry":{"type":"Polygon","coordinates":[[[-44.6143,-22.4923],[-44.6099,-22.4935],[-44.6144,-22.4928],[-44.6143,-22.4923]],[[-44.6108,-22.4955],[-44.6156,-22.4967],[-44.6144,-22.4928],[-44.6108,-22.4955],[-44.6108,-22.4955]]]}},{"type":"Feature","properties":{"cod_imovel":"RJ-3302254-609B40EB814242A281FBC39E12EC1CDA","num_area":"131.15090000000000000000000000000","ind_status":"AT","des_condic":"Aguardando analise"},"geometry":{"type":"Polygon","coordinates":[[[-44.6065,-22.5333],[-44.5993,-22.5315],[-44.6065,-22.5333],[-44.6065,-22.5333]],[[-44.6026,-22.5331],[-44.5991,-22.5349],[-44.6026,-22.5331],[-44.6026,-22.5331]],[[-44.6082,-22.5344],[-44.6002,-22.543],[-44.6061,-22.5418],[-44.6076,-22.5364],[-44.6082,-22.5344]],[[-44.6122,-22.5481],[-44.6059,-22.5426],[-44.6005,-22.5447],[-44.6066,-22.547],[-44.6021,-22.5503],[-44.612,-22.5481],[-44.6122,-22.5481]],[[-44.6087,-22.5319],[-44.6001,-22.53],[-44.6087,-22.5321],[-44.6087,-22.5319]],[[-44.6062,-22.534],[-44.6014,-22.5413],[-44.6062,-22.534],[-44.6062,-22.534]]]}},{"type":"Feature","properties":{"cod_imovel":"RJ-3302254-C578439491E24AD4878D4E5EB9FE6E1F","num_area":"146.43410000000000000000000000000","ind_status":"AT","des_condic":"Aguardando analise"},"geometry":{"type":"Polygon","coordinates":[[[-44.5715,-22.5059],[-44.5765,-22.5155],[-44.5819,-22.5137],[-44.5797,-22.5074],[-44.5715,-22.5059],[-44.5715,-22.5059]],[[-44.5792,-22.5072],[-44.5815,-22.5013],[-44.5755,-22.4992],[-44.5751,-22.5054],[-44.5737,-22.4987],[-44.5715,-22.5059],[-44.5795,-22.5073],[-44.5792,-22.5072]]]}},{"type":"Feature","properties":{"cod_imovel":"RJ-3302254-E4C51B7E4A8B4BCDAB1D8BA2F3E297B9","num_area":"29.406500000000000000000000000000","ind_status":"AT","des_condic":"Aguardando analise"},"geometry":{"type":"Polygon","coordinates":[[[-44.5898,-22.4733],[-44.5839,-22.4696],[-44.5862,-22.4739],[-44.5898,-22.4733]],[[-44.5887,-22.4699],[-44.585,-22.4671],[-44.5884,-22.469],[-44.5887,-22.4699]]]}},{"type":"Feature","properties":{"cod_imovel":"RJ-3302254-E6CFBBF2F8194D15ABBE4C8BFD40E8ED","num_area":"141.66380000000000000000000000000","ind_status":"AT","des_condic":"Aguardando analise"},"geometry":{"type":"Polygon","coordinates":[[[-44.611,-22.5042],[-44.6085,-22.4938],[-44.5976,-22.5018],[-44.6005,-22.5044],[-44.611,-22.5042]],[[-44.6089,-22.4941],[-44.6193,-22.4934],[-44.6172,-22.4877],[-44.6101,-22.4874],[-44.6085,-22.4937],[-44.6089,-22.4941]]]}}]}