{"type":"FeatureCollection","features":[{"type":"Feature","properties":{"cod_imovel":"RJ-3302270-D2B351B8811845B3BEC3D4F0EBBFB98E","num_area":"14.592900000000000000000000000000","ind_status":"AT","des_condic":"Aguardando analise"},"geometry":{"type":"Polygon","coordinates":[[[-43.5926,-22.6392],[-43.588,-22.6369],[-43.5926,-22.6393],[-43.5926,-22.6392]]]}},{"type":"Feature","properties":{"cod_imovel":"RJ-3302270-7F0DF4817B264FCD97C9239BBFA98D6B","num_area":"234.84000000000000000000000000000","ind_status":"SU","des_condic":"Analisado, aguardando atendimento a notificacao"},"geometry":{"type":"Polygon","coordinates":[[[-43.6149,-22.6438],[-43.6117,-22.6444],[-43.6152,-22.6435],[-43.6149,-22.6438]],[[-43.6157,-22.6555],[-43.6192,-22.6582],[-43.6157,-22.6554],[-43.6157,-22.6555]],[[-43.6412,-22.6461],[-43.6232,-22.6424],[-43.6293,-22.6499],[-43.6416,-22.6471],[-43.6412,-22.6461]],[[-43.6206,-22.6436],[-43.6152,-22.6435],[-43.6207,-22.6436],[-43.6206,-22.6436]],[[-43.6293,-22.65],[-43.6354,-22.6514],[-43.63,-22.6499],[-43.6293,-22.65]],[[-43.6136,-22.652],[-43.6202,-22.6564],[-43.6137,-22.6519],[-43.6136,-22.652]],[[-43.6289,-22.6495],[-43.6231,-22.6425],[-43.6292,-22.6499],[-43.6289,-22.6495]],[[-43.6318,-22.6591],[-43.6369,-22.652],[-43.6292,-22.6499],[-43.6316,-22.6588],[-43.6318,-22.6591]],[[-43.6293,-22.6499],[-43.6369,-22.6519],[-43.6357,-22.6486],[-43.6421,-22.6482],[-43.6293,-22.6499],[-43.6293,-22.6499]],[[-43.626,-22.6493],[-43.623,-22.6425],[-43.6154,-22.6446],[-43.6261,-22.649],[-43.626,-22.6493]],[[-43.6118,-22.6447],[-43.6138,-22.6509],[-43.6262,-22.6551],[-43.6118,-22.6447],[-43.6118,-22.6447]]]}},{"type":"Feature","properties":{"cod_imovel":"RJ-3302270-5A3551892CCE42E48931EB9A25F4F8CE","num_area":"89.749100000000000000000000000000","ind_status":"AT","des_condic":"Aguardando analise"},"geometry":{"type":"Polygon","coordinates":[[[-43.5859,-22.6287],[-43.5853,-22.6247],[-43.5807,-22.6318],[-43.5864,-22.6284],[-43.5859,-22.6287]],[[-43.5845,-22.6243],[-43.5803,-22.6231],[-43.5788,-22.6281],[-43.5786,-22.6206],[-43.5721,-22.6256],[-43.578,-22.6321],[-43.5844,-22.6244],[-43.5845,-22.6243]]]}},{"type":"Feature","properties":{"cod_imovel":"RJ-3302270-625FBC0396704F289AF313FCEC41EE72","num_area":"80.616100000000000000000000000000","ind_status":"AT","des_condic":"Em analise"},"geometry":{"type":"Polygon","coordinates":[[[-43.6273,-22.649],[-43.6235,-22.6516],[-43.6287,-22.6573],[-43.6185,-22.6557],[-43.6206,-22.6596],[-43.6307,-22.6578],[-43.6277,-22.6486],[-43.6273,-22.649]],[[-43.622,-22.6606],[-43.6286,-22.6636],[-43.6316,-22.6594],[-43.6221,-22.6606],[-43.622,-22.6606]],[[-43.6256,-22.6601],[-43.6293,-22.6604],[-43.6256,-22.6601],[-43.6256,-22.6601]]]}},{"type":"Feature","properties":{"cod_imovel":"RJ-3302270-086FC5FF5990481BADBFAFD748E1DB81","num_area":"44.690100000000000000000000000000","ind_status":"AT","des_condic":"Analisado, aguardando atendimento a notificacao"},"geometry":{"type":"Polygon","coordinates":[[[-43.5789,-22.6426],[-43.5701,-22.6437],[-43.5747,-22.6477],[-43.5817,-22.6453],[-43.5758,-22.6444],[-43.5797,-22.6428],[-43.5789,-22.6426]]]}},{"type":"Feature","properties":{"cod_imovel":"RJ-3302270-D26A4497E6024552BC3EB0C04669F862","num_area":"6.7704000000000000000000000000000","ind_status":"AT","des_condic":"Aguardando analise"},"geometry":{"type":"Polygon","coordinates":[[[-43.5726,-22.6341],[-43.5756,-22.6355],[-43.5729,-22.6341],[-43.5726,-22.6341]]]}},{"type":"Feature","properties":{"cod_imovel":"RJ-3302270-38618B02C0C1464A917A0DCA91E69CA9","num_area":"5.5337000000000000000000000000000","ind_status":"PE","des_condic":"Analisado, aguardando atendimento a notificacao"},"geometry":{"type":"Polygon","coordinates":[[[-43.5682,-22.6513],[-43.5709,-22.648],[-43.5683,-22.6511],[-43.5682,-22.6513]]]}},{"type":"Feature","properties":{"cod_imovel":"RJ-3302270-B90EA2DEC67A42059AD5C91A31CC39E5","num_area":"2.7486000000000000000000000000000","ind_status":"PE","des_condic":"Analisado, aguardando atendimento a notificacao"},"geometry":{"type":"Polygon","coordinates":[[[-43.6232,-22.6425],[-43.626,-22.6447],[-43.6233,-22.6424],[-43.6232,-22.6425]]]}},{"type":"Feature","properties":{"cod_imovel":"RJ-3302270-0E0AA7045EBF4BB49372B6BF19C6456F","num_area":"3.7951000000000000000000000000000","ind_status":"PE","des_condic":"Analisado, aguardando atendimento a notificacao"},"geometry":{"type":"Polygon","coordinates":[[[-43.6499,-22.6854],[-43.6469,-22.6887],[-43.6493,-22.6863],[-43.6499,-22.6854]]]}},{"type":"Feature","properties":{"cod_imovel":"RJ-3302270-C7CFDFB74F77403E8E272E029C2C7C87","num_area":"6.9665000000000000000000000000000","ind_status":"PE","des_condic":"Analisado, aguardando atendimento a notificacao"},"geometry":{"type":"Polygon","coordinates":[[[-43.5565,-22.6784],[-43.5573,-22.6739],[-43.5565,-22.6784],[-43.5565,-22.6784]]]}},{"type":"Feature","properties":{"cod_imovel":"RJ-3302270-8AC1A8FD21934A19A8495DC7285ED845","num_area":"30.162300000000000000000000000000","ind_status":"PE","des_condic":"Analisado, aguardando atendimento a notificacao"},"geometry":{"type":"Polygon","coordinates":[[[-43.6419,-22.6963],[-43.6347,-22.6923],[-43.6352,-22.6964],[-43.6419,-22.6963]]]}},{"type":"Feature","properties":{"cod_imovel":"RJ-3302270-52F4FD94CB2B4DED939D3AF981DC0954","num_area":"7.4651000000000000000000000000000","ind_status":"PE","des_condic":"Analisado, aguardando atendimento a notificacao"},"geometry":{"type":"Polygon","coordinates":[[[-43.632,-22.6595],[-43.6341,-22.6655],[-43.6323,-22.6597],[-43.632,-22.6595]]]}},{"type":"Feature","properties":{"cod_imovel":"RJ-3302270-4884AABD6A3146C892C829F96BB58C59","num_area":"5.0953000000000000000000000000000","ind_status":"PE","des_condic":"Analisado, aguardando atendimento a notificacao"},"geometry":{"type":"Polygon","coordinates":[[[-43.6433,-22.6963],[-43.6391,-22.6965],[-43.6434,-22.6965],[-43.6433,-22.6963]]]}},{"type":"Feature","properties":{"cod_imovel":"RJ-3302270-D4F110EB3D6F4E12AE1134672B180FD3","num_area":"2.8125000000000000000000000000000","ind_status":"PE","des_condic":"Analisado, aguardando atendimento a notificacao"},"geometry":{"type":"Polygon","coordinates":[[[-43.5677,-22.6669],[-43.5697,-22.6635],[-43.5676,-22.6668],[-43.5677,-22.6669]],[[-43.5704,-22.6671],[-43.5672,-22.6647],[-43.5704,-22.6671],[-43.5704,-22.6671]]]}},{"type":"Feature","properties":{"cod_imovel":"RJ-3302270-1879128482154EE58E66F5AC0934CDE5","num_area":"17.543000000000000000000000000000","ind_status":"AT","des_condic":"Aguardando analise"},"geometry":{"type":"Polygon","coordinates":[[[-43.5902,-22.6371],[-43.5881,-22.6319],[-43.5901,-22.6372],[-43.5902,-22.6371]]]}},{"type":"Feature","properties":{"cod_imovel":"RJ-3302270-CF61A15E6464483397B397FCBC58A8AE","num_area":"16.201100000000000000000000000000","ind_status":"AT","des_condic":"Aguardando analise"},"geometry":{"type":"Polygon","coordinates":[[[-43.6608,-22.6303],[-43.6665,-22.629],[-43.6605,-22.6298],[-43.6608,-22.6303]]]}},{"type":"Feature","properties":{"cod_imovel":"RJ-3302270-E14DC0A5D7F1458D8B58330D8BA81560","num_area":"73.967100000000000000000000000000","ind_status":"AT","des_condic":"Analisado, aguardando atendimento a notificacao"},"geometry":{"type":"Polygon","coordinates":[[[-43.553,-22.6631],[-43.5466,-22.6609],[-43.5429,-22.6682],[-43.5481,-22.6707],[-43.5527,-22.6634],[-43.553,-22.6631]],[[-43.5436,-22.6644],[-43.5466,-22.6653],[-43.5435,-22.6651],[-43.5436,-22.6644]],[[-43.5461,-22.6635],[-43.5523,-22.6648],[-43.5456,-22.6639],[-43.5461,-22.6635]],[[-43.5497,-22.6701],[-43.5532,-22.6741],[-43.558,-22.6686],[-43.5532,-22.6674],[-43.5497,-22.6701]],[[-43.557,-22.6675],[-43.5531,-22.6692],[-43.557,-22.6678],[-43.557,-22.6675]]]}},{"type":"Feature","properties":{"cod_imovel":"RJ-3302270-2262694F0BC14D96B808C2F61F08169B","num_area":"444.37340000000000000000000000000","ind_status":"AT","des_condic":"Em analise"},"geometry":{"type":"Polygon","coordinates":[[[-43.5762,-22.6063],[-43.5741,-22.6123],[-43.5799,-22.6164],[-43.5762,-22.6116],[-43.5788,-22.6153],[-43.582,-22.6126],[-43.5841,-22.617],[-43.5763,-22.6063],[-43.5762,-22.6063]],[[-43.5944,-22.6209],[-43.5861,-22.6139],[-43.5885,-22.6054],[-43.5836,-22.6111],[-43.5807,-22.6068],[-43.5856,-22.6102],[-43.5832,-22.6178],[-43.5944,-22.6208],[-43.5944,-22.6209]],[[-43.5851,-22.6094],[-43.5867,-22.6056],[-43.5851,-22.6094],[-43.5851,-22.6094]],[[-43.5685,-22.6185],[-43.5638,-22.618],[-43.5726,-22.6186],[-43.5685,-22.6185],[-43.5685,-22.6185]],[[-43.5779,-22.6057],[-43.5805,-22.6089],[-43.5779,-22.6057],[-43.5779,-22.6057]],[[-43.5765,-22.6049],[-43.5714,-22.6054],[-43.5726,-22.6092],[-43.5765,-22.6049],[-43.5765,-22.6049]],[[-43.5709,-22.6105],[-43.5679,-22.6154],[-43.5727,-22.614],[-43.5734,-22.6176],[-43.57,-22.6166],[-43.5775,-22.6203],[-43.5735,-22.618],[-43.5706,-22.6234],[-43.5718,-22.6194],[-43.566,-22.6191],[-43.5694,-22.6272],[-43.5789,-22.6201],[-43.594,-22.6207],[-43.5708,-22.6105],[-43.5709,-22.6105]],[[-43.5954,-22.6187],[-43.5987,-22.6153],[-43.5953,-22.6187],[-43.5954,-22.6187]],[[-43.5998,-22.613],[-43.5949,-22.6145],[-43.5997,-22.613],[-43.5998,-22.613]],[[-43.6002,-22.6102],[-43.5887,-22.6085],[-43.5862,-22.6139],[-43.594,-22.6108],[-43.5897,-22.6135],[-43.593,-22.6188],[-43.5939,-22.6103],[-43.5958,-22.6134],[-43.6,-22.6102],[-43.6002,-22.6102]],[[-43.5697,-22.6164],[-43.5661,-22.6162],[-43.5734,-22.618],[-43.5697,-22.6165],[-43.5697,-22.6164]],[[-43.5887,-22.6076],[-43.5892,-22.6045],[-43.5887,-22.6076],[-43.5887,-22.6076]],[[-43.5792,-22.5998],[-43.576,-22.5988],[-43.5792,-22.5999],[-43.5792,-22.5998]],[[-43.5942,-22.6059],[-43.5986,-22.6049],[-43.5911,-22.6059],[-43.5942,-22.6059],[-43.5942,-22.6059]],[[-43.5939,-22.6074],[-43.5906,-22.6084],[-43.594,-22.6075],[-43.5939,-22.6074]],[[-43.5818,-22.6064],[-43.5844,-22.6083],[-43.5819,-22.6063],[-43.5818,-22.6064]]]}},{"type":"Feature","properties":{"cod_imovel":"RJ-3302270-986460835C4F447F93CFDE2880854FF1","num_area":"58.241600000000000000000000000000","ind_status":"AT","des_condic":"Em analise"},"geometry":{"type":"Polygon","coordinates":[[[-43.6206,-22.6395],[-43.6256,-22.6407],[-43.6206,-22.6395],[-43.6206,-22.6395]],[[-43.6246,-22.6382],[-43.6216,-22.6352],[-43.6245,-22.6382],[-43.6246,-22.6382]],[[-43.6149,-22.6374],[-43.6142,-22.641],[-43.6181,-22.638],[-43.6149,-22.6374],[-43.6149,-22.6374]],[[-43.6213,-22.6342],[-43.6168,-22.6336],[-43.6213,-22.6342],[-43.6213,-22.6342]],[[-43.6154,-22.6361],[-43.6194,-22.6382],[-43.6153,-22.6363],[-43.6154,-22.6361]],[[-43.6195,-22.6382],[-43.6215,-22.6352],[-43.6164,-22.6361],[-43.6194,-22.6381],[-43.6195,-22.6382]]]}},{"type":"Feature","properties":{"cod_imovel":"RJ-3302270-CDB32835FF3841F7B4D238F647537A01","num_area":"3.4773000000000000000000000000000","ind_status":"PE","des_condic":"Analisado, aguardando atendimento a notificacao"},"geometry":{"type":"Polygon","coordinates":[[[-43.6353,-22.706],[-43.634,-22.7022],[-43.6345,-22.7065],[-43.6353,-22.706]]]}},{"type":"Feature","properties":{"cod_imovel":"RJ-3302270-8F4B4CC53ECB4C949D9E963AD414EACF","num_area":"5.4400000000000000000000000000000","ind_status":"AT","des_condic":"Aguardando analise"},"geometry":{"type":"Polygon","coordinates":[[[-43.5869,-22.644],[-43.5834,-22.6459],[-43.5876,-22.6444],[-43.5869,-22.644]]]}},{"type":"Feature","properties":{"cod_imovel":"RJ-3302270-6124687041C8486AB2CFB4C1C91121A3","num_area":"22.338200000000000000000000000000","ind_status":"AT","des_condic":"Aguardando analise"},"geometry":{"type":"Polygon","coordinates":[[[-43.5615,-22.642],[-43.5644,-22.6377],[-43.5589,-22.6366],[-43.5628,-22.6386],[-43.5578,-22.6383],[-43.5602,-22.641],[-43.5615,-22.642]]]}},{"type":"Feature","properties":{"cod_imovel":"RJ-3302270-1E7FE337DFAB4B4F92217FB6795AAB27","num_area":"33.655200000000000000000000000000","ind_status":"AT","des_condic":"Aguardando analise"},"geometry":{"type":"Polygon","coordinates":[[[-43.6328,-22.7159],[-43.627,-22.7174],[-43.6288,-22.7221],[-43.6335,-22.721],[-43.6339,-22.7152],[-43.6328,-22.7159]]]}},{"type":"Feature","properties":{"cod_imovel":"RJ-3302270-AADEB3B83368438C8B66D613D09BC7B1","num_area":"13.662800000000000000000000000000","ind_status":"AT","des_condic":"Aguardando analise"},"geometry":{"type":"Polygon","coordinates":[[[-43.5918,-22.6489],[-43.5931,-22.6456],[-43.589,-22.6449],[-43.5912,-22.6484],[-43.5918,-22.6489]]]}},{"type":"Feature","properties":{"cod_imovel":"RJ-3302270-29F83C1754714D019621E13F4F59E250","num_area":"5.6573000000000000000000000000000","ind_status":"AT","des_condic":"Aguardando analise"},"geometry":{"type":"Polygon","coordinates":[[[-43.5577,-22.6486],[-43.5542,-22.6502],[-43.5577,-22.6487],[-43.5577,-22.6486]]]}},{"type":"Feature","properties":{"cod_imovel":"RJ-3302270-8BF42BD592D24AD69CCFF94EA08C26A2","num_area":"3.4977000000000000000000000000000","ind_status":"AT","des_condic":"Aguardando analise"},"geometry":{"type":"Polygon","coordinates":[[[-43.5779,-22.6319],[-43.577,-22.6287],[-43.5779,-22.632],[-43.5779,-22.6319]]]}},{"type":"Feature","properties":{"cod_imovel":"RJ-3302270-D90CF376DE224B96B0E79C464170EAEA","num_area":"6.8715000000000000000000000000000","ind_status":"AT","des_condic":"Aguardando analise"},"geometry":{"type":"Polygon","coordinates":[[[-43.5699,-22.6438],[-43.5692,-22.6488],[-43.5699,-22.6439],[-43.5699,-22.6438]]]}},{"type":"Feature","properties":{"cod_imovel":"RJ-3302270-1E15FE4E27E541B7A10BDC0CC4861811","num_area":"9.1131000000000000000000000000000","ind_status":"AT","des_condic":"Aguardando analise"},"geometry":{"type":"Polygon","coordinates":[[[-43.5682,-22.6514],[-43.5671,-22.6476],[-43.5649,-22.6519],[-43.5682,-22.6514],[-43.5682,-22.6514]]]}},{"type":"Feature","properties":{"cod_imovel":"RJ-3302270-A21CDF02B2B045079E25FFDD731F412C","num_area":"5.1427000000000000000000000000000","ind_status":"AT","des_condic":"Aguardando analise"},"geometry":{"type":"Polygon","coordinates":[[[-43.5932,-22.6223],[-43.5921,-22.6256],[-43.5934,-22.6224],[-43.5932,-22.6223]]]}},{"type":"Feature","properties":{"cod_imovel":"RJ-3302270-271C0853BEA742C283AA1EBC270BC0FE","num_area":"9.1933000000000000000000000000000","ind_status":"AT","des_condic":"Aguardando analise"},"geometry":{"type":"Polygon","coordinates":[[[-43.6705,-22.6495],[-43.6677,-22.6527],[-43.6705,-22.6514],[-43.6705,-22.6495]]]}},{"type":"Feature","properties":{"cod_imovel":"RJ-3302270-F1E4D46A9D2E4EBA9F5BC428CA3FE74E","num_area":"13.399400000000000000000000000000","ind_status":"AT","des_condic":"Aguardando analise"},"geometry":{"type":"Polygon","coordinates":[[[-43.5538,-22.6732],[-43.5558,-22.6773],[-43.5566,-22.6711],[-43.5538,-22.6732],[-43.5538,-22.6732]]]}},{"type":"Feature","properties":{"cod_imovel":"RJ-3302270-DEBAD2C4048349808CC28165E9FFECF1","num_area":"14.773700000000000000000000000000","ind_status":"AT","des_condic":"Aguardando analise"},"geometry":{"type":"Polygon","coordinates":[[[-43.5567,-22.6712],[-43.5583,-22.6752],[-43.5603,-22.6699],[-43.5568,-22.6711],[-43.5567,-22.6712]]]}},{"type":"Feature","properties":{"cod_imovel":"RJ-3302270-1B7EDFDD8ABB4A54B8A6826859CFF5D6","num_area":"26.998300000000000000000000000000","ind_status":"AT","des_condic":"Aguardando analise"},"geometry":{"type":"Polygon","coordinates":[[[-43.5655,-22.6644],[-43.5572,-22.6682],[-43.5655,-22.6645],[-43.5655,-22.6644]]]}},{"type":"Feature","properties":{"cod_imovel":"RJ-3302270-8B3BB8821C8F41ECA1380D0599F49F80","num_area":"14.589600000000000000000000000000","ind_status":"AT","des_condic":"Aguardando analise"},"geometry":{"type":"Polygon","coordinates":[[[-43.5722,-22.6494],[-43.5759,-22.6526],[-43.5722,-22.6494],[-43.5722,-22.6494]]]}},{"type":"Feature","properties":{"cod_imovel":"RJ-3302270-D5C9A01E8D93418EA5D2446009F0A333","num_area":"16.298500000000000000000000000000","ind_status":"AT","des_condic":"Aguardando analise"},"geometry":{"type":"Polygon","coordinates":[[[-43.5669,-22.6696],[-43.5657,-22.6642],[-43.5611,-22.6692],[-43.567,-22.6696],[-43.5669,-22.6696]],[[-43.5652,-22.6651],[-43.5657,-22.6681],[-43.565,-22.6651],[-43.5652,-22.6651]],[[-43.5651,-22.6697],[-43.5655,-22.6759],[-43.5652,-22.6697],[-43.5651,-22.6697]],[[-43.5658,-22.6757],[-43.5674,-22.671],[-43.5658,-22.6757],[-43.5658,-22.6757]]]}},{"type":"Feature","properties":{"cod_imovel":"RJ-3302270-333A936CE53D4DBAACF481DC1EDA130A","num_area":"14.933900000000000000000000000000","ind_status":"AT","des_condic":"Aguardando analise"},"geometry":{"type":"Polygon","coordinates":[[[-43.5885,-22.6473],[-43.5849,-22.6493],[-43.5885,-22.6473],[-43.5885,-22.6473]]]}},{"type":"Feature","properties":{"cod_imovel":"RJ-3302270-3BE8A98588114146AEC813201E976BE0","num_area":"11.416700000000000000000000000000","ind_status":"PE","des_condic":"Analisado, aguardando atendimento a notificacao"},"geometry":{"type":"Polygon","coordinates":[[[-43.6263,-22.7122],[-43.6214,-22.7116],[-43.6269,-22.7129],[-43.6263,-22.7122]]]}},{"type":"Feature","properties":{"cod_imovel":"RJ-3302270-6E0A318FFD2743E4B11C1261AA00A475","num_area":"17.035100000000000000000000000000","ind_status":"PE","des_condic":"Analisado, aguardando atendimento a notificacao"},"geometry":{"type":"Polygon","coordinates":[[[-43.5786,-22.6886],[-43.5763,-22.6834],[-43.5778,-22.6885],[-43.5786,-22.6886]]]}},{"type":"Feature","properties":{"cod_imovel":"RJ-3302270-F65530F3BADE48469DC35898105B222C","num_area":"4.5318000000000000000000000000000","ind_status":"AT","des_condic":"Aguardando analise"},"geometry":{"type":"Polygon","coordinates":[[[-43.5904,-22.644],[-43.5937,-22.6444],[-43.5904,-22.6439],[-43.5904,-22.644]]]}},{"type":"Feature","properties":{"cod_imovel":"RJ-3302270-02FF84BCBF6B433A9D0E4B7103550C8E","num_area":"17.637300000000000000000000000000","ind_status":"AT","des_condic":"Aguardando analise"},"geometry":{"type":"Polygon","coordinates":[[[-43.5801,-22.6567],[-43.5735,-22.655],[-43.5785,-22.6608],[-43.5827,-22.6587],[-43.5801,-22.6569],[-43.5801,-22.6567]]]}},{"type":"Feature","properties":{"cod_imovel":"RJ-3302270-C5BCCEA72A414D969770ED8ACF175328","num_area":"5.6791000000000000000000000000000","ind_status":"AT","des_condic":"Aguardando analise"},"geometry":{"type":"Polygon","coordinates":[[[-43.6411,-22.6325],[-43.639,-22.6303],[-43.6411,-22.6325],[-43.6411,-22.6325]]]}},{"type":"Feature","properties":{"cod_imovel":"RJ-3302270-5A4717C2F7024D529363051BC06A3B21","num_area":"61.497800000000000000000000000000","ind_status":"AT","des_condic":"Aguardando analise"},"geometry":{"type":"Polygon","coordinates":[[[-43.6266,-22.6441],[-43.6338,-22.6546],[-43.6318,-22.6588],[-43.637,-22.6517],[-43.6272,-22.6446],[-43.6266,-22.6441]]]}},{"type":"Feature","properties":{"cod_imovel":"RJ-3302270-CE2E28A9C03B40BEBD718AD49F0C352E","num_area":"9.3737000000000000000000000000000","ind_status":"AT","des_condic":"Aguardando analise"},"geometry":{"type":"Polygon","coordinates":[[[-43.5753,-22.6191],[-43.5782,-22.6204],[-43.5757,-22.6159],[-43.5753,-22.6191],[-43.5753,-22.6191]]]}},{"type":"Feature","properties":{"cod_imovel":"RJ-3302270-9DAA7FFE956846F0864540D8A0C346E8","num_area":"13.255400000000000000000000000000","ind_status":"AT","des_condic":"Aguardando analise"},"geometry":{"type":"Polygon","coordinates":[[[-43.6051,-22.632],[-43.6089,-22.6362],[-43.605,-22.6319],[-43.6051,-22.632]]]}},{"type":"Feature","properties":{"cod_imovel":"RJ-3302270-3FF777BF6409447AAD45214AA6F98BEC","num_area":"20.757200000000000000000000000000","ind_status":"AT","des_condic":"Aguardando analise"},"geometry":{"type":"Polygon","coordinates":[[[-43.5727,-22.6417],[-43.5675,-22.6349],[-43.5718,-22.6414],[-43.5727,-22.6417]]]}},{"type":"Feature","properties":{"cod_imovel":"RJ-3302270-8FB484058C9E4933BAA494B440033121","num_area":"1.6509000000000000000000000000000","ind_status":"AT","des_condic":"Aguardando analise"},"geometry":{"type":"Polygon","coordinates":[[[-43.5514,-22.6538],[-43.5496,-22.6571],[-43.5513,-22.654],[-43.5514,-22.6538]]]}},{"type":"Feature","properties":{"cod_imovel":"RJ-3302270-C00C5DFC7B264C479562DFAF17F75918","num_area":"19.884200000000000000000000000000","ind_status":"AT","des_condic":"Aguardando analise"},"geometry":{"type":"Polygon","coordinates":[[[-43.6591,-22.6331],[-43.6606,-22.638],[-43.6593,-22.633],[-43.6591,-22.6331]]]}},{"type":"Feature","properties":{"cod_imovel":"RJ-3302270-F326E6CF0E674227902389A5B897A9DF","num_area":"10.655300000000000000000000000000","ind_status":"AT","des_condic":"Aguardando analise"},"geometry":{"type":"Polygon","coordinates":[[[-43.5928,-22.6561],[-43.5964,-22.6559],[-43.5933,-22.6556],[-43.5928,-22.6561]]]}},{"type":"Feature","properties":{"cod_imovel":"RJ-3302270-F281574ED14849BC89CCAA3CACFDDC37","num_area":"7.2168000000000000000000000000000","ind_status":"AT","des_condic":"Aguardando analise"},"geometry":{"type":"Polygon","coordinates":[[[-43.63,-22.6795],[-43.6309,-22.684],[-43.6304,-22.6796],[-43.63,-22.6795]]]}},{"type":"Feature","properties":{"cod_imovel":"RJ-3302270-F7535B4F827D465B876C972D24762472","num_area":"1.7906000000000000000000000000000","ind_status":"AT","des_condic":"Aguardando analise"},"geometry":{"type":"Polygon","coordinates":[[[-43.5769,-22.6748],[-43.5801,-22.6761],[-43.5772,-22.675],[-43.5769,-22.6748]]]}},{"type":"Feature","properties":{"cod_imovel":"RJ-3302270-E9DE8A799D8046348E8141E88E8AD256","num_area":"30.714300000000000000000000000000","ind_status":"AT","des_condic":"Aguardando analise"},"geometry":{"type":"Polygon","coordinates":[[[-43.5921,-22.6497],[-43.5886,-22.6474],[-43.5853,-22.6532],[-43.5909,-22.6509],[-43.5921,-22.6497]]]}},{"type":"Feature","properties":{"cod_imovel":"RJ-3302270-C3C07475530A496C8F8D763474172E63","num_area":"2.8954000000000000000000000000000","ind_status":"AT","des_condic":"Aguardando analise"},"geometry":{"type":"Polygon","coordinates":[[[-43.5975,-22.6335],[-43.5964,-22.637],[-43.5977,-22.6335],[-43.5975,-22.6335]]]}},{"type":"Feature","properties":{"cod_imovel":"RJ-3302270-D177F3F218AC4AF4B840138B0ED7474D","num_area":"17.915200000000000000000000000000","ind_status":"AT","des_condic":"Aguardando analise"},"geometry":{"type":"Polygon","coordinates":[[[-43.5925,-22.6285],[-43.5954,-22.6337],[-43.5956,-22.6276],[-43.5926,-22.6299],[-43.5925,-22.6285]]]}},{"type":"Feature","properties":{"cod_imovel":"RJ-3302270-DDF62FC0063149DA8C7F4B91A0303297","num_area":"21.243000000000000000000000000000","ind_status":"AT","des_condic":"Aguardando analise"},"geometry":{"type":"Polygon","coordinates":[[[-43.5794,-22.6789],[-43.5803,-22.6868],[-43.5795,-22.679],[-43.5794,-22.6789]]]}},{"type":"Feature","properties":{"cod_imovel":"RJ-3302270-5257EBAD35D849B8BB537EE38EA30F72","num_area":"25.054600000000000000000000000000","ind_status":"AT","des_condic":"Aguardando analise"},"geometry":{"type":"Polygon","coordinates":[[[-43.591,-22.6293],[-43.59,-22.6246],[-43.5862,-22.6293],[-43.5909,-22.6294],[-43.591,-22.6293]]]}},{"type":"Feature","properties":{"cod_imovel":"RJ-3302270-57FE36C450E34099940E59678A1AD465","num_area":"32.283300000000000000000000000000","ind_status":"AT","des_condic":"Aguardando analise"},"geometry":{"type":"Polygon","coordinates":[[[-43.5557,-22.6545],[-43.5609,-22.6612],[-43.5562,-22.6548],[-43.5557,-22.6545]],[[-43.5551,-22.654],[-43.5596,-22.6529],[-43.5551,-22.654],[-43.5551,-22.654]]]}},{"type":"Feature","properties":{"cod_imovel":"RJ-3302270-BCFA7F1902F74512B25043ECF07515D9","num_area":"3.8556000000000000000000000000000","ind_status":"AT","des_condic":"Aguardando analise"},"geometry":{"type":"Polygon","coordinates":[[[-43.5755,-22.6295],[-43.5725,-22.6283],[-43.5754,-22.6292],[-43.5755,-22.6295]]]}}]}