{"type":"FeatureCollection","features":[{"type":"Feature","properties":{"cod_imovel":"RJ-3302809-7112171673CC4B6D80FBC957169FFB05","num_area":"11.643100000000000000000000000000","ind_status":"AT","des_condic":"Aguardando analise"},"geometry":{"type":"Polygon","coordinates":[[[-43.7653,-22.53],[-43.769,-22.5318],[-43.7653,-22.53],[-43.7653,-22.53]],[[-43.7675,-22.5338],[-43.7634,-22.5319],[-43.7674,-22.5339],[-43.7675,-22.5338]]]}},{"type":"Feature","properties":{"cod_imovel":"RJ-3302809-E3204A9EC7EF408DAC66C2B23A54F1F1","num_area":"4.7634000000000000000000000000000","ind_status":"AT","des_condic":"Aguardando analise"},"geometry":{"type":"Polygon","coordinates":[[[-43.7053,-22.5378],[-43.7012,-22.538],[-43.7052,-22.5378],[-43.7053,-22.5378]]]}},{"type":"Feature","properties":{"cod_imovel":"RJ-3302809-7E3260F0C4D34DAA8AC6936E665C2498","num_area":"4.8724000000000000000000000000000","ind_status":"AT","des_condic":"Aguardando analise"},"geometry":{"type":"Polygon","coordinates":[[[-43.758,-22.4811],[-43.7499,-22.4805],[-43.7573,-22.482],[-43.758,-22.4811]],[[-43.7507,-22.4827],[-43.7542,-22.4843],[-43.7509,-22.4828],[-43.7507,-22.4827]]]}},{"type":"Feature","properties":{"cod_imovel":"RJ-3302809-D8A7BAA7ECF240FEAE1F4767A5AAE18C","num_area":"28.260200000000000000000000000000","ind_status":"AT","des_condic":"Aguardando analise"},"geometry":{"type":"Polygon","coordinates":[[[-43.729,-22.5472],[-43.722,-22.5569],[-43.7302,-22.5546],[-43.7269,-22.5555],[-43.7291,-22.5472],[-43.729,-22.5472]]]}},{"type":"Feature","properties":{"cod_imovel":"RJ-3302809-B2DBCFA8CE8C4549B9A906AAD615D5C8","num_area":"19.097800000000000000000000000000","ind_status":"AT","des_condic":"Aguardando analise"},"geometry":{"type":"Polygon","coordinates":[[[-43.7336,-22.5563],[-43.7326,-22.5603],[-43.7346,-22.5559],[-43.7336,-22.5563]],[[-43.7413,-22.5615],[-43.737,-22.5551],[-43.7378,-22.562],[-43.7412,-22.5611],[-43.7413,-22.5615]]]}},{"type":"Feature","properties":{"cod_imovel":"RJ-3302809-FE95367188954F129ACB343784ACC249","num_area":"13.844100000000000000000000000000","ind_status":"AT","des_condic":"Aguardando analise"},"geometry":{"type":"Polygon","coordinates":[[[-43.7471,-22.536],[-43.7527,-22.5397],[-43.7476,-22.5355],[-43.7471,-22.536]]]}},{"type":"Feature","properties":{"cod_imovel":"RJ-3302809-BF2B39E275C1444394C8EB976E7DDAEF","num_area":"15.925000000000000000000000000000","ind_status":"AT","des_condic":"Aguardando analise"},"geometry":{"type":"Polygon","coordinates":[[[-43.719,-22.5097],[-43.7131,-22.5113],[-43.7176,-22.5166],[-43.7156,-22.5115],[-43.7193,-22.5099],[-43.719,-22.5097]]]}},{"type":"Feature","properties":{"cod_imovel":"RJ-3302809-6E577422484940A99498CC1B79FCA9A3","num_area":"20.130600000000000000000000000000","ind_status":"AT","des_condic":"Aguardando analise"},"geometry":{"type":"Polygon","coordinates":[[[-43.7251,-22.5471],[-43.7223,-22.5497],[-43.7253,-22.5471],[-43.7251,-22.5471]],[[-43.724,-22.5503],[-43.7288,-22.5473],[-43.724,-22.5502],[-43.724,-22.5503]],[[-43.7288,-22.5473],[-43.726,-22.5454],[-43.7288,-22.5473],[-43.7288,-22.5473]]]}},{"type":"Feature","properties":{"cod_imovel":"RJ-3302809-6DBC76C046034500B0DE1BC00BF06EFA","num_area":"14.602500000000000000000000000000","ind_status":"AT","des_condic":"Aguardando analise"},"geometry":{"type":"Polygon","coordinates":[[[-43.7668,-22.5546],[-43.7703,-22.551],[-43.7667,-22.5544],[-43.7668,-22.5546]],[[-43.7704,-22.551],[-43.7736,-22.5537],[-43.77,-22.5507],[-43.7704,-22.551]]]}},{"type":"Feature","properties":{"cod_imovel":"RJ-3302809-466FDDB249084E9EB9D297DDE7356FA2","num_area":"6.5137000000000000000000000000000","ind_status":"AT","des_condic":"Aguardando analise"},"geometry":{"type":"Polygon","coordinates":[[[-43.7082,-22.5166],[-43.7048,-22.516],[-43.7081,-22.5172],[-43.7082,-22.5166]]]}},{"type":"Feature","properties":{"cod_imovel":"RJ-3302809-81172498A93145ECA524D12E1183DCFC","num_area":"6.1760000000000000000000000000000","ind_status":"AT","des_condic":"Aguardando analise"},"geometry":{"type":"Polygon","coordinates":[[[-43.7023,-22.5329],[-43.705,-22.5296],[-43.7023,-22.5327],[-43.7023,-22.5329]]]}},{"type":"Feature","properties":{"cod_imovel":"RJ-3302809-D55C7E434BE74CF9BAF4D18DA62345C4","num_area":"48.308800000000000000000000000000","ind_status":"AT","des_condic":"Aguardando analise"},"geometry":{"type":"Polygon","coordinates":[[[-43.7545,-22.4855],[-43.7496,-22.4857],[-43.7513,-22.4917],[-43.7597,-22.4916],[-43.751,-22.4867],[-43.7543,-22.4858],[-43.7545,-22.4855]]]}},{"type":"Feature","properties":{"cod_imovel":"RJ-3302809-46755810FD7643E0ABC1E952D5012F51","num_area":"7.8306000000000000000000000000000","ind_status":"AT","des_condic":"Aguardando analise"},"geometry":{"type":"Polygon","coordinates":[[[-43.7483,-22.4846],[-43.745,-22.4861],[-43.7483,-22.4846],[-43.7483,-22.4846]]]}},{"type":"Feature","properties":{"cod_imovel":"RJ-3302809-4084A4E75D0F44B7B7A700E32B135817","num_area":"34.024300000000000000000000000000","ind_status":"AT","des_condic":"Aguardando analise"},"geometry":{"type":"Polygon","coordinates":[[[-43.7149,-22.5396],[-43.7098,-22.5376],[-43.7088,-22.5454],[-43.7143,-22.5404],[-43.7149,-22.5396]]]}},{"type":"Feature","properties":{"cod_imovel":"RJ-3302809-A5F700FCE9E7400AB485188A5E1D6A5F","num_area":"5.4358000000000000000000000000000","ind_status":"AT","des_condic":"Aguardando analise"},"geometry":{"type":"Polygon","coordinates":[[[-43.785,-22.5499],[-43.7849,-22.5542],[-43.7878,-22.5506],[-43.785,-22.5499]]]}},{"type":"Feature","properties":{"cod_imovel":"RJ-3302809-25E71C5BEBD74748B2D008937043FEF5","num_area":"6.5837000000000000000000000000000","ind_status":"AT","des_condic":"Aguardando analise"},"geometry":{"type":"Polygon","coordinates":[[[-43.7764,-22.5451],[-43.7811,-22.5439],[-43.7762,-22.545],[-43.7764,-22.5451]]]}},{"type":"Feature","properties":{"cod_imovel":"RJ-3302809-6C6C2341ED434C42884CC213FC7EF699","num_area":"11.162600000000000000000000000000","ind_status":"AT","des_condic":"Aguardando analise"},"geometry":{"type":"Polygon","coordinates":[[[-43.7899,-22.5404],[-43.7855,-22.5439],[-43.7893,-22.5418],[-43.7899,-22.5404]]]}},{"type":"Feature","properties":{"cod_imovel":"RJ-3302809-CAFDE5EC34D441B190F7FAB5A6FF4E0E","num_area":"4.6004000000000000000000000000000","ind_status":"AT","des_condic":"Aguardando analise"},"geometry":{"type":"Polygon","coordinates":[[[-43.7114,-22.4893],[-43.7081,-22.489],[-43.7113,-22.4892],[-43.7114,-22.4893]]]}},{"type":"Feature","properties":{"cod_imovel":"RJ-3302809-6012841FA6FC4B8185F9D2488B2F0566","num_area":"25.048100000000000000000000000000","ind_status":"AT","des_condic":"Aguardando analise"},"geometry":{"type":"Polygon","coordinates":[[[-43.7319,-22.5086],[-43.7371,-22.5103],[-43.7323,-22.5092],[-43.7319,-22.5086]],[[-43.7372,-22.5103],[-43.7314,-22.5101],[-43.7421,-22.5116],[-43.7377,-22.5105],[-43.7372,-22.5103]],[[-43.7304,-22.5076],[-43.7271,-22.5086],[-43.7304,-22.5075],[-43.7304,-22.5076]]]}},{"type":"Feature","properties":{"cod_imovel":"RJ-3302809-EE89F0A68B6E4BAB9BAD683057CF6175","num_area":"18.007000000000000000000000000000","ind_status":"AT","des_condic":"Aguardando analise"},"geometry":{"type":"Polygon","coordinates":[[[-43.7699,-22.5348],[-43.764,-22.5364],[-43.7679,-22.5388],[-43.77,-22.5352],[-43.7699,-22.5348]],[[-43.7668,-22.5381],[-43.7642,-22.5345],[-43.7669,-22.5377],[-43.7668,-22.5381]]]}},{"type":"Feature","properties":{"cod_imovel":"RJ-3302809-898F489F7F6A452ABF70287E5FCA01D9","num_area":"26.329500000000000000000000000000","ind_status":"AT","des_condic":"Aguardando analise"},"geometry":{"type":"Polygon","coordinates":[[[-43.785,-22.545],[-43.7874,-22.5392],[-43.7833,-22.5374],[-43.7843,-22.5442],[-43.785,-22.545]]]}},{"type":"Feature","properties":{"cod_imovel":"RJ-3302809-1DE5F53CAF0B470EBE89E29AB98A6AD0","num_area":"11.919700000000000000000000000000","ind_status":"AT","des_condic":"Aguardando analise"},"geometry":{"type":"Polygon","coordinates":[[[-43.789,-22.5457],[-43.79,-22.5403],[-43.7887,-22.5457],[-43.789,-22.5457]]]}},{"type":"Feature","properties":{"cod_imovel":"RJ-3302809-8C5D74118E944AA2B5961F8ABAFC01DA","num_area":"59.395300000000000000000000000000","ind_status":"AT","des_condic":"Aguardando analise"},"geometry":{"type":"Polygon","coordinates":[[[-43.7466,-22.5136],[-43.75,-22.5156],[-43.7466,-22.5136],[-43.7466,-22.5136]],[[-43.7615,-22.5226],[-43.7558,-22.521],[-43.7536,-22.5249],[-43.7606,-22.5234],[-43.7615,-22.5226]],[[-43.7502,-22.5194],[-43.7567,-22.5185],[-43.7498,-22.5187],[-43.7502,-22.5194]],[[-43.7557,-22.5207],[-43.7604,-22.519],[-43.7556,-22.5204],[-43.7557,-22.5207]]]}},{"type":"Feature","properties":{"cod_imovel":"RJ-3302809-68CAF0B46B164F378BE45A124A7F72AA","num_area":"11.289300000000000000000000000000","ind_status":"AT","des_condic":"Aguardando analise"},"geometry":{"type":"Polygon","coordinates":[[[-43.7063,-22.4744],[-43.7002,-22.472],[-43.705,-22.4735],[-43.7063,-22.4744]],[[-43.7002,-22.4709],[-43.6984,-22.4737],[-43.7002,-22.4709],[-43.7002,-22.4709]],[[-43.6966,-22.4747],[-43.6999,-22.4747],[-43.6966,-22.4747],[-43.6966,-22.4747]]]}},{"type":"Feature","properties":{"cod_imovel":"RJ-3302809-2E851B5147BF473B9D3C3539ED472134","num_area":"10.142000000000000000000000000000","ind_status":"AT","des_condic":"Aguardando analise"},"geometry":{"type":"Polygon","coordinates":[[[-43.7458,-22.4852],[-43.7489,-22.4797],[-43.7458,-22.4852],[-43.7458,-22.4852]],[[-43.7491,-22.4785],[-43.7462,-22.4812],[-43.749,-22.4785],[-43.7491,-22.4785]]]}},{"type":"Feature","properties":{"cod_imovel":"RJ-3302809-49B211364AE442818C6A6CE43B8564E5","num_area":"0.4971000000000000000000000000000","ind_status":"AT","des_condic":"Aguardando analise"},"geometry":{"type":"Polygon","coordinates":[[[-43.6943,-22.4824],[-43.6957,-22.4852],[-43.6943,-22.4824],[-43.6943,-22.4824]]]}},{"type":"Feature","properties":{"cod_imovel":"RJ-3302809-6457B7BC4C9E47D18C5F0CBBCF3BCBEF","num_area":"14.668500000000000000000000000000","ind_status":"AT","des_condic":"Aguardando analise"},"geometry":{"type":"Polygon","coordinates":[[[-43.7416,-22.4815],[-43.7448,-22.4825],[-43.7417,-22.4817],[-43.7416,-22.4815]],[[-43.7445,-22.485],[-43.746,-22.4824],[-43.7445,-22.485],[-43.7445,-22.485]]]}},{"type":"Feature","properties":{"cod_imovel":"RJ-3302809-6AE226AB29714C43BE1B38A12D75AB87","num_area":"7.9472000000000000000000000000000","ind_status":"AT","des_condic":"Aguardando analise"},"geometry":{"type":"Polygon","coordinates":[[[-43.7107,-22.5082],[-43.7108,-22.5127],[-43.7107,-22.5082],[-43.7107,-22.5082]]]}},{"type":"Feature","properties":{"cod_imovel":"RJ-3302809-FB3F18199577436D97CAAC094BC32150","num_area":"17.197700000000000000000000000000","ind_status":"AT","des_condic":"Aguardando analise"},"geometry":{"type":"Polygon","coordinates":[[[-43.792,-22.5344],[-43.7878,-22.5345],[-43.7921,-22.5343],[-43.792,-22.5344]],[[-43.7878,-22.5347],[-43.7911,-22.5354],[-43.7879,-22.5347],[-43.7878,-22.5347]],[[-43.7916,-22.5358],[-43.7872,-22.5364],[-43.7903,-22.5395],[-43.7916,-22.5358]]]}},{"type":"Feature","properties":{"cod_imovel":"RJ-3302809-E533215264D4402D90EA698076D745D1","num_area":"18.388200000000000000000000000000","ind_status":"AT","des_condic":"Aguardando analise"},"geometry":{"type":"Polygon","coordinates":[[[-43.7717,-22.5406],[-43.7767,-22.5444],[-43.7782,-22.5397],[-43.7727,-22.541],[-43.7717,-22.5406]]]}},{"type":"Feature","properties":{"cod_imovel":"RJ-3302809-F0C20AE65A78437A81FAF0A873E3CAC6","num_area":"9.3011000000000000000000000000000","ind_status":"AT","des_condic":"Aguardando analise"},"geometry":{"type":"Polygon","coordinates":[[[-43.7465,-22.4818],[-43.7416,-22.4816],[-43.7465,-22.4818],[-43.7465,-22.4818]]]}}]}