{"type":"FeatureCollection","features":[{"type":"Feature","properties":{"cod_imovel":"RJ-3305158-AF4ACC1203D540918741BADB2D21D3D2","num_area":"4.5376000000000000000000000000000","ind_status":"AT","des_condic":"Aguardando analise"},"geometry":{"type":"Polygon","coordinates":[[[-42.9389,-22.1595],[-42.9385,-22.1633],[-42.9367,-22.1607],[-42.9389,-22.1595]]]}},{"type":"Feature","properties":{"cod_imovel":"RJ-3305158-CAF643636CAF4EFAAA05E123A439E2B8","num_area":"49.344900000000000000000000000000","ind_status":"PE","des_condic":"Aguardando analise"},"geometry":{"type":"Polygon","coordinates":[[[-42.9422,-22.1186],[-42.9426,-22.1242],[-42.9404,-22.1207],[-42.9367,-22.1238],[-42.9373,-22.1205],[-42.9353,-22.1238],[-42.9339,-22.1197],[-42.9402,-22.1288],[-42.9419,-22.1197],[-42.9422,-22.1186]]]}},{"type":"Feature","properties":{"cod_imovel":"RJ-3305158-3708D5AFABAE41E4B5CDF2C20A59F34D","num_area":"7.9879000000000000000000000000000","ind_status":"PE","des_condic":"Aguardando analise"},"geometry":{"type":"Polygon","coordinates":[[[-42.9349,-22.1301],[-42.9379,-22.1276],[-42.9351,-22.13],[-42.9349,-22.1301]],[[-42.934,-22.1304],[-42.9395,-22.1285],[-42.934,-22.1304],[-42.934,-22.1304]],[[-42.9365,-22.1314],[-42.9408,-22.1293],[-42.9377,-22.1308],[-42.9365,-22.1314]],[[-42.9377,-22.1275],[-42.9336,-22.1295],[-42.9375,-22.1276],[-42.9377,-22.1275]]]}},{"type":"Feature","properties":{"cod_imovel":"RJ-3305158-137C2BB7B24E42D7979EBDB1CFE7C9D1","num_area":"12.308500000000000000000000000000","ind_status":"PE","des_condic":"Aguardando analise"},"geometry":{"type":"Polygon","coordinates":[[[-42.9352,-22.1238],[-42.9346,-22.1208],[-42.9314,-22.1262],[-42.9349,-22.1244],[-42.9352,-22.1238]]]}},{"type":"Feature","properties":{"cod_imovel":"RJ-3305158-4D096958F72D40C78987E0E63368396A","num_area":"14.707000000000000000000000000000","ind_status":"PE","des_condic":"Analisado, aguardando atendimento a notificacao"},"geometry":{"type":"Polygon","coordinates":[[[-42.8923,-22.1298],[-42.8868,-22.1279],[-42.8917,-22.1305],[-42.8923,-22.1298]],[[-42.8903,-22.1271],[-42.8919,-22.124],[-42.8903,-22.127],[-42.8903,-22.1271]]]}},{"type":"Feature","properties":{"cod_imovel":"RJ-3305158-7EF2002F68A2479BAE269DBE5A2CC3D3","num_area":"12.189500000000000000000000000000","ind_status":"PE","des_condic":"Aguardando analise"},"geometry":{"type":"Polygon","coordinates":[[[-42.7734,-22.1312],[-42.7719,-22.1274],[-42.7734,-22.1311],[-42.7734,-22.1312]]]}},{"type":"Feature","properties":{"cod_imovel":"RJ-3305158-173AD63EC5E1494BA47F23384D2EA27E","num_area":"356.98400000000000000000000000000","ind_status":"PE","des_condic":"Aguardando analise, apos revisao ou atendimento da notificacao"},"geometry":{"type":"Polygon","coordinates":[[[-43.0051,-22.2159],[-42.9984,-22.2108],[-42.9981,-22.2149],[-43.0051,-22.2159],[-43.0051,-22.2159]],[[-43.0013,-22.2052],[-42.9984,-22.2087],[-43.0016,-22.2054],[-43.0013,-22.2052]],[[-42.996,-22.237],[-42.9978,-22.2306],[-42.9934,-22.236],[-42.996,-22.237]],[[-42.9981,-22.2196],[-42.9916,-22.222],[-43.004,-22.2204],[-42.9983,-22.2197],[-42.9981,-22.2196]],[[-42.9947,-22.2134],[-42.9935,-22.2163],[-42.9947,-22.2134],[-42.9947,-22.2134]],[[-42.9935,-22.2163],[-42.9974,-22.2108],[-42.9935,-22.2163],[-42.9935,-22.2163]],[[-42.9872,-22.237],[-42.9845,-22.2346],[-42.9872,-22.2369],[-42.9872,-22.237]],[[-42.9815,-22.2285],[-42.9917,-22.2353],[-42.9897,-22.2328],[-42.9943,-22.2325],[-42.9849,-22.2321],[-42.9965,-22.2315],[-42.9843,-22.2301],[-42.9952,-22.2275],[-42.9898,-22.2269],[-42.9907,-22.2227],[-42.9834,-22.2268],[-42.993,-22.217],[-42.9868,-22.2199],[-42.9926,-22.2067],[-42.9862,-22.199],[-42.9894,-22.2109],[-42.983,-22.2149],[-42.9816,-22.2285],[-42.9815,-22.2285]],[[-42.9934,-22.2345],[-42.9968,-22.2325],[-42.9935,-22.2344],[-42.9934,-22.2345]],[[-42.9971,-22.2344],[-43.0042,-22.2223],[-42.9965,-22.2276],[-42.9971,-22.2344],[-42.9971,-22.2344]],[[-42.9926,-22.2068],[-42.9929,-22.2102],[-42.991,-22.203],[-42.9926,-22.2067],[-42.9926,-22.2068]],[[-42.9965,-22.2034],[-43.0011,-22.2028],[-42.9938,-22.1999],[-42.9972,-22.201],[-42.9919,-22.2036],[-42.9965,-22.2034],[-42.9965,-22.2034]],[[-42.9931,-22.2023],[-42.99,-22.2011],[-42.9933,-22.2024],[-42.9931,-22.2023]]]}},{"type":"Feature","properties":{"cod_imovel":"RJ-3305158-9906A75A72AB45C98D80A79EA7C4E787","num_area":"18.887500000000000000000000000000","ind_status":"PE","des_condic":"Analisado, aguardando atendimento a notificacao"},"geometry":{"type":"Polygon","coordinates":[[[-42.8288,-22.1624],[-42.8262,-22.1678],[-42.829,-22.1625],[-42.8288,-22.1624]]]}},{"type":"Feature","properties":{"cod_imovel":"RJ-3305158-EE47F35519E0483F939098A9BE9F2628","num_area":"190.68060000000000000000000000000","ind_status":"AT","des_condic":"Aguardando analise"},"geometry":{"type":"Polygon","coordinates":[[[-42.967,-22.1621],[-42.9694,-22.1664],[-42.97,-22.1597],[-42.9789,-22.1525],[-42.9827,-22.1354],[-42.9752,-22.1359],[-42.9717,-22.1499],[-42.977,-22.1476],[-42.9763,-22.1529],[-42.9705,-22.1565],[-42.9666,-22.1518],[-42.9653,-22.16],[-42.9776,-22.1532],[-42.9765,-22.1435],[-42.9818,-22.1399],[-42.9765,-22.1435],[-42.9776,-22.1532],[-42.9678,-22.1589],[-42.967,-22.1621]]]}},{"type":"Feature","properties":{"cod_imovel":"RJ-3305158-2B1812130195461FA5E65089646F2A11","num_area":"6.3269000000000000000000000000000","ind_status":"AT","des_condic":"Aguardando analise"},"geometry":{"type":"Polygon","coordinates":[[[-42.9291,-22.1324],[-42.925,-22.1327],[-42.9287,-22.1325],[-42.9291,-22.1324]]]}},{"type":"Feature","properties":{"cod_imovel":"RJ-3305158-1A4F149828E94366BFF93431ADB1CB6F","num_area":"6.5405000000000000000000000000000","ind_status":"AT","des_condic":"Aguardando analise"},"geometry":{"type":"Polygon","coordinates":[[[-42.9544,-22.2246],[-42.9511,-22.2249],[-42.9544,-22.2247],[-42.9544,-22.2246]],[[-42.9523,-22.2241],[-42.9494,-22.2258],[-42.9523,-22.2241],[-42.9523,-22.2241]]]}},{"type":"Feature","properties":{"cod_imovel":"RJ-3305158-B82675F7DF454399B56B4474AE236CF3","num_area":"145.19950000000000000000000000000","ind_status":"AT","des_condic":"Em analise"},"geometry":{"type":"Polygon","coordinates":[[[-42.8839,-22.1729],[-42.8782,-22.1776],[-42.8856,-22.1787],[-42.8842,-22.1728],[-42.8839,-22.1729]],[[-42.8857,-22.1787],[-42.8747,-22.1789],[-42.8704,-22.1856],[-42.8856,-22.1825],[-42.8872,-22.1858],[-42.8858,-22.1784],[-42.8857,-22.1787]]]}},{"type":"Feature","properties":{"cod_imovel":"RJ-3305158-A3F1583747A340D3B071EF82FDB5883F","num_area":"16.631900000000000000000000000000","ind_status":"AT","des_condic":"Aguardando analise"},"geometry":{"type":"Polygon","coordinates":[[[-42.9531,-22.2293],[-42.9548,-22.2254],[-42.9502,-22.2293],[-42.9533,-22.2292],[-42.9531,-22.2293]]]}},{"type":"Feature","properties":{"cod_imovel":"RJ-3305158-633CF680FE9648398EB3AA70CDF1E4DD","num_area":"104.39880000000000000000000000000","ind_status":"AT","des_condic":"Aguardando analise"},"geometry":{"type":"Polygon","coordinates":[[[-42.9603,-22.0912],[-42.9572,-22.097],[-42.9629,-22.1011],[-42.9705,-22.0917],[-42.9681,-22.087],[-42.961,-22.0912],[-42.9603,-22.0912]],[[-42.9704,-22.0929],[-42.9699,-22.089],[-42.9701,-22.0924],[-42.9704,-22.0929]]]}},{"type":"Feature","properties":{"cod_imovel":"RJ-3305158-40112EA5EAF84A4AB68D6A0993407EE7","num_area":"1.7261000000000000000000000000000","ind_status":"AT","des_condic":"Aguardando analise"},"geometry":{"type":"Polygon","coordinates":[[[-42.9288,-22.1824],[-42.9287,-22.1781],[-42.9288,-22.1824],[-42.9288,-22.1824]]]}},{"type":"Feature","properties":{"cod_imovel":"RJ-3305158-1B115DA2D0C141F2818291A57C5C2DE4","num_area":"35.417400000000000000000000000000","ind_status":"AT","des_condic":"Aguardando analise"},"geometry":{"type":"Polygon","coordinates":[[[-42.9705,-22.1813],[-42.967,-22.1776],[-42.9628,-22.1821],[-42.9716,-22.1825],[-42.9705,-22.1813]]]}},{"type":"Feature","properties":{"cod_imovel":"RJ-3305158-98470B91D50C4EFDAE0A73C826E3D156","num_area":"204.26250000000000000000000000000","ind_status":"AT","des_condic":"Aguardando analise"},"geometry":{"type":"Polygon","coordinates":[[[-42.967,-22.1832],[-42.9609,-22.1879],[-42.957,-22.2048],[-42.9701,-22.1964],[-42.9709,-22.1933],[-42.9582,-22.2035],[-42.9641,-22.1976],[-42.9601,-22.1972],[-42.9749,-22.1891],[-42.9701,-22.187],[-42.9654,-22.1928],[-42.9695,-22.1873],[-42.9771,-22.1878],[-42.9672,-22.1831],[-42.967,-22.1832]]]}},{"type":"Feature","properties":{"cod_imovel":"RJ-3305158-D1FD05698B8D4EFBA481628561F9F237","num_area":"136.35910000000000000000000000000","ind_status":"AT","des_condic":"Aguardando analise"},"geometry":{"type":"Polygon","coordinates":[[[-43.0151,-22.223],[-43.0081,-22.2139],[-43.0066,-22.2185],[-43.0106,-22.2193],[-43.0032,-22.2287],[-43.0151,-22.2232],[-43.0151,-22.223]],[[-43.0211,-22.2148],[-43.0142,-22.2096],[-43.0201,-22.2138],[-43.0123,-22.2181],[-43.0172,-22.2221],[-43.0208,-22.2151],[-43.0211,-22.2148]],[[-43.0142,-22.2096],[-43.0119,-22.2027],[-43.0135,-22.2092],[-43.0142,-22.2096]],[[-43.0185,-22.2233],[-43.0115,-22.2222],[-43.0131,-22.2262],[-43.0185,-22.2236],[-43.0185,-22.2233]],[[-43.0186,-22.2205],[-43.0211,-22.2149],[-43.0185,-22.2206],[-43.0186,-22.2205]]]}},{"type":"Feature","properties":{"cod_imovel":"RJ-3305158-0D7C1C4BDEE844F8ADB57A7688A8EDDD","num_area":"26.681400000000000000000000000000","ind_status":"AT","des_condic":"Aguardando analise"},"geometry":{"type":"Polygon","coordinates":[[[-43.0241,-22.2094],[-43.0214,-22.2141],[-43.0239,-22.2096],[-43.0241,-22.2094]],[[-43.0237,-22.2091],[-43.0158,-22.2129],[-43.0213,-22.2141],[-43.0235,-22.2092],[-43.0237,-22.2091]]]}},{"type":"Feature","properties":{"cod_imovel":"RJ-3305158-179D8260107D4A5F98CCD897EC8EE37D","num_area":"17.689900000000000000000000000000","ind_status":"AT","des_condic":"Aguardando analise"},"geometry":{"type":"Polygon","coordinates":[[[-42.9701,-22.1811],[-42.974,-22.1829],[-42.9696,-22.1802],[-42.9701,-22.1811]]]}},{"type":"Feature","properties":{"cod_imovel":"RJ-3305158-D8FDB08A7F404A77B1BD539DC0C07DFC","num_area":"17.491900000000000000000000000000","ind_status":"AT","des_condic":"Aguardando analise"},"geometry":{"type":"Polygon","coordinates":[[[-42.9897,-22.1786],[-42.9896,-22.1823],[-42.9899,-22.1788],[-42.9897,-22.1786]],[[-42.9881,-22.1777],[-42.9863,-22.1811],[-42.9888,-22.1782],[-42.9881,-22.1777]]]}},{"type":"Feature","properties":{"cod_imovel":"RJ-3305158-736D942B52ED42AD8D0B946577BAF43D","num_area":"32.968300000000000000000000000000","ind_status":"AT","des_condic":"Aguardando analise"},"geometry":{"type":"Polygon","coordinates":[[[-42.9881,-22.1765],[-42.98,-22.1798],[-42.9881,-22.1766],[-42.9881,-22.1765]],[[-42.9891,-22.1776],[-42.9899,-22.1672],[-42.9891,-22.1776],[-42.9891,-22.1776]],[[-42.9809,-22.1776],[-42.988,-22.1764],[-42.981,-22.1778],[-42.9809,-22.1776]]]}},{"type":"Feature","properties":{"cod_imovel":"RJ-3305158-5810F35092B746FAB5A26AFF40B4A947","num_area":"21.899700000000000000000000000000","ind_status":"AT","des_condic":"Aguardando analise"},"geometry":{"type":"Polygon","coordinates":[[[-43.0215,-22.1995],[-43.0157,-22.2044],[-43.0215,-22.1995],[-43.0215,-22.1995]]]}},{"type":"Feature","properties":{"cod_imovel":"RJ-3305158-B807D7F6A51648AB8E719502D65C1E96","num_area":"9.0965000000000000000000000000000","ind_status":"AT","des_condic":"Aguardando analise"},"geometry":{"type":"Polygon","coordinates":[[[-42.9538,-22.1869],[-42.9517,-22.1832],[-42.9528,-22.1871],[-42.9538,-22.1869]]]}},{"type":"Feature","properties":{"cod_imovel":"RJ-3305158-B1A0575BE8F44A159523FC7AC252CAE1","num_area":"24.923900000000000000000000000000","ind_status":"AT","des_condic":"Aguardando analise"},"geometry":{"type":"Polygon","coordinates":[[[-42.897,-22.2021],[-42.9074,-22.1998],[-42.896,-22.1981],[-42.8969,-22.202],[-42.897,-22.2021]]]}},{"type":"Feature","properties":{"cod_imovel":"RJ-3305158-358C231D949A4324B5A4CD9FBE80DED4","num_area":"54.878300000000000000000000000000","ind_status":"AT","des_condic":"Aguardando analise"},"geometry":{"type":"Polygon","coordinates":[[[-42.938,-22.1745],[-42.944,-22.1687],[-42.9405,-22.1713],[-42.938,-22.1745]],[[-42.9402,-22.1758],[-42.9485,-22.1695],[-42.944,-22.1687],[-42.9404,-22.1757],[-42.9402,-22.1758]],[[-42.9468,-22.1752],[-42.9486,-22.1696],[-42.943,-22.1757],[-42.9463,-22.1751],[-42.9468,-22.1752]],[[-42.9487,-22.1695],[-42.944,-22.1687],[-42.9481,-22.1694],[-42.9487,-22.1695]]]}},{"type":"Feature","properties":{"cod_imovel":"RJ-3305158-74A4E8E0CC9B426CBEE53DBC5294CBE8","num_area":"7.4050000000000000000000000000000","ind_status":"AT","des_condic":"Aguardando analise"},"geometry":{"type":"Polygon","coordinates":[[[-42.9429,-22.2088],[-42.9415,-22.2048],[-42.9425,-22.2089],[-42.9429,-22.2088]]]}},{"type":"Feature","properties":{"cod_imovel":"RJ-3305158-734B1EE4EA7343C29080A64B7CE5674C","num_area":"4.7848000000000000000000000000000","ind_status":"AT","des_condic":"Aguardando analise"},"geometry":{"type":"Polygon","coordinates":[[[-42.8815,-22.1476],[-42.8849,-22.1438],[-42.8817,-22.1417],[-42.8849,-22.1438],[-42.8813,-22.1475],[-42.8815,-22.1476]],[[-42.8793,-22.1444],[-42.8812,-22.1474],[-42.8793,-22.1444],[-42.8793,-22.1444]]]}},{"type":"Feature","properties":{"cod_imovel":"RJ-3305158-25B8B438AF6E4556BEA1A589EF95BC84","num_area":"7.4035000000000000000000000000000","ind_status":"AT","des_condic":"Aguardando analise"},"geometry":{"type":"Polygon","coordinates":[[[-42.918,-22.1508],[-42.9139,-22.1538],[-42.918,-22.1511],[-42.918,-22.1508]]]}},{"type":"Feature","properties":{"cod_imovel":"RJ-3305158-8028E198E741468DB77C37DAF984B4E7","num_area":"27.424700000000000000000000000000","ind_status":"AT","des_condic":"Analisado, aguardando atendimento a notificacao"},"geometry":{"type":"Polygon","coordinates":[[[-42.9019,-22.1374],[-42.8924,-22.142],[-42.9013,-22.1393],[-42.9019,-22.1374]]]}},{"type":"Feature","properties":{"cod_imovel":"RJ-3305158-50E6442202E94C2AB2370D079C8E9A21","num_area":"12.945300000000000000000000000000","ind_status":"AT","des_condic":"Aguardando analise"},"geometry":{"type":"Polygon","coordinates":[[[-42.9433,-22.1824],[-42.9382,-22.1797],[-42.9408,-22.1877],[-42.9416,-22.1809],[-42.9433,-22.1824]]]}},{"type":"Feature","properties":{"cod_imovel":"RJ-3305158-7C85E2DCBDF847F68EA9AD4D2CD03462","num_area":"22.036000000000000000000000000000","ind_status":"AT","des_condic":"Aguardando analise"},"geometry":{"type":"Polygon","coordinates":[[[-42.9218,-22.1539],[-42.9181,-22.1542],[-42.9214,-22.1542],[-42.9218,-22.1539]],[[-42.9181,-22.1542],[-42.9131,-22.1544],[-42.9136,-22.1597],[-42.9182,-22.1543],[-42.9181,-22.1542]]]}},{"type":"Feature","properties":{"cod_imovel":"RJ-3305158-627EBE6E06F64BA394386CF2DB5A193D","num_area":"17.699200000000000000000000000000","ind_status":"AT","des_condic":"Aguardando analise"},"geometry":{"type":"Polygon","coordinates":[[[-42.9397,-22.1871],[-42.9368,-22.1859],[-42.937,-22.1924],[-42.9421,-22.1899],[-42.9391,-22.1913],[-42.9399,-22.1873],[-42.9397,-22.1871]]]}},{"type":"Feature","properties":{"cod_imovel":"RJ-3305158-09A2F34B5BA14ED8867ED6D1906FCD3E","num_area":"28.504100000000000000000000000000","ind_status":"AT","des_condic":"Aguardando analise"},"geometry":{"type":"Polygon","coordinates":[[[-42.9541,-22.1774],[-42.9487,-22.1764],[-42.9506,-22.184],[-42.954,-22.1774],[-42.9541,-22.1774]]]}},{"type":"Feature","properties":{"cod_imovel":"RJ-3305158-4BD728F7F2EB4E29A11FBE2D34DE6087","num_area":"24.304500000000000000000000000000","ind_status":"AT","des_condic":"Aguardando analise"},"geometry":{"type":"Polygon","coordinates":[[[-42.9717,-22.2079],[-42.9686,-22.2052],[-42.9717,-22.2079],[-42.9717,-22.2079]],[[-42.9644,-22.2168],[-42.9703,-22.2159],[-42.9644,-22.2168],[-42.9644,-22.2168]]]}},{"type":"Feature","properties":{"cod_imovel":"RJ-3305158-490798294F664B5AADDD8CB21C41010E","num_area":"7.8049000000000000000000000000000","ind_status":"AT","des_condic":"Aguardando analise"},"geometry":{"type":"Polygon","coordinates":[[[-42.9269,-22.2133],[-42.923,-22.2158],[-42.9229,-22.2126],[-42.923,-22.2166],[-42.9273,-22.2137],[-42.9269,-22.2133]],[[-42.9231,-22.2167],[-42.9263,-22.2161],[-42.9231,-22.2167],[-42.9231,-22.2167]]]}},{"type":"Feature","properties":{"cod_imovel":"RJ-3305158-CB32A03E34204D1B84141F49BB8993C0","num_area":"5.4295000000000000000000000000000","ind_status":"AT","des_condic":"Aguardando analise"},"geometry":{"type":"Polygon","coordinates":[[[-42.94,-22.1854],[-42.937,-22.1818],[-42.9395,-22.1853],[-42.94,-22.1854]]]}},{"type":"Feature","properties":{"cod_imovel":"RJ-3305158-54CC3B6230E4496E9E151E64A0CF2CF9","num_area":"4.7355000000000000000000000000000","ind_status":"AT","des_condic":"Aguardando analise"},"geometry":{"type":"Polygon","coordinates":[[[-42.9306,-22.1913],[-42.9266,-22.1922],[-42.9307,-22.1916],[-42.9306,-22.1913]]]}},{"type":"Feature","properties":{"cod_imovel":"RJ-3305158-0D469F49BBFE4323B3D9DA668AFC22EB","num_area":"12.038700000000000000000000000000","ind_status":"AT","des_condic":"Aguardando analise"},"geometry":{"type":"Polygon","coordinates":[[[-42.9258,-22.1639],[-42.92,-22.1631],[-42.9254,-22.1641],[-42.9258,-22.1639]]]}},{"type":"Feature","properties":{"cod_imovel":"RJ-3305158-A15290A01E70491AA8BEA464BB73F7BD","num_area":"10.216200000000000000000000000000","ind_status":"AT","des_condic":"Aguardando analise"},"geometry":{"type":"Polygon","coordinates":[[[-42.9258,-22.1735],[-42.9119,-22.1749],[-42.9251,-22.1748],[-42.9258,-22.1735]],[[-42.9224,-22.1716],[-42.9171,-22.1743],[-42.9244,-22.1753],[-42.9229,-22.1716],[-42.9224,-22.1716]]]}},{"type":"Feature","properties":{"cod_imovel":"RJ-3305158-3BA002BC494847898FCA7CCAFACD7CEA","num_area":"0.4234000000000000000000000000000","ind_status":"AT","des_condic":"Aguardando analise"},"geometry":{"type":"Polygon","coordinates":[[[-43.0179,-22.2164],[-43.0146,-22.2153],[-43.0178,-22.2166],[-43.0179,-22.2164]]]}},{"type":"Feature","properties":{"cod_imovel":"RJ-3305158-0B2C2B73C6AA4A71AEC69676F19FC1AC","num_area":"15.184500000000000000000000000000","ind_status":"AT","des_condic":"Aguardando analise"},"geometry":{"type":"Polygon","coordinates":[[[-42.9354,-22.1842],[-42.9364,-22.1895],[-42.9354,-22.1842],[-42.9354,-22.1842]]]}},{"type":"Feature","properties":{"cod_imovel":"RJ-3305158-0544F55254074F72B22E08E4EC957914","num_area":"7.8207000000000000000000000000000","ind_status":"AT","des_condic":"Aguardando analise"},"geometry":{"type":"Polygon","coordinates":[[[-42.9118,-22.2234],[-42.9155,-22.2189],[-42.9117,-22.2236],[-42.9118,-22.2234]],[[-42.9155,-22.2189],[-42.9115,-22.2224],[-42.915,-22.2189],[-42.9155,-22.2189]]]}},{"type":"Feature","properties":{"cod_imovel":"RJ-3305158-B70A6A894839444E93C996508EC09B1D","num_area":"39.884700000000000000000000000000","ind_status":"AT","des_condic":"Aguardando analise"},"geometry":{"type":"Polygon","coordinates":[[[-42.9049,-22.2022],[-42.8975,-22.2031],[-42.8991,-22.2066],[-42.9042,-22.2027],[-42.9049,-22.2022]],[[-42.9078,-22.204],[-42.8991,-22.2068],[-42.9028,-22.2093],[-42.9073,-22.2045],[-42.9078,-22.204]]]}},{"type":"Feature","properties":{"cod_imovel":"RJ-3305158-32460336F8124BF5903FFA86181D03B6","num_area":"5.6764000000000000000000000000000","ind_status":"AT","des_condic":"Aguardando analise"},"geometry":{"type":"Polygon","coordinates":[[[-42.9703,-22.1961],[-42.9744,-22.1962],[-42.971,-22.1942],[-42.9703,-22.1961]]]}},{"type":"Feature","properties":{"cod_imovel":"RJ-3305158-B4CD8987798D4D1B9783580A4CC8640E","num_area":"80.917200000000000000000000000000","ind_status":"AT","des_condic":"Aguardando analise"},"geometry":{"type":"Polygon","coordinates":[[[-43.032,-22.1785],[-43.0259,-22.1852],[-43.0345,-22.1828],[-43.0322,-22.1791],[-43.032,-22.1785]],[[-43.0345,-22.1827],[-43.0396,-22.1779],[-43.035,-22.1823],[-43.0324,-22.178],[-43.0338,-22.1813],[-43.0345,-22.1827]],[[-43.0421,-22.1755],[-43.048,-22.1698],[-43.0424,-22.1671],[-43.0352,-22.175],[-43.0391,-22.1707],[-43.0423,-22.1752],[-43.0421,-22.1755]]]}},{"type":"Feature","properties":{"cod_imovel":"RJ-3305158-C7191896C25D448CABA5728928D32EB5","num_area":"107.84690000000000000000000000000","ind_status":"AT","des_condic":"Aguardando analise"},"geometry":{"type":"Polygon","coordinates":[[[-43.0463,-22.1706],[-43.0364,-22.1842],[-43.0388,-22.1881],[-43.0508,-22.1722],[-43.0467,-22.1702],[-43.0463,-22.1706]],[[-43.038,-22.1872],[-43.0341,-22.1874],[-43.0369,-22.1907],[-43.0381,-22.1874],[-43.038,-22.1872]]]}},{"type":"Feature","properties":{"cod_imovel":"RJ-3305158-40622BC7312F463E848DE9B8F3FB29FA","num_area":"17.047300000000000000000000000000","ind_status":"AT","des_condic":"Aguardando analise"},"geometry":{"type":"Polygon","coordinates":[[[-42.9196,-22.1547],[-42.9154,-22.1604],[-42.9194,-22.1553],[-42.9196,-22.1547]],[[-42.9156,-22.1575],[-42.9185,-22.1554],[-42.9155,-22.1577],[-42.9156,-22.1575]]]}},{"type":"Feature","properties":{"cod_imovel":"RJ-3305158-08B1DD4FCC434682A4ECA5F14191C632","num_area":"24.943900000000000000000000000000","ind_status":"AT","des_condic":"Aguardando analise"},"geometry":{"type":"Polygon","coordinates":[[[-42.9727,-22.1892],[-42.9703,-22.1961],[-42.9783,-22.1899],[-42.9727,-22.1892]]]}},{"type":"Feature","properties":{"cod_imovel":"RJ-3305158-027D14E85E1640EE88EC1B411AB26DF5","num_area":"26.293200000000000000000000000000","ind_status":"AT","des_condic":"Aguardando analise"},"geometry":{"type":"Polygon","coordinates":[[[-42.9281,-22.2118],[-42.9223,-22.208],[-42.928,-22.2113],[-42.9281,-22.2118]],[[-42.9264,-22.2118],[-42.9223,-22.208],[-42.9195,-22.211],[-42.9265,-22.2121],[-42.9264,-22.2118]]]}},{"type":"Feature","properties":{"cod_imovel":"RJ-3305158-35E1306AFE674C97AD6BCD3C93476424","num_area":"4.7451000000000000000000000000000","ind_status":"AT","des_condic":"Aguardando analise"},"geometry":{"type":"Polygon","coordinates":[[[-42.922,-22.1543],[-42.92,-22.1576],[-42.9225,-22.1541],[-42.922,-22.1543]]]}},{"type":"Feature","properties":{"cod_imovel":"RJ-3305158-777D4C0E142540168C2A96D5C61D5A8C","num_area":"6.0683000000000000000000000000000","ind_status":"AT","des_condic":"Aguardando analise"},"geometry":{"type":"Polygon","coordinates":[[[-42.886,-22.1442],[-42.882,-22.1458],[-42.8857,-22.1448],[-42.886,-22.1442]]]}},{"type":"Feature","properties":{"cod_imovel":"RJ-3305158-CB441860395A476DAF46E03301DC667B","num_area":"14.161100000000000000000000000000","ind_status":"AT","des_condic":"Aguardando analise"},"geometry":{"type":"Polygon","coordinates":[[[-42.9212,-22.1608],[-42.9231,-22.1573],[-42.9209,-22.1607],[-42.9212,-22.1608]]]}},{"type":"Feature","properties":{"cod_imovel":"RJ-3305158-790A16B0B3CF42A5BA5436B86B687299","num_area":"28.866600000000000000000000000000","ind_status":"AT","des_condic":"Aguardando analise"},"geometry":{"type":"Polygon","coordinates":[[[-42.9498,-22.2107],[-42.9541,-22.2089],[-42.9511,-22.2101],[-42.9515,-22.2036],[-42.9502,-22.2102],[-42.9498,-22.2107]]]}},{"type":"Feature","properties":{"cod_imovel":"RJ-3305158-6ACAD2C101814A0CBB117CD6975D873F","num_area":"3.9281000000000000000000000000000","ind_status":"AT","des_condic":"Aguardando analise"},"geometry":{"type":"Polygon","coordinates":[[[-42.9571,-22.2092],[-42.9562,-22.213],[-42.9572,-22.209],[-42.9571,-22.2092]]]}},{"type":"Feature","properties":{"cod_imovel":"RJ-3305158-B908B74915FE4D9FAF238CB2A8EDF08D","num_area":"200.30660000000000000000000000000","ind_status":"AT","des_condic":"Aguardando analise"},"geometry":{"type":"Polygon","coordinates":[[[-42.9483,-22.1586],[-42.9512,-22.1619],[-42.9487,-22.1588],[-42.9483,-22.1586]],[[-42.9499,-22.1628],[-42.9525,-22.1609],[-42.9494,-22.1626],[-42.9499,-22.1628]],[[-42.9525,-22.1537],[-42.9539,-22.1574],[-42.9525,-22.1538],[-42.9525,-22.1537]],[[-42.9675,-22.1591],[-42.9641,-22.1511],[-42.9638,-22.1563],[-42.9565,-22.1538],[-42.9523,-22.1626],[-42.96,-22.1552],[-42.9555,-22.1648],[-42.9586,-22.1673],[-42.9551,-22.1675],[-42.966,-22.1705],[-42.9684,-22.165],[-42.9589,-22.1616],[-42.9671,-22.1595],[-42.9675,-22.1591]],[[-42.9536,-22.16],[-42.9549,-22.1552],[-42.9536,-22.1591],[-42.9536,-22.16]]]}},{"type":"Feature","properties":{"cod_imovel":"RJ-3305158-4CCBA4F5FA9B40018528F753864D517C","num_area":"9.5840000000000000000000000000000","ind_status":"AT","des_condic":"Aguardando analise"},"geometry":{"type":"Polygon","coordinates":[[[-42.9792,-22.2569],[-42.9798,-22.2618],[-42.9799,-22.2569],[-42.9792,-22.2569]]]}},{"type":"Feature","properties":{"cod_imovel":"RJ-3305158-473D2F362A554371BC5341483FB3F1FA","num_area":"15.418500000000000000000000000000","ind_status":"SU","des_condic":"Analisado, aguardando atendimento a notificacao"},"geometry":{"type":"Polygon","coordinates":[[[-42.961,-22.2232],[-42.9579,-22.2218],[-42.9611,-22.2233],[-42.961,-22.2232]],[[-42.9591,-22.225],[-42.9618,-22.2296],[-42.9601,-22.2256],[-42.9591,-22.225]]]}},{"type":"Feature","properties":{"cod_imovel":"RJ-3305158-D8A99B21A37748978E4F551995114A2B","num_area":"4.1038000000000000000000000000000","ind_status":"AT","des_condic":"Aguardando analise"},"geometry":{"type":"Polygon","coordinates":[[[-42.8607,-22.1728],[-42.8642,-22.1724],[-42.857,-22.1734],[-42.8607,-22.1728],[-42.8607,-22.1728]],[[-42.859,-22.1716],[-42.8554,-22.1745],[-42.8589,-22.1717],[-42.859,-22.1716]]]}},{"type":"Feature","properties":{"cod_imovel":"RJ-3305158-AC2681DA4E9840E2BB9EAA26658AE02F","num_area":"41.178600000000000000000000000000","ind_status":"AT","des_condic":"Aguardando analise"},"geometry":{"type":"Polygon","coordinates":[[[-42.8832,-22.1529],[-42.8784,-22.146],[-42.8771,-22.154],[-42.8824,-22.1532],[-42.8832,-22.1529]]]}},{"type":"Feature","properties":{"cod_imovel":"RJ-3305158-3F124554E73C48978EDF5F47CA0D447D","num_area":"338.72920000000000000000000000000","ind_status":"AT","des_condic":"Aguardando analise"},"geometry":{"type":"Polygon","coordinates":[[[-42.9745,-22.1118],[-42.9727,-22.1165],[-42.9766,-22.117],[-42.975,-22.1119],[-42.9745,-22.1118]],[[-42.9785,-22.1159],[-42.9838,-22.1234],[-42.9933,-22.1183],[-42.9779,-22.1121],[-42.9784,-22.1154],[-42.9785,-22.1159]],[[-42.9717,-22.1045],[-42.9717,-22.1131],[-42.9757,-22.1093],[-42.9749,-22.0979],[-42.9683,-22.1038],[-42.9718,-22.1043],[-42.9717,-22.1045]],[[-42.9757,-22.1093],[-42.977,-22.1038],[-42.9756,-22.1089],[-42.9757,-22.1093]],[[-42.977,-22.1032],[-42.9761,-22.0994],[-42.977,-22.103],[-42.977,-22.1032]],[[-42.9659,-22.1207],[-42.9612,-22.1318],[-42.9662,-22.1167],[-42.9599,-22.1324],[-42.9793,-22.1245],[-42.9672,-22.1254],[-42.966,-22.1206],[-42.9659,-22.1207]],[[-42.9662,-22.1167],[-42.9643,-22.1254],[-42.9598,-22.1228],[-42.9568,-22.1278],[-42.9586,-22.1331],[-42.9652,-22.1196],[-42.9662,-22.1167]],[[-42.9534,-22.1377],[-42.9566,-22.1356],[-42.9535,-22.1377],[-42.9534,-22.1377]],[[-42.9657,-22.1329],[-42.9626,-22.1309],[-42.9561,-22.1368],[-42.9654,-22.1329],[-42.9657,-22.1329]]]}},{"type":"Feature","properties":{"cod_imovel":"RJ-3305158-C40932A9246E4006BD3081321CF24832","num_area":"4.4023000000000000000000000000000","ind_status":"AT","des_condic":"Aguardando analise"},"geometry":{"type":"Polygon","coordinates":[[[-42.9652,-22.1429],[-42.9731,-22.1463],[-42.9652,-22.1433],[-42.9652,-22.1429]],[[-42.9641,-22.1402],[-42.9583,-22.1391],[-42.9641,-22.1402],[-42.9641,-22.1402]]]}},{"type":"Feature","properties":{"cod_imovel":"RJ-3305158-E08B19A8323045A8B43459A0F992C050","num_area":"65.672700000000000000000000000000","ind_status":"AT","des_condic":"Aguardando analise"},"geometry":{"type":"Polygon","coordinates":[[[-42.8529,-22.1623],[-42.8513,-22.1745],[-42.8559,-22.1625],[-42.8529,-22.1623]],[[-42.8543,-22.1741],[-42.8604,-22.1639],[-42.8572,-22.1625],[-42.8543,-22.1739],[-42.8543,-22.1741]]]}},{"type":"Feature","properties":{"cod_imovel":"RJ-3305158-D1ED13B60B8A423E9C0E02CA2231BA35","num_area":"8.5580000000000000000000000000000","ind_status":"AT","des_condic":"Aguardando analise"},"geometry":{"type":"Polygon","coordinates":[[[-42.9714,-22.1585],[-42.9756,-22.1615],[-42.9729,-22.1596],[-42.9714,-22.1585]],[[-42.9763,-22.162],[-42.9788,-22.1589],[-42.9772,-22.1626],[-42.9763,-22.162]]]}},{"type":"Feature","properties":{"cod_imovel":"RJ-3305158-27699F702C9340A1BDC1BF089687D49B","num_area":"3.4896000000000000000000000000000","ind_status":"AT","des_condic":"Aguardando analise"},"geometry":{"type":"Polygon","coordinates":[[[-42.9276,-22.199],[-42.9253,-22.2039],[-42.927,-22.2002],[-42.9276,-22.199]]]}},{"type":"Feature","properties":{"cod_imovel":"RJ-3305158-FC310EF234614EBAB11EA87FF4F24D9E","num_area":"22.156200000000000000000000000000","ind_status":"AT","des_condic":"Aguardando analise"},"geometry":{"type":"Polygon","coordinates":[[[-43.0036,-22.1975],[-42.9974,-22.1993],[-43.0014,-22.2024],[-43.0036,-22.1976],[-43.0036,-22.1975]]]}},{"type":"Feature","properties":{"cod_imovel":"RJ-3305158-EB1FE552874C4D40A9EB7DDC739D31AC","num_area":"9.2409000000000000000000000000000","ind_status":"AT","des_condic":"Aguardando analise"},"geometry":{"type":"Polygon","coordinates":[[[-43.0403,-22.2017],[-43.0347,-22.1972],[-43.0393,-22.2022],[-43.0403,-22.2017]]]}},{"type":"Feature","properties":{"cod_imovel":"RJ-3305158-8876B3FCA4BB4611A1CE26FF9B903E2F","num_area":"38.725800000000000000000000000000","ind_status":"AT","des_condic":"Aguardando analise"},"geometry":{"type":"Polygon","coordinates":[[[-43.0393,-22.2022],[-43.0329,-22.1995],[-43.0357,-22.2066],[-43.0398,-22.2025],[-43.0393,-22.2022]],[[-43.0387,-22.2026],[-43.0343,-22.2008],[-43.039,-22.2022],[-43.0387,-22.2026]]]}},{"type":"Feature","properties":{"cod_imovel":"RJ-3305158-036F22E0845B45E085D99C8111C25410","num_area":"31.565600000000000000000000000000","ind_status":"AT","des_condic":"Aguardando analise"},"geometry":{"type":"Polygon","coordinates":[[[-42.9082,-22.1501],[-42.9034,-22.1528],[-42.9041,-22.1582],[-42.9084,-22.1507],[-42.9082,-22.1501]]]}},{"type":"Feature","properties":{"cod_imovel":"RJ-3305158-080F4151D2614B0CBB0282345C81A7B3","num_area":"10.493100000000000000000000000000","ind_status":"AT","des_condic":"Aguardando analise"},"geometry":{"type":"Polygon","coordinates":[[[-42.9156,-22.2234],[-42.9145,-22.2196],[-42.9153,-22.2238],[-42.9156,-22.2234]]]}},{"type":"Feature","properties":{"cod_imovel":"RJ-3305158-07057C398BD54ABEAA5A7D971B95E558","num_area":"4.4882000000000000000000000000000","ind_status":"AT","des_condic":"Aguardando analise"},"geometry":{"type":"Polygon","coordinates":[[[-43.016,-22.1949],[-43.0181,-22.192],[-43.0164,-22.1949],[-43.016,-22.1949]]]}},{"type":"Feature","properties":{"cod_imovel":"RJ-3305158-BB93694479A548A7A79F5BD70E1260ED","num_area":"56.056300000000000000000000000000","ind_status":"AT","des_condic":"Aguardando analise"},"geometry":{"type":"Polygon","coordinates":[[[-42.942,-22.0997],[-42.9446,-22.0963],[-42.94,-22.0936],[-42.9365,-22.1044],[-42.9418,-22.1022],[-42.942,-22.0997]]]}},{"type":"Feature","properties":{"cod_imovel":"RJ-3305158-327E603CFD2C4448BAFAB0045455EB28","num_area":"17.406900000000000000000000000000","ind_status":"AT","des_condic":"Aguardando analise"},"geometry":{"type":"Polygon","coordinates":[[[-42.9421,-22.0999],[-42.9484,-22.1],[-42.9448,-22.0963],[-42.9421,-22.0998],[-42.9421,-22.0999]]]}},{"type":"Feature","properties":{"cod_imovel":"RJ-3305158-9F74941FDA664121AE062F3519226C7F","num_area":"2.0009000000000000000000000000000","ind_status":"AT","des_condic":"Aguardando analise"},"geometry":{"type":"Polygon","coordinates":[[[-42.7968,-22.1329],[-42.7996,-22.1352],[-42.7966,-22.1327],[-42.7968,-22.1329]]]}},{"type":"Feature","properties":{"cod_imovel":"RJ-3305158-DA792441571E466DA018A9F41369B396","num_area":"17.550100000000000000000000000000","ind_status":"AT","des_condic":"Aguardando analise"},"geometry":{"type":"Polygon","coordinates":[[[-42.9543,-22.0858],[-42.9609,-22.087],[-42.9544,-22.0854],[-42.9543,-22.0858]]]}},{"type":"Feature","properties":{"cod_imovel":"RJ-3305158-6EA51074C1AD496982C926304C2E0689","num_area":"18.601400000000000000000000000000","ind_status":"AT","des_condic":"Aguardando analise"},"geometry":{"type":"Polygon","coordinates":[[[-42.9484,-22.1783],[-42.9413,-22.1769],[-42.9461,-22.1785],[-42.9484,-22.1783]]]}},{"type":"Feature","properties":{"cod_imovel":"RJ-3305158-86A77DB4BA9E4863A9314C27F9FA600D","num_area":"17.507400000000000000000000000000","ind_status":"AT","des_condic":"Aguardando analise"},"geometry":{"type":"Polygon","coordinates":[[[-42.9224,-22.1292],[-42.925,-22.1248],[-42.9203,-22.1273],[-42.9224,-22.1292]]]}},{"type":"Feature","properties":{"cod_imovel":"RJ-3305158-7F75B65F562D4DEC95BE50E613021762","num_area":"17.396000000000000000000000000000","ind_status":"AT","des_condic":"Aguardando analise"},"geometry":{"type":"Polygon","coordinates":[[[-42.9721,-22.2043],[-42.9746,-22.2015],[-42.9701,-22.2004],[-42.9735,-22.2038],[-42.9721,-22.2043]]]}},{"type":"Feature","properties":{"cod_imovel":"RJ-3305158-1E92852326794AC3AFFC801692C6F551","num_area":"40.037600000000000000000000000000","ind_status":"PE","des_condic":"Aguardando analise"},"geometry":{"type":"Polygon","coordinates":[[[-42.9883,-22.2033],[-42.9858,-22.2001],[-42.9837,-22.2049],[-42.988,-22.2032],[-42.9883,-22.2033]],[[-42.9834,-22.2057],[-42.9815,-22.2089],[-42.9854,-22.2089],[-42.9835,-22.2058],[-42.9834,-22.2057]],[[-42.9836,-22.195],[-42.9798,-22.2045],[-42.9854,-22.2028],[-42.9838,-22.195],[-42.9836,-22.195]]]}},{"type":"Feature","properties":{"cod_imovel":"RJ-3305158-83E6B1D526FF4E208E21BB35786E24DE","num_area":"150.09730000000000000000000000000","ind_status":"AT","des_condic":"Aguardando analise"},"geometry":{"type":"Polygon","coordinates":[[[-43.0043,-22.2264],[-43.0134,-22.2259],[-43.0115,-22.222],[-43.0171,-22.2222],[-43.0181,-22.2173],[-43.0061,-22.2123],[-43.0041,-22.2265],[-43.0043,-22.2264]]]}},{"type":"Feature","properties":{"cod_imovel":"RJ-3305158-22F05D55381C42C9B11D8705D44012C9","num_area":"23.192200000000000000000000000000","ind_status":"AT","des_condic":"Aguardando analise"},"geometry":{"type":"Polygon","coordinates":[[[-43.0151,-22.2259],[-43.0216,-22.2141],[-43.0171,-22.2222],[-43.0116,-22.222],[-43.0152,-22.2257],[-43.0151,-22.2259]]]}},{"type":"Feature","properties":{"cod_imovel":"RJ-3305158-301C73F0F8DC431E9250CD98CE7D93BC","num_area":"3.2972000000000000000000000000000","ind_status":"PE","des_condic":"Analisado, aguardando atendimento a notificacao"},"geometry":{"type":"Polygon","coordinates":[[[-42.9688,-22.2366],[-42.9652,-22.2372],[-42.9688,-22.2366],[-42.9688,-22.2366]]]}},{"type":"Feature","properties":{"cod_imovel":"RJ-3305158-B08A6B271E4A4432867F9F74F04C5637","num_area":"24.090000000000000000000000000000","ind_status":"AT","des_condic":"Aguardando analise"},"geometry":{"type":"Polygon","coordinates":[[[-42.8867,-22.1684],[-42.8895,-22.1759],[-42.8912,-22.1675],[-42.8855,-22.1666],[-42.8867,-22.1684]]]}},{"type":"Feature","properties":{"cod_imovel":"RJ-3305158-FE658516C3AE4EC78977F762F4FEED3E","num_area":"11.018700000000000000000000000000","ind_status":"AT","des_condic":"Aguardando analise"},"geometry":{"type":"Polygon","coordinates":[[[-42.8097,-22.1522],[-42.805,-22.1461],[-42.8086,-22.1513],[-42.8097,-22.1522]]]}},{"type":"Feature","properties":{"cod_imovel":"RJ-3305158-27E5A1A9E5F3476085A68A8FE2F35E09","num_area":"4.9870000000000000000000000000000","ind_status":"AT","des_condic":"Aguardando analise"},"geometry":{"type":"Polygon","coordinates":[[[-42.921,-22.1368],[-42.9244,-22.1365],[-42.9208,-22.1365],[-42.921,-22.1368]]]}},{"type":"Feature","properties":{"cod_imovel":"RJ-3305158-FA4711470F5741008496827F16114231","num_area":"13.358200000000000000000000000000","ind_status":"AT","des_condic":"Aguardando analise"},"geometry":{"type":"Polygon","coordinates":[[[-42.9104,-22.2182],[-42.9031,-22.2153],[-42.9104,-22.2186],[-42.9104,-22.2182]]]}},{"type":"Feature","properties":{"cod_imovel":"RJ-3305158-FA72DAACC8E140ECBEF2FED9B2B163E8","num_area":"11.439300000000000000000000000000","ind_status":"AT","des_condic":"Aguardando analise"},"geometry":{"type":"Polygon","coordinates":[[[-42.9734,-22.174],[-42.9719,-22.1701],[-42.9732,-22.1739],[-42.9734,-22.174]]]}},{"type":"Feature","properties":{"cod_imovel":"RJ-3305158-050B6BA473D342CDA155B10FF7D80BCC","num_area":"36.860400000000000000000000000000","ind_status":"AT","des_condic":"Aguardando analise"},"geometry":{"type":"Polygon","coordinates":[[[-42.9617,-22.2155],[-42.9678,-22.2054],[-42.9617,-22.2068],[-42.964,-22.2104],[-42.9617,-22.2155]],[[-42.9678,-22.2054],[-42.9617,-22.2068],[-42.9677,-22.2054],[-42.9678,-22.2054]],[[-42.9676,-22.2049],[-42.9645,-22.2057],[-42.9675,-22.2049],[-42.9676,-22.2049]]]}},{"type":"Feature","properties":{"cod_imovel":"RJ-3305158-DB7E9A628A4B45F7A504B83C3CB79375","num_area":"689.94560000000000000000000000000","ind_status":"AT","des_condic":"Em analise"},"geometry":{"type":"Polygon","coordinates":[[[-42.9034,-22.1176],[-42.901,-22.1128],[-42.8958,-22.1181],[-42.902,-22.1113],[-42.8945,-22.109],[-42.8904,-22.1133],[-42.8812,-22.1096],[-42.8768,-22.1124],[-42.8965,-22.1105],[-42.8844,-22.1002],[-42.879,-22.1018],[-42.8711,-22.1168],[-42.8878,-22.128],[-42.9031,-22.1183],[-42.9034,-22.1176]],[[-42.879,-22.1018],[-42.8844,-22.0999],[-42.8793,-22.1013],[-42.879,-22.1018]],[[-42.902,-22.111],[-42.9052,-22.1076],[-42.8804,-22.0995],[-42.9019,-22.1109],[-42.902,-22.111]],[[-42.902,-22.1113],[-42.8968,-22.1109],[-42.902,-22.1113],[-42.902,-22.1113]]]}},{"type":"Feature","properties":{"cod_imovel":"RJ-3305158-975E5FC528B845CEB80CAFE88B5AE8BE","num_area":"41.892700000000000000000000000000","ind_status":"AT","des_condic":"Aguardando analise"},"geometry":{"type":"Polygon","coordinates":[[[-42.9409,-22.1679],[-42.9376,-22.1658],[-42.9333,-22.1708],[-42.9407,-22.1682],[-42.9409,-22.1679]],[[-42.9355,-22.1738],[-42.9407,-22.1682],[-42.9302,-22.1706],[-42.9352,-22.1733],[-42.9355,-22.1738]]]}},{"type":"Feature","properties":{"cod_imovel":"RJ-3305158-AFFF4428163046608E517F1DC4A5B883","num_area":"2.3899000000000000000000000000000","ind_status":"AT","des_condic":"Aguardando analise"},"geometry":{"type":"Polygon","coordinates":[[[-42.9192,-22.1458],[-42.9221,-22.1446],[-42.9189,-22.1455],[-42.9192,-22.1458]]]}},{"type":"Feature","properties":{"cod_imovel":"RJ-3305158-FB24884475224E9DA5910708BBF6BD7B","num_area":"14.420800000000000000000000000000","ind_status":"AT","des_condic":"Aguardando analise"},"geometry":{"type":"Polygon","coordinates":[[[-42.9301,-22.1213],[-42.9294,-22.1273],[-42.9301,-22.1213],[-42.9301,-22.1213]],[[-42.9308,-22.1252],[-42.9306,-22.1219],[-42.9308,-22.125],[-42.9308,-22.1252]]]}},{"type":"Feature","properties":{"cod_imovel":"RJ-3305158-D9FEDC5A751947C5A8C79586A7A4A1D9","num_area":"6.7775000000000000000000000000000","ind_status":"AT","des_condic":"Aguardando analise"},"geometry":{"type":"Polygon","coordinates":[[[-43.0379,-22.1878],[-43.0396,-22.1907],[-43.038,-22.1878],[-43.0379,-22.1878]],[[-43.0376,-22.1872],[-43.0353,-22.191],[-43.0386,-22.1894],[-43.0376,-22.1872]]]}},{"type":"Feature","properties":{"cod_imovel":"RJ-3305158-AF2C9645722844C3837B6B8BD6B54F74","num_area":"8.8025000000000000000000000000000","ind_status":"AT","des_condic":"Aguardando analise"},"geometry":{"type":"Polygon","coordinates":[[[-42.9274,-22.1344],[-42.9219,-22.1352],[-42.9274,-22.1344],[-42.9274,-22.1344]]]}},{"type":"Feature","properties":{"cod_imovel":"RJ-3305158-D0EB8D062ACD41ED8E4DC35DE6C40EED","num_area":"9.5771000000000000000000000000000","ind_status":"AT","des_condic":"Aguardando analise"},"geometry":{"type":"Polygon","coordinates":[[[-42.9345,-22.1922],[-42.9317,-22.1958],[-42.9346,-22.1944],[-42.9345,-22.1922]]]}},{"type":"Feature","properties":{"cod_imovel":"RJ-3305158-E5EF4E0AB61245F6A91BEF12D29215D0","num_area":"9.5986000000000000000000000000000","ind_status":"AT","des_condic":"Aguardando analise"},"geometry":{"type":"Polygon","coordinates":[[[-43.0418,-22.1945],[-43.0381,-22.1956],[-43.0418,-22.1945],[-43.0418,-22.1945]],[[-43.0381,-22.1956],[-43.043,-22.1967],[-43.0382,-22.1956],[-43.0381,-22.1956]]]}},{"type":"Feature","properties":{"cod_imovel":"RJ-3305158-68CF41DE62204B3B83C7611DE83B7A4A","num_area":"14.223300000000000000000000000000","ind_status":"AT","des_condic":"Aguardando analise"},"geometry":{"type":"Polygon","coordinates":[[[-42.9233,-22.1492],[-42.926,-22.1465],[-42.9233,-22.1492],[-42.9233,-22.1492]],[[-42.922,-22.1491],[-42.9255,-22.1467],[-42.922,-22.1491],[-42.922,-22.1491]]]}},{"type":"Feature","properties":{"cod_imovel":"RJ-3305158-0C03659FCA0343F9A2B6B1743CC21D1E","num_area":"1.4199000000000000000000000000000","ind_status":"AT","des_condic":"Aguardando analise"},"geometry":{"type":"Polygon","coordinates":[[[-42.9231,-22.1932],[-42.9198,-22.1885],[-42.923,-22.1932],[-42.9231,-22.1932]]]}},{"type":"Feature","properties":{"cod_imovel":"RJ-3305158-72E69378620E491CA953B86DE676BE3F","num_area":"6.2823000000000000000000000000000","ind_status":"AT","des_condic":"Aguardando analise"},"geometry":{"type":"Polygon","coordinates":[[[-42.9602,-22.2372],[-42.9667,-22.2362],[-42.9602,-22.2372],[-42.9602,-22.2372]],[[-42.96,-22.2375],[-42.9665,-22.2383],[-42.9603,-22.2376],[-42.96,-22.2375]]]}},{"type":"Feature","properties":{"cod_imovel":"RJ-3305158-9DBF0349D32C45518B914B6EFAE3B1DC","num_area":"2.7230000000000000000000000000000","ind_status":"AT","des_condic":"Aguardando analise"},"geometry":{"type":"Polygon","coordinates":[[[-43.0236,-22.2092],[-43.0187,-22.2078],[-43.0232,-22.2097],[-43.0236,-22.2092]]]}},{"type":"Feature","properties":{"cod_imovel":"RJ-3305158-3D1287BD43544E43957EFE0E33985E34","num_area":"2.6831000000000000000000000000000","ind_status":"AT","des_condic":"Aguardando analise"},"geometry":{"type":"Polygon","coordinates":[[[-43.0042,-22.1875],[-43.006,-22.185],[-43.0042,-22.1874],[-43.0042,-22.1875]]]}},{"type":"Feature","properties":{"cod_imovel":"RJ-3305158-97EF25B6EE8748B9854603C0177FDE18","num_area":"11.015200000000000000000000000000","ind_status":"AT","des_condic":"Aguardando analise"},"geometry":{"type":"Polygon","coordinates":[[[-42.9371,-22.1547],[-42.9327,-22.1532],[-42.9365,-22.1549],[-42.9371,-22.1547]]]}},{"type":"Feature","properties":{"cod_imovel":"RJ-3305158-0A0D89707F6F490EAA2706EE6FEE5381","num_area":"13.909700000000000000000000000000","ind_status":"AT","des_condic":"Aguardando analise"},"geometry":{"type":"Polygon","coordinates":[[[-42.9405,-22.1585],[-42.9355,-22.156],[-42.9406,-22.1583],[-42.9405,-22.1585]]]}},{"type":"Feature","properties":{"cod_imovel":"RJ-3305158-C79301B6A6C244D28D7FD97974B5A50E","num_area":"7.8829000000000000000000000000000","ind_status":"AT","des_condic":"Aguardando analise"},"geometry":{"type":"Polygon","coordinates":[[[-42.9418,-22.1425],[-42.9448,-22.1393],[-42.9422,-22.1422],[-42.9418,-22.1425]]]}},{"type":"Feature","properties":{"cod_imovel":"RJ-3305158-EEED6F21C6634AC1BFEB6D518F56ED86","num_area":"4.1960000000000000000000000000000","ind_status":"AT","des_condic":"Aguardando analise"},"geometry":{"type":"Polygon","coordinates":[[[-42.7833,-22.1276],[-42.7841,-22.1312],[-42.7837,-22.1282],[-42.7833,-22.1276]]]}},{"type":"Feature","properties":{"cod_imovel":"RJ-3305158-1D72083D58154979BE7AAB0C05D406DA","num_area":"77.839600000000000000000000000000","ind_status":"AT","des_condic":"Aguardando analise"},"geometry":{"type":"Polygon","coordinates":[[[-42.9605,-22.1224],[-42.9661,-22.1166],[-42.9584,-22.1191],[-42.9642,-22.1112],[-42.9581,-22.1133],[-42.9592,-22.1219],[-42.9605,-22.1224]]]}},{"type":"Feature","properties":{"cod_imovel":"RJ-3305158-CCB4D6703B8B470C86ED94520AEB64D5","num_area":"426.53220000000000000000000000000","ind_status":"AT","des_condic":"Aguardando analise"},"geometry":{"type":"Polygon","coordinates":[[[-42.9264,-22.0908],[-42.9179,-22.099],[-42.9289,-22.1036],[-42.9314,-22.1],[-42.9213,-22.0974],[-42.9303,-22.0922],[-42.9268,-22.0906],[-42.9264,-22.0908]],[[-42.92,-22.105],[-42.9265,-22.106],[-42.9272,-22.1149],[-42.9343,-22.1153],[-42.9272,-22.115],[-42.925,-22.1221],[-42.9247,-22.115],[-42.9205,-22.1246],[-42.9398,-22.1193],[-42.9325,-22.1034],[-42.9354,-22.0972],[-42.9295,-22.1019],[-42.9292,-22.1096],[-42.9273,-22.1026],[-42.9215,-22.1001],[-42.92,-22.105],[-42.92,-22.105]],[[-42.9397,-22.1189],[-42.9438,-22.1158],[-42.9415,-22.1106],[-42.9397,-22.1188],[-42.9397,-22.1189]],[[-42.9283,-22.0928],[-42.9253,-22.095],[-42.9284,-22.0927],[-42.9283,-22.0928]]]}},{"type":"Feature","properties":{"cod_imovel":"RJ-3305158-0D3A2E090222472485ABDC5560292A51","num_area":"51.091100000000000000000000000000","ind_status":"AT","des_condic":"Aguardando analise"},"geometry":{"type":"Polygon","coordinates":[[[-42.9508,-22.1313],[-42.9547,-22.1228],[-42.9522,-22.1179],[-42.9483,-22.1249],[-42.9508,-22.1312],[-42.9508,-22.1313]]]}},{"type":"Feature","properties":{"cod_imovel":"RJ-3305158-531A71C08AD94D00A475BCF4BA26B8D9","num_area":"7.0082000000000000000000000000000","ind_status":"AT","des_condic":"Aguardando analise"},"geometry":{"type":"Polygon","coordinates":[[[-42.7926,-22.1386],[-42.7892,-22.1377],[-42.7927,-22.1384],[-42.7926,-22.1386]],[[-42.7923,-22.1373],[-42.7892,-22.1365],[-42.7922,-22.1372],[-42.7923,-22.1373]]]}},{"type":"Feature","properties":{"cod_imovel":"RJ-3305158-3DE21F37589B40FA88AC4653DC0CE3C9","num_area":"50.414900000000000000000000000000","ind_status":"AT","des_condic":"Aguardando analise"},"geometry":{"type":"Polygon","coordinates":[[[-42.9124,-22.1639],[-42.9157,-22.1667],[-42.9128,-22.1635],[-42.9124,-22.1639]],[[-42.9081,-22.1678],[-42.9144,-22.1752],[-42.9134,-22.1676],[-42.9082,-22.1677],[-42.9081,-22.1678]],[[-42.9125,-22.1689],[-42.9101,-22.1659],[-42.9125,-22.1689],[-42.9125,-22.1689]]]}},{"type":"Feature","properties":{"cod_imovel":"RJ-3305158-835F570A350B483F891C311A8F98D425","num_area":"113.90200000000000000000000000000","ind_status":"AT","des_condic":"Aguardando analise"},"geometry":{"type":"Polygon","coordinates":[[[-42.947,-22.1048],[-42.9484,-22.1135],[-42.9533,-22.1023],[-42.9544,-22.1147],[-42.9621,-22.1022],[-42.9579,-22.0977],[-42.947,-22.1039],[-42.947,-22.1048]],[[-42.9487,-22.1124],[-42.9457,-22.1121],[-42.9492,-22.1022],[-42.9496,-22.1089],[-42.9487,-22.1124]],[[-42.9564,-22.1148],[-42.9615,-22.1061],[-42.9582,-22.1148],[-42.9564,-22.1148]],[[-42.9622,-22.0985],[-42.9579,-22.0977],[-42.9622,-22.0985],[-42.9622,-22.0985]]]}},{"type":"Feature","properties":{"cod_imovel":"RJ-3305158-3822B6E49A9B480D80FD01C4554E7053","num_area":"35.965700000000000000000000000000","ind_status":"AT","des_condic":"Aguardando analise"},"geometry":{"type":"Polygon","coordinates":[[[-42.9407,-22.1061],[-42.9417,-22.1101],[-42.9474,-22.1049],[-42.9419,-22.1023],[-42.941,-22.1058],[-42.9407,-22.1061]]]}},{"type":"Feature","properties":{"cod_imovel":"RJ-3305158-71597A10A04F4B36AE8B65D47A5E49E3","num_area":"147.27630000000000000000000000000","ind_status":"AT","des_condic":"Aguardando analise"},"geometry":{"type":"Polygon","coordinates":[[[-42.9854,-22.2121],[-42.9875,-22.2098],[-42.985,-22.2118],[-42.9854,-22.2121]],[[-42.9816,-22.1941],[-42.9781,-22.1984],[-42.9822,-22.1938],[-42.9816,-22.1941]],[[-42.982,-22.2031],[-42.9839,-22.1946],[-42.9818,-22.2033],[-42.982,-22.2031]],[[-42.9738,-22.2043],[-42.9681,-22.2264],[-42.9829,-22.21],[-42.9772,-22.2128],[-42.9742,-22.2041],[-42.9738,-22.2043]]]}},{"type":"Feature","properties":{"cod_imovel":"RJ-3305158-D696EB30D8C54234B502BF4B2355B8FA","num_area":"16.664000000000000000000000000000","ind_status":"AT","des_condic":"Aguardando analise"},"geometry":{"type":"Polygon","coordinates":[[[-42.948,-22.2036],[-42.9484,-22.2084],[-42.9485,-22.2038],[-42.948,-22.2036]]]}},{"type":"Feature","properties":{"cod_imovel":"RJ-3305158-7EE774FA3C9A4097A10127B9771C6C7B","num_area":"13.718100000000000000000000000000","ind_status":"AT","des_condic":"Aguardando analise"},"geometry":{"type":"Polygon","coordinates":[[[-42.8412,-22.1697],[-42.8389,-22.1658],[-42.8404,-22.1693],[-42.8412,-22.1697]],[[-42.8379,-22.1659],[-42.8388,-22.1703],[-42.8379,-22.1659],[-42.8379,-22.1659]]]}},{"type":"Feature","properties":{"cod_imovel":"RJ-3305158-57A9E97819994597BAFFBE295563892C","num_area":"11.614200000000000000000000000000","ind_status":"AT","des_condic":"Aguardando analise"},"geometry":{"type":"Polygon","coordinates":[[[-42.934,-22.133],[-42.9295,-22.1371],[-42.9342,-22.133],[-42.934,-22.133]]]}},{"type":"Feature","properties":{"cod_imovel":"RJ-3305158-C6E945E1CEA84D95A8D2F413A458DE9E","num_area":"7.1116000000000000000000000000000","ind_status":"AT","des_condic":"Aguardando analise"},"geometry":{"type":"Polygon","coordinates":[[[-42.8253,-22.1667],[-42.8271,-22.1634],[-42.8238,-22.166],[-42.8253,-22.1667]]]}},{"type":"Feature","properties":{"cod_imovel":"RJ-3305158-39C1E131EFA74C36A77D402B9EBAB2BF","num_area":"4.9601000000000000000000000000000","ind_status":"AT","des_condic":"Aguardando analise"},"geometry":{"type":"Polygon","coordinates":[[[-42.9362,-22.1755],[-42.94,-22.1762],[-42.9365,-22.1755],[-42.9362,-22.1755]],[[-42.9359,-22.1768],[-42.9382,-22.1797],[-42.9359,-22.1768],[-42.9359,-22.1768]]]}},{"type":"Feature","properties":{"cod_imovel":"RJ-3305158-48346D6D869B433E8C5E331F3BADB6A9","num_area":"3.1998000000000000000000000000000","ind_status":"AT","des_condic":"Aguardando analise"},"geometry":{"type":"Polygon","coordinates":[[[-42.9362,-22.187],[-42.9364,-22.1928],[-42.9365,-22.1885],[-42.9362,-22.187]]]}},{"type":"Feature","properties":{"cod_imovel":"RJ-3305158-2D769B6B1C1842EE9F23996664396341","num_area":"9.0588000000000000000000000000000","ind_status":"AT","des_condic":"Aguardando analise"},"geometry":{"type":"Polygon","coordinates":[[[-43.0213,-22.2141],[-43.0144,-22.2174],[-43.0212,-22.2144],[-43.0213,-22.2141]]]}},{"type":"Feature","properties":{"cod_imovel":"RJ-3305158-D058BB2F957C4D6F8B7198510E06AB03","num_area":"1.5088000000000000000000000000000","ind_status":"AT","des_condic":"Aguardando analise"},"geometry":{"type":"Polygon","coordinates":[[[-42.9259,-22.1936],[-42.9301,-22.1947],[-42.9261,-22.1927],[-42.9259,-22.1936]]]}},{"type":"Feature","properties":{"cod_imovel":"RJ-3305158-B9B0B48350714DD88818C781365B5E0A","num_area":"8.6645000000000000000000000000000","ind_status":"AT","des_condic":"Aguardando analise"},"geometry":{"type":"Polygon","coordinates":[[[-42.9706,-22.1691],[-42.9738,-22.1675],[-42.9704,-22.1686],[-42.9706,-22.1691]],[[-42.9738,-22.1674],[-42.97,-22.1679],[-42.9737,-22.1675],[-42.9738,-22.1674]]]}},{"type":"Feature","properties":{"cod_imovel":"RJ-3305158-1E0279055D65427CA7FFCE47B30C431E","num_area":"45.304800000000000000000000000000","ind_status":"AT","des_condic":"Aguardando analise"},"geometry":{"type":"Polygon","coordinates":[[[-42.9151,-22.1471],[-42.911,-22.1411],[-42.9052,-22.1443],[-42.9083,-22.1488],[-42.9145,-22.1472],[-42.9151,-22.1471]],[[-42.9079,-22.1473],[-42.9145,-22.1464],[-42.9105,-22.1476],[-42.9079,-22.1473]],[[-42.9066,-22.1448],[-42.9102,-22.1441],[-42.9073,-22.1454],[-42.9066,-22.1448]],[[-42.9087,-22.1488],[-42.915,-22.1472],[-42.9087,-22.1488],[-42.9087,-22.1488]]]}},{"type":"Feature","properties":{"cod_imovel":"RJ-3305158-7B6D78CFB0AC47608C1D589B93B914FA","num_area":"4.6617000000000000000000000000000","ind_status":"AT","des_condic":"Aguardando analise"},"geometry":{"type":"Polygon","coordinates":[[[-42.8903,-22.1271],[-42.8936,-22.128],[-42.8906,-22.1268],[-42.8903,-22.1271]]]}},{"type":"Feature","properties":{"cod_imovel":"RJ-3305158-812FBF7DBB2A4CE396AF07293591F1EF","num_area":"7.6961000000000000000000000000000","ind_status":"AT","des_condic":"Aguardando analise"},"geometry":{"type":"Polygon","coordinates":[[[-42.9146,-22.2],[-42.9095,-22.2009],[-42.9147,-22.2],[-42.9146,-22.2]]]}},{"type":"Feature","properties":{"cod_imovel":"RJ-3305158-0271778C4D974D48A041791CB332216F","num_area":"11.683200000000000000000000000000","ind_status":"AT","des_condic":"Aguardando analise"},"geometry":{"type":"Polygon","coordinates":[[[-42.9508,-22.1003],[-42.9479,-22.0984],[-42.9493,-22.1019],[-42.9508,-22.1003]],[[-42.9482,-22.1001],[-42.9443,-22.102],[-42.9482,-22.1002],[-42.9482,-22.1001]]]}},{"type":"Feature","properties":{"cod_imovel":"RJ-3305158-0CC32BAEFE5345AF90A2BED2E6BC6290","num_area":"6.7166000000000000000000000000000","ind_status":"AT","des_condic":"Aguardando analise"},"geometry":{"type":"Polygon","coordinates":[[[-42.9625,-22.1802],[-42.9589,-22.18],[-42.9625,-22.1802],[-42.9625,-22.1802]]]}},{"type":"Feature","properties":{"cod_imovel":"RJ-3305158-0AB9D2541AAE44C39408851263A5BD36","num_area":"1.9048000000000000000000000000000","ind_status":"AT","des_condic":"Aguardando analise"},"geometry":{"type":"Polygon","coordinates":[[[-42.939,-22.1639],[-42.9414,-22.1613],[-42.939,-22.1638],[-42.939,-22.1639]]]}},{"type":"Feature","properties":{"cod_imovel":"RJ-3305158-0E69BB884746413E8865423F33F33495","num_area":"14.712800000000000000000000000000","ind_status":"AT","des_condic":"Aguardando analise"},"geometry":{"type":"Polygon","coordinates":[[[-42.9155,-22.2039],[-42.9087,-22.202],[-42.9154,-22.2042],[-42.9155,-22.2039]]]}},{"type":"Feature","properties":{"cod_imovel":"RJ-3305158-10CC8891CE644F058D1C6023759993AC","num_area":"21.985800000000000000000000000000","ind_status":"AT","des_condic":"Aguardando analise"},"geometry":{"type":"Polygon","coordinates":[[[-42.9699,-22.1023],[-42.9669,-22.1049],[-42.9699,-22.1023],[-42.9699,-22.1023]],[[-42.9697,-22.1022],[-42.9608,-22.1034],[-42.9697,-22.1022],[-42.9697,-22.1022]]]}},{"type":"Feature","properties":{"cod_imovel":"RJ-3305158-1154218EEDE54371AA24FF6BC0DABF9E","num_area":"3.7588000000000000000000000000000","ind_status":"AT","des_condic":"Aguardando analise"},"geometry":{"type":"Polygon","coordinates":[[[-42.9632,-22.1422],[-42.9591,-22.1423],[-42.9631,-22.1422],[-42.9632,-22.1422]]]}},{"type":"Feature","properties":{"cod_imovel":"RJ-3305158-126E9BEF904D48379F4101867DFB5C12","num_area":"8.1299000000000000000000000000000","ind_status":"AT","des_condic":"Aguardando analise"},"geometry":{"type":"Polygon","coordinates":[[[-42.8872,-22.138],[-42.884,-22.1399],[-42.887,-22.138],[-42.8872,-22.138]],[[-42.8828,-22.1405],[-42.8861,-22.136],[-42.8828,-22.1409],[-42.8828,-22.1405]]]}},{"type":"Feature","properties":{"cod_imovel":"RJ-3305158-19BD305BBB704A93930315A893498DF5","num_area":"4.1556000000000000000000000000000","ind_status":"AT","des_condic":"Aguardando analise"},"geometry":{"type":"Polygon","coordinates":[[[-42.9287,-22.179],[-42.9282,-22.1844],[-42.9288,-22.1791],[-42.9287,-22.179]]]}},{"type":"Feature","properties":{"cod_imovel":"RJ-3305158-1F8F44540559458B87CF80FC87DD9E8F","num_area":"27.749700000000000000000000000000","ind_status":"AT","des_condic":"Aguardando analise"},"geometry":{"type":"Polygon","coordinates":[[[-42.953,-22.1669],[-42.949,-22.1632],[-42.9461,-22.1661],[-42.9528,-22.1667],[-42.953,-22.1669]],[[-42.9504,-22.1687],[-42.9487,-22.1643],[-42.9502,-22.1686],[-42.9504,-22.1687]]]}},{"type":"Feature","properties":{"cod_imovel":"RJ-3305158-320613C342B94AC793E21B405C097979","num_area":"21.719900000000000000000000000000","ind_status":"AT","des_condic":"Aguardando analise"},"geometry":{"type":"Polygon","coordinates":[[[-42.8081,-22.1397],[-42.8044,-22.1336],[-42.8081,-22.1397],[-42.8081,-22.1397]],[[-42.8087,-22.1419],[-42.8119,-22.1431],[-42.8077,-22.141],[-42.8087,-22.1419]]]}},{"type":"Feature","properties":{"cod_imovel":"RJ-3305158-3690758AAC1A42C1A60610102137779D","num_area":"13.171200000000000000000000000000","ind_status":"AT","des_condic":"Aguardando analise"},"geometry":{"type":"Polygon","coordinates":[[[-42.8906,-22.1415],[-42.8853,-22.1409],[-42.8899,-22.1425],[-42.8906,-22.1415]]]}},{"type":"Feature","properties":{"cod_imovel":"RJ-3305158-388CE2ED670D4CD6A37A258277569117","num_area":"7.8787000000000000000000000000000","ind_status":"AT","des_condic":"Aguardando analise"},"geometry":{"type":"Polygon","coordinates":[[[-42.9337,-22.1346],[-42.9303,-22.1349],[-42.9335,-22.1348],[-42.9337,-22.1346]]]}},{"type":"Feature","properties":{"cod_imovel":"RJ-3305158-38B4106B09AC40308A6169B99FEA29CF","num_area":"6.3481000000000000000000000000000","ind_status":"AT","des_condic":"Aguardando analise"},"geometry":{"type":"Polygon","coordinates":[[[-42.9613,-22.1382],[-42.9571,-22.1372],[-42.9609,-22.1381],[-42.9613,-22.1382]]]}},{"type":"Feature","properties":{"cod_imovel":"RJ-3305158-38EA04DA1417471A99F3C1AC44D7C2E1","num_area":"23.583800000000000000000000000000","ind_status":"AT","des_condic":"Aguardando analise"},"geometry":{"type":"Polygon","coordinates":[[[-42.916,-22.1686],[-42.9136,-22.1739],[-42.9192,-22.1715],[-42.9163,-22.1687],[-42.916,-22.1686]]]}},{"type":"Feature","properties":{"cod_imovel":"RJ-3305158-39C03BB016314ABD96E27731BFCE4EBD","num_area":"17.597800000000000000000000000000","ind_status":"AT","des_condic":"Aguardando analise"},"geometry":{"type":"Polygon","coordinates":[[[-42.892,-22.1458],[-42.8981,-22.1446],[-42.8914,-22.1437],[-42.892,-22.1458]],[[-42.894,-22.1469],[-42.8972,-22.1455],[-42.8939,-22.1464],[-42.894,-22.1469]]]}},{"type":"Feature","properties":{"cod_imovel":"RJ-3305158-3F0BAB707D0F4838B77AEA35B02D8E8D","num_area":"12.659600000000000000000000000000","ind_status":"AT","des_condic":"Aguardando analise"},"geometry":{"type":"Polygon","coordinates":[[[-42.888,-22.1411],[-42.889,-22.1379],[-42.8849,-22.1408],[-42.888,-22.1411]]]}},{"type":"Feature","properties":{"cod_imovel":"RJ-3305158-4223D248643143D59A77719245DBD36A","num_area":"22.577200000000000000000000000000","ind_status":"AT","des_condic":"Aguardando analise"},"geometry":{"type":"Polygon","coordinates":[[[-42.9325,-22.1644],[-42.9329,-22.169],[-42.936,-22.165],[-42.9325,-22.1643],[-42.9325,-22.1644]]]}},{"type":"Feature","properties":{"cod_imovel":"RJ-3305158-41985CB89359498A904882F986E55912","num_area":"7.2968000000000000000000000000000","ind_status":"AT","des_condic":"Aguardando analise"},"geometry":{"type":"Polygon","coordinates":[[[-42.9596,-22.1489],[-42.956,-22.1477],[-42.9595,-22.1489],[-42.9596,-22.1489]],[[-42.9564,-22.1469],[-42.9594,-22.1488],[-42.956,-22.1477],[-42.9564,-22.1469]],[[-42.9645,-22.1519],[-42.9588,-22.1496],[-42.9622,-22.152],[-42.9645,-22.1519]]]}},{"type":"Feature","properties":{"cod_imovel":"RJ-3305158-45EF06F8EED449128134130C50B37AC1","num_area":"12.937800000000000000000000000000","ind_status":"AT","des_condic":"Aguardando analise"},"geometry":{"type":"Polygon","coordinates":[[[-42.9254,-22.1756],[-42.9275,-22.1723],[-42.9252,-22.175],[-42.9254,-22.1756]]]}},{"type":"Feature","properties":{"cod_imovel":"RJ-3305158-484E904791F14482B88CF891BAAAC09F","num_area":"37.047200000000000000000000000000","ind_status":"AT","des_condic":"Aguardando analise"},"geometry":{"type":"Polygon","coordinates":[[[-42.9279,-22.1297],[-42.9197,-22.1287],[-42.9157,-22.1354],[-42.9279,-22.1298],[-42.9279,-22.1297]]]}},{"type":"Feature","properties":{"cod_imovel":"RJ-3305158-48A4C6EFB00A4F20ACD85A3C9378A5F3","num_area":"5.6127000000000000000000000000000","ind_status":"AT","des_condic":"Aguardando analise"},"geometry":{"type":"Polygon","coordinates":[[[-42.902,-22.1345],[-42.8964,-22.1357],[-42.901,-22.1349],[-42.902,-22.1345]]]}},{"type":"Feature","properties":{"cod_imovel":"RJ-3305158-4BF6478DFC804F359105F9CF1494A7F8","num_area":"64.515200000000000000000000000000","ind_status":"AT","des_condic":"Aguardando analise"},"geometry":{"type":"Polygon","coordinates":[[[-42.9697,-22.0924],[-42.9722,-22.0988],[-42.9705,-22.0916],[-42.9697,-22.0924]],[[-42.9696,-22.0981],[-42.9629,-22.1006],[-42.968,-22.1036],[-42.9697,-22.0981],[-42.9696,-22.0981]],[[-42.9736,-22.0977],[-42.9711,-22.0909],[-42.9731,-22.0981],[-42.9736,-22.0977]]]}},{"type":"Feature","properties":{"cod_imovel":"RJ-3305158-4C1C19AEC8D2406BAC9D098311E44E0F","num_area":"11.774000000000000000000000000000","ind_status":"AT","des_condic":"Aguardando analise"},"geometry":{"type":"Polygon","coordinates":[[[-42.9248,-22.2002],[-42.9259,-22.2049],[-42.9251,-22.2002],[-42.9248,-22.2002]]]}},{"type":"Feature","properties":{"cod_imovel":"RJ-3305158-1532B40672ED4B138A57661648081F55","num_area":"3.9234000000000000000000000000000","ind_status":"AT","des_condic":"Aguardando analise"},"geometry":{"type":"Polygon","coordinates":[[[-42.886,-22.17],[-42.8854,-22.1663],[-42.8856,-22.1701],[-42.886,-22.17]]]}},{"type":"Feature","properties":{"cod_imovel":"RJ-3305158-DEB060403B38404FB58CCA60E2A3F0F4","num_area":"22.350400000000000000000000000000","ind_status":"AT","des_condic":"Aguardando analise"},"geometry":{"type":"Polygon","coordinates":[[[-42.7807,-22.129],[-42.7795,-22.1333],[-42.7807,-22.1289],[-42.7807,-22.129]],[[-42.7806,-22.1288],[-42.7747,-22.127],[-42.7794,-22.1333],[-42.7806,-22.1289],[-42.7806,-22.1288]]]}},{"type":"Feature","properties":{"cod_imovel":"RJ-3305158-9028BF9A3D0E41628A9AE023994ADC37","num_area":"14.072500000000000000000000000000","ind_status":"AT","des_condic":"Aguardando analise"},"geometry":{"type":"Polygon","coordinates":[[[-42.9072,-22.1291],[-42.9061,-22.1258],[-42.9063,-22.1292],[-42.9072,-22.1291]],[[-42.9027,-22.126],[-42.9044,-22.1294],[-42.903,-22.1262],[-42.9027,-22.126]]]}},{"type":"Feature","properties":{"cod_imovel":"RJ-3305158-CEB8F4092DD244CFB72D18D511F1E1EB","num_area":"3.4777000000000000000000000000000","ind_status":"AT","des_condic":"Aguardando analise"},"geometry":{"type":"Polygon","coordinates":[[[-42.9793,-22.1643],[-42.9814,-22.161],[-42.9796,-22.1639],[-42.9793,-22.1643]]]}},{"type":"Feature","properties":{"cod_imovel":"RJ-3305158-4CEF4A17F58746928260F897B80C0883","num_area":"13.624900000000000000000000000000","ind_status":"AT","des_condic":"Aguardando analise"},"geometry":{"type":"Polygon","coordinates":[[[-43.0411,-22.2013],[-43.0435,-22.1976],[-43.0404,-22.2008],[-43.0411,-22.2013]],[[-43.0428,-22.1976],[-43.0383,-22.1994],[-43.0428,-22.1976],[-43.0428,-22.1976]]]}},{"type":"Feature","properties":{"cod_imovel":"RJ-3305158-4E9ACA01FB944DF1AD90299143ABC148","num_area":"35.958000000000000000000000000000","ind_status":"AT","des_condic":"Aguardando analise"},"geometry":{"type":"Polygon","coordinates":[[[-42.9515,-22.1302],[-42.9535,-22.1274],[-42.9522,-22.1301],[-42.9515,-22.1302]],[[-42.9505,-22.1331],[-42.9452,-22.1302],[-42.9505,-22.1331],[-42.9505,-22.1331]],[[-42.9545,-22.1125],[-42.9558,-22.1226],[-42.9544,-22.1129],[-42.9545,-22.1125]],[[-42.9549,-22.1225],[-42.9544,-22.1279],[-42.9549,-22.1226],[-42.9549,-22.1225]],[[-42.943,-22.1385],[-42.9481,-22.1362],[-42.9431,-22.1381],[-42.943,-22.1385]]]}},{"type":"Feature","properties":{"cod_imovel":"RJ-3305158-4F5E1B6413EB45A79B02F39674D02B4E","num_area":"6.8136000000000000000000000000000","ind_status":"AT","des_condic":"Aguardando analise"},"geometry":{"type":"Polygon","coordinates":[[[-42.9796,-22.1671],[-42.9736,-22.1694],[-42.9794,-22.1672],[-42.9796,-22.1671]]]}},{"type":"Feature","properties":{"cod_imovel":"RJ-3305158-56B092F6A4A94A3286F6DD9869AAF990","num_area":"4.1319000000000000000000000000000","ind_status":"AT","des_condic":"Aguardando analise"},"geometry":{"type":"Polygon","coordinates":[[[-42.9791,-22.1692],[-42.9757,-22.1692],[-42.9791,-22.1693],[-42.9791,-22.1692]]]}},{"type":"Feature","properties":{"cod_imovel":"RJ-3305158-566E6CDE32D2446EAA4F0537ED8332E1","num_area":"1.7063000000000000000000000000000","ind_status":"AT","des_condic":"Aguardando analise"},"geometry":{"type":"Polygon","coordinates":[[[-42.9589,-22.1779],[-42.9573,-22.175],[-42.9589,-22.1779],[-42.9589,-22.1779]]]}},{"type":"Feature","properties":{"cod_imovel":"RJ-3305158-64C3AF16969C44FDB02773AC049468D7","num_area":"6.5384000000000000000000000000000","ind_status":"AT","des_condic":"Aguardando analise"},"geometry":{"type":"Polygon","coordinates":[[[-42.9544,-22.1816],[-42.9584,-22.1826],[-42.9542,-22.1818],[-42.9544,-22.1816]]]}},{"type":"Feature","properties":{"cod_imovel":"RJ-3305158-647FF574A3CC461487A440580ECBC2B0","num_area":"5.3601000000000000000000000000000","ind_status":"AT","des_condic":"Aguardando analise"},"geometry":{"type":"Polygon","coordinates":[[[-43.0418,-22.1982],[-43.0362,-22.1968],[-43.0415,-22.1986],[-43.0418,-22.1982]]]}},{"type":"Feature","properties":{"cod_imovel":"RJ-3305158-64AF307D182B48C583F87492DA256F88","num_area":"2.0444000000000000000000000000000","ind_status":"AT","des_condic":"Aguardando analise"},"geometry":{"type":"Polygon","coordinates":[[[-42.969,-22.1769],[-42.9727,-22.1778],[-42.9691,-22.1769],[-42.969,-22.1769]]]}},{"type":"Feature","properties":{"cod_imovel":"RJ-3305158-6627C76101574D4D855CB11C4E0589C8","num_area":"7.9516000000000000000000000000000","ind_status":"AT","des_condic":"Aguardando analise"},"geometry":{"type":"Polygon","coordinates":[[[-42.9879,-22.1659],[-42.9837,-22.1658],[-42.9869,-22.1654],[-42.9879,-22.1659]],[[-42.9879,-22.1657],[-42.9837,-22.1653],[-42.9878,-22.1657],[-42.9879,-22.1657]],[[-42.9883,-22.164],[-42.9837,-22.1652],[-42.9883,-22.164],[-42.9883,-22.164]]]}},{"type":"Feature","properties":{"cod_imovel":"RJ-3305158-686FE191AF1F412E967EABC1D6848AA9","num_area":"1.0000000000000000000000000000000","ind_status":"AT","des_condic":"Aguardando analise"},"geometry":{"type":"Polygon","coordinates":[[[-43.0028,-22.1966],[-42.9982,-22.1987],[-43.0023,-22.1968],[-43.0028,-22.1966]]]}},{"type":"Feature","properties":{"cod_imovel":"RJ-3305158-6B4CD6B386BC41C59E26A181BE6014CE","num_area":"24.512300000000000000000000000000","ind_status":"AT","des_condic":"Aguardando analise"},"geometry":{"type":"Polygon","coordinates":[[[-42.7701,-22.132],[-42.767,-22.1256],[-42.77,-22.132],[-42.7701,-22.132]]]}},{"type":"Feature","properties":{"cod_imovel":"RJ-3305158-75A8D93F45B14685849F402685F60E5A","num_area":"1.1198000000000000000000000000000","ind_status":"AT","des_condic":"Aguardando analise"},"geometry":{"type":"Polygon","coordinates":[[[-42.8932,-22.1457],[-42.8922,-22.1419],[-42.8931,-22.1457],[-42.8932,-22.1457]]]}},{"type":"Feature","properties":{"cod_imovel":"RJ-3305158-790ADA5D3A064DC895582C0C016CB033","num_area":"0.7833000000000000000000000000000","ind_status":"AT","des_condic":"Aguardando analise"},"geometry":{"type":"Polygon","coordinates":[[[-42.9995,-22.1888],[-43.0041,-22.1885],[-42.9995,-22.1888],[-42.9995,-22.1888]]]}},{"type":"Feature","properties":{"cod_imovel":"RJ-3305158-851C649EDEBB45D0866523E58EBEA589","num_area":"38.689600000000000000000000000000","ind_status":"AT","des_condic":"Aguardando analise"},"geometry":{"type":"Polygon","coordinates":[[[-42.9244,-22.2048],[-42.9188,-22.2016],[-42.9241,-22.2041],[-42.9244,-22.2048]],[[-42.922,-22.2077],[-42.9244,-22.2048],[-42.9221,-22.2077],[-42.922,-22.2077]],[[-42.9188,-22.2016],[-42.9221,-22.2084],[-42.9187,-22.2017],[-42.9188,-22.2016]],[[-42.9185,-22.2051],[-42.9168,-22.2094],[-42.9208,-22.2114],[-42.9186,-22.2052],[-42.9185,-22.2051]]]}},{"type":"Feature","properties":{"cod_imovel":"RJ-3305158-7D3A9A6ECE954EBA9C1CD55031C896D0","num_area":"312.13450000000000000000000000000","ind_status":"AT","des_condic":"Aguardando analise"},"geometry":{"type":"Polygon","coordinates":[[[-42.9087,-22.1121],[-42.9013,-22.1225],[-42.9083,-22.1131],[-42.9087,-22.1121]],[[-42.913,-22.1046],[-42.9022,-22.1022],[-42.9066,-22.1103],[-42.9128,-22.105],[-42.913,-22.1046]],[[-42.924,-22.1144],[-42.9223,-22.1095],[-42.9108,-22.1121],[-42.9026,-22.1233],[-42.9137,-22.1242],[-42.922,-22.1171],[-42.924,-22.1144]],[[-42.923,-22.1145],[-42.9126,-22.1192],[-42.922,-22.1112],[-42.923,-22.1145]],[[-42.916,-22.12],[-42.9125,-22.1223],[-42.916,-22.12],[-42.916,-22.12]],[[-42.911,-22.1109],[-42.9033,-22.1216],[-42.9108,-22.1121],[-42.911,-22.1109]],[[-42.911,-22.11],[-42.9066,-22.1119],[-42.9094,-22.1107],[-42.911,-22.11]],[[-42.9148,-22.1021],[-42.9095,-22.1018],[-42.9157,-22.1026],[-42.9148,-22.1021]],[[-42.9223,-22.1089],[-42.9158,-22.1027],[-42.9108,-22.1121],[-42.9223,-22.1095],[-42.9223,-22.1089]],[[-42.9174,-22.1044],[-42.9219,-22.1089],[-42.9128,-22.1118],[-42.9174,-22.1044]],[[-42.9151,-22.1042],[-42.911,-22.11],[-42.9142,-22.1049],[-42.9151,-22.1042]]]}},{"type":"Feature","properties":{"cod_imovel":"RJ-3305158-7E276F1067544848885FCCB691D27E1B","num_area":"8.5531000000000000000000000000000","ind_status":"AT","des_condic":"Aguardando analise"},"geometry":{"type":"Polygon","coordinates":[[[-42.9834,-22.1866],[-42.9796,-22.1873],[-42.9832,-22.1878],[-42.9834,-22.1866]],[[-42.9826,-22.1858],[-42.9773,-22.1872],[-42.9813,-22.1853],[-42.9826,-22.1858]]]}},{"type":"Feature","properties":{"cod_imovel":"RJ-3305158-88979F41D9B04A9EAC07EADBD2DB13A3","num_area":"11.795800000000000000000000000000","ind_status":"AT","des_condic":"Aguardando analise"},"geometry":{"type":"Polygon","coordinates":[[[-42.8913,-22.141],[-42.8909,-22.1372],[-42.8907,-22.1413],[-42.8913,-22.141]]]}},{"type":"Feature","properties":{"cod_imovel":"RJ-3305158-896B8CE6433D4DCFAF6653338CE2831C","num_area":"8.6312000000000000000000000000000","ind_status":"AT","des_condic":"Aguardando analise"},"geometry":{"type":"Polygon","coordinates":[[[-42.8792,-22.1451],[-42.8753,-22.1433],[-42.8779,-22.1453],[-42.8792,-22.1451]]]}},{"type":"Feature","properties":{"cod_imovel":"RJ-3305158-8CBE6B4CA07042D7B3650E761F1FB1EF","num_area":"7.0486000000000000000000000000000","ind_status":"AT","des_condic":"Aguardando analise"},"geometry":{"type":"Polygon","coordinates":[[[-42.7828,-22.1234],[-42.7792,-22.1237],[-42.7828,-22.1235],[-42.7828,-22.1234]]]}},{"type":"Feature","properties":{"cod_imovel":"RJ-3305158-91561D36618641B3AA0AC2212AB006F9","num_area":"17.420500000000000000000000000000","ind_status":"AT","des_condic":"Aguardando analise"},"geometry":{"type":"Polygon","coordinates":[[[-42.9536,-22.0997],[-42.9513,-22.0957],[-42.9536,-22.0997],[-42.9536,-22.0997]],[[-42.954,-22.0995],[-42.9541,-22.0946],[-42.9539,-22.0994],[-42.954,-22.0995]],[[-42.9576,-22.0966],[-42.9558,-22.0935],[-42.9576,-22.0966],[-42.9576,-22.0966]]]}},{"type":"Feature","properties":{"cod_imovel":"RJ-3305158-938E056BDE99440A9ABF9EAB87EAC99A","num_area":"15.718800000000000000000000000000","ind_status":"AT","des_condic":"Aguardando analise"},"geometry":{"type":"Polygon","coordinates":[[[-42.9491,-22.2173],[-42.957,-22.2163],[-42.9492,-22.2172],[-42.9491,-22.2173]],[[-42.9536,-22.213],[-42.9492,-22.2158],[-42.9524,-22.2137],[-42.9536,-22.213]]]}},{"type":"Feature","properties":{"cod_imovel":"RJ-3305158-9FE8E7CEAB4A4A5788AA9A1DA99AF6E8","num_area":"29.461000000000000000000000000000","ind_status":"AT","des_condic":"Aguardando analise"},"geometry":{"type":"Polygon","coordinates":[[[-42.9,-22.1331],[-42.8968,-22.1284],[-42.8942,-22.1311],[-42.8994,-22.1329],[-42.9,-22.1331]],[[-42.8923,-22.1328],[-42.8957,-22.1331],[-42.892,-22.1326],[-42.8923,-22.1328]],[[-42.8942,-22.1309],[-42.8967,-22.1284],[-42.8946,-22.1305],[-42.8942,-22.1309]]]}},{"type":"Feature","properties":{"cod_imovel":"RJ-3305158-9E844F703A78438D861378AEAC334379","num_area":"0.6831000000000000000000000000000","ind_status":"AT","des_condic":"Aguardando analise"},"geometry":{"type":"Polygon","coordinates":[[[-42.8025,-22.1468],[-42.8007,-22.1439],[-42.8025,-22.1468],[-42.8025,-22.1468]]]}},{"type":"Feature","properties":{"cod_imovel":"RJ-3305158-B9B9ACB05B2D4CDDB083544091C814C0","num_area":"61.507900000000000000000000000000","ind_status":"AT","des_condic":"Aguardando analise"},"geometry":{"type":"Polygon","coordinates":[[[-42.9109,-22.1806],[-42.9139,-22.1836],[-42.9272,-22.1773],[-42.9143,-22.1765],[-42.9114,-22.1806],[-42.9109,-22.1806]],[[-42.9278,-22.177],[-42.9216,-22.1771],[-42.9272,-22.1773],[-42.9278,-22.177]]]}},{"type":"Feature","properties":{"cod_imovel":"RJ-3305158-A15AB875FF4B4BD7B6217EEA4FC44DE0","num_area":"9.6861000000000000000000000000000","ind_status":"AT","des_condic":"Aguardando analise"},"geometry":{"type":"Polygon","coordinates":[[[-42.9194,-22.1987],[-42.9221,-22.2009],[-42.9199,-22.1981],[-42.9194,-22.1987]]]}},{"type":"Feature","properties":{"cod_imovel":"RJ-3305158-AA45C3AF360745AEBFE4137989E7E21C","num_area":"13.152900000000000000000000000000","ind_status":"AT","des_condic":"Aguardando analise"},"geometry":{"type":"Polygon","coordinates":[[[-42.9566,-22.1716],[-42.9525,-22.1753],[-42.9563,-22.1714],[-42.9566,-22.1716]],[[-42.9524,-22.1722],[-42.9522,-22.1755],[-42.9524,-22.1722],[-42.9524,-22.1722]],[[-42.952,-22.1725],[-42.9519,-22.1756],[-42.952,-22.1726],[-42.952,-22.1725]]]}},{"type":"Feature","properties":{"cod_imovel":"RJ-3305158-BE2E6CEEAB9541A0BFCB7470EAE51DB5","num_area":"2.9835000000000000000000000000000","ind_status":"AT","des_condic":"Aguardando analise"},"geometry":{"type":"Polygon","coordinates":[[[-42.9629,-22.1462],[-42.9666,-22.1444],[-42.9629,-22.1462],[-42.9629,-22.1462]]]}},{"type":"Feature","properties":{"cod_imovel":"RJ-3305158-B46A71F49BC14E84B41DD94F52AD1CCF","num_area":"15.100200000000000000000000000000","ind_status":"AT","des_condic":"Aguardando analise"},"geometry":{"type":"Polygon","coordinates":[[[-42.9184,-22.1968],[-42.9118,-22.1969],[-42.9182,-22.197],[-42.9184,-22.1968]]]}},{"type":"Feature","properties":{"cod_imovel":"RJ-3305158-B6EFE7F3A7D7459E8D0A0AA0C1796F03","num_area":"21.523800000000000000000000000000","ind_status":"AT","des_condic":"Aguardando analise"},"geometry":{"type":"Polygon","coordinates":[[[-42.9201,-22.1897],[-42.9132,-22.1888],[-42.913,-22.1928],[-42.9194,-22.1925],[-42.9201,-22.1897]]]}},{"type":"Feature","properties":{"cod_imovel":"RJ-3305158-B79111AFF4B540EEBEACEA5188AB211F","num_area":"14.764200000000000000000000000000","ind_status":"AT","des_condic":"Aguardando analise"},"geometry":{"type":"Polygon","coordinates":[[[-42.9792,-22.1636],[-42.9769,-22.1585],[-42.9787,-22.1639],[-42.9792,-22.1636]]]}},{"type":"Feature","properties":{"cod_imovel":"RJ-3305158-B9EFE8FD4DD54BA1AE826FE950C14B5A","num_area":"6.7047000000000000000000000000000","ind_status":"AT","des_condic":"Aguardando analise"},"geometry":{"type":"Polygon","coordinates":[[[-42.7918,-22.127],[-42.7951,-22.1249],[-42.7918,-22.127],[-42.7918,-22.127]]]}},{"type":"Feature","properties":{"cod_imovel":"RJ-3305158-D0219CDEEBAD412BAA236FAB057F9814","num_area":"17.828700000000000000000000000000","ind_status":"AT","des_condic":"Aguardando analise"},"geometry":{"type":"Polygon","coordinates":[[[-43.0102,-22.1572],[-43.0076,-22.1533],[-43.0059,-22.1585],[-43.0091,-22.1577],[-43.0102,-22.1572]]]}},{"type":"Feature","properties":{"cod_imovel":"RJ-3305158-C73EC81A9BD542B18269EA7C0177E443","num_area":"9.6787000000000000000000000000000","ind_status":"AT","des_condic":"Aguardando analise"},"geometry":{"type":"Polygon","coordinates":[[[-42.9415,-22.142],[-42.9428,-22.1378],[-42.9411,-22.1416],[-42.9415,-22.142]],[[-42.9415,-22.142],[-42.9435,-22.1384],[-42.9415,-22.1419],[-42.9415,-22.142]]]}},{"type":"Feature","properties":{"cod_imovel":"RJ-3305158-C816601643E44F2F8AC9EB554A5223BD","num_area":"5.7932000000000000000000000000000","ind_status":"AT","des_condic":"Aguardando analise"},"geometry":{"type":"Polygon","coordinates":[[[-42.9678,-22.1079],[-42.9644,-22.109],[-42.9678,-22.108],[-42.9678,-22.1079]]]}},{"type":"Feature","properties":{"cod_imovel":"RJ-3305158-C8902A61B1EC427494285DE51A8A9CE2","num_area":"4.4634000000000000000000000000000","ind_status":"AT","des_condic":"Aguardando analise"},"geometry":{"type":"Polygon","coordinates":[[[-42.9334,-22.1817],[-42.931,-22.1842],[-42.9333,-22.182],[-42.9334,-22.1817]]]}},{"type":"Feature","properties":{"cod_imovel":"RJ-3305158-C8ED33A0FFE24B37BC73D4A3F1C36B6E","num_area":"7.8683000000000000000000000000000","ind_status":"AT","des_condic":"Aguardando analise"},"geometry":{"type":"Polygon","coordinates":[[[-42.9418,-22.1433],[-42.9349,-22.1431],[-42.9408,-22.1432],[-42.9418,-22.1433]]]}},{"type":"Feature","properties":{"cod_imovel":"RJ-3305158-CAED26C155734808996DE2A8189490A7","num_area":"61.039300000000000000000000000000","ind_status":"AT","des_condic":"Aguardando analise"},"geometry":{"type":"Polygon","coordinates":[[[-42.7913,-22.1432],[-42.795,-22.1453],[-42.7915,-22.143],[-42.7913,-22.1432]],[[-42.795,-22.1454],[-42.7989,-22.1473],[-42.797,-22.1438],[-42.802,-22.1404],[-42.7986,-22.1363],[-42.7928,-22.1422],[-42.7951,-22.1454],[-42.795,-22.1454]]]}},{"type":"Feature","properties":{"cod_imovel":"RJ-3305158-CC3C7BAC5339417AA32383EF437FA88F","num_area":"10.094100000000000000000000000000","ind_status":"AT","des_condic":"Aguardando analise"},"geometry":{"type":"Polygon","coordinates":[[[-42.916,-22.1459],[-42.916,-22.1414],[-42.9159,-22.1456],[-42.916,-22.1459]]]}},{"type":"Feature","properties":{"cod_imovel":"RJ-3305158-CD148459280743428B67B8FBB3DB53F9","num_area":"13.220400000000000000000000000000","ind_status":"AT","des_condic":"Aguardando analise"},"geometry":{"type":"Polygon","coordinates":[[[-42.8847,-22.1478],[-42.8835,-22.1534],[-42.8848,-22.1478],[-42.8847,-22.1478]],[[-42.8848,-22.1478],[-42.8849,-22.1516],[-42.8848,-22.1478],[-42.8848,-22.1478]],[[-42.8817,-22.1487],[-42.883,-22.1533],[-42.8818,-22.1489],[-42.8817,-22.1487]]]}},{"type":"Feature","properties":{"cod_imovel":"RJ-3305158-D3B0367B4C914431B1687A5D16C99501","num_area":"5.7324000000000000000000000000000","ind_status":"AT","des_condic":"Aguardando analise"},"geometry":{"type":"Polygon","coordinates":[[[-42.9614,-22.1476],[-42.957,-22.1466],[-42.9614,-22.1476],[-42.9614,-22.1476]],[[-42.958,-22.1465],[-42.9612,-22.1475],[-42.957,-22.1466],[-42.958,-22.1465]],[[-42.9666,-22.1516],[-42.9612,-22.1483],[-42.9657,-22.1509],[-42.9666,-22.1516]]]}},{"type":"Feature","properties":{"cod_imovel":"RJ-3305158-D560A18545044EF0BD07D6225D514228","num_area":"5.9923000000000000000000000000000","ind_status":"AT","des_condic":"Aguardando analise"},"geometry":{"type":"Polygon","coordinates":[[[-43.0041,-22.1912],[-43.0053,-22.1874],[-43.0038,-22.1911],[-43.0041,-22.1912]]]}},{"type":"Feature","properties":{"cod_imovel":"RJ-3305158-D6A9EA7F9A87472C91C16EC5D5B553AC","num_area":"4.1842000000000000000000000000000","ind_status":"AT","des_condic":"Aguardando analise"},"geometry":{"type":"Polygon","coordinates":[[[-42.9536,-22.1839],[-42.9588,-22.1778],[-42.953,-22.1833],[-42.9536,-22.1839]]]}},{"type":"Feature","properties":{"cod_imovel":"RJ-3305158-D6EB95F6944C45C1902938369CE042BE","num_area":"8.8106000000000000000000000000000","ind_status":"AT","des_condic":"Aguardando analise"},"geometry":{"type":"Polygon","coordinates":[[[-42.9843,-22.2408],[-42.9769,-22.2384],[-42.984,-22.2412],[-42.9843,-22.2408]]]}},{"type":"Feature","properties":{"cod_imovel":"RJ-3305158-D81D1708D2184FA59AE7F3FF26AAF134","num_area":"23.565400000000000000000000000000","ind_status":"AT","des_condic":"Aguardando analise"},"geometry":{"type":"Polygon","coordinates":[[[-42.9458,-22.2274],[-42.954,-22.2246],[-42.9458,-22.2267],[-42.9458,-22.2274]],[[-42.9502,-22.2249],[-42.9466,-22.2275],[-42.9502,-22.2249],[-42.9502,-22.2249]]]}},{"type":"Feature","properties":{"cod_imovel":"RJ-3305158-D8711E2EC88E47538D6CA0B245F3181B","num_area":"14.917000000000000000000000000000","ind_status":"AT","des_condic":"Aguardando analise"},"geometry":{"type":"Polygon","coordinates":[[[-42.965,-22.1704],[-42.9655,-22.1757],[-42.9657,-22.171],[-42.965,-22.1704]]]}},{"type":"Feature","properties":{"cod_imovel":"RJ-3305158-E0474CCB2923440EA7CAC2916D895C11","num_area":"12.094600000000000000000000000000","ind_status":"AT","des_condic":"Aguardando analise"},"geometry":{"type":"Polygon","coordinates":[[[-42.9409,-22.1295],[-42.9359,-22.134],[-42.9401,-22.13],[-42.9409,-22.1295]]]}},{"type":"Feature","properties":{"cod_imovel":"RJ-3305158-E1246AF9765249BA8C75035FABAC7B36","num_area":"5.5540000000000000000000000000000","ind_status":"AT","des_condic":"Aguardando analise"},"geometry":{"type":"Polygon","coordinates":[[[-42.9222,-22.1388],[-42.9222,-22.1421],[-42.9224,-22.1387],[-42.9222,-22.1388]]]}},{"type":"Feature","properties":{"cod_imovel":"RJ-3305158-E7BA6828B20745EE854EA594E4ECDB85","num_area":"18.530700000000000000000000000000","ind_status":"AT","des_condic":"Aguardando analise"},"geometry":{"type":"Polygon","coordinates":[[[-42.9456,-22.163],[-42.9399,-22.167],[-42.9456,-22.1632],[-42.9456,-22.163]],[[-42.9479,-22.1625],[-42.9458,-22.1603],[-42.9479,-22.1625],[-42.9479,-22.1625]],[[-42.9418,-22.1625],[-42.9392,-22.1654],[-42.9457,-22.163],[-42.9422,-22.1627],[-42.9418,-22.1625]]]}},{"type":"Feature","properties":{"cod_imovel":"RJ-3305158-E816B49354164065B37481F1EF228DF9","num_area":"183.83180000000000000000000000000","ind_status":"AT","des_condic":"Aguardando analise"},"geometry":{"type":"Polygon","coordinates":[[[-42.8831,-22.1383],[-42.8798,-22.1371],[-42.8826,-22.1387],[-42.8831,-22.1383]],[[-42.8846,-22.1362],[-42.892,-22.1336],[-42.8847,-22.1362],[-42.8846,-22.1362]],[[-42.8738,-22.1207],[-42.8689,-22.1118],[-42.8653,-22.1276],[-42.8696,-22.1251],[-42.872,-22.1336],[-42.8737,-22.1208],[-42.8738,-22.1207]],[[-42.8713,-22.1261],[-42.8714,-22.1223],[-42.8712,-22.1259],[-42.8713,-22.1261]],[[-42.8689,-22.1118],[-42.8635,-22.1245],[-42.8671,-22.1238],[-42.8687,-22.1125],[-42.8689,-22.1118]],[[-42.8736,-22.121],[-42.8769,-22.1305],[-42.8736,-22.121],[-42.8736,-22.121]],[[-42.8737,-22.1208],[-42.8766,-22.1324],[-42.8736,-22.1209],[-42.8737,-22.1208]]]}},{"type":"Feature","properties":{"cod_imovel":"RJ-3305158-E87ACD92C9CB4F62AF8C55B6AB07456D","num_area":"5.6978000000000000000000000000000","ind_status":"AT","des_condic":"Aguardando analise"},"geometry":{"type":"Polygon","coordinates":[[[-42.9572,-22.1844],[-42.954,-22.1867],[-42.957,-22.1846],[-42.9572,-22.1844]]]}},{"type":"Feature","properties":{"cod_imovel":"RJ-3305158-EC4D8622CA0740229FC48269AD083088","num_area":"12.907900000000000000000000000000","ind_status":"AT","des_condic":"Aguardando analise"},"geometry":{"type":"Polygon","coordinates":[[[-42.9382,-22.1363],[-42.9435,-22.1315],[-42.9379,-22.1359],[-42.9382,-22.1363]]]}},{"type":"Feature","properties":{"cod_imovel":"RJ-3305158-EEB0EE3643544639A264E5003D9D7B7B","num_area":"34.577100000000000000000000000000","ind_status":"AT","des_condic":"Aguardando analise"},"geometry":{"type":"Polygon","coordinates":[[[-42.9201,-22.2197],[-42.9245,-22.2209],[-42.9201,-22.2198],[-42.9201,-22.2197]],[[-42.9325,-22.2223],[-42.9201,-22.2197],[-42.9185,-22.224],[-42.932,-22.2226],[-42.9325,-22.2223]]]}},{"type":"Feature","properties":{"cod_imovel":"RJ-3305158-F163DD303DB64CEA9C0931EDE5D5A149","num_area":"37.448900000000000000000000000000","ind_status":"AT","des_condic":"Aguardando analise"},"geometry":{"type":"Polygon","coordinates":[[[-42.9273,-22.144],[-42.9241,-22.141],[-42.9273,-22.144],[-42.9273,-22.144]],[[-42.926,-22.1465],[-42.9295,-22.1501],[-42.9377,-22.1482],[-42.9261,-22.1464],[-42.926,-22.1465]],[[-42.9378,-22.1481],[-42.9275,-22.1438],[-42.9375,-22.1478],[-42.9378,-22.1481]]]}},{"type":"Feature","properties":{"cod_imovel":"RJ-3305158-F29CB0D52CCC4E8DBF8CA5A41252B02A","num_area":"3.2312000000000000000000000000000","ind_status":"AT","des_condic":"Aguardando analise"},"geometry":{"type":"Polygon","coordinates":[[[-42.9827,-22.1698],[-42.9789,-22.1715],[-42.9822,-22.1696],[-42.9827,-22.1698]]]}},{"type":"Feature","properties":{"cod_imovel":"RJ-3305158-F4F6EF9737DF41CC92155EA1F0EFF4B8","num_area":"20.790200000000000000000000000000","ind_status":"AT","des_condic":"Aguardando analise"},"geometry":{"type":"Polygon","coordinates":[[[-42.9258,-22.1967],[-42.9208,-22.1974],[-42.9254,-22.2035],[-42.9258,-22.1967],[-42.9258,-22.1967]],[[-42.9235,-22.2021],[-42.9228,-22.1978],[-42.9237,-22.2032],[-42.9235,-22.2021]],[[-42.9234,-22.1954],[-42.9204,-22.1969],[-42.9233,-22.1954],[-42.9234,-22.1954]]]}},{"type":"Feature","properties":{"cod_imovel":"RJ-3305158-F75A1AC0B1FB492A83579A1BA9BBA5EB","num_area":"1.1856000000000000000000000000000","ind_status":"AT","des_condic":"Aguardando analise"},"geometry":{"type":"Polygon","coordinates":[[[-42.9262,-22.1369],[-42.9285,-22.1394],[-42.9262,-22.1369],[-42.9262,-22.1369]]]}},{"type":"Feature","properties":{"cod_imovel":"RJ-3305158-F96C50F596A647BBB6C0A7A185042E8C","num_area":"75.385700000000000000000000000000","ind_status":"AT","des_condic":"Aguardando analise"},"geometry":{"type":"Polygon","coordinates":[[[-43.0198,-22.2386],[-43.0257,-22.2432],[-43.0245,-22.2363],[-43.0198,-22.2386],[-43.0198,-22.2386]],[[-43.0298,-22.2189],[-43.0184,-22.2224],[-43.0289,-22.2245],[-43.0298,-22.2189]],[[-43.0178,-22.2247],[-43.0265,-22.23],[-43.0179,-22.2247],[-43.0178,-22.2247]]]}},{"type":"Feature","properties":{"cod_imovel":"RJ-3305158-F9C14CD8237D423383FFF82A4312E66A","num_area":"23.098400000000000000000000000000","ind_status":"AT","des_condic":"Aguardando analise"},"geometry":{"type":"Polygon","coordinates":[[[-42.9358,-22.1645],[-42.9303,-22.1682],[-42.936,-22.1651],[-42.9358,-22.1645]]]}},{"type":"Feature","properties":{"cod_imovel":"RJ-3305158-FE7DF0C1ADAE427EAE3AC150F038A37E","num_area":"27.160400000000000000000000000000","ind_status":"AT","des_condic":"Aguardando analise"},"geometry":{"type":"Polygon","coordinates":[[[-42.9976,-22.1854],[-42.9958,-22.183],[-42.9974,-22.1861],[-42.9976,-22.1854]],[[-42.9935,-22.182],[-42.99,-22.1845],[-42.9945,-22.1868],[-42.9935,-22.1821],[-42.9935,-22.182]],[[-42.9943,-22.1869],[-42.9957,-22.1832],[-42.9943,-22.1868],[-42.9943,-22.1869]]]}},{"type":"Feature","properties":{"cod_imovel":"RJ-3305158-FF3E10DBB6044820A93111C1E38AD31E","num_area":"3.6484000000000000000000000000000","ind_status":"AT","des_condic":"Aguardando analise"},"geometry":{"type":"Polygon","coordinates":[[[-42.9913,-22.2386],[-42.9871,-22.2357],[-42.9904,-22.2396],[-42.9913,-22.2386]],[[-42.9905,-22.2383],[-42.9871,-22.2357],[-42.9908,-22.2383],[-42.9905,-22.2383]],[[-42.9898,-22.2392],[-42.987,-22.2371],[-42.99,-22.239],[-42.9898,-22.2392]]]}},{"type":"Feature","properties":{"cod_imovel":"RJ-3305158-FF71509657454DA08922A8339D98909F","num_area":"13.845500000000000000000000000000","ind_status":"AT","des_condic":"Aguardando analise"},"geometry":{"type":"Polygon","coordinates":[[[-42.9225,-22.2034],[-42.9194,-22.199],[-42.9209,-22.2028],[-42.9225,-22.2034]],[[-42.9194,-22.1989],[-42.9173,-22.2018],[-42.9193,-22.1992],[-42.9194,-22.1989]]]}}]}