{"type":"FeatureCollection","features":[{"type":"Feature","properties":{"cod_imovel":"RJ-3304904-772AFC945B1F43F3832647252614C86D","num_area":"22.245300000000000000000000000000","ind_status":"PE","des_condic":"Aguardando analise, apos revisao ou atendimento da notificacao"},"geometry":{"type":"Polygon","coordinates":[[[-42.9502,-22.7758],[-42.9499,-22.7717],[-42.9501,-22.7755],[-42.9502,-22.7758]],[[-42.9418,-22.7747],[-42.9466,-22.772],[-42.9424,-22.7739],[-42.9418,-22.7747]]]}},{"type":"Feature","properties":{"cod_imovel":"RJ-3304904-8F0A73EF53CD41D48FFD4A7733875531","num_area":"166.57480000000000000000000000000","ind_status":"AT","des_condic":"Analisado, aguardando atendimento a notificacao"},"geometry":{"type":"Polygon","coordinates":[[[-42.9383,-22.8722],[-42.9327,-22.8719],[-42.9287,-22.8792],[-42.9353,-22.8792],[-42.9384,-22.8722],[-42.9383,-22.8722]],[[-42.9351,-22.8836],[-42.929,-22.8839],[-42.9346,-22.8868],[-42.9351,-22.8837],[-42.9351,-22.8836]],[[-42.9359,-22.882],[-42.9351,-22.887],[-42.936,-22.8821],[-42.9359,-22.882]],[[-42.9387,-22.8718],[-42.9372,-22.8837],[-42.9454,-22.8707],[-42.9417,-22.8629],[-42.9387,-22.8718],[-42.9387,-22.8718]],[[-42.9415,-22.8703],[-42.943,-22.8732],[-42.9415,-22.8703],[-42.9415,-22.8703]],[[-42.941,-22.8629],[-42.9388,-22.8716],[-42.9413,-22.8628],[-42.941,-22.8629]]]}},{"type":"Feature","properties":{"cod_imovel":"RJ-3304904-19C570DF77A2491799E10D492029F136","num_area":"239.82320000000000000000000000000","ind_status":"AT","des_condic":"Aguardando analise"},"geometry":{"type":"Polygon","coordinates":[[[-42.8948,-22.8607],[-42.889,-22.8572],[-42.8948,-22.8607],[-42.8948,-22.8607]],[[-42.901,-22.8599],[-42.8983,-22.8514],[-42.8947,-22.859],[-42.901,-22.8599],[-42.901,-22.8599]],[[-42.9029,-22.8682],[-42.9002,-22.8712],[-42.9045,-22.8727],[-42.9066,-22.8643],[-42.8976,-22.8598],[-42.9028,-22.8682],[-42.9029,-22.8682]],[[-42.9065,-22.855],[-42.9034,-22.8479],[-42.9026,-22.856],[-42.9042,-22.8497],[-42.8998,-22.8482],[-42.9041,-22.8566],[-42.9011,-22.8599],[-42.9065,-22.855],[-42.9065,-22.855]],[[-42.9164,-22.8584],[-42.9119,-22.8555],[-42.9098,-22.86],[-42.9119,-22.8555],[-42.9084,-22.8541],[-42.9026,-22.8594],[-42.9076,-22.8621],[-42.9164,-22.8585],[-42.9164,-22.8584]]]}},{"type":"Feature","properties":{"cod_imovel":"RJ-3304904-5F3AD478D4414306863E0CCEDD083662","num_area":"137.41330000000000000000000000000","ind_status":"AT","des_condic":"Aguardando analise"},"geometry":{"type":"Polygon","coordinates":[[[-42.97,-22.8887],[-42.9642,-22.8827],[-42.9505,-22.8882],[-42.9543,-22.8932],[-42.9699,-22.8888],[-42.97,-22.8887]]]}},{"type":"Feature","properties":{"cod_imovel":"RJ-3304904-E811F55D31124B0BBA095C29A971BCBC","num_area":"12.032600000000000000000000000000","ind_status":"AT","des_condic":"Aguardando analise"},"geometry":{"type":"Polygon","coordinates":[[[-42.9255,-22.8486],[-42.9216,-22.8503],[-42.9243,-22.8531],[-42.9251,-22.8492],[-42.9255,-22.8486]]]}},{"type":"Feature","properties":{"cod_imovel":"RJ-3304904-60645DF4FEEB46ECB109B97789C80A72","num_area":"44.071400000000000000000000000000","ind_status":"AT","des_condic":"Aguardando analise"},"geometry":{"type":"Polygon","coordinates":[[[-42.9605,-22.884],[-42.9613,-22.8808],[-42.9605,-22.884],[-42.9605,-22.884]],[[-42.9614,-22.8808],[-42.9664,-22.8816],[-42.9614,-22.8807],[-42.9614,-22.8808]],[[-42.9594,-22.879],[-42.9586,-22.8739],[-42.9526,-22.8811],[-42.9595,-22.8795],[-42.9594,-22.879]]]}},{"type":"Feature","properties":{"cod_imovel":"RJ-3304904-3B45EC5E81674820B9AA3617372B556B","num_area":"161.48420000000000000000000000000","ind_status":"AT","des_condic":"Aguardando analise"},"geometry":{"type":"Polygon","coordinates":[[[-42.9524,-22.8641],[-42.9541,-22.8673],[-42.9576,-22.8642],[-42.9517,-22.8602],[-42.9526,-22.8638],[-42.9524,-22.8641]],[[-42.9516,-22.8659],[-42.9459,-22.8658],[-42.9442,-22.8722],[-42.9447,-22.8832],[-42.9515,-22.8857],[-42.9474,-22.8723],[-42.9546,-22.8711],[-42.9516,-22.8659],[-42.9516,-22.8659]],[[-42.9542,-22.8674],[-42.9591,-22.8672],[-42.9576,-22.8642],[-42.9546,-22.8672],[-42.9542,-22.8674]]]}},{"type":"Feature","properties":{"cod_imovel":"RJ-3304904-1B1D585906904B80954E588DE95F6924","num_area":"6.7568000000000000000000000000000","ind_status":"AT","des_condic":"Aguardando analise"},"geometry":{"type":"Polygon","coordinates":[[[-42.9777,-22.7672],[-42.9808,-22.765],[-42.9776,-22.7669],[-42.9777,-22.7672]]]}},{"type":"Feature","properties":{"cod_imovel":"RJ-3304904-E9AFE99653134BD58D12596C79AE5FA8","num_area":"9.7635000000000000000000000000000","ind_status":"AT","des_condic":"Aguardando analise"},"geometry":{"type":"Polygon","coordinates":[[[-42.9055,-22.8375],[-42.9029,-22.8394],[-42.9055,-22.8378],[-42.9055,-22.8375]]]}},{"type":"Feature","properties":{"cod_imovel":"RJ-3304904-B21F2F6BDA6A4B5FB8F4E3DA67F4DDEF","num_area":"16.047100000000000000000000000000","ind_status":"PE","des_condic":"Analisado, aguardando atendimento a notificacao"},"geometry":{"type":"Polygon","coordinates":[[[-42.8977,-22.8536],[-42.8971,-22.8585],[-42.9006,-22.857],[-42.898,-22.8534],[-42.8977,-22.8536]]]}},{"type":"Feature","properties":{"cod_imovel":"RJ-3304904-91EE5B19E289425C857526B5A1C0E472","num_area":"7.6762000000000000000000000000000","ind_status":"AT","des_condic":"Aguardando analise"},"geometry":{"type":"Polygon","coordinates":[[[-42.9558,-22.8698],[-42.9606,-22.8698],[-42.9558,-22.8698],[-42.9558,-22.8698]]]}},{"type":"Feature","properties":{"cod_imovel":"RJ-3304904-5E650F1B5FFC439BB39288D165E25076","num_area":"5.5762000000000000000000000000000","ind_status":"AT","des_condic":"Aguardando analise"},"geometry":{"type":"Polygon","coordinates":[[[-42.9187,-22.8456],[-42.9141,-22.8446],[-42.9185,-22.8458],[-42.9187,-22.8456]]]}},{"type":"Feature","properties":{"cod_imovel":"RJ-3304904-664D721F7E64499AA5E9111F635D6575","num_area":"113.07780000000000000000000000000","ind_status":"AT","des_condic":"Aguardando analise"},"geometry":{"type":"Polygon","coordinates":[[[-42.9748,-22.858],[-42.9898,-22.8629],[-42.9893,-22.8536],[-42.9798,-22.8559],[-42.9748,-22.858]],[[-42.9898,-22.85],[-42.983,-22.8543],[-42.9896,-22.8503],[-42.9898,-22.85]],[[-42.9795,-22.8558],[-42.9744,-22.8579],[-42.9794,-22.8558],[-42.9795,-22.8558]]]}},{"type":"Feature","properties":{"cod_imovel":"RJ-3304904-56E4E3A82D5D43FA9604B93DB86C4786","num_area":"559.49610000000000000000000000000","ind_status":"AT","des_condic":"Aguardando analise"},"geometry":{"type":"Polygon","coordinates":[[[-42.9201,-22.8366],[-42.9313,-22.8456],[-42.9257,-22.8477],[-42.9353,-22.8509],[-42.9333,-22.8452],[-42.9377,-22.8386],[-42.9288,-22.8389],[-42.9314,-22.8451],[-42.9273,-22.8429],[-42.9245,-22.8338],[-42.9274,-22.8316],[-42.929,-22.8375],[-42.9358,-22.8353],[-42.9231,-22.821],[-42.9197,-22.8293],[-42.921,-22.8259],[-42.9241,-22.8319],[-42.9201,-22.8366],[-42.9201,-22.8366]],[[-42.9351,-22.8401],[-42.9309,-22.8388],[-42.9352,-22.8402],[-42.9351,-22.8401]],[[-42.9316,-22.8459],[-42.935,-22.8467],[-42.9316,-22.8459],[-42.9316,-22.8459]],[[-42.9253,-22.8434],[-42.9195,-22.8444],[-42.9253,-22.8434],[-42.9253,-22.8434]],[[-42.9363,-22.8169],[-42.9255,-22.8168],[-42.9178,-22.8239],[-42.9242,-22.8191],[-42.9267,-22.8254],[-42.9317,-22.8243],[-42.9243,-22.8211],[-42.9343,-22.8227],[-42.9301,-22.8297],[-42.9371,-22.826],[-42.9366,-22.8297],[-42.9365,-22.8218],[-42.94,-22.8239],[-42.9337,-22.8315],[-42.9382,-22.8373],[-42.9424,-22.8338],[-42.9384,-22.817],[-42.9363,-22.8169]],[[-42.9294,-22.8199],[-42.9279,-22.8231],[-42.9294,-22.82],[-42.9294,-22.8199]],[[-42.9416,-22.825],[-42.9415,-22.8302],[-42.9416,-22.8251],[-42.9416,-22.825]],[[-42.938,-22.8422],[-42.9416,-22.8358],[-42.938,-22.8422],[-42.938,-22.8422]],[[-42.9171,-22.8274],[-42.9208,-22.8387],[-42.9171,-22.8274],[-42.9171,-22.8274]],[[-42.9417,-22.8353],[-42.9424,-22.8297],[-42.9417,-22.8353],[-42.9417,-22.8353]]]}},{"type":"Feature","properties":{"cod_imovel":"RJ-3304904-81735C6EA70E47CEB7CE6F6ED65B1993","num_area":"29.505700000000000000000000000000","ind_status":"AT","des_condic":"Aguardando analise"},"geometry":{"type":"Polygon","coordinates":[[[-42.961,-22.8702],[-42.9539,-22.8691],[-42.9518,-22.8733],[-42.9535,-22.8764],[-42.9598,-22.8717],[-42.961,-22.8702]]]}},{"type":"Feature","properties":{"cod_imovel":"RJ-3304904-CBFDA4B856344D9592A6E8290B16173C","num_area":"289.49210000000000000000000000000","ind_status":"AT","des_condic":"Aguardando analise"},"geometry":{"type":"Polygon","coordinates":[[[-42.9253,-22.8117],[-42.9228,-22.8178],[-42.9294,-22.8173],[-42.9326,-22.8108],[-42.9266,-22.8095],[-42.9253,-22.8117]],[[-42.9331,-22.8093],[-42.9225,-22.7973],[-42.9267,-22.8095],[-42.9325,-22.8105],[-42.9331,-22.8093]],[[-42.9298,-22.801],[-42.9321,-22.8065],[-42.931,-22.8016],[-42.9298,-22.801]],[[-42.9144,-22.8092],[-42.9211,-22.818],[-42.9163,-22.8092],[-42.9227,-22.8118],[-42.9276,-22.8068],[-42.9145,-22.7936],[-42.9126,-22.8082],[-42.9144,-22.8092]],[[-42.9223,-22.8103],[-42.9173,-22.8068],[-42.9225,-22.809],[-42.9223,-22.8103]]]}},{"type":"Feature","properties":{"cod_imovel":"RJ-3304904-FA3C97A3C44040229DED880F77B7CF49","num_area":"13.309900000000000000000000000000","ind_status":"AT","des_condic":"Aguardando analise"},"geometry":{"type":"Polygon","coordinates":[[[-42.9519,-22.8349],[-42.9484,-22.8344],[-42.9519,-22.8351],[-42.9519,-22.8349]],[[-42.9489,-22.8374],[-42.947,-22.8346],[-42.9484,-22.8374],[-42.9489,-22.8374]]]}}]}