{"type":"FeatureCollection","features":[{"type":"Feature","properties":{"cod_imovel":"RJ-3305505-5601B5DA02FF456BA20C665B8C9D5744","num_area":"3.0826000000000000000000000000000","ind_status":"AT","des_condic":"Aguardando analise"},"geometry":{"type":"Polygon","coordinates":[[[-42.4738,-22.8754],[-42.4729,-22.8793],[-42.4738,-22.8752],[-42.4738,-22.8754]]]}},{"type":"Feature","properties":{"cod_imovel":"RJ-3305505-83B2B419D12B4A779008778F3CC5CBFD","num_area":"15.051700000000000000000000000000","ind_status":"AT","des_condic":"Aguardando analise"},"geometry":{"type":"Polygon","coordinates":[[[-42.5551,-22.9058],[-42.5571,-22.9031],[-42.5548,-22.9057],[-42.5551,-22.9058]],[[-42.5541,-22.9014],[-42.5549,-22.9051],[-42.5541,-22.9014],[-42.5541,-22.9014]],[[-42.5556,-22.899],[-42.5584,-22.901],[-42.5558,-22.899],[-42.5556,-22.899]]]}},{"type":"Feature","properties":{"cod_imovel":"RJ-3305505-2832AABCDF7F481D96FEE314CA0D8EF8","num_area":"244.43540000000000000000000000000","ind_status":"PE","des_condic":"Em analise"},"geometry":{"type":"Polygon","coordinates":[[[-42.5692,-22.8385],[-42.5771,-22.8437],[-42.5824,-22.8328],[-42.5766,-22.8299],[-42.5691,-22.838],[-42.5692,-22.8385]],[[-42.5684,-22.8399],[-42.565,-22.8459],[-42.5688,-22.8392],[-42.5684,-22.8399]],[[-42.5653,-22.8337],[-42.5685,-22.8381],[-42.5655,-22.8333],[-42.5653,-22.8337]],[[-42.5814,-22.8457],[-42.5869,-22.8465],[-42.5851,-22.8363],[-42.5778,-22.8445],[-42.5809,-22.8455],[-42.5814,-22.8457]],[[-42.57,-22.8277],[-42.5658,-22.8328],[-42.5685,-22.8357],[-42.5701,-22.8279],[-42.57,-22.8277]]]}},{"type":"Feature","properties":{"cod_imovel":"RJ-3305505-02265D97FFC94428A70FF26A60EAA0E2","num_area":"204.56100000000000000000000000000","ind_status":"SU","des_condic":"Analisado, aguardando atendimento a notificacao"},"geometry":{"type":"Polygon","coordinates":[[[-42.6087,-22.8281],[-42.6032,-22.8358],[-42.6169,-22.8354],[-42.6203,-22.838],[-42.6136,-22.8417],[-42.617,-22.8458],[-42.6218,-22.8419],[-42.6309,-22.8461],[-42.6243,-22.8341],[-42.6087,-22.8281]],[[-42.6222,-22.8442],[-42.6178,-22.8468],[-42.6246,-22.8481],[-42.6218,-22.8459],[-42.6222,-22.8442]],[[-42.6129,-22.8428],[-42.6106,-22.8459],[-42.6174,-22.847],[-42.6129,-22.8428],[-42.6129,-22.8428]]]}},{"type":"Feature","properties":{"cod_imovel":"RJ-3305505-1ED4E107FABD4B688AE7C3DB1AAEE700","num_area":"1.9899000000000000000000000000000","ind_status":"AT","des_condic":"Aguardando analise"},"geometry":{"type":"Polygon","coordinates":[[[-42.5595,-22.855],[-42.5604,-22.8597],[-42.5596,-22.855],[-42.5595,-22.855]]]}},{"type":"Feature","properties":{"cod_imovel":"RJ-3305505-A64B7C7895824382A8A4A8C1D903EC5C","num_area":"24.914000000000000000000000000000","ind_status":"AT","des_condic":"Aguardando analise"},"geometry":{"type":"Polygon","coordinates":[[[-42.5559,-22.8547],[-42.5566,-22.8603],[-42.5577,-22.8548],[-42.5559,-22.8547]],[[-42.5566,-22.8604],[-42.5579,-22.8656],[-42.5567,-22.8603],[-42.5566,-22.8604]]]}},{"type":"Feature","properties":{"cod_imovel":"RJ-3305505-DF9EC77439CD429B87CC015C0348F404","num_area":"3.6301000000000000000000000000000","ind_status":"AT","des_condic":"Aguardando analise"},"geometry":{"type":"Polygon","coordinates":[[[-42.5036,-22.9102],[-42.5045,-22.9068],[-42.5007,-22.9081],[-42.5036,-22.9102],[-42.5036,-22.9102]]]}},{"type":"Feature","properties":{"cod_imovel":"RJ-3305505-905CC799E0094957961A8C0DAAC652EB","num_area":"2.6008000000000000000000000000000","ind_status":"PE","des_condic":"Analisado, aguardando atendimento a notificacao"},"geometry":{"type":"Polygon","coordinates":[[[-42.5291,-22.8371],[-42.5302,-22.8411],[-42.5297,-22.8375],[-42.5291,-22.8371]]]}},{"type":"Feature","properties":{"cod_imovel":"RJ-3305505-6A57BFB563EB4BB4B2125578074BEE4C","num_area":"3.9502000000000000000000000000000","ind_status":"AT","des_condic":"Aguardando analise"},"geometry":{"type":"Polygon","coordinates":[[[-42.5582,-22.834],[-42.5579,-22.8372],[-42.5582,-22.8339],[-42.5582,-22.834]]]}},{"type":"Feature","properties":{"cod_imovel":"RJ-3305505-7653EE18A06F49CC8631E0D4408CC334","num_area":"15.374100000000000000000000000000","ind_status":"AT","des_condic":"Aguardando analise"},"geometry":{"type":"Polygon","coordinates":[[[-42.5654,-22.8452],[-42.566,-22.8394],[-42.5629,-22.8442],[-42.5654,-22.8452]]]}},{"type":"Feature","properties":{"cod_imovel":"RJ-3305505-2103011C58FD44EE8D88F0440EFC8CE6","num_area":"23.290300000000000000000000000000","ind_status":"AT","des_condic":"Aguardando analise"},"geometry":{"type":"Polygon","coordinates":[[[-42.5605,-22.844],[-42.5627,-22.8419],[-42.5577,-22.8426],[-42.5605,-22.844]],[[-42.5584,-22.8404],[-42.5547,-22.8391],[-42.5577,-22.8426],[-42.5584,-22.8404]]]}},{"type":"Feature","properties":{"cod_imovel":"RJ-3305505-439B978F48C544689FBF0938DE90323C","num_area":"58.063100000000000000000000000000","ind_status":"AT","des_condic":"Aguardando analise"},"geometry":{"type":"Polygon","coordinates":[[[-42.5602,-22.8731],[-42.5599,-22.8657],[-42.556,-22.8657],[-42.5561,-22.8777],[-42.5603,-22.8785],[-42.5602,-22.8731]]]}},{"type":"Feature","properties":{"cod_imovel":"RJ-3305505-7134C0DCBB554534980460FD729FF106","num_area":"15.669400000000000000000000000000","ind_status":"PE","des_condic":"Em analise"},"geometry":{"type":"Polygon","coordinates":[[[-42.5959,-22.8356],[-42.5917,-22.8352],[-42.5957,-22.836],[-42.5959,-22.8356]],[[-42.5926,-22.834],[-42.5871,-22.8315],[-42.5926,-22.8341],[-42.5926,-22.834]]]}},{"type":"Feature","properties":{"cod_imovel":"RJ-3305505-07843EBD987649358429AA2C1AC74F6F","num_area":"88.887100000000000000000000000000","ind_status":"AT","des_condic":"Aguardando analise"},"geometry":{"type":"Polygon","coordinates":[[[-42.5467,-22.8311],[-42.5378,-22.8326],[-42.542,-22.8387],[-42.537,-22.8346],[-42.5444,-22.8433],[-42.5492,-22.8409],[-42.5467,-22.8312],[-42.5467,-22.8311]],[[-42.5369,-22.8347],[-42.54,-22.8421],[-42.5422,-22.8389],[-42.537,-22.8348],[-42.5369,-22.8347]]]}},{"type":"Feature","properties":{"cod_imovel":"RJ-3305505-3F2B274C2E9D47A9AD5AA238FCB022D7","num_area":"10.198500000000000000000000000000","ind_status":"PE","des_condic":"Analisado, aguardando atendimento a notificacao"},"geometry":{"type":"Polygon","coordinates":[[[-42.4199,-22.8391],[-42.424,-22.8395],[-42.422,-22.8366],[-42.4199,-22.8391]]]}},{"type":"Feature","properties":{"cod_imovel":"RJ-3305505-CCADD38ACBD8495FB47146F45FA4F2D5","num_area":"9.9597000000000000000000000000000","ind_status":"AT","des_condic":"Aguardando analise"},"geometry":{"type":"Polygon","coordinates":[[[-42.5331,-22.8842],[-42.5347,-22.8801],[-42.5315,-22.8844],[-42.5331,-22.8842]]]}},{"type":"Feature","properties":{"cod_imovel":"RJ-3305505-3E584F3182624C368895CC4C94F58B85","num_area":"7.1045000000000000000000000000000","ind_status":"AT","des_condic":"Aguardando analise"},"geometry":{"type":"Polygon","coordinates":[[[-42.4997,-22.832],[-42.5024,-22.8289],[-42.4989,-22.8321],[-42.4997,-22.832]]]}},{"type":"Feature","properties":{"cod_imovel":"RJ-3305505-7EB1F951547F4B65B61C55BADE2BDC5E","num_area":"7.3352000000000000000000000000000","ind_status":"AT","des_condic":"Aguardando analise"},"geometry":{"type":"Polygon","coordinates":[[[-42.5802,-22.8149],[-42.5768,-22.8159],[-42.5803,-22.8153],[-42.5802,-22.8149]]]}},{"type":"Feature","properties":{"cod_imovel":"RJ-3305505-7CFBEC4E9CCE41129E6252B6C1918A6E","num_area":"30.068200000000000000000000000000","ind_status":"AT","des_condic":"Aguardando analise"},"geometry":{"type":"Polygon","coordinates":[[[-42.5102,-22.8409],[-42.5127,-22.847],[-42.5102,-22.841],[-42.5102,-22.8409]],[[-42.5128,-22.847],[-42.5168,-22.8414],[-42.5129,-22.8468],[-42.5128,-22.847]]]}},{"type":"Feature","properties":{"cod_imovel":"RJ-3305505-106C7376177C4B51A2EDA06D253D1020","num_area":"103.66940000000000000000000000000","ind_status":"AT","des_condic":"Em analise"},"geometry":{"type":"Polygon","coordinates":[[[-42.5772,-22.8304],[-42.5836,-22.8322],[-42.5802,-22.8239],[-42.5721,-22.8272],[-42.5772,-22.8304],[-42.5772,-22.8304]],[[-42.5829,-22.8331],[-42.5829,-22.8262],[-42.583,-22.833],[-42.5829,-22.8331]],[[-42.5829,-22.8262],[-42.5803,-22.8239],[-42.5828,-22.8262],[-42.5829,-22.8262]],[[-42.5847,-22.834],[-42.589,-22.8319],[-42.5854,-22.8321],[-42.5842,-22.8252],[-42.5848,-22.8337],[-42.5847,-22.834]],[[-42.5786,-22.8233],[-42.5721,-22.8271],[-42.5797,-22.8231],[-42.5786,-22.8233]],[[-42.579,-22.8233],[-42.5753,-22.8253],[-42.579,-22.8233],[-42.579,-22.8233]]]}},{"type":"Feature","properties":{"cod_imovel":"RJ-3305505-CD7E171B135E432F9E9F9763E3EB8F80","num_area":"96.864000000000000000000000000000","ind_status":"AT","des_condic":"Aguardando analise"},"geometry":{"type":"Polygon","coordinates":[[[-42.5864,-22.8346],[-42.5913,-22.8351],[-42.5869,-22.8341],[-42.5864,-22.8346]],[[-42.5883,-22.8472],[-42.593,-22.8487],[-42.5951,-22.8415],[-42.591,-22.8402],[-42.5883,-22.847],[-42.5883,-22.8472]],[[-42.5928,-22.838],[-42.5853,-22.8363],[-42.5861,-22.8411],[-42.5912,-22.8384],[-42.5928,-22.838]],[[-42.5862,-22.8414],[-42.5877,-22.8466],[-42.5936,-22.8385],[-42.5862,-22.8413],[-42.5862,-22.8414]]]}},{"type":"Feature","properties":{"cod_imovel":"RJ-3304300-C8074E943C31444A952CD23434F59A69","num_area":"267.01490000000000000000000000000","ind_status":"PE","des_condic":"Aguardando analise, apos revisao ou atendimento da notificacao"},"geometry":{"type":"Polygon","coordinates":[[[-42.6178,-22.8359],[-42.6235,-22.8399],[-42.6178,-22.8359],[-42.6178,-22.8359]],[[-42.6204,-22.842],[-42.6241,-22.8424],[-42.6123,-22.8362],[-42.6204,-22.842],[-42.6204,-22.842]],[[-42.6274,-22.8387],[-42.6255,-22.8358],[-42.6273,-22.8386],[-42.6274,-22.8387]],[[-42.6264,-22.8354],[-42.617,-22.8352],[-42.6262,-22.8355],[-42.6264,-22.8354]],[[-42.622,-22.8325],[-42.6156,-22.8301],[-42.6137,-22.8336],[-42.6181,-22.8317],[-42.6128,-22.8354],[-42.6221,-22.8327],[-42.622,-22.8325]],[[-42.6511,-22.8526],[-42.6523,-22.8474],[-42.6484,-22.8463],[-42.6507,-22.8524],[-42.6511,-22.8526]],[[-42.6484,-22.8463],[-42.6451,-22.8452],[-42.6439,-22.8502],[-42.6436,-22.8423],[-42.638,-22.8421],[-42.643,-22.8431],[-42.6417,-22.8491],[-42.6386,-22.8434],[-42.6352,-22.8476],[-42.6374,-22.8425],[-42.6308,-22.844],[-42.6363,-22.8534],[-42.6462,-22.8542],[-42.6483,-22.8465],[-42.6484,-22.8463]],[[-42.6385,-22.8412],[-42.6326,-22.8404],[-42.6385,-22.8414],[-42.6385,-22.8412]],[[-42.6463,-22.8543],[-42.6467,-22.8505],[-42.6463,-22.8542],[-42.6463,-22.8543]]]}},{"type":"Feature","properties":{"cod_imovel":"RJ-3305505-394403D969624F4BB703F1B7920A15AD","num_area":"13.092500000000000000000000000000","ind_status":"AT","des_condic":"Aguardando analise"},"geometry":{"type":"Polygon","coordinates":[[[-42.5457,-22.827],[-42.5464,-22.8304],[-42.5475,-22.8272],[-42.5457,-22.827]]]}},{"type":"Feature","properties":{"cod_imovel":"RJ-3305505-E52920D8003645459093970BC92CA52F","num_area":"149.56850000000000000000000000000","ind_status":"AT","des_condic":"Aguardando analise"},"geometry":{"type":"Polygon","coordinates":[[[-42.4087,-22.875],[-42.4138,-22.8704],[-42.4084,-22.865],[-42.4136,-22.8689],[-42.4128,-22.8637],[-42.4183,-22.8644],[-42.4169,-22.8583],[-42.4066,-22.864],[-42.4085,-22.8751],[-42.4087,-22.875]],[[-42.4181,-22.865],[-42.4195,-22.858],[-42.4181,-22.8649],[-42.4181,-22.865]]]}},{"type":"Feature","properties":{"cod_imovel":"RJ-3305505-8D2175EF45824BEEBDB01825BE5F37FB","num_area":"6.4602000000000000000000000000000","ind_status":"AT","des_condic":"Aguardando analise"},"geometry":{"type":"Polygon","coordinates":[[[-42.45,-22.8219],[-42.4484,-22.8189],[-42.4491,-22.8225],[-42.45,-22.8219]]]}},{"type":"Feature","properties":{"cod_imovel":"RJ-3305505-AC80190D072C4AA4B08582C41A9D62E1","num_area":"9.6954000000000000000000000000000","ind_status":"PE","des_condic":"Analisado, aguardando atendimento a notificacao"},"geometry":{"type":"Polygon","coordinates":[[[-42.4054,-22.8584],[-42.4084,-22.8558],[-42.4032,-22.8586],[-42.4054,-22.8584]]]}},{"type":"Feature","properties":{"cod_imovel":"RJ-3305505-5FB2339E96F148A89FF7B47430994FA8","num_area":"8.7120000000000000000000000000000","ind_status":"PE","des_condic":"Aguardando analise, apos revisao ou atendimento da notificacao"},"geometry":{"type":"Polygon","coordinates":[[[-42.4297,-22.8256],[-42.4316,-22.8296],[-42.4308,-22.8265],[-42.4297,-22.8256]]]}},{"type":"Feature","properties":{"cod_imovel":"RJ-3305505-7439C0D933274A36A5230CE8AD841A8B","num_area":"16.632200000000000000000000000000","ind_status":"AT","des_condic":"Aguardando analise"},"geometry":{"type":"Polygon","coordinates":[[[-42.5997,-22.8169],[-42.6028,-22.8231],[-42.601,-22.8181],[-42.5997,-22.8169]]]}},{"type":"Feature","properties":{"cod_imovel":"RJ-3305505-F250F64D1DA940EF94760102F641EE11","num_area":"11.364600000000000000000000000000","ind_status":"AT","des_condic":"Aguardando analise"},"geometry":{"type":"Polygon","coordinates":[[[-42.4523,-22.823],[-42.4567,-22.8223],[-42.4525,-22.8227],[-42.4523,-22.823]]]}},{"type":"Feature","properties":{"cod_imovel":"RJ-3305505-F3DC0323EAF941FBBBA789318540F0F4","num_area":"8.6305000000000000000000000000000","ind_status":"AT","des_condic":"Aguardando analise"},"geometry":{"type":"Polygon","coordinates":[[[-42.5312,-22.8525],[-42.5343,-22.8501],[-42.5312,-22.8525],[-42.5312,-22.8525]]]}},{"type":"Feature","properties":{"cod_imovel":"RJ-3305505-1B0803CBE5864A66BAA5AD4536AD1512","num_area":"45.925800000000000000000000000000","ind_status":"AT","des_condic":"Aguardando analise"},"geometry":{"type":"Polygon","coordinates":[[[-42.5454,-22.8267],[-42.5494,-22.8208],[-42.5458,-22.8186],[-42.5403,-22.8261],[-42.5442,-22.8284],[-42.5454,-22.8267]]]}},{"type":"Feature","properties":{"cod_imovel":"RJ-3305505-CD335D4DFF1447B89BBC7191E4EE9D62","num_area":"16.356400000000000000000000000000","ind_status":"AT","des_condic":"Aguardando analise"},"geometry":{"type":"Polygon","coordinates":[[[-42.6414,-22.8695],[-42.6453,-22.8666],[-42.6412,-22.8691],[-42.6414,-22.8695]]]}},{"type":"Feature","properties":{"cod_imovel":"RJ-3305505-951FAC695B78403CAF7E347197DBCA54","num_area":"10.693600000000000000000000000000","ind_status":"AT","des_condic":"Aguardando analise"},"geometry":{"type":"Polygon","coordinates":[[[-42.4799,-22.8646],[-42.479,-22.868],[-42.481,-22.8652],[-42.4799,-22.8646]]]}},{"type":"Feature","properties":{"cod_imovel":"RJ-3305505-2763E60C370D4C7E9AD87F16E028F8F8","num_area":"13.132900000000000000000000000000","ind_status":"AT","des_condic":"Aguardando analise"},"geometry":{"type":"Polygon","coordinates":[[[-42.5583,-22.8243],[-42.5554,-22.8217],[-42.5571,-22.8264],[-42.5583,-22.8243]]]}},{"type":"Feature","properties":{"cod_imovel":"RJ-3305505-39D1404BECA64C289B2D1398602793FA","num_area":"60.424000000000000000000000000000","ind_status":"AT","des_condic":"Aguardando analise"},"geometry":{"type":"Polygon","coordinates":[[[-42.5915,-22.8826],[-42.5827,-22.8805],[-42.5808,-22.8863],[-42.5921,-22.8855],[-42.5915,-22.8826]]]}},{"type":"Feature","properties":{"cod_imovel":"RJ-3305505-55E2D0E2BA1A4025B8B863098350CE2C","num_area":"22.992900000000000000000000000000","ind_status":"AT","des_condic":"Aguardando analise"},"geometry":{"type":"Polygon","coordinates":[[[-42.5315,-22.8122],[-42.5293,-22.8197],[-42.5322,-22.8124],[-42.5315,-22.8122]]]}},{"type":"Feature","properties":{"cod_imovel":"RJ-3305505-A9A4384E2F6048FA82C34A3F46B284B2","num_area":"11.703700000000000000000000000000","ind_status":"AT","des_condic":"Aguardando analise"},"geometry":{"type":"Polygon","coordinates":[[[-42.3933,-22.8396],[-42.3922,-22.844],[-42.3946,-22.8395],[-42.3933,-22.8396]]]}},{"type":"Feature","properties":{"cod_imovel":"RJ-3305505-0D1999D1F35D4DFBA61E9BACD899A10A","num_area":"17.674900000000000000000000000000","ind_status":"AT","des_condic":"Aguardando analise"},"geometry":{"type":"Polygon","coordinates":[[[-42.494,-22.8407],[-42.4924,-22.8474],[-42.4942,-22.8408],[-42.494,-22.8407]],[[-42.4945,-22.8408],[-42.4942,-22.8472],[-42.4951,-22.8409],[-42.4945,-22.8408]]]}},{"type":"Feature","properties":{"cod_imovel":"RJ-3305505-CC34DBDCF9194E0BA38775BB48BBD58B","num_area":"22.246800000000000000000000000000","ind_status":"AT","des_condic":"Aguardando analise"},"geometry":{"type":"Polygon","coordinates":[[[-42.538,-22.8801],[-42.5424,-22.8841],[-42.539,-22.8801],[-42.538,-22.8801]]]}},{"type":"Feature","properties":{"cod_imovel":"RJ-3305505-4E4F6CC3EE75418F8D9C81A46EC0DB8C","num_area":"43.055300000000000000000000000000","ind_status":"PE","des_condic":"Analisado, aguardando atendimento a notificacao"},"geometry":{"type":"Polygon","coordinates":[[[-42.399,-22.8309],[-42.3944,-22.8334],[-42.3958,-22.8392],[-42.4015,-22.8384],[-42.3981,-22.8348],[-42.401,-22.8316],[-42.399,-22.8309]]]}},{"type":"Feature","properties":{"cod_imovel":"RJ-3305505-37C66DCC289046EA85DBC952E199F152","num_area":"5.7662000000000000000000000000000","ind_status":"PE","des_condic":"Analisado, aguardando atendimento a notificacao"},"geometry":{"type":"Polygon","coordinates":[[[-42.5997,-22.8356],[-42.5957,-22.8361],[-42.5993,-22.836],[-42.5997,-22.8356]]]}},{"type":"Feature","properties":{"cod_imovel":"RJ-3305505-64CEF217E53A4163A0A43DD5E9647BB8","num_area":"8.3226000000000000000000000000000","ind_status":"PE","des_condic":"Analisado, aguardando atendimento a notificacao"},"geometry":{"type":"Polygon","coordinates":[[[-42.5133,-22.8515],[-42.5177,-22.8498],[-42.5133,-22.8515],[-42.5133,-22.8515]]]}},{"type":"Feature","properties":{"cod_imovel":"RJ-3305505-C7BC3D3BB755407DB08063A3B29D738E","num_area":"18.410300000000000000000000000000","ind_status":"PE","des_condic":"Analisado, aguardando atendimento a notificacao"},"geometry":{"type":"Polygon","coordinates":[[[-42.4372,-22.8559],[-42.4334,-22.8557],[-42.4323,-22.8614],[-42.4402,-22.8567],[-42.4372,-22.856],[-42.4372,-22.8559]]]}},{"type":"Feature","properties":{"cod_imovel":"RJ-3305505-A5894110C6AE4223833D4D6F21F898D6","num_area":"4.0591000000000000000000000000000","ind_status":"PE","des_condic":"Analisado, aguardando atendimento a notificacao"},"geometry":{"type":"Polygon","coordinates":[[[-42.5369,-22.8486],[-42.534,-22.849],[-42.5373,-22.8498],[-42.5369,-22.8486]]]}},{"type":"Feature","properties":{"cod_imovel":"RJ-3305505-B5DEFD6A2CAD4A618A546FAD739E09C5","num_area":"21.564100000000000000000000000000","ind_status":"PE","des_condic":"Analisado, aguardando atendimento a notificacao"},"geometry":{"type":"Polygon","coordinates":[[[-42.3967,-22.8473],[-42.3979,-22.8526],[-42.402,-22.8469],[-42.3972,-22.8472],[-42.3967,-22.8473]]]}},{"type":"Feature","properties":{"cod_imovel":"RJ-3305505-5B05744230834DAB9F4DBD9172EC9034","num_area":"11.477900000000000000000000000000","ind_status":"PE","des_condic":"Analisado, aguardando atendimento a notificacao"},"geometry":{"type":"Polygon","coordinates":[[[-42.3948,-22.8438],[-42.3915,-22.8469],[-42.3951,-22.8473],[-42.3948,-22.8438]]]}},{"type":"Feature","properties":{"cod_imovel":"RJ-3305505-88E6811423E042259CFFCAAFCFF6B86C","num_area":"29.463600000000000000000000000000","ind_status":"PE","des_condic":"Analisado, aguardando atendimento a notificacao"},"geometry":{"type":"Polygon","coordinates":[[[-42.3917,-22.8397],[-42.3941,-22.8335],[-42.3883,-22.8344],[-42.3906,-22.8398],[-42.3917,-22.8397]],[[-42.3919,-22.8361],[-42.3933,-22.839],[-42.3901,-22.8371],[-42.3919,-22.8361]]]}},{"type":"Feature","properties":{"cod_imovel":"RJ-3305505-6D1742F0F6454E7ABB0B8FD2CE112B77","num_area":"6.7755000000000000000000000000000","ind_status":"PE","des_condic":"Analisado, aguardando atendimento a notificacao"},"geometry":{"type":"Polygon","coordinates":[[[-42.378,-22.8498],[-42.3757,-22.8457],[-42.377,-22.8499],[-42.378,-22.8498]]]}},{"type":"Feature","properties":{"cod_imovel":"RJ-3305505-10BE9B96A7544F7692F9EE891B949287","num_area":"10.224900000000000000000000000000","ind_status":"PE","des_condic":"Analisado, aguardando atendimento a notificacao"},"geometry":{"type":"Polygon","coordinates":[[[-42.4098,-22.8463],[-42.4042,-22.8474],[-42.4099,-22.8473],[-42.4098,-22.8463]]]}},{"type":"Feature","properties":{"cod_imovel":"RJ-3305505-92519DF01B7741FAB58EF9D7AE30399C","num_area":"235.07560000000000000000000000000","ind_status":"PE","des_condic":"Analisado, aguardando atendimento a notificacao"},"geometry":{"type":"Polygon","coordinates":[[[-42.5862,-22.8474],[-42.5709,-22.8434],[-42.5645,-22.855],[-42.5783,-22.8548],[-42.5858,-22.8479],[-42.5862,-22.8474]],[[-42.5703,-22.8428],[-42.5628,-22.8469],[-42.5653,-22.8515],[-42.57,-22.8434],[-42.5703,-22.8428]],[[-42.5628,-22.8469],[-42.5642,-22.855],[-42.5628,-22.847],[-42.5628,-22.8469]]]}},{"type":"Feature","properties":{"cod_imovel":"RJ-3305505-86FCED42A4F444F794E79DE05744E1E7","num_area":"7.5962000000000000000000000000000","ind_status":"PE","des_condic":"Analisado, aguardando atendimento a notificacao"},"geometry":{"type":"Polygon","coordinates":[[[-42.5533,-22.8384],[-42.5493,-22.8413],[-42.5533,-22.8384],[-42.5533,-22.8384]]]}},{"type":"Feature","properties":{"cod_imovel":"RJ-3305505-529A40816C004BCAB2EBE6C1BEE2EA58","num_area":"52.564700000000000000000000000000","ind_status":"PE","des_condic":"Analisado, aguardando atendimento a notificacao"},"geometry":{"type":"Polygon","coordinates":[[[-42.4024,-22.8486],[-42.3905,-22.8473],[-42.3973,-22.8535],[-42.4011,-22.8488],[-42.4024,-22.8486]]]}},{"type":"Feature","properties":{"cod_imovel":"RJ-3305505-CA650E274D1A4BCBAD8D5C44E845CE58","num_area":"4.5749000000000000000000000000000","ind_status":"PE","des_condic":"Analisado, aguardando atendimento a notificacao"},"geometry":{"type":"Polygon","coordinates":[[[-42.4981,-22.8873],[-42.4934,-22.8867],[-42.4978,-22.8875],[-42.4981,-22.8873]]]}},{"type":"Feature","properties":{"cod_imovel":"RJ-3305505-52E2E6FECCA54E23B8E053D338C8A2D2","num_area":"21.062200000000000000000000000000","ind_status":"AT","des_condic":"Aguardando analise"},"geometry":{"type":"Polygon","coordinates":[[[-42.4135,-22.8472],[-42.4139,-22.8512],[-42.4187,-22.8507],[-42.4178,-22.8468],[-42.4135,-22.8472]]]}},{"type":"Feature","properties":{"cod_imovel":"RJ-3305505-53521909D24F4719BFD62A0BD737D05C","num_area":"13.342800000000000000000000000000","ind_status":"AT","des_condic":"Aguardando analise"},"geometry":{"type":"Polygon","coordinates":[[[-42.5404,-22.8469],[-42.5364,-22.8427],[-42.5404,-22.8471],[-42.5404,-22.8469]]]}},{"type":"Feature","properties":{"cod_imovel":"RJ-3305505-397F8CA280C14475B88D803BC6AC92E2","num_area":"326.84990000000000000000000000000","ind_status":"AT","des_condic":"Aguardando analise"},"geometry":{"type":"Polygon","coordinates":[[[-42.5751,-22.8732],[-42.577,-22.8808],[-42.5848,-22.8705],[-42.5751,-22.8716],[-42.5751,-22.8732]],[[-42.6063,-22.8753],[-42.5833,-22.8733],[-42.5774,-22.8808],[-42.6061,-22.878],[-42.6063,-22.8753]],[[-42.6001,-22.8647],[-42.5829,-22.8733],[-42.6059,-22.873],[-42.6006,-22.8651],[-42.6001,-22.8647]]]}},{"type":"Feature","properties":{"cod_imovel":"RJ-3305505-DC2726C76E3449639132F0F1B260806B","num_area":"4.5050000000000000000000000000000","ind_status":"AT","des_condic":"Aguardando analise"},"geometry":{"type":"Polygon","coordinates":[[[-42.4406,-22.9034],[-42.4428,-22.9005],[-42.4408,-22.9033],[-42.4406,-22.9034]],[[-42.4427,-22.9006],[-42.4398,-22.903],[-42.4427,-22.9007],[-42.4427,-22.9006]]]}},{"type":"Feature","properties":{"cod_imovel":"RJ-3305505-6B10B27CC2BE4C6AADEFCCC2427C01C0","num_area":"3.6152000000000000000000000000000","ind_status":"AT","des_condic":"Aguardando analise"},"geometry":{"type":"Polygon","coordinates":[[[-42.4563,-22.9136],[-42.4568,-22.9106],[-42.4563,-22.9136],[-42.4563,-22.9136]]]}},{"type":"Feature","properties":{"cod_imovel":"RJ-3305505-926ED06B518241FCAD5C29124AC75718","num_area":"8.7023000000000000000000000000000","ind_status":"AT","des_condic":"Aguardando analise"},"geometry":{"type":"Polygon","coordinates":[[[-42.5296,-22.8182],[-42.5311,-22.8136],[-42.5294,-22.8167],[-42.5296,-22.8182]]]}},{"type":"Feature","properties":{"cod_imovel":"RJ-3305505-C23D309F116D4DBD921408F35BCEE610","num_area":"29.684000000000000000000000000000","ind_status":"AT","des_condic":"Aguardando analise"},"geometry":{"type":"Polygon","coordinates":[[[-42.5558,-22.8178],[-42.5546,-22.8218],[-42.5613,-22.8217],[-42.5565,-22.8151],[-42.5558,-22.8178]]]}},{"type":"Feature","properties":{"cod_imovel":"RJ-3305505-F943EAC66DE342809AF80CAF9F6FA90B","num_area":"4.1296000000000000000000000000000","ind_status":"AT","des_condic":"Aguardando analise"},"geometry":{"type":"Polygon","coordinates":[[[-42.5534,-22.8429],[-42.5542,-22.848],[-42.5543,-22.8433],[-42.5534,-22.8429]]]}},{"type":"Feature","properties":{"cod_imovel":"RJ-3305505-E0D3DED129164D59998CE032E33E91A8","num_area":"22.769400000000000000000000000000","ind_status":"AT","des_condic":"Aguardando analise"},"geometry":{"type":"Polygon","coordinates":[[[-42.4666,-22.8275],[-42.4661,-22.8232],[-42.4631,-22.8265],[-42.4666,-22.8275],[-42.4666,-22.8275]],[[-42.4656,-22.8229],[-42.4621,-22.822],[-42.4631,-22.8264],[-42.4657,-22.823],[-42.4656,-22.8229]]]}},{"type":"Feature","properties":{"cod_imovel":"RJ-3305505-52C55D066B0342DCBCC5C56F8924253A","num_area":"5.5627000000000000000000000000000","ind_status":"AT","des_condic":"Aguardando analise"},"geometry":{"type":"Polygon","coordinates":[[[-42.532,-22.8485],[-42.5289,-22.848],[-42.5319,-22.8487],[-42.532,-22.8485]]]}},{"type":"Feature","properties":{"cod_imovel":"RJ-3305505-86BA8A2AA15646988636F9EF015D458A","num_area":"5.5480000000000000000000000000000","ind_status":"AT","des_condic":"Aguardando analise, apos revisao ou atendimento da notificacao"},"geometry":{"type":"Polygon","coordinates":[[[-42.6318,-22.8657],[-42.6294,-22.8632],[-42.6319,-22.8657],[-42.6318,-22.8657]]]}},{"type":"Feature","properties":{"cod_imovel":"RJ-3305505-9478CE6810C14F5CA4BBADEF8BDBE757","num_area":"13.975600000000000000000000000000","ind_status":"AT","des_condic":"Aguardando analise"},"geometry":{"type":"Polygon","coordinates":[[[-42.6657,-22.8959],[-42.6623,-22.8929],[-42.6651,-22.8958],[-42.6657,-22.8959]]]}},{"type":"Feature","properties":{"cod_imovel":"RJ-3305505-7F74AC25B08D4E64957393EFC565439F","num_area":"4.3508000000000000000000000000000","ind_status":"PE","des_condic":"Analisado, aguardando atendimento a notificacao"},"geometry":{"type":"Polygon","coordinates":[[[-42.4675,-22.8563],[-42.4642,-22.8539],[-42.4678,-22.8565],[-42.4675,-22.8563]]]}},{"type":"Feature","properties":{"cod_imovel":"RJ-3305505-5354003412EF44628CB0478980C16675","num_area":"4.2674000000000000000000000000000","ind_status":"PE","des_condic":"Analisado, aguardando atendimento a notificacao"},"geometry":{"type":"Polygon","coordinates":[[[-42.3896,-22.8386],[-42.389,-22.8417],[-42.39,-22.8386],[-42.3896,-22.8386]]]}},{"type":"Feature","properties":{"cod_imovel":"RJ-3305505-6A97360617DE45A89295A13CC4BF2024","num_area":"8.3678000000000000000000000000000","ind_status":"PE","des_condic":"Analisado, aguardando atendimento a notificacao"},"geometry":{"type":"Polygon","coordinates":[[[-42.5547,-22.8502],[-42.5564,-22.8544],[-42.5556,-22.8468],[-42.5554,-22.8502],[-42.5547,-22.8502]]]}},{"type":"Feature","properties":{"cod_imovel":"RJ-3305505-508081339D074AEAA2DA10C4BBD2C83A","num_area":"10.401000000000000000000000000000","ind_status":"PE","des_condic":"Analisado, aguardando atendimento a notificacao"},"geometry":{"type":"Polygon","coordinates":[[[-42.5484,-22.827],[-42.5488,-22.8317],[-42.5495,-22.8273],[-42.5484,-22.827]]]}},{"type":"Feature","properties":{"cod_imovel":"RJ-3305505-679FD7A6BBA643CC883790B68562988B","num_area":"29.061700000000000000000000000000","ind_status":"AT","des_condic":"Aguardando analise"},"geometry":{"type":"Polygon","coordinates":[[[-42.4271,-22.8642],[-42.4316,-22.8635],[-42.4304,-22.8567],[-42.4267,-22.8596],[-42.4271,-22.8642]]]}},{"type":"Feature","properties":{"cod_imovel":"RJ-3305505-14323C21C19E45F3AB031DC6F174F1E4","num_area":"530.49610000000000000000000000000","ind_status":"AT","des_condic":"Aguardando analise"},"geometry":{"type":"Polygon","coordinates":[[[-42.5215,-22.8632],[-42.5285,-22.8722],[-42.5373,-22.8694],[-42.5301,-22.8613],[-42.5216,-22.8628],[-42.5175,-22.8552],[-42.5249,-22.8524],[-42.5151,-22.8524],[-42.5127,-22.8577],[-42.5215,-22.8632],[-42.5215,-22.8632]],[[-42.5284,-22.8722],[-42.5153,-22.8607],[-42.5177,-22.8685],[-42.5204,-22.867],[-42.5199,-22.8759],[-42.5213,-22.8706],[-42.5246,-22.8725],[-42.5284,-22.8722]],[[-42.513,-22.856],[-42.5203,-22.8509],[-42.5131,-22.8547],[-42.513,-22.856]],[[-42.5118,-22.8581],[-42.5117,-22.8757],[-42.5214,-22.8873],[-42.5137,-22.8603],[-42.5118,-22.8581]],[[-42.5101,-22.8599],[-42.5112,-22.8509],[-42.5032,-22.8531],[-42.51,-22.8587],[-42.5101,-22.8599]],[[-42.5213,-22.8879],[-42.516,-22.8791],[-42.5129,-22.8806],[-42.5198,-22.8887],[-42.5213,-22.8879]]]}},{"type":"Feature","properties":{"cod_imovel":"RJ-3305505-095B5867EF42403985C3CC12C4582B94","num_area":"4.6829000000000000000000000000000","ind_status":"AT","des_condic":"Aguardando analise"},"geometry":{"type":"Polygon","coordinates":[[[-42.4496,-22.8422],[-42.4467,-22.8384],[-42.4496,-22.8428],[-42.4496,-22.8422]]]}},{"type":"Feature","properties":{"cod_imovel":"RJ-3305505-6DBF23F03A6444879E3D6F91CF0B08B5","num_area":"17.876800000000000000000000000000","ind_status":"AT","des_condic":"Aguardando analise"},"geometry":{"type":"Polygon","coordinates":[[[-42.4407,-22.8219],[-42.4374,-22.824],[-42.4407,-22.8232],[-42.4407,-22.8219]],[[-42.4401,-22.8277],[-42.4463,-22.8268],[-42.4398,-22.8275],[-42.4401,-22.8277]]]}},{"type":"Feature","properties":{"cod_imovel":"RJ-3305505-D17E1C78DEBE44B8B069765D739E691E","num_area":"8.6386000000000000000000000000000","ind_status":"AT","des_condic":"Aguardando analise"},"geometry":{"type":"Polygon","coordinates":[[[-42.4626,-22.8143],[-42.4694,-22.8183],[-42.4631,-22.8147],[-42.4626,-22.8143]]]}},{"type":"Feature","properties":{"cod_imovel":"RJ-3305505-8BB14E743B9E4EC79AFA00F7E26564E0","num_area":"18.491100000000000000000000000000","ind_status":"AT","des_condic":"Aguardando analise"},"geometry":{"type":"Polygon","coordinates":[[[-42.4564,-22.8592],[-42.4614,-22.8588],[-42.4565,-22.8559],[-42.4564,-22.8592]]]}},{"type":"Feature","properties":{"cod_imovel":"RJ-3305505-DFEF19726BB448089DEC9C133091F0EA","num_area":"15.415700000000000000000000000000","ind_status":"AT","des_condic":"Aguardando analise"},"geometry":{"type":"Polygon","coordinates":[[[-42.4951,-22.8326],[-42.4989,-22.8386],[-42.4967,-22.8313],[-42.4951,-22.8326]]]}},{"type":"Feature","properties":{"cod_imovel":"RJ-3305505-6F88E0244D144C179AAFA38A798AD7C6","num_area":"5.0421000000000000000000000000000","ind_status":"AT","des_condic":"Aguardando analise"},"geometry":{"type":"Polygon","coordinates":[[[-42.4457,-22.827],[-42.4451,-22.8301],[-42.4464,-22.8269],[-42.4457,-22.827]]]}},{"type":"Feature","properties":{"cod_imovel":"RJ-3305505-D5B8326D1B9843C4AD6298F87BCC7A23","num_area":"14.512900000000000000000000000000","ind_status":"AT","des_condic":"Aguardando analise"},"geometry":{"type":"Polygon","coordinates":[[[-42.458,-22.8328],[-42.4612,-22.8301],[-42.4581,-22.8327],[-42.458,-22.8328]]]}},{"type":"Feature","properties":{"cod_imovel":"RJ-3305505-A2A29918F8C64A3DB6BCAF157CF48A40","num_area":"9.4883000000000000000000000000000","ind_status":"AT","des_condic":"Aguardando analise"},"geometry":{"type":"Polygon","coordinates":[[[-42.5317,-22.8162],[-42.5335,-22.8191],[-42.532,-22.8148],[-42.5317,-22.8162]]]}},{"type":"Feature","properties":{"cod_imovel":"RJ-3305505-92C89B9F18A64FA6AFBECE6BD989BE45","num_area":"22.256600000000000000000000000000","ind_status":"AT","des_condic":"Aguardando analise"},"geometry":{"type":"Polygon","coordinates":[[[-42.5266,-22.8805],[-42.5307,-22.8798],[-42.5213,-22.8808],[-42.5266,-22.8805]]]}},{"type":"Feature","properties":{"cod_imovel":"RJ-3305505-AB48A545ADBF4F1CB16AA021054B64CE","num_area":"21.986200000000000000000000000000","ind_status":"AT","des_condic":"Aguardando analise"},"geometry":{"type":"Polygon","coordinates":[[[-42.5493,-22.8842],[-42.5508,-22.8884],[-42.5577,-22.8869],[-42.5495,-22.8836],[-42.5493,-22.8842]]]}},{"type":"Feature","properties":{"cod_imovel":"RJ-3305505-342969F9EF0447C2BF804A0F357350E9","num_area":"23.070500000000000000000000000000","ind_status":"AT","des_condic":"Aguardando analise"},"geometry":{"type":"Polygon","coordinates":[[[-42.5977,-22.8329],[-42.6036,-22.831],[-42.5981,-22.832],[-42.5977,-22.8329]],[[-42.6028,-22.8295],[-42.5984,-22.8315],[-42.6029,-22.8296],[-42.6028,-22.8295]]]}},{"type":"Feature","properties":{"cod_imovel":"RJ-3305505-B4B5C7FB04D546A3A8A0C1FFB3A089D5","num_area":"242.26730000000000000000000000000","ind_status":"AT","des_condic":"Aguardando analise"},"geometry":{"type":"Polygon","coordinates":[[[-42.6054,-22.8871],[-42.6002,-22.892],[-42.6052,-22.8908],[-42.6054,-22.8871]],[[-42.5904,-22.8891],[-42.589,-22.8861],[-42.5772,-22.8894],[-42.5908,-22.8902],[-42.5904,-22.8891]],[[-42.5987,-22.8967],[-42.6023,-22.8934],[-42.5975,-22.8935],[-42.5986,-22.8967],[-42.5987,-22.8967]],[[-42.6006,-22.8881],[-42.5906,-22.8893],[-42.6003,-22.8883],[-42.6006,-22.8881]],[[-42.5897,-22.9027],[-42.5976,-22.9019],[-42.5983,-22.8974],[-42.5804,-22.8938],[-42.588,-22.9011],[-42.5897,-22.9027]]]}},{"type":"Feature","properties":{"cod_imovel":"RJ-3305505-2D808B2EB80446169012A86235A324FC","num_area":"7.3944000000000000000000000000000","ind_status":"AT","des_condic":"Aguardando analise"},"geometry":{"type":"Polygon","coordinates":[[[-42.5446,-22.9116],[-42.539,-22.9134],[-42.5447,-22.9122],[-42.5446,-22.9116]],[[-42.5436,-22.9135],[-42.5403,-22.9128],[-42.5436,-22.9135],[-42.5436,-22.9135]]]}},{"type":"Feature","properties":{"cod_imovel":"RJ-3305505-24D246E8E20048EFA9670439BBCF92CE","num_area":"8.9745000000000000000000000000000","ind_status":"AT","des_condic":"Aguardando analise"},"geometry":{"type":"Polygon","coordinates":[[[-42.4563,-22.8346],[-42.4566,-22.8377],[-42.4599,-22.8343],[-42.4563,-22.8346]]]}},{"type":"Feature","properties":{"cod_imovel":"RJ-3305505-6C7B49681B6B4E52B1F473075F514DBB","num_area":"16.993800000000000000000000000000","ind_status":"AT","des_condic":"Aguardando analise"},"geometry":{"type":"Polygon","coordinates":[[[-42.5294,-22.8362],[-42.5324,-22.8368],[-42.5311,-22.8325],[-42.5282,-22.8364],[-42.5294,-22.8362]]]}},{"type":"Feature","properties":{"cod_imovel":"RJ-3305505-0964A76C238D478D9EE858A07BAC5995","num_area":"113.34560000000000000000000000000","ind_status":"AT","des_condic":"Aguardando analise"},"geometry":{"type":"Polygon","coordinates":[[[-42.5408,-22.8939],[-42.5344,-22.8895],[-42.521,-22.8924],[-42.5204,-22.9007],[-42.5299,-22.8992],[-42.5294,-22.8928],[-42.5408,-22.8941],[-42.5408,-22.8939]]]}},{"type":"Feature","properties":{"cod_imovel":"RJ-3305505-E142A7D50A3A4429949BE21D72C7CBC8","num_area":"7.3778000000000000000000000000000","ind_status":"AT","des_condic":"Aguardando analise"},"geometry":{"type":"Polygon","coordinates":[[[-42.5512,-22.9151],[-42.556,-22.9145],[-42.5516,-22.9149],[-42.5512,-22.9151]]]}},{"type":"Feature","properties":{"cod_imovel":"RJ-3305505-FC4DFB4E82E94ABE87810109E76ACA42","num_area":"8.3647000000000000000000000000000","ind_status":"AT","des_condic":"Aguardando analise"},"geometry":{"type":"Polygon","coordinates":[[[-42.624,-22.8548],[-42.6286,-22.8566],[-42.6239,-22.8545],[-42.624,-22.8548]]]}},{"type":"Feature","properties":{"cod_imovel":"RJ-3305505-AE021CF503F345D8AD9890FBC274029D","num_area":"0.6258000000000000000000000000000","ind_status":"AT","des_condic":"Aguardando analise"},"geometry":{"type":"Polygon","coordinates":[[[-42.4841,-22.8502],[-42.4814,-22.8444],[-42.4836,-22.8505],[-42.4841,-22.8502]]]}},{"type":"Feature","properties":{"cod_imovel":"RJ-3305505-C574DA6C61D74BAE82F576DF80446DCA","num_area":"23.921900000000000000000000000000","ind_status":"AT","des_condic":"Aguardando analise"},"geometry":{"type":"Polygon","coordinates":[[[-42.6596,-22.8829],[-42.6531,-22.8835],[-42.6591,-22.883],[-42.6596,-22.8829]],[[-42.6555,-22.8813],[-42.6508,-22.8852],[-42.6556,-22.8816],[-42.6555,-22.8813]]]}},{"type":"Feature","properties":{"cod_imovel":"RJ-3305505-4A820C20F35549F4BC1A70398AEFEA60","num_area":"124.82920000000000000000000000000","ind_status":"AT","des_condic":"Aguardando analise"},"geometry":{"type":"Polygon","coordinates":[[[-42.4294,-22.8257],[-42.4409,-22.8337],[-42.4347,-22.8249],[-42.4294,-22.8257]],[[-42.4478,-22.8333],[-42.4407,-22.8285],[-42.4411,-22.8339],[-42.4463,-22.8374],[-42.4472,-22.8337],[-42.4478,-22.8333]],[[-42.4439,-22.8247],[-42.4429,-22.8298],[-42.4471,-22.8269],[-42.4439,-22.8247]],[[-42.4491,-22.8336],[-42.4449,-22.8304],[-42.4491,-22.8336],[-42.4491,-22.8336]],[[-42.4509,-22.8294],[-42.4472,-22.8269],[-42.4481,-22.8304],[-42.4509,-22.8294]]]}},{"type":"Feature","properties":{"cod_imovel":"RJ-3305505-EFF929C8373841CCBCCFD173B3C89CBF","num_area":"4.3739000000000000000000000000000","ind_status":"AT","des_condic":"Aguardando analise"},"geometry":{"type":"Polygon","coordinates":[[[-42.4346,-22.89],[-42.4381,-22.8896],[-42.4346,-22.8899],[-42.4346,-22.89]]]}},{"type":"Feature","properties":{"cod_imovel":"RJ-3305505-0E4F7EAC14EC4509A159E79A286C567D","num_area":"17.987500000000000000000000000000","ind_status":"AT","des_condic":"Aguardando analise"},"geometry":{"type":"Polygon","coordinates":[[[-42.5953,-22.9067],[-42.5915,-22.9052],[-42.5953,-22.9069],[-42.5953,-22.9067]]]}},{"type":"Feature","properties":{"cod_imovel":"RJ-3305505-3FBA5114B0D445B784D06AB93088C4E6","num_area":"35.097000000000000000000000000000","ind_status":"AT","des_condic":"Em analise"},"geometry":{"type":"Polygon","coordinates":[[[-42.5269,-22.909],[-42.5272,-22.9044],[-42.5199,-22.9037],[-42.5201,-22.9095],[-42.5264,-22.909],[-42.5269,-22.909]]]}},{"type":"Feature","properties":{"cod_imovel":"RJ-3305505-29EB428CD14D4CAB893EB61105A063AE","num_area":"69.482000000000000000000000000000","ind_status":"AT","des_condic":"Aguardando analise"},"geometry":{"type":"Polygon","coordinates":[[[-42.5221,-22.8863],[-42.5207,-22.8815],[-42.5212,-22.8858],[-42.5221,-22.8863]],[[-42.5256,-22.8917],[-42.5236,-22.8882],[-42.5243,-22.8917],[-42.5256,-22.8917]],[[-42.5263,-22.8891],[-42.5301,-22.8878],[-42.5283,-22.8799],[-42.5215,-22.8813],[-42.5236,-22.8868],[-42.5263,-22.8891]]]}},{"type":"Feature","properties":{"cod_imovel":"RJ-3305505-32E53BCCD2554CAA91E88AF7855ADBF4","num_area":"11.390600000000000000000000000000","ind_status":"AT","des_condic":"Aguardando analise"},"geometry":{"type":"Polygon","coordinates":[[[-42.3947,-22.8531],[-42.3968,-22.8504],[-42.3912,-22.8509],[-42.3958,-22.8524],[-42.3947,-22.8531]]]}},{"type":"Feature","properties":{"cod_imovel":"RJ-3305505-62D40FC9C66B451589CDB809CF85B77C","num_area":"5.7266000000000000000000000000000","ind_status":"AT","des_condic":"Aguardando analise"},"geometry":{"type":"Polygon","coordinates":[[[-42.4506,-22.8514],[-42.4494,-22.8481],[-42.4504,-22.8514],[-42.4506,-22.8514]]]}},{"type":"Feature","properties":{"cod_imovel":"RJ-3305505-7CBEC3BA5D014CB7ADCFE5E67E84B8AD","num_area":"5.9478000000000000000000000000000","ind_status":"AT","des_condic":"Aguardando analise"},"geometry":{"type":"Polygon","coordinates":[[[-42.4007,-22.835],[-42.4031,-22.8382],[-42.4009,-22.8349],[-42.4007,-22.835]]]}},{"type":"Feature","properties":{"cod_imovel":"RJ-3305505-5465D247C1214ADE9B19431417D9947B","num_area":"19.477500000000000000000000000000","ind_status":"AT","des_condic":"Aguardando analise"},"geometry":{"type":"Polygon","coordinates":[[[-42.4441,-22.8722],[-42.4486,-22.8726],[-42.4446,-22.8721],[-42.4441,-22.8722]]]}},{"type":"Feature","properties":{"cod_imovel":"RJ-3305505-AAE7765B695941AAA936E2886A049892","num_area":"1.1965000000000000000000000000000","ind_status":"AT","des_condic":"Aguardando analise"},"geometry":{"type":"Polygon","coordinates":[[[-42.4708,-22.8472],[-42.4639,-22.8477],[-42.4778,-22.8466],[-42.4708,-22.8472]]]}},{"type":"Feature","properties":{"cod_imovel":"RJ-3305505-A2B27FEC202045C39C1E19167CC29640","num_area":"8.5425000000000000000000000000000","ind_status":"AT","des_condic":"Aguardando analise"},"geometry":{"type":"Polygon","coordinates":[[[-42.4389,-22.8273],[-42.4341,-22.8259],[-42.4394,-22.8276],[-42.4389,-22.8273]]]}},{"type":"Feature","properties":{"cod_imovel":"RJ-3305505-49E0D90344964F9CB2479BE76310A749","num_area":"13.595400000000000000000000000000","ind_status":"AT","des_condic":"Aguardando analise"},"geometry":{"type":"Polygon","coordinates":[[[-42.4974,-22.8901],[-42.4976,-22.8959],[-42.4976,-22.8901],[-42.4974,-22.8901]],[[-42.5,-22.8899],[-42.4984,-22.8957],[-42.5005,-22.8905],[-42.5,-22.8899]]]}},{"type":"Feature","properties":{"cod_imovel":"RJ-3305505-96324B1222AF405887255A96F39FA663","num_area":"35.575800000000000000000000000000","ind_status":"AT","des_condic":"Aguardando analise"},"geometry":{"type":"Polygon","coordinates":[[[-42.5396,-22.8172],[-42.5411,-22.8234],[-42.5468,-22.8161],[-42.5396,-22.8172],[-42.5396,-22.8172]]]}},{"type":"Feature","properties":{"cod_imovel":"RJ-3305505-5A8670FFBE5F4D33A210E315F6ACA878","num_area":"7.1798000000000000000000000000000","ind_status":"AT","des_condic":"Aguardando analise"},"geometry":{"type":"Polygon","coordinates":[[[-42.4639,-22.8477],[-42.4763,-22.8468],[-42.4637,-22.8458],[-42.4689,-22.8473],[-42.4639,-22.8477]],[[-42.4778,-22.8466],[-42.473,-22.8451],[-42.4768,-22.8448],[-42.4778,-22.8466]]]}},{"type":"Feature","properties":{"cod_imovel":"RJ-3305505-4AB80CD637744C1391A53E537083EC21","num_area":"7.6958000000000000000000000000000","ind_status":"AT","des_condic":"Aguardando analise"},"geometry":{"type":"Polygon","coordinates":[[[-42.5413,-22.8629],[-42.5439,-22.8653],[-42.5412,-22.8629],[-42.5413,-22.8629]]]}},{"type":"Feature","properties":{"cod_imovel":"RJ-3305505-0A4FD95B03564F479A1EB0CA36515BB2","num_area":"9.1150000000000000000000000000000","ind_status":"AT","des_condic":"Aguardando analise"},"geometry":{"type":"Polygon","coordinates":[[[-42.62,-22.8494],[-42.6223,-22.8517],[-42.62,-22.8494],[-42.62,-22.8494]],[[-42.6227,-22.8517],[-42.6205,-22.8495],[-42.6227,-22.8517],[-42.6227,-22.8517]]]}},{"type":"Feature","properties":{"cod_imovel":"RJ-3305505-20F8D457F38045D4ACDA49E8F3AEB895","num_area":"11.946900000000000000000000000000","ind_status":"AT","des_condic":"Aguardando analise"},"geometry":{"type":"Polygon","coordinates":[[[-42.6004,-22.8364],[-42.5958,-22.836],[-42.6005,-22.8365],[-42.6004,-22.8364]]]}},{"type":"Feature","properties":{"cod_imovel":"RJ-3305505-8B018B88D8BA4BD38C8A5E35345B59B7","num_area":"7.5982000000000000000000000000000","ind_status":"AT","des_condic":"Aguardando analise"},"geometry":{"type":"Polygon","coordinates":[[[-42.3744,-22.8455],[-42.3723,-22.8486],[-42.3745,-22.8455],[-42.3744,-22.8455]]]}},{"type":"Feature","properties":{"cod_imovel":"RJ-3305505-0A6E4F56F23F416F9A65E5D93086A02D","num_area":"216.93340000000000000000000000000","ind_status":"AT","des_condic":"Analisado, aguardando atendimento a notificacao"},"geometry":{"type":"Polygon","coordinates":[[[-42.3901,-22.9151],[-42.3905,-22.9002],[-42.3829,-22.9021],[-42.3853,-22.9054],[-42.3728,-22.9182],[-42.3783,-22.9206],[-42.3843,-22.9128],[-42.3899,-22.9158],[-42.3901,-22.9151]],[[-42.3703,-22.9235],[-42.3757,-22.9279],[-42.3897,-22.9257],[-42.372,-22.9235],[-42.3703,-22.9235]]]}},{"type":"Feature","properties":{"cod_imovel":"RJ-3305505-125034D2D8334D658BF27E48CCEF11ED","num_area":"29.252900000000000000000000000000","ind_status":"AT","des_condic":"Aguardando analise"},"geometry":{"type":"Polygon","coordinates":[[[-42.4179,-22.8337],[-42.4209,-22.8352],[-42.4206,-22.8306],[-42.4173,-22.8333],[-42.4179,-22.8337]],[[-42.4204,-22.8304],[-42.416,-22.8271],[-42.4131,-22.8302],[-42.4194,-22.8313],[-42.4204,-22.8304]]]}},{"type":"Feature","properties":{"cod_imovel":"RJ-3305505-1394D692B0044947B81026A339F4A1F3","num_area":"38.106300000000000000000000000000","ind_status":"AT","des_condic":"Aguardando analise"},"geometry":{"type":"Polygon","coordinates":[[[-42.6092,-22.8722],[-42.6127,-22.8729],[-42.6094,-22.872],[-42.6092,-22.8722]],[[-42.6122,-22.8738],[-42.6162,-22.8765],[-42.6123,-22.8736],[-42.6122,-22.8738]],[[-42.6165,-22.8765],[-42.6129,-22.8729],[-42.6152,-22.8754],[-42.6165,-22.8765]],[[-42.619,-22.8763],[-42.6177,-22.8734],[-42.619,-22.8763],[-42.619,-22.8763]],[[-42.6187,-22.8735],[-42.6135,-22.8731],[-42.6184,-22.8734],[-42.6187,-22.8735]],[[-42.6168,-22.8714],[-42.6131,-22.8728],[-42.6166,-22.8717],[-42.6168,-22.8714]]]}},{"type":"Feature","properties":{"cod_imovel":"RJ-3305505-4AF698DB91D942CCB9BDB2D61DA6EA63","num_area":"100.24920000000000000000000000000","ind_status":"AT","des_condic":"Aguardando analise"},"geometry":{"type":"Polygon","coordinates":[[[-42.6076,-22.8657],[-42.6121,-22.8717],[-42.6167,-22.8698],[-42.6104,-22.8661],[-42.6135,-22.8647],[-42.6076,-22.8656],[-42.6076,-22.8657]],[[-42.617,-22.8687],[-42.6209,-22.8709],[-42.6169,-22.8683],[-42.617,-22.8687]],[[-42.6069,-22.8662],[-42.6031,-22.8675],[-42.6069,-22.8664],[-42.6069,-22.8662]],[[-42.6037,-22.8683],[-42.6107,-22.8703],[-42.6074,-22.8659],[-42.604,-22.8684],[-42.6037,-22.8683]],[[-42.605,-22.8702],[-42.6091,-22.8723],[-42.6049,-22.8701],[-42.605,-22.8702]],[[-42.6062,-22.873],[-42.6064,-22.878],[-42.6103,-22.8777],[-42.612,-22.8739],[-42.6065,-22.873],[-42.6062,-22.873]]]}},{"type":"Feature","properties":{"cod_imovel":"RJ-3305505-4D5DC66C1C574705A8836295169E20FA","num_area":"7.0310000000000000000000000000000","ind_status":"AT","des_condic":"Aguardando analise"},"geometry":{"type":"Polygon","coordinates":[[[-42.4613,-22.8555],[-42.4594,-22.8513],[-42.461,-22.8555],[-42.4613,-22.8555]],[[-42.4576,-22.8528],[-42.4608,-22.8555],[-42.4577,-22.8517],[-42.4576,-22.8528]]]}},{"type":"Feature","properties":{"cod_imovel":"RJ-3305505-4E5E182D36804A96B0AD90D0F0E69F44","num_area":"278.71170000000000000000000000000","ind_status":"AT","des_condic":"Analisado, aguardando atendimento a notificacao"},"geometry":{"type":"Polygon","coordinates":[[[-42.4569,-22.9146],[-42.4446,-22.9097],[-42.4372,-22.9116],[-42.4436,-22.915],[-42.4392,-22.9249],[-42.4519,-22.9182],[-42.4569,-22.9146]],[[-42.4392,-22.925],[-42.4445,-22.9239],[-42.4392,-22.925],[-42.4392,-22.925]],[[-42.4603,-22.9261],[-42.457,-22.9147],[-42.4448,-22.9238],[-42.4603,-22.9255],[-42.4603,-22.9261]]]}},{"type":"Feature","properties":{"cod_imovel":"RJ-3305505-7BAA03D5D6ED44CBA8FB5CD54AC4C755","num_area":"6.5893000000000000000000000000000","ind_status":"AT","des_condic":"Aguardando analise"},"geometry":{"type":"Polygon","coordinates":[[[-42.6028,-22.836],[-42.6054,-22.8385],[-42.6029,-22.8359],[-42.6028,-22.836]]]}},{"type":"Feature","properties":{"cod_imovel":"RJ-3305505-9B1A31CAC3B3494689727946C23FE495","num_area":"50.914500000000000000000000000000","ind_status":"AT","des_condic":"Aguardando analise"},"geometry":{"type":"Polygon","coordinates":[[[-42.6614,-22.8973],[-42.6583,-22.8943],[-42.6612,-22.8969],[-42.6614,-22.8973]],[[-42.6558,-22.891],[-42.662,-22.8927],[-42.6617,-22.8895],[-42.6563,-22.8911],[-42.6558,-22.891]],[[-42.6586,-22.8873],[-42.6531,-22.8907],[-42.6617,-22.8889],[-42.6583,-22.8876],[-42.6586,-22.8873]],[[-42.659,-22.8941],[-42.6622,-22.8947],[-42.6587,-22.8937],[-42.659,-22.8941]],[[-42.6585,-22.8961],[-42.6626,-22.8994],[-42.6584,-22.8958],[-42.6585,-22.8961]]]}},{"type":"Feature","properties":{"cod_imovel":"RJ-3305505-A7545334AF4F4C4993C1327751265A78","num_area":"10.715300000000000000000000000000","ind_status":"AT","des_condic":"Aguardando analise"},"geometry":{"type":"Polygon","coordinates":[[[-42.4682,-22.8291],[-42.4732,-22.8314],[-42.4682,-22.8291],[-42.4682,-22.8291]]]}},{"type":"Feature","properties":{"cod_imovel":"RJ-3305505-B5D0394800FB42DB9E7AFBFD1F7CFB59","num_area":"1.3668000000000000000000000000000","ind_status":"AT","des_condic":"Aguardando analise"},"geometry":{"type":"Polygon","coordinates":[[[-42.5352,-22.8784],[-42.5394,-22.8777],[-42.5352,-22.8784],[-42.5352,-22.8784]]]}},{"type":"Feature","properties":{"cod_imovel":"RJ-3305505-E01F8E64CAA84AA0A834D80E016F7BB7","num_area":"25.245800000000000000000000000000","ind_status":"AT","des_condic":"Aguardando analise"},"geometry":{"type":"Polygon","coordinates":[[[-42.6008,-22.9065],[-42.5959,-22.9087],[-42.6009,-22.9065],[-42.6008,-22.9065]],[[-42.6033,-22.908],[-42.6067,-22.9075],[-42.6022,-22.9081],[-42.6033,-22.908]]]}},{"type":"Feature","properties":{"cod_imovel":"RJ-3305505-E8036754C00E4EBFBAF5652F30EECD4B","num_area":"218.49790000000000000000000000000","ind_status":"AT","des_condic":"Aguardando analise"},"geometry":{"type":"Polygon","coordinates":[[[-42.3761,-22.836],[-42.3877,-22.846],[-42.3855,-22.8336],[-42.3777,-22.8346],[-42.3761,-22.836]],[[-42.3762,-22.8396],[-42.3794,-22.846],[-42.3845,-22.845],[-42.3762,-22.8396],[-42.3762,-22.8396]],[[-42.3815,-22.8466],[-42.3827,-22.8551],[-42.391,-22.852],[-42.3856,-22.8489],[-42.3909,-22.8513],[-42.3878,-22.8462],[-42.3818,-22.8466],[-42.3815,-22.8466]],[[-42.3907,-22.8499],[-42.3855,-22.8337],[-42.3901,-22.849],[-42.3907,-22.8499]]]}}]}