{"type":"FeatureCollection","features":[{"type":"Feature","properties":{"cod_imovel":"RJ-3305752-6CDA951503234297878B8E07333503EA","num_area":"29.913700000000000000000000000000","ind_status":"AT","des_condic":"Aguardando analise"},"geometry":{"type":"Polygon","coordinates":[[[-42.7587,-22.7802],[-42.7524,-22.7885],[-42.7572,-22.7909],[-42.7541,-22.7865],[-42.7578,-22.782],[-42.7587,-22.7802]]]}},{"type":"Feature","properties":{"cod_imovel":"RJ-3305752-E64DBD7A4EDA452BBE23F9FA0823B581","num_area":"40.649300000000000000000000000000","ind_status":"AT","des_condic":"Aguardando analise"},"geometry":{"type":"Polygon","coordinates":[[[-42.7495,-22.778],[-42.7516,-22.774],[-42.7454,-22.7728],[-42.7453,-22.778],[-42.7494,-22.7779],[-42.7495,-22.778]],[[-42.7449,-22.7736],[-42.7452,-22.7776],[-42.7449,-22.7736],[-42.7449,-22.7736]]]}},{"type":"Feature","properties":{"cod_imovel":"RJ-3301900-37F78BE47E014D2AB0660B82FACB5ADE","num_area":"33.386200000000000000000000000000","ind_status":"AT","des_condic":"Aguardando analise"},"geometry":{"type":"Polygon","coordinates":[[[-42.7973,-22.788],[-42.7917,-22.7943],[-42.7984,-22.7924],[-42.7935,-22.791],[-42.7984,-22.7924],[-42.7979,-22.7882],[-42.7973,-22.788]],[[-42.7919,-22.7943],[-42.7961,-22.794],[-42.7919,-22.7942],[-42.7919,-22.7943]]]}},{"type":"Feature","properties":{"cod_imovel":"RJ-3305752-82A3AA7A43E2402B8E4F5984D2900BF6","num_area":"17.581100000000000000000000000000","ind_status":"AT","des_condic":"Aguardando analise"},"geometry":{"type":"Polygon","coordinates":[[[-42.7406,-22.7981],[-42.7439,-22.7943],[-42.7404,-22.798],[-42.7406,-22.7981]],[[-42.7418,-22.7943],[-42.7382,-22.797],[-42.7418,-22.7944],[-42.7418,-22.7943]]]}},{"type":"Feature","properties":{"cod_imovel":"RJ-3305752-90A822CF68134F139D0BC2BA20B1D158","num_area":"162.80560000000000000000000000000","ind_status":"AT","des_condic":"Aguardando analise"},"geometry":{"type":"Polygon","coordinates":[[[-42.7052,-22.8145],[-42.6959,-22.8182],[-42.6976,-22.8298],[-42.7085,-22.8305],[-42.7052,-22.8145]]]}},{"type":"Feature","properties":{"cod_imovel":"RJ-3305752-86BFCA6798F24109BE8BC9BEA67C20CF","num_area":"40.120000000000000000000000000000","ind_status":"AT","des_condic":"Aguardando analise"},"geometry":{"type":"Polygon","coordinates":[[[-42.7445,-22.7935],[-42.7467,-22.7871],[-42.7445,-22.7934],[-42.7445,-22.7935]],[[-42.7465,-22.787],[-42.7416,-22.7884],[-42.7464,-22.7871],[-42.7465,-22.787]],[[-42.7462,-22.7869],[-42.7425,-22.7868],[-42.746,-22.7868],[-42.7462,-22.7869]],[[-42.7403,-22.7908],[-42.7435,-22.7931],[-42.7447,-22.7888],[-42.7403,-22.7908],[-42.7403,-22.7908]]]}},{"type":"Feature","properties":{"cod_imovel":"RJ-3305752-8B91177E9BA0473CB985C1CDE8A6622E","num_area":"5.0928000000000000000000000000000","ind_status":"AT","des_condic":"Aguardando analise"},"geometry":{"type":"Polygon","coordinates":[[[-42.754,-22.776],[-42.7577,-22.7715],[-42.7544,-22.7752],[-42.754,-22.776]]]}},{"type":"Feature","properties":{"cod_imovel":"RJ-3305752-4CEF59C11B9A45908C70C5B0045B3271","num_area":"62.637400000000000000000000000000","ind_status":"PE","des_condic":"Analisado, aguardando atendimento a notificacao"},"geometry":{"type":"Polygon","coordinates":[[[-42.6794,-22.8049],[-42.6801,-22.8019],[-42.6794,-22.8049],[-42.6794,-22.8049]],[[-42.6877,-22.7969],[-42.6857,-22.7998],[-42.6819,-22.7952],[-42.6865,-22.8043],[-42.6906,-22.7991],[-42.6874,-22.8022],[-42.6877,-22.7969],[-42.6877,-22.7969]],[[-42.6822,-22.7975],[-42.6833,-22.8027],[-42.6822,-22.7975],[-42.6822,-22.7975]],[[-42.6899,-22.7979],[-42.6881,-22.7954],[-42.6898,-22.7979],[-42.6899,-22.7979]]]}},{"type":"Feature","properties":{"cod_imovel":"RJ-3305752-DC632216C8D94F28A761A25BCAE7EC7F","num_area":"30.198000000000000000000000000000","ind_status":"AT","des_condic":"Aguardando analise"},"geometry":{"type":"Polygon","coordinates":[[[-42.7296,-22.7128],[-42.7263,-22.7137],[-42.7293,-22.7126],[-42.7296,-22.7128]],[[-42.7313,-22.7113],[-42.7314,-22.7072],[-42.7276,-22.7108],[-42.7308,-22.7112],[-42.7313,-22.7113]]]}},{"type":"Feature","properties":{"cod_imovel":"RJ-3305752-D1282873CEDD4606999E3BDA385A9DB9","num_area":"100.80320000000000000000000000000","ind_status":"AT","des_condic":"Em analise"},"geometry":{"type":"Polygon","coordinates":[[[-42.6944,-22.7947],[-42.6949,-22.7909],[-42.6867,-22.7903],[-42.6813,-22.7948],[-42.6944,-22.7948],[-42.6944,-22.7947]],[[-42.6926,-22.7986],[-42.6943,-22.7949],[-42.6912,-22.7953],[-42.6926,-22.7986]],[[-42.6791,-22.7976],[-42.6832,-22.7984],[-42.6793,-22.7975],[-42.6791,-22.7976]],[[-42.6775,-22.8011],[-42.6718,-22.8074],[-42.6805,-22.8041],[-42.6777,-22.8007],[-42.6775,-22.8011]]]}},{"type":"Feature","properties":{"cod_imovel":"RJ-3305752-EDD822F821F04A1BA4688CCE6D5916DD","num_area":"7.7093000000000000000000000000000","ind_status":"AT","des_condic":"Aguardando analise"},"geometry":{"type":"Polygon","coordinates":[[[-42.7385,-22.8015],[-42.7376,-22.7976],[-42.7382,-22.8011],[-42.7385,-22.8015]]]}},{"type":"Feature","properties":{"cod_imovel":"RJ-3305752-6070CCBAB84C4A97961F1ACC7E3A538E","num_area":"31.664400000000000000000000000000","ind_status":"AT","des_condic":"Aguardando analise"},"geometry":{"type":"Polygon","coordinates":[[[-42.7481,-22.8016],[-42.7473,-22.798],[-42.7482,-22.8013],[-42.7481,-22.8016]],[[-42.7469,-22.7988],[-42.7409,-22.804],[-42.7469,-22.7989],[-42.7469,-22.7988]]]}},{"type":"Feature","properties":{"cod_imovel":"RJ-3305752-C55EEA4E035C4DE19A59192F2B27F89F","num_area":"11.238500000000000000000000000000","ind_status":"PE","des_condic":"Aguardando analise, apos revisao ou atendimento da notificacao"},"geometry":{"type":"Polygon","coordinates":[[[-42.7199,-22.7655],[-42.716,-22.7635],[-42.7153,-22.7677],[-42.7189,-22.7676],[-42.7199,-22.7655]]]}},{"type":"Feature","properties":{"cod_imovel":"RJ-3305752-883DAFF84B8C438DBFA10A512C162812","num_area":"38.318100000000000000000000000000","ind_status":"AT","des_condic":"Aguardando analise"},"geometry":{"type":"Polygon","coordinates":[[[-42.7349,-22.8051],[-42.739,-22.8067],[-42.7422,-22.7991],[-42.7348,-22.805],[-42.7349,-22.8051]]]}},{"type":"Feature","properties":{"cod_imovel":"RJ-3305752-D96896068F27456E90FACE6519E857B0","num_area":"8.5116000000000000000000000000000","ind_status":"AT","des_condic":"Aguardando analise"},"geometry":{"type":"Polygon","coordinates":[[[-42.6926,-22.7896],[-42.6857,-22.7891],[-42.6903,-22.7885],[-42.6926,-22.7896]]]}},{"type":"Feature","properties":{"cod_imovel":"RJ-3305752-D2355D8BBDA54CDBAB70E001DEB21CA1","num_area":"3.1705000000000000000000000000000","ind_status":"AT","des_condic":"Aguardando analise"},"geometry":{"type":"Polygon","coordinates":[[[-42.724,-22.7578],[-42.7257,-22.7539],[-42.7241,-22.7574],[-42.724,-22.7578]]]}},{"type":"Feature","properties":{"cod_imovel":"RJ-3305752-741370D2C15B487B91E5D2A601789371","num_area":"15.700100000000000000000000000000","ind_status":"AT","des_condic":"Aguardando analise"},"geometry":{"type":"Polygon","coordinates":[[[-42.7454,-22.7557],[-42.7462,-22.7488],[-42.7449,-22.755],[-42.7454,-22.7557]]]}},{"type":"Feature","properties":{"cod_imovel":"RJ-3305752-658446DBE55F4821A6136AC16824D470","num_area":"10.830100000000000000000000000000","ind_status":"AT","des_condic":"Aguardando analise"},"geometry":{"type":"Polygon","coordinates":[[[-42.7118,-22.8204],[-42.7178,-22.8217],[-42.7127,-22.8184],[-42.7118,-22.8204]]]}},{"type":"Feature","properties":{"cod_imovel":"RJ-3305752-32D02DEBE26B462C9666FF88723B9107","num_area":"13.234800000000000000000000000000","ind_status":"AT","des_condic":"Aguardando analise"},"geometry":{"type":"Polygon","coordinates":[[[-42.733,-22.8027],[-42.7351,-22.7992],[-42.7329,-22.8027],[-42.733,-22.8027]],[[-42.7347,-22.7967],[-42.7323,-22.8041],[-42.7349,-22.7968],[-42.7347,-22.7967]]]}},{"type":"Feature","properties":{"cod_imovel":"RJ-3305752-00E2DD7562274663B543CC4C7B19EC33","num_area":"3.6048000000000000000000000000000","ind_status":"AT","des_condic":"Aguardando analise, apos revisao ou atendimento da notificacao"},"geometry":{"type":"Polygon","coordinates":[[[-42.7091,-22.786],[-42.7074,-22.7832],[-42.7088,-22.7863],[-42.7091,-22.786]]]}},{"type":"Feature","properties":{"cod_imovel":"RJ-3305752-AC9ABD2CDE434C3FB04AB97C9580A9A9","num_area":"9.2433000000000000000000000000000","ind_status":"PE","des_condic":"Analisado, aguardando atendimento a notificacao"},"geometry":{"type":"Polygon","coordinates":[[[-42.7025,-22.8051],[-42.7067,-22.8029],[-42.703,-22.8049],[-42.7025,-22.8051]]]}},{"type":"Feature","properties":{"cod_imovel":"RJ-3305752-11867A95FD9041F0B47E57692E824147","num_area":"6.3055000000000000000000000000000","ind_status":"AT","des_condic":"Aguardando analise"},"geometry":{"type":"Polygon","coordinates":[[[-42.7039,-22.7838],[-42.7043,-22.7872],[-42.7039,-22.7837],[-42.7039,-22.7838]]]}},{"type":"Feature","properties":{"cod_imovel":"RJ-3305752-E1BD0F549B204D63AF75051A5564F836","num_area":"33.302600000000000000000000000000","ind_status":"AT","des_condic":"Aguardando analise"},"geometry":{"type":"Polygon","coordinates":[[[-42.7463,-22.7825],[-42.7456,-22.7876],[-42.7466,-22.7823],[-42.7463,-22.7825]]]}},{"type":"Feature","properties":{"cod_imovel":"RJ-3305752-2E3CD8CBF37244B48C36EE3A78DD4BB9","num_area":"13.503300000000000000000000000000","ind_status":"AT","des_condic":"Aguardando analise"},"geometry":{"type":"Polygon","coordinates":[[[-42.6866,-22.8124],[-42.6866,-22.806],[-42.6863,-22.8123],[-42.6866,-22.8124]]]}},{"type":"Feature","properties":{"cod_imovel":"RJ-3305752-6DEB54EECA364031AEDF8850015776A5","num_area":"18.388900000000000000000000000000","ind_status":"AT","des_condic":"Aguardando analise"},"geometry":{"type":"Polygon","coordinates":[[[-42.7454,-22.7557],[-42.7508,-22.7529],[-42.7456,-22.7555],[-42.7454,-22.7557]]]}},{"type":"Feature","properties":{"cod_imovel":"RJ-3305752-6C0E19FBCC5547B0BB76D237FB492A8C","num_area":"14.831900000000000000000000000000","ind_status":"AT","des_condic":"Aguardando analise"},"geometry":{"type":"Polygon","coordinates":[[[-42.7308,-22.8033],[-42.7293,-22.8069],[-42.7321,-22.8041],[-42.7308,-22.8033]],[[-42.728,-22.8057],[-42.7323,-22.8042],[-42.728,-22.8057],[-42.728,-22.8057]]]}},{"type":"Feature","properties":{"cod_imovel":"RJ-3305752-4F3E265DD6564199A53D515C877CDF9B","num_area":"5.1421000000000000000000000000000","ind_status":"PE","des_condic":"Analisado, aguardando atendimento a notificacao"},"geometry":{"type":"Polygon","coordinates":[[[-42.7968,-22.7419],[-42.7977,-22.7381],[-42.7963,-22.7415],[-42.7968,-22.7419]]]}},{"type":"Feature","properties":{"cod_imovel":"RJ-3305752-9F54ACAE53C245DE8A27BFE095344A71","num_area":"9.6972000000000000000000000000000","ind_status":"PE","des_condic":"Analisado, aguardando atendimento a notificacao"},"geometry":{"type":"Polygon","coordinates":[[[-42.7277,-22.8011],[-42.7312,-22.7992],[-42.7277,-22.8011],[-42.7277,-22.8011]]]}},{"type":"Feature","properties":{"cod_imovel":"RJ-3305752-71E9E942542E4E6B8A48EBC0EB18F25F","num_area":"21.054800000000000000000000000000","ind_status":"AT","des_condic":"Aguardando analise"},"geometry":{"type":"Polygon","coordinates":[[[-42.7259,-22.715],[-42.7203,-22.7159],[-42.7255,-22.7153],[-42.7259,-22.715]],[[-42.7253,-22.714],[-42.7262,-22.7104],[-42.7253,-22.7139],[-42.7253,-22.714]]]}},{"type":"Feature","properties":{"cod_imovel":"RJ-3305752-6071DD832E1D46C892D9DAB31826371A","num_area":"8.7779000000000000000000000000000","ind_status":"PE","des_condic":"Analisado, aguardando atendimento a notificacao"},"geometry":{"type":"Polygon","coordinates":[[[-42.7057,-22.8103],[-42.7058,-22.8148],[-42.7059,-22.8103],[-42.7057,-22.8103]]]}},{"type":"Feature","properties":{"cod_imovel":"RJ-3305752-584B030420104A0D9BA5B15E01AFF1FC","num_area":"35.096600000000000000000000000000","ind_status":"AT","des_condic":"Aguardando analise"},"geometry":{"type":"Polygon","coordinates":[[[-42.7385,-22.7145],[-42.7342,-22.7164],[-42.738,-22.7144],[-42.7385,-22.7145]],[[-42.7345,-22.7136],[-42.726,-22.7134],[-42.729,-22.7171],[-42.7291,-22.7126],[-42.7296,-22.7166],[-42.7343,-22.7136],[-42.7345,-22.7136]],[[-42.7325,-22.7169],[-42.737,-22.7173],[-42.7349,-22.7215],[-42.7377,-22.7161],[-42.7325,-22.7169],[-42.7325,-22.7169]]]}},{"type":"Feature","properties":{"cod_imovel":"RJ-3305752-A02778FC003E45CAA77E1706356D9660","num_area":"6.4698000000000000000000000000000","ind_status":"AT","des_condic":"Aguardando analise"},"geometry":{"type":"Polygon","coordinates":[[[-42.7477,-22.7254],[-42.7515,-22.7251],[-42.7477,-22.7254],[-42.7477,-22.7254]]]}},{"type":"Feature","properties":{"cod_imovel":"RJ-3305752-AAF74BF400B6430998AE4B14459ECBA5","num_area":"10.515900000000000000000000000000","ind_status":"AT","des_condic":"Aguardando analise"},"geometry":{"type":"Polygon","coordinates":[[[-42.7588,-22.7938],[-42.7557,-22.7948],[-42.759,-22.794],[-42.7588,-22.7938]]]}},{"type":"Feature","properties":{"cod_imovel":"RJ-3305752-D7B8EE13C1614F6DBA4B8F3CA433D996","num_area":"15.470800000000000000000000000000","ind_status":"PE","des_condic":"Analisado, aguardando atendimento a notificacao"},"geometry":{"type":"Polygon","coordinates":[[[-42.7587,-22.8001],[-42.7554,-22.7952],[-42.7576,-22.7993],[-42.7587,-22.8001]]]}},{"type":"Feature","properties":{"cod_imovel":"RJ-3305752-D343F272E15745399C3156669FB74893","num_area":"17.930400000000000000000000000000","ind_status":"PE","des_condic":"Analisado, aguardando atendimento a notificacao"},"geometry":{"type":"Polygon","coordinates":[[[-42.7073,-22.7988],[-42.7058,-22.8025],[-42.7105,-22.8025],[-42.7078,-22.7986],[-42.7073,-22.7988]]]}},{"type":"Feature","properties":{"cod_imovel":"RJ-3305752-DCFD35566FAF40B6BAD422E050D692A9","num_area":"6.1225000000000000000000000000000","ind_status":"PE","des_condic":"Analisado, aguardando atendimento a notificacao"},"geometry":{"type":"Polygon","coordinates":[[[-42.764,-22.7594],[-42.7643,-22.763],[-42.7652,-22.7588],[-42.764,-22.7594]]]}},{"type":"Feature","properties":{"cod_imovel":"RJ-3305752-358490705D2041D0B358D4219F0D1E58","num_area":"5.7038000000000000000000000000000","ind_status":"PE","des_condic":"Analisado, aguardando atendimento a notificacao"},"geometry":{"type":"Polygon","coordinates":[[[-42.6842,-22.7751],[-42.6796,-22.7757],[-42.6839,-22.7755],[-42.6842,-22.7751]]]}},{"type":"Feature","properties":{"cod_imovel":"RJ-3305752-3B16338222D94C799B781C58A356C94B","num_area":"10.726500000000000000000000000000","ind_status":"AT","des_condic":"Aguardando analise"},"geometry":{"type":"Polygon","coordinates":[[[-42.7056,-22.7511],[-42.7092,-22.7557],[-42.7061,-22.7518],[-42.7056,-22.7511]]]}},{"type":"Feature","properties":{"cod_imovel":"RJ-3305752-E4CEFE5E076543A1A1FFC5D757A12088","num_area":"11.073700000000000000000000000000","ind_status":"AT","des_condic":"Aguardando analise"},"geometry":{"type":"Polygon","coordinates":[[[-42.7197,-22.7839],[-42.7232,-22.7813],[-42.7197,-22.7838],[-42.7197,-22.7839]]]}},{"type":"Feature","properties":{"cod_imovel":"RJ-3305752-8B2D3ACE24814FA093F0BCA40EAB9430","num_area":"8.4657000000000000000000000000000","ind_status":"AT","des_condic":"Aguardando analise"},"geometry":{"type":"Polygon","coordinates":[[[-42.7432,-22.8221],[-42.7444,-22.8186],[-42.7431,-22.822],[-42.7432,-22.8221]]]}},{"type":"Feature","properties":{"cod_imovel":"RJ-3305752-4AB837198388477BAD96E24ED13B6543","num_area":"5.5359000000000000000000000000000","ind_status":"AT","des_condic":"Aguardando analise"},"geometry":{"type":"Polygon","coordinates":[[[-42.6992,-22.7949],[-42.7,-22.798],[-42.6992,-22.7944],[-42.6992,-22.7949]]]}},{"type":"Feature","properties":{"cod_imovel":"RJ-3305752-F260CEDAE0244D03810400087CEB6758","num_area":"37.288100000000000000000000000000","ind_status":"AT","des_condic":"Aguardando analise"},"geometry":{"type":"Polygon","coordinates":[[[-42.6943,-22.7949],[-42.6991,-22.7941],[-42.6946,-22.7943],[-42.6943,-22.7949]],[[-42.6984,-22.7955],[-42.6943,-22.7949],[-42.6897,-22.8025],[-42.6967,-22.8019],[-42.698,-22.7962],[-42.6984,-22.7955]]]}},{"type":"Feature","properties":{"cod_imovel":"RJ-3305752-CB030AA70FE84C6FACF8B87283B1E4C5","num_area":"17.936900000000000000000000000000","ind_status":"AT","des_condic":"Aguardando analise"},"geometry":{"type":"Polygon","coordinates":[[[-42.7162,-22.7975],[-42.7203,-22.7965],[-42.7159,-22.7972],[-42.7162,-22.7975]],[[-42.7165,-22.7999],[-42.7207,-22.7966],[-42.7165,-22.7999],[-42.7165,-22.7999]]]}},{"type":"Feature","properties":{"cod_imovel":"RJ-3305752-4794DE72157140A5B62BD056F307F86E","num_area":"11.666400000000000000000000000000","ind_status":"AT","des_condic":"Aguardando analise"},"geometry":{"type":"Polygon","coordinates":[[[-42.7663,-22.7957],[-42.7681,-22.7925],[-42.7663,-22.7957],[-42.7663,-22.7957]],[[-42.7684,-22.7929],[-42.7698,-22.7898],[-42.7684,-22.7928],[-42.7684,-22.7929]]]}},{"type":"Feature","properties":{"cod_imovel":"RJ-3305752-BD26AA320D5140109651B2D4BB5E4FEE","num_area":"9.1452000000000000000000000000000","ind_status":"AT","des_condic":"Aguardando analise"},"geometry":{"type":"Polygon","coordinates":[[[-42.7481,-22.7898],[-42.7523,-22.7879],[-42.7475,-22.7895],[-42.7481,-22.7898]]]}},{"type":"Feature","properties":{"cod_imovel":"RJ-3305752-EDC95B08F7AA432FAC75C46E4643ACE2","num_area":"12.971600000000000000000000000000","ind_status":"AT","des_condic":"Aguardando analise"},"geometry":{"type":"Polygon","coordinates":[[[-42.7484,-22.7313],[-42.7455,-22.726],[-42.7483,-22.7313],[-42.7484,-22.7313]],[[-42.748,-22.7291],[-42.7453,-22.7254],[-42.7478,-22.7291],[-42.748,-22.7291]]]}},{"type":"Feature","properties":{"cod_imovel":"RJ-3305752-2AFBCEADDCFD4B3D93137B163E7560D4","num_area":"10.162800000000000000000000000000","ind_status":"AT","des_condic":"Aguardando analise"},"geometry":{"type":"Polygon","coordinates":[[[-42.7489,-22.7326],[-42.7522,-22.7335],[-42.7503,-22.7291],[-42.7489,-22.7326],[-42.7489,-22.7326]]]}},{"type":"Feature","properties":{"cod_imovel":"RJ-3305752-2EC4644810A44A1E92A8EDF52D35BB04","num_area":"4.2578000000000000000000000000000","ind_status":"PE","des_condic":"Analisado, aguardando atendimento a notificacao"},"geometry":{"type":"Polygon","coordinates":[[[-42.7292,-22.7699],[-42.7319,-22.7684],[-42.7291,-22.77],[-42.7292,-22.7699]]]}},{"type":"Feature","properties":{"cod_imovel":"RJ-3305752-237626ABAA274F0D9AEBC00FC1AACB25","num_area":"2.1901000000000000000000000000000","ind_status":"PE","des_condic":"Analisado, aguardando atendimento a notificacao"},"geometry":{"type":"Polygon","coordinates":[[[-42.7172,-22.7615],[-42.7142,-22.7606],[-42.7172,-22.7615],[-42.7172,-22.7615]]]}},{"type":"Feature","properties":{"cod_imovel":"RJ-3305752-8485EC6F2C074D9BB24B229E51B35011","num_area":"11.109100000000000000000000000000","ind_status":"PE","des_condic":"Analisado, aguardando atendimento a notificacao"},"geometry":{"type":"Polygon","coordinates":[[[-42.7384,-22.8097],[-42.7364,-22.8068],[-42.7385,-22.8098],[-42.7384,-22.8097]]]}},{"type":"Feature","properties":{"cod_imovel":"RJ-3305752-7A30829567B94295B74B59270338CD0F","num_area":"10.551500000000000000000000000000","ind_status":"PE","des_condic":"Analisado, aguardando atendimento a notificacao"},"geometry":{"type":"Polygon","coordinates":[[[-42.762,-22.7807],[-42.7567,-22.7834],[-42.7617,-22.7815],[-42.762,-22.7807]]]}},{"type":"Feature","properties":{"cod_imovel":"RJ-3305752-7C5B6AA016A344A0A8CF98ECEB24E0A8","num_area":"415.10420000000000000000000000000","ind_status":"AT","des_condic":"Aguardando analise"},"geometry":{"type":"Polygon","coordinates":[[[-42.7591,-22.7942],[-42.7601,-22.7901],[-42.7592,-22.7939],[-42.7591,-22.7942]],[[-42.7602,-22.7879],[-42.7591,-22.7939],[-42.7602,-22.7882],[-42.7602,-22.7879]],[[-42.7649,-22.7774],[-42.7684,-22.7803],[-42.7645,-22.7782],[-42.7654,-22.7869],[-42.7726,-22.7891],[-42.7693,-22.7825],[-42.79,-22.7874],[-42.7798,-22.7734],[-42.7738,-22.7829],[-42.7696,-22.781],[-42.771,-22.7742],[-42.7652,-22.777],[-42.7649,-22.7774]],[[-42.7744,-22.7817],[-42.7775,-22.7762],[-42.7826,-22.7817],[-42.7741,-22.7823],[-42.7744,-22.7817]],[[-42.7613,-22.7864],[-42.7609,-22.7905],[-42.7613,-22.7865],[-42.7613,-22.7864]],[[-42.7709,-22.7902],[-42.774,-22.7909],[-42.7709,-22.7902],[-42.7709,-22.7902]],[[-42.7745,-22.7912],[-42.7742,-22.7864],[-42.7747,-22.7913],[-42.7745,-22.7912]],[[-42.7697,-22.7743],[-42.7715,-22.7677],[-42.764,-22.7691],[-42.7644,-22.777],[-42.7694,-22.7744],[-42.7697,-22.7743]],[[-42.7715,-22.7677],[-42.76,-22.761],[-42.7536,-22.7665],[-42.7602,-22.772],[-42.7598,-22.7779],[-42.7641,-22.769],[-42.7713,-22.7677],[-42.7715,-22.7677]],[[-42.79,-22.7874],[-42.7982,-22.7855],[-42.791,-22.7779],[-42.7834,-22.7789],[-42.7898,-22.7872],[-42.79,-22.7874]]]}},{"type":"Feature","properties":{"cod_imovel":"RJ-3305752-9F26E35D67014B88AAA54606B62CC961","num_area":"24.855800000000000000000000000000","ind_status":"AT","des_condic":"Aguardando analise"},"geometry":{"type":"Polygon","coordinates":[[[-42.7767,-22.7731],[-42.7779,-22.768],[-42.7767,-22.7731],[-42.7767,-22.7731]],[[-42.7767,-22.7674],[-42.7739,-22.7591],[-42.7708,-22.7648],[-42.7767,-22.7674],[-42.7767,-22.7674]]]}},{"type":"Feature","properties":{"cod_imovel":"RJ-3305752-2E948B89D16C4216A5C29E46972085B1","num_area":"9.6531000000000000000000000000000","ind_status":"AT","des_condic":"Aguardando analise"},"geometry":{"type":"Polygon","coordinates":[[[-42.7163,-22.8223],[-42.7113,-22.8217],[-42.7158,-22.8242],[-42.7163,-22.8223]]]}},{"type":"Feature","properties":{"cod_imovel":"RJ-3305752-27FF6122F47149E1A33ACB0A0BDC3505","num_area":"8.0061000000000000000000000000000","ind_status":"AT","des_condic":"Aguardando analise"},"geometry":{"type":"Polygon","coordinates":[[[-42.7191,-22.7922],[-42.7212,-22.7966],[-42.7196,-22.7913],[-42.7191,-22.7922]]]}},{"type":"Feature","properties":{"cod_imovel":"RJ-3305752-56337BB3D89946B4B04A767829D601C7","num_area":"10.189900000000000000000000000000","ind_status":"AT","des_condic":"Aguardando analise"},"geometry":{"type":"Polygon","coordinates":[[[-42.715,-22.7924],[-42.7174,-22.7954],[-42.7154,-22.7917],[-42.715,-22.7924]]]}},{"type":"Feature","properties":{"cod_imovel":"RJ-3305752-0CB1F7AFA0684CDFB83CCAA9BC2165B5","num_area":"6.4392000000000000000000000000000","ind_status":"AT","des_condic":"Aguardando analise"},"geometry":{"type":"Polygon","coordinates":[[[-42.7478,-22.7922],[-42.7462,-22.7886],[-42.7469,-22.7918],[-42.7478,-22.7922]]]}},{"type":"Feature","properties":{"cod_imovel":"RJ-3305752-39C188B908334826BA191A200A97F5C1","num_area":"5.3187000000000000000000000000000","ind_status":"AT","des_condic":"Aguardando analise"},"geometry":{"type":"Polygon","coordinates":[[[-42.7058,-22.7877],[-42.7011,-22.7891],[-42.7058,-22.7877],[-42.7058,-22.7877]]]}},{"type":"Feature","properties":{"cod_imovel":"RJ-3305752-D81F63BA3DF24986BF3B7D01F2093950","num_area":"3.6426000000000000000000000000000","ind_status":"AT","des_condic":"Aguardando analise"},"geometry":{"type":"Polygon","coordinates":[[[-42.7031,-22.7859],[-42.7049,-22.7832],[-42.7021,-22.7871],[-42.7031,-22.7859]]]}},{"type":"Feature","properties":{"cod_imovel":"RJ-3305752-43C9A50F8D1E4E7497FD6F13715E0668","num_area":"34.666900000000000000000000000000","ind_status":"AT","des_condic":"Aguardando analise"},"geometry":{"type":"Polygon","coordinates":[[[-42.7024,-22.8252],[-42.6962,-22.8278],[-42.7033,-22.8285],[-42.7024,-22.8252]]]}},{"type":"Feature","properties":{"cod_imovel":"RJ-3305752-E73DBC1F5CB341508E3B0CAC0BF03842","num_area":"9.8590000000000000000000000000000","ind_status":"AT","des_condic":"Aguardando analise"},"geometry":{"type":"Polygon","coordinates":[[[-42.7994,-22.7439],[-42.7986,-22.739],[-42.7993,-22.7443],[-42.7994,-22.7439]]]}},{"type":"Feature","properties":{"cod_imovel":"RJ-3305752-8C89F7CD199F47C383391BFD560E582C","num_area":"29.598600000000000000000000000000","ind_status":"AT","des_condic":"Aguardando analise"},"geometry":{"type":"Polygon","coordinates":[[[-42.6695,-22.812],[-42.6725,-22.8205],[-42.6765,-22.8145],[-42.6715,-22.8145],[-42.6695,-22.812]]]}},{"type":"Feature","properties":{"cod_imovel":"RJ-3305752-860140B9CCD744E595A2D56C4CCC58CB","num_area":"55.109500000000000000000000000000","ind_status":"AT","des_condic":"Aguardando analise"},"geometry":{"type":"Polygon","coordinates":[[[-42.6852,-22.7568],[-42.6794,-22.754],[-42.6778,-22.7609],[-42.6855,-22.7622],[-42.6852,-22.7568],[-42.6852,-22.7568]]]}},{"type":"Feature","properties":{"cod_imovel":"RJ-3305752-325947F7797E407B8F0629095C03AC0A","num_area":"25.545800000000000000000000000000","ind_status":"AT","des_condic":"Aguardando analise"},"geometry":{"type":"Polygon","coordinates":[[[-42.7135,-22.7416],[-42.708,-22.7376],[-42.7053,-22.7412],[-42.7129,-22.7413],[-42.7135,-22.7416]]]}},{"type":"Feature","properties":{"cod_imovel":"RJ-3305752-FE015819C87F4132A9F89388E0F185BA","num_area":"10.278300000000000000000000000000","ind_status":"AT","des_condic":"Aguardando analise"},"geometry":{"type":"Polygon","coordinates":[[[-42.6807,-22.8128],[-42.6807,-22.817],[-42.6811,-22.813],[-42.6807,-22.8128]]]}},{"type":"Feature","properties":{"cod_imovel":"RJ-3305752-F7307453CFEB454785FB165AE8246F30","num_area":"15.367100000000000000000000000000","ind_status":"AT","des_condic":"Aguardando analise"},"geometry":{"type":"Polygon","coordinates":[[[-42.6784,-22.8119],[-42.6846,-22.8107],[-42.6783,-22.8111],[-42.6784,-22.8119]]]}},{"type":"Feature","properties":{"cod_imovel":"RJ-3305752-E6DA9685132D476CBACDC41C0018D071","num_area":"23.287300000000000000000000000000","ind_status":"AT","des_condic":"Aguardando analise"},"geometry":{"type":"Polygon","coordinates":[[[-42.6917,-22.7638],[-42.6879,-22.765],[-42.6904,-22.7686],[-42.6951,-22.7664],[-42.6917,-22.7638],[-42.6917,-22.7638]]]}},{"type":"Feature","properties":{"cod_imovel":"RJ-3305752-6BA67D9F653A48518BB6455A7271F070","num_area":"11.521200000000000000000000000000","ind_status":"AT","des_condic":"Aguardando analise"},"geometry":{"type":"Polygon","coordinates":[[[-42.7396,-22.8144],[-42.7351,-22.8139],[-42.7395,-22.8146],[-42.7396,-22.8144]]]}},{"type":"Feature","properties":{"cod_imovel":"RJ-3305752-CC7F67FD95A047BDBC8F362F32BDD8C3","num_area":"8.0626000000000000000000000000000","ind_status":"AT","des_condic":"Aguardando analise"},"geometry":{"type":"Polygon","coordinates":[[[-42.7278,-22.7586],[-42.7254,-22.7628],[-42.7293,-22.7603],[-42.7278,-22.7586]]]}},{"type":"Feature","properties":{"cod_imovel":"RJ-3305752-B254158DFA984F009ED5851DC0084571","num_area":"3.8133000000000000000000000000000","ind_status":"AT","des_condic":"Aguardando analise"},"geometry":{"type":"Polygon","coordinates":[[[-42.7093,-22.7328],[-42.7064,-22.7353],[-42.7096,-22.7333],[-42.7093,-22.7328]]]}},{"type":"Feature","properties":{"cod_imovel":"RJ-3305752-72F72B826D2F45FEA0C78D41FF9FB7DA","num_area":"111.00440000000000000000000000000","ind_status":"AT","des_condic":"Aguardando analise"},"geometry":{"type":"Polygon","coordinates":[[[-42.7599,-22.7404],[-42.7431,-22.7413],[-42.7587,-22.7494],[-42.7606,-22.7403],[-42.7599,-22.7404]]]}},{"type":"Feature","properties":{"cod_imovel":"RJ-3305752-5D543E4D854743F89A5D331C5F8FFC41","num_area":"9.9018000000000000000000000000000","ind_status":"AT","des_condic":"Aguardando analise"},"geometry":{"type":"Polygon","coordinates":[[[-42.7301,-22.7759],[-42.7347,-22.7708],[-42.7321,-22.7724],[-42.7301,-22.7759]]]}},{"type":"Feature","properties":{"cod_imovel":"RJ-3305752-0882198C87084EFCAB57682AA1566DD7","num_area":"10.424600000000000000000000000000","ind_status":"AT","des_condic":"Aguardando analise"},"geometry":{"type":"Polygon","coordinates":[[[-42.7109,-22.7727],[-42.7165,-22.772],[-42.7114,-22.7721],[-42.7109,-22.7727]]]}},{"type":"Feature","properties":{"cod_imovel":"RJ-3305752-EE34C9B86E664121917CA73AAB764672","num_area":"174.42070000000000000000000000000","ind_status":"AT","des_condic":"Aguardando analise"},"geometry":{"type":"Polygon","coordinates":[[[-42.6865,-22.7842],[-42.6745,-22.785],[-42.6814,-22.7803],[-42.6786,-22.7766],[-42.6717,-22.7895],[-42.6671,-22.7889],[-42.6738,-22.7932],[-42.6797,-22.789],[-42.6865,-22.7842]],[[-42.6873,-22.7831],[-42.6896,-22.7743],[-42.6805,-22.7741],[-42.6865,-22.7825],[-42.6873,-22.7831]]]}},{"type":"Feature","properties":{"cod_imovel":"RJ-3305752-BE9AAB42BC304A709B3B761C41A3041E","num_area":"27.895600000000000000000000000000","ind_status":"AT","des_condic":"Aguardando analise"},"geometry":{"type":"Polygon","coordinates":[[[-42.683,-22.7724],[-42.6806,-22.7753],[-42.6857,-22.7749],[-42.6834,-22.7725],[-42.683,-22.7724]],[[-42.6768,-22.7715],[-42.6811,-22.7709],[-42.6778,-22.7698],[-42.6768,-22.7715]]]}},{"type":"Feature","properties":{"cod_imovel":"RJ-3305752-B99139D8575C4C46B28D95E70705221C","num_area":"9.2350000000000000000000000000000","ind_status":"AT","des_condic":"Aguardando analise"},"geometry":{"type":"Polygon","coordinates":[[[-42.7343,-22.7815],[-42.739,-22.781],[-42.7353,-22.7806],[-42.7343,-22.7815]]]}},{"type":"Feature","properties":{"cod_imovel":"RJ-3305752-AD5AF1F79BA148C58E0BAF9BB6EAA56E","num_area":"9.3213000000000000000000000000000","ind_status":"AT","des_condic":"Aguardando analise"},"geometry":{"type":"Polygon","coordinates":[[[-42.7016,-22.7841],[-42.7039,-22.7782],[-42.7002,-22.7839],[-42.7016,-22.7841]]]}},{"type":"Feature","properties":{"cod_imovel":"RJ-3305752-8EAA48B937A0452FB9C36BA681B15D14","num_area":"29.273200000000000000000000000000","ind_status":"AT","des_condic":"Aguardando analise"},"geometry":{"type":"Polygon","coordinates":[[[-42.7064,-22.7891],[-42.6966,-22.7896],[-42.7018,-22.7942],[-42.7016,-22.79],[-42.705,-22.7913],[-42.7064,-22.7891]]]}},{"type":"Feature","properties":{"cod_imovel":"RJ-3305752-BF2396B1325E4F05A1EEA02BD50CE059","num_area":"7.2247000000000000000000000000000","ind_status":"AT","des_condic":"Aguardando analise"},"geometry":{"type":"Polygon","coordinates":[[[-42.7001,-22.8093],[-42.7,-22.805],[-42.6993,-22.809],[-42.7001,-22.8093]]]}},{"type":"Feature","properties":{"cod_imovel":"RJ-3305752-604407AB7ADC41958AA5386910848281","num_area":"9.4890000000000000000000000000000","ind_status":"AT","des_condic":"Aguardando analise"},"geometry":{"type":"Polygon","coordinates":[[[-42.7164,-22.7786],[-42.7149,-22.7839],[-42.717,-22.7778],[-42.7164,-22.7786]]]}},{"type":"Feature","properties":{"cod_imovel":"RJ-3305752-9830FCBD74FB4BAD969503AB202D6060","num_area":"13.571100000000000000000000000000","ind_status":"AT","des_condic":"Aguardando analise"},"geometry":{"type":"Polygon","coordinates":[[[-42.7004,-22.7764],[-42.7035,-22.7715],[-42.6981,-22.7725],[-42.7006,-22.7756],[-42.7004,-22.7764]]]}},{"type":"Feature","properties":{"cod_imovel":"RJ-3305752-63E04885728A428A8C2CEABCF76D6D68","num_area":"36.368100000000000000000000000000","ind_status":"AT","des_condic":"Aguardando analise"},"geometry":{"type":"Polygon","coordinates":[[[-42.7747,-22.7605],[-42.7773,-22.7673],[-42.7794,-22.7617],[-42.7745,-22.7594],[-42.7747,-22.7605]],[[-42.7778,-22.7669],[-42.777,-22.7731],[-42.7779,-22.7669],[-42.7778,-22.7669]]]}},{"type":"Feature","properties":{"cod_imovel":"RJ-3305752-12494869650D4E8CB8AB503C49E8AB78","num_area":"7.2653000000000000000000000000000","ind_status":"PE","des_condic":"Analisado, aguardando atendimento a notificacao"},"geometry":{"type":"Polygon","coordinates":[[[-42.7274,-22.7965],[-42.7279,-22.8004],[-42.7274,-22.7965],[-42.7274,-22.7965]]]}},{"type":"Feature","properties":{"cod_imovel":"RJ-3305752-EB67108277FC47818223317FF29F282C","num_area":"7.5290000000000000000000000000000","ind_status":"PE","des_condic":"Analisado, aguardando atendimento a notificacao"},"geometry":{"type":"Polygon","coordinates":[[[-42.7689,-22.7426],[-42.7635,-22.7418],[-42.7688,-22.7428],[-42.7689,-22.7426]]]}},{"type":"Feature","properties":{"cod_imovel":"RJ-3305752-5202F20E57494DA4892E8D8970996DF5","num_area":"5.5455000000000000000000000000000","ind_status":"PE","des_condic":"Analisado, aguardando atendimento a notificacao"},"geometry":{"type":"Polygon","coordinates":[[[-42.752,-22.7801],[-42.7502,-22.7837],[-42.7536,-22.7808],[-42.752,-22.7801]]]}},{"type":"Feature","properties":{"cod_imovel":"RJ-3305752-7023F1B968A64321AEF392DFB2CD941A","num_area":"21.268100000000000000000000000000","ind_status":"PE","des_condic":"Analisado, aguardando atendimento a notificacao"},"geometry":{"type":"Polygon","coordinates":[[[-42.7702,-22.7742],[-42.7738,-22.7681],[-42.7698,-22.7742],[-42.7702,-22.7742]]]}},{"type":"Feature","properties":{"cod_imovel":"RJ-3305752-435ED0F96AB044F3B78A1DC93BFA2E2A","num_area":"17.261700000000000000000000000000","ind_status":"PE","des_condic":"Analisado, aguardando atendimento a notificacao"},"geometry":{"type":"Polygon","coordinates":[[[-42.7397,-22.7761],[-42.7448,-22.7737],[-42.7414,-22.7714],[-42.7401,-22.7755],[-42.7397,-22.7761]]]}},{"type":"Feature","properties":{"cod_imovel":"RJ-3305752-8F878FC4100D4FA38F2CDBAD0EBEAD21","num_area":"7.5246000000000000000000000000000","ind_status":"PE","des_condic":"Analisado, aguardando atendimento a notificacao"},"geometry":{"type":"Polygon","coordinates":[[[-42.7292,-22.8024],[-42.7291,-22.7984],[-42.729,-22.8023],[-42.7292,-22.8024]]]}},{"type":"Feature","properties":{"cod_imovel":"RJ-3305752-D4874C2E51C441DC85DD73DEA8E42927","num_area":"72.462800000000000000000000000000","ind_status":"PE","des_condic":"Analisado, aguardando atendimento a notificacao"},"geometry":{"type":"Polygon","coordinates":[[[-42.7846,-22.7752],[-42.7911,-22.7719],[-42.7888,-22.7678],[-42.7936,-22.7717],[-42.7847,-22.7618],[-42.7814,-22.7634],[-42.7847,-22.7647],[-42.7835,-22.7752],[-42.7846,-22.7752]]]}},{"type":"Feature","properties":{"cod_imovel":"RJ-3305752-E77D56079BD7473C89671ED755A37243","num_area":"17.302700000000000000000000000000","ind_status":"AT","des_condic":"Aguardando analise"},"geometry":{"type":"Polygon","coordinates":[[[-42.7115,-22.7951],[-42.7188,-22.7927],[-42.7117,-22.7947],[-42.7115,-22.7951]]]}},{"type":"Feature","properties":{"cod_imovel":"RJ-3305752-F91774EB9B894EA1B1E7C795C0015E25","num_area":"47.218100000000000000000000000000","ind_status":"AT","des_condic":"Aguardando analise"},"geometry":{"type":"Polygon","coordinates":[[[-42.7163,-22.7563],[-42.7106,-22.7567],[-42.7068,-22.7641],[-42.7124,-22.7641],[-42.7166,-22.7564],[-42.7163,-22.7563]]]}},{"type":"Feature","properties":{"cod_imovel":"RJ-3305752-EC81B43CF96F4B20BD4B18AB886E204A","num_area":"7.0019000000000000000000000000000","ind_status":"AT","des_condic":"Aguardando analise"},"geometry":{"type":"Polygon","coordinates":[[[-42.7379,-22.797],[-42.7347,-22.7999],[-42.7372,-22.7981],[-42.7379,-22.797]]]}},{"type":"Feature","properties":{"cod_imovel":"RJ-3305752-35B6DE8067CA478C9DD11E3BA5E6179B","num_area":"5.4431000000000000000000000000000","ind_status":"PE","des_condic":"Analisado, aguardando atendimento a notificacao"},"geometry":{"type":"Polygon","coordinates":[[[-42.7362,-22.7556],[-42.7324,-22.7569],[-42.7363,-22.7556],[-42.7362,-22.7556]]]}},{"type":"Feature","properties":{"cod_imovel":"RJ-3305752-FC0953A474014AE0ADA325B76BE7CDAB","num_area":"393.10660000000000000000000000000","ind_status":"AT","des_condic":"Aguardando analise"},"geometry":{"type":"Polygon","coordinates":[[[-42.7731,-22.8053],[-42.7657,-22.7993],[-42.7693,-22.8115],[-42.7727,-22.8056],[-42.7731,-22.8053]],[[-42.782,-22.802],[-42.7774,-22.7973],[-42.7658,-22.7992],[-42.7822,-22.8017],[-42.782,-22.802]],[[-42.7736,-22.8044],[-42.7679,-22.8],[-42.7735,-22.8052],[-42.7736,-22.8044]],[[-42.7794,-22.8121],[-42.7723,-22.8058],[-42.7713,-22.8145],[-42.779,-22.8128],[-42.7794,-22.8121]],[[-42.784,-22.804],[-42.7736,-22.801],[-42.7738,-22.8052],[-42.784,-22.804],[-42.784,-22.804]],[[-42.7837,-22.8045],[-42.7758,-22.8023],[-42.7735,-22.8059],[-42.7794,-22.812],[-42.7837,-22.8045],[-42.7837,-22.8045]],[[-42.7804,-22.8096],[-42.7752,-22.804],[-42.7802,-22.8094],[-42.7804,-22.8096]],[[-42.7934,-22.7973],[-42.7877,-22.7968],[-42.7831,-22.8035],[-42.793,-22.7981],[-42.7934,-22.7973]],[[-42.7945,-22.8063],[-42.7895,-22.8017],[-42.7839,-22.812],[-42.7903,-22.8154],[-42.7945,-22.8066],[-42.7945,-22.8063]],[[-42.7878,-22.8031],[-42.7841,-22.8041],[-42.7877,-22.8032],[-42.7878,-22.8031]],[[-42.7974,-22.8106],[-42.7928,-22.8041],[-42.7903,-22.8154],[-42.7969,-22.8114],[-42.7974,-22.8106]]]}},{"type":"Feature","properties":{"cod_imovel":"RJ-3305752-F31CB2C35B19410FA6F3F824DBA7FCE8","num_area":"34.515800000000000000000000000000","ind_status":"AT","des_condic":"Aguardando analise"},"geometry":{"type":"Polygon","coordinates":[[[-42.7561,-22.7769],[-42.7512,-22.7682],[-42.7498,-22.7778],[-42.7547,-22.7791],[-42.7561,-22.7769]]]}},{"type":"Feature","properties":{"cod_imovel":"RJ-3305752-E3950FCD8294461AA3E8197537494369","num_area":"57.268300000000000000000000000000","ind_status":"AT","des_condic":"Aguardando analise"},"geometry":{"type":"Polygon","coordinates":[[[-42.7488,-22.7314],[-42.762,-22.7263],[-42.7581,-22.723],[-42.7574,-22.7285],[-42.7473,-22.7254],[-42.7485,-22.7318],[-42.7488,-22.7314]],[[-42.7514,-22.7283],[-42.7537,-22.7324],[-42.7626,-22.7273],[-42.7515,-22.7283],[-42.7514,-22.7283]]]}},{"type":"Feature","properties":{"cod_imovel":"RJ-3305752-6DFD42732A5C403C82C991AA21D6A9A9","num_area":"30.484600000000000000000000000000","ind_status":"AT","des_condic":"Aguardando analise"},"geometry":{"type":"Polygon","coordinates":[[[-42.7823,-22.7858],[-42.7772,-22.7863],[-42.7777,-22.7909],[-42.7829,-22.7906],[-42.7832,-22.7861],[-42.7823,-22.7858]]]}},{"type":"Feature","properties":{"cod_imovel":"RJ-3305752-537C4492B8914AC288D64EF6375288B0","num_area":"9.7929000000000000000000000000000","ind_status":"AT","des_condic":"Aguardando analise"},"geometry":{"type":"Polygon","coordinates":[[[-42.7685,-22.7952],[-42.773,-22.7954],[-42.7685,-22.7952],[-42.7685,-22.7952]]]}},{"type":"Feature","properties":{"cod_imovel":"RJ-3305752-D33E752A46FF4F68994BD93145B5E890","num_area":"4.6624000000000000000000000000000","ind_status":"AT","des_condic":"Aguardando analise"},"geometry":{"type":"Polygon","coordinates":[[[-42.7595,-22.7609],[-42.757,-22.763],[-42.7597,-22.761],[-42.7595,-22.7609]]]}},{"type":"Feature","properties":{"cod_imovel":"RJ-3305752-1832BFC7ACC347A1BC78A9C476669D29","num_area":"130.82590000000000000000000000000","ind_status":"AT","des_condic":"Aguardando analise"},"geometry":{"type":"Polygon","coordinates":[[[-42.7086,-22.7317],[-42.7009,-22.7307],[-42.704,-22.7359],[-42.7081,-22.7328],[-42.7086,-22.7317]],[[-42.7064,-22.7307],[-42.6995,-22.7292],[-42.7062,-22.7307],[-42.7064,-22.7307]],[[-42.6995,-22.7293],[-42.6996,-22.7347],[-42.6996,-22.7293],[-42.6995,-22.7293]],[[-42.7008,-22.7345],[-42.6974,-22.7474],[-42.7027,-22.743],[-42.7008,-22.7345],[-42.7008,-22.7345]],[[-42.6972,-22.7466],[-42.6977,-22.7518],[-42.6972,-22.7466],[-42.6972,-22.7466]],[[-42.7029,-22.7409],[-42.7067,-22.7364],[-42.7029,-22.7356],[-42.7029,-22.7409],[-42.7029,-22.7409]]]}},{"type":"Feature","properties":{"cod_imovel":"RJ-3305752-4C1E044C6AC64E9D9E43125394CA5D56","num_area":"25.328800000000000000000000000000","ind_status":"AT","des_condic":"Aguardando analise"},"geometry":{"type":"Polygon","coordinates":[[[-42.7048,-22.8174],[-42.698,-22.8224],[-42.7024,-22.8238],[-42.7044,-22.8183],[-42.7048,-22.8174]]]}},{"type":"Feature","properties":{"cod_imovel":"RJ-3305752-D3ECD42D5ACA49D689641218B486E403","num_area":"22.627500000000000000000000000000","ind_status":"AT","des_condic":"Aguardando analise"},"geometry":{"type":"Polygon","coordinates":[[[-42.7269,-22.7147],[-42.7218,-22.7176],[-42.7258,-22.7153],[-42.7262,-22.72],[-42.7143,-22.719],[-42.7201,-22.7157],[-42.7136,-22.7194],[-42.7238,-22.7214],[-42.727,-22.7149],[-42.7269,-22.7147]]]}},{"type":"Feature","properties":{"cod_imovel":"RJ-3305752-F827BAA92FEC498D8B2AB7C6149FEA9C","num_area":"34.620100000000000000000000000000","ind_status":"AT","des_condic":"Aguardando analise"},"geometry":{"type":"Polygon","coordinates":[[[-42.7268,-22.7062],[-42.7271,-22.711],[-42.7283,-22.7068],[-42.7268,-22.7062]],[[-42.7272,-22.711],[-42.7347,-22.7116],[-42.7308,-22.7078],[-42.7272,-22.7109],[-42.7317,-22.7113],[-42.7272,-22.7109],[-42.7272,-22.711]],[[-42.7363,-22.7139],[-42.7393,-22.7136],[-42.7362,-22.7138],[-42.7363,-22.7139]]]}},{"type":"Feature","properties":{"cod_imovel":"RJ-3305752-EA2E8B288D4C49E9A6C2DA3F2F975BEB","num_area":"3.3100000000000000000000000000000","ind_status":"AT","des_condic":"Aguardando analise"},"geometry":{"type":"Polygon","coordinates":[[[-42.7323,-22.7165],[-42.7289,-22.7195],[-42.7325,-22.717],[-42.7323,-22.7165]]]}},{"type":"Feature","properties":{"cod_imovel":"RJ-3305752-F3920ED1D41B45A9AB6F41F4AF882EED","num_area":"45.767600000000000000000000000000","ind_status":"AT","des_condic":"Aguardando analise"},"geometry":{"type":"Polygon","coordinates":[[[-42.7521,-22.7222],[-42.7559,-22.7283],[-42.7591,-22.7265],[-42.7521,-22.7222],[-42.7521,-22.7222]],[[-42.7578,-22.7231],[-42.76,-22.7187],[-42.7537,-22.7178],[-42.7577,-22.7228],[-42.7578,-22.7231]]]}},{"type":"Feature","properties":{"cod_imovel":"RJ-3305752-E3BCD153082C4131B5B612A28FA11F34","num_area":"47.087800000000000000000000000000","ind_status":"AT","des_condic":"Aguardando analise"},"geometry":{"type":"Polygon","coordinates":[[[-42.7722,-22.7624],[-42.774,-22.7591],[-42.7669,-22.7582],[-42.7647,-22.7626],[-42.771,-22.7643],[-42.7722,-22.7624]]]}},{"type":"Feature","properties":{"cod_imovel":"RJ-3305752-7DC784B8328B42B39119FA483F3FA6D5","num_area":"25.835900000000000000000000000000","ind_status":"AT","des_condic":"Aguardando analise"},"geometry":{"type":"Polygon","coordinates":[[[-42.7099,-22.8026],[-42.7039,-22.8076],[-42.7085,-22.8076],[-42.7099,-22.8026]]]}},{"type":"Feature","properties":{"cod_imovel":"RJ-3305752-2E1DE16CCB134924B560A297C7E23166","num_area":"19.280300000000000000000000000000","ind_status":"AT","des_condic":"Aguardando analise"},"geometry":{"type":"Polygon","coordinates":[[[-42.6676,-22.8254],[-42.6645,-22.831],[-42.6675,-22.8325],[-42.6678,-22.825],[-42.6676,-22.8254]]]}},{"type":"Feature","properties":{"cod_imovel":"RJ-3305752-3D27423BBB994AD5BCF092013BB6B80C","num_area":"20.124800000000000000000000000000","ind_status":"CA","des_condic":"Cancelado por decisao administrativa"},"geometry":{"type":"Polygon","coordinates":[[[-42.7329,-22.6989],[-42.7282,-22.7017],[-42.7335,-22.6991],[-42.7329,-22.6989]]]}},{"type":"Feature","properties":{"cod_imovel":"RJ-3305752-7D792BC9B70A4D02808F651B2946398E","num_area":"8.1248000000000000000000000000000","ind_status":"AT","des_condic":"Aguardando analise"},"geometry":{"type":"Polygon","coordinates":[[[-42.7615,-22.7593],[-42.7638,-22.7567],[-42.7615,-22.7593],[-42.7615,-22.7593]]]}},{"type":"Feature","properties":{"cod_imovel":"RJ-3305752-059FB87A958C4C5DB514C53C5AAE0E6C","num_area":"10.560400000000000000000000000000","ind_status":"AT","des_condic":"Aguardando analise"},"geometry":{"type":"Polygon","coordinates":[[[-42.7321,-22.82],[-42.7349,-22.819],[-42.7317,-22.8195],[-42.7321,-22.82]]]}},{"type":"Feature","properties":{"cod_imovel":"RJ-3305752-0D3B3CB6F92C4142850B256A13965171","num_area":"6.4783000000000000000000000000000","ind_status":"AT","des_condic":"Aguardando analise"},"geometry":{"type":"Polygon","coordinates":[[[-42.7555,-22.7598],[-42.7524,-22.7603],[-42.7572,-22.7603],[-42.7555,-22.7598]]]}},{"type":"Feature","properties":{"cod_imovel":"RJ-3305752-0F889321DE924D42841809582865613C","num_area":"117.91410000000000000000000000000","ind_status":"AT","des_condic":"Aguardando analise"},"geometry":{"type":"Polygon","coordinates":[[[-42.6719,-22.7972],[-42.6586,-22.8003],[-42.6719,-22.7972],[-42.6719,-22.7972]],[[-42.6701,-22.7965],[-42.6577,-22.7946],[-42.6542,-22.7996],[-42.6701,-22.7965],[-42.6701,-22.7965]],[[-42.6695,-22.801],[-42.6782,-22.8002],[-42.6723,-22.7973],[-42.6581,-22.8012],[-42.6695,-22.801],[-42.6695,-22.801]],[[-42.6584,-22.8005],[-42.6546,-22.8],[-42.6588,-22.8036],[-42.6584,-22.8005],[-42.6584,-22.8005]]]}},{"type":"Feature","properties":{"cod_imovel":"RJ-3305752-178CB2E44B6D4DA493F6083C8D76A45A","num_area":"8.8070000000000000000000000000000","ind_status":"AT","des_condic":"Aguardando analise"},"geometry":{"type":"Polygon","coordinates":[[[-42.6984,-22.816],[-42.6984,-22.8126],[-42.6969,-22.8174],[-42.6984,-22.816]]]}},{"type":"Feature","properties":{"cod_imovel":"RJ-3305752-1CB35960EF4D4F0581E963D2DCE7B71A","num_area":"10.448700000000000000000000000000","ind_status":"AT","des_condic":"Aguardando analise"},"geometry":{"type":"Polygon","coordinates":[[[-42.7124,-22.7704],[-42.7141,-22.7632],[-42.7123,-22.7703],[-42.7124,-22.7704]],[[-42.7136,-22.7698],[-42.7157,-22.7642],[-42.7136,-22.7699],[-42.7136,-22.7698]]]}},{"type":"Feature","properties":{"cod_imovel":"RJ-3305752-2344BBBAFD114CB3BD8480524646E034","num_area":"125.30380000000000000000000000000","ind_status":"AT","des_condic":"Aguardando analise"},"geometry":{"type":"Polygon","coordinates":[[[-42.7335,-22.7823],[-42.7288,-22.778],[-42.7192,-22.7873],[-42.7327,-22.7816],[-42.7335,-22.7823]],[[-42.7201,-22.7883],[-42.7264,-22.7922],[-42.7368,-22.7856],[-42.7317,-22.7818],[-42.7208,-22.788],[-42.7201,-22.7883]]]}},{"type":"Feature","properties":{"cod_imovel":"RJ-3305752-24FF160CBDCD40819048B373A09AE121","num_area":"14.937500000000000000000000000000","ind_status":"AT","des_condic":"Aguardando analise"},"geometry":{"type":"Polygon","coordinates":[[[-42.6977,-22.8123],[-42.6951,-22.8163],[-42.6981,-22.8123],[-42.6977,-22.8123]],[[-42.6985,-22.8122],[-42.6969,-22.8091],[-42.6981,-22.8122],[-42.6985,-22.8122]]]}},{"type":"Feature","properties":{"cod_imovel":"RJ-3305752-2649972265FA47A7BA3236A44C684F87","num_area":"11.344700000000000000000000000000","ind_status":"AT","des_condic":"Aguardando analise"},"geometry":{"type":"Polygon","coordinates":[[[-42.7476,-22.7978],[-42.7518,-22.7959],[-42.7477,-22.7976],[-42.7476,-22.7978]],[[-42.7502,-22.8002],[-42.7529,-22.7982],[-42.7499,-22.8],[-42.7502,-22.8002]]]}},{"type":"Feature","properties":{"cod_imovel":"RJ-3305752-437A08D8D85D4E90B79723780B45F145","num_area":"7.4411000000000000000000000000000","ind_status":"AT","des_condic":"Aguardando analise"},"geometry":{"type":"Polygon","coordinates":[[[-42.7049,-22.7984],[-42.7058,-22.8022],[-42.7052,-22.7989],[-42.7049,-22.7984]]]}},{"type":"Feature","properties":{"cod_imovel":"RJ-3305752-47EAF74EB01D47CC96EBA3B0EA6A5E78","num_area":"14.623000000000000000000000000000","ind_status":"AT","des_condic":"Aguardando analise"},"geometry":{"type":"Polygon","coordinates":[[[-42.7336,-22.77],[-42.7326,-22.7641],[-42.7335,-22.77],[-42.7336,-22.77]]]}},{"type":"Feature","properties":{"cod_imovel":"RJ-3305752-4CEAE5552DFB49F286D1061F3FE0108B","num_area":"11.640200000000000000000000000000","ind_status":"AT","des_condic":"Aguardando analise"},"geometry":{"type":"Polygon","coordinates":[[[-42.6744,-22.8358],[-42.6742,-22.839],[-42.6745,-22.8359],[-42.6744,-22.8358]]]}},{"type":"Feature","properties":{"cod_imovel":"RJ-3305752-50FDB0030E7048CEAD0C18F5499C7499","num_area":"22.575600000000000000000000000000","ind_status":"AT","des_condic":"Aguardando analise"},"geometry":{"type":"Polygon","coordinates":[[[-42.7342,-22.751],[-42.7327,-22.7542],[-42.7343,-22.7512],[-42.7342,-22.751]],[[-42.7313,-22.751],[-42.7328,-22.7562],[-42.732,-22.7499],[-42.7313,-22.751]]]}},{"type":"Feature","properties":{"cod_imovel":"RJ-3305752-542DAB97428445CBAEFF298D4DFB5E31","num_area":"10.586700000000000000000000000000","ind_status":"AT","des_condic":"Aguardando analise"},"geometry":{"type":"Polygon","coordinates":[[[-42.7108,-22.7691],[-42.7102,-22.7735],[-42.7118,-22.7695],[-42.7108,-22.7691]]]}},{"type":"Feature","properties":{"cod_imovel":"RJ-3305752-69D39576A7BE4159A2AC3B9BD5A413FD","num_area":"46.549700000000000000000000000000","ind_status":"AT","des_condic":"Aguardando analise"},"geometry":{"type":"Polygon","coordinates":[[[-42.7152,-22.7848],[-42.7135,-22.7813],[-42.7093,-22.7903],[-42.713,-22.7872],[-42.7152,-22.7848]],[[-42.7135,-22.7875],[-42.7068,-22.7943],[-42.7153,-22.7889],[-42.7135,-22.7875]]]}},{"type":"Feature","properties":{"cod_imovel":"RJ-3305752-89B5384744C647E985C5BE41BE31D2F2","num_area":"24.133700000000000000000000000000","ind_status":"AT","des_condic":"Aguardando analise"},"geometry":{"type":"Polygon","coordinates":[[[-42.7471,-22.7803],[-42.7501,-22.7837],[-42.752,-22.7802],[-42.7473,-22.7801],[-42.7471,-22.7803]],[[-42.7482,-22.7828],[-42.7498,-22.7864],[-42.7484,-22.7829],[-42.7482,-22.7828]]]}},{"type":"Feature","properties":{"cod_imovel":"RJ-3305752-8E0312B27EA44512A774254A6CDCAE48","num_area":"108.61370000000000000000000000000","ind_status":"AT","des_condic":"Aguardando analise"},"geometry":{"type":"Polygon","coordinates":[[[-42.7221,-22.7995],[-42.7169,-22.8039],[-42.7225,-22.8033],[-42.7224,-22.7994],[-42.7221,-22.7995]],[[-42.7258,-22.7947],[-42.7225,-22.7991],[-42.7261,-22.7949],[-42.7258,-22.7947]],[[-42.7244,-22.8089],[-42.7276,-22.8012],[-42.7161,-22.8045],[-42.7147,-22.8088],[-42.7237,-22.8098],[-42.7244,-22.8089]]]}},{"type":"Feature","properties":{"cod_imovel":"RJ-3305752-992EFC61A6F14B7B98BA19C8614F7386","num_area":"13.019000000000000000000000000000","ind_status":"AT","des_condic":"Aguardando analise"},"geometry":{"type":"Polygon","coordinates":[[[-42.7058,-22.7418],[-42.7066,-22.7365],[-42.7057,-22.7416],[-42.7058,-22.7418]]]}},{"type":"Feature","properties":{"cod_imovel":"RJ-3305752-9B282AF7F4DD47F084AD266C7401467D","num_area":"13.761900000000000000000000000000","ind_status":"AT","des_condic":"Aguardando analise"},"geometry":{"type":"Polygon","coordinates":[[[-42.7258,-22.7668],[-42.7307,-22.7665],[-42.7259,-22.7666],[-42.7258,-22.7668]]]}},{"type":"Feature","properties":{"cod_imovel":"RJ-3305752-A6B9129DF32A4738BB1D8AEE463654A2","num_area":"19.249100000000000000000000000000","ind_status":"AT","des_condic":"Aguardando analise"},"geometry":{"type":"Polygon","coordinates":[[[-42.7371,-22.761],[-42.737,-22.7661],[-42.7438,-22.7655],[-42.7407,-22.7639],[-42.7371,-22.761]],[[-42.7428,-22.7671],[-42.7454,-22.7649],[-42.7425,-22.7669],[-42.7428,-22.7671]]]}},{"type":"Feature","properties":{"cod_imovel":"RJ-3305752-ABD46BBC613B419989048B96CCEC1A76","num_area":"58.848900000000000000000000000000","ind_status":"AT","des_condic":"Aguardando analise"},"geometry":{"type":"Polygon","coordinates":[[[-42.7188,-22.7565],[-42.7148,-22.7597],[-42.7188,-22.7568],[-42.7188,-22.7565]],[[-42.7187,-22.7585],[-42.7247,-22.7653],[-42.7244,-22.7542],[-42.7188,-22.7581],[-42.7187,-22.7585]]]}},{"type":"Feature","properties":{"cod_imovel":"RJ-3305752-AF28C6C68816499D9591B977470EF9B5","num_area":"8.5932000000000000000000000000000","ind_status":"AT","des_condic":"Aguardando analise"},"geometry":{"type":"Polygon","coordinates":[[[-42.7391,-22.7784],[-42.7426,-22.7774],[-42.7391,-22.7784],[-42.7391,-22.7784]]]}},{"type":"Feature","properties":{"cod_imovel":"RJ-3305752-CA1ED03AC03B4A93BF8F9E3AC37E1EA9","num_area":"17.918400000000000000000000000000","ind_status":"AT","des_condic":"Aguardando analise"},"geometry":{"type":"Polygon","coordinates":[[[-42.7098,-22.7746],[-42.7062,-22.7696],[-42.7097,-22.7748],[-42.7098,-22.7746]]]}},{"type":"Feature","properties":{"cod_imovel":"RJ-3305752-CA57FBD6AB7F484B84CB41DDDB87C306","num_area":"8.2519000000000000000000000000000","ind_status":"AT","des_condic":"Aguardando analise"},"geometry":{"type":"Polygon","coordinates":[[[-42.6706,-22.8298],[-42.6755,-22.8309],[-42.6708,-22.8294],[-42.6706,-22.8298]]]}},{"type":"Feature","properties":{"cod_imovel":"RJ-3305752-CDAA4663F5894A138A13221352D3954C","num_area":"5.9256000000000000000000000000000","ind_status":"AT","des_condic":"Aguardando analise"},"geometry":{"type":"Polygon","coordinates":[[[-42.6643,-22.8366],[-42.6676,-22.8355],[-42.6644,-22.8364],[-42.6643,-22.8366]]]}},{"type":"Feature","properties":{"cod_imovel":"RJ-3305752-7B9AB1FDB84047668869E9D36B11E445","num_area":"9.0056000000000000000000000000000","ind_status":"AT","des_condic":"Aguardando analise"},"geometry":{"type":"Polygon","coordinates":[[[-42.7184,-22.768],[-42.7159,-22.7642],[-42.7178,-22.7679],[-42.7184,-22.768]]]}},{"type":"Feature","properties":{"cod_imovel":"RJ-3305752-D1FC1AD09E4F47CFAD29061CCADB43B4","num_area":"12.510300000000000000000000000000","ind_status":"AT","des_condic":"Aguardando analise"},"geometry":{"type":"Polygon","coordinates":[[[-42.7371,-22.7641],[-42.7322,-22.7631],[-42.7369,-22.7679],[-42.737,-22.7642],[-42.7371,-22.7641]]]}},{"type":"Feature","properties":{"cod_imovel":"RJ-3305752-DD84310A34A34F7FA3B7FCF815F45D53","num_area":"32.691300000000000000000000000000","ind_status":"AT","des_condic":"Aguardando analise"},"geometry":{"type":"Polygon","coordinates":[[[-42.7402,-22.7751],[-42.742,-22.7723],[-42.7397,-22.7746],[-42.7402,-22.7751]],[[-42.7387,-22.778],[-42.7389,-22.773],[-42.7367,-22.7771],[-42.7387,-22.778]],[[-42.7405,-22.7715],[-42.7374,-22.7688],[-42.7399,-22.7716],[-42.7405,-22.7715]],[[-42.7389,-22.7727],[-42.7357,-22.7699],[-42.739,-22.7729],[-42.7389,-22.7727]]]}},{"type":"Feature","properties":{"cod_imovel":"RJ-3305752-E03353A38DD64D0CAE2F24130C1ACD23","num_area":"16.306700000000000000000000000000","ind_status":"AT","des_condic":"Aguardando analise"},"geometry":{"type":"Polygon","coordinates":[[[-42.6704,-22.8387],[-42.669,-22.8345],[-42.665,-22.8367],[-42.6704,-22.8387],[-42.6704,-22.8387]]]}},{"type":"Feature","properties":{"cod_imovel":"RJ-3305752-E0D35167F56F4822BF936F1F5BE1A7C0","num_area":"48.523200000000000000000000000000","ind_status":"AT","des_condic":"Aguardando analise"},"geometry":{"type":"Polygon","coordinates":[[[-42.7198,-22.746],[-42.7192,-22.7507],[-42.72,-22.7463],[-42.7198,-22.746]],[[-42.7178,-22.7477],[-42.7158,-22.751],[-42.7177,-22.7478],[-42.7178,-22.7477]],[[-42.7157,-22.751],[-42.7139,-22.7542],[-42.7199,-22.7531],[-42.7157,-22.751],[-42.7157,-22.751]],[[-42.717,-22.754],[-42.72,-22.7569],[-42.7171,-22.754],[-42.717,-22.754]]]}},{"type":"Feature","properties":{"cod_imovel":"RJ-3305752-E3D913A0855A49BBBE4F3F39A14728C0","num_area":"7.4548000000000000000000000000000","ind_status":"AT","des_condic":"Aguardando analise"},"geometry":{"type":"Polygon","coordinates":[[[-42.7448,-22.794],[-42.7487,-22.7938],[-42.7453,-22.7934],[-42.7448,-22.794]]]}},{"type":"Feature","properties":{"cod_imovel":"RJ-3305752-E9E0D3584159421CB05C7EA58E0A20C4","num_area":"6.4383000000000000000000000000000","ind_status":"AT","des_condic":"Aguardando analise"},"geometry":{"type":"Polygon","coordinates":[[[-42.7232,-22.7944],[-42.7216,-22.7981],[-42.7243,-22.7947],[-42.7232,-22.7944]]]}},{"type":"Feature","properties":{"cod_imovel":"RJ-3305752-EDFA7734D1624C49AA1EF4BD10431DDA","num_area":"17.243100000000000000000000000000","ind_status":"AT","des_condic":"Aguardando analise"},"geometry":{"type":"Polygon","coordinates":[[[-42.7381,-22.7894],[-42.7332,-22.7915],[-42.7382,-22.7902],[-42.7381,-22.7894]],[[-42.7331,-22.7915],[-42.7381,-22.7891],[-42.7328,-22.7913],[-42.7331,-22.7915]],[[-42.7378,-22.7887],[-42.7328,-22.7911],[-42.7378,-22.7887],[-42.7378,-22.7887]]]}},{"type":"Feature","properties":{"cod_imovel":"RJ-3305752-EF9A51497E264F6DA4FFD83E08A95B74","num_area":"1.2788000000000000000000000000000","ind_status":"AT","des_condic":"Aguardando analise"},"geometry":{"type":"Polygon","coordinates":[[[-42.7627,-22.7532],[-42.765,-22.75],[-42.7624,-22.7537],[-42.7627,-22.7532]]]}},{"type":"Feature","properties":{"cod_imovel":"RJ-3305752-EFAC2DE546814EAEA721AE8B9235BA24","num_area":"11.848100000000000000000000000000","ind_status":"AT","des_condic":"Aguardando analise"},"geometry":{"type":"Polygon","coordinates":[[[-42.6861,-22.7761],[-42.691,-22.7763],[-42.6858,-22.775],[-42.6861,-22.7761]]]}},{"type":"Feature","properties":{"cod_imovel":"RJ-3305752-F18C86B6AAE64E0D8149FCE2324286C6","num_area":"5.6153000000000000000000000000000","ind_status":"AT","des_condic":"Aguardando analise"},"geometry":{"type":"Polygon","coordinates":[[[-42.7335,-22.7027],[-42.7379,-22.7022],[-42.7336,-22.7024],[-42.7335,-22.7027]]]}},{"type":"Feature","properties":{"cod_imovel":"RJ-3305752-FA012A2A6AB2449E9CB57578ECDC7FEA","num_area":"10.597200000000000000000000000000","ind_status":"AT","des_condic":"Aguardando analise"},"geometry":{"type":"Polygon","coordinates":[[[-42.7482,-22.8024],[-42.7436,-22.805],[-42.748,-22.8033],[-42.7482,-22.8024]],[[-42.7475,-22.8023],[-42.7443,-22.8007],[-42.7474,-22.8015],[-42.7475,-22.8023]]]}},{"type":"Feature","properties":{"cod_imovel":"RJ-3305752-FBF75DD29974434C90C227013131BD42","num_area":"2.7082000000000000000000000000000","ind_status":"AT","des_condic":"Aguardando analise"},"geometry":{"type":"Polygon","coordinates":[[[-42.7644,-22.799],[-42.7653,-22.7961],[-42.764,-22.7989],[-42.7644,-22.799]]]}},{"type":"Feature","properties":{"cod_imovel":"RJ-3305752-FCFAF7DD9DC24A399284C689302C651F","num_area":"13.338000000000000000000000000000","ind_status":"AT","des_condic":"Aguardando analise"},"geometry":{"type":"Polygon","coordinates":[[[-42.7419,-22.7432],[-42.743,-22.7484],[-42.7426,-22.7433],[-42.7419,-22.7432]]]}}]}