{"type":"FeatureCollection","features":[{"type":"Feature","properties":{"cod_imovel":"RJ-3300258-E8B340A19F6349D392887A0538B7930D","mod_fiscal":"4.0000000000000000000000000000000","num_area":"51751.787400000000000000000000000","ind_status":"AT","ind_tipo":"PCT","des_condic":"Aguardando analise","municipio":"Arraial do Cabo","dat_criaca":"03/12/2019"},"geometry":{"type":"Polygon","coordinates":[[[-41.9251,-22.9333],[-41.9251,-23.0667],[-42.3006,-23.0667],[-42.3006,-22.9392],[-42.1567,-22.9472],[-42.0652,-22.9574],[-42.0376,-22.9673],[-42.0324,-22.9729],[-42.034,-22.978],[-42.0297,-22.9823],[-42.0214,-22.9818],[-42.0171,-22.9858],[-42.0135,-22.997],[-42.0129,-22.9878],[-42.0087,-22.9831],[-42.0109,-22.9794],[-42.0196,-22.9792],[-42.0202,-22.9711],[-42.0122,-22.9709],[-42.0166,-22.9678],[-42.0133,-22.9637],[-42.0041,-22.9685],[-42.0032,-22.9649],[-41.9961,-22.962],[-42.0,-22.9594],[-42.0069,-22.9631],[-42.0096,-22.9611],[-42.0088,-22.9541],[-42.0045,-22.9507],[-42.0202,-22.9621],[-42.0239,-22.9606],[-42.0277,-22.9559],[-42.0247,-22.9471],[-42.0335,-22.9463],[-42.0379,-22.9338],[-41.9251,-22.9333]]]}},{"type":"Feature","properties":{"cod_imovel":"RJ-3300258-B39F4B2438B34CC09968B0926E81867B","mod_fiscal":"0.2934000000000000000000000000000","num_area":"4.1071000000000000000000000000000","ind_status":"AT","ind_tipo":"IRU","des_condic":"Analisado, aguardando atendimento a notificacao","municipio":"Arraial do Cabo","dat_criaca":"05/12/2017"},"geometry":{"type":"Polygon","coordinates":[[[-42.0367,-22.9395],[-42.0354,-22.9432],[-42.0376,-22.94],[-42.0367,-22.9395]]]}},{"type":"Feature","properties":{"cod_imovel":"RJ-3300258-9AEE4EB5215B4DD8A89357BFECF462C4","mod_fiscal":"0.4716000000000000000000000000000","num_area":"6.6022000000000000000000000000000","ind_status":"AT","ind_tipo":"IRU","des_condic":"Aguardando analise","municipio":"Arraial do Cabo","dat_criaca":"06/11/2017"},"geometry":{"type":"Polygon","coordinates":[[[-42.2076,-22.919],[-42.204,-22.9197],[-42.2057,-22.921],[-42.2076,-22.919]]]}},{"type":"Feature","properties":{"cod_imovel":"RJ-3300258-9480F5D35D81402D84220AF8593A6D22","mod_fiscal":"2.3518000000000000000000000000000","num_area":"32.925800000000000000000000000000","ind_status":"AT","ind_tipo":"IRU","des_condic":"Aguardando analise","municipio":"Arraial do Cabo","dat_criaca":"07/04/2024"},"geometry":{"type":"Polygon","coordinates":[[[-42.1282,-22.9439],[-42.1329,-22.9408],[-42.1294,-22.9358],[-42.127,-22.9373],[-42.1279,-22.9434],[-42.1282,-22.9439]]]}}]}