{"type":"FeatureCollection","features":[{"type":"Feature","properties":{"cod_imovel":"RJ-3300456-F641D9912EB4481F9EAE041048B1440C","mod_fiscal":"0.1687000000000000000000000000000","num_area":"1.6874000000000000000000000000000","ind_status":"AT","ind_tipo":"IRU","des_condic":"Aguardando analise","municipio":"Belford Roxo","dat_criaca":"24/03/2025"},"geometry":{"type":"Polygon","coordinates":[[[-43.4056,-22.6947],[-43.4044,-22.6925],[-43.4055,-22.6947],[-43.4056,-22.6947]]]}},{"type":"Feature","properties":{"cod_imovel":"RJ-3300456-ACA4834313804B1DB7E333D08D4D883E","mod_fiscal":"0.4061000000000000000000000000000","num_area":"4.0606000000000000000000000000000","ind_status":"AT","ind_tipo":"IRU","des_condic":"Aguardando analise","municipio":"Belford Roxo","dat_criaca":"07/03/2024"},"geometry":{"type":"Polygon","coordinates":[[[-43.358,-22.6982],[-43.3525,-22.6974],[-43.3576,-22.6984],[-43.358,-22.6982]]]}},{"type":"Feature","properties":{"cod_imovel":"RJ-3300456-5729184FA4C1415799E3AD4C75F2F3D4","mod_fiscal":"0.1511000000000000000000000000000","num_area":"1.5107000000000000000000000000000","ind_status":"AT","ind_tipo":"IRU","des_condic":"Aguardando analise","municipio":"Belford Roxo","dat_criaca":"07/03/2024"},"geometry":{"type":"Polygon","coordinates":[[[-43.3569,-22.6985],[-43.3536,-22.6991],[-43.3565,-22.6986],[-43.3569,-22.6985]]]}},{"type":"Feature","properties":{"cod_imovel":"RJ-3300456-5CA249F1EAC34B9BB8DB755B07935D16","mod_fiscal":"38.113600000000000000000000000000","num_area":"381.13590000000000000000000000000","ind_status":"AT","ind_tipo":"IRU","des_condic":"Aguardando analise","municipio":"Belford Roxo","dat_criaca":"24/07/2014"},"geometry":{"type":"Polygon","coordinates":[[[-43.3796,-22.7117],[-43.3862,-22.707],[-43.3832,-22.7057],[-43.386,-22.703],[-43.395,-22.7066],[-43.4057,-22.7009],[-43.3923,-22.6931],[-43.3846,-22.6938],[-43.3763,-22.7006],[-43.3709,-22.695],[-43.3665,-22.6978],[-43.3719,-22.6986],[-43.3736,-22.7028],[-43.3703,-22.7034],[-43.377,-22.7084],[-43.3796,-22.7117]]]}},{"type":"Feature","properties":{"cod_imovel":"RJ-3300456-32AF6A64DEA7488B8ADB9425BE56E1AB","mod_fiscal":"1.0775000000000000000000000000000","num_area":"10.774800000000000000000000000000","ind_status":"AT","ind_tipo":"IRU","des_condic":"Aguardando analise","municipio":"Belford Roxo","dat_criaca":"14/01/2025"},"geometry":{"type":"Polygon","coordinates":[[[-43.3655,-22.6888],[-43.3677,-22.6916],[-43.3677,-22.6879],[-43.3645,-22.6887],[-43.3655,-22.6888]]]}},{"type":"Feature","properties":{"cod_imovel":"RJ-3300456-FB3A4B71C30A4612A55A3CB1092BA4FA","mod_fiscal":"0.5854000000000000000000000000000","num_area":"5.8541000000000000000000000000000","ind_status":"AT","ind_tipo":"IRU","des_condic":"Aguardando analise","municipio":"Belford Roxo","dat_criaca":"15/01/2025"},"geometry":{"type":"Polygon","coordinates":[[[-43.3656,-22.6914],[-43.3642,-22.6887],[-43.3648,-22.6923],[-43.3656,-22.6914]]]}},{"type":"Feature","properties":{"cod_imovel":"RJ-3300456-872BA6E4EF6C4DC58A712232F38DE6C2","mod_fiscal":"0.5194000000000000000000000000000","num_area":"5.1943000000000000000000000000000","ind_status":"PE","ind_tipo":"IRU","des_condic":"Analisado, aguardando atendimento a notificacao","municipio":"Belford Roxo","dat_criaca":"27/02/2023"},"geometry":{"type":"Polygon","coordinates":[[[-43.3676,-22.6963],[-43.3647,-22.6941],[-43.367,-22.6967],[-43.3676,-22.6963]]]}},{"type":"Feature","properties":{"cod_imovel":"RJ-3300456-CA570B238E404BC2870A45971F5606F2","mod_fiscal":"1.3603000000000000000000000000000","num_area":"13.603400000000000000000000000000","ind_status":"AT","ind_tipo":"IRU","des_condic":"Aguardando analise","municipio":"Belford Roxo","dat_criaca":"13/06/2019"},"geometry":{"type":"Polygon","coordinates":[[[-43.38,-22.6966],[-43.3773,-22.6945],[-43.3748,-22.6975],[-43.3791,-22.6971],[-43.38,-22.6966]]]}},{"type":"Feature","properties":{"cod_imovel":"RJ-3300456-0EC063037E0C49B29767D6E002124AF1","mod_fiscal":"1.1103000000000000000000000000000","num_area":"11.102500000000000000000000000000","ind_status":"AT","ind_tipo":"IRU","des_condic":"Aguardando analise","municipio":"Belford Roxo","dat_criaca":"17/09/2024"},"geometry":{"type":"Polygon","coordinates":[[[-43.3641,-22.6999],[-43.3622,-22.6992],[-43.3628,-22.7048],[-43.3641,-22.6999]]]}},{"type":"Feature","properties":{"cod_imovel":"RJ-3300456-3DC219542A1245CAB5BFD6449C697626","mod_fiscal":"0.3084000000000000000000000000000","num_area":"3.0840000000000000000000000000000","ind_status":"AT","ind_tipo":"IRU","des_condic":"Aguardando analise","municipio":"Belford Roxo","dat_criaca":"07/03/2024"},"geometry":{"type":"Polygon","coordinates":[[[-43.3561,-22.7007],[-43.3568,-22.6988],[-43.355,-22.7012],[-43.3561,-22.7007]]]}},{"type":"Feature","properties":{"cod_imovel":"RJ-3300456-5F4A7545C9C942E882788C7C01863D2F","mod_fiscal":"0.1415000000000000000000000000000","num_area":"1.4147000000000000000000000000000","ind_status":"AT","ind_tipo":"IRU","des_condic":"Aguardando analise","municipio":"Belford Roxo","dat_criaca":"07/03/2024"},"geometry":{"type":"Polygon","coordinates":[[[-43.3609,-22.6987],[-43.3578,-22.6984],[-43.3597,-22.6992],[-43.3609,-22.6987]]]}},{"type":"Feature","properties":{"cod_imovel":"RJ-3300456-33DC7AAB2A6E44DBBB716268C12C4413","mod_fiscal":"2.1567000000000000000000000000000","num_area":"21.567200000000000000000000000000","ind_status":"AT","ind_tipo":"IRU","des_condic":"Aguardando analise","municipio":"Belford Roxo","dat_criaca":"17/11/2023"},"geometry":{"type":"Polygon","coordinates":[[[-43.3651,-22.7126],[-43.3618,-22.7092],[-43.3588,-22.7111],[-43.3634,-22.7137],[-43.3651,-22.7126]]]}}]}