{"type":"FeatureCollection","features":[{"type":"Feature","properties":{"cod_imovel":"RJ-3300951-B08A84C0B1804ED6BC40A5C7005A9FC0","mod_fiscal":"6.6297000000000000000000000000000","num_area":"185.63110000000000000000000000000","ind_status":"AT","ind_tipo":"IRU","des_condic":"Aguardando analise","municipio":"Comendador Levy Gasparian","dat_criaca":"15/07/2021"},"geometry":{"type":"Polygon","coordinates":[[[-43.1403,-22.0395],[-43.142,-22.0454],[-43.1512,-22.0486],[-43.1479,-22.0437],[-43.1559,-22.0417],[-43.1562,-22.0321],[-43.1476,-22.0315],[-43.1401,-22.0364],[-43.1404,-22.0394],[-43.1403,-22.0395]]]}},{"type":"Feature","properties":{"cod_imovel":"RJ-3300951-AF396300E7094A49B42D64E697BF857A","mod_fiscal":"9.3713000000000000000000000000000","num_area":"262.39620000000000000000000000000","ind_status":"AT","ind_tipo":"IRU","des_condic":"Aguardando analise","municipio":"Comendador Levy Gasparian","dat_criaca":"20/10/2021"},"geometry":{"type":"Polygon","coordinates":[[[-43.1648,-22.023],[-43.1638,-22.029],[-43.1562,-22.0321],[-43.1552,-22.0642],[-43.1609,-22.0593],[-43.1592,-22.0416],[-43.1665,-22.0463],[-43.1648,-22.023],[-43.1648,-22.023]]]}},{"type":"Feature","properties":{"cod_imovel":"RJ-3300951-AF081FEDE99C472BB28F98B640394117","mod_fiscal":"5.4309000000000000000000000000000","num_area":"152.06610000000000000000000000000","ind_status":"AT","ind_tipo":"IRU","des_condic":"Aguardando analise","municipio":"Comendador Levy Gasparian","dat_criaca":"29/09/2021"},"geometry":{"type":"Polygon","coordinates":[[[-43.1592,-22.0436],[-43.1607,-22.0586],[-43.1725,-22.0534],[-43.1615,-22.0416],[-43.1592,-22.0436]]]}},{"type":"Feature","properties":{"cod_imovel":"RJ-3300951-A4E2D88B21F5445C97D1C9B27477F766","mod_fiscal":"8.7087000000000000000000000000000","num_area":"243.82870000000000000000000000000","ind_status":"AT","ind_tipo":"IRU","des_condic":"Aguardando analise","municipio":"Comendador Levy Gasparian","dat_criaca":"17/07/2020"},"geometry":{"type":"Polygon","coordinates":[[[-43.1663,-22.0317],[-43.1665,-22.0462],[-43.1727,-22.0507],[-43.1757,-22.0275],[-43.1722,-22.0229],[-43.1648,-22.0229],[-43.1663,-22.0312],[-43.1663,-22.0317]]]}},{"type":"Feature","properties":{"cod_imovel":"RJ-3300951-E5373A4F53344DD082E29DABBA01BF41","mod_fiscal":"13.384300000000000000000000000000","num_area":"374.76120000000000000000000000000","ind_status":"AT","ind_tipo":"IRU","des_condic":"Aguardando analise","municipio":"Comendador Levy Gasparian","dat_criaca":"09/12/2019"},"geometry":{"type":"Polygon","coordinates":[[[-43.1559,-22.0417],[-43.1479,-22.0437],[-43.1516,-22.049],[-43.1322,-22.0485],[-43.1368,-22.0554],[-43.1343,-22.0572],[-43.1433,-22.0653],[-43.1532,-22.0619],[-43.1552,-22.0642],[-43.1555,-22.0545],[-43.1559,-22.0417]]]}},{"type":"Feature","properties":{"cod_imovel":"RJ-3300951-DE0137212BCD4F5481EF67B035ECDEA2","mod_fiscal":"2.4464000000000000000000000000000","num_area":"68.500000000000000000000000000000","ind_status":"AT","ind_tipo":"IRU","des_condic":"Aguardando analise","municipio":"Comendador Levy Gasparian","dat_criaca":"07/11/2016"},"geometry":{"type":"Polygon","coordinates":[[[-43.1475,-22.0326],[-43.1427,-22.0343],[-43.1354,-22.0302],[-43.1324,-22.0357],[-43.14,-22.0396],[-43.1467,-22.0343],[-43.1475,-22.0326]]]}},{"type":"Feature","properties":{"cod_imovel":"RJ-3300951-5F6A6A49CBF6486890A4996A064D320E","mod_fiscal":"5.7572000000000000000000000000000","num_area":"161.20150000000000000000000000000","ind_status":"AT","ind_tipo":"IRU","des_condic":"Aguardando analise","municipio":"Comendador Levy Gasparian","dat_criaca":"14/04/2016"},"geometry":{"type":"Polygon","coordinates":[[[-43.1933,-22.0575],[-43.1931,-22.0615],[-43.2072,-22.0636],[-43.2032,-22.0505],[-43.2002,-22.0488],[-43.1935,-22.0531],[-43.1933,-22.0575]]]}},{"type":"Feature","properties":{"cod_imovel":"RJ-3300951-C5275D136C8C44E786DC0439799F6F61","mod_fiscal":"1.2347000000000000000000000000000","num_area":"34.572800000000000000000000000000","ind_status":"AT","ind_tipo":"IRU","des_condic":"Aguardando analise","municipio":"Comendador Levy Gasparian","dat_criaca":"24/04/2015"},"geometry":{"type":"Polygon","coordinates":[[[-43.1501,-22.0322],[-43.155,-22.0355],[-43.1553,-22.048],[-43.1564,-22.0337],[-43.1597,-22.0315],[-43.1505,-22.0321],[-43.1501,-22.0322]]]}},{"type":"Feature","properties":{"cod_imovel":"RJ-3300951-20969291D8E54227B6BA4E3B12F91CDE","mod_fiscal":"0.6715000000000000000000000000000","num_area":"18.803300000000000000000000000000","ind_status":"AT","ind_tipo":"IRU","des_condic":"Aguardando analise","municipio":"Comendador Levy Gasparian","dat_criaca":"14/10/2025"},"geometry":{"type":"Polygon","coordinates":[[[-43.2172,-22.0356],[-43.2132,-22.0341],[-43.2205,-22.039],[-43.2203,-22.0359],[-43.2173,-22.0357],[-43.2172,-22.0356]]]}},{"type":"Feature","properties":{"cod_imovel":"RJ-3300951-2749357B9B4D40638CDB5CCF8CB429B1","mod_fiscal":"30.277000000000000000000000000000","num_area":"847.75600000000000000000000000000","ind_status":"AT","ind_tipo":"IRU","des_condic":"Aguardando analise","municipio":"Comendador Levy Gasparian","dat_criaca":"16/07/2025"},"geometry":{"type":"Polygon","coordinates":[[[-43.2721,-22.0444],[-43.2742,-22.0607],[-43.283,-22.0624],[-43.2844,-22.0519],[-43.2918,-22.048],[-43.301,-22.0507],[-43.3231,-22.0368],[-43.3024,-22.0265],[-43.2831,-22.0387],[-43.2906,-22.0427],[-43.2876,-22.0502],[-43.2845,-22.051],[-43.2861,-22.0447],[-43.2795,-22.0402],[-43.2728,-22.0443],[-43.2721,-22.0444]]]}},{"type":"Feature","properties":{"cod_imovel":"RJ-3300951-3B9065A9FC3843D5BCEC6DB67E4D75CB","mod_fiscal":"1.7437000000000000000000000000000","num_area":"48.822300000000000000000000000000","ind_status":"AT","ind_tipo":"IRU","des_condic":"Aguardando analise","municipio":"Comendador Levy Gasparian","dat_criaca":"10/09/2014"},"geometry":{"type":"Polygon","coordinates":[[[-43.2831,-22.0387],[-43.2801,-22.0422],[-43.2864,-22.0446],[-43.2851,-22.051],[-43.2906,-22.0427],[-43.2839,-22.0389],[-43.2831,-22.0387]]]}},{"type":"Feature","properties":{"cod_imovel":"RJ-3300951-E14AB23889094859A6A1D59A503E3072","mod_fiscal":"12.368600000000000000000000000000","num_area":"346.31900000000000000000000000000","ind_status":"AT","ind_tipo":"IRU","des_condic":"Aguardando analise","municipio":"Comendador Levy Gasparian","dat_criaca":"27/05/2025"},"geometry":{"type":"Polygon","coordinates":[[[-43.1343,-22.0522],[-43.137,-22.0554],[-43.1334,-22.0582],[-43.1429,-22.0651],[-43.1555,-22.062],[-43.1549,-22.0419],[-43.1471,-22.044],[-43.1517,-22.049],[-43.1432,-22.0478],[-43.1358,-22.0516],[-43.1343,-22.0522]]]}},{"type":"Feature","properties":{"cod_imovel":"RJ-3300951-3130816713E4409E89064B8C24A0F759","mod_fiscal":"1.0613000000000000000000000000000","num_area":"29.717600000000000000000000000000","ind_status":"AT","ind_tipo":"IRU","des_condic":"Aguardando analise","municipio":"Comendador Levy Gasparian","dat_criaca":"24/02/2025"},"geometry":{"type":"Polygon","coordinates":[[[-43.2138,-22.0466],[-43.2176,-22.0499],[-43.2226,-22.0476],[-43.214,-22.0467],[-43.2138,-22.0466]]]}},{"type":"Feature","properties":{"cod_imovel":"RJ-3300951-EC43F30A2E144E5886B6BDF23106C1CB","mod_fiscal":"1.9883000000000000000000000000000","num_area":"55.673600000000000000000000000000","ind_status":"AT","ind_tipo":"IRU","des_condic":"Aguardando analise","municipio":"Comendador Levy Gasparian","dat_criaca":"28/01/2025"},"geometry":{"type":"Polygon","coordinates":[[[-43.2665,-22.0373],[-43.2658,-22.0421],[-43.2707,-22.0445],[-43.2795,-22.0402],[-43.2702,-22.0407],[-43.2666,-22.0373],[-43.2665,-22.0373]]]}},{"type":"Feature","properties":{"cod_imovel":"RJ-3300951-004731A94C6E40FABA76112BC889EAF8","mod_fiscal":"9.8983000000000000000000000000000","num_area":"277.15300000000000000000000000000","ind_status":"AT","ind_tipo":"IRU","des_condic":"Aguardando analise","municipio":"Comendador Levy Gasparian","dat_criaca":"21/01/2025"},"geometry":{"type":"Polygon","coordinates":[[[-43.2709,-22.0408],[-43.2789,-22.0407],[-43.2963,-22.0307],[-43.294,-22.0286],[-43.279,-22.0304],[-43.2765,-22.0247],[-43.2694,-22.025],[-43.2665,-22.0373],[-43.2708,-22.0408],[-43.2709,-22.0408]]]}},{"type":"Feature","properties":{"cod_imovel":"RJ-3300951-EE2E6A6D851B4400805E84B50F4896D4","mod_fiscal":"4.6778000000000000000000000000000","num_area":"130.97750000000000000000000000000","ind_status":"AT","ind_tipo":"IRU","des_condic":"Aguardando analise","municipio":"Comendador Levy Gasparian","dat_criaca":"30/10/2020"},"geometry":{"type":"Polygon","coordinates":[[[-43.2721,-22.0444],[-43.2649,-22.0428],[-43.262,-22.0532],[-43.2667,-22.0566],[-43.2735,-22.0554],[-43.2721,-22.0444]]]}},{"type":"Feature","properties":{"cod_imovel":"RJ-3300951-C44A6AF32B1E4054925BA5C57CD9A870","mod_fiscal":"8.5215000000000000000000000000000","num_area":"238.60200000000000000000000000000","ind_status":"AT","ind_tipo":"IRU","des_condic":"Aguardando analise","municipio":"Comendador Levy Gasparian","dat_criaca":"18/12/2024"},"geometry":{"type":"Polygon","coordinates":[[[-43.2795,-22.0403],[-43.2721,-22.0444],[-43.2734,-22.0567],[-43.2742,-22.0607],[-43.283,-22.0624],[-43.2862,-22.0448],[-43.2796,-22.0407],[-43.2795,-22.0403]]]}},{"type":"Feature","properties":{"cod_imovel":"RJ-3300951-3DC332C895EB4418BB083ED55EF9D7F8","mod_fiscal":"5.9104000000000000000000000000000","num_area":"165.49260000000000000000000000000","ind_status":"AT","ind_tipo":"IRU","des_condic":"Aguardando analise","municipio":"Comendador Levy Gasparian","dat_criaca":"08/11/2024"},"geometry":{"type":"Polygon","coordinates":[[[-43.2744,-22.0629],[-43.2734,-22.0567],[-43.262,-22.053],[-43.2551,-22.0564],[-43.2637,-22.0618],[-43.2657,-22.0691],[-43.272,-22.0636],[-43.2744,-22.0629]]]}},{"type":"Feature","properties":{"cod_imovel":"RJ-3300951-B227DB5B629F446B82B30A2769F9802F","mod_fiscal":"2.8676000000000000000000000000000","num_area":"80.291500000000000000000000000000","ind_status":"AT","ind_tipo":"IRU","des_condic":"Aguardando analise","municipio":"Comendador Levy Gasparian","dat_criaca":"21/12/2021"},"geometry":{"type":"Polygon","coordinates":[[[-43.1422,-22.0338],[-43.1296,-22.0292],[-43.1295,-22.0345],[-43.1367,-22.0377],[-43.1431,-22.0356],[-43.1422,-22.0338]]]}},{"type":"Feature","properties":{"cod_imovel":"RJ-3300951-9C78F9CCF12D4F3A9F4ECD8705A20840","mod_fiscal":"0.2803000000000000000000000000000","num_area":"7.8494000000000000000000000000000","ind_status":"AT","ind_tipo":"IRU","des_condic":"Aguardando analise","municipio":"Comendador Levy Gasparian","dat_criaca":"26/09/2022"},"geometry":{"type":"Polygon","coordinates":[[[-43.3223,-22.0148],[-43.3177,-22.0159],[-43.3222,-22.0151],[-43.3223,-22.0148]]]}},{"type":"Feature","properties":{"cod_imovel":"RJ-3300951-C13DF88385B04E819023894C7F4D586F","mod_fiscal":"2.8928000000000000000000000000000","num_area":"80.998600000000000000000000000000","ind_status":"AT","ind_tipo":"IRU","des_condic":"Aguardando analise","municipio":"Comendador Levy Gasparian","dat_criaca":"15/06/2023"},"geometry":{"type":"Polygon","coordinates":[[[-43.2569,-22.0748],[-43.2558,-22.0677],[-43.2475,-22.0662],[-43.2488,-22.0752],[-43.2569,-22.0748],[-43.2569,-22.0748]]]}},{"type":"Feature","properties":{"cod_imovel":"RJ-3300951-85D63E1835EF4F8DB031B7FDF426BC43","mod_fiscal":"1.7286000000000000000000000000000","num_area":"48.400600000000000000000000000000","ind_status":"AT","ind_tipo":"IRU","des_condic":"Aguardando analise","municipio":"Comendador Levy Gasparian","dat_criaca":"15/11/2020"},"geometry":{"type":"Polygon","coordinates":[[[-43.259,-22.0218],[-43.2635,-22.0108],[-43.252,-22.0201],[-43.259,-22.0218]]]}},{"type":"Feature","properties":{"cod_imovel":"RJ-3300951-10D8156DF5C44F7DA30E743AA44B576B","mod_fiscal":"0.2261000000000000000000000000000","num_area":"6.3314000000000000000000000000000","ind_status":"AT","ind_tipo":"IRU","des_condic":"Aguardando analise","municipio":"Comendador Levy Gasparian","dat_criaca":"24/09/2020"},"geometry":{"type":"Polygon","coordinates":[[[-43.3216,-22.0101],[-43.3188,-22.0131],[-43.3219,-22.0106],[-43.3216,-22.0101]]]}},{"type":"Feature","properties":{"cod_imovel":"RJ-3300951-2BE7F6BFCB6A4ACA8F56603FCDF2CEDE","mod_fiscal":"5.7056000000000000000000000000000","num_area":"159.75700000000000000000000000000","ind_status":"AT","ind_tipo":"IRU","des_condic":"Aguardando analise","municipio":"Comendador Levy Gasparian","dat_criaca":"09/09/2020"},"geometry":{"type":"Polygon","coordinates":[[[-43.2476,-22.0806],[-43.248,-22.0672],[-43.2358,-22.0702],[-43.2401,-22.0812],[-43.2473,-22.081],[-43.2476,-22.0806]]]}},{"type":"Feature","properties":{"cod_imovel":"RJ-3300951-C9895D9235D7409E85972DF71B296CA1","mod_fiscal":"0.1617000000000000000000000000000","num_area":"4.5285000000000000000000000000000","ind_status":"AT","ind_tipo":"IRU","des_condic":"Aguardando analise","municipio":"Comendador Levy Gasparian","dat_criaca":"05/08/2020"},"geometry":{"type":"Polygon","coordinates":[[[-43.3268,-22.0104],[-43.323,-22.009],[-43.3266,-22.0107],[-43.3268,-22.0104]]]}},{"type":"Feature","properties":{"cod_imovel":"RJ-3300951-67825F2C373047E2B7B1EB69A93F6320","mod_fiscal":"1.8158000000000000000000000000000","num_area":"50.843600000000000000000000000000","ind_status":"AT","ind_tipo":"IRU","des_condic":"Aguardando analise","municipio":"Comendador Levy Gasparian","dat_criaca":"25/06/2020"},"geometry":{"type":"Polygon","coordinates":[[[-43.2525,-22.0442],[-43.2553,-22.0515],[-43.2551,-22.0402],[-43.2484,-22.0409],[-43.2524,-22.044],[-43.2525,-22.0442]]]}},{"type":"Feature","properties":{"cod_imovel":"RJ-3300951-34FC306742C94854B63827EDEB304A22","mod_fiscal":"1.0460000000000000000000000000000","num_area":"29.287000000000000000000000000000","ind_status":"AT","ind_tipo":"IRU","des_condic":"Aguardando analise","municipio":"Comendador Levy Gasparian","dat_criaca":"17/02/2018"},"geometry":{"type":"Polygon","coordinates":[[[-43.2257,-22.0512],[-43.228,-22.0496],[-43.2231,-22.0472],[-43.2208,-22.0546],[-43.225,-22.0518],[-43.2257,-22.0512]]]}},{"type":"Feature","properties":{"cod_imovel":"RJ-3300951-62FDFE5FC0FE4C56A7CAF9A194FE7DEF","mod_fiscal":"0.4751000000000000000000000000000","num_area":"13.302300000000000000000000000000","ind_status":"AT","ind_tipo":"IRU","des_condic":"Aguardando analise","municipio":"Comendador Levy Gasparian","dat_criaca":"27/03/2020"},"geometry":{"type":"Polygon","coordinates":[[[-43.2066,-22.0509],[-43.2155,-22.0535],[-43.2088,-22.0517],[-43.2066,-22.0509]]]}},{"type":"Feature","properties":{"cod_imovel":"RJ-3300951-A24E436E78A44126871CB9584179FBB4","mod_fiscal":"0.1190000000000000000000000000000","num_area":"3.3309000000000000000000000000000","ind_status":"AT","ind_tipo":"IRU","des_condic":"Aguardando analise","municipio":"Comendador Levy Gasparian","dat_criaca":"23/10/2019"},"geometry":{"type":"Polygon","coordinates":[[[-43.2334,-22.0281],[-43.2308,-22.0311],[-43.2339,-22.0284],[-43.2334,-22.0281]]]}},{"type":"Feature","properties":{"cod_imovel":"RJ-3300951-2DD5D7507AEF458FAE8E77ABB8AA48E1","mod_fiscal":"0.1561000000000000000000000000000","num_area":"4.3720000000000000000000000000000","ind_status":"AT","ind_tipo":"IRU","des_condic":"Aguardando analise","municipio":"Comendador Levy Gasparian","dat_criaca":"02/10/2019"},"geometry":{"type":"Polygon","coordinates":[[[-43.2235,-22.0539],[-43.2207,-22.0568],[-43.2235,-22.0538],[-43.2235,-22.0539]]]}},{"type":"Feature","properties":{"cod_imovel":"RJ-3300951-CC73DC2DBF1C4F748BB344A866457246","mod_fiscal":"4.5747000000000000000000000000000","num_area":"128.09020000000000000000000000000","ind_status":"AT","ind_tipo":"IRU","des_condic":"Aguardando analise","municipio":"Comendador Levy Gasparian","dat_criaca":"12/06/2019"},"geometry":{"type":"Polygon","coordinates":[[[-43.2576,-22.0139],[-43.2573,-22.0197],[-43.2641,-22.0231],[-43.2668,-22.0235],[-43.2713,-22.0161],[-43.2699,-22.0129],[-43.2616,-22.014],[-43.2578,-22.0108],[-43.2576,-22.0139]]]}},{"type":"Feature","properties":{"cod_imovel":"RJ-3300951-C3F38AAA080246F3A1E8AE913432F36E","mod_fiscal":"0.2226000000000000000000000000000","num_area":"6.2316000000000000000000000000000","ind_status":"AT","ind_tipo":"IRU","des_condic":"Aguardando analise","municipio":"Comendador Levy Gasparian","dat_criaca":"06/04/2019"},"geometry":{"type":"Polygon","coordinates":[[[-43.2318,-22.0292],[-43.2285,-22.0335],[-43.2317,-22.0301],[-43.2318,-22.0292]]]}},{"type":"Feature","properties":{"cod_imovel":"RJ-3300951-DE2E1D23E0C346CC873F865BA95BDE10","mod_fiscal":"7.7957000000000000000000000000000","num_area":"218.28000000000000000000000000000","ind_status":"AT","ind_tipo":"IRU","des_condic":"Aguardando analise","municipio":"Comendador Levy Gasparian","dat_criaca":"17/05/2018"},"geometry":{"type":"Polygon","coordinates":[[[-43.2383,-22.0184],[-43.2387,-22.0243],[-43.2479,-22.0206],[-43.2464,-22.0158],[-43.2553,-22.0178],[-43.2645,-22.0109],[-43.2617,-22.0093],[-43.2553,-22.0136],[-43.2442,-22.0082],[-43.2359,-22.0142],[-43.2383,-22.0182],[-43.2383,-22.0184]]]}},{"type":"Feature","properties":{"cod_imovel":"RJ-3300951-16FD10410ADB496DA9B9903EE142ECBB","mod_fiscal":"3.6529000000000000000000000000000","num_area":"102.28120000000000000000000000000","ind_status":"AT","ind_tipo":"IRU","des_condic":"Aguardando analise","municipio":"Comendador Levy Gasparian","dat_criaca":"09/02/2018"},"geometry":{"type":"Polygon","coordinates":[[[-43.2649,-22.0275],[-43.2591,-22.0263],[-43.2524,-22.0369],[-43.2596,-22.038],[-43.2619,-22.0317],[-43.2676,-22.031],[-43.2651,-22.0276],[-43.2649,-22.0275]]]}},{"type":"Feature","properties":{"cod_imovel":"RJ-3300951-E0C26C0F565C4532A67F6295D287172A","mod_fiscal":"2.7583000000000000000000000000000","num_area":"77.233300000000000000000000000000","ind_status":"AT","ind_tipo":"IRU","des_condic":"Aguardando analise","municipio":"Comendador Levy Gasparian","dat_criaca":"30/12/2017"},"geometry":{"type":"Polygon","coordinates":[[[-43.2296,-22.0346],[-43.2289,-22.0448],[-43.2362,-22.0435],[-43.2384,-22.0367],[-43.2309,-22.0344],[-43.2296,-22.0346]]]}},{"type":"Feature","properties":{"cod_imovel":"RJ-3300951-83E8C32DDC51433099ECECD883C851AB","mod_fiscal":"4.5770000000000000000000000000000","num_area":"128.15690000000000000000000000000","ind_status":"AT","ind_tipo":"IRU","des_condic":"Aguardando analise","municipio":"Comendador Levy Gasparian","dat_criaca":"30/12/2017"},"geometry":{"type":"Polygon","coordinates":[[[-43.2507,-22.0562],[-43.2481,-22.0634],[-43.2471,-22.0596],[-43.2412,-22.0647],[-43.2431,-22.0684],[-43.2562,-22.0679],[-43.2565,-22.0583],[-43.2535,-22.0563],[-43.2507,-22.0562]]]}},{"type":"Feature","properties":{"cod_imovel":"RJ-3300951-5E52266D1FE84D4B8F9E8FB20746F6CC","mod_fiscal":"0.0771000000000000000000000000000","num_area":"2.1586000000000000000000000000000","ind_status":"AT","ind_tipo":"IRU","des_condic":"Aguardando analise","municipio":"Comendador Levy Gasparian","dat_criaca":"05/03/2017"},"geometry":{"type":"Polygon","coordinates":[[[-43.2284,-22.0321],[-43.2294,-22.0338],[-43.2293,-22.0313],[-43.2284,-22.0321]]]}},{"type":"Feature","properties":{"cod_imovel":"RJ-3300951-75A62E90FA8F4F7783E259A6C64BE0E7","mod_fiscal":"0.3472000000000000000000000000000","num_area":"9.7224000000000000000000000000000","ind_status":"AT","ind_tipo":"IRU","des_condic":"Aguardando analise","municipio":"Comendador Levy Gasparian","dat_criaca":"03/08/2016"},"geometry":{"type":"Polygon","coordinates":[[[-43.2826,-22.0268],[-43.28,-22.0269],[-43.2805,-22.0303],[-43.2833,-22.0302],[-43.2826,-22.0269],[-43.2826,-22.0268]]]}},{"type":"Feature","properties":{"cod_imovel":"RJ-3300951-DFB8C4A711AC4E27984EC091875C03D0","mod_fiscal":"0.1892000000000000000000000000000","num_area":"5.2982000000000000000000000000000","ind_status":"AT","ind_tipo":"IRU","des_condic":"Aguardando analise","municipio":"Comendador Levy Gasparian","dat_criaca":"10/06/2016"},"geometry":{"type":"Polygon","coordinates":[[[-43.2315,-22.0311],[-43.2304,-22.0341],[-43.2325,-22.0315],[-43.2315,-22.0311]]]}},{"type":"Feature","properties":{"cod_imovel":"RJ-3300951-5FBDD4FA4FC54C4A824D3C8B6EBE7C9B","mod_fiscal":"2.4250000000000000000000000000000","num_area":"67.898900000000000000000000000000","ind_status":"AT","ind_tipo":"IRU","des_condic":"Aguardando analise","municipio":"Comendador Levy Gasparian","dat_criaca":"05/05/2016"},"geometry":{"type":"Polygon","coordinates":[[[-43.2375,-22.0568],[-43.2438,-22.0558],[-43.2344,-22.051],[-43.2284,-22.0575],[-43.2373,-22.0569],[-43.2375,-22.0568]]]}},{"type":"Feature","properties":{"cod_imovel":"RJ-3300951-B91772DD3EE9421A8035B30A0CE817EA","mod_fiscal":"1.5851000000000000000000000000000","num_area":"44.384000000000000000000000000000","ind_status":"AT","ind_tipo":"IRU","des_condic":"Aguardando analise","municipio":"Comendador Levy Gasparian","dat_criaca":"09/03/2016"},"geometry":{"type":"Polygon","coordinates":[[[-43.2315,-22.0644],[-43.2292,-22.0628],[-43.2262,-22.0682],[-43.2285,-22.0707],[-43.2343,-22.0701],[-43.2317,-22.0645],[-43.2315,-22.0644]]]}},{"type":"Feature","properties":{"cod_imovel":"RJ-3300951-0D558F3387A349F9B0957678B8E0AD88","mod_fiscal":"0.4609000000000000000000000000000","num_area":"12.896200000000000000000000000000","ind_status":"AT","ind_tipo":"IRU","des_condic":"Aguardando analise","municipio":"Comendador Levy Gasparian","dat_criaca":"07/03/2016"},"geometry":{"type":"Polygon","coordinates":[[[-43.2896,-22.0152],[-43.2857,-22.0144],[-43.2862,-22.0182],[-43.2893,-22.0157],[-43.2896,-22.0152]]]}},{"type":"Feature","properties":{"cod_imovel":"RJ-3300951-E23B7FB7CB6A4775AC70037F2DE35658","mod_fiscal":"1.0193000000000000000000000000000","num_area":"28.539400000000000000000000000000","ind_status":"AT","ind_tipo":"IRU","des_condic":"Aguardando analise","municipio":"Comendador Levy Gasparian","dat_criaca":"07/03/2016"},"geometry":{"type":"Polygon","coordinates":[[[-43.2925,-22.0207],[-43.2951,-22.0181],[-43.2933,-22.0161],[-43.2896,-22.0153],[-43.2866,-22.0185],[-43.287,-22.0213],[-43.2896,-22.0175],[-43.2924,-22.0206],[-43.2925,-22.0207]]]}},{"type":"Feature","properties":{"cod_imovel":"RJ-3300951-4DAD759E861149F08FC99276C1884AAB","mod_fiscal":"3.0586000000000000000000000000000","num_area":"85.640200000000000000000000000000","ind_status":"AT","ind_tipo":"IRU","des_condic":"Aguardando analise","municipio":"Comendador Levy Gasparian","dat_criaca":"31/03/2015"},"geometry":{"type":"Polygon","coordinates":[[[-43.2375,-22.0251],[-43.2413,-22.0296],[-43.2496,-22.0281],[-43.2481,-22.0196],[-43.2378,-22.0249],[-43.2375,-22.0251]]]}},{"type":"Feature","properties":{"cod_imovel":"RJ-3300951-AA5A0F85E61042C8ACA5B9A698D45523","mod_fiscal":"4.3534000000000000000000000000000","num_area":"121.89390000000000000000000000000","ind_status":"AT","ind_tipo":"IRU","des_condic":"Aguardando analise","municipio":"Comendador Levy Gasparian","dat_criaca":"22/02/2022"},"geometry":{"type":"Polygon","coordinates":[[[-43.2742,-22.0125],[-43.273,-22.0162],[-43.2697,-22.0164],[-43.2647,-22.0127],[-43.2692,-22.0251],[-43.2741,-22.0243],[-43.2777,-22.0184],[-43.2742,-22.0125],[-43.2742,-22.0125]]]}},{"type":"Feature","properties":{"cod_imovel":"RJ-3300951-C333866A7DF0464AA59D215F16FA543C","mod_fiscal":"0.5996000000000000000000000000000","num_area":"16.788200000000000000000000000000","ind_status":"AT","ind_tipo":"IRU","des_condic":"Aguardando analise","municipio":"Comendador Levy Gasparian","dat_criaca":"27/01/2020"},"geometry":{"type":"Polygon","coordinates":[[[-43.322,-22.0148],[-43.3192,-22.0125],[-43.3173,-22.0179],[-43.3218,-22.0154],[-43.322,-22.0148]]]}},{"type":"Feature","properties":{"cod_imovel":"RJ-3300951-AF9800B84E6F4A6D8B9D2832EE685F45","mod_fiscal":"3.1733000000000000000000000000000","num_area":"88.852600000000000000000000000000","ind_status":"AT","ind_tipo":"IRU","des_condic":"Aguardando analise","municipio":"Comendador Levy Gasparian","dat_criaca":"16/07/2024"},"geometry":{"type":"Polygon","coordinates":[[[-43.2293,-22.04],[-43.2296,-22.0373],[-43.2228,-22.0349],[-43.2244,-22.048],[-43.2278,-22.0495],[-43.2306,-22.0411],[-43.2293,-22.04]]]}},{"type":"Feature","properties":{"cod_imovel":"RJ-3300951-4D485BE5C299474784F4A57D1A3E16A8","mod_fiscal":"0.0802000000000000000000000000000","num_area":"2.2444000000000000000000000000000","ind_status":"AT","ind_tipo":"IRU","des_condic":"Aguardando analise","municipio":"Comendador Levy Gasparian","dat_criaca":"28/02/2021"},"geometry":{"type":"Polygon","coordinates":[[[-43.2154,-22.061],[-43.2174,-22.0604],[-43.2154,-22.061],[-43.2154,-22.061]]]}},{"type":"Feature","properties":{"cod_imovel":"RJ-3300951-C03788B8C0464C7BAA3FF370FE8638EF","mod_fiscal":"4.3815000000000000000000000000000","num_area":"122.68140000000000000000000000000","ind_status":"AT","ind_tipo":"IRU","des_condic":"Aguardando analise","municipio":"Comendador Levy Gasparian","dat_criaca":"30/01/2021"},"geometry":{"type":"Polygon","coordinates":[[[-43.2685,-22.0369],[-43.2676,-22.031],[-43.2626,-22.0314],[-43.2592,-22.0388],[-43.2535,-22.0399],[-43.2566,-22.0449],[-43.2614,-22.0453],[-43.2685,-22.0369],[-43.2685,-22.0369]]]}},{"type":"Feature","properties":{"cod_imovel":"RJ-3300951-19F57B4FBAFC4925958B8D4DE932D704","mod_fiscal":"4.5063000000000000000000000000000","num_area":"126.17500000000000000000000000000","ind_status":"AT","ind_tipo":"IRU","des_condic":"Aguardando analise","municipio":"Comendador Levy Gasparian","dat_criaca":"17/01/2021"},"geometry":{"type":"Polygon","coordinates":[[[-43.2168,-22.0687],[-43.2223,-22.072],[-43.2301,-22.0635],[-43.218,-22.059],[-43.2152,-22.0618],[-43.217,-22.0672],[-43.2168,-22.0687]]]}},{"type":"Feature","properties":{"cod_imovel":"RJ-3300951-0C0872AFA24F4671B8A24CE7EF32E5D3","mod_fiscal":"2.4600000000000000000000000000000","num_area":"68.881300000000000000000000000000","ind_status":"AT","ind_tipo":"IRU","des_condic":"Aguardando analise","municipio":"Comendador Levy Gasparian","dat_criaca":"19/06/2018"},"geometry":{"type":"Polygon","coordinates":[[[-43.2355,-22.045],[-43.2366,-22.0403],[-43.2315,-22.0418],[-43.2279,-22.0495],[-43.2339,-22.0509],[-43.2392,-22.0481],[-43.2342,-22.0459],[-43.2355,-22.045]]]}},{"type":"Feature","properties":{"cod_imovel":"RJ-3300951-EE6632D9FE6C4F7FB1C4A454CE8CB7CF","mod_fiscal":"1.0450000000000000000000000000000","num_area":"29.259100000000000000000000000000","ind_status":"AT","ind_tipo":"IRU","des_condic":"Aguardando analise","municipio":"Comendador Levy Gasparian","dat_criaca":"24/05/2023"},"geometry":{"type":"Polygon","coordinates":[[[-43.242,-22.0106],[-43.2424,-22.0144],[-43.2489,-22.0101],[-43.2443,-22.008],[-43.242,-22.0106]]]}},{"type":"Feature","properties":{"cod_imovel":"RJ-3300951-3E3C4F0471934BFBB2F9C41CB719EB86","mod_fiscal":"0.1172000000000000000000000000000","num_area":"3.2811000000000000000000000000000","ind_status":"AT","ind_tipo":"IRU","des_condic":"Aguardando analise","municipio":"Comendador Levy Gasparian","dat_criaca":"29/03/2023"},"geometry":{"type":"Polygon","coordinates":[[[-43.2099,-22.0449],[-43.2079,-22.0465],[-43.2099,-22.0458],[-43.2099,-22.0449]]]}},{"type":"Feature","properties":{"cod_imovel":"RJ-3300951-F220B0EC38454C5DBE9A5B95C6F5D193","mod_fiscal":"1.7286000000000000000000000000000","num_area":"48.400000000000000000000000000000","ind_status":"AT","ind_tipo":"IRU","des_condic":"Aguardando analise","municipio":"Comendador Levy Gasparian","dat_criaca":"23/02/2023"},"geometry":{"type":"Polygon","coordinates":[[[-43.2661,-22.0222],[-43.2647,-22.0125],[-43.259,-22.0218],[-43.2661,-22.0222]]]}},{"type":"Feature","properties":{"cod_imovel":"RJ-3300951-CEE701DD4CC742AC96359F5B6350CB86","mod_fiscal":"0.6914000000000000000000000000000","num_area":"19.359500000000000000000000000000","ind_status":"AT","ind_tipo":"IRU","des_condic":"Aguardando analise","municipio":"Comendador Levy Gasparian","dat_criaca":"02/02/2023"},"geometry":{"type":"Polygon","coordinates":[[[-43.2385,-22.0327],[-43.2353,-22.0275],[-43.2325,-22.0315],[-43.236,-22.0334],[-43.2385,-22.0327]]]}},{"type":"Feature","properties":{"cod_imovel":"RJ-3300951-74874225B2F144B8BED300991D622D85","mod_fiscal":"0.1705000000000000000000000000000","num_area":"4.7747000000000000000000000000000","ind_status":"AT","ind_tipo":"IRU","des_condic":"Aguardando analise","municipio":"Comendador Levy Gasparian","dat_criaca":"18/09/2021"},"geometry":{"type":"Polygon","coordinates":[[[-43.2082,-22.0572],[-43.2114,-22.0539],[-43.2079,-22.0571],[-43.2082,-22.0572]]]}},{"type":"Feature","properties":{"cod_imovel":"RJ-3300951-FC795C02E82A43DF854EAEF5B7AF4FAB","mod_fiscal":"1.5822000000000000000000000000000","num_area":"44.300300000000000000000000000000","ind_status":"AT","ind_tipo":"IRU","des_condic":"Aguardando analise","municipio":"Comendador Levy Gasparian","dat_criaca":"24/02/2022"},"geometry":{"type":"Polygon","coordinates":[[[-43.2318,-22.0584],[-43.2285,-22.0587],[-43.2293,-22.0627],[-43.2344,-22.0654],[-43.2374,-22.0631],[-43.2324,-22.0586],[-43.2318,-22.0584]]]}},{"type":"Feature","properties":{"cod_imovel":"RJ-3300951-66831C88DE2C4C298C22B6872423D79A","mod_fiscal":"1.2131000000000000000000000000000","num_area":"33.966900000000000000000000000000","ind_status":"CA","ind_tipo":"IRU","des_condic":"Cancelado por duplicidade","municipio":"Comendador Levy Gasparian","dat_criaca":"10/08/2015"},"geometry":{"type":"Polygon","coordinates":[[[-43.2864,-22.0208],[-43.286,-22.024],[-43.2912,-22.0243],[-43.2932,-22.021],[-43.2896,-22.0175],[-43.2866,-22.021],[-43.2864,-22.0208]]]}},{"type":"Feature","properties":{"cod_imovel":"RJ-3300951-53323EB4EC424F1CAB2D7B968703F6B8","mod_fiscal":"0.4663000000000000000000000000000","num_area":"13.057300000000000000000000000000","ind_status":"AT","ind_tipo":"IRU","des_condic":"Aguardando analise","municipio":"Comendador Levy Gasparian","dat_criaca":"28/12/2022"},"geometry":{"type":"Polygon","coordinates":[[[-43.2232,-22.0361],[-43.2208,-22.0405],[-43.2236,-22.0418],[-43.2236,-22.0395],[-43.2232,-22.0361]]]}},{"type":"Feature","properties":{"cod_imovel":"RJ-3300951-32D058C1E043401CA4397F1FEAFDFD80","mod_fiscal":"0.1534000000000000000000000000000","num_area":"4.2944000000000000000000000000000","ind_status":"AT","ind_tipo":"IRU","des_condic":"Aguardando analise","municipio":"Comendador Levy Gasparian","dat_criaca":"05/11/2016"},"geometry":{"type":"Polygon","coordinates":[[[-43.2366,-22.0292],[-43.2394,-22.0325],[-43.2367,-22.0296],[-43.2366,-22.0292]]]}},{"type":"Feature","properties":{"cod_imovel":"RJ-3300951-E7CD71AC8232461F9F0DE8121E8BD6CB","mod_fiscal":"0.5421000000000000000000000000000","num_area":"15.177500000000000000000000000000","ind_status":"AT","ind_tipo":"IRU","des_condic":"Aguardando analise","municipio":"Comendador Levy Gasparian","dat_criaca":"20/07/2018"},"geometry":{"type":"Polygon","coordinates":[[[-43.3015,-22.0241],[-43.3061,-22.0255],[-43.3066,-22.0224],[-43.3009,-22.0239],[-43.3015,-22.0241]]]}},{"type":"Feature","properties":{"cod_imovel":"RJ-3300951-3A82C9E285904319A5131BC444F8146E","mod_fiscal":"0.9495000000000000000000000000000","num_area":"26.586300000000000000000000000000","ind_status":"AT","ind_tipo":"IRU","des_condic":"Aguardando analise","municipio":"Comendador Levy Gasparian","dat_criaca":"17/02/2018"},"geometry":{"type":"Polygon","coordinates":[[[-43.2263,-22.0557],[-43.2318,-22.0501],[-43.2245,-22.0522],[-43.2258,-22.0553],[-43.2263,-22.0557]]]}},{"type":"Feature","properties":{"cod_imovel":"RJ-3300951-4417312ABBBE4E14842C683D8D2E5213","mod_fiscal":"2.6741000000000000000000000000000","num_area":"74.874500000000000000000000000000","ind_status":"AT","ind_tipo":"IRU","des_condic":"Aguardando analise","municipio":"Comendador Levy Gasparian","dat_criaca":"16/02/2017"},"geometry":{"type":"Polygon","coordinates":[[[-43.2464,-22.0385],[-43.2446,-22.041],[-43.249,-22.0428],[-43.2603,-22.0372],[-43.256,-22.0339],[-43.2526,-22.0371],[-43.2459,-22.0365],[-43.2464,-22.0385]]]}},{"type":"Feature","properties":{"cod_imovel":"RJ-3300951-45D6AADEA1A74C9EB7BACC26EA386D1C","mod_fiscal":"7.2480000000000000000000000000000","num_area":"202.94410000000000000000000000000","ind_status":"AT","ind_tipo":"IRU","des_condic":"Aguardando analise","municipio":"Comendador Levy Gasparian","dat_criaca":"11/09/2017"},"geometry":{"type":"Polygon","coordinates":[[[-43.239,-22.0477],[-43.2368,-22.0518],[-43.244,-22.0556],[-43.2551,-22.0518],[-43.2484,-22.0409],[-43.2403,-22.0424],[-43.2399,-22.0473],[-43.239,-22.0477]]]}},{"type":"Feature","properties":{"cod_imovel":"RJ-3300951-4EE51564586349F680C46094E3665BDD","mod_fiscal":"3.1068000000000000000000000000000","num_area":"86.989900000000000000000000000000","ind_status":"AT","ind_tipo":"IRU","des_condic":"Aguardando analise","municipio":"Comendador Levy Gasparian","dat_criaca":"04/04/2017"},"geometry":{"type":"Polygon","coordinates":[[[-43.3326,-22.0219],[-43.3391,-22.0236],[-43.3387,-22.0271],[-43.3416,-22.0275],[-43.3405,-22.0153],[-43.3328,-22.0146],[-43.3326,-22.0219],[-43.3326,-22.0219]]]}},{"type":"Feature","properties":{"cod_imovel":"RJ-3300951-66831C88DE2C4C298C22B6872423D79A","mod_fiscal":"1.2131000000000000000000000000000","num_area":"33.966900000000000000000000000000","ind_status":"AT","ind_tipo":"IRU","des_condic":"Aguardando analise","municipio":"Comendador Levy Gasparian","dat_criaca":"10/08/2015"},"geometry":{"type":"Polygon","coordinates":[[[-43.2864,-22.0208],[-43.286,-22.024],[-43.2912,-22.0243],[-43.2932,-22.021],[-43.2896,-22.0175],[-43.2866,-22.021],[-43.2864,-22.0208]]]}},{"type":"Feature","properties":{"cod_imovel":"RJ-3300951-77ABF704D4C044259A179D14B8ADC610","mod_fiscal":"1.1493000000000000000000000000000","num_area":"32.180400000000000000000000000000","ind_status":"AT","ind_tipo":"IRU","des_condic":"Aguardando analise","municipio":"Comendador Levy Gasparian","dat_criaca":"18/06/2016"},"geometry":{"type":"Polygon","coordinates":[[[-43.2284,-22.0575],[-43.2344,-22.051],[-43.229,-22.0511],[-43.2255,-22.058],[-43.2288,-22.0587],[-43.2284,-22.0575]]]}},{"type":"Feature","properties":{"cod_imovel":"RJ-3300951-8A121CBF2B0F446DAF103C0F1E52C929","mod_fiscal":"0.6551000000000000000000000000000","num_area":"18.343200000000000000000000000000","ind_status":"AT","ind_tipo":"IRU","des_condic":"Aguardando analise","municipio":"Comendador Levy Gasparian","dat_criaca":"03/05/2016"},"geometry":{"type":"Polygon","coordinates":[[[-43.2477,-22.0401],[-43.2405,-22.0393],[-43.2386,-22.0428],[-43.2481,-22.0404],[-43.2477,-22.0401]]]}},{"type":"Feature","properties":{"cod_imovel":"RJ-3300951-9A28AD93B3E442FB84C3D6D7339B5EAB","mod_fiscal":"2.0887000000000000000000000000000","num_area":"58.482400000000000000000000000000","ind_status":"AT","ind_tipo":"IRU","des_condic":"Aguardando analise","municipio":"Comendador Levy Gasparian","dat_criaca":"07/04/2017"},"geometry":{"type":"Polygon","coordinates":[[[-43.3238,-22.0149],[-43.3279,-22.021],[-43.3325,-22.0221],[-43.3319,-22.0156],[-43.3286,-22.0122],[-43.3266,-22.0139],[-43.328,-22.0111],[-43.324,-22.0144],[-43.3238,-22.0149]]]}},{"type":"Feature","properties":{"cod_imovel":"RJ-3300951-A708062BC79D4A5DBC2D564A7F8D44F1","mod_fiscal":"0.1237000000000000000000000000000","num_area":"3.4646000000000000000000000000000","ind_status":"AT","ind_tipo":"IRU","des_condic":"Aguardando analise","municipio":"Comendador Levy Gasparian","dat_criaca":"10/03/2017"},"geometry":{"type":"Polygon","coordinates":[[[-43.2089,-22.0384],[-43.211,-22.0404],[-43.2089,-22.0383],[-43.2089,-22.0384]]]}},{"type":"Feature","properties":{"cod_imovel":"RJ-3300951-C6F392ED497D43C6B2FF51788EE616B1","mod_fiscal":"0.5433000000000000000000000000000","num_area":"15.211900000000000000000000000000","ind_status":"AT","ind_tipo":"IRU","des_condic":"Aguardando analise","municipio":"Comendador Levy Gasparian","dat_criaca":"17/02/2018"},"geometry":{"type":"Polygon","coordinates":[[[-43.2268,-22.0563],[-43.2247,-22.0538],[-43.2194,-22.0579],[-43.2255,-22.058],[-43.2268,-22.0563]]]}},{"type":"Feature","properties":{"cod_imovel":"RJ-3300951-EE1D9FE52A68435EAA787BF468D9931D","mod_fiscal":"5.7633000000000000000000000000000","num_area":"161.37290000000000000000000000000","ind_status":"AT","ind_tipo":"IRU","des_condic":"Aguardando analise","municipio":"Comendador Levy Gasparian","dat_criaca":"19/12/2017"},"geometry":{"type":"Polygon","coordinates":[[[-43.3205,-22.0232],[-43.32,-22.0302],[-43.3152,-22.0309],[-43.3167,-22.0361],[-43.3222,-22.0339],[-43.3283,-22.018],[-43.3222,-22.0145],[-43.3194,-22.019],[-43.3145,-22.0199],[-43.3173,-22.024],[-43.3205,-22.0232],[-43.3205,-22.0232]]]}},{"type":"Feature","properties":{"cod_imovel":"RJ-3300951-CFB27A41A9AE4F04B62752B20CDEF351","mod_fiscal":"0.2489000000000000000000000000000","num_area":"6.9696000000000000000000000000000","ind_status":"AT","ind_tipo":"IRU","des_condic":"Aguardando analise","municipio":"Comendador Levy Gasparian","dat_criaca":"27/01/2018"},"geometry":{"type":"Polygon","coordinates":[[[-43.2193,-22.0575],[-43.2231,-22.0541],[-43.2191,-22.0571],[-43.2193,-22.0575]]]}},{"type":"Feature","properties":{"cod_imovel":"RJ-3300951-E02BF02B8B574A59BF02E8B5D392A538","mod_fiscal":"2.6626000000000000000000000000000","num_area":"74.551500000000000000000000000000","ind_status":"AT","ind_tipo":"IRU","des_condic":"Aguardando analise","municipio":"Comendador Levy Gasparian","dat_criaca":"27/04/2015"},"geometry":{"type":"Polygon","coordinates":[[[-43.1648,-22.0553],[-43.1645,-22.0634],[-43.1723,-22.0627],[-43.1723,-22.0539],[-43.1677,-22.0545],[-43.1648,-22.0553]]]}},{"type":"Feature","properties":{"cod_imovel":"RJ-3300951-FE7603C973544CCA951861FCF82BC7BF","mod_fiscal":"3.6418000000000000000000000000000","num_area":"101.96960000000000000000000000000","ind_status":"AT","ind_tipo":"IRU","des_condic":"Aguardando analise","municipio":"Comendador Levy Gasparian","dat_criaca":"15/08/2016"},"geometry":{"type":"Polygon","coordinates":[[[-43.3254,-22.0234],[-43.324,-22.028],[-43.3408,-22.025],[-43.3404,-22.0217],[-43.3347,-22.0203],[-43.3265,-22.0196],[-43.3257,-22.0227],[-43.3254,-22.0234]]]}}]}