{"type":"FeatureCollection","features":[{"type":"Feature","properties":{"cod_imovel":"RJ-3301504-5D08DC79B35A42099783D28F35B4371B","mod_fiscal":"0.5728000000000000000000000000000","num_area":"20.047100000000000000000000000000","ind_status":"AT","ind_tipo":"IRU","des_condic":"Aguardando analise","municipio":"Cordeiro","dat_criaca":"16/04/2026"},"geometry":{"type":"Polygon","coordinates":[[[-42.3751,-22.0595],[-42.3693,-22.0541],[-42.3743,-22.0606],[-42.3751,-22.0595]]]}},{"type":"Feature","properties":{"cod_imovel":"RJ-3301504-276E65AD066E495B8F8F540DFC4C8D02","mod_fiscal":"5.1782000000000000000000000000000","num_area":"181.23830000000000000000000000000","ind_status":"AT","ind_tipo":"IRU","des_condic":"Aguardando analise","municipio":"Cordeiro","dat_criaca":"04/04/2026"},"geometry":{"type":"Polygon","coordinates":[[[-42.2953,-22.0821],[-42.2966,-22.0789],[-42.2943,-22.0784],[-42.2799,-22.0823],[-42.2815,-22.0888],[-42.2778,-22.0923],[-42.2877,-22.0951],[-42.2937,-22.0857],[-42.2953,-22.0821]]]}},{"type":"Feature","properties":{"cod_imovel":"RJ-3301504-8614750584BA4F41B74CF6241BDCA281","mod_fiscal":"6.5848000000000000000000000000000","num_area":"230.46940000000000000000000000000","ind_status":"AT","ind_tipo":"IRU","des_condic":"Aguardando analise","municipio":"Cordeiro","dat_criaca":"28/12/2018"},"geometry":{"type":"Polygon","coordinates":[[[-42.3264,-22.05],[-42.3239,-22.0654],[-42.3287,-22.065],[-42.3294,-22.0617],[-42.3423,-22.0766],[-42.3401,-22.0625],[-42.3327,-22.0555],[-42.3262,-22.0556],[-42.3266,-22.0501],[-42.3264,-22.05]]]}},{"type":"Feature","properties":{"cod_imovel":"RJ-3301504-6EEB97691DB4425E9DCB40C8750CBE90","mod_fiscal":"2.0661000000000000000000000000000","num_area":"72.312900000000000000000000000000","ind_status":"AT","ind_tipo":"IRU","des_condic":"Aguardando analise","municipio":"Cordeiro","dat_criaca":"04/02/2026"},"geometry":{"type":"Polygon","coordinates":[[[-42.4045,-22.0395],[-42.4088,-22.0384],[-42.4089,-22.0316],[-42.403,-22.0303],[-42.4004,-22.0402],[-42.4027,-22.041],[-42.4045,-22.0395]]]}},{"type":"Feature","properties":{"cod_imovel":"RJ-3301504-74D5C290CE694B04A7086A62F75C06BE","mod_fiscal":"1.2158000000000000000000000000000","num_area":"42.551500000000000000000000000000","ind_status":"AT","ind_tipo":"IRU","des_condic":"Aguardando analise","municipio":"Cordeiro","dat_criaca":"20/01/2021"},"geometry":{"type":"Polygon","coordinates":[[[-42.3213,-22.0892],[-42.3175,-22.0853],[-42.3135,-22.0885],[-42.3164,-22.0936],[-42.3202,-22.0897],[-42.3213,-22.0892]]]}},{"type":"Feature","properties":{"cod_imovel":"RJ-3301504-81AB3D93D66244AC8416D0D2E8334CCF","mod_fiscal":"0.2322000000000000000000000000000","num_area":"8.1269000000000000000000000000000","ind_status":"AT","ind_tipo":"IRU","des_condic":"Aguardando analise","municipio":"Cordeiro","dat_criaca":"21/05/2018"},"geometry":{"type":"Polygon","coordinates":[[[-42.3714,-22.0677],[-42.3749,-22.0656],[-42.371,-22.068],[-42.3714,-22.0677]]]}},{"type":"Feature","properties":{"cod_imovel":"RJ-3301108-194D8A225F1448C6B64BAF1966AABED7","mod_fiscal":"0.3936000000000000000000000000000","num_area":"13.775400000000000000000000000000","ind_status":"AT","ind_tipo":"IRU","des_condic":"Aguardando analise","municipio":"Cordeiro","dat_criaca":"11/05/2015"},"geometry":{"type":"Polygon","coordinates":[[[-42.3206,-21.9987],[-42.3257,-22.0003],[-42.3208,-21.9981],[-42.3206,-21.9987]]]}},{"type":"Feature","properties":{"cod_imovel":"RJ-3301504-BE5485204F6B48BE8EAD83DDB6917710","mod_fiscal":"0.1017000000000000000000000000000","num_area":"3.5600000000000000000000000000000","ind_status":"AT","ind_tipo":"IRU","des_condic":"Aguardando analise","municipio":"Cordeiro","dat_criaca":"14/10/2025"},"geometry":{"type":"Polygon","coordinates":[[[-42.3756,-22.0548],[-42.3728,-22.0517],[-42.3754,-22.0548],[-42.3756,-22.0548]]]}},{"type":"Feature","properties":{"cod_imovel":"RJ-3301504-266BAB5F52DA43079EAAC03F2F4F06DE","mod_fiscal":"2.7210000000000000000000000000000","num_area":"95.236700000000000000000000000000","ind_status":"AT","ind_tipo":"IRU","des_condic":"Aguardando analise","municipio":"Cordeiro","dat_criaca":"29/09/2025"},"geometry":{"type":"Polygon","coordinates":[[[-42.3052,-22.0336],[-42.3002,-22.0373],[-42.3075,-22.0414],[-42.3156,-22.0399],[-42.3149,-22.036],[-42.3105,-22.0342],[-42.3052,-22.0336]]]}},{"type":"Feature","properties":{"cod_imovel":"RJ-3301504-D1BBD2AC3AB249B2AC1B0ECD9BB7FEA7","mod_fiscal":"0.3714000000000000000000000000000","num_area":"12.999400000000000000000000000000","ind_status":"AT","ind_tipo":"IRU","des_condic":"Aguardando analise","municipio":"Cordeiro","dat_criaca":"24/09/2025"},"geometry":{"type":"Polygon","coordinates":[[[-42.3781,-22.0515],[-42.3734,-22.0518],[-42.3759,-22.0547],[-42.3778,-22.0515],[-42.3781,-22.0515]]]}},{"type":"Feature","properties":{"cod_imovel":"RJ-3301504-C7E79804C71B488896BBE4686EACE48D","mod_fiscal":"0.0985000000000000000000000000000","num_area":"3.4460000000000000000000000000000","ind_status":"AT","ind_tipo":"IRU","des_condic":"Aguardando analise","municipio":"Cordeiro","dat_criaca":"24/09/2025"},"geometry":{"type":"Polygon","coordinates":[[[-42.3742,-22.0559],[-42.3719,-22.0528],[-42.374,-22.056],[-42.3742,-22.0559]]]}},{"type":"Feature","properties":{"cod_imovel":"RJ-3301504-AE9F15843A5049119E559730672C4780","mod_fiscal":"1.3262000000000000000000000000000","num_area":"46.416000000000000000000000000000","ind_status":"AT","ind_tipo":"IRU","des_condic":"Aguardando analise","municipio":"Cordeiro","dat_criaca":"24/08/2015"},"geometry":{"type":"Polygon","coordinates":[[[-42.3633,-22.0523],[-42.3696,-22.0594],[-42.3726,-22.056],[-42.3667,-22.0474],[-42.364,-22.0518],[-42.3633,-22.0523]]]}},{"type":"Feature","properties":{"cod_imovel":"RJ-3301504-ED895DBFF15542D9B98B7C555D2F5555","mod_fiscal":"0.5274000000000000000000000000000","num_area":"18.459700000000000000000000000000","ind_status":"AT","ind_tipo":"IRU","des_condic":"Aguardando analise","municipio":"Cordeiro","dat_criaca":"22/09/2025"},"geometry":{"type":"Polygon","coordinates":[[[-42.3205,-22.0241],[-42.3158,-22.0256],[-42.3278,-22.0245],[-42.3214,-22.0241],[-42.3205,-22.0241]]]}},{"type":"Feature","properties":{"cod_imovel":"RJ-3301504-9863F12B130A48BD9128AA5A232F22D3","mod_fiscal":"0.1708000000000000000000000000000","num_area":"5.9792000000000000000000000000000","ind_status":"AT","ind_tipo":"IRU","des_condic":"Aguardando analise","municipio":"Cordeiro","dat_criaca":"06/09/2017"},"geometry":{"type":"Polygon","coordinates":[[[-42.2985,-22.1126],[-42.3008,-22.1103],[-42.2985,-22.1103],[-42.2985,-22.1126]]]}},{"type":"Feature","properties":{"cod_imovel":"RJ-3301504-665466BB333840E9BB64F967582796E4","mod_fiscal":"0.4443000000000000000000000000000","num_area":"15.548900000000000000000000000000","ind_status":"AT","ind_tipo":"IRU","des_condic":"Aguardando analise","municipio":"Cordeiro","dat_criaca":"06/09/2017"},"geometry":{"type":"Polygon","coordinates":[[[-42.2786,-22.0963],[-42.2765,-22.0964],[-42.278,-22.0992],[-42.2834,-22.0967],[-42.2786,-22.0963],[-42.2786,-22.0963]]]}},{"type":"Feature","properties":{"cod_imovel":"RJ-3301504-5DD2B52694954D92A84E6C4B3848DF1F","mod_fiscal":"0.0656000000000000000000000000000","num_area":"2.2945000000000000000000000000000","ind_status":"AT","ind_tipo":"IRU","des_condic":"Aguardando analise","municipio":"Cordeiro","dat_criaca":"15/09/2025"},"geometry":{"type":"Polygon","coordinates":[[[-42.373,-22.056],[-42.3721,-22.0534],[-42.3726,-22.056],[-42.373,-22.056]]]}},{"type":"Feature","properties":{"cod_imovel":"RJ-3301504-EFCB9FAD46FD4FFAADBF0DA0CEC866BE","mod_fiscal":"0.2794000000000000000000000000000","num_area":"9.7798000000000000000000000000000","ind_status":"AT","ind_tipo":"IRU","des_condic":"Aguardando analise","municipio":"Cordeiro","dat_criaca":"02/03/2016"},"geometry":{"type":"Polygon","coordinates":[[[-42.3654,-22.054],[-42.3582,-22.0527],[-42.3646,-22.0544],[-42.3654,-22.054]]]}},{"type":"Feature","properties":{"cod_imovel":"RJ-3301504-A03C4BCB6C7F4B1BB9D0FD5F8675D1DC","mod_fiscal":"0.3108000000000000000000000000000","num_area":"10.876400000000000000000000000000","ind_status":"AT","ind_tipo":"IRU","des_condic":"Aguardando analise","municipio":"Cordeiro","dat_criaca":"16/07/2025"},"geometry":{"type":"Polygon","coordinates":[[[-42.3655,-22.0418],[-42.3687,-22.0444],[-42.3706,-22.0416],[-42.3661,-22.0412],[-42.3655,-22.0418]]]}},{"type":"Feature","properties":{"cod_imovel":"RJ-3301504-473E5FFE1050410E868BA794A41119E8","mod_fiscal":"0.3550000000000000000000000000000","num_area":"12.423500000000000000000000000000","ind_status":"AT","ind_tipo":"IRU","des_condic":"Aguardando analise","municipio":"Cordeiro","dat_criaca":"16/07/2025"},"geometry":{"type":"Polygon","coordinates":[[[-42.3446,-22.0924],[-42.3447,-22.0957],[-42.349,-22.0959],[-42.345,-22.0926],[-42.3446,-22.0924]]]}},{"type":"Feature","properties":{"cod_imovel":"RJ-3301504-EADC734697A9449F9AD233A21E88B772","mod_fiscal":"0.1366000000000000000000000000000","num_area":"4.7800000000000000000000000000000","ind_status":"AT","ind_tipo":"IRU","des_condic":"Aguardando analise","municipio":"Cordeiro","dat_criaca":"26/03/2019"},"geometry":{"type":"Polygon","coordinates":[[[-42.3451,-22.0971],[-42.3425,-22.0929],[-42.3449,-22.0973],[-42.3451,-22.0971]]]}},{"type":"Feature","properties":{"cod_imovel":"RJ-3301504-F4A65F0D9CC0436CBC8E60AAD6893B1A","mod_fiscal":"2.6980000000000000000000000000000","num_area":"94.429600000000000000000000000000","ind_status":"AT","ind_tipo":"IRU","des_condic":"Aguardando analise","municipio":"Cordeiro","dat_criaca":"26/06/2016"},"geometry":{"type":"Polygon","coordinates":[[[-42.3297,-22.0171],[-42.3249,-22.0165],[-42.3344,-22.0295],[-42.3368,-22.0181],[-42.3304,-22.0172],[-42.3297,-22.0171]]]}},{"type":"Feature","properties":{"cod_imovel":"RJ-3301504-67FABD3F58C74BFE80CE208F75254E5E","mod_fiscal":"2.6648000000000000000000000000000","num_area":"93.266600000000000000000000000000","ind_status":"AT","ind_tipo":"IRU","des_condic":"Aguardando analise","municipio":"Cordeiro","dat_criaca":"05/05/2016"},"geometry":{"type":"Polygon","coordinates":[[[-42.3901,-22.0503],[-42.3907,-22.0443],[-42.3831,-22.0458],[-42.3779,-22.051],[-42.3805,-22.0541],[-42.3885,-22.0517],[-42.3901,-22.0503]]]}},{"type":"Feature","properties":{"cod_imovel":"RJ-3301504-C2E5DFFF190640F48CD76E65D60DBC5F","mod_fiscal":"0.9244000000000000000000000000000","num_area":"32.355400000000000000000000000000","ind_status":"AT","ind_tipo":"IRU","des_condic":"Aguardando analise","municipio":"Cordeiro","dat_criaca":"06/04/2015"},"geometry":{"type":"Polygon","coordinates":[[[-42.3855,-22.0408],[-42.3839,-22.039],[-42.3803,-22.0434],[-42.3768,-22.0414],[-42.3766,-22.0449],[-42.3804,-22.0437],[-42.3803,-22.0472],[-42.3845,-22.0415],[-42.3855,-22.0408]]]}},{"type":"Feature","properties":{"cod_imovel":"RJ-3301504-9C5B61E1DCBE40BFBD2756DC5D8347A6","mod_fiscal":"2.0338000000000000000000000000000","num_area":"71.182900000000000000000000000000","ind_status":"AT","ind_tipo":"IRU","des_condic":"Aguardando analise","municipio":"Cordeiro","dat_criaca":"21/01/2025"},"geometry":{"type":"Polygon","coordinates":[[[-42.3175,-22.0019],[-42.3189,-22.0058],[-42.3352,-22.0026],[-42.3223,-22.0007],[-42.3187,-21.9975],[-42.3174,-22.0017],[-42.3175,-22.0019]]]}},{"type":"Feature","properties":{"cod_imovel":"RJ-3301504-B461A9007F4A4E8F9559A10C347BF815","mod_fiscal":"0.3923000000000000000000000000000","num_area":"13.729900000000000000000000000000","ind_status":"AT","ind_tipo":"IRU","des_condic":"Aguardando analise","municipio":"Cordeiro","dat_criaca":"29/12/2024"},"geometry":{"type":"Polygon","coordinates":[[[-42.3798,-22.0395],[-42.371,-22.0384],[-42.3713,-22.0414],[-42.3797,-22.0399],[-42.3798,-22.0395]]]}},{"type":"Feature","properties":{"cod_imovel":"RJ-3301504-17BD1D6F71A645F0A626A8FABAF5B2F0","mod_fiscal":"0.0723000000000000000000000000000","num_area":"2.5288000000000000000000000000000","ind_status":"AT","ind_tipo":"IRU","des_condic":"Aguardando analise","municipio":"Cordeiro","dat_criaca":"17/06/2015"},"geometry":{"type":"Polygon","coordinates":[[[-42.3997,-22.0484],[-42.3977,-22.0495],[-42.4,-22.0488],[-42.3997,-22.0484]]]}},{"type":"Feature","properties":{"cod_imovel":"RJ-3301504-0571427FC7534B3BBD35D6C214C8404B","mod_fiscal":"0.3744000000000000000000000000000","num_area":"13.103000000000000000000000000000","ind_status":"AT","ind_tipo":"IRU","des_condic":"Aguardando analise","municipio":"Cordeiro","dat_criaca":"06/10/2014"},"geometry":{"type":"Polygon","coordinates":[[[-42.3556,-22.0486],[-42.3534,-22.0559],[-42.3556,-22.0559],[-42.356,-22.0496],[-42.3556,-22.0486]]]}},{"type":"Feature","properties":{"cod_imovel":"RJ-3301504-0CE3463C58C247CD978F44EC53DFEC69","mod_fiscal":"0.0857000000000000000000000000000","num_area":"3.0000000000000000000000000000000","ind_status":"AT","ind_tipo":"IRU","des_condic":"Aguardando analise","municipio":"Cordeiro","dat_criaca":"13/11/2024"},"geometry":{"type":"Polygon","coordinates":[[[-42.3653,-22.0677],[-42.3633,-22.0668],[-42.3652,-22.0677],[-42.3653,-22.0677]]]}},{"type":"Feature","properties":{"cod_imovel":"RJ-3301504-E4C921E533494B56A39254C5375AF945","mod_fiscal":"0.3239000000000000000000000000000","num_area":"11.335300000000000000000000000000","ind_status":"AT","ind_tipo":"IRU","des_condic":"Aguardando analise","municipio":"Cordeiro","dat_criaca":"31/03/2023"},"geometry":{"type":"Polygon","coordinates":[[[-42.35,-22.0415],[-42.3518,-22.0429],[-42.354,-22.0393],[-42.3497,-22.0413],[-42.35,-22.0415]]]}},{"type":"Feature","properties":{"cod_imovel":"RJ-3301504-79529AE5310F4CA1B8A5862FABFDDA15","mod_fiscal":"0.7775000000000000000000000000000","num_area":"27.212000000000000000000000000000","ind_status":"AT","ind_tipo":"IRU","des_condic":"Aguardando analise","municipio":"Cordeiro","dat_criaca":"17/02/2023"},"geometry":{"type":"Polygon","coordinates":[[[-42.3229,-22.0606],[-42.3199,-22.0655],[-42.3243,-22.0682],[-42.3259,-22.0624],[-42.3232,-22.0608],[-42.3229,-22.0606]]]}},{"type":"Feature","properties":{"cod_imovel":"RJ-3301504-998CB7C941BB4D05A9775D8FD2D7A1E5","mod_fiscal":"3.1890000000000000000000000000000","num_area":"111.61340000000000000000000000000","ind_status":"AT","ind_tipo":"IRU","des_condic":"Aguardando analise","municipio":"Cordeiro","dat_criaca":"05/04/2021"},"geometry":{"type":"Polygon","coordinates":[[[-42.3768,-22.0418],[-42.3705,-22.0417],[-42.372,-22.0467],[-42.3666,-22.0474],[-42.368,-22.0519],[-42.3794,-22.0503],[-42.3805,-22.0438],[-42.3767,-22.0449],[-42.3767,-22.0424],[-42.3768,-22.0418]]]}},{"type":"Feature","properties":{"cod_imovel":"RJ-3301504-3A74E51BBECD489B8088B2F7AB7AE338","mod_fiscal":"1.8546000000000000000000000000000","num_area":"64.912600000000000000000000000000","ind_status":"AT","ind_tipo":"IRU","des_condic":"Aguardando analise","municipio":"Cordeiro","dat_criaca":"03/03/2015"},"geometry":{"type":"Polygon","coordinates":[[[-42.3537,-22.0514],[-42.35,-22.051],[-42.3432,-22.0596],[-42.3502,-22.0598],[-42.3501,-22.0558],[-42.3535,-22.0561],[-42.3542,-22.0526],[-42.3537,-22.0514]]]}},{"type":"Feature","properties":{"cod_imovel":"RJ-3301504-49E6EECDEA904660ABC73384D26826DA","mod_fiscal":"0.5148000000000000000000000000000","num_area":"18.018500000000000000000000000000","ind_status":"AT","ind_tipo":"IRU","des_condic":"Aguardando analise","municipio":"Cordeiro","dat_criaca":"13/04/2016"},"geometry":{"type":"Polygon","coordinates":[[[-42.3197,-22.0217],[-42.3175,-22.024],[-42.3281,-22.023],[-42.3209,-22.0219],[-42.3197,-22.0217]]]}},{"type":"Feature","properties":{"cod_imovel":"RJ-3301504-6D45F9F02EAE4C8CBDBF725640FE0176","mod_fiscal":"3.8841000000000000000000000000000","num_area":"135.94230000000000000000000000000","ind_status":"AT","ind_tipo":"IRU","des_condic":"Aguardando analise","municipio":"Cordeiro","dat_criaca":"05/05/2016"},"geometry":{"type":"Polygon","coordinates":[[[-42.3454,-22.0615],[-42.3435,-22.0556],[-42.3271,-22.0515],[-42.3265,-22.0539],[-42.3401,-22.0623],[-42.3437,-22.0702],[-42.3453,-22.062],[-42.3454,-22.0615]]]}},{"type":"Feature","properties":{"cod_imovel":"RJ-3301504-75DA8FB579F2456991E41F4B0B5B2C05","mod_fiscal":"0.0871000000000000000000000000000","num_area":"3.0476000000000000000000000000000","ind_status":"AT","ind_tipo":"IRU","des_condic":"Aguardando analise","municipio":"Cordeiro","dat_criaca":"11/10/2023"},"geometry":{"type":"Polygon","coordinates":[[[-42.3516,-22.0419],[-42.355,-22.0391],[-42.3518,-22.0415],[-42.3516,-22.0419]]]}},{"type":"Feature","properties":{"cod_imovel":"RJ-3301504-C9D7C9043B444E999586A094DD6BFDB5","mod_fiscal":"2.0168000000000000000000000000000","num_area":"70.587900000000000000000000000000","ind_status":"AT","ind_tipo":"IRU","des_condic":"Aguardando analise","municipio":"Cordeiro","dat_criaca":"12/03/2016"},"geometry":{"type":"Polygon","coordinates":[[[-42.3198,-21.9974],[-42.3178,-21.994],[-42.3194,-22.0078],[-42.3259,-22.0064],[-42.3198,-21.9977],[-42.3198,-21.9974]]]}},{"type":"Feature","properties":{"cod_imovel":"RJ-3301504-60B6CC7D7F26404084201B24A4C67AB5","mod_fiscal":"3.1542000000000000000000000000000","num_area":"110.39710000000000000000000000000","ind_status":"AT","ind_tipo":"IRU","des_condic":"Aguardando analise","municipio":"Cordeiro","dat_criaca":"06/02/2021"},"geometry":{"type":"Polygon","coordinates":[[[-42.3766,-22.075],[-42.3722,-22.069],[-42.3682,-22.0709],[-42.3687,-22.0771],[-42.3648,-22.0815],[-42.3719,-22.0834],[-42.3765,-22.0757],[-42.3766,-22.075]]]}},{"type":"Feature","properties":{"cod_imovel":"RJ-3301504-A6B9D150D0A541D6AA208959B5ACAD6A","mod_fiscal":"0.7301000000000000000000000000000","num_area":"25.554100000000000000000000000000","ind_status":"AT","ind_tipo":"IRU","des_condic":"Aguardando analise","municipio":"Cordeiro","dat_criaca":"11/05/2018"},"geometry":{"type":"Polygon","coordinates":[[[-42.3695,-22.0095],[-42.3694,-22.0155],[-42.3737,-22.0146],[-42.3714,-22.0105],[-42.3695,-22.0095]]]}},{"type":"Feature","properties":{"cod_imovel":"RJ-3301504-94B5BE0BBA6A4BD98864CC845262B0C5","mod_fiscal":"1.6477000000000000000000000000000","num_area":"57.668100000000000000000000000000","ind_status":"AT","ind_tipo":"IRU","des_condic":"Aguardando analise","municipio":"Cordeiro","dat_criaca":"31/12/2020"},"geometry":{"type":"Polygon","coordinates":[[[-42.4047,-22.0406],[-42.4142,-22.0382],[-42.4144,-22.031],[-42.4088,-22.0314],[-42.4087,-22.0384],[-42.4046,-22.0404],[-42.4047,-22.0406]]]}},{"type":"Feature","properties":{"cod_imovel":"RJ-3301504-390A59CE05084048BEA44A9DE39D77E8","mod_fiscal":"0.4668000000000000000000000000000","num_area":"16.339500000000000000000000000000","ind_status":"AT","ind_tipo":"IRU","des_condic":"Aguardando analise","municipio":"Cordeiro","dat_criaca":"28/12/2020"},"geometry":{"type":"Polygon","coordinates":[[[-42.3922,-22.0309],[-42.3942,-22.0308],[-42.3898,-22.0266],[-42.3908,-22.033],[-42.3914,-22.0306],[-42.3922,-22.0309]]]}},{"type":"Feature","properties":{"cod_imovel":"RJ-3301504-6E60C1D757574A65A2A4AB7C3AE0180D","mod_fiscal":"0.1001000000000000000000000000000","num_area":"3.5027000000000000000000000000000","ind_status":"AT","ind_tipo":"IRU","des_condic":"Aguardando analise","municipio":"Cordeiro","dat_criaca":"03/12/2020"},"geometry":{"type":"Polygon","coordinates":[[[-42.3428,-22.092],[-42.3417,-22.0874],[-42.3419,-22.0919],[-42.3428,-22.092]]]}},{"type":"Feature","properties":{"cod_imovel":"RJ-3301504-11391F514F8E4154BC08962E35060EC5","mod_fiscal":"0.8074000000000000000000000000000","num_area":"28.257600000000000000000000000000","ind_status":"AT","ind_tipo":"IRU","des_condic":"Aguardando analise","municipio":"Cordeiro","dat_criaca":"08/03/2019"},"geometry":{"type":"Polygon","coordinates":[[[-42.3751,-22.0656],[-42.371,-22.068],[-42.3727,-22.0706],[-42.3779,-22.0693],[-42.3753,-22.0657],[-42.3751,-22.0656]]]}},{"type":"Feature","properties":{"cod_imovel":"RJ-3301504-8532C7E6718E4FD6A7DF4CAC31509385","mod_fiscal":"0.9681000000000000000000000000000","num_area":"33.882400000000000000000000000000","ind_status":"AT","ind_tipo":"IRU","des_condic":"Aguardando analise","municipio":"Cordeiro","dat_criaca":"28/08/2020"},"geometry":{"type":"Polygon","coordinates":[[[-42.3579,-22.0914],[-42.3576,-22.087],[-42.3496,-22.0866],[-42.3496,-22.0896],[-42.357,-22.0906],[-42.3579,-22.0914]]]}},{"type":"Feature","properties":{"cod_imovel":"RJ-3301504-6C8F6A7152BC45B4AFE9A56A9B638C6B","mod_fiscal":"1.3300000000000000000000000000000","num_area":"44.673400000000000000000000000000","ind_status":"AT","ind_tipo":"IRU","des_condic":"Aguardando analise","municipio":"Cordeiro","dat_criaca":"22/07/2020"},"geometry":{"type":"Polygon","coordinates":[[[-42.4158,-22.0396],[-42.4144,-22.0369],[-42.406,-22.0438],[-42.4143,-22.0452],[-42.4146,-22.0404],[-42.4158,-22.0396]]]}},{"type":"Feature","properties":{"cod_imovel":"RJ-3301504-58FB9F8FB18741F3B8F4BB2B88F660AB","mod_fiscal":"3.8077000000000000000000000000000","num_area":"133.26810000000000000000000000000","ind_status":"AT","ind_tipo":"IRU","des_condic":"Aguardando analise","municipio":"Cordeiro","dat_criaca":"18/06/2020"},"geometry":{"type":"Polygon","coordinates":[[[-42.3199,-22.0307],[-42.3184,-22.043],[-42.3259,-22.0503],[-42.3299,-22.0405],[-42.3214,-22.0327],[-42.3199,-22.0307]]]}},{"type":"Feature","properties":{"cod_imovel":"RJ-3301504-8ADD91373D094D0AB6723E3F6A5FFC1C","mod_fiscal":"0.7569000000000000000000000000000","num_area":"26.490400000000000000000000000000","ind_status":"AT","ind_tipo":"IRU","des_condic":"Aguardando analise","municipio":"Cordeiro","dat_criaca":"20/04/2020"},"geometry":{"type":"Polygon","coordinates":[[[-42.3228,-22.0609],[-42.3199,-22.0588],[-42.3168,-22.0641],[-42.3198,-22.0654],[-42.323,-22.0611],[-42.3228,-22.0609]]]}},{"type":"Feature","properties":{"cod_imovel":"RJ-3301504-F191789486F44A4592CB5573EF66638C","mod_fiscal":"0.1180000000000000000000000000000","num_area":"4.1288000000000000000000000000000","ind_status":"AT","ind_tipo":"IRU","des_condic":"Aguardando analise","municipio":"Cordeiro","dat_criaca":"28/04/2016"},"geometry":{"type":"Polygon","coordinates":[[[-42.354,-22.0302],[-42.3547,-22.0329],[-42.3569,-22.0312],[-42.3537,-22.0294],[-42.354,-22.0302]]]}},{"type":"Feature","properties":{"cod_imovel":"RJ-3301504-CB6C1BC1E2EA4037A648C0C97D026E4D","mod_fiscal":"0.1945000000000000000000000000000","num_area":"6.8058000000000000000000000000000","ind_status":"AT","ind_tipo":"IRU","des_condic":"Aguardando analise","municipio":"Cordeiro","dat_criaca":"25/10/2019"},"geometry":{"type":"Polygon","coordinates":[[[-42.3186,-22.0613],[-42.3153,-22.0649],[-42.3184,-22.0616],[-42.3186,-22.0613]]]}},{"type":"Feature","properties":{"cod_imovel":"RJ-3301504-95178DACDC964F0084372D043D2EEFC2","mod_fiscal":"0.8812000000000000000000000000000","num_area":"30.843200000000000000000000000000","ind_status":"AT","ind_tipo":"IRU","des_condic":"Aguardando analise","municipio":"Cordeiro","dat_criaca":"09/09/2019"},"geometry":{"type":"Polygon","coordinates":[[[-42.35,-22.0504],[-42.3492,-22.0416],[-42.3461,-22.0437],[-42.3474,-22.0507],[-42.35,-22.0508],[-42.35,-22.0504]]]}},{"type":"Feature","properties":{"cod_imovel":"RJ-3301504-0330FBB8A7A14EB1BBEC75CD8705F372","mod_fiscal":"0.7235000000000000000000000000000","num_area":"25.323900000000000000000000000000","ind_status":"AT","ind_tipo":"IRU","des_condic":"Aguardando analise","municipio":"Cordeiro","dat_criaca":"29/05/2019"},"geometry":{"type":"Polygon","coordinates":[[[-42.3469,-22.0271],[-42.3515,-22.0306],[-42.3539,-22.0271],[-42.3485,-22.0267],[-42.3469,-22.0271]]]}},{"type":"Feature","properties":{"cod_imovel":"RJ-3301504-7F8B972B0770455D88AB6DC594B16858","mod_fiscal":"0.1813000000000000000000000000000","num_area":"6.3464000000000000000000000000000","ind_status":"AT","ind_tipo":"IRU","des_condic":"Aguardando analise","municipio":"Cordeiro","dat_criaca":"24/05/2019"},"geometry":{"type":"Polygon","coordinates":[[[-42.3037,-22.0779],[-42.3086,-22.0795],[-42.304,-22.0777],[-42.3037,-22.0779]]]}},{"type":"Feature","properties":{"cod_imovel":"RJ-3301504-D53BEC526E58492894535576D989A9EB","mod_fiscal":"0.1144000000000000000000000000000","num_area":"4.0055000000000000000000000000000","ind_status":"AT","ind_tipo":"IRU","des_condic":"Aguardando analise","municipio":"Cordeiro","dat_criaca":"27/03/2019"},"geometry":{"type":"Polygon","coordinates":[[[-42.3771,-22.0093],[-42.3798,-22.0121],[-42.3773,-22.0092],[-42.3771,-22.0093]]]}},{"type":"Feature","properties":{"cod_imovel":"RJ-3301504-A21D76A09FA041E0BB7EFE46700AA49C","mod_fiscal":"2.6508000000000000000000000000000","num_area":"92.776800000000000000000000000000","ind_status":"AT","ind_tipo":"IRU","des_condic":"Aguardando analise","municipio":"Cordeiro","dat_criaca":"17/01/2019"},"geometry":{"type":"Polygon","coordinates":[[[-42.3135,-22.0477],[-42.3104,-22.0521],[-42.3063,-22.0485],[-42.3075,-22.0449],[-42.3047,-22.0448],[-42.2998,-22.0505],[-42.3132,-22.0556],[-42.3138,-22.0493],[-42.3135,-22.0477]]]}},{"type":"Feature","properties":{"cod_imovel":"RJ-3301504-AF03F9D078264406BECFA3C1504FB3CA","mod_fiscal":"0.6479000000000000000000000000000","num_area":"22.677800000000000000000000000000","ind_status":"AT","ind_tipo":"IRU","des_condic":"Aguardando analise","municipio":"Cordeiro","dat_criaca":"17/01/2019"},"geometry":{"type":"Polygon","coordinates":[[[-42.3872,-22.0286],[-42.3859,-22.0268],[-42.3859,-22.0329],[-42.3906,-22.0339],[-42.3881,-22.0301],[-42.3872,-22.0286]]]}},{"type":"Feature","properties":{"cod_imovel":"RJ-3301504-18511BB9B57D408189DB364360F59A32","mod_fiscal":"2.0417000000000000000000000000000","num_area":"71.460300000000000000000000000000","ind_status":"AT","ind_tipo":"IRU","des_condic":"Aguardando analise","municipio":"Cordeiro","dat_criaca":"14/01/2019"},"geometry":{"type":"Polygon","coordinates":[[[-42.319,-21.997],[-42.3352,-22.0017],[-42.3354,-21.9953],[-42.3191,-21.9968],[-42.319,-21.997]]]}},{"type":"Feature","properties":{"cod_imovel":"RJ-3301504-E2D6000AF5E640C7859CCDB02506D962","mod_fiscal":"0.4876000000000000000000000000000","num_area":"17.067500000000000000000000000000","ind_status":"AT","ind_tipo":"IRU","des_condic":"Aguardando analise","municipio":"Cordeiro","dat_criaca":"02/01/2019"},"geometry":{"type":"Polygon","coordinates":[[[-42.3401,-22.09],[-42.3343,-22.088],[-42.3352,-22.0915],[-42.3402,-22.0911],[-42.3417,-22.0876],[-42.3405,-22.0894],[-42.3401,-22.09]]]}},{"type":"Feature","properties":{"cod_imovel":"RJ-3301504-1ECC0291A50948559C0EC3EC79005F96","mod_fiscal":"1.1143000000000000000000000000000","num_area":"39.002000000000000000000000000000","ind_status":"AT","ind_tipo":"IRU","des_condic":"Aguardando analise","municipio":"Cordeiro","dat_criaca":"23/11/2018"},"geometry":{"type":"Polygon","coordinates":[[[-42.3278,-22.1097],[-42.3325,-22.1097],[-42.3341,-22.1038],[-42.3285,-22.1026],[-42.3278,-22.1097]]]}},{"type":"Feature","properties":{"cod_imovel":"RJ-3301504-3E8909B911BD4AA3AF7A0F7152C61289","mod_fiscal":"1.0014000000000000000000000000000","num_area":"28.232000000000000000000000000000","ind_status":"AT","ind_tipo":"IRU","des_condic":"Aguardando analise","municipio":"Cordeiro","dat_criaca":"03/10/2018"},"geometry":{"type":"Polygon","coordinates":[[[-42.3507,-22.1096],[-42.3483,-22.1016],[-42.3453,-22.1063],[-42.3501,-22.1093],[-42.3507,-22.1096]]]}},{"type":"Feature","properties":{"cod_imovel":"RJ-3301504-2100A67549434C09968EC3603924B66E","mod_fiscal":"0.8617000000000000000000000000000","num_area":"22.877700000000000000000000000000","ind_status":"AT","ind_tipo":"IRU","des_condic":"Aguardando analise","municipio":"Cordeiro","dat_criaca":"14/03/2018"},"geometry":{"type":"Polygon","coordinates":[[[-42.3269,-22.1209],[-42.327,-22.1248],[-42.334,-22.1251],[-42.3271,-22.121],[-42.3269,-22.1209]]]}},{"type":"Feature","properties":{"cod_imovel":"RJ-3301504-0C23D61CF596447695A3E9FBBD368802","mod_fiscal":"0.4151000000000000000000000000000","num_area":"14.529700000000000000000000000000","ind_status":"AT","ind_tipo":"IRU","des_condic":"Aguardando analise","municipio":"Cordeiro","dat_criaca":"02/01/2018"},"geometry":{"type":"Polygon","coordinates":[[[-42.3272,-22.0622],[-42.3239,-22.0606],[-42.3247,-22.0656],[-42.3276,-22.0657],[-42.3272,-22.0622]]]}},{"type":"Feature","properties":{"cod_imovel":"RJ-3301504-334C13C77E46401ABA35956BE8FC4A29","mod_fiscal":"0.2061000000000000000000000000000","num_area":"7.2145000000000000000000000000000","ind_status":"AT","ind_tipo":"IRU","des_condic":"Aguardando analise","municipio":"Cordeiro","dat_criaca":"30/12/2017"},"geometry":{"type":"Polygon","coordinates":[[[-42.3638,-22.0439],[-42.3617,-22.0467],[-42.3636,-22.044],[-42.3638,-22.0439]]]}},{"type":"Feature","properties":{"cod_imovel":"RJ-3301504-B7101D3422CD4AB0B473575723EB887F","mod_fiscal":"0.4272000000000000000000000000000","num_area":"14.952600000000000000000000000000","ind_status":"AT","ind_tipo":"IRU","des_condic":"Aguardando analise","municipio":"Cordeiro","dat_criaca":"30/12/2017"},"geometry":{"type":"Polygon","coordinates":[[[-42.3419,-22.029],[-42.3389,-22.0241],[-42.336,-22.0269],[-42.3419,-22.029]]]}},{"type":"Feature","properties":{"cod_imovel":"RJ-3301504-005D3D9022AC4C35A300E00B475152EC","mod_fiscal":"0.3511000000000000000000000000000","num_area":"12.289200000000000000000000000000","ind_status":"AT","ind_tipo":"IRU","des_condic":"Aguardando analise","municipio":"Cordeiro","dat_criaca":"29/12/2017"},"geometry":{"type":"Polygon","coordinates":[[[-42.3501,-22.0489],[-42.3529,-22.045],[-42.3504,-22.042],[-42.3501,-22.0489]]]}},{"type":"Feature","properties":{"cod_imovel":"RJ-3301504-448D6CBAB3514F6DB04B33FF76197AE3","mod_fiscal":"1.5824000000000000000000000000000","num_area":"55.384600000000000000000000000000","ind_status":"AT","ind_tipo":"IRU","des_condic":"Aguardando analise","municipio":"Cordeiro","dat_criaca":"29/12/2017"},"geometry":{"type":"Polygon","coordinates":[[[-42.3615,-22.0368],[-42.3549,-22.0391],[-42.353,-22.0449],[-42.3613,-22.0435],[-42.3616,-22.037],[-42.3615,-22.0368]]]}},{"type":"Feature","properties":{"cod_imovel":"RJ-3301504-200486B6ECD44488855087FD3EC7CEA5","mod_fiscal":"1.0959000000000000000000000000000","num_area":"38.357100000000000000000000000000","ind_status":"AT","ind_tipo":"IRU","des_condic":"Aguardando analise","municipio":"Cordeiro","dat_criaca":"15/11/2017"},"geometry":{"type":"Polygon","coordinates":[[[-42.3186,-22.0609],[-42.3203,-22.0582],[-42.314,-22.0561],[-42.3172,-22.0673],[-42.3154,-22.0647],[-42.3183,-22.0609],[-42.3186,-22.0609]]]}},{"type":"Feature","properties":{"cod_imovel":"RJ-3301504-E788E8D422D3478DBF19D7EC4834AC25","mod_fiscal":"0.2804000000000000000000000000000","num_area":"9.8149000000000000000000000000000","ind_status":"AT","ind_tipo":"IRU","des_condic":"Aguardando analise","municipio":"Cordeiro","dat_criaca":"15/11/2017"},"geometry":{"type":"Polygon","coordinates":[[[-42.3514,-22.0341],[-42.3504,-22.0317],[-42.3476,-22.035],[-42.3511,-22.0341],[-42.3514,-22.0341]]]}},{"type":"Feature","properties":{"cod_imovel":"RJ-3301504-87C793A52CEF447BA8FB3756D34D4519","mod_fiscal":"0.5406000000000000000000000000000","num_area":"18.921400000000000000000000000000","ind_status":"AT","ind_tipo":"IRU","des_condic":"Aguardando analise","municipio":"Cordeiro","dat_criaca":"04/10/2017"},"geometry":{"type":"Polygon","coordinates":[[[-42.3429,-22.0941],[-42.3387,-22.0966],[-42.3411,-22.1005],[-42.3431,-22.0957],[-42.3429,-22.0941]]]}},{"type":"Feature","properties":{"cod_imovel":"RJ-3301504-46BCBC6483654E87BB643DE32060A7D9","mod_fiscal":"0.4966000000000000000000000000000","num_area":"17.380800000000000000000000000000","ind_status":"AT","ind_tipo":"IRU","des_condic":"Aguardando analise","municipio":"Cordeiro","dat_criaca":"04/10/2017"},"geometry":{"type":"Polygon","coordinates":[[[-42.3399,-22.0971],[-42.3375,-22.1001],[-42.3423,-22.1029],[-42.3406,-22.0973],[-42.3399,-22.0971]]]}},{"type":"Feature","properties":{"cod_imovel":"RJ-3301504-9FD18595C9124AF69DB00BC246BB4162","mod_fiscal":"0.4372000000000000000000000000000","num_area":"15.303700000000000000000000000000","ind_status":"AT","ind_tipo":"IRU","des_condic":"Aguardando analise","municipio":"Cordeiro","dat_criaca":"03/05/2016"},"geometry":{"type":"Polygon","coordinates":[[[-42.3085,-22.0794],[-42.3039,-22.0794],[-42.3059,-22.0828],[-42.3078,-22.0799],[-42.3085,-22.0794]]]}},{"type":"Feature","properties":{"cod_imovel":"RJ-3301504-4E2DD5A278EA495DA88800EBBACD0B68","mod_fiscal":"0.3117000000000000000000000000000","num_area":"10.908300000000000000000000000000","ind_status":"AT","ind_tipo":"IRU","des_condic":"Aguardando analise","municipio":"Cordeiro","dat_criaca":"29/11/2016"},"geometry":{"type":"Polygon","coordinates":[[[-42.3562,-22.0262],[-42.3525,-22.0285],[-42.3565,-22.0272],[-42.3562,-22.0262]]]}},{"type":"Feature","properties":{"cod_imovel":"RJ-3301504-28A366127EF9426CBE52D6AF676031C4","mod_fiscal":"1.8808000000000000000000000000000","num_area":"65.829000000000000000000000000000","ind_status":"AT","ind_tipo":"IRU","des_condic":"Aguardando analise","municipio":"Cordeiro","dat_criaca":"28/07/2016"},"geometry":{"type":"Polygon","coordinates":[[[-42.3073,-22.1106],[-42.3069,-22.1168],[-42.313,-22.1101],[-42.3132,-22.1049],[-42.3078,-22.1039],[-42.3073,-22.1068],[-42.3073,-22.1106]]]}},{"type":"Feature","properties":{"cod_imovel":"RJ-3301504-B844FE92F42D424E82393C20865A69BC","mod_fiscal":"0.3802000000000000000000000000000","num_area":"13.308000000000000000000000000000","ind_status":"AT","ind_tipo":"IRU","des_condic":"Aguardando analise","municipio":"Cordeiro","dat_criaca":"28/07/2016"},"geometry":{"type":"Polygon","coordinates":[[[-42.3249,-22.1091],[-42.3243,-22.1134],[-42.3275,-22.1119],[-42.3249,-22.1091]]]}},{"type":"Feature","properties":{"cod_imovel":"RJ-3301504-22AD211FA56D4630A87F5911DA8FC35F","mod_fiscal":"1.1575000000000000000000000000000","num_area":"40.511500000000000000000000000000","ind_status":"AT","ind_tipo":"IRU","des_condic":"Aguardando analise","municipio":"Cordeiro","dat_criaca":"28/07/2016"},"geometry":{"type":"Polygon","coordinates":[[[-42.3267,-22.1036],[-42.3241,-22.1099],[-42.3304,-22.112],[-42.3285,-22.1035],[-42.3267,-22.1036]]]}},{"type":"Feature","properties":{"cod_imovel":"RJ-3301504-3E5378EA01E544EEB8E16C1FA29A1497","mod_fiscal":"0.1267000000000000000000000000000","num_area":"4.4350000000000000000000000000000","ind_status":"AT","ind_tipo":"IRU","des_condic":"Aguardando analise","municipio":"Cordeiro","dat_criaca":"24/06/2016"},"geometry":{"type":"Polygon","coordinates":[[[-42.3209,-22.1097],[-42.32,-22.1063],[-42.3205,-22.1099],[-42.3209,-22.1097]]]}},{"type":"Feature","properties":{"cod_imovel":"RJ-3301504-D04A0DF9CEE94C73A706D320303471D6","mod_fiscal":"3.8972000000000000000000000000000","num_area":"136.40340000000000000000000000000","ind_status":"AT","ind_tipo":"IRU","des_condic":"Aguardando analise","municipio":"Cordeiro","dat_criaca":"06/06/2016"},"geometry":{"type":"Polygon","coordinates":[[[-42.3365,-22.0423],[-42.3288,-22.0356],[-42.3246,-22.0375],[-42.33,-22.0401],[-42.3291,-22.0458],[-42.3263,-22.0461],[-42.3283,-22.051],[-42.3357,-22.0519],[-42.3382,-22.0432],[-42.3365,-22.0423]]]}},{"type":"Feature","properties":{"cod_imovel":"RJ-3301504-FD2CF9A1D05D4C7E964E54CA4551B986","mod_fiscal":"1.5140000000000000000000000000000","num_area":"44.802500000000000000000000000000","ind_status":"AT","ind_tipo":"IRU","des_condic":"Aguardando analise","municipio":"Cordeiro","dat_criaca":"04/05/2016"},"geometry":{"type":"Polygon","coordinates":[[[-42.3475,-22.1009],[-42.3511,-22.1047],[-42.3588,-22.1002],[-42.3497,-22.0981],[-42.3476,-22.1007],[-42.3475,-22.1009]]]}},{"type":"Feature","properties":{"cod_imovel":"RJ-3301504-B72C3FAFEB734EED800000964DBC90CF","mod_fiscal":"1.7903000000000000000000000000000","num_area":"62.661900000000000000000000000000","ind_status":"AT","ind_tipo":"IRU","des_condic":"Aguardando analise","municipio":"Cordeiro","dat_criaca":"04/05/2016"},"geometry":{"type":"Polygon","coordinates":[[[-42.3665,-22.0678],[-42.3562,-22.0671],[-42.3561,-22.0741],[-42.3649,-22.071],[-42.3653,-22.0684],[-42.3665,-22.0678]]]}},{"type":"Feature","properties":{"cod_imovel":"RJ-3301504-CFCB97710F8B42E5881A4CABBCC5B9DD","mod_fiscal":"0.7273000000000000000000000000000","num_area":"25.454600000000000000000000000000","ind_status":"AT","ind_tipo":"IRU","des_condic":"Aguardando analise","municipio":"Cordeiro","dat_criaca":"04/05/2016"},"geometry":{"type":"Polygon","coordinates":[[[-42.3764,-22.0271],[-42.3803,-22.0264],[-42.3793,-22.0209],[-42.3752,-22.0216],[-42.3758,-22.0245],[-42.3764,-22.0271]]]}},{"type":"Feature","properties":{"cod_imovel":"RJ-3301504-889A7A1594984A94943B66A383B66888","mod_fiscal":"0.1728000000000000000000000000000","num_area":"6.0472000000000000000000000000000","ind_status":"AT","ind_tipo":"IRU","des_condic":"Aguardando analise","municipio":"Cordeiro","dat_criaca":"29/04/2016"},"geometry":{"type":"Polygon","coordinates":[[[-42.354,-22.0913],[-42.3526,-22.0896],[-42.3539,-22.093],[-42.354,-22.0913]]]}},{"type":"Feature","properties":{"cod_imovel":"RJ-3301504-4AE21B61D1B74EAD86C4632EDC09D778","mod_fiscal":"0.5244000000000000000000000000000","num_area":"18.354100000000000000000000000000","ind_status":"AT","ind_tipo":"IRU","des_condic":"Aguardando analise","municipio":"Cordeiro","dat_criaca":"03/05/2016"},"geometry":{"type":"Polygon","coordinates":[[[-42.398,-22.0393],[-42.3952,-22.0358],[-42.3925,-22.0413],[-42.396,-22.0396],[-42.398,-22.0393]]]}},{"type":"Feature","properties":{"cod_imovel":"RJ-3301504-0861FED754724A1E883FD7954612555E","mod_fiscal":"3.9910000000000000000000000000000","num_area":"139.68560000000000000000000000000","ind_status":"AT","ind_tipo":"IRU","des_condic":"Aguardando analise","municipio":"Cordeiro","dat_criaca":"01/05/2016"},"geometry":{"type":"Polygon","coordinates":[[[-42.3454,-22.0355],[-42.341,-22.0359],[-42.3353,-22.0286],[-42.3204,-22.0324],[-42.3362,-22.0423],[-42.345,-22.0359],[-42.3454,-22.0355]]]}},{"type":"Feature","properties":{"cod_imovel":"RJ-3301504-F7A4DB14FFD648C4BD3B7AEF99663A75","mod_fiscal":"2.5617000000000000000000000000000","num_area":"89.661200000000000000000000000000","ind_status":"AT","ind_tipo":"IRU","des_condic":"Aguardando analise","municipio":"Cordeiro","dat_criaca":"01/05/2016"},"geometry":{"type":"Polygon","coordinates":[[[-42.3347,-22.0265],[-42.3405,-22.0349],[-42.3482,-22.0366],[-42.3508,-22.0308],[-42.3359,-22.0264],[-42.3347,-22.0265]]]}},{"type":"Feature","properties":{"cod_imovel":"RJ-3301504-8DB8FD7A091C4A64A33CBCE0E0721B10","mod_fiscal":"4.7338000000000000000000000000000","num_area":"165.68280000000000000000000000000","ind_status":"AT","ind_tipo":"IRU","des_condic":"Aguardando analise","municipio":"Cordeiro","dat_criaca":"01/05/2016"},"geometry":{"type":"Polygon","coordinates":[[[-42.3248,-22.0517],[-42.3261,-22.0455],[-42.33,-22.0433],[-42.3236,-22.0366],[-42.325,-22.0333],[-42.3199,-22.031],[-42.3181,-22.049],[-42.3247,-22.051],[-42.3248,-22.0517]]]}},{"type":"Feature","properties":{"cod_imovel":"RJ-3301504-178D98A2007845A48A9AB88315716A5B","mod_fiscal":"0.3761000000000000000000000000000","num_area":"13.163900000000000000000000000000","ind_status":"AT","ind_tipo":"IRU","des_condic":"Aguardando analise","municipio":"Cordeiro","dat_criaca":"29/04/2016"},"geometry":{"type":"Polygon","coordinates":[[[-42.3381,-22.1168],[-42.3413,-22.115],[-42.3398,-22.113],[-42.3352,-22.115],[-42.3379,-22.1167],[-42.3381,-22.1168]]]}},{"type":"Feature","properties":{"cod_imovel":"RJ-3301504-7B0CA92228D34D48AA05BFCF4AD23DAA","mod_fiscal":"0.1727000000000000000000000000000","num_area":"6.0448000000000000000000000000000","ind_status":"AT","ind_tipo":"IRU","des_condic":"Aguardando analise","municipio":"Cordeiro","dat_criaca":"29/04/2016"},"geometry":{"type":"Polygon","coordinates":[[[-42.355,-22.0938],[-42.3537,-22.0902],[-42.3544,-22.0939],[-42.355,-22.0938]]]}},{"type":"Feature","properties":{"cod_imovel":"RJ-3301504-833A30C4247042B8948BB18020AFCBC3","mod_fiscal":"1.0217000000000000000000000000000","num_area":"35.759000000000000000000000000000","ind_status":"AT","ind_tipo":"IRU","des_condic":"Aguardando analise","municipio":"Cordeiro","dat_criaca":"27/04/2016"},"geometry":{"type":"Polygon","coordinates":[[[-42.3299,-22.017],[-42.3214,-22.0094],[-42.3193,-22.0123],[-42.3247,-22.0172],[-42.3272,-22.0163],[-42.3299,-22.017]]]}},{"type":"Feature","properties":{"cod_imovel":"RJ-3301504-813DF9B915804C049FB2DBB960829FD3","mod_fiscal":"0.7320000000000000000000000000000","num_area":"25.621000000000000000000000000000","ind_status":"AT","ind_tipo":"IRU","des_condic":"Aguardando analise","municipio":"Cordeiro","dat_criaca":"02/05/2016"},"geometry":{"type":"Polygon","coordinates":[[[-42.3986,-22.0484],[-42.3989,-22.0529],[-42.4036,-22.0561],[-42.4006,-22.0505],[-42.3986,-22.0484]]]}},{"type":"Feature","properties":{"cod_imovel":"RJ-3301504-5009C8985F6540DAA4B4A0E6FFEE9ECA","mod_fiscal":"1.1672000000000000000000000000000","num_area":"40.853500000000000000000000000000","ind_status":"AT","ind_tipo":"IRU","des_condic":"Aguardando analise","municipio":"Cordeiro","dat_criaca":"04/04/2016"},"geometry":{"type":"Polygon","coordinates":[[[-42.412,-22.0394],[-42.4118,-22.0307],[-42.4083,-22.0312],[-42.4086,-22.0385],[-42.4041,-22.0398],[-42.4118,-22.0395],[-42.412,-22.0394]]]}},{"type":"Feature","properties":{"cod_imovel":"RJ-3301504-ECB1785D5B094F82A935490B91C18BDC","mod_fiscal":"1.5295000000000000000000000000000","num_area":"53.531200000000000000000000000000","ind_status":"AT","ind_tipo":"IRU","des_condic":"Aguardando analise","municipio":"Cordeiro","dat_criaca":"16/03/2016"},"geometry":{"type":"Polygon","coordinates":[[[-42.3635,-22.0484],[-42.3621,-22.0448],[-42.3573,-22.0437],[-42.355,-22.0467],[-42.3573,-22.0522],[-42.3597,-22.0507],[-42.3635,-22.0484]]]}},{"type":"Feature","properties":{"cod_imovel":"RJ-3301504-D817B934BCD84773A204DD543CF88BEB","mod_fiscal":"3.4788000000000000000000000000000","num_area":"121.75690000000000000000000000000","ind_status":"AT","ind_tipo":"IRU","des_condic":"Aguardando analise","municipio":"Cordeiro","dat_criaca":"09/02/2016"},"geometry":{"type":"Polygon","coordinates":[[[-42.3107,-22.0292],[-42.3106,-22.0236],[-42.306,-22.0232],[-42.2965,-22.029],[-42.2997,-22.0345],[-42.3103,-22.0327],[-42.3107,-22.0292]]]}},{"type":"Feature","properties":{"cod_imovel":"RJ-3301504-18E6CFFC07334F9CABE6B204287CBFA1","mod_fiscal":"0.5274000000000000000000000000000","num_area":"18.459700000000000000000000000000","ind_status":"AT","ind_tipo":"IRU","des_condic":"Aguardando analise","municipio":"Cordeiro","dat_criaca":"12/01/2016"},"geometry":{"type":"Polygon","coordinates":[[[-42.3205,-22.0241],[-42.3158,-22.0256],[-42.3278,-22.0245],[-42.3214,-22.0241],[-42.3205,-22.0241]]]}},{"type":"Feature","properties":{"cod_imovel":"RJ-3301504-EF702320E0504201AC755F4AF83CCBB5","mod_fiscal":"0.1481000000000000000000000000000","num_area":"5.1818000000000000000000000000000","ind_status":"AT","ind_tipo":"IRU","des_condic":"Aguardando analise","municipio":"Cordeiro","dat_criaca":"30/11/2015"},"geometry":{"type":"Polygon","coordinates":[[[-42.364,-22.01],[-42.3607,-22.0085],[-42.3637,-22.0099],[-42.364,-22.01]]]}},{"type":"Feature","properties":{"cod_imovel":"RJ-3301504-598FCB9E144F43198E485E4F28F13ED4","mod_fiscal":"0.5016000000000000000000000000000","num_area":"17.556400000000000000000000000000","ind_status":"AT","ind_tipo":"IRU","des_condic":"Aguardando analise","municipio":"Cordeiro","dat_criaca":"26/04/2016"},"geometry":{"type":"Polygon","coordinates":[[[-42.329,-22.0881],[-42.3267,-22.0864],[-42.3236,-22.0896],[-42.3255,-22.0917],[-42.3281,-22.0889],[-42.329,-22.0881]]]}},{"type":"Feature","properties":{"cod_imovel":"RJ-3301504-8E48D9A8E48E4E09879B70D3CD662E19","mod_fiscal":"2.2633000000000000000000000000000","num_area":"59.807100000000000000000000000000","ind_status":"AT","ind_tipo":"IRU","des_condic":"Aguardando analise","municipio":"Cordeiro","dat_criaca":"27/10/2015"},"geometry":{"type":"Polygon","coordinates":[[[-42.3746,-22.0913],[-42.3645,-22.0883],[-42.3641,-22.0929],[-42.3713,-22.0956],[-42.3744,-22.0919],[-42.3746,-22.0913]]]}},{"type":"Feature","properties":{"cod_imovel":"RJ-3301504-A47EB33D3FC04BF3978CE141203EECF6","mod_fiscal":"4.7331000000000000000000000000000","num_area":"165.65770000000000000000000000000","ind_status":"AT","ind_tipo":"IRU","des_condic":"Aguardando analise","municipio":"Cordeiro","dat_criaca":"18/09/2015"},"geometry":{"type":"Polygon","coordinates":[[[-42.3263,-22.0499],[-42.3298,-22.0404],[-42.3187,-22.0309],[-42.318,-22.0499],[-42.326,-22.0501],[-42.3263,-22.0499]]]}},{"type":"Feature","properties":{"cod_imovel":"RJ-3301504-D12992E12D134D24B1D00D37E15A67FC","mod_fiscal":"1.0237000000000000000000000000000","num_area":"35.830500000000000000000000000000","ind_status":"AT","ind_tipo":"IRU","des_condic":"Aguardando analise","municipio":"Cordeiro","dat_criaca":"18/06/2015"},"geometry":{"type":"Polygon","coordinates":[[[-42.3488,-22.04],[-42.3412,-22.0427],[-42.348,-22.0461],[-42.3492,-22.0409],[-42.3488,-22.04]]]}},{"type":"Feature","properties":{"cod_imovel":"RJ-3301504-AD39F76265024BE389B7B1E26EF737C1","mod_fiscal":"0.2892000000000000000000000000000","num_area":"10.121800000000000000000000000000","ind_status":"AT","ind_tipo":"IRU","des_condic":"Aguardando analise","municipio":"Cordeiro","dat_criaca":"18/06/2015"},"geometry":{"type":"Polygon","coordinates":[[[-42.3274,-22.114],[-42.3256,-22.1099],[-42.3236,-22.1136],[-42.3266,-22.1113],[-42.3274,-22.1137],[-42.3274,-22.114]]]}},{"type":"Feature","properties":{"cod_imovel":"RJ-3301504-B871F2ED82464CF8B7F4D1760A5D27BA","mod_fiscal":"1.1973000000000000000000000000000","num_area":"41.906700000000000000000000000000","ind_status":"AT","ind_tipo":"IRU","des_condic":"Aguardando analise","municipio":"Cordeiro","dat_criaca":"18/06/2015"},"geometry":{"type":"Polygon","coordinates":[[[-42.3199,-22.033],[-42.3116,-22.0276],[-42.3135,-22.0348],[-42.3191,-22.035],[-42.3199,-22.033]]]}},{"type":"Feature","properties":{"cod_imovel":"RJ-3301504-D6EFF14E85B840748CFF649247DFC59B","mod_fiscal":"0.2341000000000000000000000000000","num_area":"8.1923000000000000000000000000000","ind_status":"AT","ind_tipo":"IRU","des_condic":"Aguardando analise","municipio":"Cordeiro","dat_criaca":"17/06/2015"},"geometry":{"type":"Polygon","coordinates":[[[-42.3267,-22.1114],[-42.3242,-22.1148],[-42.327,-22.112],[-42.3267,-22.1114]]]}},{"type":"Feature","properties":{"cod_imovel":"RJ-3301504-878897C896D24BE080921D42FF388F64","mod_fiscal":"0.4486000000000000000000000000000","num_area":"15.701700000000000000000000000000","ind_status":"AT","ind_tipo":"IRU","des_condic":"Aguardando analise","municipio":"Cordeiro","dat_criaca":"20/04/2015"},"geometry":{"type":"Polygon","coordinates":[[[-42.3666,-22.0473],[-42.3642,-22.0448],[-42.3604,-22.0473],[-42.3642,-22.0478],[-42.3666,-22.0473]]]}},{"type":"Feature","properties":{"cod_imovel":"RJ-3301504-E002B0CBCBBB4AA2A377F7965A8F67BF","mod_fiscal":"1.0048000000000000000000000000000","num_area":"35.169300000000000000000000000000","ind_status":"AT","ind_tipo":"IRU","des_condic":"Aguardando analise","municipio":"Cordeiro","dat_criaca":"21/01/2015"},"geometry":{"type":"Polygon","coordinates":[[[-42.3885,-22.0508],[-42.3805,-22.0542],[-42.3921,-22.0571],[-42.3929,-22.0535],[-42.389,-22.0515],[-42.3885,-22.0508]]]}},{"type":"Feature","properties":{"cod_imovel":"RJ-3301504-AD559BF54C2D45DCAEA8CDB53753B81A","mod_fiscal":"0.5342000000000000000000000000000","num_area":"18.696800000000000000000000000000","ind_status":"AT","ind_tipo":"IRU","des_condic":"Aguardando analise","municipio":"Cordeiro","dat_criaca":"01/05/2016"},"geometry":{"type":"Polygon","coordinates":[[[-42.3694,-22.0659],[-42.3678,-22.0638],[-42.3666,-22.0664],[-42.3683,-22.0709],[-42.3715,-22.0685],[-42.3695,-22.0662],[-42.3694,-22.0659]]]}},{"type":"Feature","properties":{"cod_imovel":"RJ-3301504-3F478A51184D4879BABE85679D9FD2C5","mod_fiscal":"1.5059000000000000000000000000000","num_area":"52.706800000000000000000000000000","ind_status":"AT","ind_tipo":"IRU","des_condic":"Aguardando analise","municipio":"Cordeiro","dat_criaca":"01/05/2016"},"geometry":{"type":"Polygon","coordinates":[[[-42.3783,-22.062],[-42.3717,-22.0595],[-42.369,-22.0626],[-42.3701,-22.0663],[-42.3771,-22.0672],[-42.378,-22.0631],[-42.3783,-22.062]]]}},{"type":"Feature","properties":{"cod_imovel":"RJ-3301504-8E1B014FC6934A448011AC3E5D4831CB","mod_fiscal":"0.1811000000000000000000000000000","num_area":"6.3382000000000000000000000000000","ind_status":"AT","ind_tipo":"IRU","des_condic":"Aguardando analise","municipio":"Cordeiro","dat_criaca":"09/11/2020"},"geometry":{"type":"Polygon","coordinates":[[[-42.3074,-22.0785],[-42.3036,-22.0784],[-42.308,-22.0786],[-42.3074,-22.0785]]]}},{"type":"Feature","properties":{"cod_imovel":"RJ-3301504-DF49D9E464B64180ABE2B4182EC9CEB1","mod_fiscal":"0.3450000000000000000000000000000","num_area":"12.076500000000000000000000000000","ind_status":"AT","ind_tipo":"IRU","des_condic":"Aguardando analise","municipio":"Cordeiro","dat_criaca":"16/03/2016"},"geometry":{"type":"Polygon","coordinates":[[[-42.3896,-22.0261],[-42.3873,-22.03],[-42.3895,-22.0272],[-42.3896,-22.0261]]]}},{"type":"Feature","properties":{"cod_imovel":"RJ-3301504-25AFE087A2E94F84AEB965876715C541","mod_fiscal":"0.1229000000000000000000000000000","num_area":"4.3000000000000000000000000000000","ind_status":"AT","ind_tipo":"IRU","des_condic":"Aguardando analise","municipio":"Cordeiro","dat_criaca":"19/09/2022"},"geometry":{"type":"Polygon","coordinates":[[[-42.353,-22.0337],[-42.3528,-22.0295],[-42.3529,-22.0328],[-42.353,-22.0337]]]}},{"type":"Feature","properties":{"cod_imovel":"RJ-3301504-47A4493033A44C2C98C0E7D26F1C12A3","mod_fiscal":"0.0857000000000000000000000000000","num_area":"3.0000000000000000000000000000000","ind_status":"AT","ind_tipo":"IRU","des_condic":"Aguardando analise","municipio":"Cordeiro","dat_criaca":"05/08/2021"},"geometry":{"type":"Polygon","coordinates":[[[-42.3339,-22.0157],[-42.331,-22.017],[-42.3342,-22.0166],[-42.3339,-22.0157]]]}},{"type":"Feature","properties":{"cod_imovel":"RJ-3301504-EE0A829A5A114282A97DCD2E66F108FC","mod_fiscal":"2.8931000000000000000000000000000","num_area":"101.25940000000000000000000000000","ind_status":"AT","ind_tipo":"IRU","des_condic":"Aguardando analise","municipio":"Cordeiro","dat_criaca":"25/03/2021"},"geometry":{"type":"Polygon","coordinates":[[[-42.3169,-22.0735],[-42.3263,-22.0748],[-42.3299,-22.0657],[-42.3263,-22.065],[-42.3242,-22.0682],[-42.3173,-22.0643],[-42.3171,-22.0691],[-42.3169,-22.0735]]]}},{"type":"Feature","properties":{"cod_imovel":"RJ-3301504-16820D7778DC446FBC8097431F27977A","mod_fiscal":"0.6344000000000000000000000000000","num_area":"22.203100000000000000000000000000","ind_status":"AT","ind_tipo":"IRU","des_condic":"Aguardando analise","municipio":"Cordeiro","dat_criaca":"22/01/2021"},"geometry":{"type":"Polygon","coordinates":[[[-42.3129,-22.088],[-42.3175,-22.0853],[-42.3164,-22.0833],[-42.3122,-22.0872],[-42.3129,-22.088]]]}},{"type":"Feature","properties":{"cod_imovel":"RJ-3301504-9E411069BBE84E458A1A0EB92756AE09","mod_fiscal":"0.1848000000000000000000000000000","num_area":"6.4670000000000000000000000000000","ind_status":"AT","ind_tipo":"IRU","des_condic":"Aguardando analise","municipio":"Cordeiro","dat_criaca":"29/05/2019"},"geometry":{"type":"Polygon","coordinates":[[[-42.3688,-22.054],[-42.3663,-22.0475],[-42.3682,-22.054],[-42.3688,-22.054]]]}},{"type":"Feature","properties":{"cod_imovel":"RJ-3301504-C44B08759F924DB8A2DFCC5AB6B6643F","mod_fiscal":"0.4685000000000000000000000000000","num_area":"16.397700000000000000000000000000","ind_status":"AT","ind_tipo":"IRU","des_condic":"Aguardando analise","municipio":"Cordeiro","dat_criaca":"30/12/2017"},"geometry":{"type":"Polygon","coordinates":[[[-42.3605,-22.0473],[-42.3589,-22.0436],[-42.3549,-22.0462],[-42.3599,-22.0466],[-42.3605,-22.0473]]]}},{"type":"Feature","properties":{"cod_imovel":"RJ-3301504-38A8F855C03241CC92E5BFF22A0B7EB9","mod_fiscal":"0.4684000000000000000000000000000","num_area":"16.392600000000000000000000000000","ind_status":"AT","ind_tipo":"IRU","des_condic":"Aguardando analise","municipio":"Cordeiro","dat_criaca":"04/05/2016"},"geometry":{"type":"Polygon","coordinates":[[[-42.3772,-22.0563],[-42.3727,-22.056],[-42.3754,-22.0595],[-42.3772,-22.0571],[-42.3772,-22.0563]]]}},{"type":"Feature","properties":{"cod_imovel":"RJ-3301504-17D63DB745F14D18A4CC643ADB4E22D0","mod_fiscal":"0.5749000000000000000000000000000","num_area":"20.120800000000000000000000000000","ind_status":"AT","ind_tipo":"IRU","des_condic":"Aguardando analise","municipio":"Cordeiro","dat_criaca":"03/05/2016"},"geometry":{"type":"Polygon","coordinates":[[[-42.3711,-22.0589],[-42.3691,-22.057],[-42.3649,-22.0617],[-42.3674,-22.0635],[-42.3711,-22.0589]]]}},{"type":"Feature","properties":{"cod_imovel":"RJ-3301504-1B6F97FBB63E45978CC1E3EF145CF3F7","mod_fiscal":"1.0490000000000000000000000000000","num_area":"36.715100000000000000000000000000","ind_status":"AT","ind_tipo":"IRU","des_condic":"Aguardando analise","municipio":"Cordeiro","dat_criaca":"02/05/2016"},"geometry":{"type":"Polygon","coordinates":[[[-42.3175,-22.0152],[-42.3198,-22.0141],[-42.3158,-22.0133],[-42.3146,-22.0228],[-42.3191,-22.0212],[-42.3179,-22.0154],[-42.3175,-22.0152]]]}},{"type":"Feature","properties":{"cod_imovel":"RJ-3301504-F17A48FDF13E4F3CB1CD2C225FEA643E","mod_fiscal":"0.7857000000000000000000000000000","num_area":"27.498900000000000000000000000000","ind_status":"AT","ind_tipo":"IRU","des_condic":"Aguardando analise","municipio":"Cordeiro","dat_criaca":"01/05/2016"},"geometry":{"type":"Polygon","coordinates":[[[-42.3338,-22.0296],[-42.3278,-22.0239],[-42.3237,-22.0248],[-42.3332,-22.0299],[-42.3338,-22.0296]]]}},{"type":"Feature","properties":{"cod_imovel":"RJ-3301504-D1624168F93A4F2096A960C21023C9C5","mod_fiscal":"1.9456000000000000000000000000000","num_area":"68.096400000000000000000000000000","ind_status":"AT","ind_tipo":"IRU","des_condic":"Aguardando analise","municipio":"Cordeiro","dat_criaca":"01/05/2016"},"geometry":{"type":"Polygon","coordinates":[[[-42.3421,-22.0521],[-42.3432,-22.058],[-42.3474,-22.0548],[-42.3468,-22.0463],[-42.343,-22.0418],[-42.3417,-22.0451],[-42.3421,-22.0521]]]}},{"type":"Feature","properties":{"cod_imovel":"RJ-3301504-2036AC9925044E41A34B9F01D6834C86","mod_fiscal":"1.3802000000000000000000000000000","num_area":"48.307000000000000000000000000000","ind_status":"AT","ind_tipo":"IRU","des_condic":"Aguardando analise","municipio":"Cordeiro","dat_criaca":"11/02/2016"},"geometry":{"type":"Polygon","coordinates":[[[-42.3044,-22.1017],[-42.297,-22.1004],[-42.3008,-22.1093],[-42.3031,-22.104],[-42.3044,-22.1017]]]}},{"type":"Feature","properties":{"cod_imovel":"RJ-3301504-0E2A559BD72D49D8B1B53949596C58BB","mod_fiscal":"0.7766000000000000000000000000000","num_area":"27.179400000000000000000000000000","ind_status":"AT","ind_tipo":"IRU","des_condic":"Aguardando analise","municipio":"Cordeiro","dat_criaca":"01/04/2016"},"geometry":{"type":"Polygon","coordinates":[[[-42.3621,-22.056],[-42.3579,-22.0555],[-42.3576,-22.0599],[-42.3635,-22.0602],[-42.3636,-22.0562],[-42.3621,-22.056]]]}},{"type":"Feature","properties":{"cod_imovel":"RJ-3301504-B9F31F5FAA7040C6BCCA9A8FAA36B5E6","mod_fiscal":"0.9626000000000000000000000000000","num_area":"33.691700000000000000000000000000","ind_status":"AT","ind_tipo":"IRU","des_condic":"Aguardando analise","municipio":"Cordeiro","dat_criaca":"31/03/2016"},"geometry":{"type":"Polygon","coordinates":[[[-42.3386,-22.1148],[-42.3375,-22.1101],[-42.332,-22.1121],[-42.3324,-22.1148],[-42.3374,-22.1149],[-42.3386,-22.1148]]]}},{"type":"Feature","properties":{"cod_imovel":"RJ-3301504-71DA2B1C83954E6C97AE3C5C8C90B3D1","mod_fiscal":"0.4506000000000000000000000000000","num_area":"15.769400000000000000000000000000","ind_status":"AT","ind_tipo":"IRU","des_condic":"Aguardando analise","municipio":"Cordeiro","dat_criaca":"03/02/2016"},"geometry":{"type":"Polygon","coordinates":[[[-42.3073,-22.0863],[-42.309,-22.0838],[-42.3025,-22.0806],[-42.3067,-22.086],[-42.3073,-22.0863]]]}},{"type":"Feature","properties":{"cod_imovel":"RJ-3301504-980CF6CEBDED42CCB647B45EB15B041E","mod_fiscal":"3.8979000000000000000000000000000","num_area":"136.42800000000000000000000000000","ind_status":"AT","ind_tipo":"IRU","des_condic":"Aguardando analise","municipio":"Cordeiro","dat_criaca":"29/01/2016"},"geometry":{"type":"Polygon","coordinates":[[[-42.3261,-22.0501],[-42.3359,-22.0517],[-42.3379,-22.0435],[-42.326,-22.0349],[-42.3244,-22.0377],[-42.3299,-22.0424],[-42.3265,-22.0498],[-42.3261,-22.0501]]]}},{"type":"Feature","properties":{"cod_imovel":"RJ-3301504-EF52D9E49C6E4D9CA7F9C693C7F9F174","mod_fiscal":"0.3177000000000000000000000000000","num_area":"9.5461000000000000000000000000000","ind_status":"AT","ind_tipo":"IRU","des_condic":"Aguardando analise","municipio":"Cordeiro","dat_criaca":"18/08/2015"},"geometry":{"type":"Polygon","coordinates":[[[-42.345,-22.1087],[-42.3441,-22.1129],[-42.3475,-22.11],[-42.3456,-22.109],[-42.345,-22.1087]]]}},{"type":"Feature","properties":{"cod_imovel":"RJ-3301504-E6F91BD75D884464B4BF46D4C93BD2C1","mod_fiscal":"0.5052000000000000000000000000000","num_area":"17.681300000000000000000000000000","ind_status":"AT","ind_tipo":"IRU","des_condic":"Aguardando analise","municipio":"Cordeiro","dat_criaca":"29/07/2015"},"geometry":{"type":"Polygon","coordinates":[[[-42.3677,-22.0645],[-42.3639,-22.0631],[-42.3608,-22.0665],[-42.3677,-22.0654],[-42.3677,-22.0645]]]}},{"type":"Feature","properties":{"cod_imovel":"RJ-3301504-4091344A3E6B499F9127C369676FC9EF","mod_fiscal":"0.1403000000000000000000000000000","num_area":"4.9100000000000000000000000000000","ind_status":"AT","ind_tipo":"IRU","des_condic":"Aguardando analise","municipio":"Cordeiro","dat_criaca":"27/07/2015"},"geometry":{"type":"Polygon","coordinates":[[[-42.3931,-22.0319],[-42.3911,-22.0309],[-42.3926,-22.0324],[-42.3931,-22.0319]]]}},{"type":"Feature","properties":{"cod_imovel":"RJ-3301504-496E477658BC400C980301F48CA8906C","mod_fiscal":"0.7384000000000000000000000000000","num_area":"25.842400000000000000000000000000","ind_status":"AT","ind_tipo":"IRU","des_condic":"Aguardando analise","municipio":"Cordeiro","dat_criaca":"18/08/2015"},"geometry":{"type":"Polygon","coordinates":[[[-42.3409,-22.1058],[-42.3444,-22.1057],[-42.3397,-22.1019],[-42.3386,-22.108],[-42.3407,-22.1057],[-42.3409,-22.1058]]]}},{"type":"Feature","properties":{"cod_imovel":"RJ-3301504-A9978217B2084D6C88C52F05A4799DCE","mod_fiscal":"1.0657000000000000000000000000000","num_area":"37.300100000000000000000000000000","ind_status":"AT","ind_tipo":"IRU","des_condic":"Aguardando analise","municipio":"Cordeiro","dat_criaca":"28/10/2015"},"geometry":{"type":"Polygon","coordinates":[[[-42.3852,-22.013],[-42.392,-22.0129],[-42.3894,-22.0063],[-42.3857,-22.0125],[-42.3852,-22.013]]]}},{"type":"Feature","properties":{"cod_imovel":"RJ-3301504-30DBEB7B46874C958198B493E0817887","mod_fiscal":"0.0288000000000000000000000000000","num_area":"1.0084000000000000000000000000000","ind_status":"AT","ind_tipo":"IRU","des_condic":"Aguardando analise","municipio":"Cordeiro","dat_criaca":"06/04/2021"},"geometry":{"type":"Polygon","coordinates":[[[-42.3994,-22.0379],[-42.4006,-22.0399],[-42.3991,-22.0377],[-42.3994,-22.0379]]]}},{"type":"Feature","properties":{"cod_imovel":"RJ-3301504-97D2DF4D74BA4E92BFBA513A8A0FB393","mod_fiscal":"0.0857000000000000000000000000000","num_area":"3.0000000000000000000000000000000","ind_status":"AT","ind_tipo":"IRU","des_condic":"Aguardando analise","municipio":"Cordeiro","dat_criaca":"06/10/2021"},"geometry":{"type":"Polygon","coordinates":[[[-42.3281,-22.0155],[-42.3303,-22.0114],[-42.3279,-22.0154],[-42.3281,-22.0155]]]}},{"type":"Feature","properties":{"cod_imovel":"RJ-3301504-984B3EACD4794BE894A7C0F359D61FFE","mod_fiscal":"0.0889000000000000000000000000000","num_area":"3.1101000000000000000000000000000","ind_status":"AT","ind_tipo":"IRU","des_condic":"Aguardando analise","municipio":"Cordeiro","dat_criaca":"03/03/2022"},"geometry":{"type":"Polygon","coordinates":[[[-42.3314,-22.0168],[-42.3349,-22.0164],[-42.331,-22.017],[-42.3314,-22.0168]]]}},{"type":"Feature","properties":{"cod_imovel":"RJ-3301504-97A3E8DF430D44DA9E1C8BA59035F85B","mod_fiscal":"0.9321000000000000000000000000000","num_area":"32.622400000000000000000000000000","ind_status":"AT","ind_tipo":"IRU","des_condic":"Aguardando analise","municipio":"Cordeiro","dat_criaca":"22/01/2022"},"geometry":{"type":"Polygon","coordinates":[[[-42.3969,-22.0362],[-42.4045,-22.0307],[-42.4026,-22.0279],[-42.3962,-22.036],[-42.3969,-22.0362]]]}},{"type":"Feature","properties":{"cod_imovel":"RJ-3301504-F0848A98D99D40148B26E37228964C49","mod_fiscal":"0.4830000000000000000000000000000","num_area":"16.903500000000000000000000000000","ind_status":"CA","ind_tipo":"IRU","des_condic":"Cancelado por duplicidade","municipio":"Cordeiro","dat_criaca":"05/05/2016"},"geometry":{"type":"Polygon","coordinates":[[[-42.3046,-22.0772],[-42.3084,-22.08],[-42.3108,-22.0761],[-42.3048,-22.077],[-42.3046,-22.0772]]]}},{"type":"Feature","properties":{"cod_imovel":"RJ-3301504-07CD2AE33C9A410AA0C727959FD9C171","mod_fiscal":"7.8421000000000000000000000000000","num_area":"274.47460000000000000000000000000","ind_status":"AT","ind_tipo":"IRU","des_condic":"Aguardando analise","municipio":"Cordeiro","dat_criaca":"05/05/2016"},"geometry":{"type":"Polygon","coordinates":[[[-42.3013,-22.0562],[-42.3031,-22.074],[-42.3107,-22.074],[-42.3158,-22.0681],[-42.3136,-22.0556],[-42.3028,-22.051],[-42.3022,-22.0547],[-42.3013,-22.0562]]]}},{"type":"Feature","properties":{"cod_imovel":"RJ-3301504-6C3FBE86A31949FC9E497C5A4FD7F92A","mod_fiscal":"1.6113000000000000000000000000000","num_area":"56.395500000000000000000000000000","ind_status":"AT","ind_tipo":"IRU","des_condic":"Aguardando analise","municipio":"Cordeiro","dat_criaca":"01/08/2024"},"geometry":{"type":"Polygon","coordinates":[[[-42.3802,-22.0115],[-42.3809,-22.0146],[-42.3849,-22.0138],[-42.3893,-22.0064],[-42.3851,-22.0048],[-42.3803,-22.0114],[-42.3802,-22.0115]]]}},{"type":"Feature","properties":{"cod_imovel":"RJ-3301504-B60AAD0E375047A19B31AC27389727F9","mod_fiscal":"0.4540000000000000000000000000000","num_area":"15.866600000000000000000000000000","ind_status":"AT","ind_tipo":"IRU","des_condic":"Aguardando analise","municipio":"Cordeiro","dat_criaca":"28/07/2024"},"geometry":{"type":"Polygon","coordinates":[[[-42.3193,-22.108],[-42.3178,-22.1109],[-42.3215,-22.1133],[-42.3197,-22.1087],[-42.3193,-22.108]]]}},{"type":"Feature","properties":{"cod_imovel":"RJ-3301504-D1F3542AA64C40AB98B17D7EAAB39AE4","mod_fiscal":"2.5538000000000000000000000000000","num_area":"89.383900000000000000000000000000","ind_status":"AT","ind_tipo":"IRU","des_condic":"Aguardando analise","municipio":"Cordeiro","dat_criaca":"04/05/2016"},"geometry":{"type":"Polygon","coordinates":[[[-42.3082,-22.0934],[-42.3087,-22.0857],[-42.3005,-22.0856],[-42.3002,-22.0986],[-42.3082,-22.0935],[-42.3082,-22.0934]]]}},{"type":"Feature","properties":{"cod_imovel":"RJ-3301504-701E9DDE1FB04F3A87E9B64222E49441","mod_fiscal":"2.4138000000000000000000000000000","num_area":"84.482100000000000000000000000000","ind_status":"AT","ind_tipo":"IRU","des_condic":"Aguardando analise","municipio":"Cordeiro","dat_criaca":"16/06/2024"},"geometry":{"type":"Polygon","coordinates":[[[-42.3772,-22.0309],[-42.383,-22.033],[-42.3831,-22.0263],[-42.3918,-22.024],[-42.3805,-22.0263],[-42.3824,-22.0283],[-42.38,-22.0304],[-42.3789,-22.0263],[-42.3718,-22.0262],[-42.3696,-22.0324],[-42.3773,-22.0307],[-42.3772,-22.0309]]]}},{"type":"Feature","properties":{"cod_imovel":"RJ-3301504-C34CABB3CB274BF9A7A34E8188F4EA4D","mod_fiscal":"3.7817000000000000000000000000000","num_area":"116.50080000000000000000000000000","ind_status":"AT","ind_tipo":"IRU","des_condic":"Aguardando analise","municipio":"Cordeiro","dat_criaca":"29/03/2024"},"geometry":{"type":"Polygon","coordinates":[[[-42.4033,-22.0461],[-42.392,-22.0447],[-42.389,-22.0511],[-42.3913,-22.0529],[-42.4002,-22.0471],[-42.4007,-22.0502],[-42.4071,-22.0471],[-42.4136,-22.0519],[-42.4153,-22.0498],[-42.4144,-22.0452],[-42.4066,-22.0445],[-42.4038,-22.0472],[-42.4033,-22.0461]]]}},{"type":"Feature","properties":{"cod_imovel":"RJ-3301504-4C777E96B57E404CB78DD627F7DFB216","mod_fiscal":"0.7760000000000000000000000000000","num_area":"27.160600000000000000000000000000","ind_status":"AT","ind_tipo":"IRU","des_condic":"Aguardando analise","municipio":"Cordeiro","dat_criaca":"22/01/2021"},"geometry":{"type":"Polygon","coordinates":[[[-42.3112,-22.0808],[-42.309,-22.0809],[-42.3107,-22.0868],[-42.3152,-22.0828],[-42.3118,-22.0804],[-42.3112,-22.0808]]]}},{"type":"Feature","properties":{"cod_imovel":"RJ-3301504-040CEC11DAA7459F9947C56E8F5357CE","mod_fiscal":"2.0993000000000000000000000000000","num_area":"73.475500000000000000000000000000","ind_status":"AT","ind_tipo":"IRU","des_condic":"Aguardando analise","municipio":"Cordeiro","dat_criaca":"10/05/2021"},"geometry":{"type":"Polygon","coordinates":[[[-42.403,-22.0451],[-42.4044,-22.0472],[-42.4052,-22.0435],[-42.4004,-22.0391],[-42.3908,-22.0439],[-42.4005,-22.0454],[-42.403,-22.0451]]]}},{"type":"Feature","properties":{"cod_imovel":"RJ-3301504-4748114A4DDA4D698B484F73D8885B55","mod_fiscal":"2.0993000000000000000000000000000","num_area":"73.475500000000000000000000000000","ind_status":"AT","ind_tipo":"IRU","des_condic":"Aguardando analise","municipio":"Cordeiro","dat_criaca":"12/12/2021"},"geometry":{"type":"Polygon","coordinates":[[[-42.403,-22.0451],[-42.4044,-22.0472],[-42.4052,-22.0435],[-42.4004,-22.0391],[-42.3908,-22.0439],[-42.4005,-22.0454],[-42.403,-22.0451]]]}},{"type":"Feature","properties":{"cod_imovel":"RJ-3301504-F9A3C8A1C3F04B79ABC45AEFB650B1B2","mod_fiscal":"0.2083000000000000000000000000000","num_area":"7.2910000000000000000000000000000","ind_status":"AT","ind_tipo":"IRU","des_condic":"Aguardando analise","municipio":"Cordeiro","dat_criaca":"27/08/2021"},"geometry":{"type":"Polygon","coordinates":[[[-42.3038,-22.0802],[-42.3092,-22.0809],[-42.3033,-22.08],[-42.3038,-22.0802]]]}},{"type":"Feature","properties":{"cod_imovel":"RJ-3301504-3412FF3C1D564CDB8D73C32628EEDDAC","mod_fiscal":"1.5297000000000000000000000000000","num_area":"53.540300000000000000000000000000","ind_status":"AT","ind_tipo":"IRU","des_condic":"Aguardando analise","municipio":"Cordeiro","dat_criaca":"22/10/2016"},"geometry":{"type":"Polygon","coordinates":[[[-42.3649,-22.0621],[-42.3541,-22.0636],[-42.3609,-22.0668],[-42.3644,-22.0626],[-42.3649,-22.0621]]]}},{"type":"Feature","properties":{"cod_imovel":"RJ-3301504-87A7A1C4F16043A88F200B02D08EB657","mod_fiscal":"0.3270000000000000000000000000000","num_area":"11.445000000000000000000000000000","ind_status":"AT","ind_tipo":"IRU","des_condic":"Aguardando analise","municipio":"Cordeiro","dat_criaca":"24/08/2023"},"geometry":{"type":"Polygon","coordinates":[[[-42.3656,-22.0055],[-42.3606,-22.0044],[-42.3605,-22.0071],[-42.3646,-22.0059],[-42.3656,-22.0055]]]}},{"type":"Feature","properties":{"cod_imovel":"RJ-3301504-484F127659714375B071FEA2C8E8D47F","mod_fiscal":"1.6678000000000000000000000000000","num_area":"58.373100000000000000000000000000","ind_status":"AT","ind_tipo":"IRU","des_condic":"Em analise","municipio":"Cordeiro","dat_criaca":"13/10/2014"},"geometry":{"type":"Polygon","coordinates":[[[-42.3187,-22.0811],[-42.3128,-22.0809],[-42.3236,-22.0894],[-42.3271,-22.0862],[-42.3198,-22.0818],[-42.3187,-22.0811]]]}},{"type":"Feature","properties":{"cod_imovel":"RJ-3301504-14BAE513634A41E7B4E1CDE7CAB749CC","mod_fiscal":"1.6007000000000000000000000000000","num_area":"56.019600000000000000000000000000","ind_status":"AT","ind_tipo":"IRU","des_condic":"Aguardando analise","municipio":"Cordeiro","dat_criaca":"18/08/2015"},"geometry":{"type":"Polygon","coordinates":[[[-42.3386,-22.108],[-42.3427,-22.1163],[-42.3465,-22.1068],[-42.3398,-22.1071],[-42.3386,-22.108]]]}},{"type":"Feature","properties":{"cod_imovel":"RJ-3301504-92EC243620074BC3A51EAD6BB534F3B1","mod_fiscal":"1.1374000000000000000000000000000","num_area":"39.808500000000000000000000000000","ind_status":"AT","ind_tipo":"IRU","des_condic":"Aguardando analise","municipio":"Cordeiro","dat_criaca":"12/07/2016"},"geometry":{"type":"Polygon","coordinates":[[[-42.2771,-22.0894],[-42.2767,-22.082],[-42.2719,-22.0894],[-42.2772,-22.0921],[-42.2772,-22.0897],[-42.2771,-22.0894]]]}},{"type":"Feature","properties":{"cod_imovel":"RJ-3301504-0CF336DA2CE04E8CB2E7D4E5329E388A","mod_fiscal":"5.9512000000000000000000000000000","num_area":"208.29200000000000000000000000000","ind_status":"CA","ind_tipo":"IRU","des_condic":"Cancelado por decisao administrativa","municipio":"Cordeiro","dat_criaca":"28/04/2016"},"geometry":{"type":"Polygon","coordinates":[[[-42.3497,-21.9998],[-42.3426,-22.0023],[-42.3355,-21.9988],[-42.3344,-22.0162],[-42.35,-22.0146],[-42.3445,-22.009],[-42.3468,-22.0032],[-42.3533,-22.0061],[-42.3495,-22.0002],[-42.3497,-21.9998]]]}},{"type":"Feature","properties":{"cod_imovel":"RJ-3301504-4DACB7895AD54EF688E67C3B8ACFD59D","mod_fiscal":"1.5201000000000000000000000000000","num_area":"53.203500000000000000000000000000","ind_status":"AT","ind_tipo":"IRU","des_condic":"Aguardando analise","municipio":"Cordeiro","dat_criaca":"31/05/2018"},"geometry":{"type":"Polygon","coordinates":[[[-42.3161,-22.0788],[-42.3122,-22.0724],[-42.3071,-22.0743],[-42.3108,-22.0764],[-42.3091,-22.0823],[-42.3132,-22.0804],[-42.3161,-22.0788]]]}},{"type":"Feature","properties":{"cod_imovel":"RJ-3301504-C14B92DD431F4286A0412680B635E676","mod_fiscal":"0.1556000000000000000000000000000","num_area":"5.4450000000000000000000000000000","ind_status":"AT","ind_tipo":"IRU","des_condic":"Aguardando analise","municipio":"Cordeiro","dat_criaca":"06/11/2015"},"geometry":{"type":"Polygon","coordinates":[[[-42.3653,-22.0094],[-42.3616,-22.0071],[-42.3645,-22.009],[-42.3653,-22.0094]]]}},{"type":"Feature","properties":{"cod_imovel":"RJ-3301504-5857D98B6B7441A2AF6AB5BAD2F8A452","mod_fiscal":"1.5776000000000000000000000000000","num_area":"55.217300000000000000000000000000","ind_status":"AT","ind_tipo":"IRU","des_condic":"Aguardando analise","municipio":"Cordeiro","dat_criaca":"05/05/2016"},"geometry":{"type":"Polygon","coordinates":[[[-42.3223,-22.0209],[-42.3272,-22.0204],[-42.322,-22.0127],[-42.3173,-22.0144],[-42.3194,-22.0209],[-42.3223,-22.0209]]]}},{"type":"Feature","properties":{"cod_imovel":"RJ-3301504-FA4D4634BF294875AAA139D4C698CC14","mod_fiscal":"0.9433000000000000000000000000000","num_area":"33.013800000000000000000000000000","ind_status":"AT","ind_tipo":"IRU","des_condic":"Aguardando analise","municipio":"Cordeiro","dat_criaca":"28/04/2016"},"geometry":{"type":"Polygon","coordinates":[[[-42.3384,-22.1076],[-42.338,-22.0992],[-42.3333,-22.0976],[-42.3373,-22.1077],[-42.3384,-22.1076]]]}},{"type":"Feature","properties":{"cod_imovel":"RJ-3301504-11A63FF3EF3E47F193414CD5ECA37982","mod_fiscal":"7.0536000000000000000000000000000","num_area":"246.87480000000000000000000000000","ind_status":"AT","ind_tipo":"IRU","des_condic":"Aguardando analise","municipio":"Cordeiro","dat_criaca":"26/04/2016"},"geometry":{"type":"Polygon","coordinates":[[[-42.3496,-22.0716],[-42.3614,-22.07],[-42.3569,-22.0558],[-42.3492,-22.056],[-42.3457,-22.0593],[-42.3459,-22.0702],[-42.3496,-22.0716]]]}},{"type":"Feature","properties":{"cod_imovel":"RJ-3301504-121335439E9A47CA928AC5F6C473A487","mod_fiscal":"0.2724000000000000000000000000000","num_area":"9.5335000000000000000000000000000","ind_status":"AT","ind_tipo":"IRU","des_condic":"Aguardando analise","municipio":"Cordeiro","dat_criaca":"28/03/2016"},"geometry":{"type":"Polygon","coordinates":[[[-42.3356,-22.0926],[-42.3366,-22.0988],[-42.3357,-22.0936],[-42.3356,-22.0926]]]}},{"type":"Feature","properties":{"cod_imovel":"RJ-3301504-123164C33FBF4ED9A2BDD70D61AF28F1","mod_fiscal":"0.3116000000000000000000000000000","num_area":"10.906700000000000000000000000000","ind_status":"AT","ind_tipo":"IRU","des_condic":"Aguardando analise","municipio":"Cordeiro","dat_criaca":"18/05/2016"},"geometry":{"type":"Polygon","coordinates":[[[-42.3385,-22.0934],[-42.3424,-22.0921],[-42.3353,-22.0893],[-42.3381,-22.0928],[-42.3385,-22.0934]]]}},{"type":"Feature","properties":{"cod_imovel":"RJ-3301504-03881E8F535B4B5E83B9B59A6CC2057E","mod_fiscal":"0.6603000000000000000000000000000","num_area":"23.111800000000000000000000000000","ind_status":"AT","ind_tipo":"IRU","des_condic":"Aguardando analise","municipio":"Cordeiro","dat_criaca":"25/04/2019"},"geometry":{"type":"Polygon","coordinates":[[[-42.3227,-22.0885],[-42.3201,-22.0903],[-42.3216,-22.0954],[-42.3263,-22.0922],[-42.3228,-22.0888],[-42.3227,-22.0885]]]}},{"type":"Feature","properties":{"cod_imovel":"RJ-3301504-49840F3FBCB64CEDB0F17BEBC0F73D84","mod_fiscal":"1.5550000000000000000000000000000","num_area":"54.425800000000000000000000000000","ind_status":"AT","ind_tipo":"IRU","des_condic":"Aguardando analise","municipio":"Cordeiro","dat_criaca":"03/05/2016"},"geometry":{"type":"Polygon","coordinates":[[[-42.3291,-22.092],[-42.3265,-22.0868],[-42.3193,-22.091],[-42.3207,-22.0951],[-42.3241,-22.0917],[-42.3287,-22.0925],[-42.3291,-22.092]]]}},{"type":"Feature","properties":{"cod_imovel":"RJ-3301504-05B80198DD25402893E9A0FCB36019F0","mod_fiscal":"6.6450000000000000000000000000000","num_area":"232.57580000000000000000000000000","ind_status":"AT","ind_tipo":"IRU","des_condic":"Aguardando analise","municipio":"Cordeiro","dat_criaca":"22/06/2016"},"geometry":{"type":"Polygon","coordinates":[[[-42.3355,-22.0749],[-42.3132,-22.0742],[-42.3212,-22.0829],[-42.3344,-22.0868],[-42.3357,-22.0749],[-42.3355,-22.0749]]]}},{"type":"Feature","properties":{"cod_imovel":"RJ-3301504-16F3A860848C405C91F2548CC66A41D9","mod_fiscal":"0.8043000000000000000000000000000","num_area":"28.149800000000000000000000000000","ind_status":"AT","ind_tipo":"IRU","des_condic":"Aguardando analise","municipio":"Cordeiro","dat_criaca":"16/11/2020"},"geometry":{"type":"Polygon","coordinates":[[[-42.3659,-22.0539],[-42.3627,-22.0549],[-42.3614,-22.0608],[-42.3678,-22.0587],[-42.3661,-22.0544],[-42.3659,-22.0539]]]}},{"type":"Feature","properties":{"cod_imovel":"RJ-3301504-2291E49142094AE2ACB1304CD5E520EA","mod_fiscal":"5.1004000000000000000000000000000","num_area":"178.51530000000000000000000000000","ind_status":"AT","ind_tipo":"IRU","des_condic":"Aguardando analise","municipio":"Cordeiro","dat_criaca":"29/04/2016"},"geometry":{"type":"Polygon","coordinates":[[[-42.2971,-22.0984],[-42.3013,-22.0983],[-42.3005,-22.0857],[-42.3049,-22.0855],[-42.3009,-22.0795],[-42.2909,-22.0833],[-42.2906,-22.0882],[-42.2967,-22.0981],[-42.2971,-22.0984]]]}},{"type":"Feature","properties":{"cod_imovel":"RJ-3301504-22E7585691104128BD0BE4A51E3A35DB","mod_fiscal":"0.6499000000000000000000000000000","num_area":"22.747700000000000000000000000000","ind_status":"AT","ind_tipo":"IRU","des_condic":"Aguardando analise","municipio":"Cordeiro","dat_criaca":"24/05/2019"},"geometry":{"type":"Polygon","coordinates":[[[-42.3024,-22.0381],[-42.307,-22.0449],[-42.3086,-22.0413],[-42.3036,-22.0387],[-42.3024,-22.0381]]]}},{"type":"Feature","properties":{"cod_imovel":"RJ-3301504-2303C662482A4947AF2FC3E982C507C5","mod_fiscal":"0.4830000000000000000000000000000","num_area":"16.903500000000000000000000000000","ind_status":"AT","ind_tipo":"IRU","des_condic":"Aguardando analise","municipio":"Cordeiro","dat_criaca":"05/05/2016"},"geometry":{"type":"Polygon","coordinates":[[[-42.3046,-22.0772],[-42.3084,-22.08],[-42.3108,-22.0761],[-42.3048,-22.077],[-42.3046,-22.0772]]]}},{"type":"Feature","properties":{"cod_imovel":"RJ-3301504-2DB34A7927A042EEB528383ACE3D0140","mod_fiscal":"0.4642000000000000000000000000000","num_area":"16.247300000000000000000000000000","ind_status":"AT","ind_tipo":"IRU","des_condic":"Aguardando analise","municipio":"Cordeiro","dat_criaca":"23/03/2016"},"geometry":{"type":"Polygon","coordinates":[[[-42.3116,-22.0872],[-42.3082,-22.0936],[-42.3121,-22.0873],[-42.3116,-22.0872]]]}},{"type":"Feature","properties":{"cod_imovel":"RJ-3301504-3B35B978C265494D89B4F8A8CB12539C","mod_fiscal":"3.4205000000000000000000000000000","num_area":"119.71780000000000000000000000000","ind_status":"AT","ind_tipo":"IRU","des_condic":"Aguardando analise","municipio":"Cordeiro","dat_criaca":"19/03/2019"},"geometry":{"type":"Polygon","coordinates":[[[-42.3451,-22.0711],[-42.3454,-22.0689],[-42.342,-22.0697],[-42.3412,-22.0844],[-42.3352,-22.0865],[-42.35,-22.0873],[-42.3457,-22.0725],[-42.3451,-22.0711]]]}},{"type":"Feature","properties":{"cod_imovel":"RJ-3301504-3E801114EBBF46C0818EBA63F41C1856","mod_fiscal":"0.1173000000000000000000000000000","num_area":"4.1054000000000000000000000000000","ind_status":"AT","ind_tipo":"IRU","des_condic":"Aguardando analise","municipio":"Cordeiro","dat_criaca":"17/06/2015"},"geometry":{"type":"Polygon","coordinates":[[[-42.4006,-22.0502],[-42.3995,-22.0473],[-42.4006,-22.0499],[-42.4006,-22.0502]]]}},{"type":"Feature","properties":{"cod_imovel":"RJ-3301504-4B279D9276B64CCEBDC13E04079A416D","mod_fiscal":"1.7123000000000000000000000000000","num_area":"59.931200000000000000000000000000","ind_status":"AT","ind_tipo":"IRU","des_condic":"Aguardando analise","municipio":"Cordeiro","dat_criaca":"19/04/2016"},"geometry":{"type":"Polygon","coordinates":[[[-42.3096,-22.0509],[-42.3106,-22.0462],[-42.3043,-22.0443],[-42.2998,-22.0506],[-42.3088,-22.0512],[-42.3096,-22.0509]]]}},{"type":"Feature","properties":{"cod_imovel":"RJ-3301504-4E3BC1E042EA4538B26667ADBE8B833E","mod_fiscal":"2.7128000000000000000000000000000","num_area":"94.948400000000000000000000000000","ind_status":"AT","ind_tipo":"IRU","des_condic":"Aguardando analise","municipio":"Cordeiro","dat_criaca":"16/03/2016"},"geometry":{"type":"Polygon","coordinates":[[[-42.3282,-22.0156],[-42.3365,-22.0158],[-42.3352,-22.0031],[-42.3254,-22.0128],[-42.3281,-22.0155],[-42.3282,-22.0156]]]}},{"type":"Feature","properties":{"cod_imovel":"RJ-3301504-52F381BEC9F04E7EB02C5F884AE224A2","mod_fiscal":"2.0248000000000000000000000000000","num_area":"69.970900000000000000000000000000","ind_status":"AT","ind_tipo":"IRU","des_condic":"Aguardando analise","municipio":"Cordeiro","dat_criaca":"18/05/2016"},"geometry":{"type":"Polygon","coordinates":[[[-42.3594,-22.098],[-42.3648,-22.085],[-42.3593,-22.0811],[-42.3588,-22.0965],[-42.3594,-22.098]]]}},{"type":"Feature","properties":{"cod_imovel":"RJ-3301504-54634031355040838EBA0F6C9011C162","mod_fiscal":"0.5546000000000000000000000000000","num_area":"19.410800000000000000000000000000","ind_status":"AT","ind_tipo":"IRU","des_condic":"Aguardando analise","municipio":"Cordeiro","dat_criaca":"28/01/2016"},"geometry":{"type":"Polygon","coordinates":[[[-42.3171,-22.0674],[-42.3112,-22.0733],[-42.3143,-22.0753],[-42.317,-22.068],[-42.3171,-22.0674]]]}},{"type":"Feature","properties":{"cod_imovel":"RJ-3301504-566F07DFE0694671B48CE73504B8DF52","mod_fiscal":"0.5419000000000000000000000000000","num_area":"18.968100000000000000000000000000","ind_status":"AT","ind_tipo":"IRU","des_condic":"Aguardando analise","municipio":"Cordeiro","dat_criaca":"04/05/2016"},"geometry":{"type":"Polygon","coordinates":[[[-42.3843,-22.0049],[-42.3742,-22.0058],[-42.3767,-22.0085],[-42.3843,-22.0051],[-42.3843,-22.0049]]]}},{"type":"Feature","properties":{"cod_imovel":"RJ-3301504-59A364A2D46242279E03D2AD6035C91D","mod_fiscal":"3.5202000000000000000000000000000","num_area":"123.20700000000000000000000000000","ind_status":"AT","ind_tipo":"IRU","des_condic":"Aguardando analise","municipio":"Cordeiro","dat_criaca":"14/05/2020"},"geometry":{"type":"Polygon","coordinates":[[[-42.365,-22.071],[-42.3481,-22.0766],[-42.3527,-22.0832],[-42.3577,-22.0846],[-42.3582,-22.0764],[-42.3662,-22.074],[-42.365,-22.0711],[-42.365,-22.071]]]}},{"type":"Feature","properties":{"cod_imovel":"RJ-3301504-5AE305C2928B4D8086202302EA5B719F","mod_fiscal":"0.1496000000000000000000000000000","num_area":"5.2345000000000000000000000000000","ind_status":"AT","ind_tipo":"IRU","des_condic":"Aguardando analise","municipio":"Cordeiro","dat_criaca":"16/04/2019"},"geometry":{"type":"Polygon","coordinates":[[[-42.3554,-22.0468],[-42.353,-22.0456],[-42.355,-22.0469],[-42.3554,-22.0468]]]}},{"type":"Feature","properties":{"cod_imovel":"RJ-3301504-5C6FB58DB31C410EAE4822636107ADA1","mod_fiscal":"0.3982000000000000000000000000000","num_area":"13.937800000000000000000000000000","ind_status":"AT","ind_tipo":"IRU","des_condic":"Aguardando analise","municipio":"Cordeiro","dat_criaca":"05/08/2020"},"geometry":{"type":"Polygon","coordinates":[[[-42.4006,-22.0493],[-42.3966,-22.0491],[-42.3965,-22.0522],[-42.4007,-22.05],[-42.4006,-22.0493]]]}},{"type":"Feature","properties":{"cod_imovel":"RJ-3301504-645E5A9287E2449B882908F8DCBD17E4","mod_fiscal":"1.4031000000000000000000000000000","num_area":"49.109200000000000000000000000000","ind_status":"AT","ind_tipo":"IRU","des_condic":"Aguardando analise","municipio":"Cordeiro","dat_criaca":"30/12/2017"},"geometry":{"type":"Polygon","coordinates":[[[-42.3254,-22.0128],[-42.3309,-22.0088],[-42.3294,-22.0058],[-42.3212,-22.0089],[-42.3249,-22.0118],[-42.3254,-22.0128]]]}},{"type":"Feature","properties":{"cod_imovel":"RJ-3301504-65B3939C15524607862F70D7A89F93DB","mod_fiscal":"0.1556000000000000000000000000000","num_area":"5.4450000000000000000000000000000","ind_status":"AT","ind_tipo":"IRU","des_condic":"Aguardando analise","municipio":"Cordeiro","dat_criaca":"08/10/2015"},"geometry":{"type":"Polygon","coordinates":[[[-42.3653,-22.0094],[-42.3616,-22.0071],[-42.3645,-22.009],[-42.3653,-22.0094]]]}},{"type":"Feature","properties":{"cod_imovel":"RJ-3301504-693FD66F6E9048A48C829740B11212B8","mod_fiscal":"0.1695000000000000000000000000000","num_area":"5.9340000000000000000000000000000","ind_status":"AT","ind_tipo":"IRU","des_condic":"Aguardando analise","municipio":"Cordeiro","dat_criaca":"13/12/2019"},"geometry":{"type":"Polygon","coordinates":[[[-42.3447,-22.0934],[-42.3453,-22.0972],[-42.3455,-22.0953],[-42.3447,-22.0934]]]}},{"type":"Feature","properties":{"cod_imovel":"RJ-3301504-6ABAC83AD22D454CB90C8C71F4BDCE68","mod_fiscal":"0.7753000000000000000000000000000","num_area":"27.136000000000000000000000000000","ind_status":"AT","ind_tipo":"IRU","des_condic":"Aguardando analise","municipio":"Cordeiro","dat_criaca":"15/04/2016"},"geometry":{"type":"Polygon","coordinates":[[[-42.3477,-22.1023],[-42.3465,-22.099],[-42.3422,-22.1029],[-42.3448,-22.1063],[-42.3469,-22.1035],[-42.3477,-22.1023]]]}},{"type":"Feature","properties":{"cod_imovel":"RJ-3301504-6B4370F0FDE04413AF443CE78A810F67","mod_fiscal":"0.3824000000000000000000000000000","num_area":"13.385300000000000000000000000000","ind_status":"AT","ind_tipo":"IRU","des_condic":"Aguardando analise","municipio":"Cordeiro","dat_criaca":"02/11/2020"},"geometry":{"type":"Polygon","coordinates":[[[-42.3211,-22.0984],[-42.3163,-22.0983],[-42.3204,-22.1036],[-42.3203,-22.1011],[-42.3211,-22.0984]]]}},{"type":"Feature","properties":{"cod_imovel":"RJ-3301504-79E8AE06559E4024A99CE58E383439E2","mod_fiscal":"4.1175000000000000000000000000000","num_area":"144.11100000000000000000000000000","ind_status":"AT","ind_tipo":"IRU","des_condic":"Aguardando analise","municipio":"Cordeiro","dat_criaca":"18/12/2020"},"geometry":{"type":"Polygon","coordinates":[[[-42.2788,-22.0926],[-42.2929,-22.1062],[-42.2976,-22.106],[-42.3002,-22.0985],[-42.2878,-22.0951],[-42.2788,-22.0926]]]}},{"type":"Feature","properties":{"cod_imovel":"RJ-3301504-8AF50B89AE234B1DB0B378CB21367C7B","mod_fiscal":"0.5725000000000000000000000000000","num_area":"20.037500000000000000000000000000","ind_status":"AT","ind_tipo":"IRU","des_condic":"Aguardando analise","municipio":"Cordeiro","dat_criaca":"29/12/2020"},"geometry":{"type":"Polygon","coordinates":[[[-42.371,-22.0217],[-42.3734,-22.0263],[-42.376,-22.0257],[-42.3752,-22.0215],[-42.3716,-22.0215],[-42.371,-22.0217]]]}},{"type":"Feature","properties":{"cod_imovel":"RJ-3301504-9214C178D32F4B34A76328FBA2CA8571","mod_fiscal":"0.1134000000000000000000000000000","num_area":"3.9687000000000000000000000000000","ind_status":"AT","ind_tipo":"IRU","des_condic":"Aguardando analise","municipio":"Cordeiro","dat_criaca":"04/05/2016"},"geometry":{"type":"Polygon","coordinates":[[[-42.3656,-22.0615],[-42.3684,-22.0599],[-42.3653,-22.0613],[-42.3656,-22.0615]]]}},{"type":"Feature","properties":{"cod_imovel":"RJ-3301504-94B4B14D60B9496291DEB96D2471ECE0","mod_fiscal":"1.5423000000000000000000000000000","num_area":"53.981300000000000000000000000000","ind_status":"AT","ind_tipo":"IRU","des_condic":"Aguardando analise","municipio":"Cordeiro","dat_criaca":"09/03/2016"},"geometry":{"type":"Polygon","coordinates":[[[-42.3703,-22.0099],[-42.3737,-22.0145],[-42.3807,-22.0145],[-42.3735,-22.0051],[-42.372,-22.0073],[-42.3703,-22.0099]]]}},{"type":"Feature","properties":{"cod_imovel":"RJ-3301504-956CC568AE394ACB864C817EC7E08BA3","mod_fiscal":"3.7309000000000000000000000000000","num_area":"130.57990000000000000000000000000","ind_status":"AT","ind_tipo":"IRU","des_condic":"Aguardando analise","municipio":"Cordeiro","dat_criaca":"27/04/2016"},"geometry":{"type":"Polygon","coordinates":[[[-42.3347,-22.1018],[-42.3342,-22.0962],[-42.3291,-22.0921],[-42.324,-22.0919],[-42.319,-22.0974],[-42.3207,-22.101],[-42.3342,-22.1023],[-42.3347,-22.1018]]]}},{"type":"Feature","properties":{"cod_imovel":"RJ-3301504-969ACAB813A94A2ABD12028F9512ED59","mod_fiscal":"1.1374000000000000000000000000000","num_area":"39.808900000000000000000000000000","ind_status":"AT","ind_tipo":"IRU","des_condic":"Aguardando analise","municipio":"Cordeiro","dat_criaca":"09/07/2020"},"geometry":{"type":"Polygon","coordinates":[[[-42.2804,-22.0822],[-42.2771,-22.0822],[-42.2771,-22.0925],[-42.2815,-22.0882],[-42.2804,-22.0822]]]}},{"type":"Feature","properties":{"cod_imovel":"RJ-3301504-C7E1EF889225451091E3298D6FDBFBA4","mod_fiscal":"0.7120000000000000000000000000000","num_area":"24.920700000000000000000000000000","ind_status":"AT","ind_tipo":"IRU","des_condic":"Aguardando analise","municipio":"Cordeiro","dat_criaca":"03/05/2016"},"geometry":{"type":"Polygon","coordinates":[[[-42.3972,-22.0328],[-42.397,-22.028],[-42.3925,-22.0326],[-42.3962,-22.0338],[-42.3972,-22.0328]]]}},{"type":"Feature","properties":{"cod_imovel":"RJ-3301504-AB5B08E659524637B0BCD8EA0DB3FDE1","mod_fiscal":"0.0858000000000000000000000000000","num_area":"3.0042000000000000000000000000000","ind_status":"AT","ind_tipo":"IRU","des_condic":"Aguardando analise","municipio":"Cordeiro","dat_criaca":"20/05/2020"},"geometry":{"type":"Polygon","coordinates":[[[-42.2784,-22.0918],[-42.2784,-22.0945],[-42.2789,-22.0924],[-42.2784,-22.0918]]]}},{"type":"Feature","properties":{"cod_imovel":"RJ-3301504-B243349C16E24EDBBCC86846DF49072F","mod_fiscal":"4.8652000000000000000000000000000","num_area":"144.01890000000000000000000000000","ind_status":"AT","ind_tipo":"IRU","des_condic":"Aguardando analise","municipio":"Cordeiro","dat_criaca":"05/05/2016"},"geometry":{"type":"Polygon","coordinates":[[[-42.3086,-22.1201],[-42.3115,-22.1209],[-42.3138,-22.1162],[-42.3176,-22.1178],[-42.3163,-22.1123],[-42.3194,-22.1071],[-42.3221,-22.1092],[-42.3181,-22.111],[-42.3214,-22.1131],[-42.328,-22.1094],[-42.329,-22.1017],[-42.3106,-22.1111],[-42.309,-22.1197],[-42.3086,-22.1201]]]}},{"type":"Feature","properties":{"cod_imovel":"RJ-3301504-C7116B886F8443079E50E6C7C7419E72","mod_fiscal":"0.4137000000000000000000000000000","num_area":"14.478000000000000000000000000000","ind_status":"AT","ind_tipo":"IRU","des_condic":"Aguardando analise","municipio":"Cordeiro","dat_criaca":"16/03/2016"},"geometry":{"type":"Polygon","coordinates":[[[-42.3073,-22.0924],[-42.3108,-22.0871],[-42.3074,-22.0875],[-42.3072,-22.0923],[-42.3073,-22.0924]]]}},{"type":"Feature","properties":{"cod_imovel":"RJ-3301504-D3B3350D88FF4A3A89BF1B6D6FBE6560","mod_fiscal":"1.1672000000000000000000000000000","num_area":"40.851900000000000000000000000000","ind_status":"AT","ind_tipo":"IRU","des_condic":"Aguardando analise","municipio":"Cordeiro","dat_criaca":"27/07/2015"},"geometry":{"type":"Polygon","coordinates":[[[-42.3196,-22.0312],[-42.3201,-22.0278],[-42.3123,-22.0241],[-42.3116,-22.0283],[-42.3183,-22.0312],[-42.3196,-22.0312]]]}},{"type":"Feature","properties":{"cod_imovel":"RJ-3301504-D50218DBDB604DCC88680DAB3DF22CBE","mod_fiscal":"0.2718000000000000000000000000000","num_area":"9.5144000000000000000000000000000","ind_status":"AT","ind_tipo":"IRU","des_condic":"Aguardando analise","municipio":"Cordeiro","dat_criaca":"28/03/2016"},"geometry":{"type":"Polygon","coordinates":[[[-42.3373,-22.0983],[-42.3364,-22.0909],[-42.3371,-22.0987],[-42.3373,-22.0983]]]}},{"type":"Feature","properties":{"cod_imovel":"RJ-3301504-DE35D21E0A5544709AF36E8CF70AF25F","mod_fiscal":"3.1507000000000000000000000000000","num_area":"93.427100000000000000000000000000","ind_status":"AT","ind_tipo":"IRU","des_condic":"Aguardando analise","municipio":"Cordeiro","dat_criaca":"14/03/2016"},"geometry":{"type":"Polygon","coordinates":[[[-42.3639,-22.0881],[-42.367,-22.0881],[-42.3647,-22.0827],[-42.3585,-22.0818],[-42.3623,-22.0882],[-42.3591,-22.1017],[-42.3646,-22.1008],[-42.3638,-22.0913],[-42.3639,-22.0881]]]}},{"type":"Feature","properties":{"cod_imovel":"RJ-3301504-E1BB67F6672B403F81285BC177023C3D","mod_fiscal":"0.5297000000000000000000000000000","num_area":"18.540700000000000000000000000000","ind_status":"AT","ind_tipo":"IRU","des_condic":"Aguardando analise","municipio":"Cordeiro","dat_criaca":"14/09/2020"},"geometry":{"type":"Polygon","coordinates":[[[-42.3537,-22.0514],[-42.353,-22.0457],[-42.35,-22.051],[-42.3537,-22.0514]]]}},{"type":"Feature","properties":{"cod_imovel":"RJ-3301504-E5CB4A29545E434EBA37FD80039F8E50","mod_fiscal":"0.9738000000000000000000000000000","num_area":"34.082700000000000000000000000000","ind_status":"AT","ind_tipo":"IRU","des_condic":"Aguardando analise","municipio":"Cordeiro","dat_criaca":"18/09/2019"},"geometry":{"type":"Polygon","coordinates":[[[-42.3528,-22.0929],[-42.3502,-22.0885],[-42.3503,-22.0988],[-42.3528,-22.0991],[-42.3528,-22.0953],[-42.3528,-22.0929]]]}},{"type":"Feature","properties":{"cod_imovel":"RJ-3301504-EE6551C5958C4243BD19FD10C6FF7725","mod_fiscal":"0.3570000000000000000000000000000","num_area":"12.496200000000000000000000000000","ind_status":"AT","ind_tipo":"IRU","des_condic":"Aguardando analise","municipio":"Cordeiro","dat_criaca":"05/04/2016"},"geometry":{"type":"Polygon","coordinates":[[[-42.4096,-22.0394],[-42.4049,-22.043],[-42.4096,-22.0398],[-42.4096,-22.0394]]]}},{"type":"Feature","properties":{"cod_imovel":"RJ-3301504-F0A6144CC47B414B9837425CE9DA803A","mod_fiscal":"0.2715000000000000000000000000000","num_area":"9.5014000000000000000000000000000","ind_status":"AT","ind_tipo":"IRU","des_condic":"Aguardando analise","municipio":"Cordeiro","dat_criaca":"27/04/2016"},"geometry":{"type":"Polygon","coordinates":[[[-42.34,-22.0949],[-42.3371,-22.0934],[-42.3377,-22.0975],[-42.3395,-22.0955],[-42.34,-22.0949]]]}},{"type":"Feature","properties":{"cod_imovel":"RJ-3301504-F0BE7A3A0C204EF7B2108763ECBE1609","mod_fiscal":"0.2721000000000000000000000000000","num_area":"9.5218000000000000000000000000000","ind_status":"AT","ind_tipo":"IRU","des_condic":"Aguardando analise","municipio":"Cordeiro","dat_criaca":"15/03/2016"},"geometry":{"type":"Polygon","coordinates":[[[-42.3312,-22.095],[-42.3323,-22.0918],[-42.3302,-22.0938],[-42.3312,-22.095]]]}},{"type":"Feature","properties":{"cod_imovel":"RJ-3301504-F4CEC9D580CC45449181F2B119EAD817","mod_fiscal":"0.1184000000000000000000000000000","num_area":"4.1453000000000000000000000000000","ind_status":"AT","ind_tipo":"IRU","des_condic":"Aguardando analise","municipio":"Cordeiro","dat_criaca":"24/08/2020"},"geometry":{"type":"Polygon","coordinates":[[[-42.2778,-22.0922],[-42.2785,-22.0881],[-42.2778,-22.0922],[-42.2778,-22.0922]]]}}]}