{"type":"FeatureCollection","features":[{"type":"Feature","properties":{"cod_imovel":"RJ-3304904-772AFC945B1F43F3832647252614C86D","mod_fiscal":"4.4696000000000000000000000000000","num_area":"44.695800000000000000000000000000","ind_status":"PE","ind_tipo":"IRU","des_condic":"Aguardando analise, apos revisao ou atendimento da notificacao","municipio":"Sao Goncalo","dat_criaca":"10/10/2017"},"geometry":{"type":"Polygon","coordinates":[[[-42.9473,-22.7741],[-42.9533,-22.7759],[-42.9481,-22.7694],[-42.9441,-22.7695],[-42.9418,-22.7747],[-42.9465,-22.7736],[-42.9473,-22.7741]]]}},{"type":"Feature","properties":{"cod_imovel":"RJ-3304904-8F0A73EF53CD41D48FFD4A7733875531","mod_fiscal":"19.610300000000000000000000000000","num_area":"196.74690000000000000000000000000","ind_status":"AT","ind_tipo":"IRU","des_condic":"Analisado, aguardando atendimento a notificacao","municipio":"Sao Goncalo","dat_criaca":"02/12/2016"},"geometry":{"type":"Polygon","coordinates":[[[-42.941,-22.8629],[-42.9402,-22.8706],[-42.9359,-22.8737],[-42.9327,-22.8719],[-42.9301,-22.8757],[-42.9326,-22.8777],[-42.9288,-22.8773],[-42.935,-22.8794],[-42.9301,-22.881],[-42.9293,-22.8849],[-42.9351,-22.887],[-42.9384,-22.8832],[-42.937,-22.8801],[-42.9429,-22.8793],[-42.9458,-22.8669],[-42.9435,-22.8641],[-42.9409,-22.8654],[-42.9413,-22.8628],[-42.941,-22.8629]]]}},{"type":"Feature","properties":{"cod_imovel":"RJ-3304904-19C570DF77A2491799E10D492029F136","mod_fiscal":"52.466700000000000000000000000000","num_area":"525.61270000000000000000000000000","ind_status":"AT","ind_tipo":"IRU","des_condic":"Aguardando analise","municipio":"Sao Goncalo","dat_criaca":"02/06/2016"},"geometry":{"type":"Polygon","coordinates":[[[-42.902,-22.8471],[-42.8946,-22.8593],[-42.8846,-22.8542],[-42.8807,-22.8609],[-42.8853,-22.8679],[-42.8979,-22.8724],[-42.9025,-22.8783],[-42.9073,-22.8695],[-42.9066,-22.8643],[-42.9023,-22.8643],[-42.901,-22.86],[-42.9076,-22.8621],[-42.9173,-22.857],[-42.9075,-22.8537],[-42.9021,-22.8472],[-42.902,-22.8471]]]}},{"type":"Feature","properties":{"cod_imovel":"RJ-3304904-5F3AD478D4414306863E0CCEDD083662","mod_fiscal":"18.857200000000000000000000000000","num_area":"188.57250000000000000000000000000","ind_status":"AT","ind_tipo":"IRU","des_condic":"Aguardando analise","municipio":"Sao Goncalo","dat_criaca":"22/11/2024"},"geometry":{"type":"Polygon","coordinates":[[[-42.9661,-22.8825],[-42.9464,-22.8908],[-42.9544,-22.8933],[-42.9607,-22.8914],[-42.9642,-22.8943],[-42.9714,-22.8874],[-42.9689,-22.8837],[-42.9661,-22.8825]]]}},{"type":"Feature","properties":{"cod_imovel":"RJ-3304904-5A86575C52F544FAA5112958F01D9721","mod_fiscal":"0.2700000000000000000000000000000","num_area":"2.7003000000000000000000000000000","ind_status":"AT","ind_tipo":"IRU","des_condic":"Analisado, aguardando atendimento a notificacao","municipio":"Sao Goncalo","dat_criaca":"20/04/2022"},"geometry":{"type":"Polygon","coordinates":[[[-42.9772,-22.7726],[-42.9753,-22.7715],[-42.9768,-22.7735],[-42.9772,-22.7726]]]}},{"type":"Feature","properties":{"cod_imovel":"RJ-3304904-F1A3A0DA4EC549EEB258E4145775B732","mod_fiscal":"4.0002000000000000000000000000000","num_area":"40.001500000000000000000000000000","ind_status":"AT","ind_tipo":"IRU","des_condic":"Analisado, aguardando atendimento a notificacao","municipio":"Sao Goncalo","dat_criaca":"12/04/2019"},"geometry":{"type":"Polygon","coordinates":[[[-42.9709,-22.7611],[-42.9743,-22.7629],[-42.9709,-22.7499],[-42.9683,-22.7509],[-42.9704,-22.7586],[-42.9709,-22.7611]]]}},{"type":"Feature","properties":{"cod_imovel":"RJ-3304904-58F845AC992F44ABB8BC528D15D11097","mod_fiscal":"3.0002000000000000000000000000000","num_area":"30.001500000000000000000000000000","ind_status":"AT","ind_tipo":"IRU","des_condic":"Analisado, aguardando atendimento a notificacao","municipio":"Sao Goncalo","dat_criaca":"30/01/2019"},"geometry":{"type":"Polygon","coordinates":[[[-42.9822,-22.769],[-42.9909,-22.7633],[-42.9892,-22.7613],[-42.9817,-22.7684],[-42.9822,-22.769]]]}},{"type":"Feature","properties":{"cod_imovel":"RJ-3304904-C4B6CDDA448C4C67BE7839BC943D58D5","mod_fiscal":"0.6001000000000000000000000000000","num_area":"6.0013000000000000000000000000000","ind_status":"AT","ind_tipo":"IRU","des_condic":"Analisado, aguardando atendimento a notificacao","municipio":"Sao Goncalo","dat_criaca":"28/05/2018"},"geometry":{"type":"Polygon","coordinates":[[[-42.9788,-22.763],[-42.9764,-22.7672],[-42.9786,-22.7653],[-42.9788,-22.763]]]}},{"type":"Feature","properties":{"cod_imovel":"RJ-3304904-65407450B58B4A4CB90DCC3FB85F1E4F","mod_fiscal":"0.7719000000000000000000000000000","num_area":"7.7191000000000000000000000000000","ind_status":"AT","ind_tipo":"IRU","des_condic":"Analisado, aguardando atendimento a notificacao","municipio":"Sao Goncalo","dat_criaca":"30/11/2017"},"geometry":{"type":"Polygon","coordinates":[[[-42.9718,-22.7653],[-42.9764,-22.7634],[-42.9742,-22.7649],[-42.9718,-22.7653]]]}},{"type":"Feature","properties":{"cod_imovel":"RJ-3304904-CC8D684F4CFB4A14855C19A6C06761D4","mod_fiscal":"5.0115000000000000000000000000000","num_area":"50.115100000000000000000000000000","ind_status":"AT","ind_tipo":"IRU","des_condic":"Analisado, aguardando atendimento a notificacao","municipio":"Sao Goncalo","dat_criaca":"10/10/2017"},"geometry":{"type":"Polygon","coordinates":[[[-42.9789,-22.7632],[-42.9898,-22.7528],[-42.9774,-22.7599],[-42.9774,-22.7652],[-42.9789,-22.7632]]]}},{"type":"Feature","properties":{"cod_imovel":"RJ-3304904-F05B9CBC009743C5A5F341EF14CB46A8","mod_fiscal":"0.5814000000000000000000000000000","num_area":"5.8142000000000000000000000000000","ind_status":"AT","ind_tipo":"IRU","des_condic":"Aguardando analise, apos revisao ou atendimento da notificacao","municipio":"Sao Goncalo","dat_criaca":"30/05/2023"},"geometry":{"type":"Polygon","coordinates":[[[-42.9769,-22.7666],[-42.9765,-22.7642],[-42.9744,-22.7678],[-42.9769,-22.7666]]]}},{"type":"Feature","properties":{"cod_imovel":"RJ-3304904-E22F7E4B3DD2456FBF5E0139FB6279B2","mod_fiscal":"0.1605000000000000000000000000000","num_area":"1.6046000000000000000000000000000","ind_status":"AT","ind_tipo":"IRU","des_condic":"Aguardando analise","municipio":"Sao Goncalo","dat_criaca":"10/01/2019"},"geometry":{"type":"Polygon","coordinates":[[[-42.9782,-22.7731],[-42.9796,-22.7711],[-42.9772,-22.7727],[-42.9782,-22.7731]]]}},{"type":"Feature","properties":{"cod_imovel":"RJ-3304904-ED41932354C648218849DCF24C7BF0E3","mod_fiscal":"0.5984000000000000000000000000000","num_area":"5.9840000000000000000000000000000","ind_status":"AT","ind_tipo":"IRU","des_condic":"Aguardando analise","municipio":"Sao Goncalo","dat_criaca":"05/05/2016"},"geometry":{"type":"Polygon","coordinates":[[[-42.977,-22.7666],[-42.9788,-22.7628],[-42.9768,-22.7666],[-42.977,-22.7666]]]}},{"type":"Feature","properties":{"cod_imovel":"RJ-3304904-07F2AE07BD554874B37E55F5C783AEC1","mod_fiscal":"5.0001000000000000000000000000000","num_area":"50.001500000000000000000000000000","ind_status":"AT","ind_tipo":"IRU","des_condic":"Aguardando analise","municipio":"Sao Goncalo","dat_criaca":"30/01/2019"},"geometry":{"type":"Polygon","coordinates":[[[-42.992,-22.763],[-42.9833,-22.7685],[-42.9868,-22.7734],[-42.9898,-22.7736],[-42.9922,-22.7642],[-42.992,-22.763]]]}},{"type":"Feature","properties":{"cod_imovel":"RJ-3304904-19B1A024E9AD43FAB7399D418D7CD9BA","mod_fiscal":"0.2797000000000000000000000000000","num_area":"2.7966000000000000000000000000000","ind_status":"PE","ind_tipo":"IRU","des_condic":"Analisado, aguardando atendimento a notificacao","municipio":"Sao Goncalo","dat_criaca":"20/08/2024"},"geometry":{"type":"Polygon","coordinates":[[[-42.9741,-22.7634],[-42.9713,-22.7635],[-42.9742,-22.7643],[-42.9741,-22.7634]]]}},{"type":"Feature","properties":{"cod_imovel":"RJ-3304904-2A39F5EBD4C84E0D934486CA46EC5027","mod_fiscal":"0.2697000000000000000000000000000","num_area":"2.6965000000000000000000000000000","ind_status":"PE","ind_tipo":"IRU","des_condic":"Analisado, aguardando atendimento a notificacao","municipio":"Sao Goncalo","dat_criaca":"12/08/2019"},"geometry":{"type":"Polygon","coordinates":[[[-42.918,-22.8495],[-42.9185,-22.8467],[-42.9177,-22.8488],[-42.918,-22.8495]]]}},{"type":"Feature","properties":{"cod_imovel":"RJ-3304904-E811F55D31124B0BBA095C29A971BCBC","mod_fiscal":"1.2033000000000000000000000000000","num_area":"12.032600000000000000000000000000","ind_status":"AT","ind_tipo":"IRU","des_condic":"Aguardando analise","municipio":"Sao Goncalo","dat_criaca":"02/05/2016"},"geometry":{"type":"Polygon","coordinates":[[[-42.9255,-22.8486],[-42.923,-22.8471],[-42.925,-22.8498],[-42.9216,-22.8503],[-42.9243,-22.8531],[-42.9251,-22.8492],[-42.9255,-22.8486]]]}},{"type":"Feature","properties":{"cod_imovel":"RJ-3304904-549053CE7797461A864B991C233768A7","mod_fiscal":"0.2614000000000000000000000000000","num_area":"2.6138000000000000000000000000000","ind_status":"AT","ind_tipo":"IRU","des_condic":"Aguardando analise","municipio":"Sao Goncalo","dat_criaca":"25/09/2018"},"geometry":{"type":"Polygon","coordinates":[[[-42.8986,-22.8301],[-42.901,-22.8305],[-42.8991,-22.8296],[-42.8986,-22.8301]]]}},{"type":"Feature","properties":{"cod_imovel":"RJ-3304904-22E389A837FA41CAAB6F7529B17A60C1","mod_fiscal":"0.7711000000000000000000000000000","num_area":"7.7115000000000000000000000000000","ind_status":"AT","ind_tipo":"IRU","des_condic":"Aguardando analise","municipio":"Sao Goncalo","dat_criaca":"05/07/2018"},"geometry":{"type":"Polygon","coordinates":[[[-42.9491,-22.8636],[-42.9518,-22.8658],[-42.9526,-22.8634],[-42.949,-22.8635],[-42.9491,-22.8636]]]}},{"type":"Feature","properties":{"cod_imovel":"RJ-3304904-8D68AC9735BD4A9FA06B4447E6D3C6FC","mod_fiscal":"1.4606000000000000000000000000000","num_area":"14.605900000000000000000000000000","ind_status":"AT","ind_tipo":"IRU","des_condic":"Aguardando analise","municipio":"Sao Goncalo","dat_criaca":"29/09/2025"},"geometry":{"type":"Polygon","coordinates":[[[-42.9535,-22.8228],[-42.9504,-22.8228],[-42.95,-22.8261],[-42.9542,-22.8255],[-42.9545,-22.8198],[-42.9535,-22.8228]]]}},{"type":"Feature","properties":{"cod_imovel":"RJ-3304904-0C0AF50B19524339931792616AB36444","mod_fiscal":"5.0019000000000000000000000000000","num_area":"50.018500000000000000000000000000","ind_status":"AT","ind_tipo":"IRU","des_condic":"Aguardando analise","municipio":"Sao Goncalo","dat_criaca":"10/10/2017"},"geometry":{"type":"Polygon","coordinates":[[[-42.9774,-22.7592],[-42.9895,-22.7509],[-42.976,-22.756],[-42.9774,-22.7592]]]}},{"type":"Feature","properties":{"cod_imovel":"RJ-3304904-60645DF4FEEB46ECB109B97789C80A72","mod_fiscal":"12.066200000000000000000000000000","num_area":"120.66240000000000000000000000000","ind_status":"AT","ind_tipo":"IRU","des_condic":"Aguardando analise","municipio":"Sao Goncalo","dat_criaca":"13/12/2018"},"geometry":{"type":"Polygon","coordinates":[[[-42.9495,-22.8784],[-42.9523,-22.8874],[-42.9664,-22.8816],[-42.9597,-22.8803],[-42.9586,-22.8739],[-42.9552,-22.8756],[-42.9495,-22.8784]]]}},{"type":"Feature","properties":{"cod_imovel":"RJ-3304904-3B45EC5E81674820B9AA3617372B556B","mod_fiscal":"20.833900000000000000000000000000","num_area":"208.33860000000000000000000000000","ind_status":"AT","ind_tipo":"IRU","des_condic":"Aguardando analise","municipio":"Sao Goncalo","dat_criaca":"29/05/2018"},"geometry":{"type":"Polygon","coordinates":[[[-42.9524,-22.8641],[-42.9459,-22.8658],[-42.9478,-22.8683],[-42.9442,-22.8722],[-42.9465,-22.8899],[-42.952,-22.8877],[-42.9492,-22.8765],[-42.9546,-22.8711],[-42.954,-22.8676],[-42.9591,-22.8672],[-42.9555,-22.862],[-42.9529,-22.8642],[-42.9517,-22.8602],[-42.9526,-22.8638],[-42.9524,-22.8641]]]}},{"type":"Feature","properties":{"cod_imovel":"RJ-3304904-1B1D585906904B80954E588DE95F6924","mod_fiscal":"1.7640000000000000000000000000000","num_area":"17.639800000000000000000000000000","ind_status":"AT","ind_tipo":"IRU","des_condic":"Aguardando analise","municipio":"Sao Goncalo","dat_criaca":"05/05/2016"},"geometry":{"type":"Polygon","coordinates":[[[-42.9779,-22.7679],[-42.9846,-22.7646],[-42.9823,-22.7625],[-42.9779,-22.7679],[-42.9779,-22.7679]]]}},{"type":"Feature","properties":{"cod_imovel":"RJ-3304904-E9AFE99653134BD58D12596C79AE5FA8","mod_fiscal":"1.1528000000000000000000000000000","num_area":"11.527900000000000000000000000000","ind_status":"AT","ind_tipo":"IRU","des_condic":"Aguardando analise","municipio":"Sao Goncalo","dat_criaca":"14/03/2025"},"geometry":{"type":"Polygon","coordinates":[[[-42.9078,-22.8386],[-42.9028,-22.8381],[-42.9075,-22.8389],[-42.9078,-22.8386]]]}},{"type":"Feature","properties":{"cod_imovel":"RJ-3304904-411412BFC6674F27B1C79A7B121D22F6","mod_fiscal":"0.2294000000000000000000000000000","num_area":"2.2941000000000000000000000000000","ind_status":"PE","ind_tipo":"IRU","des_condic":"Analisado, aguardando atendimento a notificacao","municipio":"Sao Goncalo","dat_criaca":"27/08/2024"},"geometry":{"type":"Polygon","coordinates":[[[-42.9179,-22.8199],[-42.921,-22.8195],[-42.9187,-22.8199],[-42.9179,-22.8199]]]}},{"type":"Feature","properties":{"cod_imovel":"RJ-3304904-80C3091547DF4C5093D7EF1BFEF6EFCF","mod_fiscal":"0.4001000000000000000000000000000","num_area":"4.0010000000000000000000000000000","ind_status":"PE","ind_tipo":"IRU","des_condic":"Analisado, aguardando atendimento a notificacao","municipio":"Sao Goncalo","dat_criaca":"05/06/2020"},"geometry":{"type":"Polygon","coordinates":[[[-42.9215,-22.8248],[-42.9232,-22.8212],[-42.9209,-22.8246],[-42.9215,-22.8248]]]}},{"type":"Feature","properties":{"cod_imovel":"RJ-3304904-FEAEC00B15394D7AB87B148CDDC62A72","mod_fiscal":"0.3501000000000000000000000000000","num_area":"3.5007000000000000000000000000000","ind_status":"PE","ind_tipo":"IRU","des_condic":"Analisado, aguardando atendimento a notificacao","municipio":"Sao Goncalo","dat_criaca":"10/06/2021"},"geometry":{"type":"Polygon","coordinates":[[[-42.9354,-22.8239],[-42.9337,-22.8266],[-42.9355,-22.8243],[-42.9354,-22.8239]]]}},{"type":"Feature","properties":{"cod_imovel":"RJ-3304904-77F7AEECFD7F4DA5B50D325541B36708","mod_fiscal":"1.3873000000000000000000000000000","num_area":"13.872700000000000000000000000000","ind_status":"PE","ind_tipo":"IRU","des_condic":"Analisado, aguardando atendimento a notificacao","municipio":"Sao Goncalo","dat_criaca":"31/12/2020"},"geometry":{"type":"Polygon","coordinates":[[[-42.9057,-22.8406],[-42.8995,-22.8407],[-42.9004,-22.843],[-42.9047,-22.8419],[-42.9057,-22.8406]]]}},{"type":"Feature","properties":{"cod_imovel":"RJ-3304904-0DBD4B593B8A40A1B60F0B9AA22A93C9","mod_fiscal":"0.2105000000000000000000000000000","num_area":"2.1052000000000000000000000000000","ind_status":"PE","ind_tipo":"IRU","des_condic":"Analisado, aguardando atendimento a notificacao","municipio":"Sao Goncalo","dat_criaca":"12/07/2018"},"geometry":{"type":"Polygon","coordinates":[[[-42.9635,-22.7675],[-42.9623,-22.7695],[-42.9641,-22.7679],[-42.9635,-22.7675]]]}},{"type":"Feature","properties":{"cod_imovel":"RJ-3304904-627A87F373FC4D55AA5F26BFD0792DA6","mod_fiscal":"2.4202000000000000000000000000000","num_area":"24.202400000000000000000000000000","ind_status":"PE","ind_tipo":"IRU","des_condic":"Analisado, aguardando atendimento a notificacao","municipio":"Sao Goncalo","dat_criaca":"16/12/2015"},"geometry":{"type":"Polygon","coordinates":[[[-42.9041,-22.8457],[-42.9044,-22.8422],[-42.8984,-22.8418],[-42.9029,-22.8457],[-42.9041,-22.8457]]]}},{"type":"Feature","properties":{"cod_imovel":"RJ-3304904-47A6AC0134464A4CB242385674829256","mod_fiscal":"0.3989000000000000000000000000000","num_area":"3.9892000000000000000000000000000","ind_status":"PE","ind_tipo":"IRU","des_condic":"Analisado, aguardando atendimento a notificacao","municipio":"Sao Goncalo","dat_criaca":"01/05/2015"},"geometry":{"type":"Polygon","coordinates":[[[-42.9284,-22.8174],[-42.9278,-22.8212],[-42.93,-22.8178],[-42.9284,-22.8174]]]}},{"type":"Feature","properties":{"cod_imovel":"RJ-3304904-B21F2F6BDA6A4B5FB8F4E3DA67F4DDEF","mod_fiscal":"2.0433000000000000000000000000000","num_area":"20.433300000000000000000000000000","ind_status":"PE","ind_tipo":"IRU","des_condic":"Analisado, aguardando atendimento a notificacao","municipio":"Sao Goncalo","dat_criaca":"01/05/2015"},"geometry":{"type":"Polygon","coordinates":[[[-42.8977,-22.8536],[-42.8953,-22.8563],[-42.8971,-22.8585],[-42.9006,-22.857],[-42.898,-22.8534],[-42.8977,-22.8536]]]}},{"type":"Feature","properties":{"cod_imovel":"RJ-3304904-6F7F0ED716ED464CAA453ECF2C7229EF","mod_fiscal":"1.6601000000000000000000000000000","num_area":"16.601000000000000000000000000000","ind_status":"AT","ind_tipo":"IRU","des_condic":"Aguardando analise","municipio":"Sao Goncalo","dat_criaca":"03/05/2016"},"geometry":{"type":"Polygon","coordinates":[[[-42.8925,-22.8456],[-42.8891,-22.8488],[-42.8935,-22.8515],[-42.8927,-22.8458],[-42.8925,-22.8456]]]}},{"type":"Feature","properties":{"cod_imovel":"RJ-3304904-D8246A0057C44E85AB8BFFF2CBF0B4E6","mod_fiscal":"0.8984000000000000000000000000000","num_area":"8.9836000000000000000000000000000","ind_status":"AT","ind_tipo":"IRU","des_condic":"Aguardando analise","municipio":"Sao Goncalo","dat_criaca":"05/05/2016"},"geometry":{"type":"Polygon","coordinates":[[[-42.9788,-22.7629],[-42.9783,-22.7654],[-42.9811,-22.7615],[-42.9788,-22.7629]]]}},{"type":"Feature","properties":{"cod_imovel":"RJ-3304904-22C1FA527A664803AA6ABAABC752E53E","mod_fiscal":"0.3449000000000000000000000000000","num_area":"3.4486000000000000000000000000000","ind_status":"AT","ind_tipo":"IRU","des_condic":"Aguardando analise","municipio":"Sao Goncalo","dat_criaca":"02/02/2025"},"geometry":{"type":"Polygon","coordinates":[[[-42.9719,-22.8611],[-42.9754,-22.8625],[-42.9733,-22.8615],[-42.9719,-22.8611]]]}},{"type":"Feature","properties":{"cod_imovel":"RJ-3304904-790EAA30613F43ADB77DFE7A484FE7C0","mod_fiscal":"0.4004000000000000000000000000000","num_area":"4.0037000000000000000000000000000","ind_status":"PE","ind_tipo":"IRU","des_condic":"Analisado, aguardando atendimento a notificacao","municipio":"Sao Goncalo","dat_criaca":"18/03/2020"},"geometry":{"type":"Polygon","coordinates":[[[-42.9764,-22.8755],[-42.9738,-22.8773],[-42.9764,-22.8757],[-42.9764,-22.8755]]]}},{"type":"Feature","properties":{"cod_imovel":"RJ-3304904-68528BA4B318482E8A7A12CDB91D6EB4","mod_fiscal":"0.2276000000000000000000000000000","num_area":"2.2759000000000000000000000000000","ind_status":"AT","ind_tipo":"IRU","des_condic":"Analisado, em conformidade com a Lei n 12.651/2012","municipio":"Sao Goncalo","dat_criaca":"30/04/2016"},"geometry":{"type":"Polygon","coordinates":[[[-42.9362,-22.8603],[-42.9335,-22.8607],[-42.9361,-22.8604],[-42.9362,-22.8603]]]}},{"type":"Feature","properties":{"cod_imovel":"RJ-3304904-788EC372A2454BF6BFEF3F896FB0EDCA","mod_fiscal":"0.3529000000000000000000000000000","num_area":"3.5293000000000000000000000000000","ind_status":"AT","ind_tipo":"IRU","des_condic":"Aguardando analise","municipio":"Sao Goncalo","dat_criaca":"06/05/2024"},"geometry":{"type":"Polygon","coordinates":[[[-42.9392,-22.8028],[-42.943,-22.8005],[-42.9391,-22.8027],[-42.9392,-22.8028]]]}},{"type":"Feature","properties":{"cod_imovel":"RJ-3304904-177C5522A9204C638237F082FC44AFB7","mod_fiscal":"1.6433000000000000000000000000000","num_area":"16.433300000000000000000000000000","ind_status":"AT","ind_tipo":"IRU","des_condic":"Aguardando analise","municipio":"Sao Goncalo","dat_criaca":"01/11/2015"},"geometry":{"type":"Polygon","coordinates":[[[-42.961,-22.8546],[-42.96,-22.8578],[-42.9651,-22.8595],[-42.9621,-22.8553],[-42.961,-22.8546]]]}},{"type":"Feature","properties":{"cod_imovel":"RJ-3304904-140EB8E1C04044979DC95EA65E699EBA","mod_fiscal":"11.261000000000000000000000000000","num_area":"112.61020000000000000000000000000","ind_status":"AT","ind_tipo":"IRU","des_condic":"Aguardando analise","municipio":"Sao Goncalo","dat_criaca":"04/08/2015"},"geometry":{"type":"Polygon","coordinates":[[[-42.9666,-22.8634],[-42.9647,-22.8624],[-42.9656,-22.8781],[-42.9794,-22.871],[-42.9678,-22.8671],[-42.9666,-22.8634]]]}},{"type":"Feature","properties":{"cod_imovel":"RJ-3304904-4AF1356DFB79406780F013FB385B3FFD","mod_fiscal":"14.476700000000000000000000000000","num_area":"144.76670000000000000000000000000","ind_status":"AT","ind_tipo":"IRU","des_condic":"Aguardando analise","municipio":"Sao Goncalo","dat_criaca":"07/06/2023"},"geometry":{"type":"Polygon","coordinates":[[[-42.9136,-22.8457],[-42.901,-22.8457],[-42.9081,-22.8539],[-42.9229,-22.8579],[-42.9143,-22.8498],[-42.9181,-22.8495],[-42.9185,-22.8463],[-42.9138,-22.8457],[-42.9136,-22.8457]]]}},{"type":"Feature","properties":{"cod_imovel":"RJ-3304904-D12D0F1947174B138C8CEEDFAD8B4AAA","mod_fiscal":"7.3227000000000000000000000000000","num_area":"73.227500000000000000000000000000","ind_status":"AT","ind_tipo":"IRU","des_condic":"Aguardando analise","municipio":"Sao Goncalo","dat_criaca":"01/07/2022"},"geometry":{"type":"Polygon","coordinates":[[[-42.9895,-22.8617],[-42.9857,-22.8582],[-42.9807,-22.8599],[-42.9884,-22.8678],[-42.9911,-22.8672],[-42.9907,-22.8634],[-42.9895,-22.8617]]]}},{"type":"Feature","properties":{"cod_imovel":"RJ-3304904-B91639478911438E82E3177A4CEE6F4C","mod_fiscal":"0.2600000000000000000000000000000","num_area":"2.6000000000000000000000000000000","ind_status":"AT","ind_tipo":"IRU","des_condic":"Aguardando analise","municipio":"Sao Goncalo","dat_criaca":"26/09/2024"},"geometry":{"type":"Polygon","coordinates":[[[-42.9597,-22.8544],[-42.9599,-22.8574],[-42.9606,-22.8548],[-42.9597,-22.8544]]]}},{"type":"Feature","properties":{"cod_imovel":"RJ-3304904-F86054121799438BB43D92BE60F7D5E7","mod_fiscal":"0.9707000000000000000000000000000","num_area":"9.7066000000000000000000000000000","ind_status":"AT","ind_tipo":"IRU","des_condic":"Aguardando analise","municipio":"Sao Goncalo","dat_criaca":"17/11/2016"},"geometry":{"type":"Polygon","coordinates":[[[-42.9494,-22.8576],[-42.9536,-22.8563],[-42.9498,-22.8552],[-42.9494,-22.8576]]]}},{"type":"Feature","properties":{"cod_imovel":"RJ-3304904-91EE5B19E289425C857526B5A1C0E472","mod_fiscal":"0.9860000000000000000000000000000","num_area":"9.8597000000000000000000000000000","ind_status":"AT","ind_tipo":"IRU","des_condic":"Aguardando analise","municipio":"Sao Goncalo","dat_criaca":"02/05/2016"},"geometry":{"type":"Polygon","coordinates":[[[-42.9595,-22.8688],[-42.9556,-22.8701],[-42.9584,-22.8723],[-42.9606,-22.8698],[-42.9595,-22.8688]]]}},{"type":"Feature","properties":{"cod_imovel":"RJ-3304904-1DEBB2CF05EF4759A79DBE7FEF6E6D2C","mod_fiscal":"0.2903000000000000000000000000000","num_area":"2.9031000000000000000000000000000","ind_status":"AT","ind_tipo":"IRU","des_condic":"Aguardando analise","municipio":"Sao Goncalo","dat_criaca":"23/12/2015"},"geometry":{"type":"Polygon","coordinates":[[[-42.974,-22.8587],[-42.9717,-22.859],[-42.9737,-22.859],[-42.974,-22.8587]]]}},{"type":"Feature","properties":{"cod_imovel":"RJ-3304904-128154102C3D443DBFA074523B48ED0B","mod_fiscal":"1.8006000000000000000000000000000","num_area":"18.006200000000000000000000000000","ind_status":"AT","ind_tipo":"IRU","des_condic":"Aguardando analise","municipio":"Sao Goncalo","dat_criaca":"23/12/2015"},"geometry":{"type":"Polygon","coordinates":[[[-42.9778,-22.8614],[-42.9793,-22.8588],[-42.9758,-22.8578],[-42.976,-22.8637],[-42.9778,-22.8614]]]}},{"type":"Feature","properties":{"cod_imovel":"RJ-3304904-C04EFC4EA3D046D6811F8B1DFFC1AFEF","mod_fiscal":"1.7007000000000000000000000000000","num_area":"17.006500000000000000000000000000","ind_status":"AT","ind_tipo":"IRU","des_condic":"Aguardando analise","municipio":"Sao Goncalo","dat_criaca":"21/06/2023"},"geometry":{"type":"Polygon","coordinates":[[[-42.9823,-22.8595],[-42.9789,-22.8586],[-42.9769,-22.8624],[-42.9801,-22.8635],[-42.9823,-22.8595]]]}},{"type":"Feature","properties":{"cod_imovel":"RJ-3304904-5E650F1B5FFC439BB39288D165E25076","mod_fiscal":"0.6567000000000000000000000000000","num_area":"6.5671000000000000000000000000000","ind_status":"AT","ind_tipo":"IRU","des_condic":"Aguardando analise","municipio":"Sao Goncalo","dat_criaca":"18/06/2021"},"geometry":{"type":"Polygon","coordinates":[[[-42.9187,-22.8456],[-42.9142,-22.8442],[-42.9185,-22.8458],[-42.9187,-22.8456]]]}},{"type":"Feature","properties":{"cod_imovel":"RJ-3304904-664D721F7E64499AA5E9111F635D6575","mod_fiscal":"14.717600000000000000000000000000","num_area":"147.17650000000000000000000000000","ind_status":"AT","ind_tipo":"IRU","des_condic":"Aguardando analise","municipio":"Sao Goncalo","dat_criaca":"29/08/2016"},"geometry":{"type":"Polygon","coordinates":[[[-42.9932,-22.8601],[-42.9945,-22.8561],[-42.9898,-22.85],[-42.9838,-22.8512],[-42.9808,-22.8563],[-42.9744,-22.8553],[-42.9744,-22.8579],[-42.9836,-22.8599],[-42.9836,-22.8626],[-42.9859,-22.86],[-42.9898,-22.8629],[-42.9912,-22.8595],[-42.9932,-22.8601]]]}},{"type":"Feature","properties":{"cod_imovel":"RJ-3304904-56E4E3A82D5D43FA9604B93DB86C4786","mod_fiscal":"74.144200000000000000000000000000","num_area":"741.44180000000000000000000000000","ind_status":"AT","ind_tipo":"AST","des_condic":"Aguardando analise","municipio":"Sao Goncalo","dat_criaca":"04/05/2016"},"geometry":{"type":"Polygon","coordinates":[[[-42.9363,-22.8169],[-42.9234,-22.8177],[-42.9171,-22.8277],[-42.922,-22.8405],[-42.9195,-22.8444],[-42.9353,-22.8509],[-42.9431,-22.8347],[-42.9406,-22.8177],[-42.9367,-22.8169],[-42.9363,-22.8169]]]}},{"type":"Feature","properties":{"cod_imovel":"RJ-3304904-81735C6EA70E47CEB7CE6F6ED65B1993","mod_fiscal":"5.1813000000000000000000000000000","num_area":"51.813400000000000000000000000000","ind_status":"AT","ind_tipo":"IRU","des_condic":"Aguardando analise","municipio":"Sao Goncalo","dat_criaca":"16/09/2020"},"geometry":{"type":"Polygon","coordinates":[[[-42.9573,-22.8695],[-42.9538,-22.8692],[-42.9498,-22.8757],[-42.9587,-22.8739],[-42.961,-22.8702],[-42.9576,-22.8695],[-42.9573,-22.8695]]]}},{"type":"Feature","properties":{"cod_imovel":"RJ-3304904-CBFDA4B856344D9592A6E8290B16173C","mod_fiscal":"40.255700000000000000000000000000","num_area":"402.55750000000000000000000000000","ind_status":"AT","ind_tipo":"IRU","des_condic":"Aguardando analise","municipio":"Sao Goncalo","dat_criaca":"28/04/2016"},"geometry":{"type":"Polygon","coordinates":[[[-42.9293,-22.8175],[-42.9363,-22.8039],[-42.9143,-22.7934],[-42.9121,-22.8086],[-42.9151,-22.8094],[-42.9193,-22.8199],[-42.9281,-22.8171],[-42.9293,-22.8175]]]}},{"type":"Feature","properties":{"cod_imovel":"RJ-3304904-F77FA29697274FADB1D5F96DFAA0F34D","mod_fiscal":"0.8547000000000000000000000000000","num_area":"8.5472000000000000000000000000000","ind_status":"AT","ind_tipo":"IRU","des_condic":"Aguardando analise","municipio":"Sao Goncalo","dat_criaca":"05/02/2020"},"geometry":{"type":"Polygon","coordinates":[[[-42.9696,-22.9031],[-42.9704,-22.9054],[-42.9718,-22.9006],[-42.9691,-22.9006],[-42.9696,-22.9031]]]}},{"type":"Feature","properties":{"cod_imovel":"RJ-3304904-FA3C97A3C44040229DED880F77B7CF49","mod_fiscal":"2.5659000000000000000000000000000","num_area":"25.659000000000000000000000000000","ind_status":"AT","ind_tipo":"IRU","des_condic":"Aguardando analise","municipio":"Sao Goncalo","dat_criaca":"26/02/2016"},"geometry":{"type":"Polygon","coordinates":[[[-42.9542,-22.837],[-42.9509,-22.834],[-42.9451,-22.8347],[-42.9456,-22.8377],[-42.9542,-22.837],[-42.9542,-22.837]]]}}]}