{"type":"FeatureCollection","features":[{"type":"Feature","properties":{"cod_tema":"ARL_PROPOSTA","cod_imovel":"RJ-3301850-A0E3EB195F254516AC062E0C4B984B83","num_area":"3.4321000000000000000000000000000","ind_status":"AT"},"geometry":{"type":"Polygon","coordinates":[[[-43.0116,-22.5623],[-43.0145,-22.564],[-43.0125,-22.5623],[-43.0116,-22.5623]]]}},{"type":"Feature","properties":{"cod_tema":"ARL_PROPOSTA","cod_imovel":"RJ-3301850-043C93AD29A74C53A5D0088F2A2AA0C8","num_area":"9.5685000000000000000000000000000","ind_status":"AT"},"geometry":{"type":"Polygon","coordinates":[[[-43.0084,-22.5629],[-43.0127,-22.5643],[-43.0135,-22.5621],[-43.0085,-22.5613],[-43.0084,-22.5629]]]}},{"type":"Feature","properties":{"cod_tema":"ARL_PROPOSTA","cod_imovel":"RJ-3301850-0835F8AFFA6948E8B76F0DADFAB23920","num_area":"2.2310000000000000000000000000000","ind_status":"AT"},"geometry":{"type":"Polygon","coordinates":[[[-42.9308,-22.534],[-42.9344,-22.536],[-42.9312,-22.5341],[-42.9308,-22.534]]]}},{"type":"Feature","properties":{"cod_tema":"ARL_PROPOSTA","cod_imovel":"RJ-3301850-1971964136C1427A92FF4763DCBB7747","num_area":"2.9201000000000000000000000000000","ind_status":"PE"},"geometry":{"type":"Polygon","coordinates":[[[-42.9413,-22.5941],[-42.9402,-22.5914],[-42.9413,-22.5941],[-42.9413,-22.5941]]]}},{"type":"Feature","properties":{"cod_tema":"ARL_PROPOSTA","cod_imovel":"RJ-3301850-38C8A1C9A75F4C11B6E2F796A4DE3DB5","num_area":"3.0808000000000000000000000000000","ind_status":"AT"},"geometry":{"type":"Polygon","coordinates":[[[-43.0054,-22.5612],[-43.0064,-22.5636],[-43.0073,-22.5614],[-43.0054,-22.5612]]]}},{"type":"Feature","properties":{"cod_tema":"ARL_PROPOSTA","cod_imovel":"RJ-3301850-6256B8A5E9444D9FB9193B3AF6C311D0","num_area":"10.935200000000000000000000000000","ind_status":"AT"},"geometry":{"type":"Polygon","coordinates":[[[-42.9403,-22.5143],[-42.9408,-22.5112],[-42.9345,-22.5128],[-42.9403,-22.5143]]]}},{"type":"Feature","properties":{"cod_tema":"ARL_PROPOSTA","cod_imovel":"RJ-3301850-8DA0D5DE40A34B438D1AF18CE28A24BE","num_area":"3.6597000000000000000000000000000","ind_status":"AT"},"geometry":{"type":"Polygon","coordinates":[[[-42.9216,-22.5374],[-42.919,-22.5385],[-42.9216,-22.5374],[-42.9216,-22.5374]],[[-42.9227,-22.5421],[-42.925,-22.5429],[-42.9229,-22.542],[-42.9227,-22.5421]]]}},{"type":"Feature","properties":{"cod_tema":"ARL_PROPOSTA","cod_imovel":"RJ-3301850-A09823EB97A343A882C739206A9A7B58","num_area":"10.090200000000000000000000000000","ind_status":"AT"},"geometry":{"type":"Polygon","coordinates":[[[-43.0141,-22.5632],[-43.0122,-22.5647],[-43.014,-22.5634],[-43.0141,-22.5632]],[[-43.0123,-22.5647],[-43.0158,-22.5636],[-43.0125,-22.5647],[-43.0123,-22.5647]],[[-43.0158,-22.5635],[-43.0151,-22.5594],[-43.0158,-22.5634],[-43.0158,-22.5635]]]}},{"type":"Feature","properties":{"cod_tema":"ARL_PROPOSTA","cod_imovel":"RJ-3301850-98619EF2130148E88020A0FC2FEB1673","num_area":"4.9221000000000000000000000000000","ind_status":"AT"},"geometry":{"type":"Polygon","coordinates":[[[-42.9528,-22.5035],[-42.9541,-22.5054],[-42.9534,-22.5023],[-42.9528,-22.5035]]]}},{"type":"Feature","properties":{"cod_tema":"ARL_PROPOSTA","cod_imovel":"RJ-3301850-B818BD2767C94DFF9727638890D52429","num_area":"4.4897000000000000000000000000000","ind_status":"PE"},"geometry":{"type":"Polygon","coordinates":[[[-42.9752,-22.6305],[-42.9782,-22.6303],[-42.9764,-22.629],[-42.9752,-22.6305]]]}},{"type":"Feature","properties":{"cod_tema":"ARL_PROPOSTA","cod_imovel":"RJ-3301850-B3FA9668C6D046DABE57479115267924","num_area":"6.7028000000000000000000000000000","ind_status":"AT"},"geometry":{"type":"Polygon","coordinates":[[[-43.0,-22.5463],[-43.0016,-22.5495],[-43.003,-22.5475],[-43.0,-22.5461],[-43.0,-22.5463]]]}},{"type":"Feature","properties":{"cod_tema":"ARL_PROPOSTA","cod_imovel":"RJ-3301850-FFB97B6E50AD4C9E87CF1D10B2E3CE8E","num_area":"11.317700000000000000000000000000","ind_status":"AT"},"geometry":{"type":"Polygon","coordinates":[[[-42.989,-22.5163],[-42.9941,-22.5118],[-42.9886,-22.5119],[-42.989,-22.5163],[-42.989,-22.5163]]]}},{"type":"Feature","properties":{"cod_tema":"ARL_PROPOSTA","cod_imovel":"RJ-3301850-48404D55BEE440528B246C69664B2A53","num_area":"2.3066000000000000000000000000000","ind_status":"AT"},"geometry":{"type":"Polygon","coordinates":[[[-42.9838,-22.6814],[-42.9847,-22.6796],[-42.9832,-22.6813],[-42.9838,-22.6814]]]}},{"type":"Feature","properties":{"cod_tema":"ARL_PROPOSTA","cod_imovel":"RJ-3301850-15CE60A9A4514E2DA134D747D2637909","num_area":"43.116100000000000000000000000000","ind_status":"AT"},"geometry":{"type":"Polygon","coordinates":[[[-42.9983,-22.552],[-43.0034,-22.5455],[-42.9975,-22.5441],[-42.9947,-22.5509],[-42.9972,-22.5523],[-42.9978,-22.5475],[-42.9983,-22.552],[-42.9983,-22.552]]]}},{"type":"Feature","properties":{"cod_tema":"ARL_PROPOSTA","cod_imovel":"RJ-3301850-81E71A050BC34CFD8BD2DD851C81F9A8","num_area":"7.1444000000000000000000000000000","ind_status":"AT"},"geometry":{"type":"Polygon","coordinates":[[[-42.9429,-22.4984],[-42.9397,-22.4994],[-42.9433,-22.5011],[-42.9429,-22.4984]]]}},{"type":"Feature","properties":{"cod_tema":"ARL_PROPOSTA","cod_imovel":"RJ-3301850-0F73BD2455244C5999D3FE70130A6CB7","num_area":"5.8223000000000000000000000000000","ind_status":"AT"},"geometry":{"type":"Polygon","coordinates":[[[-42.9442,-22.5641],[-42.9408,-22.5676],[-42.9451,-22.5649],[-42.9442,-22.5641]]]}},{"type":"Feature","properties":{"cod_tema":"ARL_PROPOSTA","cod_imovel":"RJ-3301850-29230A1855D14F4DB9FF4E4F36CCB028","num_area":"2.9774000000000000000000000000000","ind_status":"AT"},"geometry":{"type":"Polygon","coordinates":[[[-42.9435,-22.5001],[-42.9468,-22.4995],[-42.9436,-22.5001],[-42.9435,-22.5001]]]}},{"type":"Feature","properties":{"cod_tema":"ARL_PROPOSTA","cod_imovel":"RJ-3301850-5C3F0D72D8A1482997BA44936C2B3DE3","num_area":"4.4390000000000000000000000000000","ind_status":"AT"},"geometry":{"type":"Polygon","coordinates":[[[-42.9456,-22.5332],[-42.9372,-22.5352],[-42.9454,-22.5333],[-42.9456,-22.5332]]]}},{"type":"Feature","properties":{"cod_tema":"ARL_PROPOSTA","cod_imovel":"RJ-3301850-C6E52523EE974597BF6DAB605E403B05","num_area":"58.925700000000000000000000000000","ind_status":"AT"},"geometry":{"type":"Polygon","coordinates":[[[-42.9082,-22.5072],[-42.9015,-22.5085],[-42.8979,-22.5045],[-42.8927,-22.5061],[-42.8996,-22.5114],[-42.905,-22.5085],[-42.9067,-22.5115],[-42.9123,-22.5065],[-42.9082,-22.5072]]]}},{"type":"Feature","properties":{"cod_tema":"ARL_PROPOSTA","cod_imovel":"RJ-3301850-AD29FC07AA174F0CA017D5300FBD35D5","num_area":"43.595900000000000000000000000000","ind_status":"AT"},"geometry":{"type":"Polygon","coordinates":[[[-42.935,-22.5031],[-42.9323,-22.5066],[-42.9271,-22.506],[-42.9295,-22.5124],[-42.9344,-22.5089],[-42.9355,-22.5036],[-42.935,-22.5031]]]}},{"type":"Feature","properties":{"cod_tema":"ARL_PROPOSTA","cod_imovel":"RJ-3301850-F83C2E8D10DE47BAB1354E73D908B079","num_area":"8.8100000000000000000000000000000","ind_status":"AT"},"geometry":{"type":"Polygon","coordinates":[[[-42.94,-22.4998],[-42.9362,-22.5006],[-42.9403,-22.5003],[-42.94,-22.4998]],[[-42.9396,-22.5031],[-42.9416,-22.502],[-42.9395,-22.503],[-42.9396,-22.5031]]]}},{"type":"Feature","properties":{"cod_tema":"ARL_APROVADA_NAO_AVERBADA","cod_imovel":"RJ-3301850-EC2DC5922E1E4565A38C6ABCF49611FA","num_area":"94.533400000000000000000000000000","ind_status":"AT"},"geometry":{"type":"Polygon","coordinates":[[[-42.9428,-22.4796],[-42.9469,-22.4715],[-42.9324,-22.4757],[-42.9315,-22.4822],[-42.9425,-22.4798],[-42.9428,-22.4796]]]}},{"type":"Feature","properties":{"cod_tema":"ARL_PROPOSTA","cod_imovel":"RJ-3301850-2A6DE05E16894A71B3189B8AAF129403","num_area":"7.7276000000000000000000000000000","ind_status":"AT"},"geometry":{"type":"Polygon","coordinates":[[[-42.9459,-22.5089],[-42.949,-22.5066],[-42.9466,-22.5063],[-42.9459,-22.5089]]]}},{"type":"Feature","properties":{"cod_tema":"ARL_PROPOSTA","cod_imovel":"RJ-3301850-3F622703DB7148138214EEE204E78F0D","num_area":"13.716500000000000000000000000000","ind_status":"AT"},"geometry":{"type":"Polygon","coordinates":[[[-42.9696,-22.4925],[-42.9694,-22.4981],[-42.9726,-22.4996],[-42.9708,-22.4925],[-42.9696,-22.4925]]]}},{"type":"Feature","properties":{"cod_tema":"ARL_PROPOSTA","cod_imovel":"RJ-3301850-25E01DFC22094E9BA44888D9D7B3A7A8","num_area":"116.19950000000000000000000000000","ind_status":"AT"},"geometry":{"type":"Polygon","coordinates":[[[-42.9456,-22.4829],[-42.9482,-22.4796],[-42.9455,-22.4827],[-42.9456,-22.4829]],[[-42.9484,-22.4794],[-42.9547,-22.4709],[-42.952,-22.4688],[-42.9548,-22.4708],[-42.9551,-22.4668],[-42.9577,-22.467],[-42.9554,-22.4585],[-42.9511,-22.4663],[-42.9547,-22.4668],[-42.9511,-22.4664],[-42.9471,-22.4737],[-42.9514,-22.4678],[-42.9514,-22.4713],[-42.9446,-22.4798],[-42.952,-22.4738],[-42.9447,-22.4798],[-42.9454,-22.4824],[-42.9479,-22.4797],[-42.9484,-22.4794]],[[-42.9544,-22.4603],[-42.9532,-22.4626],[-42.9544,-22.4605],[-42.9544,-22.4603]]]}},{"type":"Feature","properties":{"cod_tema":"ARL_PROPOSTA","cod_imovel":"RJ-3301850-67DE1CC37917421D99314F66713E6B38","num_area":"1.4807000000000000000000000000000","ind_status":"PE"},"geometry":{"type":"Polygon","coordinates":[[[-42.9158,-22.5394],[-42.9131,-22.5425],[-42.9076,-22.5422],[-42.9131,-22.5426],[-42.9158,-22.5395],[-42.9158,-22.5394]]]}},{"type":"Feature","properties":{"cod_tema":"ARL_PROPOSTA","cod_imovel":"RJ-3301850-4C5683513E0D482B93B1C4097359D223","num_area":"1.0583000000000000000000000000000","ind_status":"AT"},"geometry":{"type":"Polygon","coordinates":[[[-42.9557,-22.5242],[-42.9581,-22.5234],[-42.9558,-22.5241],[-42.9557,-22.5242]]]}},{"type":"Feature","properties":{"cod_tema":"ARL_PROPOSTA","cod_imovel":"RJ-3301850-5DBB3F60BE744D4ABC8F599F21C4F5C6","num_area":"85.432800000000000000000000000000","ind_status":"AT"},"geometry":{"type":"Polygon","coordinates":[[[-42.9477,-22.637],[-42.9483,-22.6342],[-42.9476,-22.637],[-42.9477,-22.637]],[[-42.9502,-22.6321],[-42.9498,-22.6272],[-42.9602,-22.623],[-42.9474,-22.6211],[-42.9458,-22.6324],[-42.95,-22.6322],[-42.9502,-22.6321]]]}},{"type":"Feature","properties":{"cod_tema":"ARL_PROPOSTA","cod_imovel":"RJ-3301850-46709B2A00BA454CA92E100521B807E4","num_area":"39.287200000000000000000000000000","ind_status":"AT"},"geometry":{"type":"Polygon","coordinates":[[[-43.0209,-22.6854],[-43.0284,-22.6854],[-43.0271,-22.6794],[-43.0209,-22.6811],[-43.0209,-22.6854]]]}},{"type":"Feature","properties":{"cod_tema":"ARL_PROPOSTA","cod_imovel":"RJ-3301850-28A32AD47D4646228DE462B93CC96BFF","num_area":"28.686400000000000000000000000000","ind_status":"AT"},"geometry":{"type":"Polygon","coordinates":[[[-42.9836,-22.6829],[-42.9794,-22.6897],[-42.986,-22.6875],[-42.9844,-22.6844],[-42.9836,-22.6829]]]}},{"type":"Feature","properties":{"cod_tema":"ARL_PROPOSTA","cod_imovel":"RJ-3301850-6B11BBA144BF450C844C6885C5AAE5C9","num_area":"164.21290000000000000000000000000","ind_status":"AT"},"geometry":{"type":"Polygon","coordinates":[[[-42.9758,-22.6767],[-42.9777,-22.6802],[-42.9835,-22.6789],[-42.9884,-22.6836],[-42.9973,-22.6823],[-43.0043,-22.686],[-43.0108,-22.6794],[-42.9808,-22.6787],[-42.9766,-22.6743],[-42.9767,-22.6763],[-42.9758,-22.6767]]]}},{"type":"Feature","properties":{"cod_tema":"ARL_PROPOSTA","cod_imovel":"RJ-3301850-625A2D13EEA6417796A123E8EF79ECD5","num_area":"28.921700000000000000000000000000","ind_status":"AT"},"geometry":{"type":"Polygon","coordinates":[[[-42.9793,-22.6968],[-42.9893,-22.6954],[-42.9874,-22.6923],[-42.9793,-22.6968],[-42.9793,-22.6968]]]}},{"type":"Feature","properties":{"cod_tema":"ARL_PROPOSTA","cod_imovel":"RJ-3301850-A90DBBFC32B94A62970243F4DE8409B2","num_area":"2.1070000000000000000000000000000","ind_status":"AT"},"geometry":{"type":"Polygon","coordinates":[[[-42.978,-22.6757],[-42.9758,-22.675],[-42.9779,-22.6763],[-42.978,-22.6757]]]}},{"type":"Feature","properties":{"cod_tema":"ARL_PROPOSTA","cod_imovel":"RJ-3301850-1E8A3D0229EF42AE8C911B4127264DD0","num_area":"1.9893000000000000000000000000000","ind_status":"AT"},"geometry":{"type":"Polygon","coordinates":[[[-42.984,-22.6824],[-42.979,-22.6811],[-42.9839,-22.6822],[-42.984,-22.6824]]]}},{"type":"Feature","properties":{"cod_tema":"ARL_PROPOSTA","cod_imovel":"RJ-3301850-F8DA751807D24CF8B032C56D6C4C4D9F","num_area":"80.195600000000000000000000000000","ind_status":"AT"},"geometry":{"type":"Polygon","coordinates":[[[-42.9298,-22.5179],[-42.9333,-22.516],[-42.9305,-22.5117],[-42.9297,-22.5161],[-42.9298,-22.5179]],[[-42.9298,-22.512],[-42.9296,-22.5056],[-42.9211,-22.5041],[-42.9298,-22.512],[-42.9298,-22.512]],[[-42.9249,-22.5076],[-42.9214,-22.5045],[-42.9235,-22.5074],[-42.9199,-22.5079],[-42.9249,-22.5076],[-42.9249,-22.5076]],[[-42.9199,-22.5079],[-42.9153,-22.5096],[-42.9199,-22.5079],[-42.9199,-22.5079]],[[-42.9151,-22.5085],[-42.9093,-22.5114],[-42.9151,-22.5085],[-42.9151,-22.5085]]]}},{"type":"Feature","properties":{"cod_tema":"ARL_PROPOSTA","cod_imovel":"RJ-3301850-620C5E8DF99544C89AC82D89A90B7F96","num_area":"2.0669000000000000000000000000000","ind_status":"AT"},"geometry":{"type":"Polygon","coordinates":[[[-43.0173,-22.562],[-43.0167,-22.5583],[-43.0172,-22.5615],[-43.0173,-22.562]]]}},{"type":"Feature","properties":{"cod_tema":"ARL_PROPOSTA","cod_imovel":"RJ-3301850-B1F5EE3CF76C41168DB31B78D141E24A","num_area":"4.1115000000000000000000000000000","ind_status":"AT"},"geometry":{"type":"Polygon","coordinates":[[[-43.0105,-22.6364],[-43.0128,-22.6386],[-43.0105,-22.6363],[-43.0105,-22.6364]]]}},{"type":"Feature","properties":{"cod_tema":"ARL_PROPOSTA","cod_imovel":"RJ-3301850-A9D221C949E9456EB1C68F55321E60CB","num_area":"2.7466000000000000000000000000000","ind_status":"AT"},"geometry":{"type":"Polygon","coordinates":[[[-42.9508,-22.4985],[-42.9472,-22.499],[-42.9509,-22.4989],[-42.9508,-22.4985]]]}},{"type":"Feature","properties":{"cod_tema":"ARL_PROPOSTA","cod_imovel":"RJ-3301850-D6E1CA2CC4EB48B2BC9DC3D3F28B1174","num_area":"19.316200000000000000000000000000","ind_status":"AT"},"geometry":{"type":"Polygon","coordinates":[[[-42.9711,-22.5479],[-42.971,-22.5453],[-42.9626,-22.5431],[-42.9712,-22.5491],[-42.9711,-22.5479]]]}},{"type":"Feature","properties":{"cod_tema":"ARL_PROPOSTA","cod_imovel":"RJ-3301850-5A8CBBB4856F4FC9B8CE541E4BDF8D01","num_area":"80.048600000000000000000000000000","ind_status":"AT"},"geometry":{"type":"Polygon","coordinates":[[[-42.8967,-22.529],[-42.8943,-22.5291],[-42.8951,-22.5346],[-42.8967,-22.5323],[-42.8967,-22.529]],[[-42.8904,-22.5166],[-42.8839,-22.5172],[-42.8829,-22.522],[-42.8909,-22.5191],[-42.8885,-22.5181],[-42.8904,-22.5166]],[[-42.8902,-22.5374],[-42.8937,-22.5236],[-42.8991,-22.5187],[-42.891,-22.5269],[-42.8912,-22.5319],[-42.8902,-22.5374]],[[-42.8904,-22.5382],[-42.8927,-22.5268],[-42.8992,-22.5189],[-42.8937,-22.5237],[-42.8914,-22.5356],[-42.8904,-22.5382]]]}},{"type":"Feature","properties":{"cod_tema":"ARL_PROPOSTA","cod_imovel":"RJ-3301850-D029910CED1F41E88AB850909D6FA983","num_area":"5.4567000000000000000000000000000","ind_status":"AT"},"geometry":{"type":"Polygon","coordinates":[[[-42.9828,-22.6289],[-42.9805,-22.6286],[-42.9828,-22.6297],[-42.9828,-22.6289]]]}},{"type":"Feature","properties":{"cod_tema":"ARL_PROPOSTA","cod_imovel":"RJ-3301850-B550EF1038754399847E7C68C7FB4C47","num_area":"16.579200000000000000000000000000","ind_status":"AT"},"geometry":{"type":"Polygon","coordinates":[[[-43.0071,-22.5555],[-43.0043,-22.559],[-43.0091,-22.5567],[-43.0071,-22.5555]],[[-43.0082,-22.5594],[-43.01,-22.5572],[-43.0085,-22.5592],[-43.0082,-22.5594]]]}},{"type":"Feature","properties":{"cod_tema":"ARL_PROPOSTA","cod_imovel":"RJ-3301850-6EFBC7ACD17D45AC980449FFEE3E0559","num_area":"0.7355000000000000000000000000000","ind_status":"AT"},"geometry":{"type":"Polygon","coordinates":[[[-42.9219,-22.5374],[-42.9251,-22.5377],[-42.922,-22.5374],[-42.9219,-22.5374]]]}},{"type":"Feature","properties":{"cod_tema":"ARL_PROPOSTA","cod_imovel":"RJ-3301850-AAC40D2037CA468A9176B24CC84108DD","num_area":"4.1928000000000000000000000000000","ind_status":"AT"},"geometry":{"type":"Polygon","coordinates":[[[-42.9766,-22.5485],[-42.9745,-22.5461],[-42.9762,-22.5483],[-42.9766,-22.5485]]]}},{"type":"Feature","properties":{"cod_tema":"ARL_PROPOSTA","cod_imovel":"RJ-3301850-1B864286C95B4D169BDC4217B309618D","num_area":"8.1105000000000000000000000000000","ind_status":"AT"},"geometry":{"type":"Polygon","coordinates":[[[-43.0043,-22.5609],[-43.0036,-22.5643],[-43.0072,-22.5602],[-43.0044,-22.561],[-43.0043,-22.5609]]]}},{"type":"Feature","properties":{"cod_tema":"ARL_PROPOSTA","cod_imovel":"RJ-3301850-BAD4EE4228EB4438B8138D33DEBD0ADE","num_area":"3.0550000000000000000000000000000","ind_status":"AT"},"geometry":{"type":"Polygon","coordinates":[[[-42.9896,-22.6036],[-42.99,-22.6062],[-42.9903,-22.6038],[-42.9896,-22.6036]]]}},{"type":"Feature","properties":{"cod_tema":"ARL_PROPOSTA","cod_imovel":"RJ-3301850-BDEE2BBEA0B647CD9348B1AF7D185F8A","num_area":"14.912600000000000000000000000000","ind_status":"AT"},"geometry":{"type":"Polygon","coordinates":[[[-42.9818,-22.5962],[-42.9788,-22.5952],[-42.9813,-22.5964],[-42.9818,-22.5962]],[[-42.972,-22.5979],[-42.9778,-22.5988],[-42.9725,-22.5978],[-42.972,-22.5979]]]}},{"type":"Feature","properties":{"cod_tema":"ARL_PROPOSTA","cod_imovel":"RJ-3301850-08AD35D0D5D344B2B44A184B6A18F91D","num_area":"8.6770000000000000000000000000000","ind_status":"AT"},"geometry":{"type":"Polygon","coordinates":[[[-43.0076,-22.5606],[-43.0072,-22.565],[-43.0076,-22.5606],[-43.0076,-22.5606]]]}},{"type":"Feature","properties":{"cod_tema":"ARL_PROPOSTA","cod_imovel":"RJ-3301850-A6B41244971C4FB1B024D3EBDB373F08","num_area":"3.8712000000000000000000000000000","ind_status":"AT"},"geometry":{"type":"Polygon","coordinates":[[[-43.0089,-22.5631],[-43.0112,-22.5596],[-43.009,-22.5628],[-43.0089,-22.5631]]]}},{"type":"Feature","properties":{"cod_tema":"ARL_PROPOSTA","cod_imovel":"RJ-3301850-DDF4DF668FEA4386BBE5847D5A540766","num_area":"7.2941000000000000000000000000000","ind_status":"AT"},"geometry":{"type":"Polygon","coordinates":[[[-42.932,-22.5286],[-42.929,-22.529],[-42.9313,-22.5288],[-42.932,-22.5286]],[[-42.9298,-22.5335],[-42.9226,-22.5369],[-42.9306,-22.5338],[-42.9359,-22.536],[-42.9299,-22.5338],[-42.9298,-22.5335]]]}},{"type":"Feature","properties":{"cod_tema":"ARL_PROPOSTA","cod_imovel":"RJ-3301850-694891083BA8471084C2397EC4CE1B8A","num_area":"4.4356000000000000000000000000000","ind_status":"AT"},"geometry":{"type":"Polygon","coordinates":[[[-42.9078,-22.5074],[-42.9066,-22.5042],[-42.9069,-22.5071],[-42.9078,-22.5074]]]}},{"type":"Feature","properties":{"cod_tema":"ARL_PROPOSTA","cod_imovel":"RJ-3301850-57B40A279B5B4280B38AA1684DCE3553","num_area":"2.1256000000000000000000000000000","ind_status":"AT"},"geometry":{"type":"Polygon","coordinates":[[[-42.9637,-22.5503],[-42.9615,-22.5513],[-42.9637,-22.5503],[-42.9637,-22.5503]]]}},{"type":"Feature","properties":{"cod_tema":"ARL_PROPOSTA","cod_imovel":"RJ-3301850-5D54C8A7EBBD4CA58C6468F33873CC2A","num_area":"23.325600000000000000000000000000","ind_status":"AT"},"geometry":{"type":"Polygon","coordinates":[[[-42.9546,-22.6036],[-42.956,-22.6054],[-42.9583,-22.6026],[-42.9551,-22.6019],[-42.9546,-22.6036]],[[-42.9665,-22.5963],[-42.9617,-22.5948],[-42.961,-22.5977],[-42.9669,-22.5965],[-42.9665,-22.5963]]]}},{"type":"Feature","properties":{"cod_tema":"ARL_PROPOSTA","cod_imovel":"RJ-3301850-7E1FBD0CB2B34087AE95C276C1412206","num_area":"169.09510000000000000000000000000","ind_status":"AT"},"geometry":{"type":"Polygon","coordinates":[[[-42.9317,-22.4597],[-42.9348,-22.4814],[-42.9378,-22.4809],[-42.9395,-22.478],[-42.9353,-22.48],[-42.9398,-22.4775],[-42.9361,-22.4738],[-42.9405,-22.4762],[-42.9324,-22.4631],[-42.9377,-22.4745],[-42.9447,-22.4768],[-42.9468,-22.474],[-42.9452,-22.4769],[-42.9475,-22.4742],[-42.9328,-22.4601],[-42.9317,-22.4597]],[[-42.9391,-22.4715],[-42.9393,-22.4753],[-42.9391,-22.4715],[-42.9391,-22.4715]],[[-42.9426,-22.4714],[-42.9405,-22.4762],[-42.9422,-22.4721],[-42.9426,-22.4714]]]}},{"type":"Feature","properties":{"cod_tema":"ARL_PROPOSTA","cod_imovel":"RJ-3301850-961090D6BFA5423DB84616036EEDF362","num_area":"1.1593000000000000000000000000000","ind_status":"AT"},"geometry":{"type":"Polygon","coordinates":[[[-42.9329,-22.5896],[-42.9331,-22.5918],[-42.9333,-22.5896],[-42.9329,-22.5896]]]}},{"type":"Feature","properties":{"cod_tema":"ARL_PROPOSTA","cod_imovel":"RJ-3301850-5E7C819DE80D466DB2D1AD4D2E44C017","num_area":"1.8056000000000000000000000000000","ind_status":"AT"},"geometry":{"type":"Polygon","coordinates":[[[-42.945,-22.4839],[-42.9432,-22.4854],[-42.945,-22.4839],[-42.945,-22.4839]]]}},{"type":"Feature","properties":{"cod_tema":"ARL_PROPOSTA","cod_imovel":"RJ-3301850-FCB8F5BD508541289400C5FE73A51E29","num_area":"8.7453000000000000000000000000000","ind_status":"AT"},"geometry":{"type":"Polygon","coordinates":[[[-42.9731,-22.4723],[-42.9779,-22.4713],[-42.9734,-22.471],[-42.9731,-22.4723]]]}},{"type":"Feature","properties":{"cod_tema":"ARL_PROPOSTA","cod_imovel":"RJ-3301850-92AA151224F4445699879EED9A9D1ED8","num_area":"2.3540000000000000000000000000000","ind_status":"AT"},"geometry":{"type":"Polygon","coordinates":[[[-42.9364,-22.5009],[-42.9342,-22.5013],[-42.9369,-22.5016],[-42.9364,-22.5009]]]}},{"type":"Feature","properties":{"cod_tema":"ARL_PROPOSTA","cod_imovel":"RJ-3301850-4C801BDFD85241938E4FA05EA1B487F7","num_area":"4.3697000000000000000000000000000","ind_status":"AT"},"geometry":{"type":"Polygon","coordinates":[[[-42.9765,-22.4901],[-42.9791,-22.4889],[-42.9765,-22.4901],[-42.9765,-22.4901]]]}},{"type":"Feature","properties":{"cod_tema":"ARL_PROPOSTA","cod_imovel":"RJ-3301850-CC16CF90E70542A79D302D6DA98F58B3","num_area":"2.7965000000000000000000000000000","ind_status":"AT"},"geometry":{"type":"Polygon","coordinates":[[[-42.9418,-22.4989],[-42.9395,-22.4979],[-42.9413,-22.5],[-42.9418,-22.4989]]]}},{"type":"Feature","properties":{"cod_tema":"ARL_PROPOSTA","cod_imovel":"RJ-3301850-56907C8BF0E54737AD6B0BD01F389541","num_area":"10.792800000000000000000000000000","ind_status":"AT"},"geometry":{"type":"Polygon","coordinates":[[[-42.92,-22.5285],[-42.9171,-22.5311],[-42.92,-22.5282],[-42.92,-22.5285]],[[-42.9224,-22.53],[-42.9224,-22.527],[-42.9224,-22.53],[-42.9224,-22.53]],[[-42.9187,-22.5331],[-42.922,-22.532],[-42.9184,-22.5323],[-42.9187,-22.5331]]]}},{"type":"Feature","properties":{"cod_tema":"ARL_PROPOSTA","cod_imovel":"RJ-3301850-DCA07059141F44CCB46F2EE34376E54A","num_area":"7.1804000000000000000000000000000","ind_status":"AT"},"geometry":{"type":"Polygon","coordinates":[[[-42.9522,-22.5227],[-42.9487,-22.5248],[-42.9533,-22.5228],[-42.9522,-22.5227]],[[-42.9513,-22.5284],[-42.9558,-22.5242],[-42.9513,-22.5283],[-42.9513,-22.5284]]]}},{"type":"Feature","properties":{"cod_tema":"ARL_PROPOSTA","cod_imovel":"RJ-3301850-94C40130030E4D32B55EE043582AFA3E","num_area":"58.291600000000000000000000000000","ind_status":"AT"},"geometry":{"type":"Polygon","coordinates":[[[-42.91,-22.5396],[-42.9131,-22.5355],[-42.9054,-22.5405],[-42.9097,-22.5397],[-42.91,-22.5396]],[[-42.9144,-22.5318],[-42.9124,-22.5341],[-42.9153,-22.5338],[-42.9171,-22.5379],[-42.9128,-22.542],[-42.9055,-22.5421],[-42.9128,-22.5426],[-42.9159,-22.5382],[-42.9226,-22.5371],[-42.9169,-22.536],[-42.9187,-22.5331],[-42.9144,-22.5314],[-42.9144,-22.5318]],[[-42.9055,-22.5421],[-42.8972,-22.5509],[-42.906,-22.5422],[-42.9055,-22.5421]],[[-42.9011,-22.545],[-42.8977,-22.5491],[-42.9011,-22.5452],[-42.9011,-22.545]]]}},{"type":"Feature","properties":{"cod_tema":"ARL_PROPOSTA","cod_imovel":"RJ-3301850-3A685F34A219470A9A2CE9F2A69336D6","num_area":"7.7979000000000000000000000000000","ind_status":"AT"},"geometry":{"type":"Polygon","coordinates":[[[-42.8851,-22.5746],[-42.8867,-22.5724],[-42.885,-22.574],[-42.8851,-22.5746]],[[-42.8873,-22.5684],[-42.8859,-22.5707],[-42.8873,-22.5692],[-42.8873,-22.5684]],[[-42.8837,-22.5741],[-42.8821,-22.5765],[-42.8839,-22.5743],[-42.8837,-22.5741]],[[-42.8876,-22.5711],[-42.8882,-22.569],[-42.8874,-22.5711],[-42.8876,-22.5711]]]}},{"type":"Feature","properties":{"cod_tema":"ARL_PROPOSTA","cod_imovel":"RJ-3301850-DD17348FDC0C4D038979EA02B9A1FF1E","num_area":"5.3469000000000000000000000000000","ind_status":"AT"},"geometry":{"type":"Polygon","coordinates":[[[-42.9192,-22.5388],[-42.9157,-22.5384],[-42.9192,-22.5388],[-42.9192,-22.5388]],[[-42.9176,-22.5422],[-42.9198,-22.543],[-42.9175,-22.5422],[-42.9176,-22.5422]]]}},{"type":"Feature","properties":{"cod_tema":"ARL_PROPOSTA","cod_imovel":"RJ-3301850-200376091DD64B359F17DE88AB6790CA","num_area":"3.6602000000000000000000000000000","ind_status":"AT"},"geometry":{"type":"Polygon","coordinates":[[[-42.9772,-22.5643],[-42.9748,-22.567],[-42.9776,-22.5646],[-42.9772,-22.5643]],[[-42.9763,-22.5641],[-42.974,-22.5666],[-42.9763,-22.5641],[-42.9763,-22.5641]]]}},{"type":"Feature","properties":{"cod_tema":"ARL_PROPOSTA","cod_imovel":"RJ-3301850-495C7DB1888A4A828EACF5423BB6A2C0","num_area":"3.9755000000000000000000000000000","ind_status":"AT"},"geometry":{"type":"Polygon","coordinates":[[[-42.9557,-22.5868],[-42.9529,-22.5874],[-42.9557,-22.5869],[-42.9557,-22.5868]]]}},{"type":"Feature","properties":{"cod_tema":"ARL_PROPOSTA","cod_imovel":"RJ-3301850-450C90722F414E2D8D068BF76AA57D69","num_area":"122.18710000000000000000000000000","ind_status":"AT"},"geometry":{"type":"Polygon","coordinates":[[[-42.9738,-22.6057],[-42.9761,-22.6073],[-42.9735,-22.6041],[-42.9738,-22.6057]],[[-42.9609,-22.6039],[-42.9638,-22.6058],[-42.961,-22.6033],[-42.9609,-22.6039]],[[-42.9937,-22.6146],[-42.9944,-22.6103],[-42.9871,-22.6135],[-42.9875,-22.6097],[-42.9833,-22.6139],[-42.9815,-22.6109],[-42.982,-22.6141],[-42.979,-22.6123],[-42.9777,-22.616],[-42.9726,-22.6148],[-42.976,-22.6123],[-42.9735,-22.6115],[-42.9648,-22.6146],[-42.9634,-22.6196],[-42.9511,-22.6203],[-42.9598,-22.6231],[-42.9674,-22.616],[-42.9937,-22.6147],[-42.9937,-22.6146]]]}},{"type":"Feature","properties":{"cod_tema":"ARL_PROPOSTA","cod_imovel":"RJ-3301850-6989C5A4EFDB479AA814082EFD943EC9","num_area":"7.1168000000000000000000000000000","ind_status":"AT"},"geometry":{"type":"Polygon","coordinates":[[[-42.9551,-22.5611],[-42.9524,-22.5635],[-42.9556,-22.5612],[-42.9551,-22.5611]]]}},{"type":"Feature","properties":{"cod_tema":"ARL_PROPOSTA","cod_imovel":"RJ-3301850-1C7E2C598F754570895E6AD040A03011","num_area":"13.148700000000000000000000000000","ind_status":"AT"},"geometry":{"type":"Polygon","coordinates":[[[-42.8843,-22.5629],[-42.8804,-22.5643],[-42.8843,-22.5634],[-42.8843,-22.5629]]]}},{"type":"Feature","properties":{"cod_tema":"ARL_PROPOSTA","cod_imovel":"RJ-3301850-83F9C38E69334FE2AE622CB94B023B65","num_area":"3.9114000000000000000000000000000","ind_status":"AT"},"geometry":{"type":"Polygon","coordinates":[[[-42.9311,-22.5462],[-42.9324,-22.5509],[-42.9315,-22.5466],[-42.9311,-22.5462]]]}},{"type":"Feature","properties":{"cod_tema":"ARL_PROPOSTA","cod_imovel":"RJ-3301850-A2D8E24DA16F4243B3B529146AF09723","num_area":"3.6079000000000000000000000000000","ind_status":"AT"},"geometry":{"type":"Polygon","coordinates":[[[-42.9486,-22.5247],[-42.9441,-22.526],[-42.9489,-22.5252],[-42.9486,-22.5247]]]}},{"type":"Feature","properties":{"cod_tema":"ARL_PROPOSTA","cod_imovel":"RJ-3301850-BD3AE2B8A50D4C099805A9A838E02FF0","num_area":"2.3309000000000000000000000000000","ind_status":"AT"},"geometry":{"type":"Polygon","coordinates":[[[-42.9311,-22.5346],[-42.9283,-22.5343],[-42.9311,-22.5346],[-42.9311,-22.5346]]]}},{"type":"Feature","properties":{"cod_tema":"ARL_PROPOSTA","cod_imovel":"RJ-3301850-0C3602985E1A4264B19803BD57126EE4","num_area":"0.7125000000000000000000000000000","ind_status":"AT"},"geometry":{"type":"Polygon","coordinates":[[[-42.9268,-22.5361],[-42.9283,-22.5343],[-42.927,-22.5361],[-42.9268,-22.5361]]]}},{"type":"Feature","properties":{"cod_tema":"ARL_PROPOSTA","cod_imovel":"RJ-3301850-B4582CFB39DF4F3FAC2F72A5A717A103","num_area":"4.3141000000000000000000000000000","ind_status":"AT"},"geometry":{"type":"Polygon","coordinates":[[[-42.9415,-22.5402],[-42.9371,-22.54],[-42.9416,-22.5405],[-42.9415,-22.5402]]]}},{"type":"Feature","properties":{"cod_tema":"ARL_PROPOSTA","cod_imovel":"RJ-3301850-11C11675803143448FD794F5341FA404","num_area":"65.178000000000000000000000000000","ind_status":"AT"},"geometry":{"type":"Polygon","coordinates":[[[-42.9485,-22.5397],[-42.9513,-22.5444],[-42.9551,-22.5446],[-42.9614,-22.5397],[-42.9532,-22.5392],[-42.9513,-22.5365],[-42.9471,-22.5367],[-42.9478,-22.5397],[-42.9485,-22.5397]]]}},{"type":"Feature","properties":{"cod_tema":"ARL_PROPOSTA","cod_imovel":"RJ-3301850-D24144C967E043CFAE6FE77E3004B3AC","num_area":"30.947800000000000000000000000000","ind_status":"AT"},"geometry":{"type":"Polygon","coordinates":[[[-42.8887,-22.5702],[-42.8873,-22.5742],[-42.8892,-22.5707],[-42.8887,-22.5702]],[[-42.8897,-22.574],[-42.8856,-22.5783],[-42.8902,-22.5746],[-42.8897,-22.574]],[[-42.8847,-22.5794],[-42.8854,-22.5817],[-42.8873,-22.5787],[-42.8847,-22.5794]],[[-42.8898,-22.5804],[-42.892,-22.5761],[-42.8891,-22.5795],[-42.8898,-22.5804]]]}},{"type":"Feature","properties":{"cod_tema":"ARL_PROPOSTA","cod_imovel":"RJ-3301850-26042656B5B244A5A18337FF65C7DAF4","num_area":"4.3231000000000000000000000000000","ind_status":"AT"},"geometry":{"type":"Polygon","coordinates":[[[-42.9518,-22.5545],[-42.952,-22.549],[-42.9514,-22.5543],[-42.9518,-22.5545]]]}},{"type":"Feature","properties":{"cod_tema":"ARL_PROPOSTA","cod_imovel":"RJ-3301850-6AFDE39E0ED14CECA584DA55D121648C","num_area":"99.378100000000000000000000000000","ind_status":"AT"},"geometry":{"type":"Polygon","coordinates":[[[-42.9793,-22.5704],[-42.9659,-22.5608],[-42.9608,-22.5676],[-42.9663,-22.5678],[-42.9676,-22.5644],[-42.9663,-22.5678],[-42.9785,-22.5699],[-42.9738,-22.5705],[-42.9757,-22.5763],[-42.9781,-22.5718],[-42.9774,-22.5761],[-42.9798,-22.5757],[-42.9793,-22.5704]]]}},{"type":"Feature","properties":{"cod_tema":"ARL_PROPOSTA","cod_imovel":"RJ-3301850-6AFDE2CEABCE42C6B4D680F66F56CDF7","num_area":"3.2394000000000000000000000000000","ind_status":"AT"},"geometry":{"type":"Polygon","coordinates":[[[-43.0089,-22.5846],[-43.0106,-22.5818],[-43.0088,-22.5843],[-43.0089,-22.5846]]]}},{"type":"Feature","properties":{"cod_tema":"ARL_PROPOSTA","cod_imovel":"RJ-3301850-668F0F6CE8B247E98B0D791EBE28C570","num_area":"20.371700000000000000000000000000","ind_status":"AT"},"geometry":{"type":"Polygon","coordinates":[[[-43.012,-22.5801],[-43.0184,-22.5791],[-43.0161,-22.5762],[-43.0118,-22.5799],[-43.012,-22.5801]]]}},{"type":"Feature","properties":{"cod_tema":"ARL_PROPOSTA","cod_imovel":"RJ-3301850-38FB4E4A83074ADA82601167BF57C270","num_area":"29.665700000000000000000000000000","ind_status":"AT"},"geometry":{"type":"Polygon","coordinates":[[[-42.9552,-22.5796],[-42.9496,-22.5811],[-42.9523,-22.5859],[-42.9563,-22.58],[-42.9552,-22.5796]]]}},{"type":"Feature","properties":{"cod_tema":"ARL_PROPOSTA","cod_imovel":"RJ-3301850-B230FC4877C643FBBA2D046C92D56930","num_area":"15.373300000000000000000000000000","ind_status":"AT"},"geometry":{"type":"Polygon","coordinates":[[[-42.9619,-22.567],[-42.9659,-22.5608],[-42.9616,-22.561],[-42.9625,-22.5641],[-42.9619,-22.567]]]}},{"type":"Feature","properties":{"cod_tema":"ARL_PROPOSTA","cod_imovel":"RJ-3301850-3041FC8E6A4E4863A18B0B48F8157642","num_area":"76.890400000000000000000000000000","ind_status":"AT"},"geometry":{"type":"Polygon","coordinates":[[[-42.909,-22.559],[-42.9065,-22.5599],[-42.9092,-22.5594],[-42.909,-22.559]],[[-42.9033,-22.5596],[-42.9063,-22.5614],[-42.9033,-22.5596],[-42.9033,-22.5596]],[[-42.9162,-22.5613],[-42.9129,-22.5644],[-42.9168,-22.5646],[-42.9169,-22.5621],[-42.9162,-22.5613]],[[-42.908,-22.5531],[-42.9064,-22.5554],[-42.913,-22.5543],[-42.9082,-22.5529],[-42.908,-22.5531]],[[-42.9095,-22.5582],[-42.9173,-22.5599],[-42.9192,-22.5534],[-42.9156,-22.5532],[-42.9151,-22.5569],[-42.9072,-22.5559],[-42.9088,-22.558],[-42.9095,-22.5582]]]}},{"type":"Feature","properties":{"cod_tema":"ARL_PROPOSTA","cod_imovel":"RJ-3301850-D76860E69C7C44DF9D979498978E012D","num_area":"7.7916000000000000000000000000000","ind_status":"AT"},"geometry":{"type":"Polygon","coordinates":[[[-42.9631,-22.5585],[-42.9674,-22.5594],[-42.9658,-22.5568],[-42.9631,-22.5585],[-42.9631,-22.5585]]]}},{"type":"Feature","properties":{"cod_tema":"ARL_PROPOSTA","cod_imovel":"RJ-3301850-DA6E0A3B31454E89B2EB92DE2DBE9604","num_area":"4.2993000000000000000000000000000","ind_status":"AT"},"geometry":{"type":"Polygon","coordinates":[[[-42.872,-22.5742],[-42.878,-22.5783],[-42.8758,-22.5765],[-42.872,-22.5742]],[[-42.8701,-22.5714],[-42.8748,-22.5727],[-42.877,-22.5772],[-42.8749,-22.5723],[-42.8701,-22.5713],[-42.8701,-22.5714]]]}},{"type":"Feature","properties":{"cod_tema":"ARL_PROPOSTA","cod_imovel":"RJ-3301850-855CB4D63E2F4B7B98004BEA8D6028C6","num_area":"22.264100000000000000000000000000","ind_status":"AT"},"geometry":{"type":"Polygon","coordinates":[[[-42.982,-22.5673],[-42.9934,-22.5694],[-42.9809,-22.5667],[-42.982,-22.5673]]]}},{"type":"Feature","properties":{"cod_tema":"ARL_PROPOSTA","cod_imovel":"RJ-3301850-BCE25FE310D54575BA54E3ABC1A09B70","num_area":"2.0994000000000000000000000000000","ind_status":"AT"},"geometry":{"type":"Polygon","coordinates":[[[-42.8686,-22.569],[-42.8675,-22.5667],[-42.8685,-22.5686],[-42.8686,-22.569]]]}},{"type":"Feature","properties":{"cod_tema":"ARL_PROPOSTA","cod_imovel":"RJ-3301850-2B8B6D49E99E4B3C8A0C39D2E7E0FC3C","num_area":"2.1626000000000000000000000000000","ind_status":"PE"},"geometry":{"type":"Polygon","coordinates":[[[-42.9101,-22.4934],[-42.9107,-22.4913],[-42.9098,-22.4933],[-42.9101,-22.4934]]]}},{"type":"Feature","properties":{"cod_tema":"ARL_PROPOSTA","cod_imovel":"RJ-3301850-8E13F6A4A83A46D58F89914619052427","num_area":"74.864000000000000000000000000000","ind_status":"AT"},"geometry":{"type":"Polygon","coordinates":[[[-42.967,-22.5835],[-42.9631,-22.5872],[-42.9672,-22.5861],[-42.967,-22.5835]],[[-42.9665,-22.5873],[-42.9637,-22.5887],[-42.9666,-22.5889],[-42.9665,-22.5873]],[[-42.9857,-22.5837],[-42.9791,-22.5819],[-42.9833,-22.5843],[-42.9857,-22.5837]],[[-42.969,-22.5821],[-42.9732,-22.5826],[-42.9703,-22.5826],[-42.969,-22.5821]],[[-42.9573,-22.5936],[-42.9657,-22.597],[-42.9663,-22.5917],[-42.959,-22.5916],[-42.9573,-22.5936]]]}},{"type":"Feature","properties":{"cod_tema":"ARL_PROPOSTA","cod_imovel":"RJ-3301850-2FF3CE86C27A4933905CF42E999529AE","num_area":"11.640600000000000000000000000000","ind_status":"AT"},"geometry":{"type":"Polygon","coordinates":[[[-42.997,-22.6284],[-42.9946,-22.6326],[-42.9999,-22.6299],[-42.9971,-22.6282],[-42.997,-22.6284]]]}},{"type":"Feature","properties":{"cod_tema":"ARL_PROPOSTA","cod_imovel":"RJ-3301850-F1233C3EA80044B09E69C345492F422C","num_area":"1.9937000000000000000000000000000","ind_status":"PE"},"geometry":{"type":"Polygon","coordinates":[[[-43.0024,-22.5919],[-43.0003,-22.5913],[-43.0024,-22.5919],[-43.0024,-22.5919]]]}},{"type":"Feature","properties":{"cod_tema":"ARL_PROPOSTA","cod_imovel":"RJ-3301850-1DFCDB6B16F942C7817BE7F354375243","num_area":"1.6018000000000000000000000000000","ind_status":"AT"},"geometry":{"type":"Polygon","coordinates":[[[-43.0078,-22.5478],[-43.0103,-22.5493],[-43.0082,-22.548],[-43.0078,-22.5478]]]}},{"type":"Feature","properties":{"cod_tema":"ARL_PROPOSTA","cod_imovel":"RJ-3301850-8E756271B9B24492AC69F16688979807","num_area":"0.8814000000000000000000000000000","ind_status":"PE"},"geometry":{"type":"Polygon","coordinates":[[[-42.9709,-22.5195],[-42.9693,-22.5214],[-42.9711,-22.5194],[-42.9709,-22.5195]]]}},{"type":"Feature","properties":{"cod_tema":"ARL_PROPOSTA","cod_imovel":"RJ-3301850-0F0F7DFAFEB84DDE93C1B8D5A04AAF5E","num_area":"5.2202000000000000000000000000000","ind_status":"AT"},"geometry":{"type":"Polygon","coordinates":[[[-42.9354,-22.488],[-42.9385,-22.49],[-42.9354,-22.488],[-42.9354,-22.488]],[[-42.9357,-22.4897],[-42.9383,-22.4903],[-42.936,-22.4897],[-42.9357,-22.4897]]]}},{"type":"Feature","properties":{"cod_tema":"ARL_PROPOSTA","cod_imovel":"RJ-3301850-F0FBADB84CEF4706B54161D49A93F561","num_area":"62.365000000000000000000000000000","ind_status":"AT"},"geometry":{"type":"Polygon","coordinates":[[[-42.9694,-22.4981],[-42.9657,-22.5017],[-42.9731,-22.5058],[-42.9748,-22.5],[-42.9787,-22.4999],[-42.9781,-22.4963],[-42.9733,-22.5],[-42.9694,-22.4981]],[[-42.9787,-22.4999],[-42.9784,-22.4962],[-42.9788,-22.4997],[-42.9787,-22.4999]]]}},{"type":"Feature","properties":{"cod_tema":"ARL_PROPOSTA","cod_imovel":"RJ-3301850-BF7C758F4271411A8ED3E392BB2E178A","num_area":"2.9707000000000000000000000000000","ind_status":"AT"},"geometry":{"type":"Polygon","coordinates":[[[-42.9711,-22.4866],[-42.9709,-22.4828],[-42.9711,-22.4868],[-42.9711,-22.4866]]]}},{"type":"Feature","properties":{"cod_tema":"ARL_PROPOSTA","cod_imovel":"RJ-3301850-8D30EFE758AB4F8FADB8476A09AB0F50","num_area":"61.015200000000000000000000000000","ind_status":"AT"},"geometry":{"type":"Polygon","coordinates":[[[-42.9512,-22.549],[-42.9418,-22.5451],[-42.9391,-22.5472],[-42.944,-22.5518],[-42.9512,-22.5515],[-42.9512,-22.549]]]}},{"type":"Feature","properties":{"cod_tema":"ARL_PROPOSTA","cod_imovel":"RJ-3301850-63AF773090CF49868BC117A4DD0A565C","num_area":"14.247800000000000000000000000000","ind_status":"AT"},"geometry":{"type":"Polygon","coordinates":[[[-42.93,-22.5026],[-42.9267,-22.5042],[-42.9304,-22.5059],[-42.928,-22.5038],[-42.9299,-22.5026],[-42.93,-22.5026]],[[-42.9306,-22.5056],[-42.9301,-22.5026],[-42.9281,-22.5038],[-42.9303,-22.5055],[-42.9306,-22.5056]]]}},{"type":"Feature","properties":{"cod_tema":"ARL_PROPOSTA","cod_imovel":"RJ-3301850-2D9DCC865A6143B7BDB9602DE81C171D","num_area":"3.1195000000000000000000000000000","ind_status":"AT"},"geometry":{"type":"Polygon","coordinates":[[[-42.9541,-22.5204],[-42.9524,-22.5227],[-42.9546,-22.5199],[-42.9541,-22.5204]]]}},{"type":"Feature","properties":{"cod_tema":"ARL_PROPOSTA","cod_imovel":"RJ-3301850-53489B3C698D4F1BB5F2F042E1393C93","num_area":"2.6169000000000000000000000000000","ind_status":"AT"},"geometry":{"type":"Polygon","coordinates":[[[-42.9598,-22.5597],[-42.9601,-22.5574],[-42.9598,-22.5599],[-42.9598,-22.5597]]]}},{"type":"Feature","properties":{"cod_tema":"ARL_PROPOSTA","cod_imovel":"RJ-3301850-14ECBD22075A4F23A049D1D738840F01","num_area":"31.038200000000000000000000000000","ind_status":"AT"},"geometry":{"type":"Polygon","coordinates":[[[-42.9434,-22.6134],[-42.9409,-22.6145],[-42.9434,-22.6136],[-42.9434,-22.6134]],[[-42.9425,-22.6086],[-42.9416,-22.6065],[-42.9417,-22.6086],[-42.9425,-22.6086]],[[-42.9401,-22.607],[-42.9374,-22.6058],[-42.9367,-22.6088],[-42.9402,-22.6078],[-42.9401,-22.607]],[[-42.9471,-22.6097],[-42.9447,-22.6076],[-42.9467,-22.6098],[-42.9471,-22.6097]],[[-42.939,-22.6005],[-42.9373,-22.6015],[-42.939,-22.6005],[-42.939,-22.6005]]]}},{"type":"Feature","properties":{"cod_tema":"ARL_PROPOSTA","cod_imovel":"RJ-3301850-679BE80B781149C6BEDBE7441ABE87CD","num_area":"55.455800000000000000000000000000","ind_status":"AT"},"geometry":{"type":"Polygon","coordinates":[[[-42.9947,-22.5741],[-42.9806,-22.5684],[-42.9806,-22.5768],[-42.9947,-22.5742],[-42.9947,-22.5741]]]}},{"type":"Feature","properties":{"cod_tema":"ARL_PROPOSTA","cod_imovel":"RJ-3301850-8A8D30A3E9204405AC37B37EAD054BF6","num_area":"2.5993000000000000000000000000000","ind_status":"AT"},"geometry":{"type":"Polygon","coordinates":[[[-42.9026,-22.5345],[-42.9057,-22.5335],[-42.9036,-22.5336],[-42.9026,-22.5345]]]}},{"type":"Feature","properties":{"cod_tema":"ARL_PROPOSTA","cod_imovel":"RJ-3301850-CB193996944347B29879DA1259AA9BFD","num_area":"2.8471000000000000000000000000000","ind_status":"AT"},"geometry":{"type":"Polygon","coordinates":[[[-42.9305,-22.5483],[-42.9317,-22.5501],[-42.9306,-22.5484],[-42.9305,-22.5483]]]}},{"type":"Feature","properties":{"cod_tema":"ARL_PROPOSTA","cod_imovel":"RJ-3301850-ED9603BDF8944BBD85127A8F8B1216FF","num_area":"47.701000000000000000000000000000","ind_status":"PE"},"geometry":{"type":"Polygon","coordinates":[[[-42.9744,-22.4794],[-42.9782,-22.4762],[-42.974,-22.4715],[-42.9684,-22.4732],[-42.9744,-22.4794]]]}},{"type":"Feature","properties":{"cod_tema":"ARL_PROPOSTA","cod_imovel":"RJ-3301850-1A39BE9E4B344E8E819988F7942978D6","num_area":"4.1115000000000000000000000000000","ind_status":"AT"},"geometry":{"type":"Polygon","coordinates":[[[-43.0105,-22.6364],[-43.0128,-22.6386],[-43.0105,-22.6363],[-43.0105,-22.6364]]]}},{"type":"Feature","properties":{"cod_tema":"ARL_PROPOSTA","cod_imovel":"RJ-3301850-DB31BE2B540946B898512BA5DEF048E6","num_area":"2.8816000000000000000000000000000","ind_status":"AT"},"geometry":{"type":"Polygon","coordinates":[[[-43.0145,-22.5858],[-43.0117,-22.5839],[-43.0145,-22.584],[-43.0145,-22.5858]]]}},{"type":"Feature","properties":{"cod_tema":"ARL_PROPOSTA","cod_imovel":"RJ-3301850-2F77E62BC63C45B59D40A775F3CAEA72","num_area":"20.623200000000000000000000000000","ind_status":"AT"},"geometry":{"type":"Polygon","coordinates":[[[-42.9724,-22.5993],[-42.978,-22.6005],[-42.9725,-22.5992],[-42.9724,-22.5993]],[[-42.9762,-22.6017],[-42.9832,-22.603],[-42.9781,-22.6006],[-42.9762,-22.6017]],[[-42.9758,-22.6024],[-42.9785,-22.6028],[-42.9758,-22.6023],[-42.9758,-22.6024]]]}},{"type":"Feature","properties":{"cod_tema":"ARL_PROPOSTA","cod_imovel":"RJ-3301850-D457FB306E844601B04915EE452A6BF1","num_area":"6.6713000000000000000000000000000","ind_status":"AT"},"geometry":{"type":"Polygon","coordinates":[[[-42.9387,-22.5805],[-42.9422,-22.5811],[-42.9397,-22.5793],[-42.9387,-22.5805]]]}}]}