{"type":"FeatureCollection","features":[{"type":"Feature","properties":{"cod_tema":"ARL_PROPOSTA","cod_imovel":"RJ-3302270-57FE36C450E34099940E59678A1AD465","num_area":"5.9304000000000000000000000000000","ind_status":"AT"},"geometry":{"type":"Polygon","coordinates":[[[-43.5553,-22.6564],[-43.556,-22.6587],[-43.5558,-22.6566],[-43.5553,-22.6564]],[[-43.5588,-22.6616],[-43.5611,-22.6609],[-43.5588,-22.6614],[-43.5588,-22.6616]],[[-43.5565,-22.6551],[-43.5587,-22.6545],[-43.5565,-22.6551],[-43.5565,-22.6551]]]}},{"type":"Feature","properties":{"cod_tema":"ARL_PROPOSTA","cod_imovel":"RJ-3302270-086FC5FF5990481BADBFAFD748E1DB81","num_area":"11.720100000000000000000000000000","ind_status":"AT"},"geometry":{"type":"Polygon","coordinates":[[[-43.5778,-22.6425],[-43.5748,-22.6441],[-43.5772,-22.643],[-43.5778,-22.6425]],[[-43.5731,-22.6409],[-43.5763,-22.6401],[-43.5739,-22.6389],[-43.5731,-22.6409]],[[-43.5772,-22.6417],[-43.5746,-22.643],[-43.5767,-22.6417],[-43.5772,-22.6417]]]}},{"type":"Feature","properties":{"cod_tema":"ARL_PROPOSTA","cod_imovel":"RJ-3302270-D177F3F218AC4AF4B840138B0ED7474D","num_area":"4.1846000000000000000000000000000","ind_status":"AT"},"geometry":{"type":"Polygon","coordinates":[[[-43.5954,-22.6297],[-43.5925,-22.6286],[-43.5951,-22.6297],[-43.5954,-22.6297]]]}},{"type":"Feature","properties":{"cod_tema":"ARL_PROPOSTA","cod_imovel":"RJ-3302270-CF61A15E6464483397B397FCBC58A8AE","num_area":"4.6948000000000000000000000000000","ind_status":"AT"},"geometry":{"type":"Polygon","coordinates":[[[-43.6596,-22.6291],[-43.6623,-22.6282],[-43.6595,-22.629],[-43.6596,-22.6291]]]}},{"type":"Feature","properties":{"cod_tema":"ARL_PROPOSTA","cod_imovel":"RJ-3302270-8AC1A8FD21934A19A8495DC7285ED845","num_area":"8.0530000000000000000000000000000","ind_status":"PE"},"geometry":{"type":"Polygon","coordinates":[[[-43.6346,-22.6921],[-43.6427,-22.6933],[-43.6424,-22.6956],[-43.6448,-22.6935],[-43.6346,-22.6918],[-43.6346,-22.6921]]]}},{"type":"Feature","properties":{"cod_tema":"ARL_PROPOSTA","cod_imovel":"RJ-3302270-D4F110EB3D6F4E12AE1134672B180FD3","num_area":"2.5909000000000000000000000000000","ind_status":"PE"},"geometry":{"type":"Polygon","coordinates":[[[-43.5674,-22.6661],[-43.569,-22.6643],[-43.5672,-22.666],[-43.5674,-22.6661]]]}},{"type":"Feature","properties":{"cod_tema":"ARL_PROPOSTA","cod_imovel":"RJ-3302270-0E0AA7045EBF4BB49372B6BF19C6456F","num_area":"1.1192000000000000000000000000000","ind_status":"PE"},"geometry":{"type":"Polygon","coordinates":[[[-43.65,-22.6855],[-43.6474,-22.6891],[-43.6497,-22.6859],[-43.65,-22.6855]]]}},{"type":"Feature","properties":{"cod_tema":"ARL_PROPOSTA","cod_imovel":"RJ-3302270-5A4717C2F7024D529363051BC06A3B21","num_area":"12.763400000000000000000000000000","ind_status":"AT"},"geometry":{"type":"Polygon","coordinates":[[[-43.6333,-22.6567],[-43.6363,-22.6526],[-43.6308,-22.6542],[-43.6338,-22.6547],[-43.6318,-22.6587],[-43.6333,-22.6567]]]}},{"type":"Feature","properties":{"cod_tema":"ARL_PROPOSTA","cod_imovel":"RJ-3302270-29F83C1754714D019621E13F4F59E250","num_area":"3.0004000000000000000000000000000","ind_status":"AT"},"geometry":{"type":"Polygon","coordinates":[[[-43.5542,-22.6502],[-43.5563,-22.6477],[-43.5541,-22.6501],[-43.5542,-22.6502]]]}},{"type":"Feature","properties":{"cod_tema":"ARL_PROPOSTA","cod_imovel":"RJ-3302270-8BF42BD592D24AD69CCFF94EA08C26A2","num_area":"2.6189000000000000000000000000000","ind_status":"AT"},"geometry":{"type":"Polygon","coordinates":[[[-43.5765,-22.6284],[-43.577,-22.6309],[-43.5767,-22.6286],[-43.5765,-22.6284]]]}},{"type":"Feature","properties":{"cod_tema":"ARL_PROPOSTA","cod_imovel":"RJ-3302270-E14DC0A5D7F1458D8B58330D8BA81560","num_area":"21.949100000000000000000000000000","ind_status":"AT"},"geometry":{"type":"Polygon","coordinates":[[[-43.557,-22.6675],[-43.5531,-22.6692],[-43.5549,-22.6709],[-43.5574,-22.6676],[-43.557,-22.6675]],[[-43.5465,-22.6657],[-43.5473,-22.6686],[-43.5492,-22.6667],[-43.5467,-22.6654],[-43.5465,-22.6657]],[[-43.5436,-22.6644],[-43.5466,-22.6655],[-43.544,-22.664],[-43.5436,-22.6644]]]}},{"type":"Feature","properties":{"cod_tema":"ARL_PROPOSTA","cod_imovel":"RJ-3302270-DDF62FC0063149DA8C7F4B91A0303297","num_area":"5.7020000000000000000000000000000","ind_status":"AT"},"geometry":{"type":"Polygon","coordinates":[[[-43.5782,-22.6811],[-43.5806,-22.6836],[-43.579,-22.6807],[-43.5782,-22.6811]]]}},{"type":"Feature","properties":{"cod_tema":"ARL_PROPOSTA","cod_imovel":"RJ-3302270-6124687041C8486AB2CFB4C1C91121A3","num_area":"7.5049000000000000000000000000000","ind_status":"AT"},"geometry":{"type":"Polygon","coordinates":[[[-43.5628,-22.6386],[-43.5578,-22.6378],[-43.5624,-22.6394],[-43.5628,-22.6386]]]}},{"type":"Feature","properties":{"cod_tema":"ARL_PROPOSTA","cod_imovel":"RJ-3302270-E9DE8A799D8046348E8141E88E8AD256","num_area":"8.1412000000000000000000000000000","ind_status":"AT"},"geometry":{"type":"Polygon","coordinates":[[[-43.5862,-22.6488],[-43.5834,-22.6503],[-43.5853,-22.6532],[-43.5865,-22.6513],[-43.5862,-22.6488]]]}},{"type":"Feature","properties":{"cod_tema":"ARL_PROPOSTA","cod_imovel":"RJ-3302270-4C97C7AA49D040A5A033941A0009E563","num_area":"3.4349000000000000000000000000000","ind_status":"AT"},"geometry":{"type":"Polygon","coordinates":[[[-43.5973,-22.6597],[-43.5949,-22.6579],[-43.5968,-22.6606],[-43.5973,-22.6597]]]}},{"type":"Feature","properties":{"cod_tema":"ARL_PROPOSTA","cod_imovel":"RJ-3302270-F326E6CF0E674227902389A5B897A9DF","num_area":"2.1167000000000000000000000000000","ind_status":"AT"},"geometry":{"type":"Polygon","coordinates":[[[-43.594,-22.6591],[-43.5951,-22.6565],[-43.5939,-22.659],[-43.594,-22.6591]]]}},{"type":"Feature","properties":{"cod_tema":"ARL_PROPOSTA","cod_imovel":"RJ-3302270-C00C5DFC7B264C479562DFAF17F75918","num_area":"4.9712000000000000000000000000000","ind_status":"AT"},"geometry":{"type":"Polygon","coordinates":[[[-43.6591,-22.637],[-43.6564,-22.6343],[-43.6589,-22.6369],[-43.6591,-22.637]]]}},{"type":"Feature","properties":{"cod_tema":"ARL_PROPOSTA","cod_imovel":"RJ-3302270-8FB484058C9E4933BAA494B440033121","num_area":"1.6129000000000000000000000000000","ind_status":"AT"},"geometry":{"type":"Polygon","coordinates":[[[-43.549,-22.6546],[-43.5491,-22.6569],[-43.5497,-22.6548],[-43.549,-22.6546]]]}},{"type":"Feature","properties":{"cod_tema":"ARL_PROPOSTA","cod_imovel":"RJ-3302270-8D9627D9721644DF88E2D9A1A7706681","num_area":"10.803600000000000000000000000000","ind_status":"AT"},"geometry":{"type":"Polygon","coordinates":[[[-43.6542,-22.6258],[-43.6562,-22.6239],[-43.6486,-22.6283],[-43.6542,-22.6258]]]}},{"type":"Feature","properties":{"cod_tema":"ARL_PROPOSTA","cod_imovel":"RJ-3302270-06E0FB422FD84259AD6AF3A51FF9B2D0","num_area":"3.0578000000000000000000000000000","ind_status":"AT"},"geometry":{"type":"Polygon","coordinates":[[[-43.5741,-22.6827],[-43.5718,-22.6815],[-43.5742,-22.6828],[-43.5741,-22.6827]]]}},{"type":"Feature","properties":{"cod_tema":"ARL_PROPOSTA","cod_imovel":"RJ-3302270-3BE8A98588114146AEC813201E976BE0","num_area":"2.3222000000000000000000000000000","ind_status":"PE"},"geometry":{"type":"Polygon","coordinates":[[[-43.6225,-22.7127],[-43.6252,-22.715],[-43.6223,-22.7125],[-43.6225,-22.7127]]]}},{"type":"Feature","properties":{"cod_tema":"ARL_PROPOSTA","cod_imovel":"RJ-3302270-C5BCCEA72A414D969770ED8ACF175328","num_area":"33.794400000000000000000000000000","ind_status":"AT"},"geometry":{"type":"Polygon","coordinates":[[[-43.6411,-22.6221],[-43.6379,-22.6204],[-43.639,-22.6303],[-43.6414,-22.6306],[-43.6415,-22.622],[-43.6411,-22.6221]]]}},{"type":"Feature","properties":{"cod_tema":"ARL_PROPOSTA","cod_imovel":"RJ-3302270-CE2E28A9C03B40BEBD718AD49F0C352E","num_area":"2.3993000000000000000000000000000","ind_status":"AT"},"geometry":{"type":"Polygon","coordinates":[[[-43.5777,-22.6169],[-43.5757,-22.6159],[-43.5777,-22.6169],[-43.5777,-22.6169]]]}},{"type":"Feature","properties":{"cod_tema":"ARL_PROPOSTA","cod_imovel":"RJ-3302270-2262694F0BC14D96B808C2F61F08169B","num_area":"131.88920000000000000000000000000","ind_status":"AT"},"geometry":{"type":"Polygon","coordinates":[[[-43.5819,-22.6147],[-43.5794,-22.6152],[-43.5815,-22.617],[-43.5819,-22.6147],[-43.5819,-22.6147]],[[-43.5623,-22.6176],[-43.5661,-22.6189],[-43.5625,-22.6174],[-43.5623,-22.6176]],[[-43.5921,-22.6106],[-43.5942,-22.6113],[-43.5921,-22.6106],[-43.5921,-22.6106]],[[-43.5966,-22.612],[-43.599,-22.6122],[-43.5966,-22.6119],[-43.5966,-22.612]],[[-43.597,-22.6132],[-43.5991,-22.6122],[-43.597,-22.6131],[-43.597,-22.6132]],[[-43.5765,-22.6049],[-43.5744,-22.6065],[-43.5766,-22.605],[-43.5765,-22.6049]],[[-43.5792,-22.6007],[-43.5759,-22.5988],[-43.5792,-22.6007],[-43.5792,-22.6007]],[[-43.5754,-22.6003],[-43.5781,-22.6029],[-43.5755,-22.6003],[-43.5754,-22.6003]],[[-43.5987,-22.6153],[-43.5998,-22.613],[-43.5986,-22.6153],[-43.5987,-22.6153]],[[-43.5967,-22.6147],[-43.5945,-22.6157],[-43.5967,-22.6148],[-43.5967,-22.6147]],[[-43.5952,-22.6134],[-43.5946,-22.6162],[-43.5952,-22.6134],[-43.5952,-22.6134]],[[-43.565,-22.6261],[-43.5647,-22.6299],[-43.568,-22.6247],[-43.5651,-22.6261],[-43.565,-22.6261]],[[-43.5778,-22.6042],[-43.5785,-22.6087],[-43.5813,-22.6042],[-43.5778,-22.6042],[-43.5778,-22.6042]],[[-43.5806,-22.607],[-43.5839,-22.611],[-43.5868,-22.6057],[-43.5848,-22.6043],[-43.5879,-22.6045],[-43.5813,-22.604],[-43.5806,-22.607],[-43.5806,-22.607]],[[-43.5818,-22.6065],[-43.5844,-22.6082],[-43.5818,-22.6065],[-43.5818,-22.6065]],[[-43.5881,-22.605],[-43.5866,-22.6032],[-43.588,-22.605],[-43.5881,-22.605]],[[-43.5899,-22.6066],[-43.5886,-22.6084],[-43.5899,-22.6067],[-43.5899,-22.6066]],[[-43.5952,-22.6085],[-43.5961,-22.6054],[-43.5904,-22.6075],[-43.5951,-22.6085],[-43.5952,-22.6085]],[[-43.5947,-22.6061],[-43.5986,-22.6049],[-43.5944,-22.6062],[-43.5947,-22.6061]],[[-43.5942,-22.6059],[-43.5896,-22.6083],[-43.5943,-22.6059],[-43.5942,-22.6059]],[[-43.5932,-22.6041],[-43.5909,-22.6053],[-43.5931,-22.6041],[-43.5932,-22.6041]],[[-43.5906,-22.6043],[-43.5901,-22.6067],[-43.5907,-22.6045],[-43.5906,-22.6043]],[[-43.5885,-22.6054],[-43.5882,-22.6091],[-43.5885,-22.6054],[-43.5885,-22.6054]],[[-43.6011,-22.6076],[-43.5978,-22.605],[-43.595,-22.609],[-43.6009,-22.6076],[-43.6011,-22.6076]],[[-43.5939,-22.6087],[-43.5918,-22.609],[-43.5938,-22.6088],[-43.5939,-22.6087]],[[-43.5912,-22.6094],[-43.5959,-22.6088],[-43.5911,-22.6092],[-43.5912,-22.6094]]]}},{"type":"Feature","properties":{"cod_tema":"ARL_PROPOSTA","cod_imovel":"RJ-3302270-8F4B4CC53ECB4C949D9E963AD414EACF","num_area":"4.9280000000000000000000000000000","ind_status":"AT"},"geometry":{"type":"Polygon","coordinates":[[[-43.5819,-22.6467],[-43.5833,-22.6486],[-43.5846,-22.646],[-43.5819,-22.6467]]]}},{"type":"Feature","properties":{"cod_tema":"ARL_PROPOSTA","cod_imovel":"RJ-3302270-02FF84BCBF6B433A9D0E4B7103550C8E","num_area":"5.4642000000000000000000000000000","ind_status":"AT"},"geometry":{"type":"Polygon","coordinates":[[[-43.5735,-22.6553],[-43.5784,-22.6608],[-43.5736,-22.6551],[-43.5735,-22.6553]]]}},{"type":"Feature","properties":{"cod_tema":"ARL_PROPOSTA","cod_imovel":"RJ-3302270-DBD730C562094D328D04B0B7DAAE1F6F","num_area":"0.9925000000000000000000000000000","ind_status":"AT"},"geometry":{"type":"Polygon","coordinates":[[[-43.5825,-22.648],[-43.584,-22.6466],[-43.5824,-22.6481],[-43.5825,-22.648]]]}},{"type":"Feature","properties":{"cod_tema":"ARL_PROPOSTA","cod_imovel":"RJ-3302270-8B3BB8821C8F41ECA1380D0599F49F80","num_area":"9.5571000000000000000000000000000","ind_status":"AT"},"geometry":{"type":"Polygon","coordinates":[[[-43.5767,-22.6486],[-43.5737,-22.6484],[-43.5767,-22.6486],[-43.5767,-22.6486]],[[-43.5759,-22.6526],[-43.576,-22.6493],[-43.576,-22.6524],[-43.5759,-22.6526]],[[-43.5755,-22.6483],[-43.5722,-22.647],[-43.5753,-22.6485],[-43.5755,-22.6483]]]}},{"type":"Feature","properties":{"cod_tema":"ARL_PROPOSTA","cod_imovel":"RJ-3302270-B58A6420D18C431FA9F1F6B124B68DF4","num_area":"3.9014000000000000000000000000000","ind_status":"AT"},"geometry":{"type":"Polygon","coordinates":[[[-43.5787,-22.6556],[-43.576,-22.6527],[-43.5782,-22.6557],[-43.5787,-22.6556]]]}},{"type":"Feature","properties":{"cod_tema":"ARL_PROPOSTA","cod_imovel":"RJ-3302270-1B7EDFDD8ABB4A54B8A6826859CFF5D6","num_area":"5.5633000000000000000000000000000","ind_status":"AT"},"geometry":{"type":"Polygon","coordinates":[[[-43.5616,-22.6688],[-43.5577,-22.6676],[-43.5612,-22.6686],[-43.5616,-22.6688]]]}},{"type":"Feature","properties":{"cod_tema":"ARL_PROPOSTA","cod_imovel":"RJ-3302270-DEBAD2C4048349808CC28165E9FFECF1","num_area":"3.2073000000000000000000000000000","ind_status":"AT"},"geometry":{"type":"Polygon","coordinates":[[[-43.5575,-22.6696],[-43.5585,-22.6713],[-43.5577,-22.6691],[-43.5575,-22.6696]]]}},{"type":"Feature","properties":{"cod_tema":"ARL_PROPOSTA","cod_imovel":"RJ-3302270-F1E4D46A9D2E4EBA9F5BC428CA3FE74E","num_area":"3.3487000000000000000000000000000","ind_status":"AT"},"geometry":{"type":"Polygon","coordinates":[[[-43.5577,-22.6688],[-43.5551,-22.6708],[-43.5577,-22.6688],[-43.5577,-22.6688]]]}},{"type":"Feature","properties":{"cod_tema":"ARL_PROPOSTA","cod_imovel":"RJ-3302270-1E7FE337DFAB4B4F92217FB6795AAB27","num_area":"6.6714000000000000000000000000000","ind_status":"AT"},"geometry":{"type":"Polygon","coordinates":[[[-43.627,-22.7173],[-43.6298,-22.7218],[-43.6277,-22.7169],[-43.627,-22.7173]]]}},{"type":"Feature","properties":{"cod_tema":"ARL_PROPOSTA","cod_imovel":"RJ-3302270-DA7790CA32EC459387DC0A215680BEC4","num_area":"17.647900000000000000000000000000","ind_status":"AT"},"geometry":{"type":"Polygon","coordinates":[[[-43.639,-22.6967],[-43.6371,-22.6976],[-43.64,-22.6986],[-43.639,-22.6967]],[[-43.6454,-22.6964],[-43.6428,-22.7041],[-43.6453,-22.6966],[-43.6454,-22.6964]]]}},{"type":"Feature","properties":{"cod_tema":"ARL_PROPOSTA","cod_imovel":"RJ-3302270-AADEB3B83368438C8B66D613D09BC7B1","num_area":"3.5045000000000000000000000000000","ind_status":"AT"},"geometry":{"type":"Polygon","coordinates":[[[-43.5936,-22.6448],[-43.5904,-22.6447],[-43.5933,-22.645],[-43.5936,-22.6448]]]}},{"type":"Feature","properties":{"cod_tema":"ARL_PROPOSTA","cod_imovel":"RJ-3302270-6E0A318FFD2743E4B11C1261AA00A475","num_area":"1.6122000000000000000000000000000","ind_status":"PE"},"geometry":{"type":"Polygon","coordinates":[[[-43.5777,-22.6885],[-43.5738,-22.685],[-43.5776,-22.6885],[-43.5777,-22.6885]]]}},{"type":"Feature","properties":{"cod_tema":"ARL_PROPOSTA","cod_imovel":"RJ-3302270-333A936CE53D4DBAACF481DC1EDA130A","num_area":"3.8245000000000000000000000000000","ind_status":"AT"},"geometry":{"type":"Polygon","coordinates":[[[-43.5843,-22.6496],[-43.5844,-22.647],[-43.5837,-22.6499],[-43.5843,-22.6496]]]}},{"type":"Feature","properties":{"cod_tema":"ARL_PROPOSTA","cod_imovel":"RJ-3302270-CB539AD107C6428B8875B89A83C90551","num_area":"2.1611000000000000000000000000000","ind_status":"AT"},"geometry":{"type":"Polygon","coordinates":[[[-43.5928,-22.6343],[-43.5953,-22.634],[-43.5929,-22.6344],[-43.5928,-22.6343]]]}},{"type":"Feature","properties":{"cod_tema":"ARL_PROPOSTA","cod_imovel":"RJ-3302270-59CCD43209444D1D9137E08EE0A9F8A6","num_area":"2.2883000000000000000000000000000","ind_status":"AT"},"geometry":{"type":"Polygon","coordinates":[[[-43.5711,-22.6449],[-43.5729,-22.6465],[-43.571,-22.6448],[-43.5711,-22.6449]]]}},{"type":"Feature","properties":{"cod_tema":"ARL_PROPOSTA","cod_imovel":"RJ-3302270-D5C9A01E8D93418EA5D2446009F0A333","num_area":"8.5214000000000000000000000000000","ind_status":"AT"},"geometry":{"type":"Polygon","coordinates":[[[-43.565,-22.6712],[-43.5656,-22.6756],[-43.5655,-22.6712],[-43.565,-22.6712]],[[-43.5663,-22.6654],[-43.5637,-22.6666],[-43.5665,-22.6657],[-43.5663,-22.6654]]]}},{"type":"Feature","properties":{"cod_tema":"ARL_PROPOSTA","cod_imovel":"RJ-3302270-271C0853BEA742C283AA1EBC270BC0FE","num_area":"2.5603000000000000000000000000000","ind_status":"AT"},"geometry":{"type":"Polygon","coordinates":[[[-43.6702,-22.6481],[-43.6695,-22.6447],[-43.6694,-22.6482],[-43.6702,-22.6481]]]}},{"type":"Feature","properties":{"cod_tema":"ARL_PROPOSTA","cod_imovel":"RJ-3302270-1E15FE4E27E541B7A10BDC0CC4861811","num_area":"15.956500000000000000000000000000","ind_status":"AT"},"geometry":{"type":"Polygon","coordinates":[[[-43.5679,-22.6508],[-43.5656,-22.6501],[-43.5677,-22.6508],[-43.5679,-22.6508]],[[-43.5641,-22.652],[-43.5669,-22.6477],[-43.5639,-22.646],[-43.5641,-22.6519],[-43.5641,-22.652]],[[-43.5639,-22.6523],[-43.5683,-22.6532],[-43.564,-22.6522],[-43.5639,-22.6523]]]}},{"type":"Feature","properties":{"cod_tema":"ARL_PROPOSTA","cod_imovel":"RJ-3302270-D90CF376DE224B96B0E79C464170EAEA","num_area":"8.9286000000000000000000000000000","ind_status":"AT"},"geometry":{"type":"Polygon","coordinates":[[[-43.5639,-22.6458],[-43.5674,-22.6477],[-43.5694,-22.6444],[-43.5649,-22.6448],[-43.5639,-22.6458]]]}},{"type":"Feature","properties":{"cod_tema":"ARL_PROPOSTA","cod_imovel":"RJ-3302270-95E76EF830DC4AB79BE8083BF18E77FA","num_area":"0.3868000000000000000000000000000","ind_status":"AT"},"geometry":{"type":"Polygon","coordinates":[[[-43.6286,-22.6458],[-43.6288,-22.6492],[-43.6287,-22.6458],[-43.6286,-22.6458]]]}},{"type":"Feature","properties":{"cod_tema":"ARL_PROPOSTA","cod_imovel":"RJ-3302270-355DDC588B16481B96FE0BC476EC87A2","num_area":"7.3292000000000000000000000000000","ind_status":"AT"},"geometry":{"type":"Polygon","coordinates":[[[-43.589,-22.6635],[-43.5898,-22.6603],[-43.5889,-22.6636],[-43.589,-22.6635]]]}},{"type":"Feature","properties":{"cod_tema":"ARL_PROPOSTA","cod_imovel":"RJ-3302270-5257EBAD35D849B8BB537EE38EA30F72","num_area":"7.6132000000000000000000000000000","ind_status":"AT"},"geometry":{"type":"Polygon","coordinates":[[[-43.5861,-22.6295],[-43.5884,-22.6312],[-43.5862,-22.6293],[-43.5861,-22.6295]],[[-43.5943,-22.6278],[-43.5905,-22.6253],[-43.5944,-22.6279],[-43.5943,-22.6278]]]}},{"type":"Feature","properties":{"cod_tema":"ARL_PROPOSTA","cod_imovel":"RJ-3302270-986460835C4F447F93CFDE2880854FF1","num_area":"14.172500000000000000000000000000","ind_status":"AT"},"geometry":{"type":"Polygon","coordinates":[[[-43.6173,-22.6332],[-43.6194,-22.6349],[-43.6174,-22.6332],[-43.6173,-22.6332]],[[-43.6208,-22.638],[-43.6187,-22.6365],[-43.6204,-22.638],[-43.6208,-22.638]],[[-43.6211,-22.6353],[-43.6216,-22.6378],[-43.6213,-22.6352],[-43.6211,-22.6353]],[[-43.6211,-22.6338],[-43.6184,-22.6329],[-43.6211,-22.6338],[-43.6211,-22.6338]],[[-43.6247,-22.6412],[-43.6221,-22.6392],[-43.6247,-22.6412],[-43.6247,-22.6412]],[[-43.6243,-22.6387],[-43.6223,-22.6369],[-43.6243,-22.6388],[-43.6243,-22.6387]],[[-43.6246,-22.638],[-43.6224,-22.6371],[-43.6247,-22.6379],[-43.6246,-22.638]]]}},{"type":"Feature","properties":{"cod_tema":"ARL_PROPOSTA","cod_imovel":"RJ-3302270-5A3551892CCE42E48931EB9A25F4F8CE","num_area":"24.271200000000000000000000000000","ind_status":"AT"},"geometry":{"type":"Polygon","coordinates":[[[-43.5801,-22.6231],[-43.5789,-22.6281],[-43.5803,-22.6231],[-43.5801,-22.6231]],[[-43.5837,-22.6269],[-43.5827,-22.6295],[-43.584,-22.6272],[-43.5837,-22.6269]],[[-43.5738,-22.6254],[-43.5763,-22.6229],[-43.5737,-22.6254],[-43.5738,-22.6254]],[[-43.578,-22.6321],[-43.5866,-22.6318],[-43.5879,-22.6279],[-43.5789,-22.6317],[-43.578,-22.6321]]]}},{"type":"Feature","properties":{"cod_tema":"ARL_PROPOSTA","cod_imovel":"RJ-3302270-7F0DF4817B264FCD97C9239BBFA98D6B","num_area":"61.501900000000000000000000000000","ind_status":"SU"},"geometry":{"type":"Polygon","coordinates":[[[-43.6206,-22.6442],[-43.6185,-22.6459],[-43.6207,-22.6441],[-43.6206,-22.6442]],[[-43.6225,-22.65],[-43.6197,-22.6479],[-43.6208,-22.6502],[-43.6185,-22.65],[-43.6252,-22.6547],[-43.6261,-22.651],[-43.6225,-22.6502],[-43.6225,-22.65]],[[-43.6156,-22.6471],[-43.614,-22.6449],[-43.6155,-22.6471],[-43.6156,-22.6471]],[[-43.6235,-22.6493],[-43.6261,-22.649],[-43.6235,-22.6492],[-43.6235,-22.6493]],[[-43.6237,-22.6466],[-43.6207,-22.6475],[-43.6238,-22.6471],[-43.6237,-22.6466]],[[-43.6184,-22.6492],[-43.6127,-22.6464],[-43.6167,-22.649],[-43.6143,-22.6498],[-43.6184,-22.6493],[-43.6184,-22.6492]],[[-43.6113,-22.6484],[-43.6194,-22.6562],[-43.6255,-22.6555],[-43.6116,-22.6484],[-43.6113,-22.6484]]]}},{"type":"Feature","properties":{"cod_tema":"ARL_PROPOSTA","cod_imovel":"RJ-3302270-625FBC0396704F289AF313FCEC41EE72","num_area":"24.816900000000000000000000000000","ind_status":"AT"},"geometry":{"type":"Polygon","coordinates":[[[-43.6236,-22.6615],[-43.6266,-22.6623],[-43.6235,-22.6614],[-43.6236,-22.6615]],[[-43.6256,-22.6601],[-43.6293,-22.6604],[-43.6257,-22.66],[-43.6256,-22.6601]],[[-43.6254,-22.6555],[-43.6202,-22.6563],[-43.6287,-22.6573],[-43.6255,-22.6555],[-43.6254,-22.6555]],[[-43.6188,-22.6577],[-43.6225,-22.6604],[-43.6185,-22.6574],[-43.6188,-22.6577]]]}},{"type":"Feature","properties":{"cod_tema":"ARL_PROPOSTA","cod_imovel":"RJ-3302270-D2B351B8811845B3BEC3D4F0EBBFB98E","num_area":"3.7364000000000000000000000000000","ind_status":"AT"},"geometry":{"type":"Polygon","coordinates":[[[-43.5865,-22.6368],[-43.5879,-22.6394],[-43.588,-22.6369],[-43.5865,-22.6368]]]}},{"type":"Feature","properties":{"cod_tema":"ARL_PROPOSTA","cod_imovel":"RJ-3302270-1879128482154EE58E66F5AC0934CDE5","num_area":"1.9892000000000000000000000000000","ind_status":"AT"},"geometry":{"type":"Polygon","coordinates":[[[-43.5864,-22.6363],[-43.5887,-22.6365],[-43.5866,-22.6359],[-43.5864,-22.6363]]]}}]}