{"type":"FeatureCollection","features":[{"type":"Feature","properties":{"cod_tema":"ARL_PROPOSTA","cod_imovel":"RJ-3302304-9CB8E2E70C614E1D8293BF500573BA13","num_area":"4.8483000000000000000000000000000","ind_status":"AT"},"geometry":{"type":"Polygon","coordinates":[[[-42.0954,-21.3158],[-42.0937,-21.3197],[-42.0957,-21.316],[-42.0954,-21.3158]]]}},{"type":"Feature","properties":{"cod_tema":"ARL_PROPOSTA","cod_imovel":"RJ-3302304-2D786FBD26B24963842E4B2CC4119DE6","num_area":"4.2675000000000000000000000000000","ind_status":"AT"},"geometry":{"type":"Polygon","coordinates":[[[-42.0973,-21.2355],[-42.0957,-21.2329],[-42.0969,-21.2354],[-42.0973,-21.2355]]]}},{"type":"Feature","properties":{"cod_tema":"ARL_PROPOSTA","cod_imovel":"RJ-3302304-50582B9C9CB14875BC6949F2C25D7300","num_area":"1.6490000000000000000000000000000","ind_status":"AT"},"geometry":{"type":"Polygon","coordinates":[[[-42.1198,-21.2416],[-42.1218,-21.2409],[-42.1192,-21.2414],[-42.1198,-21.2416]]]}},{"type":"Feature","properties":{"cod_tema":"ARL_PROPOSTA","cod_imovel":"RJ-3302304-0236DEF4296341EE9233E1EFDBD921CE","num_area":"3.7346000000000000000000000000000","ind_status":"AT"},"geometry":{"type":"Polygon","coordinates":[[[-42.1487,-21.2134],[-42.1467,-21.2061],[-42.1487,-21.2134],[-42.1487,-21.2134]]]}},{"type":"Feature","properties":{"cod_tema":"ARL_PROPOSTA","cod_imovel":"RJ-3302304-0BB5D559E20E40538090957C73AF53C7","num_area":"5.8316000000000000000000000000000","ind_status":"AT"},"geometry":{"type":"Polygon","coordinates":[[[-42.1664,-21.2018],[-42.1642,-21.1999],[-42.1667,-21.202],[-42.1664,-21.2018]],[[-42.1681,-21.1979],[-42.1653,-21.1947],[-42.1649,-21.1967],[-42.1681,-21.1979]]]}},{"type":"Feature","properties":{"cod_tema":"ARL_PROPOSTA","cod_imovel":"RJ-3302304-0BFDEB8DE9EF4A78A53AF07727CA8A8E","num_area":"14.121300000000000000000000000000","ind_status":"AT"},"geometry":{"type":"Polygon","coordinates":[[[-42.1696,-21.171],[-42.168,-21.1665],[-42.1646,-21.1673],[-42.1691,-21.1709],[-42.1696,-21.171]]]}},{"type":"Feature","properties":{"cod_tema":"ARL_PROPOSTA","cod_imovel":"RJ-3302304-14A4928168A243C192B725BBDD279629","num_area":"7.8005000000000000000000000000000","ind_status":"AT"},"geometry":{"type":"Polygon","coordinates":[[[-42.1753,-21.1954],[-42.1805,-21.1997],[-42.1755,-21.1953],[-42.1753,-21.1954]],[[-42.1753,-21.1954],[-42.1805,-21.2],[-42.1756,-21.1957],[-42.1753,-21.1954]],[[-42.1756,-21.1963],[-42.1732,-21.1977],[-42.1754,-21.1962],[-42.1756,-21.1963]]]}},{"type":"Feature","properties":{"cod_tema":"ARL_PROPOSTA","cod_imovel":"RJ-3302304-15F8528467E9408EBB519AE1B2B0C6A1","num_area":"7.7883000000000000000000000000000","ind_status":"AT"},"geometry":{"type":"Polygon","coordinates":[[[-42.1652,-21.2447],[-42.168,-21.2426],[-42.1618,-21.2428],[-42.1651,-21.2442],[-42.1652,-21.2447]]]}},{"type":"Feature","properties":{"cod_tema":"ARL_PROPOSTA","cod_imovel":"RJ-3302304-1799B78D8A764B7DADCFEB973D5B884F","num_area":"0.7332000000000000000000000000000","ind_status":"AT"},"geometry":{"type":"Polygon","coordinates":[[[-42.1297,-21.2718],[-42.1291,-21.2695],[-42.1297,-21.2717],[-42.1297,-21.2718]]]}},{"type":"Feature","properties":{"cod_tema":"ARL_PROPOSTA","cod_imovel":"RJ-3302304-20F8601E767449E0878A942A6459ACF4","num_area":"3.5668000000000000000000000000000","ind_status":"AT"},"geometry":{"type":"Polygon","coordinates":[[[-42.0971,-21.2052],[-42.0947,-21.2066],[-42.0968,-21.206],[-42.0971,-21.2052]],[[-42.0901,-21.2125],[-42.0916,-21.2099],[-42.0902,-21.2115],[-42.0901,-21.2125]]]}},{"type":"Feature","properties":{"cod_tema":"ARL_PROPOSTA","cod_imovel":"RJ-3302304-23D305B4EA6D41728E84BDD578303108","num_area":"17.879100000000000000000000000000","ind_status":"AT"},"geometry":{"type":"Polygon","coordinates":[[[-42.0879,-21.3047],[-42.0897,-21.3063],[-42.0882,-21.3044],[-42.0879,-21.3047]],[[-42.0953,-21.2912],[-42.0958,-21.2941],[-42.0958,-21.2919],[-42.0953,-21.2912]],[[-42.0913,-21.3055],[-42.0916,-21.3012],[-42.091,-21.3052],[-42.0913,-21.3055]],[[-42.0847,-21.298],[-42.0826,-21.2999],[-42.0847,-21.298],[-42.0847,-21.298]],[[-42.0894,-21.2976],[-42.087,-21.2983],[-42.0893,-21.3015],[-42.0895,-21.2976],[-42.0894,-21.2976]]]}},{"type":"Feature","properties":{"cod_tema":"ARL_PROPOSTA","cod_imovel":"RJ-3302304-2A34247B52E7465B83CFE5F4117C7643","num_area":"4.4029000000000000000000000000000","ind_status":"AT"},"geometry":{"type":"Polygon","coordinates":[[[-42.0947,-21.3321],[-42.0967,-21.3338],[-42.0977,-21.3315],[-42.0954,-21.3316],[-42.0947,-21.3321]]]}},{"type":"Feature","properties":{"cod_tema":"ARL_PROPOSTA","cod_imovel":"RJ-3302304-2B5EB45CAE6944B9B9EA72BC43FF6BB5","num_area":"14.063000000000000000000000000000","ind_status":"AT"},"geometry":{"type":"Polygon","coordinates":[[[-42.1113,-21.2303],[-42.1152,-21.2325],[-42.1111,-21.2306],[-42.1113,-21.2303]],[[-42.1211,-21.2325],[-42.1153,-21.2324],[-42.1211,-21.2327],[-42.1211,-21.2325]],[[-42.1213,-21.2327],[-42.1155,-21.2321],[-42.1198,-21.2356],[-42.1156,-21.2321],[-42.1213,-21.2327],[-42.1213,-21.2327]],[[-42.1278,-21.231],[-42.1328,-21.2279],[-42.1204,-21.2323],[-42.129,-21.2281],[-42.1211,-21.2325],[-42.1276,-21.2309],[-42.1278,-21.231]]]}},{"type":"Feature","properties":{"cod_tema":"ARL_PROPOSTA","cod_imovel":"RJ-3302304-44A6F3FD2DE446CF86F676B29CB91846","num_area":"1.7302000000000000000000000000000","ind_status":"AT"},"geometry":{"type":"Polygon","coordinates":[[[-42.1687,-21.2294],[-42.1679,-21.2316],[-42.1687,-21.2295],[-42.1687,-21.2294]]]}},{"type":"Feature","properties":{"cod_tema":"ARL_PROPOSTA","cod_imovel":"RJ-3302304-2DBB8803AE044BD5BED37CC99914303C","num_area":"19.659900000000000000000000000000","ind_status":"AT"},"geometry":{"type":"Polygon","coordinates":[[[-42.1167,-21.3179],[-42.1103,-21.3223],[-42.1134,-21.3246],[-42.1147,-21.3224],[-42.1107,-21.3225],[-42.1147,-21.3223],[-42.1168,-21.3179],[-42.1167,-21.3179]]]}},{"type":"Feature","properties":{"cod_tema":"ARL_PROPOSTA","cod_imovel":"RJ-3302304-4644203B00F0404E9461AF8DFF8FD7D2","num_area":"92.039700000000000000000000000000","ind_status":"AT"},"geometry":{"type":"Polygon","coordinates":[[[-42.1558,-21.2866],[-42.1648,-21.2879],[-42.1614,-21.2837],[-42.1629,-21.2799],[-42.1589,-21.277],[-42.152,-21.2853],[-42.1472,-21.2865],[-42.1489,-21.2896],[-42.1518,-21.2881],[-42.1487,-21.287],[-42.1554,-21.2872],[-42.1558,-21.2866]]]}},{"type":"Feature","properties":{"cod_tema":"ARL_PROPOSTA","cod_imovel":"RJ-3302304-4B81ABEA731A40AD947DF94CBA33C6FF","num_area":"11.813400000000000000000000000000","ind_status":"AT"},"geometry":{"type":"Polygon","coordinates":[[[-42.097,-21.3376],[-42.0972,-21.3343],[-42.096,-21.3374],[-42.097,-21.3376]],[[-42.0957,-21.333],[-42.0949,-21.335],[-42.0968,-21.3339],[-42.0957,-21.333]]]}},{"type":"Feature","properties":{"cod_tema":"ARL_PROPOSTA","cod_imovel":"RJ-3302304-50846E0157E1416299EBF9A33179562F","num_area":"37.721500000000000000000000000000","ind_status":"AT"},"geometry":{"type":"Polygon","coordinates":[[[-42.172,-21.2475],[-42.1784,-21.2499],[-42.179,-21.2467],[-42.172,-21.2475]],[[-42.1713,-21.2369],[-42.1658,-21.2389],[-42.1723,-21.2379],[-42.1713,-21.2369]]]}},{"type":"Feature","properties":{"cod_tema":"ARL_PROPOSTA","cod_imovel":"RJ-3302304-51C1413DDCB64486B0AF932A24403E9B","num_area":"7.4402000000000000000000000000000","ind_status":"AT"},"geometry":{"type":"Polygon","coordinates":[[[-42.1649,-21.1964],[-42.164,-21.1942],[-42.1648,-21.1966],[-42.1649,-21.1964]],[[-42.1639,-21.2002],[-42.1614,-21.1997],[-42.1638,-21.2003],[-42.1639,-21.2002]]]}},{"type":"Feature","properties":{"cod_tema":"ARL_PROPOSTA","cod_imovel":"RJ-3302304-585BC847B4C548DBABFFB8C65B760E86","num_area":"6.3562000000000000000000000000000","ind_status":"AT"},"geometry":{"type":"Polygon","coordinates":[[[-42.1762,-21.1881],[-42.1729,-21.186],[-42.1756,-21.1882],[-42.1762,-21.1881]]]}},{"type":"Feature","properties":{"cod_tema":"ARL_PROPOSTA","cod_imovel":"RJ-3302304-5FB9D3AA05BE4F74A737A944C5E3B080","num_area":"47.673300000000000000000000000000","ind_status":"AT"},"geometry":{"type":"Polygon","coordinates":[[[-42.1784,-21.2544],[-42.1817,-21.2498],[-42.1767,-21.2494],[-42.1758,-21.2523],[-42.1797,-21.2508],[-42.1786,-21.2535],[-42.1784,-21.2544]],[[-42.1709,-21.253],[-42.1666,-21.2589],[-42.1712,-21.2533],[-42.1709,-21.253]],[[-42.169,-21.2563],[-42.1687,-21.2586],[-42.1717,-21.2546],[-42.1691,-21.2562],[-42.169,-21.2563]],[[-42.1666,-21.2589],[-42.1632,-21.2692],[-42.1683,-21.2678],[-42.1654,-21.2673],[-42.1666,-21.2631],[-42.1651,-21.2681],[-42.1666,-21.2589],[-42.1666,-21.2589]],[[-42.1636,-21.2691],[-42.1684,-21.268],[-42.1638,-21.2688],[-42.1636,-21.2691]]]}},{"type":"Feature","properties":{"cod_tema":"ARL_PROPOSTA","cod_imovel":"RJ-3302304-5C6E7900F6C94725B3B729D02712F6F9","num_area":"2.8937000000000000000000000000000","ind_status":"AT"},"geometry":{"type":"Polygon","coordinates":[[[-42.1621,-21.1828],[-42.1645,-21.1833],[-42.1606,-21.1807],[-42.1618,-21.1827],[-42.1621,-21.1828]],[[-42.1645,-21.1828],[-42.1611,-21.1803],[-42.164,-21.1827],[-42.1645,-21.1828]],[[-42.1645,-21.1828],[-42.1612,-21.1803],[-42.1645,-21.1828],[-42.1645,-21.1828]],[[-42.1627,-21.1815],[-42.1645,-21.1826],[-42.1623,-21.1812],[-42.1627,-21.1815]]]}},{"type":"Feature","properties":{"cod_tema":"ARL_PROPOSTA","cod_imovel":"RJ-3302304-6362A47C276343EE96E1DF904F8FEB94","num_area":"11.587700000000000000000000000000","ind_status":"AT"},"geometry":{"type":"Polygon","coordinates":[[[-42.1905,-21.2062],[-42.1935,-21.2053],[-42.191,-21.2057],[-42.1905,-21.2062]],[[-42.2012,-21.2121],[-42.1981,-21.2083],[-42.1985,-21.2137],[-42.2012,-21.2122],[-42.2012,-21.2121]],[[-42.1983,-21.2115],[-42.1984,-21.2141],[-42.1984,-21.2116],[-42.1983,-21.2115]]]}},{"type":"Feature","properties":{"cod_tema":"ARL_PROPOSTA","cod_imovel":"RJ-3302304-63ACDB5AB18A4043A05B2DFC196E8EB0","num_area":"5.8811000000000000000000000000000","ind_status":"AT"},"geometry":{"type":"Polygon","coordinates":[[[-42.1112,-21.2375],[-42.1073,-21.2372],[-42.1114,-21.2379],[-42.1112,-21.2375]]]}},{"type":"Feature","properties":{"cod_tema":"ARL_PROPOSTA","cod_imovel":"RJ-3302304-645762F3677F4F949BC6C74E7B738E3D","num_area":"5.1486000000000000000000000000000","ind_status":"AT"},"geometry":{"type":"Polygon","coordinates":[[[-42.1898,-21.1886],[-42.1915,-21.192],[-42.1902,-21.1888],[-42.1898,-21.1886]]]}},{"type":"Feature","properties":{"cod_tema":"ARL_PROPOSTA","cod_imovel":"RJ-3302304-648BF4ED2F0942CA9A4718B3A60D6BD4","num_area":"2.1721000000000000000000000000000","ind_status":"AT"},"geometry":{"type":"Polygon","coordinates":[[[-42.1324,-21.2462],[-42.1352,-21.2473],[-42.1325,-21.246],[-42.1324,-21.2462]]]}},{"type":"Feature","properties":{"cod_tema":"ARL_PROPOSTA","cod_imovel":"RJ-3302304-662910768B1A4DD6AF1746DD1FE8693C","num_area":"6.7875000000000000000000000000000","ind_status":"AT"},"geometry":{"type":"Polygon","coordinates":[[[-42.1616,-21.2126],[-42.1675,-21.2114],[-42.1619,-21.2121],[-42.1616,-21.2126]]]}},{"type":"Feature","properties":{"cod_tema":"ARL_PROPOSTA","cod_imovel":"RJ-3302304-6792B47F345D44C896234555A13854C3","num_area":"6.2873000000000000000000000000000","ind_status":"AT"},"geometry":{"type":"Polygon","coordinates":[[[-42.0938,-21.2199],[-42.0929,-21.2218],[-42.0943,-21.22],[-42.0938,-21.2199]],[[-42.093,-21.2219],[-42.0959,-21.2198],[-42.0931,-21.2213],[-42.093,-21.2219]],[[-42.0958,-21.216],[-42.0951,-21.2184],[-42.0962,-21.2163],[-42.0958,-21.216]],[[-42.1005,-21.2199],[-42.0965,-21.2197],[-42.1005,-21.2199],[-42.1005,-21.2199]],[[-42.1003,-21.2199],[-42.0967,-21.2198],[-42.0996,-21.2198],[-42.1003,-21.2199]],[[-42.1019,-21.2192],[-42.1016,-21.2161],[-42.1018,-21.2194],[-42.1019,-21.2192]]]}},{"type":"Feature","properties":{"cod_tema":"ARL_PROPOSTA","cod_imovel":"RJ-3302304-7040AE8B17DC4A418C2CF8589C1E9BAC","num_area":"6.6815000000000000000000000000000","ind_status":"AT"},"geometry":{"type":"Polygon","coordinates":[[[-42.1524,-21.1836],[-42.1491,-21.1867],[-42.1522,-21.184],[-42.1524,-21.1836]],[[-42.1542,-21.1834],[-42.151,-21.1867],[-42.1529,-21.1843],[-42.1542,-21.1834]]]}},{"type":"Feature","properties":{"cod_tema":"ARL_PROPOSTA","cod_imovel":"RJ-3302304-85B69B879CAF479DB097A942FE1C96E4","num_area":"2.5768000000000000000000000000000","ind_status":"AT"},"geometry":{"type":"Polygon","coordinates":[[[-42.1462,-21.1936],[-42.1432,-21.1947],[-42.1458,-21.1936],[-42.1462,-21.1936]]]}},{"type":"Feature","properties":{"cod_tema":"ARL_PROPOSTA","cod_imovel":"RJ-3302304-878ED8BFC0E04EE2A76B9379F0C176FD","num_area":"14.108200000000000000000000000000","ind_status":"AT"},"geometry":{"type":"Polygon","coordinates":[[[-42.1341,-21.166],[-42.1306,-21.1642],[-42.134,-21.166],[-42.1341,-21.166]],[[-42.1355,-21.1725],[-42.1384,-21.1688],[-42.1352,-21.1685],[-42.1351,-21.1714],[-42.1355,-21.1725]],[[-42.1281,-21.1694],[-42.1307,-21.1705],[-42.1285,-21.1694],[-42.1281,-21.1694]],[[-42.1305,-21.1706],[-42.1294,-21.1761],[-42.1307,-21.1705],[-42.1305,-21.1706]],[[-42.1398,-21.1658],[-42.1349,-21.1667],[-42.1397,-21.166],[-42.1398,-21.1658]]]}},{"type":"Feature","properties":{"cod_tema":"ARL_PROPOSTA","cod_imovel":"RJ-3302304-93931B84B5DD481E920134EB87ACBDBB","num_area":"3.7113000000000000000000000000000","ind_status":"AT"},"geometry":{"type":"Polygon","coordinates":[[[-42.1721,-21.233],[-42.171,-21.2307],[-42.1719,-21.2337],[-42.1721,-21.233]]]}},{"type":"Feature","properties":{"cod_tema":"ARL_PROPOSTA","cod_imovel":"RJ-3302304-962ABB9C63D04DC4BF61BDEC9A143C37","num_area":"15.893100000000000000000000000000","ind_status":"AT"},"geometry":{"type":"Polygon","coordinates":[[[-42.131,-21.2614],[-42.1337,-21.2655],[-42.1374,-21.2614],[-42.1313,-21.2611],[-42.131,-21.2614]]]}},{"type":"Feature","properties":{"cod_tema":"ARL_PROPOSTA","cod_imovel":"RJ-3302304-965BA01A98424F1AA0B1A228EA4139AC","num_area":"25.915900000000000000000000000000","ind_status":"AT"},"geometry":{"type":"Polygon","coordinates":[[[-42.1553,-21.2309],[-42.1476,-21.2317],[-42.1571,-21.2342],[-42.1562,-21.2313],[-42.1553,-21.2309]]]}},{"type":"Feature","properties":{"cod_tema":"ARL_PROPOSTA","cod_imovel":"RJ-3302304-9AFE8866D7654E0888079191A24D3A97","num_area":"49.738400000000000000000000000000","ind_status":"AT"},"geometry":{"type":"Polygon","coordinates":[[[-42.0579,-21.238],[-42.0548,-21.2342],[-42.0378,-21.2381],[-42.0581,-21.2382],[-42.0579,-21.238]]]}},{"type":"Feature","properties":{"cod_tema":"ARL_PROPOSTA","cod_imovel":"RJ-3302304-9DA32F545AE3495883CB6A5F5AEFF8BE","num_area":"3.2495000000000000000000000000000","ind_status":"AT"},"geometry":{"type":"Polygon","coordinates":[[[-42.1591,-21.2004],[-42.1576,-21.1978],[-42.1589,-21.2002],[-42.1591,-21.2004]]]}},{"type":"Feature","properties":{"cod_tema":"ARL_PROPOSTA","cod_imovel":"RJ-3302304-A224B14645554A3182661A77D67258AB","num_area":"7.5398000000000000000000000000000","ind_status":"AT"},"geometry":{"type":"Polygon","coordinates":[[[-42.1351,-21.2277],[-42.1353,-21.231],[-42.1389,-21.2297],[-42.1348,-21.2271],[-42.1351,-21.2277]]]}},{"type":"Feature","properties":{"cod_tema":"ARL_PROPOSTA","cod_imovel":"RJ-3302304-A31A1CC38BF7470C846A38BD6B248B7D","num_area":"1.9733000000000000000000000000000","ind_status":"AT"},"geometry":{"type":"Polygon","coordinates":[[[-42.0725,-21.2179],[-42.0745,-21.2138],[-42.0726,-21.2169],[-42.0725,-21.2179]],[[-42.0743,-21.2211],[-42.0724,-21.2189],[-42.0743,-21.2212],[-42.0743,-21.2211]]]}},{"type":"Feature","properties":{"cod_tema":"ARL_PROPOSTA","cod_imovel":"RJ-3302304-A572F97435454E43916568943238D7D9","num_area":"25.180300000000000000000000000000","ind_status":"AT"},"geometry":{"type":"Polygon","coordinates":[[[-42.1268,-21.1994],[-42.132,-21.1979],[-42.1279,-21.1949],[-42.1233,-21.1977],[-42.1266,-21.1991],[-42.1268,-21.1994]]]}},{"type":"Feature","properties":{"cod_tema":"ARL_PROPOSTA","cod_imovel":"RJ-3302304-A65BD113EA3A44C48FE7052194E3BC07","num_area":"3.7890000000000000000000000000000","ind_status":"AT"},"geometry":{"type":"Polygon","coordinates":[[[-42.1498,-21.1814],[-42.1524,-21.1801],[-42.1498,-21.1803],[-42.1498,-21.1814]]]}},{"type":"Feature","properties":{"cod_tema":"ARL_PROPOSTA","cod_imovel":"RJ-3302304-A739E94CC38048D9B55DEB20592B7462","num_area":"4.4057000000000000000000000000000","ind_status":"AT"},"geometry":{"type":"Polygon","coordinates":[[[-42.1497,-21.2047],[-42.1517,-21.2071],[-42.1497,-21.2046],[-42.1497,-21.2047]]]}},{"type":"Feature","properties":{"cod_tema":"ARL_PROPOSTA","cod_imovel":"RJ-3302304-A84C96707646456D815FE24D14B201BD","num_area":"1.9196000000000000000000000000000","ind_status":"AT"},"geometry":{"type":"Polygon","coordinates":[[[-42.0907,-21.2307],[-42.0884,-21.2314],[-42.0907,-21.2307],[-42.0907,-21.2307]],[[-42.0902,-21.2322],[-42.0888,-21.2306],[-42.0902,-21.2322],[-42.0902,-21.2322]]]}},{"type":"Feature","properties":{"cod_tema":"ARL_PROPOSTA","cod_imovel":"RJ-3302304-AFB9096E0BD74B37AE67B6030184E1E4","num_area":"3.4080000000000000000000000000000","ind_status":"AT"},"geometry":{"type":"Polygon","coordinates":[[[-42.1382,-21.2474],[-42.1396,-21.2453],[-42.1381,-21.2473],[-42.1382,-21.2474]]]}},{"type":"Feature","properties":{"cod_tema":"ARL_PROPOSTA","cod_imovel":"RJ-3302304-AC210039FD3E43D1AF7E4AF9ADF19A43","num_area":"13.724500000000000000000000000000","ind_status":"AT"},"geometry":{"type":"Polygon","coordinates":[[[-42.087,-21.3279],[-42.0894,-21.3269],[-42.0862,-21.3268],[-42.087,-21.3279]],[[-42.0809,-21.3218],[-42.083,-21.3252],[-42.082,-21.3196],[-42.0808,-21.3217],[-42.0809,-21.3218]],[[-42.0789,-21.3154],[-42.0797,-21.3175],[-42.0789,-21.3154],[-42.0789,-21.3154]],[[-42.0784,-21.3157],[-42.0796,-21.3177],[-42.0784,-21.3158],[-42.0784,-21.3157]]]}},{"type":"Feature","properties":{"cod_tema":"ARL_PROPOSTA","cod_imovel":"RJ-3302304-B1C46D9434134B829118469DBE02127E","num_area":"38.688800000000000000000000000000","ind_status":"PE"},"geometry":{"type":"Polygon","coordinates":[[[-42.1862,-21.3009],[-42.1821,-21.3083],[-42.1855,-21.3081],[-42.1878,-21.3015],[-42.1862,-21.3009]],[[-42.185,-21.3123],[-42.1859,-21.315],[-42.1964,-21.3131],[-42.1861,-21.3106],[-42.1862,-21.3142],[-42.185,-21.3123]]]}},{"type":"Feature","properties":{"cod_tema":"ARL_PROPOSTA","cod_imovel":"RJ-3302304-B6D686E29D074DA1A3A1A862302E85F1","num_area":"7.3956000000000000000000000000000","ind_status":"AT"},"geometry":{"type":"Polygon","coordinates":[[[-42.1522,-21.2059],[-42.154,-21.2091],[-42.1528,-21.206],[-42.1522,-21.2059]],[[-42.157,-21.2012],[-42.1595,-21.2009],[-42.1563,-21.2009],[-42.157,-21.2012]],[[-42.1595,-21.2008],[-42.1543,-21.2013],[-42.1594,-21.2009],[-42.1595,-21.2008]]]}},{"type":"Feature","properties":{"cod_tema":"ARL_PROPOSTA","cod_imovel":"RJ-3302304-B7AB935E3FFF45BE820C4B914324CAB3","num_area":"10.615500000000000000000000000000","ind_status":"AT"},"geometry":{"type":"Polygon","coordinates":[[[-42.1932,-21.2012],[-42.1882,-21.202],[-42.193,-21.2016],[-42.1883,-21.2021],[-42.1928,-21.204],[-42.1932,-21.2013],[-42.1932,-21.2012]]]}},{"type":"Feature","properties":{"cod_tema":"ARL_PROPOSTA","cod_imovel":"RJ-3302304-C00104FA7A3243359BB050F7E07F18BC","num_area":"6.9499000000000000000000000000000","ind_status":"CA"},"geometry":{"type":"Polygon","coordinates":[[[-42.1372,-21.2616],[-42.1362,-21.2653],[-42.1374,-21.262],[-42.1372,-21.2616]]]}},{"type":"Feature","properties":{"cod_tema":"ARL_PROPOSTA","cod_imovel":"RJ-3302304-C172261145DF43CFA43FC4317554ADD7","num_area":"12.610100000000000000000000000000","ind_status":"AT"},"geometry":{"type":"Polygon","coordinates":[[[-42.1425,-21.1815],[-42.1411,-21.1836],[-42.143,-21.1817],[-42.1425,-21.1815]],[[-42.1452,-21.1898],[-42.1472,-21.1895],[-42.1452,-21.1897],[-42.1452,-21.1898]],[[-42.143,-21.1918],[-42.1411,-21.1988],[-42.1426,-21.1922],[-42.143,-21.1918]],[[-42.1426,-21.192],[-42.141,-21.1987],[-42.1424,-21.1922],[-42.1426,-21.192]],[[-42.1431,-21.1803],[-42.1477,-21.1811],[-42.1449,-21.1823],[-42.1474,-21.1844],[-42.1429,-21.1806],[-42.1476,-21.1846],[-42.1453,-21.1825],[-42.1478,-21.1809],[-42.1433,-21.1803],[-42.1431,-21.1803]]]}},{"type":"Feature","properties":{"cod_tema":"ARL_PROPOSTA","cod_imovel":"RJ-3302304-D2D8265F838C442C9A4DD5BBD0D3C996","num_area":"5.5262000000000000000000000000000","ind_status":"AT"},"geometry":{"type":"Polygon","coordinates":[[[-42.1555,-21.1764],[-42.1587,-21.1759],[-42.1553,-21.1752],[-42.1555,-21.1764]],[[-42.1589,-21.1737],[-42.1529,-21.1736],[-42.1533,-21.1777],[-42.153,-21.1736],[-42.1597,-21.1749],[-42.1589,-21.1737]]]}},{"type":"Feature","properties":{"cod_tema":"ARL_PROPOSTA","cod_imovel":"RJ-3302304-C39F9CE772E84BFEAF4641FB630B488B","num_area":"17.256100000000000000000000000000","ind_status":"CA"},"geometry":{"type":"Polygon","coordinates":[[[-42.1389,-21.2533],[-42.1434,-21.2559],[-42.1433,-21.2524],[-42.139,-21.2531],[-42.1389,-21.2533]]]}},{"type":"Feature","properties":{"cod_tema":"ARL_PROPOSTA","cod_imovel":"RJ-3302304-D3C4CBF15FFE4F478499F53BC86963F4","num_area":"38.189600000000000000000000000000","ind_status":"AT"},"geometry":{"type":"Polygon","coordinates":[[[-42.172,-21.3112],[-42.1765,-21.3028],[-42.1735,-21.2998],[-42.1723,-21.3107],[-42.172,-21.3112]]]}},{"type":"Feature","properties":{"cod_tema":"ARL_PROPOSTA","cod_imovel":"RJ-3302304-DE93AF8179A14CCE9BEE467FA3E3C243","num_area":"6.3715000000000000000000000000000","ind_status":"AT"},"geometry":{"type":"Polygon","coordinates":[[[-42.175,-21.1918],[-42.1751,-21.194],[-42.1781,-21.1918],[-42.1752,-21.1917],[-42.175,-21.1918]],[[-42.1756,-21.1927],[-42.1774,-21.1915],[-42.1752,-21.1932],[-42.1756,-21.1927]]]}},{"type":"Feature","properties":{"cod_tema":"ARL_PROPOSTA","cod_imovel":"RJ-3302304-E3FEAA20BF114674A27ABFE9504DF652","num_area":"1.2035000000000000000000000000000","ind_status":"PE"},"geometry":{"type":"Polygon","coordinates":[[[-42.1075,-21.2148],[-42.1091,-21.2168],[-42.108,-21.2147],[-42.1075,-21.2148]]]}},{"type":"Feature","properties":{"cod_tema":"ARL_PROPOSTA","cod_imovel":"RJ-3302304-E6B0877F6D9E4857A99288D8043915D0","num_area":"3.6881000000000000000000000000000","ind_status":"AT"},"geometry":{"type":"Polygon","coordinates":[[[-42.0737,-21.3225],[-42.0759,-21.3216],[-42.0733,-21.3212],[-42.0737,-21.3225]]]}},{"type":"Feature","properties":{"cod_tema":"ARL_PROPOSTA","cod_imovel":"RJ-3302304-EFF00416CF174B558017D972F2E017BC","num_area":"1.4128000000000000000000000000000","ind_status":"AT"},"geometry":{"type":"Polygon","coordinates":[[[-42.0915,-21.2683],[-42.0878,-21.269],[-42.0913,-21.2684],[-42.0915,-21.2683]],[[-42.091,-21.2691],[-42.0877,-21.2688],[-42.091,-21.2692],[-42.091,-21.2691]]]}},{"type":"Feature","properties":{"cod_tema":"ARL_PROPOSTA","cod_imovel":"RJ-3302304-F081BB65617349BFBB2E6AE8238A060C","num_area":"1.8167000000000000000000000000000","ind_status":"AT"},"geometry":{"type":"Polygon","coordinates":[[[-42.1495,-21.1786],[-42.1514,-21.1769],[-42.1491,-21.1786],[-42.1495,-21.1786]]]}},{"type":"Feature","properties":{"cod_tema":"ARL_PROPOSTA","cod_imovel":"RJ-3302304-F440EB25764E4AF99CFD3255424B5BE8","num_area":"38.164900000000000000000000000000","ind_status":"AT"},"geometry":{"type":"Polygon","coordinates":[[[-42.1429,-21.2857],[-42.1446,-21.2843],[-42.1426,-21.2852],[-42.1429,-21.2857]],[[-42.1411,-21.2908],[-42.1414,-21.2887],[-42.1406,-21.2908],[-42.1411,-21.2908]],[[-42.1449,-21.2798],[-42.1412,-21.2817],[-42.1446,-21.2802],[-42.1449,-21.2798]],[[-42.1465,-21.2848],[-42.1482,-21.2834],[-42.1465,-21.2847],[-42.1465,-21.2848]],[[-42.1476,-21.2861],[-42.1533,-21.2853],[-42.1582,-21.2771],[-42.1476,-21.286],[-42.1476,-21.2861]]]}},{"type":"Feature","properties":{"cod_tema":"ARL_PROPOSTA","cod_imovel":"RJ-3302304-FB0A58BA5EC9477194B472928D55B9A1","num_area":"5.2084000000000000000000000000000","ind_status":"AT"},"geometry":{"type":"Polygon","coordinates":[[[-42.1844,-21.2122],[-42.1838,-21.2146],[-42.1858,-21.2126],[-42.1844,-21.2122]]]}},{"type":"Feature","properties":{"cod_tema":"ARL_PROPOSTA","cod_imovel":"RJ-3302304-FEDCBB5FC21F42AAB144BCE4B13DAD82","num_area":"11.437500000000000000000000000000","ind_status":"AT"},"geometry":{"type":"Polygon","coordinates":[[[-42.1711,-21.252],[-42.1724,-21.2498],[-42.1697,-21.2484],[-42.1715,-21.2514],[-42.1711,-21.252]],[[-42.1622,-21.247],[-42.1643,-21.2461],[-42.1623,-21.2468],[-42.1622,-21.247]],[[-42.1669,-21.2495],[-42.1649,-21.2477],[-42.1675,-21.2471],[-42.1643,-21.2471],[-42.1666,-21.2493],[-42.1669,-21.2495]]]}},{"type":"Feature","properties":{"cod_tema":"ARL_PROPOSTA","cod_imovel":"RJ-3302304-D06867E6C89A44FAACEB9783AF199204","num_area":"2.8902000000000000000000000000000","ind_status":"AT"},"geometry":{"type":"Polygon","coordinates":[[[-42.0838,-21.2197],[-42.0845,-21.2173],[-42.0834,-21.2197],[-42.0838,-21.2197]]]}},{"type":"Feature","properties":{"cod_tema":"ARL_PROPOSTA","cod_imovel":"RJ-3302304-7C6F785D6A7546D391D49B9970CAD104","num_area":"25.894100000000000000000000000000","ind_status":"AT"},"geometry":{"type":"Polygon","coordinates":[[[-42.1562,-21.3175],[-42.1595,-21.3177],[-42.1584,-21.3147],[-42.1534,-21.3157],[-42.1495,-21.3127],[-42.1559,-21.3177],[-42.1562,-21.3175]]]}},{"type":"Feature","properties":{"cod_tema":"ARL_PROPOSTA","cod_imovel":"RJ-3302304-576576F7488F4B708C41801713132A66","num_area":"16.492500000000000000000000000000","ind_status":"AT"},"geometry":{"type":"Polygon","coordinates":[[[-42.1006,-21.3018],[-42.0989,-21.2969],[-42.0965,-21.2986],[-42.0979,-21.3033],[-42.1006,-21.3018]]]}},{"type":"Feature","properties":{"cod_tema":"ARL_PROPOSTA","cod_imovel":"RJ-3302304-C0E347A6E5BB48039BEA98F8396787AA","num_area":"16.527200000000000000000000000000","ind_status":"AT"},"geometry":{"type":"Polygon","coordinates":[[[-42.1365,-21.2628],[-42.1352,-21.265],[-42.138,-21.2606],[-42.1365,-21.2628],[-42.1365,-21.2628]],[[-42.1399,-21.2537],[-42.1431,-21.2562],[-42.1433,-21.2536],[-42.1399,-21.2536],[-42.1399,-21.2537]]]}},{"type":"Feature","properties":{"cod_tema":"ARL_PROPOSTA","cod_imovel":"RJ-3302304-3ED33691E8BD48C0A8B20A31DA4B538D","num_area":"15.616800000000000000000000000000","ind_status":"AT"},"geometry":{"type":"Polygon","coordinates":[[[-42.1026,-21.1949],[-42.1022,-21.1887],[-42.1016,-21.1951],[-42.1026,-21.1949]],[[-42.1022,-21.1887],[-42.1027,-21.1911],[-42.1029,-21.1875],[-42.1022,-21.1887]],[[-42.1026,-21.1935],[-42.1048,-21.1954],[-42.103,-21.1937],[-42.1026,-21.1935]]]}},{"type":"Feature","properties":{"cod_tema":"ARL_PROPOSTA","cod_imovel":"RJ-3302304-FCE3BC00EA1A433B86106B0E920CD941","num_area":"1.5834000000000000000000000000000","ind_status":"AT"},"geometry":{"type":"Polygon","coordinates":[[[-42.0736,-21.2281],[-42.0722,-21.2299],[-42.0736,-21.2283],[-42.0736,-21.2281]]]}},{"type":"Feature","properties":{"cod_tema":"ARL_PROPOSTA","cod_imovel":"RJ-3302304-191B97E80D37458EA78AD9A8CB1E710F","num_area":"1.3717000000000000000000000000000","ind_status":"AT"},"geometry":{"type":"Polygon","coordinates":[[[-42.1123,-21.2225],[-42.1106,-21.2236],[-42.1123,-21.2225],[-42.1123,-21.2225]]]}},{"type":"Feature","properties":{"cod_tema":"ARL_PROPOSTA","cod_imovel":"RJ-3302304-7566820A5FFD4D149E79A5D46A88982E","num_area":"5.5312000000000000000000000000000","ind_status":"AT"},"geometry":{"type":"Polygon","coordinates":[[[-42.1053,-21.232],[-42.1023,-21.2317],[-42.1048,-21.2325],[-42.1053,-21.232]]]}},{"type":"Feature","properties":{"cod_tema":"ARL_PROPOSTA","cod_imovel":"RJ-3302304-8B619B73A1B14CD082A8165B5AE0E665","num_area":"6.9615000000000000000000000000000","ind_status":"AT"},"geometry":{"type":"Polygon","coordinates":[[[-42.1651,-21.1868],[-42.1647,-21.1891],[-42.1651,-21.1867],[-42.1651,-21.1868]],[[-42.1629,-21.1928],[-42.165,-21.1928],[-42.1628,-21.1928],[-42.1629,-21.1928]]]}},{"type":"Feature","properties":{"cod_tema":"ARL_PROPOSTA","cod_imovel":"RJ-3302304-F0A02345012F44B8A336842D733D1C46","num_area":"1.7464000000000000000000000000000","ind_status":"AT"},"geometry":{"type":"Polygon","coordinates":[[[-42.0795,-21.3241],[-42.0769,-21.3233],[-42.0793,-21.3242],[-42.0795,-21.3241]]]}},{"type":"Feature","properties":{"cod_tema":"ARL_PROPOSTA","cod_imovel":"RJ-3302304-CBFF8EBD483849D4881632EF595B2E46","num_area":"23.291700000000000000000000000000","ind_status":"AT"},"geometry":{"type":"Polygon","coordinates":[[[-42.1524,-21.2585],[-42.1565,-21.2584],[-42.1509,-21.2578],[-42.1524,-21.2585]],[[-42.1617,-21.253],[-42.1605,-21.2504],[-42.1617,-21.2528],[-42.155,-21.2547],[-42.1589,-21.2541],[-42.1613,-21.2575],[-42.1617,-21.2529],[-42.1617,-21.253]]]}},{"type":"Feature","properties":{"cod_tema":"ARL_PROPOSTA","cod_imovel":"RJ-3302304-B5E50CC716B148299B37760C9CAE4784","num_area":"13.771400000000000000000000000000","ind_status":"AT"},"geometry":{"type":"Polygon","coordinates":[[[-42.0898,-21.2808],[-42.0885,-21.283],[-42.0898,-21.281],[-42.0898,-21.2808]],[[-42.0888,-21.2865],[-42.0858,-21.2845],[-42.0882,-21.2891],[-42.0886,-21.2867],[-42.0888,-21.2865]]]}},{"type":"Feature","properties":{"cod_tema":"ARL_PROPOSTA","cod_imovel":"RJ-3302304-C782861D7A2443D088D1B36794700B65","num_area":"13.665300000000000000000000000000","ind_status":"AT"},"geometry":{"type":"Polygon","coordinates":[[[-42.0701,-21.2863],[-42.0746,-21.2885],[-42.0707,-21.2861],[-42.0701,-21.2863]]]}},{"type":"Feature","properties":{"cod_tema":"ARL_PROPOSTA","cod_imovel":"RJ-3302304-2909FE724DD9437C9C991D209B7CBB2D","num_area":"7.8737000000000000000000000000000","ind_status":"AT"},"geometry":{"type":"Polygon","coordinates":[[[-42.1498,-21.2043],[-42.1465,-21.2029],[-42.1495,-21.2045],[-42.1498,-21.2043]]]}},{"type":"Feature","properties":{"cod_tema":"ARL_PROPOSTA","cod_imovel":"RJ-3302304-8A6C2EB1A2714EAA95B8FC778F16C927","num_area":"57.548600000000000000000000000000","ind_status":"AT"},"geometry":{"type":"Polygon","coordinates":[[[-42.2043,-21.2639],[-42.2006,-21.2567],[-42.1936,-21.2535],[-42.1927,-21.2584],[-42.1972,-21.2589],[-42.1948,-21.2605],[-42.1993,-21.2626],[-42.2021,-21.2592],[-42.2043,-21.264],[-42.2043,-21.2639]]]}},{"type":"Feature","properties":{"cod_tema":"ARL_PROPOSTA","cod_imovel":"RJ-3302304-0E0922CA213547E5A0ED23FA6E34CFA4","num_area":"9.0624000000000000000000000000000","ind_status":"AT"},"geometry":{"type":"Polygon","coordinates":[[[-42.1411,-21.188],[-42.1389,-21.1905],[-42.1426,-21.192],[-42.1416,-21.1887],[-42.1411,-21.188]]]}},{"type":"Feature","properties":{"cod_tema":"ARL_PROPOSTA","cod_imovel":"RJ-3302304-394FC34784A24BFAAB849C103A694F8A","num_area":"10.408900000000000000000000000000","ind_status":"AT"},"geometry":{"type":"Polygon","coordinates":[[[-42.1411,-21.188],[-42.1357,-21.1872],[-42.139,-21.1905],[-42.1411,-21.188]]]}},{"type":"Feature","properties":{"cod_tema":"ARL_PROPOSTA","cod_imovel":"RJ-3302304-715CE24CBBEF4DF18459A4640DDE3BC4","num_area":"46.167900000000000000000000000000","ind_status":"AT"},"geometry":{"type":"Polygon","coordinates":[[[-42.166,-21.2237],[-42.1703,-21.2253],[-42.1619,-21.2156],[-42.166,-21.2235],[-42.166,-21.2237]],[[-42.1739,-21.2256],[-42.1682,-21.2273],[-42.1723,-21.2317],[-42.1746,-21.2314],[-42.1738,-21.2256],[-42.1739,-21.2256]]]}},{"type":"Feature","properties":{"cod_tema":"ARL_PROPOSTA","cod_imovel":"RJ-3302304-6DCBF63F747E4F2A993465617087A12A","num_area":"2.1312000000000000000000000000000","ind_status":"AT"},"geometry":{"type":"Polygon","coordinates":[[[-42.111,-21.2264],[-42.1126,-21.2249],[-42.1105,-21.2269],[-42.111,-21.2264]]]}},{"type":"Feature","properties":{"cod_tema":"ARL_PROPOSTA","cod_imovel":"RJ-3302304-65D2193A060248468928166FD659BA9C","num_area":"9.8933000000000000000000000000000","ind_status":"AT"},"geometry":{"type":"Polygon","coordinates":[[[-42.1071,-21.2152],[-42.1034,-21.2154],[-42.1072,-21.2154],[-42.1071,-21.2152]]]}},{"type":"Feature","properties":{"cod_tema":"ARL_PROPOSTA","cod_imovel":"RJ-3302304-ECD1948AAFD348B9BDAE5B50FA499BE0","num_area":"16.158000000000000000000000000000","ind_status":"AT"},"geometry":{"type":"Polygon","coordinates":[[[-42.2193,-21.3199],[-42.2222,-21.3208],[-42.2205,-21.3198],[-42.2193,-21.3199]],[[-42.2175,-21.3061],[-42.2137,-21.3077],[-42.2176,-21.3064],[-42.2175,-21.3061]],[[-42.2154,-21.3139],[-42.2191,-21.3204],[-42.2157,-21.3138],[-42.2154,-21.3139]]]}},{"type":"Feature","properties":{"cod_tema":"ARL_PROPOSTA","cod_imovel":"RJ-3302304-D9410F06F6EF433E902732976BD8671F","num_area":"20.651900000000000000000000000000","ind_status":"CA"},"geometry":{"type":"Polygon","coordinates":[[[-42.1531,-21.2956],[-42.1575,-21.2958],[-42.153,-21.2949],[-42.1531,-21.2956]],[[-42.1556,-21.302],[-42.1562,-21.2984],[-42.1522,-21.2975],[-42.1545,-21.3009],[-42.1556,-21.302]],[[-42.1577,-21.2994],[-42.156,-21.2963],[-42.1569,-21.2993],[-42.1577,-21.2994]],[[-42.1522,-21.2972],[-42.1548,-21.2966],[-42.1523,-21.2971],[-42.1522,-21.2972]]]}},{"type":"Feature","properties":{"cod_tema":"ARL_PROPOSTA","cod_imovel":"RJ-3302304-2DAAE4B52ABE4D0DA2339EEA21F02D0D","num_area":"5.0143000000000000000000000000000","ind_status":"AT"},"geometry":{"type":"Polygon","coordinates":[[[-42.1287,-21.2478],[-42.1297,-21.2518],[-42.1327,-21.2485],[-42.1287,-21.2478],[-42.1287,-21.2478]]]}},{"type":"Feature","properties":{"cod_tema":"ARL_PROPOSTA","cod_imovel":"RJ-3302304-2B9CA0C8D5A946379716E65998093653","num_area":"4.2815000000000000000000000000000","ind_status":"AT"},"geometry":{"type":"Polygon","coordinates":[[[-42.057,-21.2345],[-42.0543,-21.2344],[-42.0568,-21.2349],[-42.057,-21.2345]]]}},{"type":"Feature","properties":{"cod_tema":"ARL_PROPOSTA","cod_imovel":"RJ-3302304-29FAAFB2B9F24B8DB71BEDE2FF391984","num_area":"73.162700000000000000000000000000","ind_status":"AT"},"geometry":{"type":"Polygon","coordinates":[[[-42.1987,-21.1818],[-42.1973,-21.1787],[-42.1976,-21.1821],[-42.1987,-21.1818]],[[-42.193,-21.1786],[-42.1949,-21.1782],[-42.1923,-21.1778],[-42.193,-21.1786]],[[-42.1917,-21.191],[-42.1945,-21.193],[-42.2001,-21.187],[-42.1916,-21.1909],[-42.1917,-21.191]],[[-42.2026,-21.1736],[-42.1863,-21.1743],[-42.195,-21.1764],[-42.2025,-21.1738],[-42.2026,-21.1736]]]}},{"type":"Feature","properties":{"cod_tema":"ARL_PROPOSTA","cod_imovel":"RJ-3302304-2CA82B0E3B404769A49B46E9827A78AB","num_area":"3.3960000000000000000000000000000","ind_status":"AT"},"geometry":{"type":"Polygon","coordinates":[[[-42.1346,-21.2402],[-42.132,-21.2417],[-42.1344,-21.2404],[-42.1346,-21.2402]]]}},{"type":"Feature","properties":{"cod_tema":"ARL_PROPOSTA","cod_imovel":"RJ-3302304-33BD76DC7AE0480BB709E6B9753B5844","num_area":"43.346800000000000000000000000000","ind_status":"AT"},"geometry":{"type":"Polygon","coordinates":[[[-42.0866,-21.3096],[-42.0918,-21.3088],[-42.09,-21.3067],[-42.0866,-21.309],[-42.0866,-21.3096]],[[-42.0907,-21.306],[-42.0953,-21.3089],[-42.0974,-21.3034],[-42.1023,-21.3053],[-42.1007,-21.3024],[-42.091,-21.3058],[-42.0907,-21.306]]]}},{"type":"Feature","properties":{"cod_tema":"ARL_PROPOSTA","cod_imovel":"RJ-3302304-5F548AF6CF044544B3032B0D4CE64156","num_area":"6.1210000000000000000000000000000","ind_status":"AT"},"geometry":{"type":"Polygon","coordinates":[[[-42.1746,-21.2225],[-42.1758,-21.2242],[-42.1742,-21.2191],[-42.1746,-21.2224],[-42.1746,-21.2225]]]}},{"type":"Feature","properties":{"cod_tema":"ARL_PROPOSTA","cod_imovel":"RJ-3302304-D3093CAF21D44071AF0E697FD602A460","num_area":"3.1202000000000000000000000000000","ind_status":"AT"},"geometry":{"type":"Polygon","coordinates":[[[-42.1583,-21.2082],[-42.1598,-21.2063],[-42.1582,-21.2078],[-42.1583,-21.2082]]]}},{"type":"Feature","properties":{"cod_tema":"ARL_PROPOSTA","cod_imovel":"RJ-3302304-1DD199A2509C43BD97C8E4DE1CEFB154","num_area":"8.6096000000000000000000000000000","ind_status":"AT"},"geometry":{"type":"Polygon","coordinates":[[[-42.1195,-21.2696],[-42.1182,-21.2669],[-42.1194,-21.2695],[-42.1195,-21.2696]]]}},{"type":"Feature","properties":{"cod_tema":"ARL_PROPOSTA","cod_imovel":"RJ-3302304-7DCB212CC61D4BA7A3BBAEC3BB067358","num_area":"4.5301000000000000000000000000000","ind_status":"AT"},"geometry":{"type":"Polygon","coordinates":[[[-42.1089,-21.2514],[-42.1052,-21.2521],[-42.1083,-21.2519],[-42.1074,-21.2547],[-42.1089,-21.2518],[-42.1089,-21.2514]]]}},{"type":"Feature","properties":{"cod_tema":"ARL_PROPOSTA","cod_imovel":"RJ-3302304-D7D38E23BE2347B395543F1431DC3DC8","num_area":"1.8300000000000000000000000000000","ind_status":"AT"},"geometry":{"type":"Polygon","coordinates":[[[-42.1048,-21.2895],[-42.1045,-21.2868],[-42.1045,-21.2895],[-42.1048,-21.2895]]]}},{"type":"Feature","properties":{"cod_tema":"ARL_PROPOSTA","cod_imovel":"RJ-3302304-BE6316472E9D43359EB4FFC6DA544C24","num_area":"16.433000000000000000000000000000","ind_status":"AT"},"geometry":{"type":"Polygon","coordinates":[[[-42.0523,-21.236],[-42.0531,-21.2394],[-42.0582,-21.2383],[-42.0546,-21.2342],[-42.0528,-21.2361],[-42.0523,-21.236]]]}},{"type":"Feature","properties":{"cod_tema":"ARL_PROPOSTA","cod_imovel":"RJ-3302304-F8F5ECA8163C40C6BA0288EAFAD9715D","num_area":"11.115200000000000000000000000000","ind_status":"AT"},"geometry":{"type":"Polygon","coordinates":[[[-42.0889,-21.2524],[-42.0974,-21.2593],[-42.0984,-21.2542],[-42.0951,-21.2578],[-42.0888,-21.2521],[-42.0889,-21.2524]]]}},{"type":"Feature","properties":{"cod_tema":"ARL_PROPOSTA","cod_imovel":"RJ-3302304-93A5234B90EE4CB79944297CDB4B66CD","num_area":"6.6275000000000000000000000000000","ind_status":"AT"},"geometry":{"type":"Polygon","coordinates":[[[-42.0813,-21.1894],[-42.0814,-21.1923],[-42.0833,-21.1884],[-42.0814,-21.1893],[-42.0813,-21.1894]]]}},{"type":"Feature","properties":{"cod_tema":"ARL_PROPOSTA","cod_imovel":"RJ-3302304-6FFA068A8B7544088722452EEB7B7E7B","num_area":"7.8970000000000000000000000000000","ind_status":"AT"},"geometry":{"type":"Polygon","coordinates":[[[-42.1032,-21.2534],[-42.1038,-21.2563],[-42.104,-21.253],[-42.1071,-21.254],[-42.1031,-21.2527],[-42.1032,-21.2534]]]}},{"type":"Feature","properties":{"cod_tema":"ARL_PROPOSTA","cod_imovel":"RJ-3302304-ED6E5D103B1B4EABB347D507EA602C2E","num_area":"2.8152000000000000000000000000000","ind_status":"AT"},"geometry":{"type":"Polygon","coordinates":[[[-42.1231,-21.2163],[-42.1206,-21.2165],[-42.1232,-21.2164],[-42.1231,-21.2163]],[[-42.1176,-21.211],[-42.1196,-21.2126],[-42.1177,-21.211],[-42.1176,-21.211]]]}},{"type":"Feature","properties":{"cod_tema":"ARL_PROPOSTA","cod_imovel":"RJ-3302304-AE8846FC70FC4AED97C921AEE4852E44","num_area":"1.3068000000000000000000000000000","ind_status":"PE"},"geometry":{"type":"Polygon","coordinates":[[[-42.1076,-21.2151],[-42.1086,-21.2172],[-42.1077,-21.2152],[-42.1076,-21.2151]]]}},{"type":"Feature","properties":{"cod_tema":"ARL_PROPOSTA","cod_imovel":"RJ-3302304-D7E05864763749159475C2B3395F0080","num_area":"22.651100000000000000000000000000","ind_status":"AT"},"geometry":{"type":"Polygon","coordinates":[[[-42.2033,-21.2903],[-42.2044,-21.2815],[-42.1982,-21.2897],[-42.2031,-21.2903],[-42.2033,-21.2903]]]}},{"type":"Feature","properties":{"cod_tema":"ARL_PROPOSTA","cod_imovel":"RJ-3302304-4C08F5F933B0484294A294462398663C","num_area":"6.1873000000000000000000000000000","ind_status":"AT"},"geometry":{"type":"Polygon","coordinates":[[[-42.0814,-21.2737],[-42.0749,-21.2729],[-42.0809,-21.2737],[-42.0814,-21.2737]]]}},{"type":"Feature","properties":{"cod_tema":"ARL_AVERBADA","cod_imovel":"RJ-3302304-F0840071A7D24C7DB7FC663EB1B916E6","num_area":"94.400000000000000000000000000000","ind_status":"AT"},"geometry":{"type":"Polygon","coordinates":[[[-42.2323,-21.3264],[-42.2368,-21.3243],[-42.2363,-21.3137],[-42.2294,-21.3081],[-42.2262,-21.3136],[-42.2311,-21.317],[-42.2298,-21.3204],[-42.2308,-21.3184],[-42.2366,-21.3227],[-42.2319,-21.3261],[-42.2323,-21.3264]]]}},{"type":"Feature","properties":{"cod_tema":"ARL_PROPOSTA","cod_imovel":"RJ-3302304-B26FAF9BC95F456FBFD3228E19D1B656","num_area":"32.076500000000000000000000000000","ind_status":"AT"},"geometry":{"type":"Polygon","coordinates":[[[-42.1497,-21.2747],[-42.1472,-21.2734],[-42.1465,-21.2785],[-42.1496,-21.2748],[-42.1497,-21.2747]],[[-42.1472,-21.2731],[-42.1457,-21.2715],[-42.144,-21.2763],[-42.1406,-21.276],[-42.1464,-21.2785],[-42.1468,-21.274],[-42.1472,-21.2731]],[[-42.1473,-21.2725],[-42.1457,-21.2708],[-42.1472,-21.2724],[-42.1473,-21.2725]],[[-42.1456,-21.2709],[-42.1425,-21.2698],[-42.1412,-21.2749],[-42.1456,-21.2709],[-42.1456,-21.2709]]]}},{"type":"Feature","properties":{"cod_tema":"ARL_PROPOSTA","cod_imovel":"RJ-3302304-21B78C30BA784A4E92BA2BBA1C3A6DD9","num_area":"4.0836000000000000000000000000000","ind_status":"AT"},"geometry":{"type":"Polygon","coordinates":[[[-42.2037,-21.1827],[-42.2006,-21.1816],[-42.2026,-21.1834],[-42.2037,-21.1827]]]}},{"type":"Feature","properties":{"cod_tema":"ARL_PROPOSTA","cod_imovel":"RJ-3302304-34E567DE004B4683877AFF4B483650D1","num_area":"6.1605000000000000000000000000000","ind_status":"AT"},"geometry":{"type":"Polygon","coordinates":[[[-42.1053,-21.2794],[-42.1025,-21.2765],[-42.1048,-21.2795],[-42.1053,-21.2794]]]}},{"type":"Feature","properties":{"cod_tema":"ARL_PROPOSTA","cod_imovel":"RJ-3302304-2AE446CDF06347D9B43D1F729907CCFD","num_area":"14.998700000000000000000000000000","ind_status":"AT"},"geometry":{"type":"Polygon","coordinates":[[[-42.1276,-21.1702],[-42.1323,-21.1668],[-42.1253,-21.169],[-42.1278,-21.1697],[-42.1276,-21.1702]]]}},{"type":"Feature","properties":{"cod_tema":"ARL_PROPOSTA","cod_imovel":"RJ-3302304-431362C84BF94DF1A4FBFF4054ADF77B","num_area":"4.7869000000000000000000000000000","ind_status":"AT"},"geometry":{"type":"Polygon","coordinates":[[[-42.2077,-21.1807],[-42.2075,-21.1778],[-42.2075,-21.1813],[-42.2077,-21.1807]]]}},{"type":"Feature","properties":{"cod_tema":"ARL_PROPOSTA","cod_imovel":"RJ-3302304-1AE5406F6F534644A6330826D90276B7","num_area":"5.2371000000000000000000000000000","ind_status":"AT"},"geometry":{"type":"Polygon","coordinates":[[[-42.1309,-21.2119],[-42.1334,-21.2132],[-42.1328,-21.2102],[-42.1309,-21.2119]]]}},{"type":"Feature","properties":{"cod_tema":"ARL_PROPOSTA","cod_imovel":"RJ-3302304-93846FDC65CA4756974DBBD559E9E0FD","num_area":"13.299600000000000000000000000000","ind_status":"AT"},"geometry":{"type":"Polygon","coordinates":[[[-42.1731,-21.1964],[-42.1758,-21.2004],[-42.1733,-21.1958],[-42.1731,-21.1964]]]}},{"type":"Feature","properties":{"cod_tema":"ARL_PROPOSTA","cod_imovel":"RJ-3302304-BB0E8F91BE7A43D39E1AD5FE15DC5855","num_area":"3.5942000000000000000000000000000","ind_status":"AT"},"geometry":{"type":"Polygon","coordinates":[[[-42.165,-21.2123],[-42.1621,-21.2115],[-42.1653,-21.213],[-42.1677,-21.2097],[-42.165,-21.2123],[-42.165,-21.2123]]]}},{"type":"Feature","properties":{"cod_tema":"ARL_PROPOSTA","cod_imovel":"RJ-3302304-47615BA628A4428592A28DAC19ACC996","num_area":"2.5283000000000000000000000000000","ind_status":"AT"},"geometry":{"type":"Polygon","coordinates":[[[-42.1099,-21.2866],[-42.1084,-21.2845],[-42.1094,-21.2867],[-42.1099,-21.2866]]]}},{"type":"Feature","properties":{"cod_tema":"ARL_PROPOSTA","cod_imovel":"RJ-3302304-ED6EB2D513DD471CB8FC117818F8FB7B","num_area":"4.2068000000000000000000000000000","ind_status":"AT"},"geometry":{"type":"Polygon","coordinates":[[[-42.1221,-21.1684],[-42.1234,-21.1718],[-42.1261,-21.169],[-42.1227,-21.1716],[-42.1223,-21.168],[-42.1258,-21.1657],[-42.1221,-21.1678],[-42.1221,-21.1684]]]}},{"type":"Feature","properties":{"cod_tema":"ARL_PROPOSTA","cod_imovel":"RJ-3302304-A37358F7312E4F2B92D88163B9196701","num_area":"3.7236000000000000000000000000000","ind_status":"PE"},"geometry":{"type":"Polygon","coordinates":[[[-42.1265,-21.1692],[-42.1286,-21.1691],[-42.1265,-21.1688],[-42.1265,-21.1692]],[[-42.1258,-21.1656],[-42.1307,-21.1643],[-42.1258,-21.1656],[-42.1258,-21.1656]]]}},{"type":"Feature","properties":{"cod_tema":"ARL_PROPOSTA","cod_imovel":"RJ-3302304-06EA381C5E2544A4AD634C5D3C7727FF","num_area":"71.955300000000000000000000000000","ind_status":"AT"},"geometry":{"type":"Polygon","coordinates":[[[-42.0966,-21.3246],[-42.0994,-21.3253],[-42.0973,-21.3245],[-42.0966,-21.3246]],[[-42.0866,-21.3087],[-42.084,-21.3088],[-42.0875,-21.311],[-42.0915,-21.3091],[-42.0867,-21.3087],[-42.0866,-21.3087]],[[-42.0885,-21.3257],[-42.0855,-21.3302],[-42.0953,-21.3266],[-42.0902,-21.3195],[-42.0874,-21.3247],[-42.0885,-21.3257]]]}},{"type":"Feature","properties":{"cod_tema":"ARL_PROPOSTA","cod_imovel":"RJ-3302304-9875E4C2ED174FADA8A48C418F1E3A53","num_area":"20.033500000000000000000000000000","ind_status":"AT"},"geometry":{"type":"Polygon","coordinates":[[[-42.1559,-21.2094],[-42.1484,-21.2051],[-42.1524,-21.211],[-42.1553,-21.2096],[-42.1559,-21.2094]]]}},{"type":"Feature","properties":{"cod_tema":"ARL_PROPOSTA","cod_imovel":"RJ-3302304-D97068ED6AE34A44AA32E361A3126CF7","num_area":"9.7042000000000000000000000000000","ind_status":"AT"},"geometry":{"type":"Polygon","coordinates":[[[-42.125,-21.3046],[-42.1293,-21.3065],[-42.1273,-21.3036],[-42.125,-21.3046]]]}},{"type":"Feature","properties":{"cod_tema":"ARL_PROPOSTA","cod_imovel":"RJ-3302304-B6C01BB3AB994FDC9A84D9D40F29304E","num_area":"6.3187000000000000000000000000000","ind_status":"AT"},"geometry":{"type":"Polygon","coordinates":[[[-42.2064,-21.3085],[-42.2041,-21.3064],[-42.204,-21.3094],[-42.2064,-21.3085]]]}},{"type":"Feature","properties":{"cod_tema":"ARL_PROPOSTA","cod_imovel":"RJ-3302304-7842ADC333D64495B74436412A400BCD","num_area":"11.307500000000000000000000000000","ind_status":"AT"},"geometry":{"type":"Polygon","coordinates":[[[-42.1875,-21.2409],[-42.1851,-21.2441],[-42.1898,-21.2434],[-42.1876,-21.241],[-42.1875,-21.2409]]]}},{"type":"Feature","properties":{"cod_tema":"ARL_PROPOSTA","cod_imovel":"RJ-3302304-4B89162F87CE4F7AA9601954EFB2B28A","num_area":"2.7054000000000000000000000000000","ind_status":"AT"},"geometry":{"type":"Polygon","coordinates":[[[-42.0652,-21.2284],[-42.0673,-21.2309],[-42.0662,-21.2274],[-42.0652,-21.2284]]]}},{"type":"Feature","properties":{"cod_tema":"ARL_PROPOSTA","cod_imovel":"RJ-3302304-58E8CDE5650944CCA07AE8FE40D73DFB","num_area":"0.3831000000000000000000000000000","ind_status":"AT"},"geometry":{"type":"Polygon","coordinates":[[[-42.1056,-21.2497],[-42.1076,-21.2513],[-42.1061,-21.2497],[-42.1056,-21.2497]]]}},{"type":"Feature","properties":{"cod_tema":"ARL_PROPOSTA","cod_imovel":"RJ-3302304-F7C658E16E5F491498A236F3CD305889","num_area":"3.9352000000000000000000000000000","ind_status":"AT"},"geometry":{"type":"Polygon","coordinates":[[[-42.038,-21.2392],[-42.0357,-21.2372],[-42.038,-21.2393],[-42.038,-21.2392]]]}},{"type":"Feature","properties":{"cod_tema":"ARL_PROPOSTA","cod_imovel":"RJ-3302304-F407F3C186924B1B82C628ECA97D4CBC","num_area":"2.5943000000000000000000000000000","ind_status":"AT"},"geometry":{"type":"Polygon","coordinates":[[[-42.185,-21.1764],[-42.1866,-21.1748],[-42.1847,-21.1763],[-42.185,-21.1764]]]}},{"type":"Feature","properties":{"cod_tema":"ARL_PROPOSTA","cod_imovel":"RJ-3302304-514B34168CB04F9B8DF7DB639E4FB536","num_area":"110.54080000000000000000000000000","ind_status":"AT"},"geometry":{"type":"Polygon","coordinates":[[[-42.1191,-21.3014],[-42.1204,-21.2968],[-42.1282,-21.2968],[-42.1246,-21.2854],[-42.1101,-21.29],[-42.1214,-21.2897],[-42.1159,-21.2952],[-42.1163,-21.2978],[-42.1194,-21.2965],[-42.1165,-21.3009],[-42.1257,-21.2944],[-42.1156,-21.3003],[-42.1191,-21.3014],[-42.1191,-21.3014]]]}},{"type":"Feature","properties":{"cod_tema":"ARL_PROPOSTA","cod_imovel":"RJ-3302304-45E14C703C264C19833E7E8F50CE7AF9","num_area":"0.3397000000000000000000000000000","ind_status":"PE"},"geometry":{"type":"Polygon","coordinates":[[[-42.0713,-21.2105],[-42.068,-21.2133],[-42.0713,-21.2104],[-42.0713,-21.2105]]]}},{"type":"Feature","properties":{"cod_tema":"ARL_PROPOSTA","cod_imovel":"RJ-3302304-AC739D4C8D484F1D9FDD2BE09376A859","num_area":"3.2897000000000000000000000000000","ind_status":"AT"},"geometry":{"type":"Polygon","coordinates":[[[-42.055,-21.2462],[-42.0557,-21.2507],[-42.0551,-21.2455],[-42.055,-21.2462]]]}},{"type":"Feature","properties":{"cod_tema":"ARL_PROPOSTA","cod_imovel":"RJ-3302304-0085396D3B4E4E7588D008A1332DCD3B","num_area":"12.442500000000000000000000000000","ind_status":"AT"},"geometry":{"type":"Polygon","coordinates":[[[-42.0962,-21.2345],[-42.0958,-21.2316],[-42.0911,-21.232],[-42.096,-21.2348],[-42.0962,-21.2345]]]}},{"type":"Feature","properties":{"cod_tema":"ARL_PROPOSTA","cod_imovel":"RJ-3302304-C408263419F045DBBCB89061280D9178","num_area":"81.945500000000000000000000000000","ind_status":"AT"},"geometry":{"type":"Polygon","coordinates":[[[-42.1314,-21.2822],[-42.1265,-21.2812],[-42.128,-21.2759],[-42.1246,-21.2788],[-42.1264,-21.2819],[-42.1235,-21.2798],[-42.1224,-21.2857],[-42.12,-21.2858],[-42.12,-21.2818],[-42.1166,-21.2831],[-42.1268,-21.291],[-42.1246,-21.2887],[-42.1287,-21.2878],[-42.1256,-21.2855],[-42.1266,-21.2821],[-42.1311,-21.2827],[-42.1314,-21.2822]]]}},{"type":"Feature","properties":{"cod_tema":"ARL_PROPOSTA","cod_imovel":"RJ-3302304-04C0A1FF120A46798C538580089DB0AB","num_area":"1.9966000000000000000000000000000","ind_status":"AT"},"geometry":{"type":"Polygon","coordinates":[[[-42.1052,-21.2638],[-42.1061,-21.2661],[-42.1053,-21.2638],[-42.1052,-21.2638]]]}},{"type":"Feature","properties":{"cod_tema":"ARL_PROPOSTA","cod_imovel":"RJ-3302304-C61B17CF5CB347DB87CF4E922BD70579","num_area":"27.304000000000000000000000000000","ind_status":"AT"},"geometry":{"type":"Polygon","coordinates":[[[-42.1052,-21.2072],[-42.1104,-21.206],[-42.1071,-21.2044],[-42.1079,-21.2015],[-42.1022,-21.2085],[-42.1049,-21.2073],[-42.1052,-21.2072]]]}},{"type":"Feature","properties":{"cod_tema":"ARL_PROPOSTA","cod_imovel":"RJ-3302304-4430D4BFBB4F4883B9CE5D238F67520D","num_area":"3.7515000000000000000000000000000","ind_status":"AT"},"geometry":{"type":"Polygon","coordinates":[[[-42.1408,-21.2486],[-42.1376,-21.2497],[-42.14,-21.2493],[-42.1408,-21.2486]]]}},{"type":"Feature","properties":{"cod_tema":"ARL_PROPOSTA","cod_imovel":"RJ-3302304-BE2C2526B5E9468EA3F55F08B5F90E84","num_area":"100.34680000000000000000000000000","ind_status":"AT"},"geometry":{"type":"Polygon","coordinates":[[[-42.1818,-21.227],[-42.1895,-21.2287],[-42.1915,-21.224],[-42.1973,-21.2261],[-42.1995,-21.224],[-42.193,-21.2174],[-42.1812,-21.2234],[-42.1818,-21.227]]]}},{"type":"Feature","properties":{"cod_tema":"ARL_PROPOSTA","cod_imovel":"RJ-3302304-E2DD23F236B849D5B2675D1EE6CE1D95","num_area":"2.7689000000000000000000000000000","ind_status":"AT"},"geometry":{"type":"Polygon","coordinates":[[[-42.1879,-21.1868],[-42.1894,-21.1897],[-42.1887,-21.1873],[-42.1879,-21.1868]]]}},{"type":"Feature","properties":{"cod_tema":"ARL_PROPOSTA","cod_imovel":"RJ-3302304-DA47D6B93794493D8ACED8E5740EFB5C","num_area":"3.1193000000000000000000000000000","ind_status":"AT"},"geometry":{"type":"Polygon","coordinates":[[[-42.119,-21.2268],[-42.1198,-21.2248],[-42.1184,-21.2271],[-42.119,-21.2268]]]}},{"type":"Feature","properties":{"cod_tema":"ARL_PROPOSTA","cod_imovel":"RJ-3302304-A692A98D03764D3EB821EDFA39DE9101","num_area":"1.0625000000000000000000000000000","ind_status":"AT"},"geometry":{"type":"Polygon","coordinates":[[[-42.1053,-21.2416],[-42.1035,-21.2434],[-42.1051,-21.2415],[-42.1053,-21.2416]]]}},{"type":"Feature","properties":{"cod_tema":"ARL_PROPOSTA","cod_imovel":"RJ-3302304-D9481C1FBA2C44C6BF6C5660C24531BB","num_area":"42.733600000000000000000000000000","ind_status":"AT"},"geometry":{"type":"Polygon","coordinates":[[[-42.1377,-21.1709],[-42.1355,-21.1812],[-42.1382,-21.171],[-42.1377,-21.1709]],[[-42.1421,-21.182],[-42.1385,-21.1809],[-42.1373,-21.1864],[-42.1406,-21.188],[-42.1412,-21.1834],[-42.1421,-21.182]]]}},{"type":"Feature","properties":{"cod_tema":"ARL_PROPOSTA","cod_imovel":"RJ-3302304-DCC6D4AFEF1941C6895C374B99E2D2A2","num_area":"2.8027000000000000000000000000000","ind_status":"AT"},"geometry":{"type":"Polygon","coordinates":[[[-42.1013,-21.2731],[-42.1002,-21.276],[-42.1013,-21.2731],[-42.1013,-21.2731]]]}},{"type":"Feature","properties":{"cod_tema":"ARL_PROPOSTA","cod_imovel":"RJ-3302304-ECA8C107A3034185BFDCFBA34CE999E0","num_area":"5.3643000000000000000000000000000","ind_status":"AT"},"geometry":{"type":"Polygon","coordinates":[[[-42.1977,-21.2151],[-42.1965,-21.2118],[-42.198,-21.2141],[-42.1941,-21.2159],[-42.1973,-21.2149],[-42.1977,-21.2151]]]}},{"type":"Feature","properties":{"cod_tema":"ARL_PROPOSTA","cod_imovel":"RJ-3302304-3DCCB76CA8A34F40A3F452FCD75BDE0B","num_area":"6.7596000000000000000000000000000","ind_status":"AT"},"geometry":{"type":"Polygon","coordinates":[[[-42.0742,-21.2772],[-42.0729,-21.2805],[-42.075,-21.2785],[-42.0742,-21.2772]]]}},{"type":"Feature","properties":{"cod_tema":"ARL_PROPOSTA","cod_imovel":"RJ-3302304-6D7B77570AEC41EA85747B9470A77B62","num_area":"2.5563000000000000000000000000000","ind_status":"AT"},"geometry":{"type":"Polygon","coordinates":[[[-42.1114,-21.2262],[-42.109,-21.2289],[-42.1114,-21.2264],[-42.1114,-21.2262]],[[-42.1099,-21.2302],[-42.112,-21.2294],[-42.11,-21.2301],[-42.1099,-21.2302]]]}},{"type":"Feature","properties":{"cod_tema":"ARL_PROPOSTA","cod_imovel":"RJ-3302304-08BFBC357B99402FBF71CFA9D2C4465C","num_area":"52.861000000000000000000000000000","ind_status":"AT"},"geometry":{"type":"Polygon","coordinates":[[[-42.175,-21.243],[-42.1773,-21.249],[-42.1812,-21.25],[-42.1856,-21.2493],[-42.1874,-21.2438],[-42.182,-21.2433],[-42.1823,-21.247],[-42.1789,-21.2453],[-42.175,-21.243]]]}},{"type":"Feature","properties":{"cod_tema":"ARL_PROPOSTA","cod_imovel":"RJ-3302304-BE9E33FF957941D39603C577F8D63BA4","num_area":"1.8324000000000000000000000000000","ind_status":"AT"},"geometry":{"type":"Polygon","coordinates":[[[-42.1397,-21.2378],[-42.1375,-21.2353],[-42.1397,-21.2378],[-42.1397,-21.2378]]]}},{"type":"Feature","properties":{"cod_tema":"ARL_PROPOSTA","cod_imovel":"RJ-3302304-35044E1C21A14B21B4A665B8A2A10FBF","num_area":"31.384700000000000000000000000000","ind_status":"AT"},"geometry":{"type":"Polygon","coordinates":[[[-42.1758,-21.1858],[-42.1727,-21.1855],[-42.1754,-21.186],[-42.1758,-21.1858]],[[-42.1691,-21.1695],[-42.1676,-21.1663],[-42.169,-21.169],[-42.1691,-21.1695]],[[-42.1657,-21.1629],[-42.1695,-21.1637],[-42.1657,-21.1627],[-42.1657,-21.1629]],[[-42.1709,-21.1827],[-42.1674,-21.1783],[-42.1704,-21.1656],[-42.1665,-21.1785],[-42.1707,-21.1826],[-42.1709,-21.1827]]]}},{"type":"Feature","properties":{"cod_tema":"ARL_PROPOSTA","cod_imovel":"RJ-3302304-1636746A92804CB69A89EC1D53C39C01","num_area":"0.8046000000000000000000000000000","ind_status":"PE"},"geometry":{"type":"Polygon","coordinates":[[[-42.0736,-21.213],[-42.0725,-21.211],[-42.0735,-21.2129],[-42.0736,-21.213]]]}},{"type":"Feature","properties":{"cod_tema":"ARL_PROPOSTA","cod_imovel":"RJ-3302304-F822C056B09B40D4BBB5D3990CCE3B36","num_area":"8.2996000000000000000000000000000","ind_status":"AT"},"geometry":{"type":"Polygon","coordinates":[[[-42.0534,-21.2156],[-42.051,-21.2166],[-42.0539,-21.2157],[-42.0534,-21.2156]]]}},{"type":"Feature","properties":{"cod_tema":"ARL_PROPOSTA","cod_imovel":"RJ-3302304-8A08571DF9D743CF93ECD90D5188CD00","num_area":"11.323400000000000000000000000000","ind_status":"AT"},"geometry":{"type":"Polygon","coordinates":[[[-42.1025,-21.2314],[-42.1056,-21.2341],[-42.1049,-21.2301],[-42.1026,-21.2313],[-42.1025,-21.2314]]]}},{"type":"Feature","properties":{"cod_tema":"ARL_PROPOSTA","cod_imovel":"RJ-3302304-05B87F49635741399616D62A0C733069","num_area":"6.0369000000000000000000000000000","ind_status":"AT"},"geometry":{"type":"Polygon","coordinates":[[[-42.1465,-21.1968],[-42.149,-21.1966],[-42.147,-21.1966],[-42.1465,-21.1968]],[[-42.1442,-21.1986],[-42.1495,-21.2],[-42.1444,-21.1986],[-42.1442,-21.1986]],[[-42.1439,-21.1988],[-42.1494,-21.2003],[-42.1441,-21.1991],[-42.1439,-21.1988]]]}},{"type":"Feature","properties":{"cod_tema":"ARL_PROPOSTA","cod_imovel":"RJ-3302304-FD8C917C0EC0461C856212ECA3B0F4D4","num_area":"4.0740000000000000000000000000000","ind_status":"AT"},"geometry":{"type":"Polygon","coordinates":[[[-42.1193,-21.2417],[-42.1222,-21.24],[-42.1194,-21.2415],[-42.1193,-21.2417]]]}},{"type":"Feature","properties":{"cod_tema":"ARL_PROPOSTA","cod_imovel":"RJ-3302304-11710DEDD6EB4F7688D426A398F4DF67","num_area":"33.868000000000000000000000000000","ind_status":"AT"},"geometry":{"type":"Polygon","coordinates":[[[-42.162,-21.2261],[-42.1601,-21.2272],[-42.1626,-21.2262],[-42.162,-21.2261]],[[-42.1572,-21.2176],[-42.157,-21.2213],[-42.1663,-21.2257],[-42.1653,-21.2219],[-42.1578,-21.2179],[-42.1572,-21.2176]],[[-42.1651,-21.2286],[-42.1662,-21.2261],[-42.1651,-21.2283],[-42.1651,-21.2286]]]}},{"type":"Feature","properties":{"cod_tema":"ARL_PROPOSTA","cod_imovel":"RJ-3302304-7D5D7EAECD2F4250871EB772FA72812E","num_area":"9.9941000000000000000000000000000","ind_status":"AT"},"geometry":{"type":"Polygon","coordinates":[[[-42.0783,-21.1812],[-42.0776,-21.1834],[-42.0786,-21.1809],[-42.0783,-21.1812]],[[-42.0814,-21.1826],[-42.0792,-21.1777],[-42.0744,-21.1797],[-42.0788,-21.1783],[-42.0806,-21.1806],[-42.0814,-21.1826]]]}},{"type":"Feature","properties":{"cod_tema":"ARL_PROPOSTA","cod_imovel":"RJ-3302304-B71940552DC64989925123EC8CF169A1","num_area":"6.0317000000000000000000000000000","ind_status":"AT"},"geometry":{"type":"Polygon","coordinates":[[[-42.0833,-21.1873],[-42.082,-21.1823],[-42.0827,-21.1861],[-42.0833,-21.1873]],[[-42.0812,-21.1889],[-42.0808,-21.1863],[-42.0812,-21.189],[-42.0812,-21.1889]]]}},{"type":"Feature","properties":{"cod_tema":"ARL_PROPOSTA","cod_imovel":"RJ-3302304-0889A9D07B724323951BC55C677077FB","num_area":"6.7879000000000000000000000000000","ind_status":"AT"},"geometry":{"type":"Polygon","coordinates":[[[-42.0812,-21.1936],[-42.0798,-21.1967],[-42.0813,-21.1936],[-42.0812,-21.1936]]]}},{"type":"Feature","properties":{"cod_tema":"ARL_PROPOSTA","cod_imovel":"RJ-3302304-7C65D937FA1A4A43BB978C00735B2390","num_area":"6.1788000000000000000000000000000","ind_status":"AT"},"geometry":{"type":"Polygon","coordinates":[[[-42.1973,-21.2232],[-42.1973,-21.2264],[-42.198,-21.2242],[-42.1973,-21.2232]]]}},{"type":"Feature","properties":{"cod_tema":"ARL_PROPOSTA","cod_imovel":"RJ-3302304-F13A771CEEA047588FAB6C75F67B4721","num_area":"6.7557000000000000000000000000000","ind_status":"AT"},"geometry":{"type":"Polygon","coordinates":[[[-42.0808,-21.2116],[-42.0818,-21.2136],[-42.084,-21.2096],[-42.0812,-21.2113],[-42.0808,-21.2116]]]}},{"type":"Feature","properties":{"cod_tema":"ARL_PROPOSTA","cod_imovel":"RJ-3302304-B16C934DD944439DAF04C30EB9895F0C","num_area":"5.5663000000000000000000000000000","ind_status":"AT"},"geometry":{"type":"Polygon","coordinates":[[[-42.1527,-21.2217],[-42.1509,-21.2172],[-42.1521,-21.2223],[-42.1527,-21.2217]]]}},{"type":"Feature","properties":{"cod_tema":"ARL_PROPOSTA","cod_imovel":"RJ-3302304-594C0123C4ED462AA88FAED050C4831A","num_area":"14.444900000000000000000000000000","ind_status":"AT"},"geometry":{"type":"Polygon","coordinates":[[[-42.1214,-21.2716],[-42.1142,-21.2623],[-42.1133,-21.267],[-42.1171,-21.2666],[-42.1183,-21.2711],[-42.1214,-21.2716]]]}},{"type":"Feature","properties":{"cod_tema":"ARL_PROPOSTA","cod_imovel":"RJ-3302304-11A705716A724CA682408A7FFB9EC957","num_area":"13.933900000000000000000000000000","ind_status":"AT"},"geometry":{"type":"Polygon","coordinates":[[[-42.0853,-21.2718],[-42.086,-21.2748],[-42.0856,-21.2718],[-42.0853,-21.2718]],[[-42.0809,-21.2737],[-42.0781,-21.2764],[-42.0822,-21.2738],[-42.0809,-21.2737]]]}},{"type":"Feature","properties":{"cod_tema":"ARL_PROPOSTA","cod_imovel":"RJ-3302304-7236CA3D9502497F95136A7D195B3952","num_area":"5.6100000000000000000000000000000","ind_status":"AT"},"geometry":{"type":"Polygon","coordinates":[[[-42.0962,-21.2126],[-42.0934,-21.2126],[-42.0958,-21.2129],[-42.0962,-21.2126]]]}},{"type":"Feature","properties":{"cod_tema":"ARL_PROPOSTA","cod_imovel":"RJ-3302304-111CA943F35245F9A77CE5903275B277","num_area":"8.3995000000000000000000000000000","ind_status":"AT"},"geometry":{"type":"Polygon","coordinates":[[[-42.0908,-21.2277],[-42.0943,-21.2309],[-42.0908,-21.2277],[-42.0908,-21.2277]]]}},{"type":"Feature","properties":{"cod_tema":"ARL_PROPOSTA","cod_imovel":"RJ-3302304-BFE7F10E92304F0AA92282F2C4B91D5F","num_area":"9.7447000000000000000000000000000","ind_status":"AT"},"geometry":{"type":"Polygon","coordinates":[[[-42.1328,-21.2736],[-42.1375,-21.2743],[-42.134,-21.2736],[-42.1328,-21.2736]]]}},{"type":"Feature","properties":{"cod_tema":"ARL_PROPOSTA","cod_imovel":"RJ-3302304-18B4E0615C854EC5B907E1C675B2EFC8","num_area":"4.0248000000000000000000000000000","ind_status":"AT"},"geometry":{"type":"Polygon","coordinates":[[[-42.0653,-21.2164],[-42.063,-21.218],[-42.0654,-21.2161],[-42.0653,-21.2164]]]}},{"type":"Feature","properties":{"cod_tema":"ARL_PROPOSTA","cod_imovel":"RJ-3302304-AE6AA6AAC8AA4D57A52365980C4C99FB","num_area":"7.1072000000000000000000000000000","ind_status":"AT"},"geometry":{"type":"Polygon","coordinates":[[[-42.1724,-21.2498],[-42.1716,-21.2446],[-42.1703,-21.2487],[-42.1724,-21.2498]]]}},{"type":"Feature","properties":{"cod_tema":"ARL_PROPOSTA","cod_imovel":"RJ-3302304-B7C9ED6EA070481DAF6886C4A0966CA7","num_area":"5.8789000000000000000000000000000","ind_status":"AT"},"geometry":{"type":"Polygon","coordinates":[[[-42.1101,-21.2196],[-42.1047,-21.2166],[-42.1095,-21.2197],[-42.1101,-21.2196]]]}},{"type":"Feature","properties":{"cod_tema":"ARL_PROPOSTA","cod_imovel":"RJ-3302304-4A525BED00D04B44B70D3F51F128C327","num_area":"10.735700000000000000000000000000","ind_status":"AT"},"geometry":{"type":"Polygon","coordinates":[[[-42.1973,-21.275],[-42.1987,-21.2735],[-42.1959,-21.273],[-42.1942,-21.2765],[-42.1971,-21.2751],[-42.1973,-21.275]],[[-42.1919,-21.2756],[-42.1928,-21.2737],[-42.1919,-21.2755],[-42.1919,-21.2756]]]}},{"type":"Feature","properties":{"cod_tema":"ARL_PROPOSTA","cod_imovel":"RJ-3302304-878442FD772F4DE89E0804ADDE33E3F0","num_area":"5.8728000000000000000000000000000","ind_status":"AT"},"geometry":{"type":"Polygon","coordinates":[[[-42.1284,-21.2449],[-42.1319,-21.2434],[-42.1287,-21.2447],[-42.1284,-21.2449]]]}},{"type":"Feature","properties":{"cod_tema":"ARL_PROPOSTA","cod_imovel":"RJ-3302304-6AFAB7F5FED84C94ABE8DC62B2171AED","num_area":"3.6524000000000000000000000000000","ind_status":"AT"},"geometry":{"type":"Polygon","coordinates":[[[-42.1346,-21.2268],[-42.1323,-21.2283],[-42.1348,-21.2271],[-42.1346,-21.2268]]]}},{"type":"Feature","properties":{"cod_tema":"ARL_PROPOSTA","cod_imovel":"RJ-3302304-433CDE8F28BC4561874DC8BED6F55D30","num_area":"6.7966000000000000000000000000000","ind_status":"AT"},"geometry":{"type":"Polygon","coordinates":[[[-42.1418,-21.2686],[-42.1395,-21.2718],[-42.142,-21.2721],[-42.1427,-21.2687],[-42.1418,-21.2686]]]}},{"type":"Feature","properties":{"cod_tema":"ARL_PROPOSTA","cod_imovel":"RJ-3302304-85A28F3AA1B345EF8AC1D7973D314810","num_area":"4.7494000000000000000000000000000","ind_status":"PE"},"geometry":{"type":"Polygon","coordinates":[[[-42.1067,-21.2731],[-42.1086,-21.2746],[-42.1061,-21.2692],[-42.1064,-21.2715],[-42.1067,-21.2731]]]}},{"type":"Feature","properties":{"cod_tema":"ARL_PROPOSTA","cod_imovel":"RJ-3302304-9DD3F2DDF98B4CECB99600A5A528EE1E","num_area":"5.2530000000000000000000000000000","ind_status":"AT"},"geometry":{"type":"Polygon","coordinates":[[[-42.113,-21.2392],[-42.1156,-21.24],[-42.113,-21.2386],[-42.113,-21.2392]]]}},{"type":"Feature","properties":{"cod_tema":"ARL_PROPOSTA","cod_imovel":"RJ-3302304-13140806412C4523A89D511A23480054","num_area":"29.824700000000000000000000000000","ind_status":"AT"},"geometry":{"type":"Polygon","coordinates":[[[-42.1502,-21.1715],[-42.1566,-21.1705],[-42.1541,-21.1655],[-42.1466,-21.1662],[-42.1513,-21.1672],[-42.15,-21.1713],[-42.1502,-21.1715]]]}},{"type":"Feature","properties":{"cod_tema":"ARL_PROPOSTA","cod_imovel":"RJ-3302304-33A2FB3BE2E042D28D6F5D48CC6CD17C","num_area":"10.868800000000000000000000000000","ind_status":"AT"},"geometry":{"type":"Polygon","coordinates":[[[-42.1182,-21.2725],[-42.1123,-21.2726],[-42.118,-21.2729],[-42.1182,-21.2725]]]}},{"type":"Feature","properties":{"cod_tema":"ARL_PROPOSTA","cod_imovel":"RJ-3302304-811574AA10E9410B962EF6A954874351","num_area":"94.842600000000000000000000000000","ind_status":"AT"},"geometry":{"type":"Polygon","coordinates":[[[-42.0711,-21.2606],[-42.0682,-21.2628],[-42.0715,-21.2608],[-42.0711,-21.2606]],[[-42.0594,-21.2572],[-42.0597,-21.2615],[-42.0641,-21.2581],[-42.0605,-21.2568],[-42.0594,-21.2572]],[[-42.0723,-21.2419],[-42.0698,-21.2425],[-42.0725,-21.242],[-42.0723,-21.2419]],[[-42.0699,-21.247],[-42.0719,-21.2506],[-42.0751,-21.2502],[-42.0664,-21.2541],[-42.0683,-21.2562],[-42.0778,-21.25],[-42.0714,-21.2468],[-42.0699,-21.247]],[[-42.0765,-21.246],[-42.0789,-21.2501],[-42.077,-21.2462],[-42.0765,-21.246]]]}},{"type":"Feature","properties":{"cod_tema":"ARL_PROPOSTA","cod_imovel":"RJ-3302304-8ABC0148751F425D8C149A6E0A389775","num_area":"5.9695000000000000000000000000000","ind_status":"AT"},"geometry":{"type":"Polygon","coordinates":[[[-42.1032,-21.2435],[-42.1002,-21.2441],[-42.1033,-21.2435],[-42.1032,-21.2435]]]}},{"type":"Feature","properties":{"cod_tema":"ARL_PROPOSTA","cod_imovel":"RJ-3302304-CAFD02BA8DA0473B9E1ACD17634EDDEF","num_area":"13.779400000000000000000000000000","ind_status":"AT"},"geometry":{"type":"Polygon","coordinates":[[[-42.0534,-21.2313],[-42.0558,-21.233],[-42.0564,-21.2271],[-42.0533,-21.2311],[-42.0534,-21.2313]]]}},{"type":"Feature","properties":{"cod_tema":"ARL_PROPOSTA","cod_imovel":"RJ-3302304-ECEC1993FE5240A3B15206852637E489","num_area":"1.2456000000000000000000000000000","ind_status":"AT"},"geometry":{"type":"Polygon","coordinates":[[[-42.0966,-21.213],[-42.0945,-21.2139],[-42.0966,-21.2132],[-42.0966,-21.213]]]}},{"type":"Feature","properties":{"cod_tema":"ARL_PROPOSTA","cod_imovel":"RJ-3302304-5962805311354D1A80BAE2806A80D845","num_area":"1.7584000000000000000000000000000","ind_status":"AT"},"geometry":{"type":"Polygon","coordinates":[[[-42.132,-21.2483],[-42.134,-21.248],[-42.1317,-21.2475],[-42.132,-21.2483]]]}},{"type":"Feature","properties":{"cod_tema":"ARL_PROPOSTA","cod_imovel":"RJ-3302304-B8CB30263840439A8554A90F819DE42D","num_area":"1.5922000000000000000000000000000","ind_status":"PE"},"geometry":{"type":"Polygon","coordinates":[[[-42.0747,-21.2328],[-42.0744,-21.2286],[-42.0746,-21.2334],[-42.0747,-21.2328]]]}},{"type":"Feature","properties":{"cod_tema":"ARL_PROPOSTA","cod_imovel":"RJ-3302304-B4CFF790D9DD4F5B831FDBCAB8F4768F","num_area":"7.4478000000000000000000000000000","ind_status":"AT"},"geometry":{"type":"Polygon","coordinates":[[[-42.0953,-21.2895],[-42.0935,-21.2867],[-42.0923,-21.2897],[-42.0948,-21.2895],[-42.0953,-21.2895]]]}},{"type":"Feature","properties":{"cod_tema":"ARL_PROPOSTA","cod_imovel":"RJ-3302304-52F37E4526A54A5FB1CDB218083675F0","num_area":"12.822700000000000000000000000000","ind_status":"AT"},"geometry":{"type":"Polygon","coordinates":[[[-42.1091,-21.2273],[-42.1128,-21.2245],[-42.1101,-21.2237],[-42.1091,-21.2273],[-42.1091,-21.2273]]]}},{"type":"Feature","properties":{"cod_tema":"ARL_PROPOSTA","cod_imovel":"RJ-3302304-D49A4037EF34491BA2B96462577F6219","num_area":"2.6865000000000000000000000000000","ind_status":"AT"},"geometry":{"type":"Polygon","coordinates":[[[-42.0468,-21.2543],[-42.0443,-21.2531],[-42.0466,-21.2543],[-42.0468,-21.2543]]]}},{"type":"Feature","properties":{"cod_tema":"ARL_PROPOSTA","cod_imovel":"RJ-3302304-1284D65A4A824FD59724452E37D8E3B9","num_area":"18.921100000000000000000000000000","ind_status":"AT"},"geometry":{"type":"Polygon","coordinates":[[[-42.2111,-21.2786],[-42.2089,-21.2752],[-42.2055,-21.2769],[-42.211,-21.2787],[-42.2111,-21.2786]]]}},{"type":"Feature","properties":{"cod_tema":"ARL_PROPOSTA","cod_imovel":"RJ-3302304-C437BCDFBB334B5F9A095E7BC4EE86D9","num_area":"3.6288000000000000000000000000000","ind_status":"AT"},"geometry":{"type":"Polygon","coordinates":[[[-42.1942,-21.1794],[-42.1934,-21.1776],[-42.194,-21.1796],[-42.1942,-21.1794]]]}},{"type":"Feature","properties":{"cod_tema":"ARL_PROPOSTA","cod_imovel":"RJ-3302304-EFBCF16364BC444EA4719C2CEA5A5CDC","num_area":"25.924000000000000000000000000000","ind_status":"AT"},"geometry":{"type":"Polygon","coordinates":[[[-42.0496,-21.1959],[-42.0559,-21.1974],[-42.0532,-21.1934],[-42.0497,-21.1959],[-42.0496,-21.1959]],[[-42.0552,-21.1973],[-42.0498,-21.1964],[-42.053,-21.1938],[-42.0554,-21.1972],[-42.0552,-21.1973]],[[-42.053,-21.191],[-42.0562,-21.1974],[-42.0605,-21.1954],[-42.0552,-21.195],[-42.0534,-21.1908],[-42.053,-21.191]]]}},{"type":"Feature","properties":{"cod_tema":"ARL_PROPOSTA","cod_imovel":"RJ-3302304-CA690044F0E4410080589088A92372DD","num_area":"21.792900000000000000000000000000","ind_status":"AT"},"geometry":{"type":"Polygon","coordinates":[[[-42.0675,-21.1836],[-42.0713,-21.1831],[-42.0659,-21.1833],[-42.0675,-21.1836]],[[-42.0582,-21.1826],[-42.054,-21.1803],[-42.053,-21.1836],[-42.0578,-21.1827],[-42.0582,-21.1826]]]}},{"type":"Feature","properties":{"cod_tema":"ARL_PROPOSTA","cod_imovel":"RJ-3302304-55EB5D3218C84DEE85B6748FB741180D","num_area":"7.4162000000000000000000000000000","ind_status":"AT"},"geometry":{"type":"Polygon","coordinates":[[[-42.0795,-21.2222],[-42.0744,-21.221],[-42.0806,-21.2246],[-42.0791,-21.2228],[-42.0795,-21.2222]]]}},{"type":"Feature","properties":{"cod_tema":"ARL_PROPOSTA","cod_imovel":"RJ-3302304-A054012319D4493EAF3B54C5E0FCC853","num_area":"22.245100000000000000000000000000","ind_status":"AT"},"geometry":{"type":"Polygon","coordinates":[[[-42.1039,-21.2139],[-42.0993,-21.2086],[-42.0979,-21.212],[-42.1035,-21.214],[-42.1039,-21.2139]]]}},{"type":"Feature","properties":{"cod_tema":"ARL_PROPOSTA","cod_imovel":"RJ-3302304-ECB82578A406447FAB2BE649DD8B9F0D","num_area":"9.5873000000000000000000000000000","ind_status":"AT"},"geometry":{"type":"Polygon","coordinates":[[[-42.0942,-21.1949],[-42.0915,-21.1975],[-42.0941,-21.1992],[-42.0943,-21.195],[-42.0942,-21.1949]]]}},{"type":"Feature","properties":{"cod_tema":"ARL_PROPOSTA","cod_imovel":"RJ-3302304-08211E65DECE4D7D8BF06A746B07C8D7","num_area":"5.4756000000000000000000000000000","ind_status":"AT"},"geometry":{"type":"Polygon","coordinates":[[[-42.1941,-21.1731],[-42.1971,-21.1731],[-42.1954,-21.1702],[-42.1944,-21.1725],[-42.1941,-21.1731]]]}},{"type":"Feature","properties":{"cod_tema":"ARL_PROPOSTA","cod_imovel":"RJ-3302304-5C3050A6CA5D4C90A4C2E85C83C8850D","num_area":"17.593400000000000000000000000000","ind_status":"AT"},"geometry":{"type":"Polygon","coordinates":[[[-42.1818,-21.2249],[-42.1802,-21.2225],[-42.1818,-21.2252],[-42.1818,-21.2249]],[[-42.179,-21.2263],[-42.1758,-21.2228],[-42.1788,-21.2264],[-42.179,-21.2263]],[[-42.1781,-21.2181],[-42.1807,-21.2223],[-42.1784,-21.2182],[-42.1781,-21.2181]],[[-42.1737,-21.2168],[-42.1748,-21.2188],[-42.1737,-21.2168],[-42.1737,-21.2168]]]}},{"type":"Feature","properties":{"cod_tema":"ARL_PROPOSTA","cod_imovel":"RJ-3302304-910E0722431241FFBB3D1984D438DFCA","num_area":"9.3327000000000000000000000000000","ind_status":"AT"},"geometry":{"type":"Polygon","coordinates":[[[-42.1747,-21.2287],[-42.1758,-21.2264],[-42.1748,-21.2286],[-42.1747,-21.2287]],[[-42.1794,-21.2315],[-42.1763,-21.2331],[-42.1793,-21.2316],[-42.1794,-21.2315]]]}},{"type":"Feature","properties":{"cod_tema":"ARL_PROPOSTA","cod_imovel":"RJ-3302304-8D387505C6654412818DFC2BDFF6ABE3","num_area":"3.2564000000000000000000000000000","ind_status":"AT"},"geometry":{"type":"Polygon","coordinates":[[[-42.1971,-21.3059],[-42.1956,-21.3032],[-42.1973,-21.3055],[-42.1971,-21.3059]],[[-42.1991,-21.3074],[-42.2034,-21.3093],[-42.1991,-21.3074],[-42.1991,-21.3074]]]}},{"type":"Feature","properties":{"cod_tema":"ARL_PROPOSTA","cod_imovel":"RJ-3302304-B0327B83F7B24336B8D17581DADC9C04","num_area":"2.1227000000000000000000000000000","ind_status":"AT"},"geometry":{"type":"Polygon","coordinates":[[[-42.15,-21.2239],[-42.1465,-21.2253],[-42.15,-21.2239],[-42.15,-21.2239]]]}},{"type":"Feature","properties":{"cod_tema":"ARL_PROPOSTA","cod_imovel":"RJ-3302304-6DBE7EEBE9DF405DA3828C1FC11EBA5B","num_area":"4.2785000000000000000000000000000","ind_status":"AT"},"geometry":{"type":"Polygon","coordinates":[[[-42.1426,-21.192],[-42.1416,-21.1888],[-42.1422,-21.1917],[-42.1426,-21.192]]]}},{"type":"Feature","properties":{"cod_tema":"ARL_PROPOSTA","cod_imovel":"RJ-3302304-B498C5F5B633482DA614A5932C6EA29E","num_area":"3.0662000000000000000000000000000","ind_status":"AT"},"geometry":{"type":"Polygon","coordinates":[[[-42.1216,-21.2522],[-42.1185,-21.2547],[-42.1216,-21.2526],[-42.1216,-21.2522]]]}},{"type":"Feature","properties":{"cod_tema":"ARL_PROPOSTA","cod_imovel":"RJ-3302304-C3AF845531B9439D9D0C743B258B2C56","num_area":"6.5361000000000000000000000000000","ind_status":"AT"},"geometry":{"type":"Polygon","coordinates":[[[-42.1397,-21.1999],[-42.1395,-21.2047],[-42.1402,-21.1998],[-42.1397,-21.1999]]]}},{"type":"Feature","properties":{"cod_tema":"ARL_PROPOSTA","cod_imovel":"RJ-3302304-D6392402D8C34BA8A372D697CD6C5DA6","num_area":"2.7036000000000000000000000000000","ind_status":"AT"},"geometry":{"type":"Polygon","coordinates":[[[-42.1439,-21.1948],[-42.1462,-21.1937],[-42.144,-21.1948],[-42.1439,-21.1948]]]}},{"type":"Feature","properties":{"cod_tema":"ARL_PROPOSTA","cod_imovel":"RJ-3302304-2BA7B26C0F0C42DFB471C60A49BB8CC9","num_area":"3.4239000000000000000000000000000","ind_status":"AT"},"geometry":{"type":"Polygon","coordinates":[[[-42.0642,-21.2275],[-42.0645,-21.225],[-42.0639,-21.2274],[-42.0642,-21.2275]]]}},{"type":"Feature","properties":{"cod_tema":"ARL_PROPOSTA","cod_imovel":"RJ-3302304-4A4C73E1BBDF4181937EFEDFB839C211","num_area":"3.2983000000000000000000000000000","ind_status":"AT"},"geometry":{"type":"Polygon","coordinates":[[[-42.055,-21.2251],[-42.0545,-21.2219],[-42.055,-21.2249],[-42.055,-21.2251]],[[-42.054,-21.2172],[-42.0554,-21.22],[-42.054,-21.217],[-42.054,-21.2172]]]}},{"type":"Feature","properties":{"cod_tema":"ARL_PROPOSTA","cod_imovel":"RJ-3302304-D5FD1444B2A0463BB20679EBC51D3880","num_area":"9.1416000000000000000000000000000","ind_status":"AT"},"geometry":{"type":"Polygon","coordinates":[[[-42.1598,-21.2071],[-42.1572,-21.2051],[-42.1564,-21.2081],[-42.1595,-21.209],[-42.1598,-21.2071]]]}},{"type":"Feature","properties":{"cod_tema":"ARL_PROPOSTA","cod_imovel":"RJ-3302304-A603052BD3E14C99BB62407638B35812","num_area":"3.1452000000000000000000000000000","ind_status":"AT"},"geometry":{"type":"Polygon","coordinates":[[[-42.1387,-21.2467],[-42.1404,-21.2448],[-42.1382,-21.2461],[-42.1387,-21.2467]]]}},{"type":"Feature","properties":{"cod_tema":"ARL_PROPOSTA","cod_imovel":"RJ-3302304-7D7B27B494C042D8BDED6F80DE941F3C","num_area":"9.7943000000000000000000000000000","ind_status":"AT"},"geometry":{"type":"Polygon","coordinates":[[[-42.168,-21.2537],[-42.1654,-21.2594],[-42.1684,-21.2539],[-42.168,-21.2537]]]}},{"type":"Feature","properties":{"cod_tema":"ARL_PROPOSTA","cod_imovel":"RJ-3302304-130E7DBC1B204539828CC9334585F537","num_area":"47.503400000000000000000000000000","ind_status":"AT"},"geometry":{"type":"Polygon","coordinates":[[[-42.2176,-21.2936],[-42.222,-21.2903],[-42.2167,-21.2907],[-42.2176,-21.2936]],[[-42.2254,-21.2794],[-42.2166,-21.2828],[-42.2192,-21.2811],[-42.2237,-21.2844],[-42.226,-21.2798],[-42.2254,-21.2794]]]}},{"type":"Feature","properties":{"cod_tema":"ARL_PROPOSTA","cod_imovel":"RJ-3302304-413B43B75C6F499BBC0C47B6108B08D1","num_area":"23.186000000000000000000000000000","ind_status":"AT"},"geometry":{"type":"Polygon","coordinates":[[[-42.1461,-21.2514],[-42.1492,-21.2503],[-42.1471,-21.245],[-42.1433,-21.2487],[-42.1457,-21.2513],[-42.1461,-21.2514]]]}},{"type":"Feature","properties":{"cod_tema":"ARL_PROPOSTA","cod_imovel":"RJ-3302304-034DD85816C24930B7CE4FBA4AEE98B3","num_area":"105.21460000000000000000000000000","ind_status":"AT"},"geometry":{"type":"Polygon","coordinates":[[[-42.1762,-21.2796],[-42.1735,-21.2799],[-42.1756,-21.2809],[-42.1762,-21.2796]],[[-42.1753,-21.2835],[-42.1715,-21.2843],[-42.1761,-21.2839],[-42.1753,-21.2835]],[[-42.1722,-21.2921],[-42.1707,-21.2902],[-42.1707,-21.2933],[-42.1724,-21.2916],[-42.1722,-21.2921]],[[-42.1629,-21.2871],[-42.1556,-21.2841],[-42.1563,-21.2878],[-42.1613,-21.2886],[-42.1629,-21.2871]],[[-42.1603,-21.2971],[-42.1632,-21.2956],[-42.1598,-21.2964],[-42.1603,-21.2971]],[[-42.1745,-21.2764],[-42.1686,-21.2816],[-42.1765,-21.2785],[-42.1748,-21.2763],[-42.1745,-21.2764]],[[-42.1831,-21.2796],[-42.1793,-21.2838],[-42.1842,-21.2803],[-42.1886,-21.2818],[-42.1842,-21.2795],[-42.1831,-21.2796]],[[-42.1833,-21.2886],[-42.183,-21.286],[-42.1821,-21.2887],[-42.1772,-21.2885],[-42.1796,-21.2923],[-42.1833,-21.2888],[-42.1833,-21.2886]]]}},{"type":"Feature","properties":{"cod_tema":"ARL_PROPOSTA","cod_imovel":"RJ-3302304-4934813C8E314993BF1B4720A52DE256","num_area":"18.425700000000000000000000000000","ind_status":"AT"},"geometry":{"type":"Polygon","coordinates":[[[-42.1669,-21.2024],[-42.1709,-21.2046],[-42.1754,-21.2022],[-42.1671,-21.2025],[-42.1669,-21.2024]]]}},{"type":"Feature","properties":{"cod_tema":"ARL_PROPOSTA","cod_imovel":"RJ-3302304-8F9FF8E8B97041E19CC53D969EF0A92D","num_area":"3.4758000000000000000000000000000","ind_status":"AT"},"geometry":{"type":"Polygon","coordinates":[[[-42.1322,-21.2016],[-42.1338,-21.2039],[-42.1337,-21.1993],[-42.1323,-21.2014],[-42.1322,-21.2016]]]}},{"type":"Feature","properties":{"cod_tema":"ARL_PROPOSTA","cod_imovel":"RJ-3302304-E4D8D1A4354E4C13B96265EABC5A171E","num_area":"2.5776000000000000000000000000000","ind_status":"AT"},"geometry":{"type":"Polygon","coordinates":[[[-42.1535,-21.1787],[-42.1597,-21.18],[-42.1542,-21.1791],[-42.1535,-21.1787]]]}},{"type":"Feature","properties":{"cod_tema":"ARL_PROPOSTA","cod_imovel":"RJ-3302304-999978C5E3174FB9ACD3C47534AB7ACB","num_area":"1.7979000000000000000000000000000","ind_status":"AT"},"geometry":{"type":"Polygon","coordinates":[[[-42.1901,-21.2038],[-42.1904,-21.2062],[-42.1901,-21.2041],[-42.1901,-21.2038]]]}},{"type":"Feature","properties":{"cod_tema":"ARL_PROPOSTA","cod_imovel":"RJ-3302304-21550038AC944AAEBDE9FE3C8D06B7D2","num_area":"9.3812000000000000000000000000000","ind_status":"AT"},"geometry":{"type":"Polygon","coordinates":[[[-42.2049,-21.265],[-42.2079,-21.2652],[-42.2047,-21.2616],[-42.205,-21.2651],[-42.2049,-21.265]]]}},{"type":"Feature","properties":{"cod_tema":"ARL_PROPOSTA","cod_imovel":"RJ-3302304-0F780512B1B34F69A48716E04F988F99","num_area":"6.3278000000000000000000000000000","ind_status":"AT"},"geometry":{"type":"Polygon","coordinates":[[[-42.111,-21.2336],[-42.1072,-21.2374],[-42.1115,-21.2374],[-42.111,-21.2337],[-42.111,-21.2336]]]}},{"type":"Feature","properties":{"cod_tema":"ARL_PROPOSTA","cod_imovel":"RJ-3302304-97F87A04E25C4B1D97A26090F8D873C0","num_area":"24.458000000000000000000000000000","ind_status":"AT"},"geometry":{"type":"Polygon","coordinates":[[[-42.2028,-21.2838],[-42.2023,-21.2788],[-42.1993,-21.2821],[-42.2028,-21.284],[-42.2028,-21.2838]],[[-42.2251,-21.2792],[-42.2177,-21.2809],[-42.2253,-21.2792],[-42.2251,-21.2792]]]}},{"type":"Feature","properties":{"cod_tema":"ARL_PROPOSTA","cod_imovel":"RJ-3302304-B5FC89CA92554F348F47297826903141","num_area":"17.065400000000000000000000000000","ind_status":"AT"},"geometry":{"type":"Polygon","coordinates":[[[-42.2144,-21.2754],[-42.2204,-21.2736],[-42.2138,-21.2726],[-42.2144,-21.2754]]]}},{"type":"Feature","properties":{"cod_tema":"ARL_PROPOSTA","cod_imovel":"RJ-3302304-E3F85FE8B7A248E7A69D740047D7759F","num_area":"20.381800000000000000000000000000","ind_status":"AT"},"geometry":{"type":"Polygon","coordinates":[[[-42.2207,-21.3061],[-42.2199,-21.3003],[-42.2164,-21.3027],[-42.2202,-21.3058],[-42.2207,-21.3061]]]}},{"type":"Feature","properties":{"cod_tema":"ARL_PROPOSTA","cod_imovel":"RJ-3302304-532A478233B74441BF7E8CFFA8BA5FF9","num_area":"1.1765000000000000000000000000000","ind_status":"PE"},"geometry":{"type":"Polygon","coordinates":[[[-42.1095,-21.2167],[-42.1079,-21.2146],[-42.1091,-21.2168],[-42.1095,-21.2167]]]}},{"type":"Feature","properties":{"cod_tema":"ARL_PROPOSTA","cod_imovel":"RJ-3302304-BEEB6C764CAC4E78A02499DDB36D9386","num_area":"17.364700000000000000000000000000","ind_status":"AT"},"geometry":{"type":"Polygon","coordinates":[[[-42.0568,-21.1882],[-42.0583,-21.1858],[-42.0562,-21.1875],[-42.0568,-21.1882]],[[-42.0514,-21.1796],[-42.0476,-21.1822],[-42.0528,-21.1908],[-42.048,-21.1818],[-42.054,-21.1801],[-42.0514,-21.1796]]]}},{"type":"Feature","properties":{"cod_tema":"ARL_PROPOSTA","cod_imovel":"RJ-3302304-EC6AAC1FD69642C889807FDD6669C8E8","num_area":"7.6224000000000000000000000000000","ind_status":"AT"},"geometry":{"type":"Polygon","coordinates":[[[-42.1044,-21.2763],[-42.1022,-21.2768],[-42.1046,-21.2804],[-42.1048,-21.2773],[-42.1044,-21.2763]]]}},{"type":"Feature","properties":{"cod_tema":"ARL_PROPOSTA","cod_imovel":"RJ-3302304-D48E91480616471F9F674F33BA4179AE","num_area":"5.2050000000000000000000000000000","ind_status":"CA"},"geometry":{"type":"Polygon","coordinates":[[[-42.1987,-21.1932],[-42.2009,-21.1922],[-42.1981,-21.1916],[-42.1987,-21.1932]]]}},{"type":"Feature","properties":{"cod_tema":"ARL_PROPOSTA","cod_imovel":"RJ-3302304-F27C79D4AEE642FB9D363CEFC9CFDCCF","num_area":"10.683600000000000000000000000000","ind_status":"AT"},"geometry":{"type":"Polygon","coordinates":[[[-42.1126,-21.2388],[-42.1156,-21.2435],[-42.1126,-21.2388],[-42.1126,-21.2388]]]}},{"type":"Feature","properties":{"cod_tema":"ARL_PROPOSTA","cod_imovel":"RJ-3302304-D01CEA7D7B7443FAA00D9BB2AE5DA92D","num_area":"5.2486000000000000000000000000000","ind_status":"AT"},"geometry":{"type":"Polygon","coordinates":[[[-42.2076,-21.1791],[-42.207,-21.1824],[-42.2077,-21.1792],[-42.2076,-21.1791]]]}},{"type":"Feature","properties":{"cod_tema":"ARL_PROPOSTA","cod_imovel":"RJ-3302304-0122EA26A9294684BBB08A5F83578D63","num_area":"4.3313000000000000000000000000000","ind_status":"AT"},"geometry":{"type":"Polygon","coordinates":[[[-42.1631,-21.2991],[-42.1609,-21.2974],[-42.1631,-21.2991],[-42.1631,-21.2991]]]}},{"type":"Feature","properties":{"cod_tema":"ARL_PROPOSTA","cod_imovel":"RJ-3302304-7F5DA85322B1416DA2BE8E017F7EF117","num_area":"4.1386000000000000000000000000000","ind_status":"AT"},"geometry":{"type":"Polygon","coordinates":[[[-42.1045,-21.2315],[-42.1064,-21.2305],[-42.1043,-21.2314],[-42.1045,-21.2315]],[[-42.1065,-21.2268],[-42.1075,-21.2285],[-42.1067,-21.2266],[-42.1065,-21.2268]]]}},{"type":"Feature","properties":{"cod_tema":"ARL_PROPOSTA","cod_imovel":"RJ-3302304-7523EE30C04F4D5BA5DA9AEC98AE9E2E","num_area":"4.2322000000000000000000000000000","ind_status":"PE"},"geometry":{"type":"Polygon","coordinates":[[[-42.0983,-21.2206],[-42.0992,-21.2231],[-42.0984,-21.2201],[-42.0983,-21.2206]]]}},{"type":"Feature","properties":{"cod_tema":"ARL_PROPOSTA","cod_imovel":"RJ-3302304-D4DA513647264BC5AF373724ADB7AC20","num_area":"3.9029000000000000000000000000000","ind_status":"PE"},"geometry":{"type":"Polygon","coordinates":[[[-42.0925,-21.2423],[-42.0898,-21.2409],[-42.0917,-21.242],[-42.0925,-21.2423]]]}},{"type":"Feature","properties":{"cod_tema":"ARL_PROPOSTA","cod_imovel":"RJ-3302304-610F2CBC340F436397E9D474F3B3F71C","num_area":"1.8119000000000000000000000000000","ind_status":"PE"},"geometry":{"type":"Polygon","coordinates":[[[-42.1162,-21.2498],[-42.1178,-21.2513],[-42.1164,-21.2497],[-42.1162,-21.2498]]]}},{"type":"Feature","properties":{"cod_tema":"ARL_PROPOSTA","cod_imovel":"RJ-3302304-597AFF08538E4C5381F23218F066E389","num_area":"5.9361000000000000000000000000000","ind_status":"AT"},"geometry":{"type":"Polygon","coordinates":[[[-42.0493,-21.2057],[-42.0486,-21.2082],[-42.0523,-21.206],[-42.0494,-21.2056],[-42.0493,-21.2057]]]}},{"type":"Feature","properties":{"cod_tema":"ARL_PROPOSTA","cod_imovel":"RJ-3302304-C9D0179DE4D84406A3CBB06E21AB4E23","num_area":"3.8072000000000000000000000000000","ind_status":"PE"},"geometry":{"type":"Polygon","coordinates":[[[-42.0629,-21.216],[-42.0657,-21.2126],[-42.0626,-21.2159],[-42.0629,-21.216]]]}},{"type":"Feature","properties":{"cod_tema":"ARL_PROPOSTA","cod_imovel":"RJ-3302304-F8D6A1938F494A48BCB95D787636E704","num_area":"0.6799000000000000000000000000000","ind_status":"PE"},"geometry":{"type":"Polygon","coordinates":[[[-42.0806,-21.2249],[-42.0823,-21.2235],[-42.0805,-21.2247],[-42.0806,-21.2249]]]}},{"type":"Feature","properties":{"cod_tema":"ARL_PROPOSTA","cod_imovel":"RJ-3302304-87BBC69337234B6AA0B9999E6AC1DB3D","num_area":"4.9595000000000000000000000000000","ind_status":"PE"},"geometry":{"type":"Polygon","coordinates":[[[-42.0945,-21.2376],[-42.0916,-21.2364],[-42.0947,-21.2378],[-42.0945,-21.2376]]]}},{"type":"Feature","properties":{"cod_tema":"ARL_PROPOSTA","cod_imovel":"RJ-3302304-2A5FD50F3A914F68BC02811369CF73B8","num_area":"1.0122000000000000000000000000000","ind_status":"AT"},"geometry":{"type":"Polygon","coordinates":[[[-42.1201,-21.2395],[-42.1187,-21.2411],[-42.1201,-21.2395],[-42.1201,-21.2395]]]}},{"type":"Feature","properties":{"cod_tema":"ARL_PROPOSTA","cod_imovel":"RJ-3302304-7F3B7CE852714A60910F24EE70ACAD22","num_area":"23.570200000000000000000000000000","ind_status":"AT"},"geometry":{"type":"Polygon","coordinates":[[[-42.0796,-21.2793],[-42.0784,-21.2817],[-42.0792,-21.2797],[-42.0796,-21.2793]],[[-42.0846,-21.2767],[-42.0838,-21.2848],[-42.079,-21.2864],[-42.0838,-21.2853],[-42.0842,-21.2773],[-42.0846,-21.2767]],[[-42.0803,-21.2947],[-42.0829,-21.2942],[-42.0809,-21.295],[-42.0803,-21.2947]],[[-42.0867,-21.2903],[-42.0838,-21.2864],[-42.0857,-21.2836],[-42.0812,-21.2852],[-42.0866,-21.2906],[-42.0867,-21.2903]],[[-42.0838,-21.2865],[-42.0865,-21.2904],[-42.0838,-21.2865],[-42.0838,-21.2865]],[[-42.0835,-21.2935],[-42.0843,-21.2906],[-42.0832,-21.2934],[-42.0835,-21.2935]],[[-42.0836,-21.2836],[-42.0838,-21.2782],[-42.0836,-21.2834],[-42.0836,-21.2836]],[[-42.0854,-21.2756],[-42.0836,-21.2782],[-42.0856,-21.2756],[-42.0854,-21.2756]],[[-42.088,-21.289],[-42.0859,-21.2857],[-42.0863,-21.2887],[-42.088,-21.289]]]}},{"type":"Feature","properties":{"cod_tema":"ARL_PROPOSTA","cod_imovel":"RJ-3302304-3FE0DE8A644D438C9C4C083454E2697D","num_area":"3.6275000000000000000000000000000","ind_status":"PE"},"geometry":{"type":"Polygon","coordinates":[[[-42.0922,-21.1927],[-42.0879,-21.196],[-42.0922,-21.1927],[-42.0922,-21.1927]]]}},{"type":"Feature","properties":{"cod_tema":"ARL_PROPOSTA","cod_imovel":"RJ-3302304-967DF4F30F8B41BE994786F1732B96B2","num_area":"7.2272000000000000000000000000000","ind_status":"AT"},"geometry":{"type":"Polygon","coordinates":[[[-42.0944,-21.3424],[-42.0992,-21.3367],[-42.096,-21.3412],[-42.0944,-21.3424]]]}},{"type":"Feature","properties":{"cod_tema":"ARL_PROPOSTA","cod_imovel":"RJ-3302304-FFC4A81530F644DF9143B14F6C8C5D3B","num_area":"7.2183000000000000000000000000000","ind_status":"AT"},"geometry":{"type":"Polygon","coordinates":[[[-42.0898,-21.3443],[-42.0956,-21.3429],[-42.0886,-21.3447],[-42.0898,-21.3443]]]}},{"type":"Feature","properties":{"cod_tema":"ARL_PROPOSTA","cod_imovel":"RJ-3302304-81EC78DFF63A48E88C264CE9314CF16B","num_area":"19.396800000000000000000000000000","ind_status":"AT"},"geometry":{"type":"Polygon","coordinates":[[[-42.1753,-21.1931],[-42.1726,-21.1915],[-42.1752,-21.1931],[-42.1753,-21.1931]],[[-42.1676,-21.1971],[-42.1701,-21.1959],[-42.1657,-21.1922],[-42.1639,-21.1939],[-42.1674,-21.1967],[-42.1676,-21.1971]]]}},{"type":"Feature","properties":{"cod_tema":"ARL_PROPOSTA","cod_imovel":"RJ-3302304-DE0C3422C323468BA7BF084E717419A3","num_area":"15.152600000000000000000000000000","ind_status":"AT"},"geometry":{"type":"Polygon","coordinates":[[[-42.1349,-21.211],[-42.1376,-21.212],[-42.135,-21.2108],[-42.1349,-21.211]],[[-42.1337,-21.2117],[-42.1352,-21.2153],[-42.1406,-21.2141],[-42.1347,-21.2132],[-42.1337,-21.2117]]]}},{"type":"Feature","properties":{"cod_tema":"ARL_PROPOSTA","cod_imovel":"RJ-3302304-A728AF7173314262AB24467CC6422792","num_area":"2.2688000000000000000000000000000","ind_status":"AT"},"geometry":{"type":"Polygon","coordinates":[[[-42.0589,-21.2169],[-42.0619,-21.218],[-42.0588,-21.2168],[-42.0589,-21.2169]]]}},{"type":"Feature","properties":{"cod_tema":"ARL_PROPOSTA","cod_imovel":"RJ-3302304-AF485A807D0F4C5D955432296B4FDBEB","num_area":"26.315100000000000000000000000000","ind_status":"AT"},"geometry":{"type":"Polygon","coordinates":[[[-42.188,-21.2806],[-42.1977,-21.2778],[-42.1955,-21.2757],[-42.188,-21.2801],[-42.188,-21.2806]]]}},{"type":"Feature","properties":{"cod_tema":"ARL_PROPOSTA","cod_imovel":"RJ-3302304-F2C2B8ADE3774CFDB081E2B853F10A62","num_area":"3.9113000000000000000000000000000","ind_status":"AT"},"geometry":{"type":"Polygon","coordinates":[[[-42.1578,-21.188],[-42.1604,-21.1881],[-42.1588,-21.1859],[-42.1578,-21.1879],[-42.1578,-21.188]]]}},{"type":"Feature","properties":{"cod_tema":"ARL_PROPOSTA","cod_imovel":"RJ-3302304-4989E8520A1B4A50A7DB3BC80DF3E32F","num_area":"20.752900000000000000000000000000","ind_status":"AT"},"geometry":{"type":"Polygon","coordinates":[[[-42.0953,-21.1915],[-42.0943,-21.1935],[-42.096,-21.192],[-42.0953,-21.1915]],[[-42.1001,-21.1924],[-42.0991,-21.1889],[-42.0998,-21.1926],[-42.1001,-21.1924]],[[-42.0952,-21.1964],[-42.0973,-21.1963],[-42.0949,-21.1949],[-42.0952,-21.1964]]]}},{"type":"Feature","properties":{"cod_tema":"ARL_PROPOSTA","cod_imovel":"RJ-3302304-AFAB9BC63ACC44469D0D6CED7D4DF30A","num_area":"22.230500000000000000000000000000","ind_status":"PE"},"geometry":{"type":"Polygon","coordinates":[[[-42.1961,-21.3145],[-42.1981,-21.3117],[-42.196,-21.3145],[-42.1961,-21.3145]],[[-42.1945,-21.3143],[-42.1966,-21.3126],[-42.1947,-21.3139],[-42.1945,-21.3143]],[[-42.2138,-21.3073],[-42.2118,-21.305],[-42.2042,-21.3091],[-42.213,-21.3074],[-42.2138,-21.3073]],[[-42.2084,-21.3096],[-42.2035,-21.3094],[-42.2085,-21.3102],[-42.2084,-21.3096]]]}}]}