{"type":"FeatureCollection","features":[{"type":"Feature","properties":{"cod_tema":"ARL_PROPOSTA","cod_imovel":"RJ-3302601-C8295ECF470E4A5CAB21F685467D489F","num_area":"9.9276000000000000000000000000000","ind_status":"AT"},"geometry":{"type":"Polygon","coordinates":[[[-44.1527,-22.9551],[-44.1558,-22.9522],[-44.1496,-22.9553],[-44.1521,-22.9551],[-44.1527,-22.9551]]]}},{"type":"Feature","properties":{"cod_tema":"ARL_PROPOSTA","cod_imovel":"RJ-3302601-771C64FCD7B7445792BE2BC352C5DE43","num_area":"104.91600000000000000000000000000","ind_status":"AT"},"geometry":{"type":"Polygon","coordinates":[[[-44.1467,-22.9786],[-44.1482,-22.9857],[-44.168,-22.9713],[-44.158,-22.9747],[-44.1597,-22.9773],[-44.158,-22.9747],[-44.1505,-22.9773],[-44.1512,-22.9798],[-44.1505,-22.9773],[-44.1467,-22.9786]]]}},{"type":"Feature","properties":{"cod_tema":"ARL_PROPOSTA","cod_imovel":"RJ-3302601-4A4C651759A04630B0692FD4C8BC3BD1","num_area":"49.127500000000000000000000000000","ind_status":"AT"},"geometry":{"type":"Polygon","coordinates":[[[-44.1279,-22.9393],[-44.1359,-22.9447],[-44.1383,-22.9416],[-44.1362,-22.9449],[-44.1387,-22.9418],[-44.1289,-22.9354],[-44.1279,-22.9393]]]}},{"type":"Feature","properties":{"cod_tema":"ARL_PROPOSTA","cod_imovel":"RJ-3302601-EE27CAEE71C34B1E9ACF75DCD7F0A16F","num_area":"8.4184000000000000000000000000000","ind_status":"AT"},"geometry":{"type":"Polygon","coordinates":[[[-44.0996,-22.972],[-44.0946,-22.9707],[-44.0998,-22.9722],[-44.0996,-22.972]]]}},{"type":"Feature","properties":{"cod_tema":"ARL_PROPOSTA","cod_imovel":"RJ-3302601-691EDF0F40B54705A4264AD632FFE242","num_area":"2.6008000000000000000000000000000","ind_status":"AT"},"geometry":{"type":"Polygon","coordinates":[[[-44.0777,-22.9074],[-44.0755,-22.9046],[-44.0777,-22.9074],[-44.0777,-22.9074]]]}},{"type":"Feature","properties":{"cod_tema":"ARL_PROPOSTA","cod_imovel":"RJ-3302601-20D5FD1B041D4B1496DB87C995D2D083","num_area":"137.51730000000000000000000000000","ind_status":"AT"},"geometry":{"type":"Polygon","coordinates":[[[-44.1202,-22.9414],[-44.1147,-22.9414],[-44.1203,-22.9439],[-44.1202,-22.9414]],[[-44.0885,-22.9682],[-44.0983,-22.9752],[-44.1046,-22.9742],[-44.1042,-22.9663],[-44.1003,-22.9673],[-44.1022,-22.9635],[-44.097,-22.9633],[-44.0933,-22.9687],[-44.0937,-22.9657],[-44.0892,-22.9648],[-44.0885,-22.9682]]]}},{"type":"Feature","properties":{"cod_tema":"ARL_PROPOSTA","cod_imovel":"RJ-3302601-F1908BDCE86542309BA6726ACEF3F343","num_area":"5.5709000000000000000000000000000","ind_status":"AT"},"geometry":{"type":"Polygon","coordinates":[[[-43.9897,-22.9113],[-43.9937,-22.9145],[-43.9903,-22.9111],[-43.9897,-22.9113]]]}},{"type":"Feature","properties":{"cod_tema":"ARL_PROPOSTA","cod_imovel":"RJ-3302601-30CBBD6BF19B4C69A248A33EF74BE2D4","num_area":"0.9880000000000000000000000000000","ind_status":"AT"},"geometry":{"type":"Polygon","coordinates":[[[-44.1599,-23.016],[-44.1591,-23.0185],[-44.1599,-23.016],[-44.1599,-23.016]]]}},{"type":"Feature","properties":{"cod_tema":"ARL_PROPOSTA","cod_imovel":"RJ-3302601-1FDC4ECFBF9F4393AFEAA42238302C4F","num_area":"12.925500000000000000000000000000","ind_status":"AT"},"geometry":{"type":"Polygon","coordinates":[[[-44.0267,-22.9376],[-44.0306,-22.9359],[-44.0274,-22.9371],[-44.0267,-22.9376]]]}},{"type":"Feature","properties":{"cod_tema":"ARL_PROPOSTA","cod_imovel":"RJ-3302601-3A3310FA498A4654BE68BF5C8C34DC15","num_area":"8.2531000000000000000000000000000","ind_status":"AT"},"geometry":{"type":"Polygon","coordinates":[[[-44.0114,-22.8679],[-44.0151,-22.8701],[-44.0115,-22.8679],[-44.0114,-22.8679]]]}},{"type":"Feature","properties":{"cod_tema":"ARL_PROPOSTA","cod_imovel":"RJ-3302601-56F21BD5124243BC837A067EE86212F6","num_area":"7.8565000000000000000000000000000","ind_status":"AT"},"geometry":{"type":"Polygon","coordinates":[[[-43.9486,-22.9045],[-43.9469,-22.908],[-43.9488,-22.9045],[-43.9486,-22.9045]]]}},{"type":"Feature","properties":{"cod_tema":"ARL_PROPOSTA","cod_imovel":"RJ-3302601-612B552A4D094C299814748DA4EF5DF5","num_area":"2.3832000000000000000000000000000","ind_status":"AT"},"geometry":{"type":"Polygon","coordinates":[[[-43.9872,-22.9314],[-43.9855,-22.9329],[-43.9874,-22.9315],[-43.9872,-22.9314]]]}},{"type":"Feature","properties":{"cod_tema":"ARL_PROPOSTA","cod_imovel":"RJ-3302601-4FCA75186A944EC18AC97928905E049D","num_area":"6.9931000000000000000000000000000","ind_status":"AT"},"geometry":{"type":"Polygon","coordinates":[[[-44.1429,-23.0159],[-44.1407,-23.0202],[-44.1436,-23.0178],[-44.1429,-23.0159]]]}},{"type":"Feature","properties":{"cod_tema":"ARL_PROPOSTA","cod_imovel":"RJ-3302601-585DB84AD325464EA4179C238EB007BC","num_area":"46.689800000000000000000000000000","ind_status":"AT"},"geometry":{"type":"Polygon","coordinates":[[[-44.1521,-23.0058],[-44.1555,-23.0027],[-44.1517,-23.0013],[-44.1493,-23.0037],[-44.152,-23.0058],[-44.1492,-23.0038],[-44.1442,-23.0087],[-44.1474,-23.0111],[-44.1521,-23.0058],[-44.1521,-23.0058]]]}},{"type":"Feature","properties":{"cod_tema":"ARL_PROPOSTA","cod_imovel":"RJ-3302601-5D1D3AE8B9124D8CA0339692E4D5DE49","num_area":"7.6499000000000000000000000000000","ind_status":"AT"},"geometry":{"type":"Polygon","coordinates":[[[-44.0228,-22.8718],[-44.018,-22.8729],[-44.0229,-22.8719],[-44.0228,-22.8718]]]}},{"type":"Feature","properties":{"cod_tema":"ARL_PROPOSTA","cod_imovel":"RJ-3302601-7357856ED2C143949A28B221B50EF5AD","num_area":"2.8727000000000000000000000000000","ind_status":"AT"},"geometry":{"type":"Polygon","coordinates":[[[-43.9348,-22.9102],[-43.932,-22.9113],[-43.935,-22.9102],[-43.9348,-22.9102]]]}},{"type":"Feature","properties":{"cod_tema":"ARL_PROPOSTA","cod_imovel":"RJ-3302601-876F0FA3F25D491C9881871A9AD97123","num_area":"5.6175000000000000000000000000000","ind_status":"AT"},"geometry":{"type":"Polygon","coordinates":[[[-43.9722,-22.908],[-43.9682,-22.9079],[-43.9713,-22.9085],[-43.9722,-22.908]]]}},{"type":"Feature","properties":{"cod_tema":"ARL_AVERBADA","cod_imovel":"RJ-3302601-BD26911BE85C4E04ACE4AECAAA4776D7","num_area":"9.8772000000000000000000000000000","ind_status":"AT"},"geometry":{"type":"Polygon","coordinates":[[[-44.0934,-22.9813],[-44.0982,-22.9798],[-44.0921,-22.9792],[-44.0931,-22.9813],[-44.0934,-22.9813]]]}},{"type":"Feature","properties":{"cod_tema":"ARL_PROPOSTA","cod_imovel":"RJ-3302601-BC5C2C599E784D2A800D0E51F44ADDA0","num_area":"9.3316000000000000000000000000000","ind_status":"AT"},"geometry":{"type":"Polygon","coordinates":[[[-44.0455,-22.9697],[-44.0402,-22.9728],[-44.0458,-22.9702],[-44.0455,-22.9697]],[[-44.0418,-22.9731],[-44.0453,-22.9713],[-44.0418,-22.9731],[-44.0418,-22.9731]]]}},{"type":"Feature","properties":{"cod_tema":"ARL_PROPOSTA","cod_imovel":"RJ-3302601-CAB6E3C240314AEE96B619B7B822FCD1","num_area":"22.380900000000000000000000000000","ind_status":"AT"},"geometry":{"type":"Polygon","coordinates":[[[-44.1292,-22.9733],[-44.1368,-22.9684],[-44.1291,-22.9728],[-44.1292,-22.9733]]]}},{"type":"Feature","properties":{"cod_tema":"ARL_PROPOSTA","cod_imovel":"RJ-3302601-CF2A4B6DDEFA47F0840033E8C8CABAF4","num_area":"5.2130000000000000000000000000000","ind_status":"AT"},"geometry":{"type":"Polygon","coordinates":[[[-44.0252,-22.8994],[-44.0224,-22.8979],[-44.024,-22.8994],[-44.0252,-22.8994]]]}},{"type":"Feature","properties":{"cod_tema":"ARL_PROPOSTA","cod_imovel":"RJ-3302601-DFD247359DCA408E86CCB9030D4E126C","num_area":"48.416400000000000000000000000000","ind_status":"AT"},"geometry":{"type":"Polygon","coordinates":[[[-43.9986,-22.9151],[-44.0023,-22.9192],[-44.0063,-22.9188],[-44.0032,-22.915],[-44.0052,-22.9138],[-43.9966,-22.9109],[-43.9973,-22.9138],[-43.9986,-22.9151]]]}},{"type":"Feature","properties":{"cod_tema":"ARL_PROPOSTA","cod_imovel":"RJ-3302601-DF7D12DA35A042CF97D37871F43AF47D","num_area":"4.8536000000000000000000000000000","ind_status":"AT"},"geometry":{"type":"Polygon","coordinates":[[[-44.104,-22.9649],[-44.1052,-22.9666],[-44.1041,-22.9626],[-44.104,-22.9649]]]}},{"type":"Feature","properties":{"cod_tema":"ARL_PROPOSTA","cod_imovel":"RJ-3302601-EDA900E9B61F4D93A649ED87D0AAAE7C","num_area":"2.9056000000000000000000000000000","ind_status":"AT"},"geometry":{"type":"Polygon","coordinates":[[[-44.044,-22.9894],[-44.0436,-22.9867],[-44.0437,-22.9892],[-44.044,-22.9894]]]}},{"type":"Feature","properties":{"cod_tema":"ARL_PROPOSTA","cod_imovel":"RJ-3302601-FFD0A6A84B8B4F9EB87ABE40B7A40895","num_area":"9.3737000000000000000000000000000","ind_status":"AT"},"geometry":{"type":"Polygon","coordinates":[[[-44.0109,-22.9308],[-44.0046,-22.9317],[-44.0108,-22.9311],[-44.0109,-22.9308]]]}},{"type":"Feature","properties":{"cod_tema":"ARL_PROPOSTA","cod_imovel":"RJ-3302601-D07A9A45098040B2BE9426176FDB73BC","num_area":"5.0070000000000000000000000000000","ind_status":"AT"},"geometry":{"type":"Polygon","coordinates":[[[-44.0182,-22.9301],[-44.0224,-22.9265],[-44.018,-22.9298],[-44.0182,-22.9301]]]}},{"type":"Feature","properties":{"cod_tema":"ARL_PROPOSTA","cod_imovel":"RJ-3302601-D5D9B79EA60440F98A75FA96783C558C","num_area":"2.4291000000000000000000000000000","ind_status":"AT"},"geometry":{"type":"Polygon","coordinates":[[[-43.975,-22.9049],[-43.9749,-22.907],[-43.976,-22.905],[-43.975,-22.9049]]]}},{"type":"Feature","properties":{"cod_tema":"ARL_PROPOSTA","cod_imovel":"RJ-3302601-C581699D1D154E3587A6891B5857BD40","num_area":"4.9520000000000000000000000000000","ind_status":"AT"},"geometry":{"type":"Polygon","coordinates":[[[-43.9808,-22.8658],[-43.9842,-22.8684],[-43.9809,-22.8659],[-43.9808,-22.8658]]]}},{"type":"Feature","properties":{"cod_tema":"ARL_PROPOSTA","cod_imovel":"RJ-3302601-47FBF15D151244DDBC44DD78EB680D0D","num_area":"17.495100000000000000000000000000","ind_status":"AT"},"geometry":{"type":"Polygon","coordinates":[[[-43.9627,-22.9123],[-43.9654,-22.9114],[-43.963,-22.9107],[-43.9627,-22.9123]],[[-43.9658,-22.9117],[-43.9628,-22.9134],[-43.9733,-22.9145],[-43.9654,-22.9106],[-43.9658,-22.9117]]]}},{"type":"Feature","properties":{"cod_tema":"ARL_PROPOSTA","cod_imovel":"RJ-3300100-42359CD5EC6B47F3BF9597C9B8FDA75F","num_area":"22.732500000000000000000000000000","ind_status":"AT"},"geometry":{"type":"Polygon","coordinates":[[[-44.1664,-23.0148],[-44.1608,-23.011],[-44.1586,-23.0132],[-44.1652,-23.017],[-44.1664,-23.0148]]]}},{"type":"Feature","properties":{"cod_tema":"ARL_PROPOSTA","cod_imovel":"RJ-3302601-E2C2743A9EE244EC97D82415528CE2F8","num_area":"8.6332000000000000000000000000000","ind_status":"AT"},"geometry":{"type":"Polygon","coordinates":[[[-44.1516,-23.0076],[-44.1547,-23.001],[-44.1507,-23.0072],[-44.1516,-23.0076]]]}},{"type":"Feature","properties":{"cod_tema":"ARL_PROPOSTA","cod_imovel":"RJ-3302601-86971AB05D51454A9290836F5D4D52A2","num_area":"60.270500000000000000000000000000","ind_status":"AT"},"geometry":{"type":"Polygon","coordinates":[[[-44.1422,-22.9316],[-44.1417,-22.9339],[-44.1461,-22.9332],[-44.1471,-22.9396],[-44.1554,-22.9416],[-44.1467,-22.9325],[-44.1422,-22.9316]],[[-44.1554,-22.9417],[-44.1578,-22.9425],[-44.1549,-22.939],[-44.1554,-22.9416],[-44.1554,-22.9417]]]}},{"type":"Feature","properties":{"cod_tema":"ARL_PROPOSTA","cod_imovel":"RJ-3302601-7D83B9D5FC184D35ADC7D54171F755F5","num_area":"72.728400000000000000000000000000","ind_status":"AT"},"geometry":{"type":"Polygon","coordinates":[[[-44.0417,-22.8854],[-44.0355,-22.879],[-44.0262,-22.8873],[-44.0368,-22.8855],[-44.0374,-22.882],[-44.0369,-22.8855],[-44.0417,-22.8854]],[[-44.0261,-22.8875],[-44.0343,-22.8856],[-44.0262,-22.8874],[-44.0261,-22.8875]]]}},{"type":"Feature","properties":{"cod_tema":"ARL_AVERBADA","cod_imovel":"RJ-3302601-9651F45B89874654B66A68D9E4CBD75D","num_area":"8.2251000000000000000000000000000","ind_status":"AT"},"geometry":{"type":"Polygon","coordinates":[[[-44.0863,-22.9821],[-44.0795,-22.9814],[-44.0866,-22.9825],[-44.0863,-22.9821]]]}},{"type":"Feature","properties":{"cod_tema":"ARL_PROPOSTA","cod_imovel":"RJ-3302601-68EE503655FA4E44A4FE097D43767450","num_area":"22.438000000000000000000000000000","ind_status":"AT"},"geometry":{"type":"Polygon","coordinates":[[[-44.125,-23.0173],[-44.1255,-23.0123],[-44.1187,-23.018],[-44.1238,-23.0171],[-44.1237,-23.0142],[-44.125,-23.0173],[-44.125,-23.0173]]]}},{"type":"Feature","properties":{"cod_tema":"ARL_PROPOSTA","cod_imovel":"RJ-3302601-4CD1AB5244F043048E8A9E9F75D2D84E","num_area":"144.21480000000000000000000000000","ind_status":"PE"},"geometry":{"type":"Polygon","coordinates":[[[-43.9853,-22.9322],[-43.9814,-22.9246],[-43.9628,-22.9178],[-43.9614,-22.9232],[-43.9853,-22.9322]]]}},{"type":"Feature","properties":{"cod_tema":"ARL_PROPOSTA","cod_imovel":"RJ-3302601-4BF39724AA3C4806BFE87762A25E3B93","num_area":"17.797200000000000000000000000000","ind_status":"AT"},"geometry":{"type":"Polygon","coordinates":[[[-43.9753,-22.8757],[-43.9788,-22.8738],[-43.972,-22.874],[-43.9748,-22.8755],[-43.9753,-22.8757]]]}},{"type":"Feature","properties":{"cod_tema":"ARL_PROPOSTA","cod_imovel":"RJ-3302601-88F9F02FB3B6424D97F57A0691454312","num_area":"951.86370000000000000000000000000","ind_status":"AT"},"geometry":{"type":"Polygon","coordinates":[[[-44.0985,-22.8754],[-44.0866,-22.8877],[-44.0938,-22.8878],[-44.093,-22.8836],[-44.0955,-22.8829],[-44.092,-22.8823],[-44.0959,-22.8826],[-44.0949,-22.8788],[-44.103,-22.8796],[-44.1033,-22.8747],[-44.1066,-22.8758],[-44.1069,-22.8718],[-44.1035,-22.8711],[-44.1081,-22.871],[-44.1065,-22.8685],[-44.1081,-22.871],[-44.1121,-22.8703],[-44.1106,-22.8677],[-44.1146,-22.8697],[-44.1174,-22.8604],[-44.1133,-22.8598],[-44.1008,-22.8733],[-44.0985,-22.8754]],[[-44.1185,-22.8659],[-44.1174,-22.8604],[-44.1148,-22.8685],[-44.1181,-22.8689],[-44.1229,-22.8773],[-44.1197,-22.878],[-44.1227,-22.8832],[-44.141,-22.8853],[-44.134,-22.8895],[-44.1412,-22.89],[-44.1512,-22.8975],[-44.1462,-22.9],[-44.1505,-22.9032],[-44.1536,-22.9008],[-44.1506,-22.9032],[-44.1569,-22.9065],[-44.1559,-22.91],[-44.1614,-22.911],[-44.1648,-22.9077],[-44.1638,-22.9117],[-44.1684,-22.9111],[-44.1638,-22.9118],[-44.1719,-22.9154],[-44.161,-22.917],[-44.1679,-22.9289],[-44.1715,-22.9276],[-44.1596,-22.9331],[-44.1715,-22.9334],[-44.1769,-22.9299],[-44.1732,-22.9233],[-44.1742,-22.9161],[-44.1646,-22.9015],[-44.1557,-22.9021],[-44.1363,-22.8792],[-44.1194,-22.8686],[-44.1185,-22.8659]]]}},{"type":"Feature","properties":{"cod_tema":"ARL_PROPOSTA","cod_imovel":"RJ-3302601-91FD9E13093546979C8BDC15FAA6C30C","num_area":"166.01140000000000000000000000000","ind_status":"AT"},"geometry":{"type":"Polygon","coordinates":[[[-44.1723,-22.9329],[-44.1635,-22.9315],[-44.1518,-22.9353],[-44.1582,-22.9429],[-44.1592,-22.9395],[-44.1589,-22.9437],[-44.1628,-22.933],[-44.16,-22.9431],[-44.1681,-22.9353],[-44.1592,-22.9442],[-44.1607,-22.9459],[-44.1676,-22.939],[-44.1755,-22.9391],[-44.1724,-22.934],[-44.1723,-22.9329]]]}},{"type":"Feature","properties":{"cod_tema":"ARL_PROPOSTA","cod_imovel":"RJ-3302601-8DEDAA8CC67D4CEB86F5A5FE6DA78BE1","num_area":"2.3343000000000000000000000000000","ind_status":"AT"},"geometry":{"type":"Polygon","coordinates":[[[-44.0018,-22.8666],[-44.0025,-22.8691],[-44.0021,-22.8668],[-44.0018,-22.8666]]]}},{"type":"Feature","properties":{"cod_tema":"ARL_PROPOSTA","cod_imovel":"RJ-3302601-FBBDEA6415364B7798A873072B93924D","num_area":"492.87570000000000000000000000000","ind_status":"AT"},"geometry":{"type":"Polygon","coordinates":[[[-44.0477,-22.8808],[-44.0415,-22.8833],[-44.0429,-22.8984],[-44.0583,-22.8993],[-44.0565,-22.896],[-44.0512,-22.8976],[-44.0565,-22.8959],[-44.054,-22.894],[-44.0459,-22.896],[-44.054,-22.894],[-44.0522,-22.8925],[-44.0429,-22.8971],[-44.0522,-22.8924],[-44.0438,-22.8933],[-44.0501,-22.891],[-44.0427,-22.8895],[-44.0487,-22.8899],[-44.0423,-22.8834],[-44.0506,-22.8912],[-44.046,-22.8833],[-44.0502,-22.8872],[-44.0485,-22.8812],[-44.0515,-22.885],[-44.0526,-22.8831],[-44.0498,-22.8793],[-44.0526,-22.8831],[-44.0585,-22.8793],[-44.0502,-22.8873],[-44.0507,-22.8913],[-44.0559,-22.8949],[-44.0582,-22.8863],[-44.0554,-22.8933],[-44.0566,-22.8959],[-44.0604,-22.8912],[-44.0566,-22.896],[-44.0584,-22.8994],[-44.0625,-22.8946],[-44.0592,-22.9],[-44.068,-22.8982],[-44.0597,-22.8788],[-44.0514,-22.8777],[-44.0477,-22.8808]],[[-44.046,-22.9003],[-44.059,-22.9001],[-44.0462,-22.9002],[-44.046,-22.9003]]]}},{"type":"Feature","properties":{"cod_tema":"ARL_PROPOSTA","cod_imovel":"RJ-3302601-79955551ECB0485DB45868617AC2F457","num_area":"2.8787000000000000000000000000000","ind_status":"AT"},"geometry":{"type":"Polygon","coordinates":[[[-43.985,-22.8681],[-43.9891,-22.8689],[-43.9851,-22.8681],[-43.985,-22.8681]]]}},{"type":"Feature","properties":{"cod_tema":"ARL_PROPOSTA","cod_imovel":"RJ-3302601-083A5302A05A46A4BF69CDC35253D008","num_area":"2.3776000000000000000000000000000","ind_status":"AT"},"geometry":{"type":"Polygon","coordinates":[[[-43.9975,-22.8687],[-43.9954,-22.8702],[-43.9975,-22.8698],[-43.9975,-22.8687]]]}},{"type":"Feature","properties":{"cod_tema":"ARL_PROPOSTA","cod_imovel":"RJ-3302601-028BCC9DD1C2422DAA08B0EEF2F6C7FB","num_area":"4.2889000000000000000000000000000","ind_status":"AT"},"geometry":{"type":"Polygon","coordinates":[[[-43.9002,-22.9385],[-43.8959,-22.9377],[-43.9002,-22.9386],[-43.9002,-22.9385]]]}},{"type":"Feature","properties":{"cod_tema":"ARL_PROPOSTA","cod_imovel":"RJ-3302601-97BBDC5147614ED99E880A9EA9113AC9","num_area":"46.991600000000000000000000000000","ind_status":"AT"},"geometry":{"type":"Polygon","coordinates":[[[-44.1394,-23.0077],[-44.1441,-23.0086],[-44.1387,-23.0052],[-44.1437,-23.0081],[-44.1411,-23.0035],[-44.1441,-23.0086],[-44.1468,-23.0058],[-44.1412,-23.0026],[-44.1379,-23.0062],[-44.1394,-23.0077]]]}},{"type":"Feature","properties":{"cod_tema":"ARL_PROPOSTA","cod_imovel":"RJ-3302601-CBB9DF2D46CC41C6A18640C4199261CD","num_area":"11.076200000000000000000000000000","ind_status":"AT"},"geometry":{"type":"Polygon","coordinates":[[[-44.0221,-22.9416],[-44.0245,-22.9415],[-44.0179,-22.9354],[-44.0222,-22.9412],[-44.0221,-22.9416]]]}},{"type":"Feature","properties":{"cod_tema":"ARL_PROPOSTA","cod_imovel":"RJ-3302601-E5C40CA5493C4785B73FAEE09623DBA1","num_area":"15.755900000000000000000000000000","ind_status":"AT"},"geometry":{"type":"Polygon","coordinates":[[[-44.0207,-22.9475],[-44.0209,-22.9504],[-44.0257,-22.9458],[-44.021,-22.9474],[-44.0207,-22.9475]]]}},{"type":"Feature","properties":{"cod_tema":"ARL_PROPOSTA","cod_imovel":"RJ-3302601-6113BCF3124A4DD0A373ABDB9C73CFDB","num_area":"1.9966000000000000000000000000000","ind_status":"PE"},"geometry":{"type":"Polygon","coordinates":[[[-44.0813,-22.9455],[-44.0782,-22.9439],[-44.0812,-22.9456],[-44.0813,-22.9455]]]}},{"type":"Feature","properties":{"cod_tema":"ARL_PROPOSTA","cod_imovel":"RJ-3302601-6AA4669ED51845B485F74D5B7E9FCB8C","num_area":"1.8017000000000000000000000000000","ind_status":"AT"},"geometry":{"type":"Polygon","coordinates":[[[-43.9914,-22.8706],[-43.9887,-22.8694],[-43.9913,-22.8707],[-43.9914,-22.8706]]]}},{"type":"Feature","properties":{"cod_tema":"ARL_PROPOSTA","cod_imovel":"RJ-3302601-673080489B5E48C3B3BD305E47667772","num_area":"279.41560000000000000000000000000","ind_status":"AT"},"geometry":{"type":"Polygon","coordinates":[[[-44.0429,-22.8984],[-44.0383,-22.895],[-44.0358,-22.8979],[-44.04,-22.9007],[-44.0356,-22.8977],[-44.0277,-22.9065],[-44.0328,-22.9056],[-44.0273,-22.9072],[-44.0384,-22.9089],[-44.0345,-22.9044],[-44.0383,-22.9084],[-44.0376,-22.9038],[-44.0385,-22.9089],[-44.0436,-22.9103],[-44.0417,-22.9041],[-44.044,-22.9085],[-44.0456,-22.9047],[-44.0413,-22.9011],[-44.0455,-22.9071],[-44.0469,-22.9017],[-44.0466,-22.9068],[-44.0493,-22.9047],[-44.0437,-22.9104],[-44.0531,-22.9103],[-44.0465,-22.9118],[-44.0509,-22.9141],[-44.0539,-22.9083],[-44.0459,-22.9002],[-44.0429,-22.8984]]]}},{"type":"Feature","properties":{"cod_tema":"ARL_PROPOSTA","cod_imovel":"RJ-3302601-61D7CA96232B43509FE169040D5FEF2B","num_area":"333.02980000000000000000000000000","ind_status":"AT"},"geometry":{"type":"Polygon","coordinates":[[[-43.9579,-22.8973],[-43.9738,-22.9067],[-43.9591,-22.8976],[-43.9579,-22.8973]],[[-43.974,-22.9066],[-43.9786,-22.9038],[-43.9695,-22.9035],[-43.974,-22.9066],[-43.974,-22.9066]],[[-43.9869,-22.8805],[-43.9706,-22.8782],[-43.9671,-22.885],[-43.9585,-22.8872],[-43.9603,-22.8942],[-43.9632,-22.8948],[-43.9589,-22.8919],[-43.962,-22.8919],[-43.9596,-22.8862],[-43.965,-22.8945],[-43.976,-22.8908],[-43.9682,-22.8835],[-43.9696,-22.8801],[-43.9731,-22.8795],[-43.9788,-22.8845],[-43.985,-22.883],[-43.9775,-22.8803],[-43.9852,-22.883],[-43.9869,-22.8805],[-43.9869,-22.8805]],[[-43.9669,-22.8885],[-43.971,-22.8926],[-43.9669,-22.8884],[-43.9669,-22.8885]],[[-43.9921,-22.8798],[-43.9888,-22.8828],[-43.9927,-22.8837],[-43.9975,-22.8776],[-44.0044,-22.88],[-43.9987,-22.8759],[-43.9921,-22.8798],[-43.9921,-22.8798]],[[-43.9878,-22.8807],[-43.9868,-22.8829],[-43.9878,-22.8807],[-43.9878,-22.8807]],[[-43.9602,-22.8942],[-43.9583,-22.8954],[-43.9621,-22.8953],[-43.9602,-22.8943],[-43.9602,-22.8942]]]}},{"type":"Feature","properties":{"cod_tema":"ARL_PROPOSTA","cod_imovel":"RJ-3302601-57DE43066AA64794978D4838A9760259","num_area":"5.1965000000000000000000000000000","ind_status":"AT"},"geometry":{"type":"Polygon","coordinates":[[[-44.1613,-22.9959],[-44.1552,-22.9946],[-44.161,-22.9965],[-44.1613,-22.9959]]]}},{"type":"Feature","properties":{"cod_tema":"ARL_PROPOSTA","cod_imovel":"RJ-3302601-8DA1EA7EB2974E54B4325BEEF9D0CE60","num_area":"36.810400000000000000000000000000","ind_status":"AT"},"geometry":{"type":"Polygon","coordinates":[[[-44.1216,-23.0042],[-44.1221,-22.9988],[-44.1142,-23.0022],[-44.1185,-23.0068],[-44.1216,-23.0042],[-44.1216,-23.0042]]]}},{"type":"Feature","properties":{"cod_tema":"ARL_PROPOSTA","cod_imovel":"RJ-3302601-DE98C943A4CE42339585021B2D561C48","num_area":"7.1411000000000000000000000000000","ind_status":"AT"},"geometry":{"type":"Polygon","coordinates":[[[-43.9944,-22.9118],[-43.9917,-22.909],[-43.9944,-22.9118],[-43.9944,-22.9118]]]}},{"type":"Feature","properties":{"cod_tema":"ARL_PROPOSTA","cod_imovel":"RJ-3302601-B48E488D0A6E4A55B7FCBDB1F8179879","num_area":"2.2566000000000000000000000000000","ind_status":"AT"},"geometry":{"type":"Polygon","coordinates":[[[-43.9994,-22.916],[-43.9973,-22.9154],[-43.9995,-22.9163],[-43.9994,-22.916]]]}},{"type":"Feature","properties":{"cod_tema":"ARL_PROPOSTA","cod_imovel":"RJ-3302601-E43661CF34EA4050A3ACC6FE4C913A2E","num_area":"7.8913000000000000000000000000000","ind_status":"AT"},"geometry":{"type":"Polygon","coordinates":[[[-43.9791,-22.9198],[-43.9835,-22.917],[-43.9791,-22.9198],[-43.9791,-22.9198]]]}},{"type":"Feature","properties":{"cod_tema":"ARL_PROPOSTA","cod_imovel":"RJ-3302601-FF67076DCCA64098BD888B0F0007126E","num_area":"138.51430000000000000000000000000","ind_status":"AT"},"geometry":{"type":"Polygon","coordinates":[[[-44.1563,-22.9813],[-44.1671,-22.9854],[-44.1765,-22.9798],[-44.1675,-22.9767],[-44.1673,-22.9808],[-44.1724,-22.9836],[-44.1669,-22.9798],[-44.1626,-22.9823],[-44.1677,-22.9785],[-44.1628,-22.9757],[-44.1563,-22.9813]]]}},{"type":"Feature","properties":{"cod_tema":"ARL_PROPOSTA","cod_imovel":"RJ-3302601-6E69F17CA1A84019917717DD4B22F1D8","num_area":"2.1619000000000000000000000000000","ind_status":"AT"},"geometry":{"type":"Polygon","coordinates":[[[-44.05,-22.9286],[-44.0521,-22.9282],[-44.0501,-22.9271],[-44.05,-22.9286]]]}},{"type":"Feature","properties":{"cod_tema":"ARL_PROPOSTA","cod_imovel":"RJ-3302601-5821A606C04F4A05B124A1FB66038842","num_area":"42.193000000000000000000000000000","ind_status":"AT"},"geometry":{"type":"Polygon","coordinates":[[[-44.0157,-22.9106],[-44.0197,-22.9104],[-44.0193,-22.9062],[-44.0059,-22.9123],[-44.0146,-22.9111],[-44.0157,-22.9106]]]}},{"type":"Feature","properties":{"cod_tema":"ARL_PROPOSTA","cod_imovel":"RJ-3302601-12FB9ACA309643D483CE4C20C352A52C","num_area":"149.90600000000000000000000000000","ind_status":"AT"},"geometry":{"type":"Polygon","coordinates":[[[-44.1326,-22.9475],[-44.1349,-22.9369],[-44.1437,-22.9313],[-44.1375,-22.9275],[-44.1354,-22.93],[-44.1402,-22.9334],[-44.1324,-22.9349],[-44.1335,-22.9371],[-44.1323,-22.9349],[-44.1303,-22.9474],[-44.1325,-22.9474],[-44.1326,-22.9475]],[[-44.1374,-22.9274],[-44.1352,-22.9264],[-44.1374,-22.9275],[-44.1374,-22.9274]],[[-44.1351,-22.9264],[-44.1314,-22.926],[-44.1353,-22.93],[-44.1351,-22.9264],[-44.1351,-22.9264]],[[-44.1313,-22.926],[-44.114,-22.9191],[-44.1134,-22.9215],[-44.1327,-22.9289],[-44.1313,-22.926],[-44.1313,-22.926]],[[-44.1139,-22.9199],[-44.1096,-22.92],[-44.1139,-22.92],[-44.1139,-22.9199]]]}},{"type":"Feature","properties":{"cod_tema":"ARL_PROPOSTA","cod_imovel":"RJ-3302601-B3263FC5CCAF4E42AEAD314676AB54B9","num_area":"7.8179000000000000000000000000000","ind_status":"AT"},"geometry":{"type":"Polygon","coordinates":[[[-44.0138,-22.9299],[-44.0144,-22.9278],[-44.0108,-22.9288],[-44.0138,-22.9299]]]}},{"type":"Feature","properties":{"cod_tema":"ARL_PROPOSTA","cod_imovel":"RJ-3302601-B6AF420BC41F409FB2952244F51006A0","num_area":"2.5906000000000000000000000000000","ind_status":"AT"},"geometry":{"type":"Polygon","coordinates":[[[-44.0315,-22.9158],[-44.0292,-22.9165],[-44.0314,-22.9158],[-44.0315,-22.9158]],[[-44.0322,-22.9155],[-44.0293,-22.9167],[-44.0315,-22.9157],[-44.0322,-22.9155]]]}},{"type":"Feature","properties":{"cod_tema":"ARL_PROPOSTA","cod_imovel":"RJ-3302601-75B8753E244E42CBB290D6CF1F57CA2F","num_area":"9.2696000000000000000000000000000","ind_status":"AT"},"geometry":{"type":"Polygon","coordinates":[[[-43.9813,-22.8738],[-43.9858,-22.8756],[-43.9815,-22.8735],[-43.9813,-22.8738]]]}},{"type":"Feature","properties":{"cod_tema":"ARL_PROPOSTA","cod_imovel":"RJ-3302601-815F15C49E15418ABB39D6FC2F1B076F","num_area":"67.997300000000000000000000000000","ind_status":"AT"},"geometry":{"type":"Polygon","coordinates":[[[-44.1481,-22.9856],[-44.1451,-22.9776],[-44.1427,-22.9811],[-44.1446,-22.9776],[-44.138,-22.9775],[-44.1397,-22.9847],[-44.1481,-22.9856]],[[-44.147,-22.9804],[-44.1451,-22.9776],[-44.147,-22.9804],[-44.147,-22.9804]]]}},{"type":"Feature","properties":{"cod_tema":"ARL_PROPOSTA","cod_imovel":"RJ-3302601-0E912FE6F12A4B7BBA4DD29C678D3076","num_area":"6.4326000000000000000000000000000","ind_status":"AT"},"geometry":{"type":"Polygon","coordinates":[[[-44.0461,-22.9124],[-44.0437,-22.9127],[-44.046,-22.9125],[-44.0461,-22.9124]]]}},{"type":"Feature","properties":{"cod_tema":"ARL_PROPOSTA","cod_imovel":"RJ-3302601-2BD2F98B70C14BFB811943F707299CE0","num_area":"14.837200000000000000000000000000","ind_status":"AT"},"geometry":{"type":"Polygon","coordinates":[[[-44.0483,-23.0047],[-44.0486,-23.0014],[-44.0459,-23.005],[-44.0531,-23.0069],[-44.0483,-23.0047],[-44.0483,-23.0047]]]}},{"type":"Feature","properties":{"cod_tema":"ARL_AVERBADA","cod_imovel":"RJ-3302601-2BD2F98B70C14BFB811943F707299CE0","num_area":"20.970000000000000000000000000000","ind_status":"AT"},"geometry":{"type":"Polygon","coordinates":[[[-44.0326,-23.0076],[-44.0301,-23.0074],[-44.0327,-23.0077],[-44.0326,-23.0076]],[[-44.0319,-23.0011],[-44.04,-23.0082],[-44.0319,-23.0008],[-44.0319,-23.0011]]]}},{"type":"Feature","properties":{"cod_tema":"ARL_PROPOSTA","cod_imovel":"RJ-3302601-59B5E16BAF984653B96F2A4BD7C85FA6","num_area":"7.3327000000000000000000000000000","ind_status":"AT"},"geometry":{"type":"Polygon","coordinates":[[[-44.109,-23.0027],[-44.1106,-22.9995],[-44.1078,-23.0007],[-44.109,-23.0027]]]}},{"type":"Feature","properties":{"cod_tema":"ARL_PROPOSTA","cod_imovel":"RJ-3302601-59D0A78656714872889C68F5426D4696","num_area":"1.4476000000000000000000000000000","ind_status":"AT"},"geometry":{"type":"Polygon","coordinates":[[[-43.999,-22.9228],[-43.9986,-22.9208],[-43.9991,-22.9231],[-43.999,-22.9228]]]}},{"type":"Feature","properties":{"cod_tema":"ARL_PROPOSTA","cod_imovel":"RJ-3302601-552186C802DC4AA291D988A7DABD1806","num_area":"2.0070000000000000000000000000000","ind_status":"AT"},"geometry":{"type":"Polygon","coordinates":[[[-44.1424,-22.9515],[-44.1456,-22.954],[-44.1424,-22.9515],[-44.1424,-22.9515]]]}},{"type":"Feature","properties":{"cod_tema":"ARL_PROPOSTA","cod_imovel":"RJ-3302601-9B233A3A31B64E99AE53400C4750E20D","num_area":"6.2519000000000000000000000000000","ind_status":"AT"},"geometry":{"type":"Polygon","coordinates":[[[-44.1093,-23.0047],[-44.1059,-23.0027],[-44.1104,-23.0054],[-44.1093,-23.0047]]]}},{"type":"Feature","properties":{"cod_tema":"ARL_PROPOSTA","cod_imovel":"RJ-3302601-BC36386D255B4599BF6063845AED26A8","num_area":"1.0060000000000000000000000000000","ind_status":"AT"},"geometry":{"type":"Polygon","coordinates":[[[-44.0238,-22.9461],[-44.0256,-22.9446],[-44.0233,-22.946],[-44.0238,-22.9461]]]}},{"type":"Feature","properties":{"cod_tema":"ARL_PROPOSTA","cod_imovel":"RJ-3302601-DAED4922DBCF4E8198087FFF971E4A30","num_area":"12.231300000000000000000000000000","ind_status":"AT"},"geometry":{"type":"Polygon","coordinates":[[[-44.0165,-22.8657],[-44.0129,-22.8651],[-44.0156,-22.8687],[-44.0174,-22.8671],[-44.0165,-22.8657]]]}},{"type":"Feature","properties":{"cod_tema":"ARL_PROPOSTA","cod_imovel":"RJ-3302601-816D4514665049259D32CC5BADEF3E32","num_area":"4.7438000000000000000000000000000","ind_status":"AT"},"geometry":{"type":"Polygon","coordinates":[[[-44.0168,-22.8704],[-44.0145,-22.8712],[-44.0172,-22.8706],[-44.0168,-22.8704]]]}},{"type":"Feature","properties":{"cod_tema":"ARL_PROPOSTA","cod_imovel":"RJ-3302601-D162623F5A8D459B9B29A758734609AC","num_area":"208.02500000000000000000000000000","ind_status":"AT"},"geometry":{"type":"Polygon","coordinates":[[[-43.9988,-22.9244],[-44.0052,-22.9255],[-44.0052,-22.9164],[-43.9885,-22.9163],[-43.9846,-22.9217],[-43.9918,-22.929],[-43.9988,-22.9244]]]}},{"type":"Feature","properties":{"cod_tema":"ARL_PROPOSTA","cod_imovel":"RJ-3302601-FA6EB8D1BB254B249E6CDBFDBF852626","num_area":"4.0426000000000000000000000000000","ind_status":"AT"},"geometry":{"type":"Polygon","coordinates":[[[-43.9167,-22.907],[-43.9136,-22.9107],[-43.9164,-22.9077],[-43.9167,-22.907]]]}},{"type":"Feature","properties":{"cod_tema":"ARL_PROPOSTA","cod_imovel":"RJ-3302601-40275D4D4B5B492EB8126482153EA3D9","num_area":"2.8330000000000000000000000000000","ind_status":"AT"},"geometry":{"type":"Polygon","coordinates":[[[-43.9069,-22.9157],[-43.9052,-22.9178],[-43.9061,-22.9159],[-43.9069,-22.9157]]]}},{"type":"Feature","properties":{"cod_tema":"ARL_PROPOSTA","cod_imovel":"RJ-3302601-08A151E0D6DC432FB927AEF214685A87","num_area":"2.9217000000000000000000000000000","ind_status":"AT"},"geometry":{"type":"Polygon","coordinates":[[[-43.9128,-22.9188],[-43.9148,-22.9201],[-43.9128,-22.9188],[-43.9128,-22.9188]]]}},{"type":"Feature","properties":{"cod_tema":"ARL_PROPOSTA","cod_imovel":"RJ-3302601-DCAA26EB95A9461C91C7E90F9DD69323","num_area":"8.8589000000000000000000000000000","ind_status":"AT"},"geometry":{"type":"Polygon","coordinates":[[[-44.0227,-22.9367],[-44.0177,-22.9339],[-44.0181,-22.9371],[-44.0208,-22.9368],[-44.0227,-22.9367]]]}},{"type":"Feature","properties":{"cod_tema":"ARL_PROPOSTA","cod_imovel":"RJ-3302601-DE86C351A0EA45FE977A3439D441F945","num_area":"3.3266000000000000000000000000000","ind_status":"AT"},"geometry":{"type":"Polygon","coordinates":[[[-44.156,-23.0236],[-44.1561,-23.0263],[-44.1567,-23.024],[-44.156,-23.0236]]]}},{"type":"Feature","properties":{"cod_tema":"ARL_PROPOSTA","cod_imovel":"RJ-3302601-BD748081A4DD4348B2B5A139B1338752","num_area":"4.5517000000000000000000000000000","ind_status":"AT"},"geometry":{"type":"Polygon","coordinates":[[[-44.0266,-22.9325],[-44.0254,-22.9298],[-44.026,-22.933],[-44.0329,-22.93],[-44.0284,-22.9316],[-44.0266,-22.9325]],[[-44.0327,-22.9299],[-44.0279,-22.9288],[-44.0326,-22.93],[-44.0327,-22.9299]]]}},{"type":"Feature","properties":{"cod_tema":"ARL_PROPOSTA","cod_imovel":"RJ-3302601-47A7DC352AF5416A99D569D3E30C991A","num_area":"0.4250000000000000000000000000000","ind_status":"PE"},"geometry":{"type":"Polygon","coordinates":[[[-44.0802,-22.9395],[-44.0803,-22.9416],[-44.0802,-22.9395],[-44.0802,-22.9395]]]}},{"type":"Feature","properties":{"cod_tema":"ARL_PROPOSTA","cod_imovel":"RJ-3302601-846F3AEA6C8A4BB1B17D28E1CE871BA7","num_area":"5.8982000000000000000000000000000","ind_status":"AT"},"geometry":{"type":"Polygon","coordinates":[[[-43.9979,-22.8683],[-43.9939,-22.8699],[-43.9983,-22.8684],[-43.9979,-22.8683]]]}},{"type":"Feature","properties":{"cod_tema":"ARL_PROPOSTA","cod_imovel":"RJ-3302601-C64F1FE9C6BE4EFB9632B1D18025EB3E","num_area":"4.2725000000000000000000000000000","ind_status":"AT"},"geometry":{"type":"Polygon","coordinates":[[[-43.9808,-22.8763],[-43.9768,-22.8757],[-43.9805,-22.8761],[-43.9808,-22.8763]]]}},{"type":"Feature","properties":{"cod_tema":"ARL_PROPOSTA","cod_imovel":"RJ-3302601-7F7F6D2C6DE247738A9DD567D8244FF0","num_area":"2.9252000000000000000000000000000","ind_status":"AT"},"geometry":{"type":"Polygon","coordinates":[[[-43.9741,-22.916],[-43.9759,-22.9177],[-43.9745,-22.916],[-43.9741,-22.916]]]}},{"type":"Feature","properties":{"cod_tema":"ARL_PROPOSTA","cod_imovel":"RJ-3302601-836C548EAED04352B870ACE34B4E615D","num_area":"9.0730000000000000000000000000000","ind_status":"AT"},"geometry":{"type":"Polygon","coordinates":[[[-43.977,-22.903],[-43.9753,-22.9058],[-43.9781,-22.9029],[-43.977,-22.903]]]}},{"type":"Feature","properties":{"cod_tema":"ARL_APROVADA_NAO_AVERBADA","cod_imovel":"RJ-3302601-7181BC0C12A84ED184B3805B2B868B82","num_area":"5.8959000000000000000000000000000","ind_status":"AT"},"geometry":{"type":"Polygon","coordinates":[[[-44.0511,-22.9369],[-44.0477,-22.937],[-44.0511,-22.9383],[-44.0511,-22.9369]]]}},{"type":"Feature","properties":{"cod_tema":"ARL_PROPOSTA","cod_imovel":"RJ-3302601-214A83A42F294C849CE090BA8E03618D","num_area":"10.250300000000000000000000000000","ind_status":"AT"},"geometry":{"type":"Polygon","coordinates":[[[-43.9881,-22.8737],[-43.9907,-22.8743],[-43.9895,-22.8719],[-43.9875,-22.8735],[-43.9881,-22.8737]],[[-43.9986,-22.8769],[-43.9975,-22.875],[-43.9985,-22.8771],[-43.9986,-22.8769]],[[-43.9922,-22.8708],[-43.9954,-22.8729],[-43.9922,-22.8709],[-43.9922,-22.8708]]]}},{"type":"Feature","properties":{"cod_tema":"ARL_PROPOSTA","cod_imovel":"RJ-3302601-7FF4EEBD72C4417DBD6CD7226DC01C37","num_area":"7.6630000000000000000000000000000","ind_status":"AT"},"geometry":{"type":"Polygon","coordinates":[[[-43.9105,-22.9063],[-43.9128,-22.9089],[-43.9116,-22.9066],[-43.9105,-22.9063]]]}},{"type":"Feature","properties":{"cod_tema":"ARL_PROPOSTA","cod_imovel":"RJ-3302601-380B7BB6BFE64D14B9CE41114F7B433F","num_area":"2.5687000000000000000000000000000","ind_status":"AT"},"geometry":{"type":"Polygon","coordinates":[[[-43.9307,-22.9246],[-43.9278,-22.9232],[-43.9306,-22.9252],[-43.9307,-22.9246]]]}},{"type":"Feature","properties":{"cod_tema":"ARL_PROPOSTA","cod_imovel":"RJ-3302601-049D5497C7D941E4ACE376AF3A1967BB","num_area":"4.3266000000000000000000000000000","ind_status":"AT"},"geometry":{"type":"Polygon","coordinates":[[[-43.9811,-22.865],[-43.9817,-22.8621],[-43.9807,-22.8655],[-43.9811,-22.865]]]}},{"type":"Feature","properties":{"cod_tema":"ARL_PROPOSTA","cod_imovel":"RJ-3302601-3580D5019A79419CB3BD83EA19A3CECC","num_area":"4.0201000000000000000000000000000","ind_status":"AT"},"geometry":{"type":"Polygon","coordinates":[[[-44.152,-23.0058],[-44.1561,-23.0028],[-44.1542,-23.0045],[-44.152,-23.0058]]]}},{"type":"Feature","properties":{"cod_tema":"ARL_PROPOSTA","cod_imovel":"RJ-3302601-9D1116CEC67847CEB28444C4248EE171","num_area":"5.3839000000000000000000000000000","ind_status":"AT"},"geometry":{"type":"Polygon","coordinates":[[[-44.1075,-22.9648],[-44.1096,-22.9633],[-44.1064,-22.9647],[-44.1075,-22.9648]]]}},{"type":"Feature","properties":{"cod_tema":"ARL_PROPOSTA","cod_imovel":"RJ-3302601-30C5AE42E8974B659EAFC2959C25B48D","num_area":"5.8639000000000000000000000000000","ind_status":"AT"},"geometry":{"type":"Polygon","coordinates":[[[-44.1118,-22.9645],[-44.115,-22.9646],[-44.1107,-22.9645],[-44.1118,-22.9645]]]}},{"type":"Feature","properties":{"cod_tema":"ARL_PROPOSTA","cod_imovel":"RJ-3302601-C111BCBE015A45C49B35032C22A57BC7","num_area":"4.4853000000000000000000000000000","ind_status":"AT"},"geometry":{"type":"Polygon","coordinates":[[[-44.0753,-22.9047],[-44.0744,-22.9074],[-44.0752,-22.9048],[-44.0753,-22.9047]]]}},{"type":"Feature","properties":{"cod_tema":"ARL_PROPOSTA","cod_imovel":"RJ-3302601-EA5E3B9C1FCE493CBB4E0664C6504B43","num_area":"5.6861000000000000000000000000000","ind_status":"AT"},"geometry":{"type":"Polygon","coordinates":[[[-44.0167,-22.9053],[-44.0123,-22.9044],[-44.016,-22.9059],[-44.0167,-22.9053]]]}},{"type":"Feature","properties":{"cod_tema":"ARL_PROPOSTA","cod_imovel":"RJ-3302601-5D11D85305774B45B15AB6708450B51A","num_area":"47.042400000000000000000000000000","ind_status":"AT"},"geometry":{"type":"Polygon","coordinates":[[[-44.1459,-23.007],[-44.1519,-23.0011],[-44.139,-23.0038],[-44.1459,-23.007]]]}},{"type":"Feature","properties":{"cod_tema":"ARL_PROPOSTA","cod_imovel":"RJ-3302601-EEB119FAF63D435680722B8769D18D07","num_area":"6.2542000000000000000000000000000","ind_status":"AT"},"geometry":{"type":"Polygon","coordinates":[[[-44.1536,-23.0129],[-44.155,-23.0154],[-44.1542,-23.0131],[-44.1536,-23.0129]]]}},{"type":"Feature","properties":{"cod_tema":"ARL_PROPOSTA","cod_imovel":"RJ-3302601-DE31FE887858498F8D9F6B50C0437837","num_area":"7.5715000000000000000000000000000","ind_status":"AT"},"geometry":{"type":"Polygon","coordinates":[[[-44.0287,-22.949],[-44.0316,-22.9464],[-44.0268,-22.9471],[-44.0287,-22.949]]]}},{"type":"Feature","properties":{"cod_tema":"ARL_PROPOSTA","cod_imovel":"RJ-3302601-4F4F1B30FE1D48648C4B0A494604769B","num_area":"5.0320000000000000000000000000000","ind_status":"AT"},"geometry":{"type":"Polygon","coordinates":[[[-44.1091,-22.9586],[-44.1091,-22.9616],[-44.1106,-22.9592],[-44.1091,-22.9586]]]}},{"type":"Feature","properties":{"cod_tema":"ARL_PROPOSTA","cod_imovel":"RJ-3302601-1B4B59C7E66F4673ACF5C5D1641EA17E","num_area":"3.6749000000000000000000000000000","ind_status":"AT"},"geometry":{"type":"Polygon","coordinates":[[[-44.0146,-22.9409],[-44.0198,-22.9407],[-44.0137,-22.9409],[-44.0146,-22.9409]]]}},{"type":"Feature","properties":{"cod_tema":"ARL_APROVADA_NAO_AVERBADA","cod_imovel":"RJ-3302601-2E5AD1CFAB7C4024BCFD8688681F7D4B","num_area":"21.393000000000000000000000000000","ind_status":"AT"},"geometry":{"type":"Polygon","coordinates":[[[-43.9212,-22.9128],[-43.9149,-22.9038],[-43.92,-22.9131],[-43.9212,-22.9128]],[[-43.9198,-22.9096],[-43.9195,-22.9124],[-43.9198,-22.9096],[-43.9198,-22.9096]]]}},{"type":"Feature","properties":{"cod_tema":"ARL_PROPOSTA","cod_imovel":"RJ-3302601-FACDFA20639147BEA1FD7BEBE703549F","num_area":"3.0974000000000000000000000000000","ind_status":"AT"},"geometry":{"type":"Polygon","coordinates":[[[-43.9857,-22.9066],[-43.9861,-22.9033],[-43.9849,-22.9066],[-43.9857,-22.9066]]]}},{"type":"Feature","properties":{"cod_tema":"ARL_PROPOSTA","cod_imovel":"RJ-3302601-35BF801F41C64F29A5E4B91418FCB79F","num_area":"17.626800000000000000000000000000","ind_status":"AT"},"geometry":{"type":"Polygon","coordinates":[[[-44.1068,-22.9739],[-44.1168,-22.9752],[-44.1069,-22.9725],[-44.1068,-22.9739]]]}},{"type":"Feature","properties":{"cod_tema":"ARL_PROPOSTA","cod_imovel":"RJ-3302601-45626448C8014443B219FE8302166717","num_area":"2.3039000000000000000000000000000","ind_status":"AT"},"geometry":{"type":"Polygon","coordinates":[[[-43.9977,-22.9211],[-43.9994,-22.92],[-43.9975,-22.9212],[-43.9977,-22.9211]]]}},{"type":"Feature","properties":{"cod_tema":"ARL_PROPOSTA","cod_imovel":"RJ-3302601-067E2A887E0F4D84928E3B17F1F9225C","num_area":"3.6711000000000000000000000000000","ind_status":"AT"},"geometry":{"type":"Polygon","coordinates":[[[-43.9472,-22.9041],[-43.9445,-22.9056],[-43.9472,-22.9041],[-43.9472,-22.9041]]]}},{"type":"Feature","properties":{"cod_tema":"ARL_PROPOSTA","cod_imovel":"RJ-3302601-8B453C617D6A49158D475778CD50B654","num_area":"1.0953000000000000000000000000000","ind_status":"AT"},"geometry":{"type":"Polygon","coordinates":[[[-44.1251,-22.96],[-44.1228,-22.9613],[-44.1251,-22.9601],[-44.1251,-22.96]]]}},{"type":"Feature","properties":{"cod_tema":"ARL_PROPOSTA","cod_imovel":"RJ-3302601-9BBED9551052497AB75E104C4D8034D4","num_area":"8.8959000000000000000000000000000","ind_status":"AT"},"geometry":{"type":"Polygon","coordinates":[[[-44.0493,-22.9812],[-44.0515,-22.9767],[-44.0492,-22.9811],[-44.0493,-22.9812]]]}},{"type":"Feature","properties":{"cod_tema":"ARL_PROPOSTA","cod_imovel":"RJ-3302601-261C73C6D9C34BB7898B524E92FFE264","num_area":"12.088600000000000000000000000000","ind_status":"AT"},"geometry":{"type":"Polygon","coordinates":[[[-44.0244,-22.9425],[-44.0303,-22.9451],[-44.026,-22.9424],[-44.0244,-22.9425]]]}},{"type":"Feature","properties":{"cod_tema":"ARL_PROPOSTA","cod_imovel":"RJ-3302601-5BDB4A8FAECB4436B639F9CC8070EAE7","num_area":"15.794000000000000000000000000000","ind_status":"AT"},"geometry":{"type":"Polygon","coordinates":[[[-44.0245,-22.9415],[-44.0202,-22.9406],[-44.0235,-22.9456],[-44.0257,-22.9453],[-44.0244,-22.9417],[-44.0245,-22.9415]]]}},{"type":"Feature","properties":{"cod_tema":"ARL_PROPOSTA","cod_imovel":"RJ-3302601-B83DAEC3620F4078BFC58F52C5F66646","num_area":"5.8818000000000000000000000000000","ind_status":"AT"},"geometry":{"type":"Polygon","coordinates":[[[-43.9161,-22.9131],[-43.9144,-22.9091],[-43.9154,-22.9115],[-43.9161,-22.9131]]]}},{"type":"Feature","properties":{"cod_tema":"ARL_PROPOSTA","cod_imovel":"RJ-3302601-9C2587FA0E57487E8387FD31BC568D63","num_area":"22.396800000000000000000000000000","ind_status":"AT"},"geometry":{"type":"Polygon","coordinates":[[[-44.0261,-22.9458],[-44.0307,-22.9476],[-44.0312,-22.944],[-44.0249,-22.9434],[-44.0261,-22.9458],[-44.0261,-22.9458]]]}},{"type":"Feature","properties":{"cod_tema":"ARL_PROPOSTA","cod_imovel":"RJ-3302601-51E4529A996A43DA9FD0FFC9A8A4F310","num_area":"3.3777000000000000000000000000000","ind_status":"AT"},"geometry":{"type":"Polygon","coordinates":[[[-44.0135,-22.9233],[-44.0142,-22.9214],[-44.013,-22.9233],[-44.0135,-22.9233]]]}},{"type":"Feature","properties":{"cod_tema":"ARL_PROPOSTA","cod_imovel":"RJ-3302601-0D9BD077536B41B2896291A2E3857CD5","num_area":"22.200400000000000000000000000000","ind_status":"AT"},"geometry":{"type":"Polygon","coordinates":[[[-44.1444,-23.017],[-44.1455,-23.0099],[-44.1422,-23.0165],[-44.1444,-23.017]],[[-44.1471,-23.0115],[-44.1464,-23.0081],[-44.1469,-23.0112],[-44.1471,-23.0115]]]}},{"type":"Feature","properties":{"cod_tema":"ARL_PROPOSTA","cod_imovel":"RJ-3302601-2809D0AC53B44F3BA1DE9A90D327255E","num_area":"41.487600000000000000000000000000","ind_status":"AT"},"geometry":{"type":"Polygon","coordinates":[[[-44.1294,-22.9739],[-44.1301,-22.9813],[-44.1345,-22.9828],[-44.1341,-22.9774],[-44.1296,-22.974],[-44.1294,-22.9739]],[[-44.1341,-22.9773],[-44.1326,-22.976],[-44.1341,-22.9773],[-44.1341,-22.9773]]]}},{"type":"Feature","properties":{"cod_tema":"ARL_PROPOSTA","cod_imovel":"RJ-3302601-DF51AEF6ABAB4A41A5B7E9E4BD401C8E","num_area":"11.074100000000000000000000000000","ind_status":"AT"},"geometry":{"type":"Polygon","coordinates":[[[-43.983,-22.8781],[-43.9911,-22.8804],[-43.983,-22.8781],[-43.983,-22.8781]]]}}]}