{"type":"FeatureCollection","features":[{"type":"Feature","properties":{"cod_tema":"ARL_PROPOSTA","cod_imovel":"RJ-3302908-015CB14612454350B4F82525A4561040","num_area":"9.9034000000000000000000000000000","ind_status":"AT"},"geometry":{"type":"Polygon","coordinates":[[[-43.4928,-22.4444],[-43.4865,-22.443],[-43.4928,-22.4444],[-43.4928,-22.4444]]]}},{"type":"Feature","properties":{"cod_tema":"ARL_PROPOSTA","cod_imovel":"RJ-3302908-08C2DA06EFD64088851C3FD1E62B29A1","num_area":"3.2323000000000000000000000000000","ind_status":"AT"},"geometry":{"type":"Polygon","coordinates":[[[-43.5072,-22.4607],[-43.5099,-22.4591],[-43.5072,-22.4606],[-43.5072,-22.4607]],[[-43.5095,-22.459],[-43.5072,-22.4606],[-43.5095,-22.459],[-43.5095,-22.459]]]}},{"type":"Feature","properties":{"cod_tema":"ARL_PROPOSTA","cod_imovel":"RJ-3302908-32F1B4B86C4C4803B1B13B7E688870AD","num_area":"5.3223000000000000000000000000000","ind_status":"AT"},"geometry":{"type":"Polygon","coordinates":[[[-43.4137,-22.511],[-43.4211,-22.5138],[-43.4132,-22.5108],[-43.4137,-22.511]]]}},{"type":"Feature","properties":{"cod_tema":"ARL_AVERBADA","cod_imovel":"RJ-3302908-FEF55A09B9404E0B893CE2121A36FF9F","num_area":"9.8477000000000000000000000000000","ind_status":"AT"},"geometry":{"type":"Polygon","coordinates":[[[-43.4483,-22.4612],[-43.4511,-22.456],[-43.4474,-22.462],[-43.4483,-22.4612]]]}},{"type":"Feature","properties":{"cod_tema":"ARL_PROPOSTA","cod_imovel":"RJ-3302908-088CE217982444D384EE78411EFCA242","num_area":"3.0216000000000000000000000000000","ind_status":"AT"},"geometry":{"type":"Polygon","coordinates":[[[-43.4977,-22.4535],[-43.4978,-22.4555],[-43.4978,-22.4533],[-43.4977,-22.4535]]]}},{"type":"Feature","properties":{"cod_tema":"ARL_PROPOSTA","cod_imovel":"RJ-3302908-175245DE082E449EBA9740FCE232BD28","num_area":"3.6664000000000000000000000000000","ind_status":"AT"},"geometry":{"type":"Polygon","coordinates":[[[-43.4816,-22.4327],[-43.4825,-22.4307],[-43.4814,-22.4325],[-43.4816,-22.4327]]]}},{"type":"Feature","properties":{"cod_tema":"ARL_PROPOSTA","cod_imovel":"RJ-3302908-1A1F1258581A4EDA9E23781472004D7B","num_area":"10.961400000000000000000000000000","ind_status":"AT"},"geometry":{"type":"Polygon","coordinates":[[[-43.3283,-22.4627],[-43.3256,-22.4631],[-43.3309,-22.4655],[-43.3285,-22.4628],[-43.3283,-22.4627]]]}},{"type":"Feature","properties":{"cod_tema":"ARL_PROPOSTA","cod_imovel":"RJ-3302908-1BBFAF3AB1BD40A1A6FFEF0C973F303D","num_area":"3.1973000000000000000000000000000","ind_status":"AT"},"geometry":{"type":"Polygon","coordinates":[[[-43.4881,-22.5126],[-43.4866,-22.5152],[-43.4879,-22.5128],[-43.4881,-22.5126]],[[-43.4875,-22.5126],[-43.4862,-22.5145],[-43.4875,-22.5126],[-43.4875,-22.5126]]]}},{"type":"Feature","properties":{"cod_tema":"ARL_PROPOSTA","cod_imovel":"RJ-3302908-32577CCF1B714D0EB5F6E8668CDA59E8","num_area":"3.9242000000000000000000000000000","ind_status":"AT"},"geometry":{"type":"Polygon","coordinates":[[[-43.4947,-22.447],[-43.496,-22.4493],[-43.4947,-22.447],[-43.4947,-22.447]],[[-43.4961,-22.4491],[-43.4948,-22.447],[-43.496,-22.449],[-43.4961,-22.4491]]]}},{"type":"Feature","properties":{"cod_tema":"ARL_PROPOSTA","cod_imovel":"RJ-3302908-3F3EA2C5C6484351A2E3ACA1CEC1837F","num_area":"4.5279000000000000000000000000000","ind_status":"AT"},"geometry":{"type":"Polygon","coordinates":[[[-43.5041,-22.4701],[-43.499,-22.4718],[-43.5041,-22.4705],[-43.5041,-22.4701]]]}},{"type":"Feature","properties":{"cod_tema":"ARL_PROPOSTA","cod_imovel":"RJ-3302908-6295F88B6446491CBC2A6D90EE71ABA3","num_area":"5.6272000000000000000000000000000","ind_status":"AT"},"geometry":{"type":"Polygon","coordinates":[[[-43.3477,-22.454],[-43.3445,-22.4546],[-43.3478,-22.4541],[-43.3477,-22.454]]]}},{"type":"Feature","properties":{"cod_tema":"ARL_PROPOSTA","cod_imovel":"RJ-3302908-634771F3DA46465EBDC4B8401B8E7FEC","num_area":"3.9893000000000000000000000000000","ind_status":"AT"},"geometry":{"type":"Polygon","coordinates":[[[-43.4078,-22.4869],[-43.4052,-22.4867],[-43.4078,-22.4873],[-43.4078,-22.4869]]]}},{"type":"Feature","properties":{"cod_tema":"ARL_PROPOSTA","cod_imovel":"RJ-3302908-6D1763C9A0E3463294E1031D552F7E53","num_area":"10.585700000000000000000000000000","ind_status":"AT"},"geometry":{"type":"Polygon","coordinates":[[[-43.4862,-22.4904],[-43.4861,-22.4932],[-43.4862,-22.4904],[-43.4862,-22.4904]],[[-43.4862,-22.4932],[-43.4866,-22.4904],[-43.4862,-22.4932],[-43.4862,-22.4932]],[[-43.4875,-22.4878],[-43.4848,-22.4883],[-43.4864,-22.4902],[-43.4874,-22.4879],[-43.4875,-22.4878]]]}},{"type":"Feature","properties":{"cod_tema":"ARL_PROPOSTA","cod_imovel":"RJ-3302908-829532E743DF4DD98590184F5EE2325D","num_area":"5.0816000000000000000000000000000","ind_status":"AT"},"geometry":{"type":"Polygon","coordinates":[[[-43.3835,-22.4695],[-43.3813,-22.4703],[-43.3845,-22.47],[-43.3835,-22.4695]]]}},{"type":"Feature","properties":{"cod_tema":"ARL_PROPOSTA","cod_imovel":"RJ-3302908-86C3907BA95E4CB6B161DAC63C2C09C6","num_area":"9.2253000000000000000000000000000","ind_status":"AT"},"geometry":{"type":"Polygon","coordinates":[[[-43.5374,-22.4456],[-43.5353,-22.4419],[-43.5359,-22.4452],[-43.5374,-22.4456]]]}},{"type":"Feature","properties":{"cod_tema":"ARL_PROPOSTA","cod_imovel":"RJ-3302908-87C9CF4BB8394B99A2FC170B75127D52","num_area":"14.283700000000000000000000000000","ind_status":"AT"},"geometry":{"type":"Polygon","coordinates":[[[-43.4511,-22.4688],[-43.4553,-22.4652],[-43.4483,-22.4679],[-43.4506,-22.4688],[-43.4511,-22.4688]]]}},{"type":"Feature","properties":{"cod_tema":"ARL_PROPOSTA","cod_imovel":"RJ-3302908-99CB7C51D4ED41BCBB26C72A14FC8DCB","num_area":"8.8942000000000000000000000000000","ind_status":"AT"},"geometry":{"type":"Polygon","coordinates":[[[-43.4932,-22.4265],[-43.4942,-22.4242],[-43.4932,-22.4265],[-43.4932,-22.4265]],[[-43.4926,-22.4197],[-43.4923,-22.4222],[-43.4928,-22.42],[-43.4926,-22.4197]],[[-43.4889,-22.4209],[-43.4889,-22.4235],[-43.4889,-22.4209],[-43.4889,-22.4209]]]}},{"type":"Feature","properties":{"cod_tema":"ARL_PROPOSTA","cod_imovel":"RJ-3302908-9B459C65A9EA40DE9F1C149D50B54E64","num_area":"28.415100000000000000000000000000","ind_status":"AT"},"geometry":{"type":"Polygon","coordinates":[[[-43.3081,-22.468],[-43.3049,-22.4733],[-43.3081,-22.468],[-43.3081,-22.468]],[[-43.3072,-22.4736],[-43.3115,-22.4795],[-43.3142,-22.4772],[-43.3136,-22.4741],[-43.3081,-22.4736],[-43.3072,-22.4736]]]}},{"type":"Feature","properties":{"cod_tema":"ARL_PROPOSTA","cod_imovel":"RJ-3302908-9C2CAAA8AAD64D59B8E4A1DFEC7AF406","num_area":"2.5301000000000000000000000000000","ind_status":"AT"},"geometry":{"type":"Polygon","coordinates":[[[-43.473,-22.501],[-43.4691,-22.5008],[-43.473,-22.501],[-43.473,-22.501]]]}},{"type":"Feature","properties":{"cod_tema":"ARL_PROPOSTA","cod_imovel":"RJ-3302908-B2BD703033CA43238A2B0C0F62145E7A","num_area":"70.852400000000000000000000000000","ind_status":"AT"},"geometry":{"type":"Polygon","coordinates":[[[-43.3514,-22.4629],[-43.3534,-22.4643],[-43.357,-22.459],[-43.3573,-22.4655],[-43.3658,-22.4589],[-43.3607,-22.4563],[-43.3546,-22.458],[-43.3514,-22.4629]]]}},{"type":"Feature","properties":{"cod_tema":"ARL_PROPOSTA","cod_imovel":"RJ-3302908-C8FFF4DE7FF24A988CB6ECDBBB6B4D2A","num_area":"53.084700000000000000000000000000","ind_status":"AT"},"geometry":{"type":"Polygon","coordinates":[[[-43.5144,-22.5031],[-43.5032,-22.4984],[-43.5025,-22.5019],[-43.5054,-22.4985],[-43.5038,-22.5027],[-43.5059,-22.4991],[-43.5054,-22.5029],[-43.5104,-22.5059],[-43.5108,-22.5012],[-43.5105,-22.506],[-43.5153,-22.5058],[-43.5134,-22.5026],[-43.5172,-22.5046],[-43.5149,-22.5033],[-43.5144,-22.5031]]]}},{"type":"Feature","properties":{"cod_tema":"ARL_PROPOSTA","cod_imovel":"RJ-3302908-D41CF750AD3249C58860DFD47199D041","num_area":"5.3062000000000000000000000000000","ind_status":"AT"},"geometry":{"type":"Polygon","coordinates":[[[-43.6334,-22.6319],[-43.6296,-22.6304],[-43.6329,-22.6327],[-43.6334,-22.6319]]]}},{"type":"Feature","properties":{"cod_tema":"ARL_PROPOSTA","cod_imovel":"RJ-3302908-E1232E367BCA4A96BFD07F464CFB7C3F","num_area":"3.5252000000000000000000000000000","ind_status":"AT"},"geometry":{"type":"Polygon","coordinates":[[[-43.367,-22.4649],[-43.3644,-22.4678],[-43.367,-22.4651],[-43.367,-22.4649]]]}},{"type":"Feature","properties":{"cod_tema":"ARL_PROPOSTA","cod_imovel":"RJ-3302908-D52C6812F1464345885FE14360B005CE","num_area":"126.36980000000000000000000000000","ind_status":"AT"},"geometry":{"type":"Polygon","coordinates":[[[-43.445,-22.5246],[-43.4382,-22.5284],[-43.4414,-22.5371],[-43.4534,-22.5316],[-43.4455,-22.5295],[-43.445,-22.5246]],[[-43.4607,-22.5203],[-43.4517,-22.5231],[-43.4607,-22.526],[-43.4607,-22.5203]]]}},{"type":"Feature","properties":{"cod_tema":"ARL_PROPOSTA","cod_imovel":"RJ-3302908-8D97B389F7394BD38DA18B683EBBA913","num_area":"2.4445000000000000000000000000000","ind_status":"AT"},"geometry":{"type":"Polygon","coordinates":[[[-43.324,-22.464],[-43.3222,-22.4619],[-43.3234,-22.4644],[-43.324,-22.464]]]}},{"type":"Feature","properties":{"cod_tema":"ARL_PROPOSTA","cod_imovel":"RJ-3302908-E673E1D078F34CCA88415828A9FA2CBD","num_area":"34.253900000000000000000000000000","ind_status":"AT"},"geometry":{"type":"Polygon","coordinates":[[[-43.5192,-22.5681],[-43.5094,-22.5642],[-43.5058,-22.5659],[-43.5149,-22.5701],[-43.5175,-22.5681],[-43.5192,-22.5681]]]}},{"type":"Feature","properties":{"cod_tema":"ARL_PROPOSTA","cod_imovel":"RJ-3302908-2A4782555D46422B877F99E592BB53AB","num_area":"2.9314000000000000000000000000000","ind_status":"AT"},"geometry":{"type":"Polygon","coordinates":[[[-43.4995,-22.5679],[-43.4993,-22.5657],[-43.4995,-22.5679],[-43.4995,-22.5679]]]}},{"type":"Feature","properties":{"cod_tema":"ARL_PROPOSTA","cod_imovel":"RJ-3302908-EFC47200358F4F04B01A2F988B4E65AE","num_area":"29.452500000000000000000000000000","ind_status":"AT"},"geometry":{"type":"Polygon","coordinates":[[[-43.5105,-22.552],[-43.5041,-22.5528],[-43.5086,-22.5524],[-43.5062,-22.5548],[-43.5102,-22.5562],[-43.5127,-22.5544],[-43.5105,-22.552]],[[-43.5066,-22.555],[-43.5103,-22.5567],[-43.5066,-22.555],[-43.5066,-22.555]]]}},{"type":"Feature","properties":{"cod_tema":"ARL_PROPOSTA","cod_imovel":"RJ-3302908-866D2A77BFD14BE4A51747DB16B55885","num_area":"11.509200000000000000000000000000","ind_status":"AT"},"geometry":{"type":"Polygon","coordinates":[[[-43.4457,-22.4738],[-43.4433,-22.4768],[-43.4479,-22.474],[-43.4457,-22.4738]]]}},{"type":"Feature","properties":{"cod_tema":"ARL_PROPOSTA","cod_imovel":"RJ-3302908-905287AFC6DD49858EF763AF591BDD20","num_area":"34.416800000000000000000000000000","ind_status":"PE"},"geometry":{"type":"Polygon","coordinates":[[[-43.3898,-22.4879],[-43.3882,-22.4862],[-43.3894,-22.4878],[-43.3898,-22.4879]],[[-43.3826,-22.4974],[-43.3906,-22.5],[-43.3933,-22.494],[-43.3908,-22.496],[-43.3914,-22.4927],[-43.3861,-22.4918],[-43.3909,-22.4971],[-43.389,-22.499],[-43.3853,-22.4963],[-43.3897,-22.4996],[-43.3829,-22.4972],[-43.3826,-22.4974]]]}},{"type":"Feature","properties":{"cod_tema":"ARL_PROPOSTA","cod_imovel":"RJ-3302908-DBE5E1F192BA406FBE2C4C9A010961DE","num_area":"4.1921000000000000000000000000000","ind_status":"AT"},"geometry":{"type":"Polygon","coordinates":[[[-43.4509,-22.4702],[-43.4529,-22.4725],[-43.4519,-22.4697],[-43.4509,-22.4702]]]}},{"type":"Feature","properties":{"cod_tema":"ARL_PROPOSTA","cod_imovel":"RJ-3302908-1BFE7D2C51184DB6AFB68FA7EED9BFDD","num_area":"2.1444000000000000000000000000000","ind_status":"AT"},"geometry":{"type":"Polygon","coordinates":[[[-43.4635,-22.4739],[-43.4603,-22.4731],[-43.4631,-22.4738],[-43.4635,-22.4739]]]}},{"type":"Feature","properties":{"cod_tema":"ARL_PROPOSTA","cod_imovel":"RJ-3302908-C4C7B2284A3744099F4B6768E680FE01","num_area":"7.9205000000000000000000000000000","ind_status":"AT"},"geometry":{"type":"Polygon","coordinates":[[[-43.324,-22.4793],[-43.3264,-22.4823],[-43.3273,-22.4776],[-43.324,-22.4793]]]}},{"type":"Feature","properties":{"cod_tema":"ARL_PROPOSTA","cod_imovel":"RJ-3302908-BCE31543CBB54036A0FAFE592EA16941","num_area":"1.6122000000000000000000000000000","ind_status":"AT"},"geometry":{"type":"Polygon","coordinates":[[[-43.4993,-22.4306],[-43.4968,-22.4285],[-43.4989,-22.4305],[-43.4993,-22.4306]]]}},{"type":"Feature","properties":{"cod_tema":"ARL_PROPOSTA","cod_imovel":"RJ-3302908-7C97FE428BF941FB94920C1C69EB77CD","num_area":"2.0821000000000000000000000000000","ind_status":"AT"},"geometry":{"type":"Polygon","coordinates":[[[-43.4854,-22.4296],[-43.4884,-22.4293],[-43.4851,-22.4294],[-43.4854,-22.4296]]]}},{"type":"Feature","properties":{"cod_tema":"ARL_PROPOSTA","cod_imovel":"RJ-3302908-988F406915E74A9A81A2378703C612ED","num_area":"29.033700000000000000000000000000","ind_status":"AT"},"geometry":{"type":"Polygon","coordinates":[[[-43.5385,-22.467],[-43.5373,-22.4642],[-43.5354,-22.4659],[-43.5385,-22.467]],[[-43.5268,-22.4735],[-43.526,-22.4762],[-43.5278,-22.4742],[-43.5268,-22.4735]],[[-43.5312,-22.4764],[-43.5408,-22.4706],[-43.5359,-22.4745],[-43.5355,-22.4709],[-43.5311,-22.4758],[-43.5312,-22.4764]]]}},{"type":"Feature","properties":{"cod_tema":"ARL_PROPOSTA","cod_imovel":"RJ-3302908-D113ABDC23954B78B5C4E601BEACEE4A","num_area":"18.059400000000000000000000000000","ind_status":"AT"},"geometry":{"type":"Polygon","coordinates":[[[-43.4202,-22.5194],[-43.4153,-22.5219],[-43.4223,-22.5219],[-43.4202,-22.5194]]]}},{"type":"Feature","properties":{"cod_tema":"ARL_PROPOSTA","cod_imovel":"RJ-3302908-B89E78F2DD95463A9D4E6BCDC24C62F6","num_area":"3.7370000000000000000000000000000","ind_status":"AT"},"geometry":{"type":"Polygon","coordinates":[[[-43.5384,-22.4469],[-43.537,-22.4489],[-43.5398,-22.4483],[-43.5384,-22.4469]]]}},{"type":"Feature","properties":{"cod_tema":"ARL_PROPOSTA","cod_imovel":"RJ-3302908-115AA7C84E5A4EA6AE305D44365D24EA","num_area":"2.8895000000000000000000000000000","ind_status":"AT"},"geometry":{"type":"Polygon","coordinates":[[[-43.4552,-22.5031],[-43.4533,-22.5045],[-43.4552,-22.5037],[-43.4552,-22.5031]]]}},{"type":"Feature","properties":{"cod_tema":"ARL_PROPOSTA","cod_imovel":"RJ-3302908-5213A1192E16403E833E42FE6DB38F57","num_area":"1.2701000000000000000000000000000","ind_status":"AT"},"geometry":{"type":"Polygon","coordinates":[[[-43.3463,-22.4531],[-43.3486,-22.4529],[-43.3466,-22.4528],[-43.3463,-22.4531]]]}},{"type":"Feature","properties":{"cod_tema":"ARL_PROPOSTA","cod_imovel":"RJ-3302908-5C62DC106C324874BDA160D95C79BC39","num_area":"40.829200000000000000000000000000","ind_status":"AT"},"geometry":{"type":"Polygon","coordinates":[[[-43.4932,-22.5203],[-43.4958,-22.524],[-43.4937,-22.5203],[-43.4932,-22.5203]],[[-43.5009,-22.5126],[-43.4981,-22.5156],[-43.5022,-22.5126],[-43.5009,-22.5126]],[[-43.5005,-22.5215],[-43.5062,-22.5162],[-43.4982,-22.518],[-43.5007,-22.521],[-43.5005,-22.5215]],[[-43.4993,-22.517],[-43.497,-22.5174],[-43.4976,-22.5214],[-43.499,-22.5169],[-43.4993,-22.517]],[[-43.5044,-22.5131],[-43.4951,-22.5109],[-43.5044,-22.5131],[-43.5044,-22.5131]]]}},{"type":"Feature","properties":{"cod_tema":"ARL_PROPOSTA","cod_imovel":"RJ-3302908-4086E85989714CDDA5D6E7DD04603486","num_area":"13.731800000000000000000000000000","ind_status":"AT"},"geometry":{"type":"Polygon","coordinates":[[[-43.4637,-22.4791],[-43.4626,-22.4834],[-43.4638,-22.4795],[-43.4637,-22.4791]],[[-43.4617,-22.4797],[-43.4622,-22.4837],[-43.4617,-22.4797],[-43.4617,-22.4797]]]}},{"type":"Feature","properties":{"cod_tema":"ARL_PROPOSTA","cod_imovel":"RJ-3302908-D228C6D143C0481B817D7E94003321B2","num_area":"13.079100000000000000000000000000","ind_status":"AT"},"geometry":{"type":"Polygon","coordinates":[[[-43.5048,-22.4455],[-43.5028,-22.4471],[-43.5047,-22.4455],[-43.5048,-22.4455]],[[-43.5072,-22.4518],[-43.5127,-22.456],[-43.5077,-22.4513],[-43.5072,-22.4518]]]}},{"type":"Feature","properties":{"cod_tema":"ARL_PROPOSTA","cod_imovel":"RJ-3302908-76321856C37E4C48A8B9FFB8778B638A","num_area":"7.9345000000000000000000000000000","ind_status":"AT"},"geometry":{"type":"Polygon","coordinates":[[[-43.531,-22.4833],[-43.5239,-22.4837],[-43.5304,-22.4833],[-43.531,-22.4833]]]}},{"type":"Feature","properties":{"cod_tema":"ARL_PROPOSTA","cod_imovel":"RJ-3302908-37C6FE42333547629F74AA57FF58662B","num_area":"25.466700000000000000000000000000","ind_status":"AT"},"geometry":{"type":"Polygon","coordinates":[[[-43.5419,-22.5716],[-43.5409,-22.5673],[-43.5397,-22.57],[-43.5419,-22.5716]],[[-43.5434,-22.5721],[-43.5466,-22.5721],[-43.5415,-22.5661],[-43.5433,-22.572],[-43.5434,-22.5721]]]}},{"type":"Feature","properties":{"cod_tema":"ARL_PROPOSTA","cod_imovel":"RJ-3302908-B1C3E7506347427DA9E335D3563881D0","num_area":"121.78740000000000000000000000000","ind_status":"AT"},"geometry":{"type":"Polygon","coordinates":[[[-43.5433,-22.5633],[-43.5466,-22.5597],[-43.5419,-22.5523],[-43.5368,-22.555],[-43.5315,-22.5527],[-43.5313,-22.5566],[-43.5357,-22.5572],[-43.5346,-22.5653],[-43.5431,-22.5634],[-43.5433,-22.5633]],[[-43.5411,-22.5592],[-43.5431,-22.5597],[-43.5409,-22.5593],[-43.5411,-22.5592]]]}},{"type":"Feature","properties":{"cod_tema":"ARL_PROPOSTA","cod_imovel":"RJ-3302908-4976ED13FFD1494B8A719AA7953D812C","num_area":"36.997800000000000000000000000000","ind_status":"AT"},"geometry":{"type":"Polygon","coordinates":[[[-43.4814,-22.5196],[-43.4839,-22.5146],[-43.4774,-22.5179],[-43.4801,-22.5208],[-43.4814,-22.5196]],[[-43.4774,-22.5179],[-43.4756,-22.5235],[-43.4801,-22.5208],[-43.4774,-22.518],[-43.4774,-22.5179]]]}},{"type":"Feature","properties":{"cod_tema":"ARL_PROPOSTA","cod_imovel":"RJ-3302908-60616D581017439D9E0B546516A24862","num_area":"29.423800000000000000000000000000","ind_status":"AT"},"geometry":{"type":"Polygon","coordinates":[[[-43.4929,-22.508],[-43.4952,-22.5081],[-43.4908,-22.5073],[-43.4929,-22.508]],[[-43.4885,-22.5037],[-43.4899,-22.507],[-43.4943,-22.5031],[-43.4928,-22.5005],[-43.4909,-22.5032],[-43.4933,-22.5032],[-43.4891,-22.5036],[-43.4885,-22.5037]],[[-43.495,-22.5028],[-43.4931,-22.5064],[-43.4958,-22.5065],[-43.4941,-22.5024],[-43.495,-22.5028]]]}},{"type":"Feature","properties":{"cod_tema":"ARL_PROPOSTA","cod_imovel":"RJ-3302908-9D16649EFAB9465EB62DC1EC9E5F7606","num_area":"2.8679000000000000000000000000000","ind_status":"AT"},"geometry":{"type":"Polygon","coordinates":[[[-43.3555,-22.4631],[-43.3572,-22.4572],[-43.3547,-22.4628],[-43.3555,-22.4631]]]}},{"type":"Feature","properties":{"cod_tema":"ARL_PROPOSTA","cod_imovel":"RJ-3302908-EC8CF445B97F4DE6AC5E5C097AFEE0BD","num_area":"25.004700000000000000000000000000","ind_status":"AT"},"geometry":{"type":"Polygon","coordinates":[[[-43.5359,-22.5238],[-43.5337,-22.5264],[-43.5368,-22.5281],[-43.5455,-22.5288],[-43.5359,-22.5238]]]}},{"type":"Feature","properties":{"cod_tema":"ARL_PROPOSTA","cod_imovel":"RJ-3302908-839CC703F5A444E5B2B85F12ABA32553","num_area":"1.5251000000000000000000000000000","ind_status":"PE"},"geometry":{"type":"Polygon","coordinates":[[[-43.4717,-22.4606],[-43.4706,-22.4625],[-43.4722,-22.4606],[-43.4717,-22.4606]]]}},{"type":"Feature","properties":{"cod_tema":"ARL_PROPOSTA","cod_imovel":"RJ-3302908-910956C2B0824EEAA027A61D55797B9A","num_area":"10.204500000000000000000000000000","ind_status":"AT"},"geometry":{"type":"Polygon","coordinates":[[[-43.4732,-22.472],[-43.4683,-22.4755],[-43.4731,-22.472],[-43.4732,-22.472]]]}},{"type":"Feature","properties":{"cod_tema":"ARL_PROPOSTA","cod_imovel":"RJ-3302908-10E7440E807D4F53B6B7E59F5487C9F1","num_area":"5.0828000000000000000000000000000","ind_status":"AT"},"geometry":{"type":"Polygon","coordinates":[[[-43.6422,-22.6224],[-43.6452,-22.6234],[-43.6421,-22.6222],[-43.6422,-22.6224]]]}},{"type":"Feature","properties":{"cod_tema":"ARL_PROPOSTA","cod_imovel":"RJ-3302908-D5B6228BD6044C08BEFF5E0F06B2CD5A","num_area":"19.356700000000000000000000000000","ind_status":"AT"},"geometry":{"type":"Polygon","coordinates":[[[-43.5403,-22.4706],[-43.5367,-22.4723],[-43.5404,-22.4764],[-43.5413,-22.4725],[-43.5403,-22.4706]]]}},{"type":"Feature","properties":{"cod_tema":"ARL_PROPOSTA","cod_imovel":"RJ-3302908-50E5957C05604FB5BAAA97AE64BFD66B","num_area":"13.823800000000000000000000000000","ind_status":"AT"},"geometry":{"type":"Polygon","coordinates":[[[-43.4808,-22.4968],[-43.4811,-22.5008],[-43.484,-22.4996],[-43.4805,-22.4976],[-43.4827,-22.4976],[-43.4808,-22.4968]],[[-43.48,-22.4987],[-43.4773,-22.4992],[-43.4808,-22.5011],[-43.4802,-22.4987],[-43.48,-22.4987]]]}},{"type":"Feature","properties":{"cod_tema":"ARL_PROPOSTA","cod_imovel":"RJ-3302908-0CC9EE8F7B584478BDEB13FD75B6006C","num_area":"8.6038000000000000000000000000000","ind_status":"AT"},"geometry":{"type":"Polygon","coordinates":[[[-43.5486,-22.5357],[-43.5465,-22.5366],[-43.5489,-22.5362],[-43.5486,-22.5357]],[[-43.5505,-22.533],[-43.5478,-22.534],[-43.5502,-22.5337],[-43.5505,-22.533]],[[-43.5468,-22.5342],[-43.5447,-22.5342],[-43.547,-22.5349],[-43.5468,-22.5342]]]}},{"type":"Feature","properties":{"cod_tema":"ARL_PROPOSTA","cod_imovel":"RJ-3302908-16ACCD66A8984A6F9C3EBD845FC684BB","num_area":"1.9563000000000000000000000000000","ind_status":"AT"},"geometry":{"type":"Polygon","coordinates":[[[-43.5205,-22.4943],[-43.5231,-22.4948],[-43.5206,-22.4943],[-43.5205,-22.4943]]]}},{"type":"Feature","properties":{"cod_tema":"ARL_PROPOSTA","cod_imovel":"RJ-3302908-CACEC53CD91C46FDA0656AB3AA369CD2","num_area":"198.43520000000000000000000000000","ind_status":"AT"},"geometry":{"type":"Polygon","coordinates":[[[-43.3518,-22.5177],[-43.3497,-22.5209],[-43.3687,-22.5248],[-43.3569,-22.5167],[-43.353,-22.5204],[-43.3569,-22.5166],[-43.3558,-22.5147],[-43.3522,-22.5172],[-43.3546,-22.5134],[-43.3518,-22.5177]],[[-43.3687,-22.5248],[-43.3695,-22.5197],[-43.3648,-22.5184],[-43.3709,-22.5169],[-43.3554,-22.5135],[-43.3687,-22.5247],[-43.3687,-22.5248]],[[-43.3701,-22.5228],[-43.3749,-22.5176],[-43.3719,-22.5201],[-43.3729,-22.5175],[-43.3692,-22.5165],[-43.37,-22.5227],[-43.3701,-22.5228]]]}},{"type":"Feature","properties":{"cod_tema":"ARL_PROPOSTA","cod_imovel":"RJ-3302908-C10DA5C75BC549C99CD63E317490EF3D","num_area":"51.534500000000000000000000000000","ind_status":"AT"},"geometry":{"type":"Polygon","coordinates":[[[-43.5542,-22.5388],[-43.5505,-22.5402],[-43.5533,-22.5398],[-43.5542,-22.5388]],[[-43.5625,-22.5422],[-43.5548,-22.539],[-43.552,-22.5406],[-43.5564,-22.5456],[-43.5618,-22.5444],[-43.5625,-22.5422]]]}},{"type":"Feature","properties":{"cod_tema":"ARL_PROPOSTA","cod_imovel":"RJ-3302908-D6A52BB436E740A8A35251A95D3DFC05","num_area":"2.9042000000000000000000000000000","ind_status":"AT"},"geometry":{"type":"Polygon","coordinates":[[[-43.4888,-22.4381],[-43.49,-22.4403],[-43.4894,-22.4381],[-43.4888,-22.4381]]]}},{"type":"Feature","properties":{"cod_tema":"ARL_PROPOSTA","cod_imovel":"RJ-3302908-8115DEDADD8F452DBFFCC4314818D7D4","num_area":"61.159800000000000000000000000000","ind_status":"AT"},"geometry":{"type":"Polygon","coordinates":[[[-43.579,-22.564],[-43.5786,-22.5672],[-43.5795,-22.5648],[-43.579,-22.564]],[[-43.5821,-22.5683],[-43.5845,-22.5661],[-43.5816,-22.5679],[-43.5821,-22.5683]],[[-43.5774,-22.5524],[-43.575,-22.5572],[-43.5865,-22.5545],[-43.5776,-22.552],[-43.5774,-22.5524]],[[-43.5742,-22.5605],[-43.576,-22.5633],[-43.5813,-22.5587],[-43.5746,-22.5604],[-43.5742,-22.5605]],[[-43.576,-22.5633],[-43.5817,-22.559],[-43.5762,-22.5631],[-43.576,-22.5633]]]}},{"type":"Feature","properties":{"cod_tema":"ARL_PROPOSTA","cod_imovel":"RJ-3302908-95C8CE12A86044EDA981F0957D920093","num_area":"1.9957000000000000000000000000000","ind_status":"AT"},"geometry":{"type":"Polygon","coordinates":[[[-43.4772,-22.4901],[-43.4795,-22.4921],[-43.4772,-22.4901],[-43.4772,-22.4901]]]}},{"type":"Feature","properties":{"cod_tema":"ARL_PROPOSTA","cod_imovel":"RJ-3302908-676F8AA3C8824543BC17E3063659046E","num_area":"16.916400000000000000000000000000","ind_status":"AT"},"geometry":{"type":"Polygon","coordinates":[[[-43.4439,-22.4987],[-43.449,-22.5006],[-43.4509,-22.4975],[-43.4472,-22.4988],[-43.4489,-22.4966],[-43.4443,-22.4949],[-43.4456,-22.4969],[-43.4439,-22.4987]]]}},{"type":"Feature","properties":{"cod_tema":"ARL_PROPOSTA","cod_imovel":"RJ-3302908-758EC0E54F564CE79AE6812C3B231926","num_area":"31.329500000000000000000000000000","ind_status":"AT"},"geometry":{"type":"Polygon","coordinates":[[[-43.4881,-22.5229],[-43.4862,-22.5251],[-43.4922,-22.5227],[-43.4896,-22.5203],[-43.4888,-22.5226],[-43.4881,-22.5229]],[[-43.4953,-22.5295],[-43.4933,-22.5241],[-43.4886,-22.5241],[-43.4951,-22.5295],[-43.4953,-22.5295]]]}},{"type":"Feature","properties":{"cod_tema":"ARL_PROPOSTA","cod_imovel":"RJ-3302908-D635754DCD6A436F88BA742C87DBC587","num_area":"13.573600000000000000000000000000","ind_status":"AT"},"geometry":{"type":"Polygon","coordinates":[[[-43.4462,-22.4607],[-43.4466,-22.4558],[-43.4424,-22.4574],[-43.4459,-22.4604],[-43.4462,-22.4607]]]}},{"type":"Feature","properties":{"cod_tema":"ARL_PROPOSTA","cod_imovel":"RJ-3302908-7DF5C1DC429746C0BB04AB1D0C89D0C9","num_area":"17.541000000000000000000000000000","ind_status":"AT"},"geometry":{"type":"Polygon","coordinates":[[[-43.534,-22.4638],[-43.5318,-22.4605],[-43.527,-22.4613],[-43.5341,-22.464],[-43.534,-22.4638]]]}},{"type":"Feature","properties":{"cod_tema":"ARL_PROPOSTA","cod_imovel":"RJ-3302908-21800C1DEF814E4D9105F97D0D932A44","num_area":"12.772000000000000000000000000000","ind_status":"AT"},"geometry":{"type":"Polygon","coordinates":[[[-43.3114,-22.4744],[-43.3143,-22.4769],[-43.3115,-22.4744],[-43.3114,-22.4744]],[[-43.3185,-22.4711],[-43.3135,-22.4701],[-43.3185,-22.4712],[-43.3185,-22.4711]],[[-43.3202,-22.4746],[-43.3231,-22.4734],[-43.3186,-22.4712],[-43.3203,-22.4746],[-43.3202,-22.4746]]]}},{"type":"Feature","properties":{"cod_tema":"ARL_PROPOSTA","cod_imovel":"RJ-3302908-0E579C0E1AE543D0ADCF4488DDF2392F","num_area":"1.7333000000000000000000000000000","ind_status":"AT"},"geometry":{"type":"Polygon","coordinates":[[[-43.504,-22.4605],[-43.5071,-22.4612],[-43.5042,-22.4605],[-43.504,-22.4605]]]}},{"type":"Feature","properties":{"cod_tema":"ARL_PROPOSTA","cod_imovel":"RJ-3302908-3A53166E27A94F16A7880099805298F9","num_area":"3.5468000000000000000000000000000","ind_status":"AT"},"geometry":{"type":"Polygon","coordinates":[[[-43.4629,-22.4732],[-43.4654,-22.469],[-43.4637,-22.4723],[-43.4629,-22.4732]]]}},{"type":"Feature","properties":{"cod_tema":"ARL_PROPOSTA","cod_imovel":"RJ-3302908-C695D76ABA6A4F2C8EE3CC218ABE2521","num_area":"6.8804000000000000000000000000000","ind_status":"AT"},"geometry":{"type":"Polygon","coordinates":[[[-43.485,-22.4335],[-43.4813,-22.438],[-43.4858,-22.4343],[-43.485,-22.4335]]]}},{"type":"Feature","properties":{"cod_tema":"ARL_PROPOSTA","cod_imovel":"RJ-3302908-996FD9F1BD62485BB99D7F213EAB1977","num_area":"3.5731000000000000000000000000000","ind_status":"AT"},"geometry":{"type":"Polygon","coordinates":[[[-43.4598,-22.4661],[-43.4598,-22.4686],[-43.461,-22.4663],[-43.4598,-22.4661]]]}},{"type":"Feature","properties":{"cod_tema":"ARL_PROPOSTA","cod_imovel":"RJ-3302908-4DADE56966FC40CFBEB6B093547924A1","num_area":"9.2161000000000000000000000000000","ind_status":"AT"},"geometry":{"type":"Polygon","coordinates":[[[-43.487,-22.5244],[-43.4813,-22.5215],[-43.4866,-22.5247],[-43.487,-22.5244]]]}},{"type":"Feature","properties":{"cod_tema":"ARL_PROPOSTA","cod_imovel":"RJ-3302908-A06B06CE05EE48CCAD0FE7A1D4F56E0C","num_area":"16.255400000000000000000000000000","ind_status":"AT"},"geometry":{"type":"Polygon","coordinates":[[[-43.4131,-22.4741],[-43.408,-22.4708],[-43.4064,-22.4727],[-43.4117,-22.4758],[-43.4131,-22.4741]]]}},{"type":"Feature","properties":{"cod_tema":"ARL_PROPOSTA","cod_imovel":"RJ-3302908-B0B009C0C1A648A9BF87B959755AFE30","num_area":"4.2690000000000000000000000000000","ind_status":"AT"},"geometry":{"type":"Polygon","coordinates":[[[-43.5218,-22.4704],[-43.5242,-22.469],[-43.5168,-22.4709],[-43.522,-22.4684],[-43.5216,-22.4704],[-43.5218,-22.4704]],[[-43.5243,-22.469],[-43.5213,-22.4682],[-43.5242,-22.469],[-43.5243,-22.469]]]}},{"type":"Feature","properties":{"cod_tema":"ARL_PROPOSTA","cod_imovel":"RJ-3302908-0A2A344369EE465D89C772CE577D8F0A","num_area":"14.469600000000000000000000000000","ind_status":"AT"},"geometry":{"type":"Polygon","coordinates":[[[-43.5882,-22.542],[-43.5861,-22.5444],[-43.5924,-22.5481],[-43.5883,-22.5421],[-43.5882,-22.542]],[[-43.5856,-22.5437],[-43.5922,-22.5483],[-43.5856,-22.5439],[-43.5856,-22.5437]]]}},{"type":"Feature","properties":{"cod_tema":"ARL_PROPOSTA","cod_imovel":"RJ-3302908-52E4D164EB0B46789480A3995ACB35F7","num_area":"23.181300000000000000000000000000","ind_status":"AT"},"geometry":{"type":"Polygon","coordinates":[[[-43.4931,-22.4484],[-43.504,-22.4456],[-43.4932,-22.4461],[-43.4931,-22.4484]]]}},{"type":"Feature","properties":{"cod_tema":"ARL_PROPOSTA","cod_imovel":"RJ-3302908-38E2D21405A14807B3D49BE651E35AA2","num_area":"11.427100000000000000000000000000","ind_status":"AT"},"geometry":{"type":"Polygon","coordinates":[[[-43.3641,-22.4618],[-43.3636,-22.465],[-43.3676,-22.462],[-43.3641,-22.4616],[-43.3641,-22.4618]]]}},{"type":"Feature","properties":{"cod_tema":"ARL_PROPOSTA","cod_imovel":"RJ-3302908-FE114A82013A49E0821C403A012C48F0","num_area":"4.3256000000000000000000000000000","ind_status":"AT"},"geometry":{"type":"Polygon","coordinates":[[[-43.3217,-22.4641],[-43.3248,-22.4668],[-43.3218,-22.4638],[-43.3217,-22.4641]]]}},{"type":"Feature","properties":{"cod_tema":"ARL_PROPOSTA","cod_imovel":"RJ-3302908-014A9E0AE6D748CFA21B0CF43F643E53","num_area":"1.4219000000000000000000000000000","ind_status":"AT"},"geometry":{"type":"Polygon","coordinates":[[[-43.4855,-22.4639],[-43.488,-22.4629],[-43.486,-22.4638],[-43.4855,-22.4639]]]}},{"type":"Feature","properties":{"cod_tema":"ARL_PROPOSTA","cod_imovel":"RJ-3302908-63E145E0100840DAB3AD3A13CBAD6164","num_area":"16.989400000000000000000000000000","ind_status":"AT"},"geometry":{"type":"Polygon","coordinates":[[[-43.6026,-22.5496],[-43.6017,-22.5514],[-43.6062,-22.5524],[-43.6047,-22.5501],[-43.6026,-22.5496]],[[-43.5975,-22.5522],[-43.5951,-22.5498],[-43.5975,-22.5522],[-43.5975,-22.5522]],[[-43.6005,-22.5546],[-43.5955,-22.5491],[-43.5995,-22.5538],[-43.6005,-22.5546]]]}},{"type":"Feature","properties":{"cod_tema":"ARL_PROPOSTA","cod_imovel":"RJ-3302908-1E08CF668B3249FE886CEE0333083C1F","num_area":"11.175000000000000000000000000000","ind_status":"AT"},"geometry":{"type":"Polygon","coordinates":[[[-43.4415,-22.4552],[-43.4447,-22.4566],[-43.4435,-22.4521],[-43.4414,-22.455],[-43.4415,-22.4552]]]}},{"type":"Feature","properties":{"cod_tema":"ARL_PROPOSTA","cod_imovel":"RJ-3302908-2EB81FCBBE994018A9F15A371A65FD78","num_area":"14.010600000000000000000000000000","ind_status":"AT"},"geometry":{"type":"Polygon","coordinates":[[[-43.5358,-22.4639],[-43.5367,-22.4613],[-43.5357,-22.4638],[-43.5358,-22.4639]],[[-43.5367,-22.4613],[-43.5337,-22.4583],[-43.5318,-22.46],[-43.5357,-22.4637],[-43.5366,-22.4615],[-43.5367,-22.4613]]]}},{"type":"Feature","properties":{"cod_tema":"ARL_PROPOSTA","cod_imovel":"RJ-3302908-1F672F8AD7FC447388D7263A530DB640","num_area":"7.1749000000000000000000000000000","ind_status":"AT"},"geometry":{"type":"Polygon","coordinates":[[[-43.4529,-22.4593],[-43.4535,-22.4561],[-43.4502,-22.4593],[-43.4526,-22.4589],[-43.4529,-22.4593]]]}},{"type":"Feature","properties":{"cod_tema":"ARL_PROPOSTA","cod_imovel":"RJ-3302908-1ADF895C1E2A446E992796FFD17ED3EF","num_area":"10.470500000000000000000000000000","ind_status":"AT"},"geometry":{"type":"Polygon","coordinates":[[[-43.5169,-22.4614],[-43.5143,-22.4606],[-43.5135,-22.4649],[-43.5102,-22.4669],[-43.5114,-22.4627],[-43.5096,-22.4666],[-43.5168,-22.4616],[-43.5169,-22.4614]]]}},{"type":"Feature","properties":{"cod_tema":"ARL_PROPOSTA","cod_imovel":"RJ-3302908-28D4ACC704624F40AEF39A02518E4E2C","num_area":"1.6650000000000000000000000000000","ind_status":"AT"},"geometry":{"type":"Polygon","coordinates":[[[-43.3493,-22.468],[-43.3529,-22.4668],[-43.3492,-22.468],[-43.3493,-22.468]]]}},{"type":"Feature","properties":{"cod_tema":"ARL_PROPOSTA","cod_imovel":"RJ-3302908-4F34FA65C1B7462F9398B5EAF8A3831E","num_area":"4.1456000000000000000000000000000","ind_status":"AT"},"geometry":{"type":"Polygon","coordinates":[[[-43.4547,-22.476],[-43.4596,-22.4751],[-43.4544,-22.4747],[-43.4547,-22.476]]]}},{"type":"Feature","properties":{"cod_tema":"ARL_PROPOSTA","cod_imovel":"RJ-3302908-D4319B991B2A4B54B42C899ABCA5E6DA","num_area":"18.867200000000000000000000000000","ind_status":"AT"},"geometry":{"type":"Polygon","coordinates":[[[-43.4417,-22.5051],[-43.4476,-22.5074],[-43.4462,-22.5017],[-43.4463,-22.5048],[-43.4417,-22.5051],[-43.4417,-22.5051]]]}},{"type":"Feature","properties":{"cod_tema":"ARL_PROPOSTA","cod_imovel":"RJ-3302908-8166D8D0CB2B4E08854721F9E2B2B50E","num_area":"2.5566000000000000000000000000000","ind_status":"AT"},"geometry":{"type":"Polygon","coordinates":[[[-43.5138,-22.4534],[-43.5123,-22.455],[-43.5145,-22.4541],[-43.5138,-22.4534]]]}},{"type":"Feature","properties":{"cod_tema":"ARL_PROPOSTA","cod_imovel":"RJ-3302908-A6837BB4C23D49C291FBF4D0910E9D4C","num_area":"27.163600000000000000000000000000","ind_status":"AT"},"geometry":{"type":"Polygon","coordinates":[[[-43.3797,-22.5194],[-43.3803,-22.5266],[-43.3839,-22.5205],[-43.3814,-22.5158],[-43.3793,-22.5194],[-43.3797,-22.5194]]]}},{"type":"Feature","properties":{"cod_tema":"ARL_PROPOSTA","cod_imovel":"RJ-3302908-FB9A0A05D74A4EF582B35E6342944581","num_area":"3.6179000000000000000000000000000","ind_status":"AT"},"geometry":{"type":"Polygon","coordinates":[[[-43.3328,-22.4532],[-43.3355,-22.4535],[-43.3338,-22.4522],[-43.3328,-22.4532]]]}},{"type":"Feature","properties":{"cod_tema":"ARL_AVERBADA","cod_imovel":"RJ-3302908-BDDA778BD10845E0B2C6AC367A20BCCA","num_area":"17.101000000000000000000000000000","ind_status":"AT"},"geometry":{"type":"Polygon","coordinates":[[[-43.379,-22.4926],[-43.3754,-22.4923],[-43.3776,-22.4931],[-43.379,-22.4926]],[[-43.3832,-22.4883],[-43.3778,-22.4895],[-43.3809,-22.4914],[-43.383,-22.4885],[-43.3832,-22.4883]],[[-43.3892,-22.4826],[-43.3818,-22.484],[-43.3892,-22.4828],[-43.3892,-22.4826]],[[-43.3828,-22.485],[-43.3834,-22.4877],[-43.3827,-22.485],[-43.3828,-22.485]],[[-43.3834,-22.4877],[-43.3828,-22.485],[-43.3834,-22.4877],[-43.3834,-22.4877]]]}},{"type":"Feature","properties":{"cod_tema":"ARL_PROPOSTA","cod_imovel":"RJ-3302908-59A62EB10DD74099A941CE9F30276B57","num_area":"57.874600000000000000000000000000","ind_status":"AT"},"geometry":{"type":"Polygon","coordinates":[[[-43.5807,-22.5158],[-43.5747,-22.5239],[-43.5829,-22.5247],[-43.5865,-22.5207],[-43.5807,-22.5158]]]}},{"type":"Feature","properties":{"cod_tema":"ARL_PROPOSTA","cod_imovel":"RJ-3302908-673AC7375AF44A5B851CCC91C431E2D8","num_area":"12.803400000000000000000000000000","ind_status":"AT"},"geometry":{"type":"Polygon","coordinates":[[[-43.5148,-22.4709],[-43.5189,-22.4698],[-43.5138,-22.4702],[-43.5148,-22.4709]]]}},{"type":"Feature","properties":{"cod_tema":"ARL_PROPOSTA","cod_imovel":"RJ-3302908-A0AAF53B6A044C2CBD60169E5F403C97","num_area":"7.1788000000000000000000000000000","ind_status":"AT"},"geometry":{"type":"Polygon","coordinates":[[[-43.377,-22.4661],[-43.3769,-22.463],[-43.3764,-22.4664],[-43.377,-22.4661]]]}},{"type":"Feature","properties":{"cod_tema":"ARL_PROPOSTA","cod_imovel":"RJ-3302908-4B5C84C5218C4841924DE1DD436BD936","num_area":"6.8287000000000000000000000000000","ind_status":"AT"},"geometry":{"type":"Polygon","coordinates":[[[-43.5685,-22.5221],[-43.5679,-22.5252],[-43.569,-22.5224],[-43.5685,-22.5221]],[[-43.569,-22.5201],[-43.5724,-22.5185],[-43.5704,-22.5193],[-43.569,-22.5201]]]}},{"type":"Feature","properties":{"cod_tema":"ARL_PROPOSTA","cod_imovel":"RJ-3302908-7903C99A17764B2987E0203E93855FD3","num_area":"7.2402000000000000000000000000000","ind_status":"AT"},"geometry":{"type":"Polygon","coordinates":[[[-43.5421,-22.4769],[-43.5442,-22.48],[-43.5437,-22.4769],[-43.5421,-22.4769]]]}},{"type":"Feature","properties":{"cod_tema":"ARL_PROPOSTA","cod_imovel":"RJ-3302908-E592B477FACC4E1AA3850EA3B2E91E4B","num_area":"5.5052000000000000000000000000000","ind_status":"AT"},"geometry":{"type":"Polygon","coordinates":[[[-43.5689,-22.508],[-43.5663,-22.5065],[-43.5684,-22.5081],[-43.5689,-22.508]]]}},{"type":"Feature","properties":{"cod_tema":"ARL_PROPOSTA","cod_imovel":"RJ-3302908-A4C30D9941694351A6922B849683D068","num_area":"12.788800000000000000000000000000","ind_status":"AT"},"geometry":{"type":"Polygon","coordinates":[[[-43.4599,-22.4265],[-43.4626,-22.4282],[-43.4621,-22.4261],[-43.4599,-22.4265]],[[-43.4652,-22.4297],[-43.4628,-22.429],[-43.465,-22.4297],[-43.4652,-22.4297]],[[-43.4582,-22.4292],[-43.4584,-22.4328],[-43.4586,-22.4305],[-43.4582,-22.4292]]]}},{"type":"Feature","properties":{"cod_tema":"ARL_PROPOSTA","cod_imovel":"RJ-3302908-E9477215C3CD42D0BBE4B40EFB911A50","num_area":"7.3547000000000000000000000000000","ind_status":"AT"},"geometry":{"type":"Polygon","coordinates":[[[-43.5359,-22.4635],[-43.5396,-22.4621],[-43.5359,-22.4635],[-43.5359,-22.4635]]]}},{"type":"Feature","properties":{"cod_tema":"ARL_PROPOSTA","cod_imovel":"RJ-3302908-722F35114FD24D06AE992CE5790A7851","num_area":"1.0363000000000000000000000000000","ind_status":"AT"},"geometry":{"type":"Polygon","coordinates":[[[-43.451,-22.4887],[-43.453,-22.489],[-43.4509,-22.4886],[-43.451,-22.4887]]]}},{"type":"Feature","properties":{"cod_tema":"ARL_PROPOSTA","cod_imovel":"RJ-3302908-0834862F119A47BEA90153C9E0AFD208","num_area":"10.585400000000000000000000000000","ind_status":"AT"},"geometry":{"type":"Polygon","coordinates":[[[-43.4293,-22.4789],[-43.4279,-22.4841],[-43.4302,-22.4798],[-43.4293,-22.4789]]]}},{"type":"Feature","properties":{"cod_tema":"ARL_PROPOSTA","cod_imovel":"RJ-3302908-7A16B45A56D84CB888D5E2192BD4DBF8","num_area":"213.27360000000000000000000000000","ind_status":"AT"},"geometry":{"type":"Polygon","coordinates":[[[-43.5894,-22.5702],[-43.5884,-22.5726],[-43.5891,-22.5697],[-43.5894,-22.5702]],[[-43.5804,-22.5701],[-43.5772,-22.5759],[-43.5939,-22.5883],[-43.6014,-22.583],[-43.586,-22.5735],[-43.5804,-22.5701]]]}},{"type":"Feature","properties":{"cod_tema":"ARL_PROPOSTA","cod_imovel":"RJ-3302908-107579EC77ED43C49CFF7738A6E129FF","num_area":"4.8400000000000000000000000000000","ind_status":"AT"},"geometry":{"type":"Polygon","coordinates":[[[-43.4526,-22.461],[-43.4479,-22.4624],[-43.451,-22.464],[-43.4522,-22.4612],[-43.4526,-22.461]]]}},{"type":"Feature","properties":{"cod_tema":"ARL_PROPOSTA","cod_imovel":"RJ-3302908-9B5E0774D8ED413EB6C96C0702DE83D7","num_area":"3.2352000000000000000000000000000","ind_status":"AT"},"geometry":{"type":"Polygon","coordinates":[[[-43.5412,-22.4754],[-43.5407,-22.478],[-43.5424,-22.4764],[-43.5412,-22.4754]]]}},{"type":"Feature","properties":{"cod_tema":"ARL_APROVADA_NAO_AVERBADA","cod_imovel":"RJ-3302908-A76DDEAA9BE146E091BCD8A08C606889","num_area":"36.591100000000000000000000000000","ind_status":"AT"},"geometry":{"type":"Polygon","coordinates":[[[-43.3477,-22.4744],[-43.3464,-22.4783],[-43.3501,-22.4792],[-43.3519,-22.4714],[-43.3481,-22.4746],[-43.3483,-22.4725],[-43.3477,-22.4744]],[[-43.3471,-22.4796],[-43.3501,-22.4792],[-43.3469,-22.4793],[-43.3471,-22.4796]]]}},{"type":"Feature","properties":{"cod_tema":"ARL_PROPOSTA","cod_imovel":"RJ-3302908-7ED3E2F9859A409C9F1DF3D7C63D8B2E","num_area":"2.5207000000000000000000000000000","ind_status":"AT"},"geometry":{"type":"Polygon","coordinates":[[[-43.5368,-22.4545],[-43.5397,-22.455],[-43.5367,-22.4544],[-43.5368,-22.4545]]]}},{"type":"Feature","properties":{"cod_tema":"ARL_PROPOSTA","cod_imovel":"RJ-3302908-BEFCC9D4E1744D1DBE8AB2BCA8B17DD4","num_area":"1.2523000000000000000000000000000","ind_status":"AT"},"geometry":{"type":"Polygon","coordinates":[[[-43.3736,-22.4636],[-43.3758,-22.4636],[-43.3736,-22.4635],[-43.3736,-22.4636]]]}},{"type":"Feature","properties":{"cod_tema":"ARL_PROPOSTA","cod_imovel":"RJ-3302908-F66EA03D57C14182B218F49C43A2B110","num_area":"34.432100000000000000000000000000","ind_status":"AT"},"geometry":{"type":"Polygon","coordinates":[[[-43.4896,-22.5428],[-43.4889,-22.5477],[-43.4929,-22.5477],[-43.49,-22.5425],[-43.4896,-22.5428]],[[-43.4876,-22.5443],[-43.4862,-22.5475],[-43.4888,-22.5474],[-43.4879,-22.5446],[-43.4876,-22.5443]],[[-43.4859,-22.5458],[-43.4856,-22.5489],[-43.4925,-22.5479],[-43.4859,-22.5459],[-43.4859,-22.5458]],[[-43.4928,-22.5478],[-43.4946,-22.5461],[-43.4929,-22.5477],[-43.4928,-22.5478]]]}},{"type":"Feature","properties":{"cod_tema":"ARL_PROPOSTA","cod_imovel":"RJ-3302908-598DF49A185F4168B227F0E6418E68A4","num_area":"7.8490000000000000000000000000000","ind_status":"AT"},"geometry":{"type":"Polygon","coordinates":[[[-43.4692,-22.5364],[-43.4655,-22.537],[-43.4683,-22.5391],[-43.4696,-22.5371],[-43.4692,-22.5364]]]}},{"type":"Feature","properties":{"cod_tema":"ARL_PROPOSTA","cod_imovel":"RJ-3302908-8700D72583D146069A88070F3CDEEB17","num_area":"20.188000000000000000000000000000","ind_status":"AT"},"geometry":{"type":"Polygon","coordinates":[[[-43.6613,-22.6226],[-43.6581,-22.6183],[-43.6589,-22.6277],[-43.6646,-22.6258],[-43.6615,-22.6244],[-43.6613,-22.6226]]]}},{"type":"Feature","properties":{"cod_tema":"ARL_PROPOSTA","cod_imovel":"RJ-3302908-8813FBAA57714489BADD402368EBA415","num_area":"75.339200000000000000000000000000","ind_status":"AT"},"geometry":{"type":"Polygon","coordinates":[[[-43.5104,-22.5596],[-43.5084,-22.5635],[-43.5048,-22.5627],[-43.5103,-22.5712],[-43.5168,-22.5689],[-43.5168,-22.5659],[-43.5132,-22.5672],[-43.5158,-22.5683],[-43.5103,-22.5652],[-43.5148,-22.5646],[-43.5116,-22.561],[-43.5104,-22.5596]]]}},{"type":"Feature","properties":{"cod_tema":"ARL_PROPOSTA","cod_imovel":"RJ-3302908-817A685AFDEF45C2A4089C85A55C3594","num_area":"6.8867000000000000000000000000000","ind_status":"AT"},"geometry":{"type":"Polygon","coordinates":[[[-43.5689,-22.5208],[-43.5688,-22.5174],[-43.567,-22.52],[-43.5689,-22.5208]]]}},{"type":"Feature","properties":{"cod_tema":"ARL_PROPOSTA","cod_imovel":"RJ-3302908-BF6D06626A0B46D9AEE8D95A4D00B148","num_area":"195.62060000000000000000000000000","ind_status":"AT"},"geometry":{"type":"Polygon","coordinates":[[[-43.4962,-22.5238],[-43.4938,-22.5254],[-43.4975,-22.5322],[-43.5031,-22.5321],[-43.5043,-22.5383],[-43.5084,-22.5394],[-43.5062,-22.5339],[-43.5111,-22.5338],[-43.4966,-22.5296],[-43.5068,-22.531],[-43.4962,-22.5242],[-43.4962,-22.5238]],[[-43.5035,-22.5422],[-43.5056,-22.5451],[-43.51,-22.5444],[-43.5058,-22.5378],[-43.5043,-22.5415],[-43.5035,-22.5422]],[[-43.5102,-22.5443],[-43.5197,-22.5382],[-43.5089,-22.533],[-43.5086,-22.5353],[-43.5063,-22.5339],[-43.5091,-22.5387],[-43.5063,-22.5395],[-43.5102,-22.5443],[-43.5102,-22.5443]]]}},{"type":"Feature","properties":{"cod_tema":"ARL_PROPOSTA","cod_imovel":"RJ-3302908-9DFDDE7B461C4B0E8B1D8CE695EA863F","num_area":"5.6764000000000000000000000000000","ind_status":"AT"},"geometry":{"type":"Polygon","coordinates":[[[-43.5022,-22.4704],[-43.4988,-22.473],[-43.5024,-22.4713],[-43.5022,-22.4704]]]}},{"type":"Feature","properties":{"cod_tema":"ARL_PROPOSTA","cod_imovel":"RJ-3302908-306B5E4F44404ABDB117574D72D2A5B8","num_area":"26.273800000000000000000000000000","ind_status":"AT"},"geometry":{"type":"Polygon","coordinates":[[[-43.5553,-22.5433],[-43.5567,-22.5415],[-43.5538,-22.5396],[-43.5522,-22.5411],[-43.5553,-22.5405],[-43.5551,-22.5432],[-43.5553,-22.5433]],[[-43.5567,-22.5415],[-43.556,-22.5328],[-43.5511,-22.5334],[-43.5547,-22.5345],[-43.5563,-22.5402],[-43.5523,-22.5388],[-43.556,-22.5409],[-43.5567,-22.5415]],[[-43.5564,-22.5393],[-43.5549,-22.5339],[-43.5564,-22.5393],[-43.5564,-22.5393]],[[-43.5523,-22.5388],[-43.5522,-22.5411],[-43.5531,-22.5393],[-43.5523,-22.5388]],[[-43.5512,-22.5332],[-43.5559,-22.5326],[-43.5512,-22.5332],[-43.5512,-22.5332]]]}},{"type":"Feature","properties":{"cod_tema":"ARL_PROPOSTA","cod_imovel":"RJ-3302908-4D12118BE3594687B90786DA3C16996E","num_area":"6.3159000000000000000000000000000","ind_status":"AT"},"geometry":{"type":"Polygon","coordinates":[[[-43.4861,-22.4947],[-43.4908,-22.4968],[-43.4864,-22.4949],[-43.4861,-22.4947]],[[-43.4845,-22.4989],[-43.4809,-22.5021],[-43.485,-22.4987],[-43.4845,-22.4989]]]}},{"type":"Feature","properties":{"cod_tema":"ARL_PROPOSTA","cod_imovel":"RJ-3302908-A1EC30C7DC984F27B2C8B39A23D5BAAA","num_area":"5.2310000000000000000000000000000","ind_status":"AT"},"geometry":{"type":"Polygon","coordinates":[[[-43.5095,-22.4516],[-43.506,-22.4539],[-43.51,-22.4519],[-43.5095,-22.4516]]]}},{"type":"Feature","properties":{"cod_tema":"ARL_PROPOSTA","cod_imovel":"RJ-3302908-3CBBA20E4C22480E85C4285C9A6E091F","num_area":"2.2195000000000000000000000000000","ind_status":"AT"},"geometry":{"type":"Polygon","coordinates":[[[-43.5439,-22.476],[-43.545,-22.4738],[-43.5435,-22.4755],[-43.5439,-22.476]]]}},{"type":"Feature","properties":{"cod_tema":"ARL_PROPOSTA","cod_imovel":"RJ-3302908-B82F1A873CE24BE290966BC4B32CE54D","num_area":"2.9461000000000000000000000000000","ind_status":"AT"},"geometry":{"type":"Polygon","coordinates":[[[-43.447,-22.4789],[-43.4451,-22.4804],[-43.4473,-22.4791],[-43.447,-22.4789]]]}},{"type":"Feature","properties":{"cod_tema":"ARL_PROPOSTA","cod_imovel":"RJ-3302908-BBDD872FFEE84F0BBD531F95AFFA4FF9","num_area":"3.8985000000000000000000000000000","ind_status":"AT"},"geometry":{"type":"Polygon","coordinates":[[[-43.3781,-22.4583],[-43.375,-22.4568],[-43.3778,-22.4582],[-43.3781,-22.4583]]]}},{"type":"Feature","properties":{"cod_tema":"ARL_PROPOSTA","cod_imovel":"RJ-3302908-FF16B4FC28C4441C898BA944E0F33ACE","num_area":"11.546000000000000000000000000000","ind_status":"AT"},"geometry":{"type":"Polygon","coordinates":[[[-43.3847,-22.4791],[-43.3755,-22.4756],[-43.3846,-22.4791],[-43.3847,-22.4791]],[[-43.3842,-22.4748],[-43.3839,-22.4718],[-43.3839,-22.4744],[-43.3842,-22.4748]],[[-43.3871,-22.4759],[-43.3863,-22.4724],[-43.3865,-22.4755],[-43.3871,-22.4759]]]}},{"type":"Feature","properties":{"cod_tema":"ARL_PROPOSTA","cod_imovel":"RJ-3302908-3EFFB402496A4059A95302161CB46B20","num_area":"3.8811000000000000000000000000000","ind_status":"AT"},"geometry":{"type":"Polygon","coordinates":[[[-43.368,-22.4617],[-43.3707,-22.4616],[-43.3681,-22.4617],[-43.368,-22.4617]]]}},{"type":"Feature","properties":{"cod_tema":"ARL_PROPOSTA","cod_imovel":"RJ-3302908-4F2A5E02B536439B92E2D802B0A3AF72","num_area":"5.3459000000000000000000000000000","ind_status":"AT"},"geometry":{"type":"Polygon","coordinates":[[[-43.6634,-22.6223],[-43.6644,-22.6261],[-43.6635,-22.6226],[-43.6634,-22.6223]],[[-43.6569,-22.62],[-43.6587,-22.6183],[-43.657,-22.62],[-43.6569,-22.62]]]}},{"type":"Feature","properties":{"cod_tema":"ARL_PROPOSTA","cod_imovel":"RJ-3302908-2E2532EF74FB432B8EA974447EB02181","num_area":"16.073400000000000000000000000000","ind_status":"AT"},"geometry":{"type":"Polygon","coordinates":[[[-43.4789,-22.442],[-43.4815,-22.4405],[-43.4733,-22.4397],[-43.4786,-22.4413],[-43.4789,-22.442]]]}},{"type":"Feature","properties":{"cod_tema":"ARL_PROPOSTA","cod_imovel":"RJ-3302908-237388EA4C454D329107D2074999243C","num_area":"15.177200000000000000000000000000","ind_status":"AT"},"geometry":{"type":"Polygon","coordinates":[[[-43.3942,-22.5034],[-43.3911,-22.5087],[-43.3953,-22.5078],[-43.3938,-22.504],[-43.3972,-22.5041],[-43.3946,-22.5033],[-43.3942,-22.5034]]]}},{"type":"Feature","properties":{"cod_tema":"ARL_PROPOSTA","cod_imovel":"RJ-3302908-74F76A4DC64E4D13B6104579AD19D2FB","num_area":"3.4742000000000000000000000000000","ind_status":"AT"},"geometry":{"type":"Polygon","coordinates":[[[-43.5083,-22.47],[-43.5113,-22.4679],[-43.5081,-22.4691],[-43.5083,-22.47]]]}},{"type":"Feature","properties":{"cod_tema":"ARL_PROPOSTA","cod_imovel":"RJ-3302908-7CC6522156F54CD68415D7F17B882AC5","num_area":"3.4742000000000000000000000000000","ind_status":"AT"},"geometry":{"type":"Polygon","coordinates":[[[-43.5126,-22.4697],[-43.51,-22.4688],[-43.5125,-22.4697],[-43.5126,-22.4697]]]}},{"type":"Feature","properties":{"cod_tema":"ARL_PROPOSTA","cod_imovel":"RJ-3302908-41F150C4C11F483E8693BA91749D6149","num_area":"9.2087000000000000000000000000000","ind_status":"AT"},"geometry":{"type":"Polygon","coordinates":[[[-43.405,-22.4699],[-43.3998,-22.4684],[-43.4061,-22.4703],[-43.405,-22.4699]]]}},{"type":"Feature","properties":{"cod_tema":"ARL_PROPOSTA","cod_imovel":"RJ-3302908-C6760E0489234BDB9EBE69C09E14D53F","num_area":"5.1004000000000000000000000000000","ind_status":"AT"},"geometry":{"type":"Polygon","coordinates":[[[-43.4206,-22.4694],[-43.4213,-22.4728],[-43.4227,-22.4708],[-43.4206,-22.4694]]]}},{"type":"Feature","properties":{"cod_tema":"ARL_PROPOSTA","cod_imovel":"RJ-3302908-E5E60FE69BC644E48C799A5898FA13A3","num_area":"25.137200000000000000000000000000","ind_status":"AT"},"geometry":{"type":"Polygon","coordinates":[[[-43.4979,-22.4529],[-43.487,-22.4471],[-43.4974,-22.4535],[-43.4979,-22.4529]],[[-43.4915,-22.4513],[-43.4893,-22.4485],[-43.4909,-22.4511],[-43.4915,-22.4513]]]}},{"type":"Feature","properties":{"cod_tema":"ARL_PROPOSTA","cod_imovel":"RJ-3302908-5C07BC2AF75C4435A3865C0823FFFDD0","num_area":"7.1011000000000000000000000000000","ind_status":"AT"},"geometry":{"type":"Polygon","coordinates":[[[-43.3263,-22.4644],[-43.3226,-22.4615],[-43.3236,-22.4647],[-43.3263,-22.4644]]]}},{"type":"Feature","properties":{"cod_tema":"ARL_PROPOSTA","cod_imovel":"RJ-3302908-AFEE69666519431981A07532ED424E01","num_area":"6.4155000000000000000000000000000","ind_status":"AT"},"geometry":{"type":"Polygon","coordinates":[[[-43.3513,-22.4555],[-43.3488,-22.4533],[-43.3505,-22.4566],[-43.3513,-22.4555]]]}},{"type":"Feature","properties":{"cod_tema":"ARL_PROPOSTA","cod_imovel":"RJ-3302908-44736274711B483494EB265BD94E1385","num_area":"10.059300000000000000000000000000","ind_status":"AT"},"geometry":{"type":"Polygon","coordinates":[[[-43.5083,-22.4435],[-43.5064,-22.4421],[-43.5057,-22.4463],[-43.5083,-22.4435]]]}},{"type":"Feature","properties":{"cod_tema":"ARL_PROPOSTA","cod_imovel":"RJ-3302908-2011AE8C53C348E0948314A09FF292AC","num_area":"8.1447000000000000000000000000000","ind_status":"AT"},"geometry":{"type":"Polygon","coordinates":[[[-43.523,-22.4804],[-43.5219,-22.4838],[-43.5246,-22.4838],[-43.5241,-22.4805],[-43.523,-22.4804]]]}},{"type":"Feature","properties":{"cod_tema":"ARL_PROPOSTA","cod_imovel":"RJ-3302908-CC97664E27564CBD8ED30A4AEB243404","num_area":"37.087000000000000000000000000000","ind_status":"AT"},"geometry":{"type":"Polygon","coordinates":[[[-43.445,-22.4624],[-43.4412,-22.4638],[-43.4444,-22.4647],[-43.445,-22.4624]],[[-43.4431,-22.4627],[-43.4407,-22.463],[-43.4428,-22.4629],[-43.4431,-22.4627]],[[-43.4419,-22.4651],[-43.4444,-22.4648],[-43.4422,-22.4652],[-43.4419,-22.4651]],[[-43.4336,-22.4637],[-43.4357,-22.468],[-43.438,-22.4653],[-43.4356,-22.4662],[-43.4357,-22.4635],[-43.4336,-22.4637]],[[-43.4324,-22.4638],[-43.4322,-22.4671],[-43.4325,-22.464],[-43.4324,-22.4638]],[[-43.443,-22.4711],[-43.4401,-22.4732],[-43.4428,-22.4717],[-43.443,-22.4711]],[[-43.4472,-22.4692],[-43.4436,-22.4708],[-43.4478,-22.4706],[-43.4472,-22.4692]]]}},{"type":"Feature","properties":{"cod_tema":"ARL_PROPOSTA","cod_imovel":"RJ-3302908-EF4E9C1D75694302A846BB24A9EAD5DF","num_area":"60.052900000000000000000000000000","ind_status":"AT"},"geometry":{"type":"Polygon","coordinates":[[[-43.6018,-22.5381],[-43.5937,-22.535],[-43.5912,-22.5403],[-43.5979,-22.5444],[-43.6018,-22.5381]]]}},{"type":"Feature","properties":{"cod_tema":"ARL_PROPOSTA","cod_imovel":"RJ-3302908-C8756E68F5814244820BD52A1392FD34","num_area":"18.933700000000000000000000000000","ind_status":"AT"},"geometry":{"type":"Polygon","coordinates":[[[-43.5313,-22.4642],[-43.5318,-22.4601],[-43.5273,-22.4612],[-43.529,-22.4633],[-43.5313,-22.4642]],[[-43.5307,-22.4719],[-43.5336,-22.469],[-43.5305,-22.4718],[-43.5307,-22.4719]]]}},{"type":"Feature","properties":{"cod_tema":"ARL_PROPOSTA","cod_imovel":"RJ-3302908-20080A450A8747CBABD3A319AE377E17","num_area":"111.22750000000000000000000000000","ind_status":"AT"},"geometry":{"type":"Polygon","coordinates":[[[-43.5061,-22.545],[-43.5145,-22.5306],[-43.5026,-22.533],[-43.5036,-22.5447],[-43.5061,-22.545]]]}},{"type":"Feature","properties":{"cod_tema":"ARL_PROPOSTA","cod_imovel":"RJ-3302908-77DB011EB2644ECEB4EDF79C38388E15","num_area":"5.5630000000000000000000000000000","ind_status":"AT"},"geometry":{"type":"Polygon","coordinates":[[[-43.3793,-22.4859],[-43.3687,-22.4867],[-43.3792,-22.4859],[-43.3793,-22.4859]]]}},{"type":"Feature","properties":{"cod_tema":"ARL_PROPOSTA","cod_imovel":"RJ-3302908-4C629866D17245A3A0640EE2CFAD8728","num_area":"13.477800000000000000000000000000","ind_status":"AT"},"geometry":{"type":"Polygon","coordinates":[[[-43.4568,-22.4813],[-43.4578,-22.4789],[-43.456,-22.4808],[-43.4568,-22.4813]],[[-43.4499,-22.4868],[-43.4542,-22.4868],[-43.4499,-22.4868],[-43.4499,-22.4868]]]}},{"type":"Feature","properties":{"cod_tema":"ARL_AVERBADA","cod_imovel":"RJ-3302908-967F9810BF60449AAA816AB5E6B1A7FB","num_area":"215.00000000000000000000000000000","ind_status":"AT"},"geometry":{"type":"Polygon","coordinates":[[[-43.3247,-22.5027],[-43.3519,-22.5177],[-43.3561,-22.5111],[-43.3394,-22.5061],[-43.329,-22.4958],[-43.3247,-22.5027]]]}},{"type":"Feature","properties":{"cod_tema":"ARL_PROPOSTA","cod_imovel":"RJ-3302908-90EA4A0BAC8F496280DE962D89E549B4","num_area":"24.337900000000000000000000000000","ind_status":"AT"},"geometry":{"type":"Polygon","coordinates":[[[-43.5249,-22.4653],[-43.5195,-22.4639],[-43.5246,-22.4656],[-43.5249,-22.4653]],[[-43.5138,-22.4685],[-43.5171,-22.4707],[-43.5226,-22.4676],[-43.5138,-22.4685],[-43.5138,-22.4685]]]}},{"type":"Feature","properties":{"cod_tema":"ARL_PROPOSTA","cod_imovel":"RJ-3302908-C644FEABE44D4A37A8EE19B1F163C1C2","num_area":"93.044400000000000000000000000000","ind_status":"AT"},"geometry":{"type":"Polygon","coordinates":[[[-43.5892,-22.5219],[-43.5875,-22.5195],[-43.5826,-22.5244],[-43.5846,-22.5257],[-43.588,-22.5219],[-43.5892,-22.5219]],[[-43.5847,-22.526],[-43.5795,-22.5304],[-43.5787,-22.5284],[-43.5784,-22.5329],[-43.5849,-22.5263],[-43.5847,-22.526]],[[-43.5866,-22.539],[-43.5892,-22.5311],[-43.585,-22.5351],[-43.5866,-22.539],[-43.5866,-22.539]],[[-43.5889,-22.53],[-43.5803,-22.5364],[-43.5889,-22.53],[-43.5889,-22.53]],[[-43.589,-22.5297],[-43.5904,-22.5275],[-43.589,-22.5293],[-43.589,-22.5297]],[[-43.5905,-22.5274],[-43.5918,-22.5253],[-43.5881,-22.5241],[-43.5849,-22.528],[-43.5881,-22.5292],[-43.5842,-22.5284],[-43.5806,-22.5362],[-43.5905,-22.5274],[-43.5905,-22.5274]]]}},{"type":"Feature","properties":{"cod_tema":"ARL_PROPOSTA","cod_imovel":"RJ-3302908-0780FB4B7EB344DCB2D77B8EF4DAA4FF","num_area":"50.634500000000000000000000000000","ind_status":"AT"},"geometry":{"type":"Polygon","coordinates":[[[-43.3674,-22.4853],[-43.3793,-22.4805],[-43.3645,-22.4827],[-43.3644,-22.486],[-43.3674,-22.4853]]]}},{"type":"Feature","properties":{"cod_tema":"ARL_PROPOSTA","cod_imovel":"RJ-3302908-F6F2AE0978304C3A96A5C1B22F955827","num_area":"10.786500000000000000000000000000","ind_status":"AT"},"geometry":{"type":"Polygon","coordinates":[[[-43.3639,-22.4853],[-43.369,-22.4868],[-43.3659,-22.4852],[-43.3639,-22.4853]]]}},{"type":"Feature","properties":{"cod_tema":"ARL_PROPOSTA","cod_imovel":"RJ-3302908-6910EF76A0AE4B8C97E476BB189C8A8D","num_area":"6.7968000000000000000000000000000","ind_status":"AT"},"geometry":{"type":"Polygon","coordinates":[[[-43.3854,-22.483],[-43.3903,-22.4824],[-43.3849,-22.4828],[-43.3854,-22.483]]]}},{"type":"Feature","properties":{"cod_tema":"ARL_PROPOSTA","cod_imovel":"RJ-3302908-F9A50A6B54A44CCFA41DEF3A00A85FD2","num_area":"3.3976000000000000000000000000000","ind_status":"AT"},"geometry":{"type":"Polygon","coordinates":[[[-43.3808,-22.4729],[-43.3815,-22.4707],[-43.3768,-22.4713],[-43.3808,-22.4729]]]}},{"type":"Feature","properties":{"cod_tema":"ARL_PROPOSTA","cod_imovel":"RJ-3302908-0118480877B54407A292D6732D1DD351","num_area":"11.968800000000000000000000000000","ind_status":"AT"},"geometry":{"type":"Polygon","coordinates":[[[-43.519,-22.4494],[-43.5157,-22.4501],[-43.5189,-22.4506],[-43.519,-22.4494]],[[-43.5241,-22.4566],[-43.5206,-22.456],[-43.5228,-22.4582],[-43.5241,-22.4566]]]}},{"type":"Feature","properties":{"cod_tema":"ARL_PROPOSTA","cod_imovel":"RJ-3302908-AD4810A9CCB74EC0A7C3B87C4895C535","num_area":"188.00820000000000000000000000000","ind_status":"AT"},"geometry":{"type":"Polygon","coordinates":[[[-43.6365,-22.5887],[-43.6337,-22.5932],[-43.6373,-22.5967],[-43.6425,-22.5954],[-43.6393,-22.5928],[-43.6445,-22.5933],[-43.6436,-22.5898],[-43.6371,-22.5895],[-43.6365,-22.5887]],[[-43.6538,-22.5904],[-43.6235,-22.5714],[-43.6246,-22.5749],[-43.6462,-22.5901],[-43.6526,-22.5933],[-43.6538,-22.5904],[-43.6538,-22.5904]]]}},{"type":"Feature","properties":{"cod_tema":"ARL_AVERBADA","cod_imovel":"RJ-3302908-B9D5B7DBE4554B5DADE3377278C8E2DF","num_area":"3.8204000000000000000000000000000","ind_status":"AT"},"geometry":{"type":"Polygon","coordinates":[[[-43.4755,-22.4798],[-43.4774,-22.482],[-43.4777,-22.4798],[-43.4755,-22.4798]]]}},{"type":"Feature","properties":{"cod_tema":"ARL_PROPOSTA","cod_imovel":"RJ-3302908-4D92FD8DDB94437DBA85630792F5128C","num_area":"34.579500000000000000000000000000","ind_status":"AT"},"geometry":{"type":"Polygon","coordinates":[[[-43.6515,-22.6171],[-43.655,-22.6171],[-43.6515,-22.6171],[-43.6515,-22.6171]],[[-43.6534,-22.6174],[-43.6506,-22.6177],[-43.6534,-22.6174],[-43.6534,-22.6174]],[[-43.6532,-22.619],[-43.6562,-22.6203],[-43.6532,-22.619],[-43.6532,-22.619]],[[-43.6491,-22.6167],[-43.6528,-22.6161],[-43.6492,-22.6166],[-43.6491,-22.6167]],[[-43.6324,-22.6086],[-43.636,-22.6066],[-43.6324,-22.6085],[-43.6324,-22.6086]],[[-43.6329,-22.6091],[-43.6351,-22.6081],[-43.6329,-22.6091],[-43.6329,-22.6091]],[[-43.6469,-22.615],[-43.6497,-22.6154],[-43.6469,-22.6149],[-43.6469,-22.615]],[[-43.6292,-22.6006],[-43.6322,-22.6007],[-43.6293,-22.6005],[-43.6292,-22.6006]],[[-43.6305,-22.6009],[-43.6327,-22.6055],[-43.6309,-22.6016],[-43.6335,-22.6021],[-43.6305,-22.6009],[-43.6305,-22.6009]]]}},{"type":"Feature","properties":{"cod_tema":"ARL_PROPOSTA","cod_imovel":"RJ-3302908-AE983FB03BAE42A9B32833247D8CCD4D","num_area":"49.312200000000000000000000000000","ind_status":"AT"},"geometry":{"type":"Polygon","coordinates":[[[-43.4369,-22.5223],[-43.4403,-22.5251],[-43.4565,-22.5182],[-43.4389,-22.5215],[-43.4369,-22.5223]]]}},{"type":"Feature","properties":{"cod_tema":"ARL_PROPOSTA","cod_imovel":"RJ-3302908-9E7C83E0E85D42D389EB09EF2B9EF067","num_area":"15.689300000000000000000000000000","ind_status":"AT"},"geometry":{"type":"Polygon","coordinates":[[[-43.5335,-22.4854],[-43.5323,-22.4834],[-43.5269,-22.4858],[-43.5284,-22.4879],[-43.5335,-22.4854]]]}},{"type":"Feature","properties":{"cod_tema":"ARL_PROPOSTA","cod_imovel":"RJ-3302908-9CA6D7C3E2534F65903BDEB451DA5418","num_area":"3.7853000000000000000000000000000","ind_status":"AT"},"geometry":{"type":"Polygon","coordinates":[[[-43.5092,-22.4662],[-43.5063,-22.4674],[-43.509,-22.4667],[-43.5092,-22.4662]]]}},{"type":"Feature","properties":{"cod_tema":"ARL_PROPOSTA","cod_imovel":"RJ-3302908-9679338BBBFE4467A68484CDF1951454","num_area":"23.926400000000000000000000000000","ind_status":"AT"},"geometry":{"type":"Polygon","coordinates":[[[-43.553,-22.5651],[-43.5549,-22.5567],[-43.5515,-22.5612],[-43.5529,-22.5648],[-43.553,-22.5651]]]}},{"type":"Feature","properties":{"cod_tema":"ARL_PROPOSTA","cod_imovel":"RJ-3302908-5B43CBBCEE1A4C3CB69F84C4D3495C9C","num_area":"4.3675000000000000000000000000000","ind_status":"AT"},"geometry":{"type":"Polygon","coordinates":[[[-43.5738,-22.5194],[-43.574,-22.5218],[-43.5738,-22.519],[-43.5738,-22.5194]]]}},{"type":"Feature","properties":{"cod_tema":"ARL_PROPOSTA","cod_imovel":"RJ-3302908-EFAE884D94F04D66AA83CD4E689A289E","num_area":"2.3743000000000000000000000000000","ind_status":"AT"},"geometry":{"type":"Polygon","coordinates":[[[-43.426,-22.494],[-43.4236,-22.4964],[-43.426,-22.494],[-43.426,-22.494]]]}},{"type":"Feature","properties":{"cod_tema":"ARL_PROPOSTA","cod_imovel":"RJ-3302908-B0985B6DD6224695B67F55B537BB0942","num_area":"4.1603000000000000000000000000000","ind_status":"AT"},"geometry":{"type":"Polygon","coordinates":[[[-43.4094,-22.4721],[-43.4124,-22.472],[-43.4075,-22.471],[-43.4094,-22.4721]]]}},{"type":"Feature","properties":{"cod_tema":"ARL_PROPOSTA","cod_imovel":"RJ-3302908-6574E1327CDF4453AA3ECE67314B0579","num_area":"2.9926000000000000000000000000000","ind_status":"AT"},"geometry":{"type":"Polygon","coordinates":[[[-43.4594,-22.4755],[-43.4566,-22.4758],[-43.458,-22.4776],[-43.4594,-22.4755]]]}},{"type":"Feature","properties":{"cod_tema":"ARL_PROPOSTA","cod_imovel":"RJ-3302908-7444885DEB354CD384FA9B89FD7A297D","num_area":"20.978800000000000000000000000000","ind_status":"AT"},"geometry":{"type":"Polygon","coordinates":[[[-43.3081,-22.4747],[-43.3128,-22.4788],[-43.3137,-22.4743],[-43.3096,-22.474],[-43.3081,-22.4747]]]}},{"type":"Feature","properties":{"cod_tema":"ARL_PROPOSTA","cod_imovel":"RJ-3302908-644D1C1937D34E90824E725CCBEF1209","num_area":"221.15860000000000000000000000000","ind_status":"AT"},"geometry":{"type":"Polygon","coordinates":[[[-43.5893,-22.5931],[-43.5968,-22.5973],[-43.601,-22.5931],[-43.5934,-22.5887],[-43.5891,-22.5931],[-43.5893,-22.5931]],[[-43.6029,-22.6021],[-43.6128,-22.6045],[-43.6229,-22.6127],[-43.6256,-22.6075],[-43.6018,-22.5936],[-43.5976,-22.5976],[-43.6,-22.5986],[-43.6029,-22.6021]]]}},{"type":"Feature","properties":{"cod_tema":"ARL_PROPOSTA","cod_imovel":"RJ-3302908-C9231219AEB540AB968CAAEE1B7C20D1","num_area":"26.521200000000000000000000000000","ind_status":"PE"},"geometry":{"type":"Polygon","coordinates":[[[-43.4066,-22.507],[-43.41,-22.5067],[-43.4081,-22.5054],[-43.4066,-22.507]],[[-43.3952,-22.503],[-43.3984,-22.504],[-43.3954,-22.5025],[-43.3952,-22.503]],[[-43.403,-22.5085],[-43.3999,-22.5078],[-43.4022,-22.5096],[-43.403,-22.5085]],[[-43.403,-22.5035],[-43.4017,-22.5056],[-43.4046,-22.5028],[-43.403,-22.5035]],[[-43.4006,-22.5114],[-43.3964,-22.5127],[-43.399,-22.5137],[-43.4006,-22.5114]]]}},{"type":"Feature","properties":{"cod_tema":"ARL_PROPOSTA","cod_imovel":"RJ-3302908-D6F698F0E6B94133A252AEA64DB84398","num_area":"21.048500000000000000000000000000","ind_status":"AT"},"geometry":{"type":"Polygon","coordinates":[[[-43.5079,-22.5121],[-43.505,-22.5127],[-43.5072,-22.5128],[-43.5079,-22.5121]],[[-43.5041,-22.5125],[-43.5072,-22.5136],[-43.5041,-22.5125],[-43.5041,-22.5125]],[[-43.5053,-22.5081],[-43.502,-22.5088],[-43.5047,-22.5085],[-43.5053,-22.5081]],[[-43.5031,-22.5107],[-43.5062,-22.5096],[-43.5031,-22.5107],[-43.5031,-22.5107]],[[-43.5049,-22.5138],[-43.5102,-22.519],[-43.5086,-22.5132],[-43.5049,-22.5137],[-43.5049,-22.5138]]]}},{"type":"Feature","properties":{"cod_tema":"ARL_PROPOSTA","cod_imovel":"RJ-3302908-3CEA89DE118A45FF836453AC3BA3A57E","num_area":"3.3296000000000000000000000000000","ind_status":"AT"},"geometry":{"type":"Polygon","coordinates":[[[-43.4775,-22.4633],[-43.4751,-22.4653],[-43.477,-22.4636],[-43.4775,-22.4633]]]}},{"type":"Feature","properties":{"cod_tema":"ARL_PROPOSTA","cod_imovel":"RJ-3303856-CF3F1CCEA78A448F8A72AF27D5820872","num_area":"35.996500000000000000000000000000","ind_status":"AT"},"geometry":{"type":"Polygon","coordinates":[[[-43.4521,-22.4259],[-43.4493,-22.4307],[-43.4523,-22.4259],[-43.4521,-22.4259]],[[-43.441,-22.4288],[-43.4443,-22.4257],[-43.441,-22.4288],[-43.441,-22.4288]],[[-43.4447,-22.4435],[-43.4511,-22.443],[-43.4551,-22.4361],[-43.4523,-22.4411],[-43.454,-22.4398],[-43.4558,-22.4361],[-43.453,-22.4398],[-43.4518,-22.4325],[-43.4528,-22.4402],[-43.4512,-22.438],[-43.4509,-22.4428],[-43.4458,-22.4437],[-43.4447,-22.4435]],[[-43.4445,-22.444],[-43.452,-22.4416],[-43.4453,-22.4445],[-43.4445,-22.444]]]}},{"type":"Feature","properties":{"cod_tema":"ARL_PROPOSTA","cod_imovel":"RJ-3302908-3C1C077DF7154DF8A25FFFF22ED944CF","num_area":"15.042300000000000000000000000000","ind_status":"AT"},"geometry":{"type":"Polygon","coordinates":[[[-43.3854,-22.4624],[-43.3887,-22.4635],[-43.3854,-22.4624],[-43.3854,-22.4624]],[[-43.3958,-22.4652],[-43.3923,-22.4609],[-43.3914,-22.4654],[-43.3957,-22.4652],[-43.3958,-22.4652]]]}},{"type":"Feature","properties":{"cod_tema":"ARL_PROPOSTA","cod_imovel":"RJ-3302908-39E4F004501C4130A61FDE0C5068F53E","num_area":"13.538800000000000000000000000000","ind_status":"AT"},"geometry":{"type":"Polygon","coordinates":[[[-43.5557,-22.5635],[-43.5593,-22.5594],[-43.5575,-22.5581],[-43.5549,-22.5632],[-43.5557,-22.5635]]]}},{"type":"Feature","properties":{"cod_tema":"ARL_PROPOSTA","cod_imovel":"RJ-3302908-0BE6A39B75424803A4817DE7F7019709","num_area":"3.8851000000000000000000000000000","ind_status":"AT"},"geometry":{"type":"Polygon","coordinates":[[[-43.3632,-22.4526],[-43.3582,-22.4505],[-43.3616,-22.4517],[-43.3632,-22.4526]]]}},{"type":"Feature","properties":{"cod_tema":"ARL_PROPOSTA","cod_imovel":"RJ-3302908-5266B111807B49F381B00992FE2BE48F","num_area":"13.166500000000000000000000000000","ind_status":"AT"},"geometry":{"type":"Polygon","coordinates":[[[-43.3364,-22.4526],[-43.3346,-22.4558],[-43.3366,-22.4524],[-43.3364,-22.4526]],[[-43.339,-22.4535],[-43.341,-22.4554],[-43.3419,-22.4518],[-43.339,-22.4535]]]}},{"type":"Feature","properties":{"cod_tema":"ARL_PROPOSTA","cod_imovel":"RJ-3302908-F3C14EA97E174B03B6D10314CB4F2666","num_area":"3.6761000000000000000000000000000","ind_status":"AT"},"geometry":{"type":"Polygon","coordinates":[[[-43.3476,-22.4455],[-43.3508,-22.4481],[-43.3478,-22.4453],[-43.3476,-22.4455]]]}}]}