{"type":"FeatureCollection","features":[{"type":"Feature","properties":{"cod_tema":"ARL_PROPOSTA","cod_imovel":"RJ-3304557-5E611816036146CB9590A369708A83E6","num_area":"5.5252000000000000000000000000000","ind_status":"AT"},"geometry":{"type":"Polygon","coordinates":[[[-43.6019,-22.9749],[-43.5984,-22.969],[-43.601,-22.9739],[-43.6019,-22.9749]]]}},{"type":"Feature","properties":{"cod_tema":"ARL_PROPOSTA","cod_imovel":"RJ-3304557-6751C7427D32437E9A5881A6C03FB630","num_area":"1.1065000000000000000000000000000","ind_status":"AT"},"geometry":{"type":"Polygon","coordinates":[[[-43.5792,-22.9832],[-43.577,-22.9827],[-43.5791,-22.9832],[-43.5792,-22.9832]]]}},{"type":"Feature","properties":{"cod_tema":"ARL_PROPOSTA","cod_imovel":"RJ-3304557-B08E55701F5E4E04950B723143C63C56","num_area":"3.1265000000000000000000000000000","ind_status":"AT"},"geometry":{"type":"Polygon","coordinates":[[[-43.5297,-22.9946],[-43.5316,-22.993],[-43.5297,-22.9945],[-43.5297,-22.9946]]]}},{"type":"Feature","properties":{"cod_tema":"ARL_PROPOSTA","cod_imovel":"RJ-3304557-C08C39A65D1A409881AAAA2071E22389","num_area":"5.0552000000000000000000000000000","ind_status":"AT"},"geometry":{"type":"Polygon","coordinates":[[[-43.4873,-22.9245],[-43.4841,-22.9246],[-43.4862,-22.9261],[-43.4873,-22.9245]]]}},{"type":"Feature","properties":{"cod_tema":"ARL_PROPOSTA","cod_imovel":"RJ-3304557-E7DA9852EEDC465CB6ECC9FD7554EA77","num_area":"1.9885000000000000000000000000000","ind_status":"AT"},"geometry":{"type":"Polygon","coordinates":[[[-43.4964,-22.9298],[-43.4944,-22.9299],[-43.4966,-22.9302],[-43.4964,-22.9298]]]}},{"type":"Feature","properties":{"cod_tema":"ARL_PROPOSTA","cod_imovel":"RJ-3304557-2E2F66BA4A7B4942B961C8537B744E2D","num_area":"12.848900000000000000000000000000","ind_status":"AT"},"geometry":{"type":"Polygon","coordinates":[[[-43.4449,-22.9283],[-43.444,-22.9308],[-43.445,-22.9284],[-43.4449,-22.9283]],[[-43.448,-22.9259],[-43.4456,-22.9299],[-43.4507,-22.9257],[-43.448,-22.9259],[-43.448,-22.9259]]]}},{"type":"Feature","properties":{"cod_tema":"ARL_PROPOSTA","cod_imovel":"RJ-3304557-31B41E5E24A7476DA86DAB7EC74E147C","num_area":"1.9442000000000000000000000000000","ind_status":"AT"},"geometry":{"type":"Polygon","coordinates":[[[-43.6926,-22.8849],[-43.691,-22.8865],[-43.6928,-22.8848],[-43.6926,-22.8849]]]}},{"type":"Feature","properties":{"cod_tema":"ARL_PROPOSTA","cod_imovel":"RJ-3304557-290E0EFBC0E34CE5A9892C9696AA3403","num_area":"1.6764000000000000000000000000000","ind_status":"AT"},"geometry":{"type":"Polygon","coordinates":[[[-43.5569,-23.0599],[-43.5571,-23.0623],[-43.557,-23.0599],[-43.5569,-23.0599]]]}},{"type":"Feature","properties":{"cod_tema":"ARL_PROPOSTA","cod_imovel":"RJ-3304557-429DFA9281EF4EED92FB004FA15A9393","num_area":"2.6672000000000000000000000000000","ind_status":"AT"},"geometry":{"type":"Polygon","coordinates":[[[-43.67,-22.8745],[-43.6689,-22.8764],[-43.6702,-22.8745],[-43.67,-22.8745]]]}},{"type":"Feature","properties":{"cod_tema":"ARL_PROPOSTA","cod_imovel":"RJ-3304557-503DA5A53A244E94B0B535724CFEDA05","num_area":"18.512800000000000000000000000000","ind_status":"AT"},"geometry":{"type":"Polygon","coordinates":[[[-43.521,-22.8334],[-43.5248,-22.8336],[-43.5232,-22.8282],[-43.5217,-22.8333],[-43.521,-22.8334]]]}},{"type":"Feature","properties":{"cod_tema":"ARL_PROPOSTA","cod_imovel":"RJ-3304557-56C13EAD7F154A089323BFCB1EF00972","num_area":"1.3355000000000000000000000000000","ind_status":"AT"},"geometry":{"type":"Polygon","coordinates":[[[-43.7167,-22.8847],[-43.7126,-22.8865],[-43.716,-22.8852],[-43.7167,-22.8847]]]}},{"type":"Feature","properties":{"cod_tema":"ARL_PROPOSTA","cod_imovel":"RJ-3304557-5F9A1D8283EC49618B72C74F3C657594","num_area":"7.3766000000000000000000000000000","ind_status":"AT"},"geometry":{"type":"Polygon","coordinates":[[[-43.5342,-23.0304],[-43.5371,-23.0269],[-43.5338,-23.0302],[-43.5342,-23.0304]]]}},{"type":"Feature","properties":{"cod_tema":"ARL_PROPOSTA","cod_imovel":"RJ-3304557-71F3D219B3434A4788AFDDCA82EBFFE3","num_area":"3.1665000000000000000000000000000","ind_status":"AT"},"geometry":{"type":"Polygon","coordinates":[[[-43.5164,-23.0069],[-43.518,-23.0052],[-43.5158,-23.0053],[-43.5164,-23.0069]]]}},{"type":"Feature","properties":{"cod_tema":"ARL_PROPOSTA","cod_imovel":"RJ-3304557-7273C12E703649059E18569DBD1F93CA","num_area":"10.622500000000000000000000000000","ind_status":"AT"},"geometry":{"type":"Polygon","coordinates":[[[-43.4433,-22.9272],[-43.443,-22.9297],[-43.4486,-22.9253],[-43.4433,-22.9273],[-43.4433,-22.9272]]]}},{"type":"Feature","properties":{"cod_tema":"ARL_PROPOSTA","cod_imovel":"RJ-3304557-7EA74C6023EB41AB909A430DBB00F034","num_area":"5.5704000000000000000000000000000","ind_status":"AT"},"geometry":{"type":"Polygon","coordinates":[[[-43.5126,-22.8315],[-43.5148,-22.8348],[-43.5126,-22.8316],[-43.5126,-22.8315]]]}},{"type":"Feature","properties":{"cod_tema":"ARL_PROPOSTA","cod_imovel":"RJ-3304557-7EDC89D646FD46D8AA559F91AABBEE84","num_area":"21.695900000000000000000000000000","ind_status":"AT"},"geometry":{"type":"Polygon","coordinates":[[[-43.4405,-22.9394],[-43.4382,-22.9394],[-43.4387,-22.9442],[-43.4416,-22.9399],[-43.4405,-22.9394]],[[-43.4382,-22.9394],[-43.4362,-22.9428],[-43.4385,-22.9441],[-43.4382,-22.9394]]]}},{"type":"Feature","properties":{"cod_tema":"ARL_PROPOSTA","cod_imovel":"RJ-3304557-AA2C4215A3874550B05A32AE96DE3621","num_area":"0.9291000000000000000000000000000","ind_status":"AT"},"geometry":{"type":"Polygon","coordinates":[[[-43.6745,-22.8751],[-43.6755,-22.873],[-43.6745,-22.8751],[-43.6745,-22.8751]]]}},{"type":"Feature","properties":{"cod_tema":"ARL_PROPOSTA","cod_imovel":"RJ-3304557-B5F5E5BFAB0F453DB8A932B4F2BBDED2","num_area":"4.9231000000000000000000000000000","ind_status":"AT"},"geometry":{"type":"Polygon","coordinates":[[[-43.5547,-22.9666],[-43.5575,-22.9676],[-43.5551,-22.9666],[-43.5547,-22.9666]]]}},{"type":"Feature","properties":{"cod_tema":"ARL_PROPOSTA","cod_imovel":"RJ-3304557-BA9D44B4B89C475185E15D37C07F1031","num_area":"12.075200000000000000000000000000","ind_status":"AT"},"geometry":{"type":"Polygon","coordinates":[[[-43.5069,-22.8327],[-43.5116,-22.8326],[-43.5094,-22.8297],[-43.5069,-22.8327]]]}},{"type":"Feature","properties":{"cod_tema":"ARL_PROPOSTA","cod_imovel":"RJ-3304557-EF1EBC5CA4E54DE6A3B0CBAF19D5E664","num_area":"4.0776000000000000000000000000000","ind_status":"AT"},"geometry":{"type":"Polygon","coordinates":[[[-43.4877,-22.9428],[-43.4904,-22.9433],[-43.4882,-22.9419],[-43.4877,-22.9428]]]}},{"type":"Feature","properties":{"cod_tema":"ARL_PROPOSTA","cod_imovel":"RJ-3304557-F7EFD0BC7A2C43409704377334AE3160","num_area":"1.7289000000000000000000000000000","ind_status":"AT"},"geometry":{"type":"Polygon","coordinates":[[[-43.7046,-22.8794],[-43.7026,-22.8807],[-43.7049,-22.8798],[-43.7046,-22.8794]],[[-43.7006,-22.882],[-43.7025,-22.881],[-43.7006,-22.882],[-43.7006,-22.882]]]}},{"type":"Feature","properties":{"cod_tema":"ARL_PROPOSTA","cod_imovel":"RJ-3304557-BE5D95129F7147B0A0F6F6363D1BAB99","num_area":"3.3753000000000000000000000000000","ind_status":"AT"},"geometry":{"type":"Polygon","coordinates":[[[-43.5123,-22.9684],[-43.5106,-22.9671],[-43.5121,-22.9686],[-43.5123,-22.9684]]]}},{"type":"Feature","properties":{"cod_tema":"ARL_PROPOSTA","cod_imovel":"RJ-3304557-FD1210D7427F4000ADBB81B74DB7F643","num_area":"4.6072000000000000000000000000000","ind_status":"AT"},"geometry":{"type":"Polygon","coordinates":[[[-43.2909,-22.9236],[-43.2888,-22.9254],[-43.2907,-22.9241],[-43.2909,-22.9236]]]}},{"type":"Feature","properties":{"cod_tema":"ARL_PROPOSTA","cod_imovel":"RJ-3304557-86BBD5B8E6B44682ACE64859921E740E","num_area":"89.882000000000000000000000000000","ind_status":"AT"},"geometry":{"type":"Polygon","coordinates":[[[-43.6029,-23.002],[-43.6071,-23.0006],[-43.6037,-23.0014],[-43.6029,-23.002]],[[-43.6099,-22.9997],[-43.6067,-22.9939],[-43.6037,-22.9945],[-43.6079,-23.0004],[-43.6099,-22.9997]],[[-43.5722,-23.0082],[-43.574,-23.0115],[-43.5811,-23.0092],[-43.581,-23.0045],[-43.5725,-23.0083],[-43.5722,-23.0082]],[[-43.5811,-23.0092],[-43.5862,-23.0045],[-43.581,-23.0045],[-43.5811,-23.009],[-43.5811,-23.0092]],[[-43.5846,-23.008],[-43.5924,-23.0054],[-43.5863,-23.0044],[-43.5846,-23.0079],[-43.5846,-23.008]],[[-43.5863,-23.0044],[-43.5824,-23.0045],[-43.5863,-23.0044],[-43.5863,-23.0044]]]}},{"type":"Feature","properties":{"cod_tema":"ARL_PROPOSTA","cod_imovel":"RJ-3304557-0925CF6DC6414C3FA8ECB5ACB8F41C8F","num_area":"0.9361000000000000000000000000000","ind_status":"AT"},"geometry":{"type":"Polygon","coordinates":[[[-43.5522,-22.9678],[-43.5495,-22.9685],[-43.5515,-22.9683],[-43.5522,-22.9678]]]}},{"type":"Feature","properties":{"cod_tema":"ARL_PROPOSTA","cod_imovel":"RJ-3304557-8556EEFC4C154E3AB0F63D65FEBBADF4","num_area":"8.0588000000000000000000000000000","ind_status":"AT"},"geometry":{"type":"Polygon","coordinates":[[[-43.4723,-22.9386],[-43.4696,-22.94],[-43.472,-22.9413],[-43.4731,-22.9388],[-43.4723,-22.9386]]]}},{"type":"Feature","properties":{"cod_tema":"ARL_PROPOSTA","cod_imovel":"RJ-3304557-EAA3BC469C6743C7BFC0BB3AF8F7F797","num_area":"8.0039000000000000000000000000000","ind_status":"AT"},"geometry":{"type":"Polygon","coordinates":[[[-43.5159,-22.8265],[-43.5192,-22.829],[-43.5193,-22.8268],[-43.5159,-22.8265]]]}},{"type":"Feature","properties":{"cod_tema":"ARL_PROPOSTA","cod_imovel":"RJ-3304557-F2535123DDD84267B98CCAFAAA0462A6","num_area":"3.1160000000000000000000000000000","ind_status":"PE"},"geometry":{"type":"Polygon","coordinates":[[[-43.4112,-22.991],[-43.4143,-22.9896],[-43.4115,-22.9905],[-43.4112,-22.991]]]}},{"type":"Feature","properties":{"cod_tema":"ARL_PROPOSTA","cod_imovel":"RJ-3304557-95405A22564C4D6FB27054A8900526A4","num_area":"6.5441000000000000000000000000000","ind_status":"AT"},"geometry":{"type":"Polygon","coordinates":[[[-43.4327,-22.939],[-43.4304,-22.9417],[-43.4327,-22.9391],[-43.4327,-22.939]]]}},{"type":"Feature","properties":{"cod_tema":"ARL_PROPOSTA","cod_imovel":"RJ-3304557-D0C4153DB57845F8A787BDF694B370B2","num_area":"2.7907000000000000000000000000000","ind_status":"AT"},"geometry":{"type":"Polygon","coordinates":[[[-43.5117,-22.9327],[-43.5125,-22.9306],[-43.5117,-22.9325],[-43.5117,-22.9327]]]}},{"type":"Feature","properties":{"cod_tema":"ARL_PROPOSTA","cod_imovel":"RJ-3304557-5E9A981374714B43BE150B847E29F90B","num_area":"10.595500000000000000000000000000","ind_status":"AT"},"geometry":{"type":"Polygon","coordinates":[[[-43.6717,-22.9711],[-43.6744,-22.9768],[-43.673,-22.9733],[-43.6757,-22.9718],[-43.6718,-22.9711],[-43.6717,-22.9711]]]}},{"type":"Feature","properties":{"cod_tema":"ARL_AVERBADA","cod_imovel":"RJ-3304557-52BFA1946D4741669DB508E3377F0E5C","num_area":"73.118300000000000000000000000000","ind_status":"PE"},"geometry":{"type":"Polygon","coordinates":[[[-43.587,-22.9194],[-43.5878,-22.926],[-43.601,-22.9327],[-43.6007,-22.9293],[-43.5939,-22.9253],[-43.5961,-22.9244],[-43.5889,-22.9207],[-43.587,-22.9194]]]}},{"type":"Feature","properties":{"cod_tema":"ARL_PROPOSTA","cod_imovel":"RJ-3304557-AEA10764D2AB4F51A18F2F770F946A53","num_area":"3.4646000000000000000000000000000","ind_status":"PE"},"geometry":{"type":"Polygon","coordinates":[[[-43.5833,-22.9332],[-43.5816,-22.9303],[-43.5832,-22.9332],[-43.5833,-22.9332]]]}},{"type":"Feature","properties":{"cod_tema":"ARL_PROPOSTA","cod_imovel":"RJ-3304557-4740BE10717943E6AD74881C77C213E6","num_area":"7.0048000000000000000000000000000","ind_status":"AT"},"geometry":{"type":"Polygon","coordinates":[[[-43.4582,-22.9672],[-43.4561,-22.9626],[-43.456,-22.9669],[-43.4582,-22.9672]]]}},{"type":"Feature","properties":{"cod_tema":"ARL_PROPOSTA","cod_imovel":"RJ-3304557-C0BCC341C6A1475195C12ADCCDB3FC23","num_area":"49.787000000000000000000000000000","ind_status":"AT"},"geometry":{"type":"Polygon","coordinates":[[[-43.4945,-23.0017],[-43.4939,-23.0157],[-43.4974,-23.0146],[-43.4979,-23.0028],[-43.495,-23.0017],[-43.4945,-23.0017]]]}},{"type":"Feature","properties":{"cod_tema":"ARL_PROPOSTA","cod_imovel":"RJ-3304557-1EB4091A7B2242C0A8C34BA71351F036","num_area":"1.7006000000000000000000000000000","ind_status":"AT"},"geometry":{"type":"Polygon","coordinates":[[[-43.4463,-22.9719],[-43.4477,-22.9736],[-43.4463,-22.9718],[-43.4463,-22.9719]]]}},{"type":"Feature","properties":{"cod_tema":"ARL_PROPOSTA","cod_imovel":"RJ-3304557-06C6BD1BB3144F04B89974FF82CE4FFF","num_area":"1.0730000000000000000000000000000","ind_status":"PE"},"geometry":{"type":"Polygon","coordinates":[[[-43.5367,-22.8406],[-43.5355,-22.8446],[-43.5364,-22.8418],[-43.5367,-22.8406]]]}},{"type":"Feature","properties":{"cod_tema":"ARL_PROPOSTA","cod_imovel":"RJ-3304557-CF28AC19C954427FA12DE8B55694F487","num_area":"2.7351000000000000000000000000000","ind_status":"PE"},"geometry":{"type":"Polygon","coordinates":[[[-43.6623,-22.9496],[-43.6602,-22.9488],[-43.6623,-22.9496],[-43.6623,-22.9496]]]}},{"type":"Feature","properties":{"cod_tema":"ARL_PROPOSTA","cod_imovel":"RJ-3304557-DB101A0217E24A5FA652A84DAAF1000F","num_area":"10.187500000000000000000000000000","ind_status":"AT"},"geometry":{"type":"Polygon","coordinates":[[[-43.5277,-23.003],[-43.5241,-23.0063],[-43.5296,-23.0032],[-43.5277,-23.003]]]}},{"type":"Feature","properties":{"cod_tema":"ARL_PROPOSTA","cod_imovel":"RJ-3304557-DAA3AC978CED4737BA7B27B57085D400","num_area":"39.357600000000000000000000000000","ind_status":"AT"},"geometry":{"type":"Polygon","coordinates":[[[-43.5286,-23.0331],[-43.5192,-23.0335],[-43.5197,-23.036],[-43.5299,-23.0368],[-43.5318,-23.0324],[-43.5286,-23.0331]]]}},{"type":"Feature","properties":{"cod_tema":"ARL_PROPOSTA","cod_imovel":"RJ-3304557-55496A7BBB084E3886AC227220C5759C","num_area":"7.0985000000000000000000000000000","ind_status":"AT"},"geometry":{"type":"Polygon","coordinates":[[[-43.5829,-22.9882],[-43.5821,-22.9903],[-43.5868,-22.9892],[-43.5833,-22.9879],[-43.5829,-22.9882]]]}},{"type":"Feature","properties":{"cod_tema":"ARL_PROPOSTA","cod_imovel":"RJ-3304557-13304F02416F436A8B4E4B1843A2B40D","num_area":"1.0607000000000000000000000000000","ind_status":"AT"},"geometry":{"type":"Polygon","coordinates":[[[-43.5095,-22.935],[-43.5086,-22.932],[-43.5093,-22.9349],[-43.5095,-22.935]]]}},{"type":"Feature","properties":{"cod_tema":"ARL_PROPOSTA","cod_imovel":"RJ-3304557-0BE41C5D67C34B7580F05F937CB2A5D8","num_area":"7.3100000000000000000000000000000","ind_status":"AT"},"geometry":{"type":"Polygon","coordinates":[[[-43.5971,-22.9318],[-43.6017,-22.9331],[-43.5977,-22.932],[-43.5971,-22.9318]]]}},{"type":"Feature","properties":{"cod_tema":"ARL_PROPOSTA","cod_imovel":"RJ-3304557-4D35A22B950749F7AACF4777FD1ADA6F","num_area":"2.5821000000000000000000000000000","ind_status":"AT"},"geometry":{"type":"Polygon","coordinates":[[[-43.5611,-22.8391],[-43.5604,-22.8412],[-43.5612,-22.8391],[-43.5611,-22.8391]]]}},{"type":"Feature","properties":{"cod_tema":"ARL_PROPOSTA","cod_imovel":"RJ-3304557-2E177C676FB749E7815217C60DA37CF7","num_area":"8.0190000000000000000000000000000","ind_status":"PE"},"geometry":{"type":"Polygon","coordinates":[[[-43.7142,-22.884],[-43.7082,-22.8792],[-43.7112,-22.8815],[-43.7142,-22.884]]]}},{"type":"Feature","properties":{"cod_tema":"ARL_PROPOSTA","cod_imovel":"RJ-3304557-2824F41A9416464792268F64B50368E8","num_area":"4.5256000000000000000000000000000","ind_status":"AT"},"geometry":{"type":"Polygon","coordinates":[[[-43.4203,-22.9193],[-43.4182,-22.9189],[-43.4202,-22.9196],[-43.4203,-22.9193]]]}},{"type":"Feature","properties":{"cod_tema":"ARL_PROPOSTA","cod_imovel":"RJ-3304557-B4A0BF8FBF4D422E9055EDF958578746","num_area":"4.8155000000000000000000000000000","ind_status":"AT"},"geometry":{"type":"Polygon","coordinates":[[[-43.5807,-22.987],[-43.5803,-22.989],[-43.5818,-22.987],[-43.5807,-22.987]]]}},{"type":"Feature","properties":{"cod_tema":"ARL_PROPOSTA","cod_imovel":"RJ-3304557-89E5F0FEB0DF464696F0569BE081F5EB","num_area":"5.3595000000000000000000000000000","ind_status":"AT"},"geometry":{"type":"Polygon","coordinates":[[[-43.6484,-22.9067],[-43.6442,-22.9068],[-43.6488,-22.9068],[-43.6484,-22.9067]]]}},{"type":"Feature","properties":{"cod_tema":"ARL_PROPOSTA","cod_imovel":"RJ-3304557-2791E081087841599F4C0568B13FE10C","num_area":"1.0139000000000000000000000000000","ind_status":"AT"},"geometry":{"type":"Polygon","coordinates":[[[-43.5358,-22.9779],[-43.5337,-22.9772],[-43.5358,-22.9781],[-43.5358,-22.9779]]]}},{"type":"Feature","properties":{"cod_tema":"ARL_PROPOSTA","cod_imovel":"RJ-3304557-40CF03DEA2CC4F7DA73042F37B036AC2","num_area":"2.0189000000000000000000000000000","ind_status":"PE"},"geometry":{"type":"Polygon","coordinates":[[[-43.6984,-22.8977],[-43.7037,-22.8945],[-43.6989,-22.8973],[-43.6984,-22.8977]]]}},{"type":"Feature","properties":{"cod_tema":"ARL_PROPOSTA","cod_imovel":"RJ-3304557-8D2DCD6269E34D54B3F49167B7ED3F1F","num_area":"1.3217000000000000000000000000000","ind_status":"PE"},"geometry":{"type":"Polygon","coordinates":[[[-43.5152,-22.917],[-43.5144,-22.9188],[-43.5174,-22.918],[-43.5155,-22.9169],[-43.5152,-22.917]]]}},{"type":"Feature","properties":{"cod_tema":"ARL_PROPOSTA","cod_imovel":"RJ-3304557-F53FFFD106924125AA6A57AD07C7A0A6","num_area":"7.6626000000000000000000000000000","ind_status":"AT"},"geometry":{"type":"Polygon","coordinates":[[[-43.5404,-22.9833],[-43.5418,-22.9868],[-43.5432,-22.9813],[-43.5402,-22.9828],[-43.5404,-22.9833]]]}},{"type":"Feature","properties":{"cod_tema":"ARL_PROPOSTA","cod_imovel":"RJ-3304557-DB4958C1FAF0492FA68DF0AC499237B2","num_area":"5.6595000000000000000000000000000","ind_status":"AT"},"geometry":{"type":"Polygon","coordinates":[[[-43.4255,-22.9734],[-43.428,-22.9711],[-43.4254,-22.9734],[-43.4255,-22.9734]]]}},{"type":"Feature","properties":{"cod_tema":"ARL_PROPOSTA","cod_imovel":"RJ-3304557-D3407C76C03F49E099805A6019D8963B","num_area":"29.016000000000000000000000000000","ind_status":"AT"},"geometry":{"type":"Polygon","coordinates":[[[-43.7077,-22.8713],[-43.7096,-22.87],[-43.7037,-22.8706],[-43.7074,-22.8714],[-43.7077,-22.8713]],[[-43.7036,-22.8735],[-43.695,-22.8707],[-43.7034,-22.8736],[-43.7036,-22.8735]],[[-43.7043,-22.8731],[-43.6958,-22.8698],[-43.7043,-22.8731],[-43.7043,-22.8731]]]}},{"type":"Feature","properties":{"cod_tema":"ARL_PROPOSTA","cod_imovel":"RJ-3304557-CA21C5A149B346ACB745D2654D79B07F","num_area":"44.828700000000000000000000000000","ind_status":"AT"},"geometry":{"type":"Polygon","coordinates":[[[-43.5716,-22.9823],[-43.5725,-22.9799],[-43.566,-22.978],[-43.5641,-22.9858],[-43.5718,-22.9835],[-43.5716,-22.9823]]]}},{"type":"Feature","properties":{"cod_tema":"ARL_PROPOSTA","cod_imovel":"RJ-3304557-A3532CFA0E304348A86B03BE588511BB","num_area":"8.1938000000000000000000000000000","ind_status":"AT"},"geometry":{"type":"Polygon","coordinates":[[[-43.525,-22.9049],[-43.5222,-22.9019],[-43.5245,-22.9042],[-43.525,-22.9049]],[[-43.5211,-22.9044],[-43.5225,-22.9086],[-43.5213,-22.9039],[-43.5211,-22.9044]]]}},{"type":"Feature","properties":{"cod_tema":"ARL_PROPOSTA","cod_imovel":"RJ-3304557-46AA82DFC41A4EED87BC90E59E5C0C34","num_area":"3.6290000000000000000000000000000","ind_status":"AT"},"geometry":{"type":"Polygon","coordinates":[[[-43.4574,-22.9233],[-43.4547,-22.9229],[-43.4574,-22.9244],[-43.4574,-22.9233]]]}},{"type":"Feature","properties":{"cod_tema":"ARL_PROPOSTA","cod_imovel":"RJ-3304557-ED0D95AB45CE4FD18F380DFFA09154FD","num_area":"12.969200000000000000000000000000","ind_status":"AT"},"geometry":{"type":"Polygon","coordinates":[[[-43.4517,-22.9623],[-43.4521,-22.9674],[-43.454,-22.9662],[-43.4517,-22.9623]]]}},{"type":"Feature","properties":{"cod_tema":"ARL_PROPOSTA","cod_imovel":"RJ-3304557-1130035EC67C469885140637363BE075","num_area":"5.2306000000000000000000000000000","ind_status":"AT"},"geometry":{"type":"Polygon","coordinates":[[[-43.4534,-22.9712],[-43.451,-22.9661],[-43.4522,-22.9712],[-43.4534,-22.9712]]]}},{"type":"Feature","properties":{"cod_tema":"ARL_PROPOSTA","cod_imovel":"RJ-3304557-38A49D2BB9B94592A89B4D5AE431A942","num_area":"8.5335000000000000000000000000000","ind_status":"AT"},"geometry":{"type":"Polygon","coordinates":[[[-43.5284,-22.9698],[-43.5301,-22.9715],[-43.5282,-22.9698],[-43.5284,-22.9698]],[[-43.5284,-22.9712],[-43.5307,-22.9731],[-43.5286,-22.9713],[-43.5284,-22.9712]]]}},{"type":"Feature","properties":{"cod_tema":"ARL_PROPOSTA","cod_imovel":"RJ-3304557-F053836A748D4DC7B0F697816878F444","num_area":"3.3055000000000000000000000000000","ind_status":"AT"},"geometry":{"type":"Polygon","coordinates":[[[-43.4278,-22.9747],[-43.4271,-22.9721],[-43.4277,-22.975],[-43.4278,-22.9747]]]}},{"type":"Feature","properties":{"cod_tema":"ARL_AVERBADA","cod_imovel":"RJ-3304557-92F092CFD56441D4A740500CB1C39119","num_area":"45.600100000000000000000000000000","ind_status":"AT"},"geometry":{"type":"Polygon","coordinates":[[[-43.5229,-22.8242],[-43.5152,-22.8198],[-43.5151,-22.8271],[-43.5184,-22.8252],[-43.5184,-22.828],[-43.5224,-22.8284],[-43.5229,-22.8242]]]}},{"type":"Feature","properties":{"cod_tema":"ARL_PROPOSTA","cod_imovel":"RJ-3304557-A23319AFD7394E6AAC141ACD0C4AE26C","num_area":"2.8154000000000000000000000000000","ind_status":"PE"},"geometry":{"type":"Polygon","coordinates":[[[-43.719,-22.8864],[-43.7161,-22.8853],[-43.7192,-22.8865],[-43.719,-22.8864]]]}},{"type":"Feature","properties":{"cod_tema":"ARL_PROPOSTA","cod_imovel":"RJ-3304557-4048079A669242059C2CD52C819942FB","num_area":"24.402100000000000000000000000000","ind_status":"AT"},"geometry":{"type":"Polygon","coordinates":[[[-43.4468,-22.9297],[-43.449,-22.9333],[-43.4538,-22.9309],[-43.4514,-22.9273],[-43.4475,-22.9293],[-43.4493,-22.9315],[-43.447,-22.9298],[-43.4468,-22.9297]]]}},{"type":"Feature","properties":{"cod_tema":"ARL_PROPOSTA","cod_imovel":"RJ-3304557-0B6FD398AA1D4FBD937BE3F729FC901D","num_area":"17.006400000000000000000000000000","ind_status":"CA"},"geometry":{"type":"Polygon","coordinates":[[[-43.5307,-22.9561],[-43.5277,-22.9541],[-43.5307,-22.9561],[-43.5307,-22.9561]],[[-43.5326,-22.9528],[-43.5348,-22.9556],[-43.5326,-22.9529],[-43.5326,-22.9528]],[[-43.5305,-22.9526],[-43.5284,-22.9531],[-43.5305,-22.9527],[-43.5305,-22.9526]],[[-43.5262,-22.9482],[-43.5276,-22.9496],[-43.5262,-22.9482],[-43.5262,-22.9482]],[[-43.5267,-22.9502],[-43.5289,-22.9526],[-43.5267,-22.9502],[-43.5267,-22.9502]]]}},{"type":"Feature","properties":{"cod_tema":"ARL_PROPOSTA","cod_imovel":"RJ-3304557-0078A5E3AB0B4E7DB9990366C76AFE76","num_area":"2.7111000000000000000000000000000","ind_status":"AT"},"geometry":{"type":"Polygon","coordinates":[[[-43.5544,-22.9753],[-43.554,-22.9775],[-43.5546,-22.9755],[-43.5544,-22.9753]]]}},{"type":"Feature","properties":{"cod_tema":"ARL_PROPOSTA","cod_imovel":"RJ-3304557-9A7099868DC24ABB9A695EFCDB6138D9","num_area":"1.7471000000000000000000000000000","ind_status":"PE"},"geometry":{"type":"Polygon","coordinates":[[[-43.5235,-22.8625],[-43.5247,-22.8607],[-43.5232,-22.8626],[-43.5235,-22.8625]]]}},{"type":"Feature","properties":{"cod_tema":"ARL_PROPOSTA","cod_imovel":"RJ-3304557-32A8B848327E4D72AFDC769662B499D6","num_area":"1.7941000000000000000000000000000","ind_status":"PE"},"geometry":{"type":"Polygon","coordinates":[[[-43.7046,-22.8953],[-43.7077,-22.8923],[-43.7045,-22.895],[-43.7046,-22.8953]]]}},{"type":"Feature","properties":{"cod_tema":"ARL_PROPOSTA","cod_imovel":"RJ-3304557-69125148C5324B9D807DAA8495551308","num_area":"2.0294000000000000000000000000000","ind_status":"AT"},"geometry":{"type":"Polygon","coordinates":[[[-43.4897,-22.8382],[-43.4916,-22.8395],[-43.4897,-22.8379],[-43.4897,-22.8382]]]}},{"type":"Feature","properties":{"cod_tema":"ARL_PROPOSTA","cod_imovel":"RJ-3304557-05267DD36B5C4703943F97C766AE5C10","num_area":"6.5743000000000000000000000000000","ind_status":"AT"},"geometry":{"type":"Polygon","coordinates":[[[-43.5376,-22.8317],[-43.5369,-22.8297],[-43.5375,-22.8317],[-43.5376,-22.8317]],[[-43.5372,-22.8325],[-43.535,-22.8328],[-43.5372,-22.8325],[-43.5372,-22.8325]]]}},{"type":"Feature","properties":{"cod_tema":"ARL_PROPOSTA","cod_imovel":"RJ-3304557-78D79A87F0074DC2AD9276D92A893E92","num_area":"0.9650000000000000000000000000000","ind_status":"PE"},"geometry":{"type":"Polygon","coordinates":[[[-43.5546,-22.8543],[-43.5525,-22.8519],[-43.5546,-22.8543],[-43.5546,-22.8543]]]}},{"type":"Feature","properties":{"cod_tema":"ARL_PROPOSTA","cod_imovel":"RJ-3304557-8D2B6EBEECD74205AB9C0C4EC52EA856","num_area":"3.0968000000000000000000000000000","ind_status":"AT"},"geometry":{"type":"Polygon","coordinates":[[[-43.5092,-22.8387],[-43.5117,-22.8377],[-43.51,-22.8354],[-43.5097,-22.8383],[-43.5092,-22.8387]]]}},{"type":"Feature","properties":{"cod_tema":"ARL_PROPOSTA","cod_imovel":"RJ-3304557-87F13A2982364E69A5D8B3162F55EEF7","num_area":"5.8009000000000000000000000000000","ind_status":"AT"},"geometry":{"type":"Polygon","coordinates":[[[-43.4629,-22.95],[-43.4605,-22.9501],[-43.4642,-22.9508],[-43.4629,-22.95]]]}},{"type":"Feature","properties":{"cod_tema":"ARL_PROPOSTA","cod_imovel":"RJ-3304557-2162EBA2B79F4F29A5FBD39BE0F15F42","num_area":"30.862900000000000000000000000000","ind_status":"AT"},"geometry":{"type":"Polygon","coordinates":[[[-43.5235,-22.8253],[-43.5181,-22.8267],[-43.5274,-22.83],[-43.524,-22.8255],[-43.5235,-22.8253]]]}},{"type":"Feature","properties":{"cod_tema":"ARL_PROPOSTA","cod_imovel":"RJ-3304557-CE47C2AF3E5345CA90D4789B8E931F5F","num_area":"5.1581000000000000000000000000000","ind_status":"AT"},"geometry":{"type":"Polygon","coordinates":[[[-43.556,-22.9644],[-43.554,-22.9667],[-43.5561,-22.9644],[-43.556,-22.9644]]]}},{"type":"Feature","properties":{"cod_tema":"ARL_PROPOSTA","cod_imovel":"RJ-3304557-868952CC6D0D4B088EF9ED5AF98503C9","num_area":"14.857500000000000000000000000000","ind_status":"AT"},"geometry":{"type":"Polygon","coordinates":[[[-43.5292,-22.8297],[-43.5293,-22.8251],[-43.5262,-22.8253],[-43.5272,-22.8312],[-43.5288,-22.8297],[-43.5292,-22.8297]]]}},{"type":"Feature","properties":{"cod_tema":"ARL_PROPOSTA","cod_imovel":"RJ-3304557-D6607E03934D4278910441220DD68F9A","num_area":"30.230800000000000000000000000000","ind_status":"AT"},"geometry":{"type":"Polygon","coordinates":[[[-43.306,-22.9372],[-43.3026,-22.9403],[-43.3042,-22.9439],[-43.3092,-22.9421],[-43.3071,-22.9388],[-43.3033,-22.9417],[-43.307,-22.9388],[-43.306,-22.9372]]]}},{"type":"Feature","properties":{"cod_tema":"ARL_PROPOSTA","cod_imovel":"RJ-3304557-E543D618BD764881A46AC574953CCAAC","num_area":"0.6426000000000000000000000000000","ind_status":"PE"},"geometry":{"type":"Polygon","coordinates":[[[-43.5505,-22.9893],[-43.5496,-22.9868],[-43.5504,-22.9894],[-43.5505,-22.9893]]]}},{"type":"Feature","properties":{"cod_tema":"ARL_PROPOSTA","cod_imovel":"RJ-3304557-ACD821BDD1984075A8900070E965FA9B","num_area":"2.7235000000000000000000000000000","ind_status":"AT"},"geometry":{"type":"Polygon","coordinates":[[[-43.5406,-22.8313],[-43.5395,-22.8349],[-43.5406,-22.8316],[-43.5406,-22.8313]],[[-43.5398,-22.8346],[-43.5402,-22.8314],[-43.5397,-22.8348],[-43.5398,-22.8346]]]}},{"type":"Feature","properties":{"cod_tema":"ARL_PROPOSTA","cod_imovel":"RJ-3304557-F211282ECB3E46278F9BCCB83B3616AA","num_area":"2.3994000000000000000000000000000","ind_status":"PE"},"geometry":{"type":"Polygon","coordinates":[[[-43.7212,-22.8976],[-43.7221,-22.9016],[-43.7213,-22.8979],[-43.7212,-22.8976]]]}},{"type":"Feature","properties":{"cod_tema":"ARL_PROPOSTA","cod_imovel":"RJ-3304557-BA4805EE063B4A8E85EE9C0775D29616","num_area":"2.3858000000000000000000000000000","ind_status":"PE"},"geometry":{"type":"Polygon","coordinates":[[[-43.7087,-22.8786],[-43.7056,-22.8767],[-43.7082,-22.8791],[-43.7087,-22.8786]]]}},{"type":"Feature","properties":{"cod_tema":"ARL_PROPOSTA","cod_imovel":"RJ-3304557-BB8E76B43E88436088DF40D71CF4B348","num_area":"0.8548000000000000000000000000000","ind_status":"AT"},"geometry":{"type":"Polygon","coordinates":[[[-43.5728,-22.9721],[-43.5735,-22.9746],[-43.5731,-22.9721],[-43.5728,-22.9721]]]}},{"type":"Feature","properties":{"cod_tema":"ARL_PROPOSTA","cod_imovel":"RJ-3304557-FB6F4D574FEE420383784172E9F27828","num_area":"2.3350000000000000000000000000000","ind_status":"AT"},"geometry":{"type":"Polygon","coordinates":[[[-43.5926,-22.969],[-43.5893,-22.9678],[-43.5926,-22.9692],[-43.5926,-22.969]]]}},{"type":"Feature","properties":{"cod_tema":"ARL_PROPOSTA","cod_imovel":"RJ-3304557-38BFA21B66E44EA1B856F4B24BB2B977","num_area":"4.1041000000000000000000000000000","ind_status":"AT"},"geometry":{"type":"Polygon","coordinates":[[[-43.5467,-23.0436],[-43.546,-23.0459],[-43.5472,-23.0426],[-43.5467,-23.0436]]]}},{"type":"Feature","properties":{"cod_tema":"ARL_PROPOSTA","cod_imovel":"RJ-3304557-9DFFC39A384E40C6B66016FB7B944962","num_area":"0.4141000000000000000000000000000","ind_status":"AT"},"geometry":{"type":"Polygon","coordinates":[[[-43.4977,-22.8435],[-43.4958,-22.8424],[-43.4977,-22.8435],[-43.4977,-22.8435]]]}},{"type":"Feature","properties":{"cod_tema":"ARL_PROPOSTA","cod_imovel":"RJ-3304557-1F0DA044856D4ED7BB37FF356D69C5A5","num_area":"10.446900000000000000000000000000","ind_status":"AT"},"geometry":{"type":"Polygon","coordinates":[[[-43.4498,-22.9747],[-43.4468,-22.9712],[-43.4488,-22.9753],[-43.4498,-22.9747]]]}},{"type":"Feature","properties":{"cod_tema":"ARL_PROPOSTA","cod_imovel":"RJ-3304557-9C75A71EBBC147DFB5FC5971D4B9F443","num_area":"6.8992000000000000000000000000000","ind_status":"AT"},"geometry":{"type":"Polygon","coordinates":[[[-43.522,-22.9733],[-43.5172,-22.9713],[-43.5215,-22.9737],[-43.522,-22.9733]]]}},{"type":"Feature","properties":{"cod_tema":"ARL_PROPOSTA","cod_imovel":"RJ-3304557-29E8D1C93E13452B8D5887CFB219E4C4","num_area":"4.0331000000000000000000000000000","ind_status":"AT"},"geometry":{"type":"Polygon","coordinates":[[[-43.5165,-22.9374],[-43.5192,-22.9395],[-43.5167,-22.9374],[-43.5165,-22.9374]]]}},{"type":"Feature","properties":{"cod_tema":"ARL_PROPOSTA","cod_imovel":"RJ-3304557-1BF853E2EC54404CA07F80E52013A254","num_area":"15.488300000000000000000000000000","ind_status":"AT"},"geometry":{"type":"Polygon","coordinates":[[[-43.5281,-23.0048],[-43.5306,-23.0022],[-43.5249,-23.0029],[-43.526,-23.0058],[-43.5281,-23.0048]]]}},{"type":"Feature","properties":{"cod_tema":"ARL_PROPOSTA","cod_imovel":"RJ-3304557-6ABC33EB16F14DF397D905A2DD2369BC","num_area":"1.5399000000000000000000000000000","ind_status":"AT"},"geometry":{"type":"Polygon","coordinates":[[[-43.5204,-22.9302],[-43.522,-22.9322],[-43.5206,-22.9302],[-43.5204,-22.9302]]]}},{"type":"Feature","properties":{"cod_tema":"ARL_PROPOSTA","cod_imovel":"RJ-3304557-028B7593F1054C1A8BCFFC4F3DE2D86E","num_area":"1.0241000000000000000000000000000","ind_status":"PE"},"geometry":{"type":"Polygon","coordinates":[[[-43.5624,-22.9945],[-43.5617,-22.9967],[-43.5624,-22.9945],[-43.5624,-22.9945]]]}},{"type":"Feature","properties":{"cod_tema":"ARL_PROPOSTA","cod_imovel":"RJ-3304557-78A7696A346D4BE6A70F4BAE95433F95","num_area":"98.438700000000000000000000000000","ind_status":"AT"},"geometry":{"type":"Polygon","coordinates":[[[-43.5205,-22.8267],[-43.5151,-22.8257],[-43.5159,-22.8357],[-43.5259,-22.8332],[-43.525,-22.8268],[-43.5205,-22.8267]]]}},{"type":"Feature","properties":{"cod_tema":"ARL_PROPOSTA","cod_imovel":"RJ-3304557-89388B9F161341AD8EACAA96F7D21EA5","num_area":"23.151800000000000000000000000000","ind_status":"AT"},"geometry":{"type":"Polygon","coordinates":[[[-43.5353,-23.0388],[-43.5324,-23.034],[-43.5313,-23.0393],[-43.5338,-23.0416],[-43.5349,-23.0395],[-43.5353,-23.0388]],[[-43.5369,-23.0364],[-43.5329,-23.0338],[-43.5369,-23.0364],[-43.5369,-23.0364]]]}},{"type":"Feature","properties":{"cod_tema":"ARL_PROPOSTA","cod_imovel":"RJ-3304557-6616930727EB4670BB24D339F3A7A5D8","num_area":"4.0603000000000000000000000000000","ind_status":"AT"},"geometry":{"type":"Polygon","coordinates":[[[-43.515,-23.0358],[-43.513,-23.0347],[-43.5147,-23.036],[-43.515,-23.0358]]]}},{"type":"Feature","properties":{"cod_tema":"ARL_PROPOSTA","cod_imovel":"RJ-3304557-98A78DBCC7ED4DC9A268FD67FEC9B977","num_area":"2.9932000000000000000000000000000","ind_status":"AT"},"geometry":{"type":"Polygon","coordinates":[[[-43.6699,-22.8841],[-43.6728,-22.883],[-43.6703,-22.8838],[-43.6699,-22.8841]]]}},{"type":"Feature","properties":{"cod_tema":"ARL_PROPOSTA","cod_imovel":"RJ-3304557-CBBD68C334314878B91205A1F1693253","num_area":"1.7454000000000000000000000000000","ind_status":"AT"},"geometry":{"type":"Polygon","coordinates":[[[-43.5874,-22.9914],[-43.5853,-22.9903],[-43.5873,-22.9921],[-43.5874,-22.9914]]]}},{"type":"Feature","properties":{"cod_tema":"ARL_PROPOSTA","cod_imovel":"RJ-3304557-CDBB2BD20FC747D38AFA2DD862EF9CB3","num_area":"4.0704000000000000000000000000000","ind_status":"AT"},"geometry":{"type":"Polygon","coordinates":[[[-43.5547,-22.9737],[-43.5573,-22.9755],[-43.5549,-22.9737],[-43.5547,-22.9737]]]}},{"type":"Feature","properties":{"cod_tema":"ARL_PROPOSTA","cod_imovel":"RJ-3304557-E32B2662CDE946358918409730AC7BC5","num_area":"13.194300000000000000000000000000","ind_status":"AT"},"geometry":{"type":"Polygon","coordinates":[[[-43.6729,-22.8759],[-43.6699,-22.8824],[-43.675,-22.8785],[-43.6744,-22.8757],[-43.6729,-22.8759]]]}}]}