{"type":"FeatureCollection","features":[{"type":"Feature","properties":{"cod_tema":"ARL_PROPOSTA","cod_imovel":"RJ-3304904-07F2AE07BD554874B37E55F5C783AEC1","num_area":"49.816800000000000000000000000000","ind_status":"AT"},"geometry":{"type":"Polygon","coordinates":[[[-42.992,-22.763],[-42.9833,-22.7685],[-42.9868,-22.7734],[-42.9899,-22.7735],[-42.9922,-22.7642],[-42.992,-22.763]]]}},{"type":"Feature","properties":{"cod_tema":"ARL_PROPOSTA","cod_imovel":"RJ-3304904-772AFC945B1F43F3832647252614C86D","num_area":"8.9208000000000000000000000000000","ind_status":"PE"},"geometry":{"type":"Polygon","coordinates":[[[-42.9489,-22.7723],[-42.9458,-22.7697],[-42.9486,-22.7728],[-42.9489,-22.7723]],[[-42.9457,-22.7697],[-42.9475,-22.7731],[-42.9457,-22.7697],[-42.9457,-22.7697]]]}},{"type":"Feature","properties":{"cod_tema":"ARL_PROPOSTA","cod_imovel":"RJ-3304904-664D721F7E64499AA5E9111F635D6575","num_area":"29.394800000000000000000000000000","ind_status":"AT"},"geometry":{"type":"Polygon","coordinates":[[[-42.9902,-22.8609],[-42.9945,-22.8561],[-42.9892,-22.8502],[-42.9885,-22.8526],[-42.9927,-22.8534],[-42.9893,-22.8536],[-42.9896,-22.8603],[-42.9902,-22.8609]]]}},{"type":"Feature","properties":{"cod_tema":"ARL_PROPOSTA","cod_imovel":"RJ-3304904-56E4E3A82D5D43FA9604B93DB86C4786","num_area":"139.16710000000000000000000000000","ind_status":"AT"},"geometry":{"type":"Polygon","coordinates":[[[-42.9374,-22.8364],[-42.9343,-22.8338],[-42.937,-22.833],[-42.9314,-22.8317],[-42.9374,-22.8364],[-42.9374,-22.8364]],[[-42.9352,-22.8344],[-42.9236,-22.8215],[-42.9221,-22.8251],[-42.9254,-22.8297],[-42.9311,-22.8306],[-42.9318,-22.8346],[-42.9357,-22.8349],[-42.9339,-22.836],[-42.9352,-22.8344],[-42.9352,-22.8344]],[[-42.9352,-22.8359],[-42.9386,-22.8375],[-42.9352,-22.8359],[-42.9352,-22.8359]],[[-42.9295,-22.8273],[-42.9306,-22.8294],[-42.9295,-22.8273],[-42.9295,-22.8273]],[[-42.9327,-22.8311],[-42.9307,-22.83],[-42.9327,-22.8312],[-42.9327,-22.8311]],[[-42.9264,-22.8395],[-42.9237,-22.8409],[-42.9266,-22.8395],[-42.9264,-22.8395]],[[-42.9375,-22.8181],[-42.9351,-22.8198],[-42.9376,-22.8179],[-42.9375,-22.8181]],[[-42.9285,-22.8404],[-42.9306,-22.8419],[-42.9285,-22.8404],[-42.9285,-22.8404]],[[-42.9395,-22.8294],[-42.9408,-22.8321],[-42.9396,-22.8294],[-42.9395,-22.8294]],[[-42.9211,-22.8391],[-42.9226,-22.8367],[-42.9211,-22.8391],[-42.9211,-22.8391]],[[-42.9326,-22.8218],[-42.9298,-22.823],[-42.9328,-22.8217],[-42.9326,-22.8218]],[[-42.9294,-22.8199],[-42.9279,-22.8231],[-42.932,-22.8209],[-42.9295,-22.8199],[-42.9294,-22.8199]],[[-42.9317,-22.8383],[-42.9348,-22.8402],[-42.9319,-22.8383],[-42.9317,-22.8383]],[[-42.9263,-22.8338],[-42.9265,-22.8364],[-42.9266,-22.8337],[-42.9263,-22.8338]],[[-42.9244,-22.8348],[-42.9229,-22.8372],[-42.9244,-22.8348],[-42.9244,-22.8348]],[[-42.9247,-22.845],[-42.9265,-22.8417],[-42.924,-22.8414],[-42.9247,-22.845],[-42.9247,-22.845]],[[-42.9314,-22.8265],[-42.9296,-22.825],[-42.9314,-22.8265],[-42.9314,-22.8265]],[[-42.9208,-22.8263],[-42.9224,-22.8337],[-42.9241,-22.8319],[-42.9208,-22.8262],[-42.9208,-22.8263]],[[-42.9372,-22.8465],[-42.9334,-22.8448],[-42.9372,-22.8465],[-42.9372,-22.8465]],[[-42.9361,-22.8234],[-42.9378,-22.8256],[-42.9389,-22.8235],[-42.9363,-22.8235],[-42.9361,-22.8234]],[[-42.9357,-22.8263],[-42.9342,-22.8251],[-42.9363,-22.827],[-42.9343,-22.8292],[-42.9357,-22.8263],[-42.9357,-22.8263]]]}},{"type":"Feature","properties":{"cod_tema":"ARL_PROPOSTA","cod_imovel":"RJ-3304904-81735C6EA70E47CEB7CE6F6ED65B1993","num_area":"10.262500000000000000000000000000","ind_status":"AT"},"geometry":{"type":"Polygon","coordinates":[[[-42.9499,-22.8756],[-42.9535,-22.8764],[-42.9517,-22.8734],[-42.9499,-22.8756]]]}},{"type":"Feature","properties":{"cod_tema":"ARL_PROPOSTA","cod_imovel":"RJ-3304904-F86054121799438BB43D92BE60F7D5E7","num_area":"3.6070000000000000000000000000000","ind_status":"AT"},"geometry":{"type":"Polygon","coordinates":[[[-42.9527,-22.8575],[-42.9499,-22.8552],[-42.9516,-22.8563],[-42.9527,-22.8575]]]}},{"type":"Feature","properties":{"cod_tema":"ARL_PROPOSTA","cod_imovel":"RJ-3304904-FA3C97A3C44040229DED880F77B7CF49","num_area":"9.8997000000000000000000000000000","ind_status":"AT"},"geometry":{"type":"Polygon","coordinates":[[[-42.9537,-22.837],[-42.9516,-22.8351],[-42.9538,-22.8369],[-42.9537,-22.837]],[[-42.9468,-22.8346],[-42.9456,-22.8377],[-42.9484,-22.8374],[-42.947,-22.8346],[-42.9468,-22.8346]]]}},{"type":"Feature","properties":{"cod_tema":"ARL_PROPOSTA","cod_imovel":"RJ-3304904-128154102C3D443DBFA074523B48ED0B","num_area":"4.0073000000000000000000000000000","ind_status":"AT"},"geometry":{"type":"Polygon","coordinates":[[[-42.9778,-22.8614],[-42.9756,-22.8595],[-42.9776,-22.8616],[-42.9778,-22.8614]]]}},{"type":"Feature","properties":{"cod_tema":"ARL_PROPOSTA","cod_imovel":"RJ-3304904-80C3091547DF4C5093D7EF1BFEF6EFCF","num_area":"0.9158000000000000000000000000000","ind_status":"PE"},"geometry":{"type":"Polygon","coordinates":[[[-42.9237,-22.8221],[-42.9211,-22.823],[-42.9236,-22.8223],[-42.9237,-22.8221]]]}},{"type":"Feature","properties":{"cod_tema":"ARL_PROPOSTA","cod_imovel":"RJ-3304904-CC8D684F4CFB4A14855C19A6C06761D4","num_area":"17.532100000000000000000000000000","ind_status":"AT"},"geometry":{"type":"Polygon","coordinates":[[[-42.9896,-22.7528],[-42.9844,-22.7595],[-42.9899,-22.7535],[-42.9896,-22.7528]]]}},{"type":"Feature","properties":{"cod_tema":"ARL_PROPOSTA","cod_imovel":"RJ-3304904-C4B6CDDA448C4C67BE7839BC943D58D5","num_area":"1.9819000000000000000000000000000","ind_status":"AT"},"geometry":{"type":"Polygon","coordinates":[[[-42.9783,-22.7634],[-42.9765,-22.7647],[-42.9788,-22.7631],[-42.9783,-22.7634]]]}},{"type":"Feature","properties":{"cod_tema":"ARL_PROPOSTA","cod_imovel":"RJ-3304904-65407450B58B4A4CB90DCC3FB85F1E4F","num_area":"1.5594000000000000000000000000000","ind_status":"AT"},"geometry":{"type":"Polygon","coordinates":[[[-42.9744,-22.7657],[-42.9764,-22.7634],[-42.9743,-22.7657],[-42.9744,-22.7657]]]}},{"type":"Feature","properties":{"cod_tema":"ARL_PROPOSTA","cod_imovel":"RJ-3304904-58F845AC992F44ABB8BC528D15D11097","num_area":"6.1248000000000000000000000000000","ind_status":"AT"},"geometry":{"type":"Polygon","coordinates":[[[-42.9861,-22.7635],[-42.9908,-22.7632],[-42.9892,-22.7614],[-42.9861,-22.7635]]]}},{"type":"Feature","properties":{"cod_tema":"ARL_PROPOSTA","cod_imovel":"RJ-3304904-F1A3A0DA4EC549EEB258E4145775B732","num_area":"9.5400000000000000000000000000000","ind_status":"AT"},"geometry":{"type":"Polygon","coordinates":[[[-42.9742,-22.7628],[-42.9709,-22.7499],[-42.9704,-22.7579],[-42.9723,-22.7571],[-42.9737,-22.7629],[-42.9742,-22.7628]]]}},{"type":"Feature","properties":{"cod_tema":"ARL_PROPOSTA","cod_imovel":"RJ-3304904-5F3AD478D4414306863E0CCEDD083662","num_area":"53.685200000000000000000000000000","ind_status":"AT"},"geometry":{"type":"Polygon","coordinates":[[[-42.961,-22.893],[-42.9642,-22.8942],[-42.9683,-22.8907],[-42.9553,-22.8925],[-42.9519,-22.8895],[-42.9552,-22.8861],[-42.9466,-22.8896],[-42.9543,-22.8932],[-42.9607,-22.8912],[-42.961,-22.893]]]}},{"type":"Feature","properties":{"cod_tema":"ARL_PROPOSTA","cod_imovel":"RJ-3304904-19C570DF77A2491799E10D492029F136","num_area":"105.10420000000000000000000000000","ind_status":"AT"},"geometry":{"type":"Polygon","coordinates":[[[-42.8824,-22.8575],[-42.8807,-22.8609],[-42.8853,-22.8679],[-42.8979,-22.8724],[-42.9025,-22.8783],[-42.8912,-22.8635],[-42.883,-22.8578],[-42.8824,-22.8575]]]}},{"type":"Feature","properties":{"cod_tema":"ARL_PROPOSTA","cod_imovel":"RJ-3304904-ED41932354C648218849DCF24C7BF0E3","num_area":"3.5370000000000000000000000000000","ind_status":"AT"},"geometry":{"type":"Polygon","coordinates":[[[-42.9766,-22.7641],[-42.9788,-22.7628],[-42.9765,-22.7634],[-42.9766,-22.7641]]]}},{"type":"Feature","properties":{"cod_tema":"ARL_PROPOSTA","cod_imovel":"RJ-3304904-D12D0F1947174B138C8CEEDFAD8B4AAA","num_area":"14.688400000000000000000000000000","ind_status":"AT"},"geometry":{"type":"Polygon","coordinates":[[[-42.9813,-22.8623],[-42.9879,-22.8596],[-42.9808,-22.86],[-42.9813,-22.8623]]]}},{"type":"Feature","properties":{"cod_tema":"ARL_PROPOSTA","cod_imovel":"RJ-3304904-4AF1356DFB79406780F013FB385B3FFD","num_area":"28.953300000000000000000000000000","ind_status":"AT"},"geometry":{"type":"Polygon","coordinates":[[[-42.9169,-22.8521],[-42.9142,-22.8518],[-42.9169,-22.8522],[-42.9169,-22.8521]],[[-42.9092,-22.8456],[-42.9123,-22.8467],[-42.9097,-22.8461],[-42.9092,-22.8456]],[[-42.9127,-22.8477],[-42.9168,-22.8483],[-42.9127,-22.8477],[-42.9127,-22.8477]],[[-42.9059,-22.8474],[-42.9084,-22.8482],[-42.9059,-22.8474],[-42.9059,-22.8474]],[[-42.9132,-22.851],[-42.9117,-22.8479],[-42.9081,-22.8491],[-42.9132,-22.851],[-42.9132,-22.851]]]}},{"type":"Feature","properties":{"cod_tema":"ARL_PROPOSTA","cod_imovel":"RJ-3304904-140EB8E1C04044979DC95EA65E699EBA","num_area":"29.409300000000000000000000000000","ind_status":"AT"},"geometry":{"type":"Polygon","coordinates":[[[-42.9714,-22.8671],[-42.9665,-22.8693],[-42.973,-22.8678],[-42.9714,-22.8671]],[[-42.9665,-22.8693],[-42.9695,-22.8695],[-42.9667,-22.8693],[-42.9665,-22.8693]],[[-42.9794,-22.8708],[-42.9736,-22.8729],[-42.9768,-22.8742],[-42.9794,-22.871],[-42.9794,-22.8708]]]}},{"type":"Feature","properties":{"cod_tema":"ARL_PROPOSTA","cod_imovel":"RJ-3304904-177C5522A9204C638237F082FC44AFB7","num_area":"5.0507000000000000000000000000000","ind_status":"AT"},"geometry":{"type":"Polygon","coordinates":[[[-42.9634,-22.8589],[-42.9654,-22.8572],[-42.9629,-22.8579],[-42.9634,-22.8589]]]}},{"type":"Feature","properties":{"cod_tema":"ARL_PROPOSTA","cod_imovel":"RJ-3304904-3B45EC5E81674820B9AA3617372B556B","num_area":"1.9441000000000000000000000000000","ind_status":"AT"},"geometry":{"type":"Polygon","coordinates":[[[-42.9463,-22.8891],[-42.9505,-22.8883],[-42.9464,-22.8892],[-42.9463,-22.8891]]]}},{"type":"Feature","properties":{"cod_tema":"ARL_PROPOSTA","cod_imovel":"RJ-3304904-0C0AF50B19524339931792616AB36444","num_area":"14.380400000000000000000000000000","ind_status":"AT"},"geometry":{"type":"Polygon","coordinates":[[[-42.9893,-22.7504],[-42.9844,-22.752],[-42.9854,-22.7547],[-42.9896,-22.7514],[-42.9893,-22.7504]]]}},{"type":"Feature","properties":{"cod_tema":"ARL_PROPOSTA","cod_imovel":"RJ-3304904-D8246A0057C44E85AB8BFFF2CBF0B4E6","num_area":"5.7493000000000000000000000000000","ind_status":"AT"},"geometry":{"type":"Polygon","coordinates":[[[-42.9816,-22.7619],[-42.979,-22.7651],[-42.9823,-22.7625],[-42.9816,-22.7619]]]}},{"type":"Feature","properties":{"cod_tema":"ARL_PROPOSTA","cod_imovel":"RJ-3304904-627A87F373FC4D55AA5F26BFD0792DA6","num_area":"4.8151000000000000000000000000000","ind_status":"PE"},"geometry":{"type":"Polygon","coordinates":[[[-42.9016,-22.8412],[-42.8989,-22.8431],[-42.9019,-22.8416],[-42.9016,-22.8412]]]}},{"type":"Feature","properties":{"cod_tema":"ARL_PROPOSTA","cod_imovel":"RJ-3304904-E9AFE99653134BD58D12596C79AE5FA8","num_area":"1.4314000000000000000000000000000","ind_status":"AT"},"geometry":{"type":"Polygon","coordinates":[[[-42.9077,-22.8387],[-42.9054,-22.84],[-42.9076,-22.8387],[-42.9077,-22.8387]],[[-42.9074,-22.8387],[-42.9054,-22.8399],[-42.9074,-22.8387],[-42.9074,-22.8387]]]}},{"type":"Feature","properties":{"cod_tema":"ARL_PROPOSTA","cod_imovel":"RJ-3304904-1B1D585906904B80954E588DE95F6924","num_area":"10.829500000000000000000000000000","ind_status":"AT"},"geometry":{"type":"Polygon","coordinates":[[[-42.9823,-22.7625],[-42.9804,-22.7664],[-42.9841,-22.7641],[-42.9823,-22.7625]]]}}]}