{"type":"FeatureCollection","features":[{"type":"Feature","properties":{"cod_tema":"ARL_PROPOSTA","cod_imovel":"RJ-3305000-E2D4F37937924144B0138450643E9CF3","num_area":"4.9000000000000000000000000000000","ind_status":"PE"},"geometry":{"type":"Polygon","coordinates":[[[-41.0939,-21.7381],[-41.1009,-21.7379],[-41.0966,-21.7378],[-41.0939,-21.7381]]]}},{"type":"Feature","properties":{"cod_tema":"ARL_PROPOSTA","cod_imovel":"RJ-3305000-5CF56B1B62684A11A884C1CF6D7F89B0","num_area":"38.000100000000000000000000000000","ind_status":"PE"},"geometry":{"type":"Polygon","coordinates":[[[-41.1196,-21.693],[-41.1168,-21.6922],[-41.1196,-21.6932],[-41.1196,-21.693]],[[-41.1167,-21.6925],[-41.1198,-21.6989],[-41.1167,-21.6925],[-41.1167,-21.6925]],[[-41.1202,-21.7001],[-41.1234,-21.7048],[-41.1296,-21.7024],[-41.1268,-21.6992],[-41.1201,-21.7],[-41.1202,-21.7001]]]}},{"type":"Feature","properties":{"cod_tema":"ARL_PROPOSTA","cod_imovel":"RJ-3305000-C70C0DC5F8D44C39AEED67A588BF151D","num_area":"32.900600000000000000000000000000","ind_status":"PE"},"geometry":{"type":"Polygon","coordinates":[[[-41.0511,-21.8252],[-41.0412,-21.8205],[-41.0397,-21.8225],[-41.0494,-21.8274],[-41.0511,-21.8252]]]}},{"type":"Feature","properties":{"cod_tema":"ARL_PROPOSTA","cod_imovel":"RJ-3305000-CB24F0EA754C4EF4A9FFD9A492CDDDC1","num_area":"3.0043000000000000000000000000000","ind_status":"AT"},"geometry":{"type":"Polygon","coordinates":[[[-41.0811,-21.8829],[-41.0845,-21.8838],[-41.0818,-21.8824],[-41.0811,-21.8829]]]}},{"type":"Feature","properties":{"cod_tema":"ARL_PROPOSTA","cod_imovel":"RJ-3305000-CC084EEF768C422B95FC4C16B6C1DC19","num_area":"14.009000000000000000000000000000","ind_status":"PE"},"geometry":{"type":"Polygon","coordinates":[[[-41.1025,-21.747],[-41.1025,-21.7493],[-41.1078,-21.7487],[-41.1078,-21.7463],[-41.1025,-21.747]]]}},{"type":"Feature","properties":{"cod_tema":"ARL_PROPOSTA","cod_imovel":"RJ-3305000-DB656257031944DE84F68FE433F3D0D1","num_area":"1.9360000000000000000000000000000","ind_status":"PE"},"geometry":{"type":"Polygon","coordinates":[[[-41.0949,-21.7146],[-41.0953,-21.7121],[-41.0942,-21.7145],[-41.0949,-21.7146]]]}},{"type":"Feature","properties":{"cod_tema":"ARL_PROPOSTA","cod_imovel":"RJ-3305000-ED914DE01F544C77B030EA60774DCC7D","num_area":"3.9626000000000000000000000000000","ind_status":"PE"},"geometry":{"type":"Polygon","coordinates":[[[-41.1501,-21.8163],[-41.148,-21.8155],[-41.1493,-21.8178],[-41.1501,-21.8163]]]}},{"type":"Feature","properties":{"cod_tema":"ARL_PROPOSTA","cod_imovel":"RJ-3305000-C288FF8C17BD45A6A2CED63E20BDA3F3","num_area":"5.9581000000000000000000000000000","ind_status":"PE"},"geometry":{"type":"Polygon","coordinates":[[[-41.1399,-21.8049],[-41.131,-21.8038],[-41.1397,-21.8055],[-41.1399,-21.8049]]]}},{"type":"Feature","properties":{"cod_tema":"ARL_PROPOSTA","cod_imovel":"RJ-3305000-D8AE4800763447D7908766761EC602ED","num_area":"2821.2325000000000000000000000000","ind_status":"AT"},"geometry":{"type":"Polygon","coordinates":[[[-41.0217,-21.753],[-41.0129,-21.7915],[-41.0201,-21.7935],[-41.0289,-21.7545],[-41.0248,-21.7386],[-41.023,-21.7466],[-41.0217,-21.753]],[[-41.0304,-21.7504],[-41.0244,-21.7995],[-41.0301,-21.8026],[-41.0354,-21.7748],[-41.0499,-21.7557],[-41.0361,-21.7734],[-41.0322,-21.7939],[-41.0553,-21.7719],[-41.0434,-21.7943],[-41.0642,-21.8036],[-41.071,-21.793],[-41.0641,-21.8036],[-41.0371,-21.8023],[-41.0426,-21.8033],[-41.0453,-21.8077],[-41.0407,-21.8208],[-41.0631,-21.8111],[-41.0829,-21.7585],[-41.0728,-21.7581],[-41.0632,-21.767],[-41.0576,-21.7583],[-41.041,-21.7511],[-41.0417,-21.7599],[-41.0328,-21.7518],[-41.0288,-21.739],[-41.03,-21.7464],[-41.0304,-21.7504]],[[-41.0288,-21.7389],[-41.0318,-21.7286],[-41.036,-21.7288],[-41.0364,-21.7385],[-41.0368,-21.7289],[-41.0262,-21.7284],[-41.0249,-21.7375],[-41.0288,-21.7389],[-41.0288,-21.7389]],[[-41.0385,-21.7407],[-41.0413,-21.7454],[-41.0385,-21.7407],[-41.0385,-21.7407]]]}},{"type":"Feature","properties":{"cod_tema":"ARL_AVERBADA","cod_imovel":"RJ-3305000-D8AE4800763447D7908766761EC602ED","num_area":"772.86850000000000000000000000000","ind_status":"AT"},"geometry":{"type":"Polygon","coordinates":[[[-41.0302,-21.7446],[-41.0344,-21.7578],[-41.0417,-21.7599],[-41.0435,-21.7554],[-41.0364,-21.7386],[-41.036,-21.7288],[-41.0318,-21.7286],[-41.0301,-21.7441],[-41.0302,-21.7446]],[[-41.0321,-21.7939],[-41.0299,-21.8027],[-41.034,-21.8046],[-41.041,-21.8007],[-41.0434,-21.7943],[-41.0468,-21.7954],[-41.0553,-21.7719],[-41.0451,-21.7668],[-41.0321,-21.7939]]]}},{"type":"Feature","properties":{"cod_tema":"ARL_PROPOSTA","cod_imovel":"RJ-3305000-C19A6CE0ABD14FC183F3F1A144D26B32","num_area":"6.5159000000000000000000000000000","ind_status":"PE"},"geometry":{"type":"Polygon","coordinates":[[[-41.1205,-21.8206],[-41.1155,-21.8172],[-41.1206,-21.8206],[-41.1205,-21.8206]]]}},{"type":"Feature","properties":{"cod_tema":"ARL_PROPOSTA","cod_imovel":"RJ-3305000-0BE1C186108C48E3B49C8522A078BDBF","num_area":"38.283700000000000000000000000000","ind_status":"PE"},"geometry":{"type":"Polygon","coordinates":[[[-41.1152,-21.7074],[-41.1126,-21.7008],[-41.111,-21.7125],[-41.1153,-21.7112],[-41.1152,-21.7074]]]}},{"type":"Feature","properties":{"cod_tema":"ARL_PROPOSTA","cod_imovel":"RJ-3305000-4832AF165092413EA5017DDC3C02C2D5","num_area":"3.3639000000000000000000000000000","ind_status":"PE"},"geometry":{"type":"Polygon","coordinates":[[[-41.1921,-21.7294],[-41.1948,-21.7317],[-41.1923,-21.7292],[-41.1921,-21.7294]]]}},{"type":"Feature","properties":{"cod_tema":"ARL_PROPOSTA","cod_imovel":"RJ-3305000-6530F8F4CF534C1A97BD4FE5165B3CE5","num_area":"6.6267000000000000000000000000000","ind_status":"AT"},"geometry":{"type":"Polygon","coordinates":[[[-41.1238,-21.8448],[-41.1217,-21.8422],[-41.1235,-21.8453],[-41.1238,-21.8448]],[[-41.1235,-21.8453],[-41.1208,-21.8438],[-41.123,-21.846],[-41.1235,-21.8453]]]}},{"type":"Feature","properties":{"cod_tema":"ARL_PROPOSTA","cod_imovel":"RJ-3305000-6361A70C9B624BB7837D71AF0D7AA4FA","num_area":"2.7937000000000000000000000000000","ind_status":"AT"},"geometry":{"type":"Polygon","coordinates":[[[-41.1375,-21.7259],[-41.1379,-21.7307],[-41.1381,-21.7259],[-41.1375,-21.7259]]]}},{"type":"Feature","properties":{"cod_tema":"ARL_PROPOSTA","cod_imovel":"RJ-3305000-8BCF5AF5D2B241B6999AF431E36F6E4B","num_area":"102.65180000000000000000000000000","ind_status":"PE"},"geometry":{"type":"Polygon","coordinates":[[[-41.1209,-21.7008],[-41.1182,-21.6932],[-41.1115,-21.6918],[-41.1176,-21.6933],[-41.1133,-21.6996],[-41.1155,-21.7111],[-41.123,-21.7048],[-41.1203,-21.7005],[-41.1209,-21.7008]]]}},{"type":"Feature","properties":{"cod_tema":"ARL_PROPOSTA","cod_imovel":"RJ-3305000-A87C80CBA5114D75BC51F6A804E6B45E","num_area":"1.5938000000000000000000000000000","ind_status":"PE"},"geometry":{"type":"Polygon","coordinates":[[[-41.151,-21.7986],[-41.1469,-21.7982],[-41.1509,-21.7987],[-41.151,-21.7986]]]}},{"type":"Feature","properties":{"cod_tema":"ARL_PROPOSTA","cod_imovel":"RJ-3305000-D757661BB198485B819131C4C72BDED9","num_area":"5.0736000000000000000000000000000","ind_status":"PE"},"geometry":{"type":"Polygon","coordinates":[[[-41.1559,-21.7951],[-41.1611,-21.7959],[-41.1562,-21.7942],[-41.1559,-21.7951]]]}},{"type":"Feature","properties":{"cod_tema":"ARL_PROPOSTA","cod_imovel":"RJ-3305000-33D132A9F6DD4F24A196722620F2287A","num_area":"5.8390000000000000000000000000000","ind_status":"AT"},"geometry":{"type":"Polygon","coordinates":[[[-41.0516,-21.8205],[-41.0546,-21.8204],[-41.0517,-21.8196],[-41.0516,-21.8205]]]}},{"type":"Feature","properties":{"cod_tema":"ARL_PROPOSTA","cod_imovel":"RJ-3305000-4920F91F087445F1BEE99EEB87D15E71","num_area":"2.1936000000000000000000000000000","ind_status":"AT"},"geometry":{"type":"Polygon","coordinates":[[[-41.0266,-21.6397],[-41.0273,-21.6435],[-41.0263,-21.64],[-41.0266,-21.6397]],[[-41.027,-21.6436],[-41.0262,-21.6393],[-41.0269,-21.6436],[-41.027,-21.6436]]]}},{"type":"Feature","properties":{"cod_tema":"ARL_PROPOSTA","cod_imovel":"RJ-3305000-9BBE76DA9AE4463B8C5E64398A8D8DB2","num_area":"7.7969000000000000000000000000000","ind_status":"AT"},"geometry":{"type":"Polygon","coordinates":[[[-41.0919,-21.7252],[-41.0907,-21.7199],[-41.0912,-21.7251],[-41.0919,-21.7252]]]}},{"type":"Feature","properties":{"cod_tema":"ARL_PROPOSTA","cod_imovel":"RJ-3305000-95D98175D8E7476ABB437D0CA4E50B12","num_area":"2.6449000000000000000000000000000","ind_status":"PE"},"geometry":{"type":"Polygon","coordinates":[[[-41.126,-21.6841],[-41.1231,-21.6853],[-41.126,-21.6841],[-41.126,-21.6841]]]}},{"type":"Feature","properties":{"cod_tema":"ARL_PROPOSTA","cod_imovel":"RJ-3305000-7116E307801E409C881D587911C46D57","num_area":"24.442700000000000000000000000000","ind_status":"PE"},"geometry":{"type":"Polygon","coordinates":[[[-41.1262,-21.695],[-41.1316,-21.7032],[-41.1252,-21.6849],[-41.1262,-21.695]]]}},{"type":"Feature","properties":{"cod_tema":"ARL_PROPOSTA","cod_imovel":"RJ-3305000-46C71BE24B2F4C0AA2C25C830458D34D","num_area":"6.2251000000000000000000000000000","ind_status":"AT"},"geometry":{"type":"Polygon","coordinates":[[[-41.1489,-21.7151],[-41.1415,-21.7113],[-41.1482,-21.7157],[-41.1489,-21.7151]]]}},{"type":"Feature","properties":{"cod_tema":"ARL_PROPOSTA","cod_imovel":"RJ-3305000-3799C014FB9A41DB9DC6CFEF2B9193FA","num_area":"1.2240000000000000000000000000000","ind_status":"AT"},"geometry":{"type":"Polygon","coordinates":[[[-41.154,-21.7089],[-41.1557,-21.7069],[-41.154,-21.7089],[-41.154,-21.7089]]]}},{"type":"Feature","properties":{"cod_tema":"ARL_PROPOSTA","cod_imovel":"RJ-3305000-C1FA2C95E0504C73981F5B4D5D99135A","num_area":"45.455700000000000000000000000000","ind_status":"PE"},"geometry":{"type":"Polygon","coordinates":[[[-41.1402,-21.6961],[-41.1418,-21.7017],[-41.1533,-21.7057],[-41.1403,-21.696],[-41.1402,-21.6961]],[[-41.1346,-21.702],[-41.1319,-21.703],[-41.1457,-21.7058],[-41.1345,-21.7028],[-41.1346,-21.702]],[[-41.1428,-21.7026],[-41.1525,-21.7082],[-41.1427,-21.7025],[-41.1428,-21.7026]]]}},{"type":"Feature","properties":{"cod_tema":"ARL_PROPOSTA","cod_imovel":"RJ-3305000-208A867F14B243BEBB3F780E24EEB046","num_area":"13.355900000000000000000000000000","ind_status":"AT"},"geometry":{"type":"Polygon","coordinates":[[[-41.0322,-21.9123],[-41.0323,-21.9092],[-41.03,-21.9106],[-41.0322,-21.9123]],[[-41.0242,-21.906],[-41.0274,-21.9086],[-41.0249,-21.9056],[-41.0242,-21.906]]]}},{"type":"Feature","properties":{"cod_tema":"ARL_PROPOSTA","cod_imovel":"RJ-3305000-9F82F7B2286A4D78BF4D554C147E51C3","num_area":"2.9428000000000000000000000000000","ind_status":"PE"},"geometry":{"type":"Polygon","coordinates":[[[-41.0639,-21.8658],[-41.0665,-21.8659],[-41.064,-21.8656],[-41.0639,-21.8658]]]}},{"type":"Feature","properties":{"cod_tema":"ARL_PROPOSTA","cod_imovel":"RJ-3305000-A241C1BC21FC4BDD851194188D674341","num_area":"15.824700000000000000000000000000","ind_status":"PE"},"geometry":{"type":"Polygon","coordinates":[[[-41.1648,-21.7212],[-41.1592,-21.719],[-41.1624,-21.7236],[-41.1648,-21.7212]]]}},{"type":"Feature","properties":{"cod_tema":"ARL_PROPOSTA","cod_imovel":"RJ-3305000-5F881EE3410043FB946341D02EB7D7A8","num_area":"8.7874000000000000000000000000000","ind_status":"PE"},"geometry":{"type":"Polygon","coordinates":[[[-41.0323,-21.9028],[-41.0275,-21.9023],[-41.0322,-21.9028],[-41.0323,-21.9028]]]}},{"type":"Feature","properties":{"cod_tema":"ARL_PROPOSTA","cod_imovel":"RJ-3305000-81988319165445B9BB2E53450130F960","num_area":"1.4158000000000000000000000000000","ind_status":"AT"},"geometry":{"type":"Polygon","coordinates":[[[-41.1339,-21.7671],[-41.1359,-21.7665],[-41.1339,-21.7668],[-41.1339,-21.7671]]]}},{"type":"Feature","properties":{"cod_tema":"ARL_PROPOSTA","cod_imovel":"RJ-3305000-DF964703E8734602AD5C4C2D0B2E1C8E","num_area":"5.7108000000000000000000000000000","ind_status":"PE"},"geometry":{"type":"Polygon","coordinates":[[[-41.074,-21.6734],[-41.0749,-21.6829],[-41.0747,-21.6743],[-41.074,-21.6734]]]}},{"type":"Feature","properties":{"cod_tema":"ARL_PROPOSTA","cod_imovel":"RJ-3305000-F93D810821394DE89BF5401AAC51A16B","num_area":"6.9691000000000000000000000000000","ind_status":"PE"},"geometry":{"type":"Polygon","coordinates":[[[-41.0412,-21.6458],[-41.0426,-21.6427],[-41.0405,-21.6442],[-41.0412,-21.6458]]]}},{"type":"Feature","properties":{"cod_tema":"ARL_PROPOSTA","cod_imovel":"RJ-3305000-AE55E716B895442BA4FFE8C3A8575FEC","num_area":"2.5299000000000000000000000000000","ind_status":"AT"},"geometry":{"type":"Polygon","coordinates":[[[-41.0968,-21.867],[-41.0919,-21.8652],[-41.095,-21.8662],[-41.0968,-21.867]]]}},{"type":"Feature","properties":{"cod_tema":"ARL_PROPOSTA","cod_imovel":"RJ-3305000-7F0DEC33BBB24F38A6EE422D954E7385","num_area":"3.8364000000000000000000000000000","ind_status":"AT"},"geometry":{"type":"Polygon","coordinates":[[[-41.1473,-21.7874],[-41.1438,-21.7869],[-41.1479,-21.7876],[-41.1473,-21.7874]]]}},{"type":"Feature","properties":{"cod_tema":"ARL_PROPOSTA","cod_imovel":"RJ-3305000-E05357629417450FB45CC017BF11EB57","num_area":"2.1716000000000000000000000000000","ind_status":"AT"},"geometry":{"type":"Polygon","coordinates":[[[-41.0732,-21.8737],[-41.0768,-21.8746],[-41.0736,-21.8732],[-41.0732,-21.8737]]]}},{"type":"Feature","properties":{"cod_tema":"ARL_PROPOSTA","cod_imovel":"RJ-3305000-70C4F862738C4C6ABFF7AAE86E9BD875","num_area":"6.3379000000000000000000000000000","ind_status":"AT"},"geometry":{"type":"Polygon","coordinates":[[[-41.0635,-21.7222],[-41.0642,-21.7185],[-41.0627,-21.7218],[-41.0635,-21.7222]]]}},{"type":"Feature","properties":{"cod_tema":"ARL_PROPOSTA","cod_imovel":"RJ-3305000-70FB1205742B4AC4970286BE4695C82C","num_area":"1.1154000000000000000000000000000","ind_status":"AT"},"geometry":{"type":"Polygon","coordinates":[[[-41.0791,-21.8842],[-41.081,-21.8854],[-41.0794,-21.8839],[-41.0791,-21.8842]]]}},{"type":"Feature","properties":{"cod_tema":"ARL_PROPOSTA","cod_imovel":"RJ-3305000-A288C6DB0D3246938E17C70B20235399","num_area":"2.8322000000000000000000000000000","ind_status":"PE"},"geometry":{"type":"Polygon","coordinates":[[[-41.1278,-21.8228],[-41.1275,-21.826],[-41.1277,-21.823],[-41.1278,-21.8228]]]}},{"type":"Feature","properties":{"cod_tema":"ARL_PROPOSTA","cod_imovel":"RJ-3305000-B95D1C6353F1452EA50E3E64DD6FE938","num_area":"4.8399000000000000000000000000000","ind_status":"PE"},"geometry":{"type":"Polygon","coordinates":[[[-41.0749,-21.6833],[-41.0765,-21.6857],[-41.0749,-21.6829],[-41.0749,-21.6833]]]}},{"type":"Feature","properties":{"cod_tema":"ARL_PROPOSTA","cod_imovel":"RJ-3305000-AECEA84299264C57AA74E52FF529FB60","num_area":"1.8180000000000000000000000000000","ind_status":"PE"},"geometry":{"type":"Polygon","coordinates":[[[-41.0974,-21.7677],[-41.0939,-21.7659],[-41.0973,-21.7681],[-41.0974,-21.7677]]]}},{"type":"Feature","properties":{"cod_tema":"ARL_PROPOSTA","cod_imovel":"RJ-3305000-54580AC70A55451E8C31A75997E12D87","num_area":"3.2783000000000000000000000000000","ind_status":"PE"},"geometry":{"type":"Polygon","coordinates":[[[-41.0643,-21.8709],[-41.0611,-21.8707],[-41.0639,-21.8718],[-41.0643,-21.8709]]]}},{"type":"Feature","properties":{"cod_tema":"ARL_PROPOSTA","cod_imovel":"RJ-3305000-DAD69E49165F4EF59365822825E4D5B7","num_area":"4.3065000000000000000000000000000","ind_status":"PE"},"geometry":{"type":"Polygon","coordinates":[[[-41.1229,-21.8423],[-41.1256,-21.8421],[-41.1234,-21.8413],[-41.1229,-21.8423]]]}},{"type":"Feature","properties":{"cod_tema":"ARL_PROPOSTA","cod_imovel":"RJ-3305000-170D74B3E90D4DEF95242BF49A1AB018","num_area":"4.8826000000000000000000000000000","ind_status":"PE"},"geometry":{"type":"Polygon","coordinates":[[[-41.1323,-21.845],[-41.1302,-21.8488],[-41.1325,-21.8448],[-41.1323,-21.845]]]}},{"type":"Feature","properties":{"cod_tema":"ARL_PROPOSTA","cod_imovel":"RJ-3305000-1D5F4F1598EE47A38F85AD80FA42B779","num_area":"2.3375000000000000000000000000000","ind_status":"PE"},"geometry":{"type":"Polygon","coordinates":[[[-41.1108,-21.8509],[-41.1127,-21.8502],[-41.1107,-21.8509],[-41.1108,-21.8509]]]}},{"type":"Feature","properties":{"cod_tema":"ARL_PROPOSTA","cod_imovel":"RJ-3305000-8E1C1DE8862D48A988E8A4234D54875F","num_area":"4.7792000000000000000000000000000","ind_status":"PE"},"geometry":{"type":"Polygon","coordinates":[[[-41.1168,-21.8511],[-41.1196,-21.8534],[-41.1173,-21.8503],[-41.1168,-21.8511]]]}},{"type":"Feature","properties":{"cod_tema":"ARL_PROPOSTA","cod_imovel":"RJ-3305000-19FC8DDA94494560B45B81DF500DAA60","num_area":"5.1727000000000000000000000000000","ind_status":"AT"},"geometry":{"type":"Polygon","coordinates":[[[-41.1201,-21.8674],[-41.1229,-21.8665],[-41.1199,-21.8672],[-41.1201,-21.8674]]]}},{"type":"Feature","properties":{"cod_tema":"ARL_PROPOSTA","cod_imovel":"RJ-3305000-21E81CC8885E454FBB9855DAC1579F82","num_area":"4.2471000000000000000000000000000","ind_status":"PE"},"geometry":{"type":"Polygon","coordinates":[[[-41.127,-21.8628],[-41.1281,-21.8604],[-41.1262,-21.8636],[-41.127,-21.8628]]]}},{"type":"Feature","properties":{"cod_tema":"ARL_PROPOSTA","cod_imovel":"RJ-3305000-1BF2DDAF62B74B4AA1E87107A298AE40","num_area":"4.0141000000000000000000000000000","ind_status":"AT"},"geometry":{"type":"Polygon","coordinates":[[[-41.1389,-21.7449],[-41.1378,-21.7426],[-41.1381,-21.7466],[-41.1389,-21.7449]]]}},{"type":"Feature","properties":{"cod_tema":"ARL_PROPOSTA","cod_imovel":"RJ-3305000-E3FC464F40594385A7331A59AD1C90B0","num_area":"4.9324000000000000000000000000000","ind_status":"AT"},"geometry":{"type":"Polygon","coordinates":[[[-41.0458,-21.8763],[-41.0379,-21.8701],[-41.0453,-21.8765],[-41.0458,-21.8763]]]}},{"type":"Feature","properties":{"cod_tema":"ARL_PROPOSTA","cod_imovel":"RJ-3305000-26036C03C0CE48109294D7AF2A14113B","num_area":"22.096200000000000000000000000000","ind_status":"AT"},"geometry":{"type":"Polygon","coordinates":[[[-41.1105,-21.6955],[-41.1106,-21.7051],[-41.1152,-21.7079],[-41.1107,-21.696],[-41.1105,-21.6955]]]}},{"type":"Feature","properties":{"cod_tema":"ARL_PROPOSTA","cod_imovel":"RJ-3305000-3BA404A0A8F24622A6736ECB536936D0","num_area":"10.770300000000000000000000000000","ind_status":"PE"},"geometry":{"type":"Polygon","coordinates":[[[-41.1266,-21.8633],[-41.1289,-21.8612],[-41.1254,-21.8617],[-41.1266,-21.8633]],[[-41.1168,-21.8512],[-41.1197,-21.8547],[-41.1173,-21.8504],[-41.1168,-21.8512]]]}},{"type":"Feature","properties":{"cod_tema":"ARL_PROPOSTA","cod_imovel":"RJ-3305000-D2FE6D2EDBAD4D2481C7B89C3E84EF9C","num_area":"8.1074000000000000000000000000000","ind_status":"PE"},"geometry":{"type":"Polygon","coordinates":[[[-41.1557,-21.7069],[-41.1605,-21.7093],[-41.1559,-21.707],[-41.1557,-21.7069]],[[-41.1666,-21.7137],[-41.1643,-21.712],[-41.1662,-21.7141],[-41.1666,-21.7137]],[[-41.1555,-21.7104],[-41.1657,-21.7148],[-41.1555,-21.7104],[-41.1555,-21.7104]]]}},{"type":"Feature","properties":{"cod_tema":"ARL_PROPOSTA","cod_imovel":"RJ-3305000-2D93AD1435CC4013AD00A56CDA2B840F","num_area":"1.7859000000000000000000000000000","ind_status":"AT"},"geometry":{"type":"Polygon","coordinates":[[[-41.041,-21.6557],[-41.039,-21.6561],[-41.0411,-21.6564],[-41.041,-21.6557]]]}},{"type":"Feature","properties":{"cod_tema":"ARL_PROPOSTA","cod_imovel":"RJ-3305000-FE73F59CD25745F8B9BCFFA8205AAEC8","num_area":"3.5278000000000000000000000000000","ind_status":"AT"},"geometry":{"type":"Polygon","coordinates":[[[-41.0388,-21.6289],[-41.0369,-21.626],[-41.0381,-21.6276],[-41.0388,-21.6289]]]}},{"type":"Feature","properties":{"cod_tema":"ARL_PROPOSTA","cod_imovel":"RJ-3305000-2CA6F62781DC4CD68F2DC5A9EA7B91FC","num_area":"7.3274000000000000000000000000000","ind_status":"PE"},"geometry":{"type":"Polygon","coordinates":[[[-41.0964,-21.6904],[-41.0935,-21.692],[-41.0958,-21.6929],[-41.0964,-21.6904]]]}},{"type":"Feature","properties":{"cod_tema":"ARL_PROPOSTA","cod_imovel":"RJ-3305000-61E340B164E74F93BCF69FA0F35010DB","num_area":"4.1230000000000000000000000000000","ind_status":"AT"},"geometry":{"type":"Polygon","coordinates":[[[-41.115,-21.7774],[-41.1129,-21.7763],[-41.1148,-21.7779],[-41.115,-21.7774]],[[-41.1036,-21.7716],[-41.1012,-21.7704],[-41.1034,-21.772],[-41.1036,-21.7716]]]}},{"type":"Feature","properties":{"cod_tema":"ARL_PROPOSTA","cod_imovel":"RJ-3305000-2BA19596E3484C949660B5D071E4795F","num_area":"4.1272000000000000000000000000000","ind_status":"AT"},"geometry":{"type":"Polygon","coordinates":[[[-41.0464,-21.6987],[-41.0476,-21.6963],[-41.0459,-21.6987],[-41.0464,-21.6987]]]}},{"type":"Feature","properties":{"cod_tema":"ARL_PROPOSTA","cod_imovel":"RJ-3305000-0387AB35467E47B19046F15984AD521F","num_area":"3.1118000000000000000000000000000","ind_status":"AT"},"geometry":{"type":"Polygon","coordinates":[[[-41.1495,-21.8003],[-41.1526,-21.7997],[-41.1498,-21.7993],[-41.1495,-21.8003]]]}},{"type":"Feature","properties":{"cod_tema":"ARL_PROPOSTA","cod_imovel":"RJ-3305000-C8B02FAD30E543B3B979A558E496C228","num_area":"14.214400000000000000000000000000","ind_status":"AT"},"geometry":{"type":"Polygon","coordinates":[[[-41.1428,-21.7368],[-41.1392,-21.7412],[-41.1425,-21.7382],[-41.1428,-21.7368]],[[-41.1361,-21.738],[-41.1384,-21.7414],[-41.1363,-21.7385],[-41.1361,-21.738]]]}},{"type":"Feature","properties":{"cod_tema":"ARL_PROPOSTA","cod_imovel":"RJ-3305000-068B881CE38E4880BCF640643ABE8816","num_area":"0.5368000000000000000000000000000","ind_status":"AT"},"geometry":{"type":"Polygon","coordinates":[[[-41.0977,-21.8683],[-41.0948,-21.8669],[-41.0975,-21.8684],[-41.0977,-21.8683]]]}},{"type":"Feature","properties":{"cod_tema":"ARL_PROPOSTA","cod_imovel":"RJ-3305000-AC237E49F79F447D8E381BDC233399D9","num_area":"7.3949000000000000000000000000000","ind_status":"AT"},"geometry":{"type":"Polygon","coordinates":[[[-41.0597,-21.9041],[-41.0642,-21.9055],[-41.0618,-21.9042],[-41.0597,-21.9041]]]}},{"type":"Feature","properties":{"cod_tema":"ARL_PROPOSTA","cod_imovel":"RJ-3305000-DA6AA724572A42E8AE9B182DA885CD97","num_area":"3.4678000000000000000000000000000","ind_status":"AT"},"geometry":{"type":"Polygon","coordinates":[[[-41.0699,-21.6881],[-41.0698,-21.6843],[-41.0699,-21.6881],[-41.0699,-21.6881]]]}},{"type":"Feature","properties":{"cod_tema":"ARL_PROPOSTA","cod_imovel":"RJ-3305000-96D87024F3A04EB7AF860F1325FBD52B","num_area":"1.7332000000000000000000000000000","ind_status":"AT"},"geometry":{"type":"Polygon","coordinates":[[[-41.0771,-21.6828],[-41.0749,-21.6836],[-41.0771,-21.683],[-41.0771,-21.6828]]]}},{"type":"Feature","properties":{"cod_tema":"ARL_PROPOSTA","cod_imovel":"RJ-3305000-C9AAB8948D2F4BA59917FBD73296611A","num_area":"1.9726000000000000000000000000000","ind_status":"PE"},"geometry":{"type":"Polygon","coordinates":[[[-41.048,-21.9154],[-41.0504,-21.9169],[-41.0489,-21.915],[-41.048,-21.9154]]]}},{"type":"Feature","properties":{"cod_tema":"ARL_PROPOSTA","cod_imovel":"RJ-3305000-E4869A6AB20B4D5CA4D54EFE50E42642","num_area":"4.3934000000000000000000000000000","ind_status":"PE"},"geometry":{"type":"Polygon","coordinates":[[[-41.1242,-21.8443],[-41.1227,-21.8401],[-41.1219,-21.8422],[-41.1242,-21.8443]]]}},{"type":"Feature","properties":{"cod_tema":"ARL_PROPOSTA","cod_imovel":"RJ-3305000-A3463304028A4EC9947929273968E045","num_area":"2.2278000000000000000000000000000","ind_status":"AT"},"geometry":{"type":"Polygon","coordinates":[[[-41.1451,-21.7307],[-41.1428,-21.7319],[-41.1455,-21.7307],[-41.1451,-21.7307]]]}},{"type":"Feature","properties":{"cod_tema":"ARL_PROPOSTA","cod_imovel":"RJ-3305000-282EC619E50D4F78A5B62AF887096A3D","num_area":"181.98030000000000000000000000000","ind_status":"AT"},"geometry":{"type":"Polygon","coordinates":[[[-41.166,-21.7799],[-41.1699,-21.7845],[-41.1758,-21.7778],[-41.166,-21.7798],[-41.166,-21.7799]],[[-41.1655,-21.7795],[-41.1767,-21.7767],[-41.173,-21.7592],[-41.1689,-21.7605],[-41.1709,-21.7654],[-41.167,-21.7668],[-41.1691,-21.7718],[-41.1651,-21.7733],[-41.1654,-21.7796],[-41.1655,-21.7795]]]}},{"type":"Feature","properties":{"cod_tema":"ARL_PROPOSTA","cod_imovel":"RJ-3305000-063BCD8A490F4C6E9D715FE82A4756BD","num_area":"6.6439000000000000000000000000000","ind_status":"AT"},"geometry":{"type":"Polygon","coordinates":[[[-41.1427,-21.7361],[-41.1415,-21.7341],[-41.1399,-21.7367],[-41.1427,-21.7361]]]}},{"type":"Feature","properties":{"cod_tema":"ARL_PROPOSTA","cod_imovel":"RJ-3305000-52EBC25640FC43D7948CB94496C03A53","num_area":"3.7911000000000000000000000000000","ind_status":"AT"},"geometry":{"type":"Polygon","coordinates":[[[-41.1443,-21.764],[-41.141,-21.7677],[-41.1452,-21.7638],[-41.1443,-21.764]]]}},{"type":"Feature","properties":{"cod_tema":"ARL_PROPOSTA","cod_imovel":"RJ-3305000-A02C96D531C242ACBD1FDCC588012BB7","num_area":"5.7145000000000000000000000000000","ind_status":"AT"},"geometry":{"type":"Polygon","coordinates":[[[-41.1433,-21.793],[-41.1397,-21.7939],[-41.1428,-21.7945],[-41.1433,-21.793]]]}},{"type":"Feature","properties":{"cod_tema":"ARL_PROPOSTA","cod_imovel":"RJ-3305000-B5592E0C68D64967B7C3C27C36A43F99","num_area":"21.362300000000000000000000000000","ind_status":"AT"},"geometry":{"type":"Polygon","coordinates":[[[-41.0857,-21.7803],[-41.0903,-21.7815],[-41.0778,-21.774],[-41.0835,-21.7789],[-41.0857,-21.7803]]]}},{"type":"Feature","properties":{"cod_tema":"ARL_PROPOSTA","cod_imovel":"RJ-3305000-B0F799C12B73481889C44D226DCD88A4","num_area":"4.7182000000000000000000000000000","ind_status":"PE"},"geometry":{"type":"Polygon","coordinates":[[[-41.0155,-21.8992],[-41.013,-21.8967],[-41.0151,-21.8994],[-41.0155,-21.8992]]]}},{"type":"Feature","properties":{"cod_tema":"ARL_PROPOSTA","cod_imovel":"RJ-3305000-E7DB7AC2DA744A33AC54F92D001CF206","num_area":"2.9431000000000000000000000000000","ind_status":"PE"},"geometry":{"type":"Polygon","coordinates":[[[-41.1103,-21.8579],[-41.1082,-21.8599],[-41.1103,-21.858],[-41.1103,-21.8579]]]}},{"type":"Feature","properties":{"cod_tema":"ARL_PROPOSTA","cod_imovel":"RJ-3305000-C94124768FBA46D586897B867F08352C","num_area":"4.2588000000000000000000000000000","ind_status":"AT"},"geometry":{"type":"Polygon","coordinates":[[[-41.1217,-21.8176],[-41.1176,-21.8152],[-41.1217,-21.8177],[-41.1217,-21.8176]]]}},{"type":"Feature","properties":{"cod_tema":"ARL_PROPOSTA","cod_imovel":"RJ-3305000-96202726957E4F3E8425EB8F810F3693","num_area":"5.6139000000000000000000000000000","ind_status":"CA"},"geometry":{"type":"Polygon","coordinates":[[[-41.1006,-21.7573],[-41.097,-21.7569],[-41.1003,-21.7588],[-41.1006,-21.7573]]]}},{"type":"Feature","properties":{"cod_tema":"ARL_PROPOSTA","cod_imovel":"RJ-3305000-B324029C515C4B50A8E283F4C430048F","num_area":"3.9486000000000000000000000000000","ind_status":"PE"},"geometry":{"type":"Polygon","coordinates":[[[-41.0885,-21.8736],[-41.0866,-21.8722],[-41.0888,-21.8738],[-41.0885,-21.8736]],[[-41.0827,-21.8729],[-41.0805,-21.8711],[-41.0825,-21.8727],[-41.0827,-21.8729]]]}},{"type":"Feature","properties":{"cod_tema":"ARL_PROPOSTA","cod_imovel":"RJ-3305000-830BD350584041B5B8192FD5CD977EB4","num_area":"6.5375000000000000000000000000000","ind_status":"AT"},"geometry":{"type":"Polygon","coordinates":[[[-41.1159,-21.8526],[-41.1176,-21.8587],[-41.1159,-21.8526],[-41.1159,-21.8526]]]}},{"type":"Feature","properties":{"cod_tema":"ARL_PROPOSTA","cod_imovel":"RJ-3305000-DCADAAB588334C67A36D2741987733FE","num_area":"17.208700000000000000000000000000","ind_status":"PE"},"geometry":{"type":"Polygon","coordinates":[[[-41.0727,-21.8929],[-41.0716,-21.8963],[-41.0726,-21.8937],[-41.0727,-21.8929]],[[-41.0728,-21.8971],[-41.077,-21.8941],[-41.0749,-21.8915],[-41.0729,-21.897],[-41.0728,-21.8971]]]}},{"type":"Feature","properties":{"cod_tema":"ARL_PROPOSTA","cod_imovel":"RJ-3305000-B1E25434F0764E6D85A61CDE23D69086","num_area":"3.2673000000000000000000000000000","ind_status":"AT"},"geometry":{"type":"Polygon","coordinates":[[[-41.0928,-21.7964],[-41.0897,-21.7947],[-41.0925,-21.7972],[-41.0928,-21.7964]]]}},{"type":"Feature","properties":{"cod_tema":"ARL_PROPOSTA","cod_imovel":"RJ-3305000-6D71AB0020C14924BEE566AA53A75EF8","num_area":"0.9991000000000000000000000000000","ind_status":"PE"},"geometry":{"type":"Polygon","coordinates":[[[-41.0804,-21.7687],[-41.0848,-21.7709],[-41.0804,-21.7686],[-41.0804,-21.7687]]]}},{"type":"Feature","properties":{"cod_tema":"ARL_PROPOSTA","cod_imovel":"RJ-3305000-25162B195B7941799318491606BEB564","num_area":"5.7108000000000000000000000000000","ind_status":"PE"},"geometry":{"type":"Polygon","coordinates":[[[-41.074,-21.6734],[-41.0749,-21.6829],[-41.0747,-21.6743],[-41.074,-21.6734]]]}},{"type":"Feature","properties":{"cod_tema":"ARL_PROPOSTA","cod_imovel":"RJ-3305000-FDE8766E095D48FCAB22FA671D6009C1","num_area":"7.3991000000000000000000000000000","ind_status":"AT"},"geometry":{"type":"Polygon","coordinates":[[[-41.1342,-21.776],[-41.1326,-21.7742],[-41.1343,-21.7766],[-41.1342,-21.776]]]}},{"type":"Feature","properties":{"cod_tema":"ARL_PROPOSTA","cod_imovel":"RJ-3305000-5EE9F460C72D4C54ACD79109B2127566","num_area":"1.3146000000000000000000000000000","ind_status":"CA"},"geometry":{"type":"Polygon","coordinates":[[[-41.1004,-21.7568],[-41.0977,-21.7569],[-41.1003,-21.7573],[-41.1004,-21.7568]]]}},{"type":"Feature","properties":{"cod_tema":"ARL_PROPOSTA","cod_imovel":"RJ-3305000-890999236C1B4AB89D5BF0F675AAF333","num_area":"6.1792000000000000000000000000000","ind_status":"PE"},"geometry":{"type":"Polygon","coordinates":[[[-41.1409,-21.7899],[-41.1419,-21.7927],[-41.141,-21.7898],[-41.1409,-21.7899]]]}},{"type":"Feature","properties":{"cod_tema":"ARL_PROPOSTA","cod_imovel":"RJ-3305000-55BF8F98DE644DD89BBE5B815E181C1A","num_area":"8.8479000000000000000000000000000","ind_status":"AT"},"geometry":{"type":"Polygon","coordinates":[[[-41.1454,-21.8867],[-41.1419,-21.8871],[-41.1419,-21.8899],[-41.1454,-21.8867]]]}},{"type":"Feature","properties":{"cod_tema":"ARL_PROPOSTA","cod_imovel":"RJ-3305000-A4E4EA31B0B5471A84F86AFDD98A4ED8","num_area":"17.849900000000000000000000000000","ind_status":"PE"},"geometry":{"type":"Polygon","coordinates":[[[-41.0897,-21.8956],[-41.0878,-21.8944],[-41.0913,-21.8925],[-41.0867,-21.8909],[-41.0851,-21.8938],[-41.0896,-21.8959],[-41.0897,-21.8956]]]}},{"type":"Feature","properties":{"cod_tema":"ARL_PROPOSTA","cod_imovel":"RJ-3305000-2087B4D535E446DAAB6C3B32A6041EDD","num_area":"14.038300000000000000000000000000","ind_status":"AT"},"geometry":{"type":"Polygon","coordinates":[[[-41.0337,-21.898],[-41.0395,-21.9],[-41.0343,-21.8973],[-41.0337,-21.898]],[[-41.048,-21.9066],[-41.0513,-21.9085],[-41.0486,-21.9058],[-41.048,-21.9066]]]}},{"type":"Feature","properties":{"cod_tema":"ARL_PROPOSTA","cod_imovel":"RJ-3305000-2B62BB33439D4414AB061ECF70F58D4D","num_area":"18.125800000000000000000000000000","ind_status":"AT"},"geometry":{"type":"Polygon","coordinates":[[[-41.1478,-21.7597],[-41.1397,-21.7625],[-41.1443,-21.7641],[-41.1478,-21.7597]]]}},{"type":"Feature","properties":{"cod_tema":"ARL_PROPOSTA","cod_imovel":"RJ-3305000-86A87E1F0EBE4FFCAAB5F42AF69A8859","num_area":"2.8751000000000000000000000000000","ind_status":"AT"},"geometry":{"type":"Polygon","coordinates":[[[-41.0545,-21.887],[-41.0517,-21.8864],[-41.0539,-21.8878],[-41.0545,-21.887]]]}},{"type":"Feature","properties":{"cod_tema":"ARL_PROPOSTA","cod_imovel":"RJ-3305000-65D83C08FCE04029B66FE41F7DDBB655","num_area":"13.179400000000000000000000000000","ind_status":"PE"},"geometry":{"type":"Polygon","coordinates":[[[-41.0375,-21.9016],[-41.0315,-21.8994],[-41.0368,-21.9025],[-41.0375,-21.9016]],[[-41.0459,-21.9076],[-41.0504,-21.9102],[-41.0465,-21.9068],[-41.0459,-21.9076]]]}},{"type":"Feature","properties":{"cod_tema":"ARL_PROPOSTA","cod_imovel":"RJ-3305000-C74C31014CB24CCDA0D8FD05514F2B57","num_area":"8.4209000000000000000000000000000","ind_status":"AT"},"geometry":{"type":"Polygon","coordinates":[[[-41.0346,-21.8971],[-41.0414,-21.9002],[-41.0347,-21.897],[-41.0346,-21.8971]]]}},{"type":"Feature","properties":{"cod_tema":"ARL_PROPOSTA","cod_imovel":"RJ-3305000-AC06B0D8080F4CD3AA7753AB4E8D5860","num_area":"3.1066000000000000000000000000000","ind_status":"AT"},"geometry":{"type":"Polygon","coordinates":[[[-41.0309,-21.9079],[-41.0335,-21.9093],[-41.0315,-21.9072],[-41.0309,-21.9079]]]}},{"type":"Feature","properties":{"cod_tema":"ARL_PROPOSTA","cod_imovel":"RJ-3305000-D74D1D174F98469683BDCE8CB967D645","num_area":"28.002200000000000000000000000000","ind_status":"AT"},"geometry":{"type":"Polygon","coordinates":[[[-41.0309,-21.9278],[-41.0398,-21.9204],[-41.0377,-21.9187],[-41.0297,-21.9268],[-41.0309,-21.9278]]]}},{"type":"Feature","properties":{"cod_tema":"ARL_PROPOSTA","cod_imovel":"RJ-3305000-FB3DB02890234FD2856C5C488AA96E29","num_area":"6.1013000000000000000000000000000","ind_status":"AT"},"geometry":{"type":"Polygon","coordinates":[[[-41.1516,-21.7129],[-41.1473,-21.7127],[-41.1516,-21.7129],[-41.1516,-21.7129]]]}},{"type":"Feature","properties":{"cod_tema":"ARL_PROPOSTA","cod_imovel":"RJ-3305000-88F2E6F8C13F4E898E8BCCA02317A338","num_area":"2.1196000000000000000000000000000","ind_status":"AT"},"geometry":{"type":"Polygon","coordinates":[[[-41.0042,-21.8983],[-41.0074,-21.9002],[-41.0044,-21.8981],[-41.0042,-21.8983]]]}},{"type":"Feature","properties":{"cod_tema":"ARL_PROPOSTA","cod_imovel":"RJ-3305000-D4E31B67767747AD876383F1FDA8D684","num_area":"2.9054000000000000000000000000000","ind_status":"CA"},"geometry":{"type":"Polygon","coordinates":[[[-41.0522,-21.8856],[-41.0539,-21.8878],[-41.0522,-21.8856],[-41.0522,-21.8856]]]}},{"type":"Feature","properties":{"cod_tema":"ARL_PROPOSTA","cod_imovel":"RJ-3305000-312F248B136042E9AA39F36FF86362A8","num_area":"1.7332000000000000000000000000000","ind_status":"AT"},"geometry":{"type":"Polygon","coordinates":[[[-41.0771,-21.6828],[-41.0749,-21.6836],[-41.0771,-21.683],[-41.0771,-21.6828]]]}},{"type":"Feature","properties":{"cod_tema":"ARL_PROPOSTA","cod_imovel":"RJ-3305000-B9E6DAFCAD82445BA9AC4169127AEA07","num_area":"4.0582000000000000000000000000000","ind_status":"PE"},"geometry":{"type":"Polygon","coordinates":[[[-41.1397,-21.8227],[-41.1401,-21.8252],[-41.1414,-21.8231],[-41.1397,-21.8227]]]}},{"type":"Feature","properties":{"cod_tema":"ARL_PROPOSTA","cod_imovel":"RJ-3305000-DF520C4DC45244FF96EE4681A659153C","num_area":"4.3934000000000000000000000000000","ind_status":"PE"},"geometry":{"type":"Polygon","coordinates":[[[-41.1242,-21.8443],[-41.1227,-21.8401],[-41.1219,-21.8422],[-41.1242,-21.8443]]]}},{"type":"Feature","properties":{"cod_tema":"ARL_PROPOSTA","cod_imovel":"RJ-3305000-76B5FF3285A7459BBCF42A7A6DDA6F83","num_area":"7.5078000000000000000000000000000","ind_status":"AT"},"geometry":{"type":"Polygon","coordinates":[[[-41.1288,-21.7756],[-41.1334,-21.7777],[-41.1293,-21.7745],[-41.1288,-21.7756]]]}},{"type":"Feature","properties":{"cod_tema":"ARL_PROPOSTA","cod_imovel":"RJ-3305000-E8EAB701D2004942B04B421D11ED224A","num_area":"3.5511000000000000000000000000000","ind_status":"PE"},"geometry":{"type":"Polygon","coordinates":[[[-41.1426,-21.8631],[-41.1294,-21.8705],[-41.1427,-21.8633],[-41.1426,-21.8631]]]}},{"type":"Feature","properties":{"cod_tema":"ARL_PROPOSTA","cod_imovel":"RJ-3305000-3491D2B0438445E7BFCF5CAE8FC22EF8","num_area":"1.9789000000000000000000000000000","ind_status":"PE"},"geometry":{"type":"Polygon","coordinates":[[[-41.1106,-21.8714],[-41.108,-21.8674],[-41.1106,-21.8713],[-41.1106,-21.8714]]]}},{"type":"Feature","properties":{"cod_tema":"ARL_PROPOSTA","cod_imovel":"RJ-3305000-EA928BE15BD04768AC284EBF6518B4B4","num_area":"1.9354000000000000000000000000000","ind_status":"PE"},"geometry":{"type":"Polygon","coordinates":[[[-41.0383,-21.7289],[-41.0409,-21.7284],[-41.0384,-21.7288],[-41.0383,-21.7289]]]}},{"type":"Feature","properties":{"cod_tema":"ARL_PROPOSTA","cod_imovel":"RJ-3305000-9619821E52E041B18218211BEE5F22A7","num_area":"5.4692000000000000000000000000000","ind_status":"PE"},"geometry":{"type":"Polygon","coordinates":[[[-41.0781,-21.6501],[-41.0836,-21.6507],[-41.0785,-21.6502],[-41.0781,-21.6501]]]}},{"type":"Feature","properties":{"cod_tema":"ARL_PROPOSTA","cod_imovel":"RJ-3305000-969CA301A4EB4D8EAE06878A240CAD79","num_area":"9.8926000000000000000000000000000","ind_status":"PE"},"geometry":{"type":"Polygon","coordinates":[[[-41.0396,-21.8895],[-41.0378,-21.8856],[-41.0362,-21.8873],[-41.0395,-21.8895],[-41.0396,-21.8895]]]}},{"type":"Feature","properties":{"cod_tema":"ARL_PROPOSTA","cod_imovel":"RJ-3305000-C8494D987A1A4FDB94B636BAEDB238C5","num_area":"0.6661000000000000000000000000000","ind_status":"AT"},"geometry":{"type":"Polygon","coordinates":[[[-41.0473,-21.8765],[-41.0491,-21.8776],[-41.0473,-21.8765],[-41.0473,-21.8765]]]}},{"type":"Feature","properties":{"cod_tema":"ARL_PROPOSTA","cod_imovel":"RJ-3305000-49811B548A0D408F97A358C8CCE89CF3","num_area":"3.2272000000000000000000000000000","ind_status":"PE"},"geometry":{"type":"Polygon","coordinates":[[[-41.1133,-21.7832],[-41.1165,-21.7848],[-41.1138,-21.7825],[-41.1133,-21.7832]]]}},{"type":"Feature","properties":{"cod_tema":"ARL_PROPOSTA","cod_imovel":"RJ-3305000-6A92766A6DAE4F4A960F8380B25F9ACC","num_area":"2.5674000000000000000000000000000","ind_status":"PE"},"geometry":{"type":"Polygon","coordinates":[[[-41.0087,-21.9092],[-41.0117,-21.9098],[-41.0088,-21.9088],[-41.0087,-21.9092]]]}},{"type":"Feature","properties":{"cod_tema":"ARL_PROPOSTA","cod_imovel":"RJ-3305000-B169BA231EE14D1E98024067F721F87E","num_area":"2.4172000000000000000000000000000","ind_status":"AT"},"geometry":{"type":"Polygon","coordinates":[[[-41.1092,-21.8605],[-41.111,-21.8564],[-41.1093,-21.8602],[-41.1092,-21.8605]]]}},{"type":"Feature","properties":{"cod_tema":"ARL_PROPOSTA","cod_imovel":"RJ-3305000-ABD84FE65FFD47B6BD19FCF309200FFF","num_area":"10.060700000000000000000000000000","ind_status":"PE"},"geometry":{"type":"Polygon","coordinates":[[[-41.0425,-21.8863],[-41.037,-21.8915],[-41.0415,-21.8878],[-41.0425,-21.8863]]]}},{"type":"Feature","properties":{"cod_tema":"ARL_PROPOSTA","cod_imovel":"RJ-3305000-2E941EE1221042138B54B10D08781C29","num_area":"11.207700000000000000000000000000","ind_status":"PE"},"geometry":{"type":"Polygon","coordinates":[[[-41.0358,-21.6449],[-41.0381,-21.6483],[-41.0366,-21.6446],[-41.0358,-21.6449]]]}},{"type":"Feature","properties":{"cod_tema":"ARL_PROPOSTA","cod_imovel":"RJ-3305000-962F91991D2A4D7FA03640273115DE4F","num_area":"9.6800000000000000000000000000000","ind_status":"AT"},"geometry":{"type":"Polygon","coordinates":[[[-41.1333,-21.7588],[-41.1395,-21.7626],[-41.1335,-21.7592],[-41.1333,-21.7588]],[[-41.1324,-21.7594],[-41.1334,-21.7572],[-41.1308,-21.7588],[-41.1324,-21.7594]]]}},{"type":"Feature","properties":{"cod_tema":"ARL_PROPOSTA","cod_imovel":"RJ-3305000-F74B9CBECC3F466AB7D99F3F036C302D","num_area":"11.685600000000000000000000000000","ind_status":"PE"},"geometry":{"type":"Polygon","coordinates":[[[-41.1334,-21.7915],[-41.1378,-21.7918],[-41.1311,-21.7903],[-41.1334,-21.7915]]]}},{"type":"Feature","properties":{"cod_tema":"ARL_PROPOSTA","cod_imovel":"RJ-3305000-53BA0BAF7CF346B3923995CF49FFD004","num_area":"4.8425000000000000000000000000000","ind_status":"PE"},"geometry":{"type":"Polygon","coordinates":[[[-41.1328,-21.6872],[-41.1307,-21.6888],[-41.1343,-21.6898],[-41.1329,-21.688],[-41.1328,-21.6872]]]}},{"type":"Feature","properties":{"cod_tema":"ARL_PROPOSTA","cod_imovel":"RJ-3305000-61D5AAFAACEE427CA9BA5A8F51B68BB0","num_area":"1.8863000000000000000000000000000","ind_status":"AT"},"geometry":{"type":"Polygon","coordinates":[[[-41.0328,-21.6537],[-41.0335,-21.6569],[-41.033,-21.6537],[-41.0328,-21.6537]]]}},{"type":"Feature","properties":{"cod_tema":"ARL_PROPOSTA","cod_imovel":"RJ-3305000-850491B2EACE40C9BA6E3A36C64BFE48","num_area":"3.4439000000000000000000000000000","ind_status":"AT"},"geometry":{"type":"Polygon","coordinates":[[[-41.1182,-21.7663],[-41.1147,-21.7648],[-41.1192,-21.7668],[-41.1182,-21.7663]]]}},{"type":"Feature","properties":{"cod_tema":"ARL_PROPOSTA","cod_imovel":"RJ-3305000-858451B092044D2B93E36F7D650C8E23","num_area":"4.4808000000000000000000000000000","ind_status":"AT"},"geometry":{"type":"Polygon","coordinates":[[[-41.1054,-21.7717],[-41.1011,-21.7696],[-41.1052,-21.7721],[-41.1054,-21.7717]]]}},{"type":"Feature","properties":{"cod_tema":"ARL_PROPOSTA","cod_imovel":"RJ-3305000-93CC734266DA4D698D0F9E29302C11E4","num_area":"3.6103000000000000000000000000000","ind_status":"AT"},"geometry":{"type":"Polygon","coordinates":[[[-41.058,-21.8563],[-41.0567,-21.8542],[-41.058,-21.8564],[-41.058,-21.8563]]]}},{"type":"Feature","properties":{"cod_tema":"ARL_PROPOSTA","cod_imovel":"RJ-3305000-329FC02D287F4FA1A618DABFE86E32D8","num_area":"24.145300000000000000000000000000","ind_status":"PE"},"geometry":{"type":"Polygon","coordinates":[[[-41.1247,-21.8479],[-41.128,-21.846],[-41.1258,-21.8422],[-41.123,-21.8463],[-41.1247,-21.8479]],[[-41.129,-21.8448],[-41.1302,-21.8423],[-41.1265,-21.8439],[-41.1281,-21.8459],[-41.129,-21.8448]]]}},{"type":"Feature","properties":{"cod_tema":"ARL_PROPOSTA","cod_imovel":"RJ-3305000-3D75F168426E427FA22124BD00A3BB36","num_area":"14.879500000000000000000000000000","ind_status":"PE"},"geometry":{"type":"Polygon","coordinates":[[[-41.0385,-21.7283],[-41.0456,-21.7277],[-41.0385,-21.724],[-41.0386,-21.7281],[-41.0385,-21.7283]]]}},{"type":"Feature","properties":{"cod_tema":"ARL_PROPOSTA","cod_imovel":"RJ-3305000-B93CDB6D4796482D9D881323877D7D4D","num_area":"14.097200000000000000000000000000","ind_status":"AT"},"geometry":{"type":"Polygon","coordinates":[[[-41.0438,-21.9048],[-41.0404,-21.902],[-41.0437,-21.9049],[-41.0438,-21.9048]]]}},{"type":"Feature","properties":{"cod_tema":"ARL_PROPOSTA","cod_imovel":"RJ-3305000-F8B0604EF0F54834A3F0623C938F3FC4","num_area":"1.3714000000000000000000000000000","ind_status":"AT"},"geometry":{"type":"Polygon","coordinates":[[[-41.0541,-21.8797],[-41.0495,-21.8775],[-41.054,-21.8799],[-41.0541,-21.8797]]]}}]}