{"type":"FeatureCollection","features":[{"type":"Feature","properties":{"cod_tema":"ARL_PROPOSTA","cod_imovel":"RJ-3305752-D343F272E15745399C3156669FB74893","num_area":"4.6121000000000000000000000000000","ind_status":"PE"},"geometry":{"type":"Polygon","coordinates":[[[-42.7075,-22.7982],[-42.7115,-22.7997],[-42.7079,-22.7973],[-42.7075,-22.7982]]]}},{"type":"Feature","properties":{"cod_tema":"ARL_PROPOSTA","cod_imovel":"RJ-3305752-49C4077E46114C18AEDCDCAEC5E03806","num_area":"3.0474000000000000000000000000000","ind_status":"AT"},"geometry":{"type":"Polygon","coordinates":[[[-42.7387,-22.7042],[-42.7403,-22.7063],[-42.739,-22.7043],[-42.7387,-22.7042]]]}},{"type":"Feature","properties":{"cod_tema":"ARL_PROPOSTA","cod_imovel":"RJ-3305752-D7B8EE13C1614F6DBA4B8F3CA433D996","num_area":"3.4202000000000000000000000000000","ind_status":"PE"},"geometry":{"type":"Polygon","coordinates":[[[-42.7599,-22.7988],[-42.7571,-22.7998],[-42.7597,-22.799],[-42.7599,-22.7988]]]}},{"type":"Feature","properties":{"cod_tema":"ARL_PROPOSTA","cod_imovel":"RJ-3305752-07DF21A590424BF39723C2EF7BC5E0BD","num_area":"1.3489000000000000000000000000000","ind_status":"AT"},"geometry":{"type":"Polygon","coordinates":[[[-42.7101,-22.7861],[-42.7114,-22.7843],[-42.7099,-22.7859],[-42.7101,-22.7861]]]}},{"type":"Feature","properties":{"cod_tema":"ARL_PROPOSTA","cod_imovel":"RJ-3305752-D96896068F27456E90FACE6519E857B0","num_area":"4.4907000000000000000000000000000","ind_status":"AT"},"geometry":{"type":"Polygon","coordinates":[[[-42.693,-22.7902],[-42.6877,-22.7895],[-42.6906,-22.7899],[-42.693,-22.7902]]]}},{"type":"Feature","properties":{"cod_tema":"ARL_PROPOSTA","cod_imovel":"RJ-3305752-E994695DB31A46188B3A05E82D2A63E2","num_area":"3.9343000000000000000000000000000","ind_status":"AT"},"geometry":{"type":"Polygon","coordinates":[[[-42.6971,-22.8043],[-42.6986,-22.8058],[-42.6971,-22.8044],[-42.6971,-22.8043]]]}},{"type":"Feature","properties":{"cod_tema":"ARL_PROPOSTA","cod_imovel":"RJ-3305752-F91774EB9B894EA1B1E7C795C0015E25","num_area":"12.267800000000000000000000000000","ind_status":"AT"},"geometry":{"type":"Polygon","coordinates":[[[-42.712,-22.7644],[-42.7077,-22.7642],[-42.7099,-22.7642],[-42.712,-22.7644]],[[-42.7067,-22.7631],[-42.704,-22.7615],[-42.7025,-22.7638],[-42.7071,-22.7633],[-42.7067,-22.7631]]]}},{"type":"Feature","properties":{"cod_tema":"ARL_PROPOSTA","cod_imovel":"RJ-3305752-7D792BC9B70A4D02808F651B2946398E","num_area":"4.0188000000000000000000000000000","ind_status":"AT"},"geometry":{"type":"Polygon","coordinates":[[[-42.7646,-22.7554],[-42.7617,-22.7571],[-42.764,-22.7566],[-42.7646,-22.7554]]]}},{"type":"Feature","properties":{"cod_tema":"ARL_PROPOSTA","cod_imovel":"RJ-3305752-193C8BFE1E4944B8A9990968F0B4A2FE","num_area":"3.6285000000000000000000000000000","ind_status":"AT"},"geometry":{"type":"Polygon","coordinates":[[[-42.7128,-22.7931],[-42.7107,-22.7923],[-42.7119,-22.7942],[-42.7128,-22.7931]]]}},{"type":"Feature","properties":{"cod_tema":"ARL_PROPOSTA","cod_imovel":"RJ-3305752-059FB87A958C4C5DB514C53C5AAE0E6C","num_area":"3.3180000000000000000000000000000","ind_status":"AT"},"geometry":{"type":"Polygon","coordinates":[[[-42.7382,-22.817],[-42.7355,-22.8163],[-42.737,-22.8177],[-42.7382,-22.817]]]}},{"type":"Feature","properties":{"cod_tema":"ARL_PROPOSTA","cod_imovel":"RJ-3305752-09DE14B8E5D74853ADE587F58BE6AB43","num_area":"17.125200000000000000000000000000","ind_status":"AT"},"geometry":{"type":"Polygon","coordinates":[[[-42.693,-22.7792],[-42.6949,-22.7819],[-42.6989,-22.7803],[-42.6945,-22.7778],[-42.693,-22.7792]]]}},{"type":"Feature","properties":{"cod_tema":"ARL_PROPOSTA","cod_imovel":"RJ-3305752-0D3B3CB6F92C4142850B256A13965171","num_area":"2.7036000000000000000000000000000","ind_status":"AT"},"geometry":{"type":"Polygon","coordinates":[[[-42.7565,-22.7615],[-42.7538,-22.7617],[-42.7564,-22.7624],[-42.7565,-22.7615]]]}},{"type":"Feature","properties":{"cod_tema":"ARL_PROPOSTA","cod_imovel":"RJ-3305752-0F889321DE924D42841809582865613C","num_area":"41.063700000000000000000000000000","ind_status":"AT"},"geometry":{"type":"Polygon","coordinates":[[[-42.673,-22.7949],[-42.6637,-22.7911],[-42.659,-22.7949],[-42.6725,-22.7958],[-42.673,-22.7949]]]}},{"type":"Feature","properties":{"cod_tema":"ARL_PROPOSTA","cod_imovel":"RJ-3305752-178CB2E44B6D4DA493F6083C8D76A45A","num_area":"3.9838000000000000000000000000000","ind_status":"AT"},"geometry":{"type":"Polygon","coordinates":[[[-42.6995,-22.8162],[-42.697,-22.8174],[-42.6993,-22.8177],[-42.6995,-22.8162]]]}},{"type":"Feature","properties":{"cod_tema":"ARL_PROPOSTA","cod_imovel":"RJ-3305752-1CB35960EF4D4F0581E963D2DCE7B71A","num_area":"5.6033000000000000000000000000000","ind_status":"AT"},"geometry":{"type":"Polygon","coordinates":[[[-42.7127,-22.7636],[-42.7132,-22.7669],[-42.7132,-22.7638],[-42.7127,-22.7636]]]}},{"type":"Feature","properties":{"cod_tema":"ARL_PROPOSTA","cod_imovel":"RJ-3305752-2344BBBAFD114CB3BD8480524646E034","num_area":"47.975400000000000000000000000000","ind_status":"AT"},"geometry":{"type":"Polygon","coordinates":[[[-42.7354,-22.7788],[-42.7301,-22.7746],[-42.7231,-22.7767],[-42.7242,-22.7812],[-42.7304,-22.7778],[-42.7351,-22.7792],[-42.7354,-22.7788]]]}},{"type":"Feature","properties":{"cod_tema":"ARL_PROPOSTA","cod_imovel":"RJ-3305752-24FF160CBDCD40819048B373A09AE121","num_area":"3.9313000000000000000000000000000","ind_status":"AT"},"geometry":{"type":"Polygon","coordinates":[[[-42.6992,-22.8092],[-42.696,-22.8102],[-42.6999,-22.8094],[-42.6992,-22.8092]]]}},{"type":"Feature","properties":{"cod_tema":"ARL_PROPOSTA","cod_imovel":"RJ-3305752-2649972265FA47A7BA3236A44C684F87","num_area":"3.0393000000000000000000000000000","ind_status":"AT"},"geometry":{"type":"Polygon","coordinates":[[[-42.7496,-22.7999],[-42.7523,-22.7962],[-42.7497,-22.7996],[-42.7496,-22.7999]]]}},{"type":"Feature","properties":{"cod_tema":"ARL_PROPOSTA","cod_imovel":"RJ-3305752-2E1DE16CCB134924B560A297C7E23166","num_area":"5.0598000000000000000000000000000","ind_status":"AT"},"geometry":{"type":"Polygon","coordinates":[[[-42.6674,-22.8327],[-42.6638,-22.8322],[-42.6668,-22.8337],[-42.6674,-22.8327]]]}},{"type":"Feature","properties":{"cod_tema":"ARL_PROPOSTA","cod_imovel":"RJ-3305752-30B8B72DFA8142E6A3FAA01262DED16E","num_area":"14.115200000000000000000000000000","ind_status":"AT"},"geometry":{"type":"Polygon","coordinates":[[[-42.7442,-22.8228],[-42.7429,-22.8247],[-42.7466,-22.8254],[-42.7449,-22.8229],[-42.7442,-22.8228]],[[-42.75,-22.8196],[-42.747,-22.8184],[-42.7491,-22.821],[-42.75,-22.8196]]]}},{"type":"Feature","properties":{"cod_tema":"ARL_PROPOSTA","cod_imovel":"RJ-3305752-34267CAD85CB4D9395EC4F4782616441","num_area":"4.2051000000000000000000000000000","ind_status":"AT"},"geometry":{"type":"Polygon","coordinates":[[[-42.6955,-22.7648],[-42.6981,-22.7643],[-42.6953,-22.7643],[-42.6955,-22.7648]]]}},{"type":"Feature","properties":{"cod_tema":"ARL_PROPOSTA","cod_imovel":"RJ-3305752-437A08D8D85D4E90B79723780B45F145","num_area":"3.3443000000000000000000000000000","ind_status":"AT"},"geometry":{"type":"Polygon","coordinates":[[[-42.7074,-22.7977],[-42.7049,-22.7983],[-42.7072,-22.7982],[-42.7074,-22.7977]]]}},{"type":"Feature","properties":{"cod_tema":"ARL_PROPOSTA","cod_imovel":"RJ-3305752-47EAF74EB01D47CC96EBA3B0EA6A5E78","num_area":"7.9735000000000000000000000000000","ind_status":"AT"},"geometry":{"type":"Polygon","coordinates":[[[-42.7317,-22.7659],[-42.733,-22.7685],[-42.7323,-22.7656],[-42.7317,-22.7659]],[[-42.7304,-22.7716],[-42.7289,-22.7746],[-42.7309,-22.7719],[-42.7304,-22.7716]]]}},{"type":"Feature","properties":{"cod_tema":"ARL_PROPOSTA","cod_imovel":"RJ-3305752-4C996086AE66423E8063FD85AA9D8644","num_area":"4.2943000000000000000000000000000","ind_status":"AT"},"geometry":{"type":"Polygon","coordinates":[[[-42.7134,-22.8051],[-42.7124,-22.8071],[-42.7137,-22.8056],[-42.7134,-22.8051]],[[-42.7153,-22.8054],[-42.7126,-22.8099],[-42.7158,-22.8057],[-42.7153,-22.8054]]]}},{"type":"Feature","properties":{"cod_tema":"ARL_PROPOSTA","cod_imovel":"RJ-3305752-50FDB0030E7048CEAD0C18F5499C7499","num_area":"5.6841000000000000000000000000000","ind_status":"AT"},"geometry":{"type":"Polygon","coordinates":[[[-42.7334,-22.7552],[-42.7349,-22.7522],[-42.733,-22.7559],[-42.7334,-22.7552]]]}},{"type":"Feature","properties":{"cod_tema":"ARL_PROPOSTA","cod_imovel":"RJ-3305752-542DAB97428445CBAEFF298D4DFB5E31","num_area":"2.7992000000000000000000000000000","ind_status":"AT"},"geometry":{"type":"Polygon","coordinates":[[[-42.7128,-22.7696],[-42.7115,-22.7681],[-42.7124,-22.7702],[-42.7128,-22.7696]]]}},{"type":"Feature","properties":{"cod_tema":"ARL_PROPOSTA","cod_imovel":"RJ-3305752-5CD097CBE8C84FEB9D4101BDEDF35357","num_area":"8.0002000000000000000000000000000","ind_status":"AT"},"geometry":{"type":"Polygon","coordinates":[[[-42.7041,-22.7614],[-42.7035,-22.7581],[-42.7017,-22.7598],[-42.7041,-22.7614],[-42.7041,-22.7614]]]}},{"type":"Feature","properties":{"cod_tema":"ARL_PROPOSTA","cod_imovel":"RJ-3305752-69D39576A7BE4159A2AC3B9BD5A413FD","num_area":"12.165700000000000000000000000000","ind_status":"AT"},"geometry":{"type":"Polygon","coordinates":[[[-42.7157,-22.791],[-42.7119,-22.7912],[-42.7139,-22.7938],[-42.7157,-22.791]]]}},{"type":"Feature","properties":{"cod_tema":"ARL_PROPOSTA","cod_imovel":"RJ-3305752-7A30829567B94295B74B59270338CD0F","num_area":"2.6954000000000000000000000000000","ind_status":"PE"},"geometry":{"type":"Polygon","coordinates":[[[-42.7594,-22.783],[-42.7612,-22.7821],[-42.759,-22.7832],[-42.7594,-22.783]]]}},{"type":"Feature","properties":{"cod_tema":"ARL_PROPOSTA","cod_imovel":"RJ-3305752-88C46C783B6444458B945D61FDBEFF4E","num_area":"1.1518000000000000000000000000000","ind_status":"AT"},"geometry":{"type":"Polygon","coordinates":[[[-42.6974,-22.7655],[-42.6954,-22.7646],[-42.697,-22.766],[-42.6974,-22.7655]]]}},{"type":"Feature","properties":{"cod_tema":"ARL_PROPOSTA","cod_imovel":"RJ-3305752-89B5384744C647E985C5BE41BE31D2F2","num_area":"4.8987000000000000000000000000000","ind_status":"AT"},"geometry":{"type":"Polygon","coordinates":[[[-42.7504,-22.783],[-42.752,-22.7802],[-42.7499,-22.7828],[-42.7504,-22.783]]]}},{"type":"Feature","properties":{"cod_tema":"ARL_PROPOSTA","cod_imovel":"RJ-3305752-8E0312B27EA44512A774254A6CDCAE48","num_area":"31.699100000000000000000000000000","ind_status":"AT"},"geometry":{"type":"Polygon","coordinates":[[[-42.7173,-22.8101],[-42.7217,-22.813],[-42.7237,-22.8097],[-42.7175,-22.8065],[-42.7161,-22.8094],[-42.7173,-22.8101]]]}},{"type":"Feature","properties":{"cod_tema":"ARL_PROPOSTA","cod_imovel":"RJ-3305752-9B282AF7F4DD47F084AD266C7401467D","num_area":"3.4834000000000000000000000000000","ind_status":"AT"},"geometry":{"type":"Polygon","coordinates":[[[-42.7257,-22.7645],[-42.7259,-22.7666],[-42.7283,-22.7648],[-42.7257,-22.7644],[-42.7257,-22.7645]]]}},{"type":"Feature","properties":{"cod_tema":"ARL_PROPOSTA","cod_imovel":"RJ-3305752-9D5F9C8938E14ACDB624DE154B21769C","num_area":"2.8042000000000000000000000000000","ind_status":"AT"},"geometry":{"type":"Polygon","coordinates":[[[-42.7113,-22.8139],[-42.7106,-22.8111],[-42.7113,-22.8139],[-42.7113,-22.8139]]]}},{"type":"Feature","properties":{"cod_tema":"ARL_PROPOSTA","cod_imovel":"RJ-3305752-A5F55EB319574604979D521E67AC293F","num_area":"9.3696000000000000000000000000000","ind_status":"AT"},"geometry":{"type":"Polygon","coordinates":[[[-42.7086,-22.817],[-42.7111,-22.8166],[-42.7089,-22.8175],[-42.7086,-22.817]],[[-42.7148,-22.8125],[-42.7125,-22.8102],[-42.7116,-22.813],[-42.7147,-22.8123],[-42.7148,-22.8125]]]}},{"type":"Feature","properties":{"cod_tema":"ARL_PROPOSTA","cod_imovel":"RJ-3305752-A6B9129DF32A4738BB1D8AEE463654A2","num_area":"5.1445000000000000000000000000000","ind_status":"AT"},"geometry":{"type":"Polygon","coordinates":[[[-42.7386,-22.7672],[-42.7407,-22.7659],[-42.7378,-22.7667],[-42.7386,-22.7672]]]}},{"type":"Feature","properties":{"cod_tema":"ARL_PROPOSTA","cod_imovel":"RJ-3305752-B69F1F3C1BC64F3E83160CC1F62ABBF8","num_area":"5.7052000000000000000000000000000","ind_status":"AT"},"geometry":{"type":"Polygon","coordinates":[[[-42.7462,-22.7009],[-42.7457,-22.6983],[-42.7444,-22.7018],[-42.7462,-22.7009]]]}},{"type":"Feature","properties":{"cod_tema":"ARL_PROPOSTA","cod_imovel":"RJ-3305752-BDCC89D8A7054CA58626AFA106729AAF","num_area":"2.7298000000000000000000000000000","ind_status":"AT"},"geometry":{"type":"Polygon","coordinates":[[[-42.7216,-22.817],[-42.7197,-22.8177],[-42.7216,-22.817],[-42.7216,-22.817]]]}},{"type":"Feature","properties":{"cod_tema":"ARL_PROPOSTA","cod_imovel":"RJ-3305752-C762CA26737E48EDB19F3E41AD4281E8","num_area":"2.1746000000000000000000000000000","ind_status":"AT"},"geometry":{"type":"Polygon","coordinates":[[[-42.6994,-22.7784],[-42.6955,-22.7769],[-42.6989,-22.7787],[-42.6994,-22.7784]]]}},{"type":"Feature","properties":{"cod_tema":"ARL_PROPOSTA","cod_imovel":"RJ-3305752-C78D7D30D8964A2FBE07307DF5B0F28B","num_area":"12.935200000000000000000000000000","ind_status":"AT"},"geometry":{"type":"Polygon","coordinates":[[[-42.7195,-22.8222],[-42.7206,-22.8178],[-42.7184,-22.822],[-42.7195,-22.8222]],[[-42.7231,-22.8257],[-42.7214,-22.8229],[-42.721,-22.826],[-42.7231,-22.8257]]]}},{"type":"Feature","properties":{"cod_tema":"ARL_PROPOSTA","cod_imovel":"RJ-3305752-CA1ED03AC03B4A93BF8F9E3AC37E1EA9","num_area":"20.626600000000000000000000000000","ind_status":"AT"},"geometry":{"type":"Polygon","coordinates":[[[-42.7049,-22.7682],[-42.7013,-22.767],[-42.6997,-22.7699],[-42.7053,-22.7717],[-42.7075,-22.7691],[-42.7049,-22.7682]]]}},{"type":"Feature","properties":{"cod_tema":"ARL_PROPOSTA","cod_imovel":"RJ-3305752-CA57FBD6AB7F484B84CB41DDDB87C306","num_area":"3.1215000000000000000000000000000","ind_status":"AT"},"geometry":{"type":"Polygon","coordinates":[[[-42.6741,-22.8298],[-42.6713,-22.8286],[-42.6741,-22.8298],[-42.6741,-22.8298]]]}},{"type":"Feature","properties":{"cod_tema":"ARL_PROPOSTA","cod_imovel":"RJ-3305752-D1FC1AD09E4F47CFAD29061CCADB43B4","num_area":"4.3932000000000000000000000000000","ind_status":"AT"},"geometry":{"type":"Polygon","coordinates":[[[-42.7366,-22.7639],[-42.7339,-22.7643],[-42.7365,-22.7646],[-42.7366,-22.7639]]]}},{"type":"Feature","properties":{"cod_tema":"ARL_PROPOSTA","cod_imovel":"RJ-3305752-DBAABE759FAA4F84A233D2DC514C71B2","num_area":"4.4635000000000000000000000000000","ind_status":"AT"},"geometry":{"type":"Polygon","coordinates":[[[-42.7383,-22.7788],[-42.7323,-22.7769],[-42.7375,-22.7792],[-42.7383,-22.7788]]]}},{"type":"Feature","properties":{"cod_tema":"ARL_PROPOSTA","cod_imovel":"RJ-3305752-DD84310A34A34F7FA3B7FCF815F45D53","num_area":"8.4389000000000000000000000000000","ind_status":"AT"},"geometry":{"type":"Polygon","coordinates":[[[-42.7364,-22.7779],[-42.7386,-22.778],[-42.7364,-22.7779],[-42.7364,-22.7779]],[[-42.7409,-22.7682],[-42.7371,-22.7675],[-42.7401,-22.7685],[-42.7409,-22.7682]]]}},{"type":"Feature","properties":{"cod_tema":"ARL_PROPOSTA","cod_imovel":"RJ-3305752-E040AB088DE54C4297B04B7D29B6DB1A","num_area":"8.5072000000000000000000000000000","ind_status":"AT"},"geometry":{"type":"Polygon","coordinates":[[[-42.7626,-22.7537],[-42.7607,-22.7575],[-42.7648,-22.7565],[-42.7626,-22.7537]]]}},{"type":"Feature","properties":{"cod_tema":"ARL_PROPOSTA","cod_imovel":"RJ-3305752-E3D913A0855A49BBBE4F3F39A14728C0","num_area":"1.9370000000000000000000000000000","ind_status":"AT"},"geometry":{"type":"Polygon","coordinates":[[[-42.7478,-22.7954],[-42.7495,-22.7941],[-42.7477,-22.7954],[-42.7478,-22.7954]]]}},{"type":"Feature","properties":{"cod_tema":"ARL_PROPOSTA","cod_imovel":"RJ-3305752-E984AF34DD68464ABD92829986220A66","num_area":"13.371500000000000000000000000000","ind_status":"AT"},"geometry":{"type":"Polygon","coordinates":[[[-42.7416,-22.7122],[-42.7405,-22.7087],[-42.7365,-22.7102],[-42.7375,-22.7129],[-42.7413,-22.7122],[-42.7416,-22.7122]]]}},{"type":"Feature","properties":{"cod_tema":"ARL_PROPOSTA","cod_imovel":"RJ-3305752-E9E0D3584159421CB05C7EA58E0A20C4","num_area":"2.7216000000000000000000000000000","ind_status":"AT"},"geometry":{"type":"Polygon","coordinates":[[[-42.7247,-22.7945],[-42.7233,-22.7964],[-42.7248,-22.7945],[-42.7247,-22.7945]]]}},{"type":"Feature","properties":{"cod_tema":"ARL_PROPOSTA","cod_imovel":"RJ-3305752-EDFA7734D1624C49AA1EF4BD10431DDA","num_area":"4.7703000000000000000000000000000","ind_status":"AT"},"geometry":{"type":"Polygon","coordinates":[[[-42.7381,-22.7891],[-42.7328,-22.7912],[-42.736,-22.7897],[-42.7381,-22.7891]],[[-42.7377,-22.7888],[-42.7326,-22.7911],[-42.736,-22.7893],[-42.7377,-22.7888]]]}},{"type":"Feature","properties":{"cod_tema":"ARL_PROPOSTA","cod_imovel":"RJ-3305752-EF9A51497E264F6DA4FFD83E08A95B74","num_area":"0.9014000000000000000000000000000","ind_status":"AT"},"geometry":{"type":"Polygon","coordinates":[[[-42.7614,-22.7554],[-42.7597,-22.758],[-42.7612,-22.7556],[-42.7614,-22.7554]]]}},{"type":"Feature","properties":{"cod_tema":"ARL_PROPOSTA","cod_imovel":"RJ-3305752-F18C86B6AAE64E0D8149FCE2324286C6","num_area":"10.576000000000000000000000000000","ind_status":"AT"},"geometry":{"type":"Polygon","coordinates":[[[-42.7338,-22.7042],[-42.7383,-22.7036],[-42.7335,-22.7028],[-42.7338,-22.7042]],[[-42.7389,-22.6997],[-42.7373,-22.7014],[-42.7388,-22.7],[-42.7389,-22.6997]],[[-42.7389,-22.6991],[-42.7366,-22.701],[-42.7389,-22.6993],[-42.7389,-22.6991]]]}},{"type":"Feature","properties":{"cod_tema":"ARL_PROPOSTA","cod_imovel":"RJ-3305752-FCFAF7DD9DC24A399284C689302C651F","num_area":"6.7035000000000000000000000000000","ind_status":"AT"},"geometry":{"type":"Polygon","coordinates":[[[-42.7441,-22.7465],[-42.7466,-22.7434],[-42.7441,-22.7465],[-42.7441,-22.7465]]]}},{"type":"Feature","properties":{"cod_tema":"ARL_PROPOSTA","cod_imovel":"RJ-3305752-FC0953A474014AE0ADA325B76BE7CDAB","num_area":"145.67110000000000000000000000000","ind_status":"AT"},"geometry":{"type":"Polygon","coordinates":[[[-42.7755,-22.8091],[-42.773,-22.8072],[-42.7753,-22.8094],[-42.7755,-22.8091]],[[-42.785,-22.8125],[-42.7874,-22.8136],[-42.7852,-22.8124],[-42.785,-22.8125]],[[-42.7756,-22.8143],[-42.7748,-22.8117],[-42.7755,-22.8141],[-42.7756,-22.8143]],[[-42.7669,-22.8079],[-42.7715,-22.8103],[-42.7685,-22.8048],[-42.7674,-22.8067],[-42.7669,-22.8079]],[[-42.7793,-22.8096],[-42.7791,-22.8049],[-42.7752,-22.804],[-42.7781,-22.8091],[-42.7793,-22.8096]],[[-42.7932,-22.7972],[-42.7817,-22.7913],[-42.7722,-22.7978],[-42.7774,-22.7973],[-42.782,-22.802],[-42.7877,-22.7968],[-42.7919,-22.7976],[-42.7932,-22.7972]]]}},{"type":"Feature","properties":{"cod_tema":"ARL_PROPOSTA","cod_imovel":"RJ-3301900-37F78BE47E014D2AB0660B82FACB5ADE","num_area":"8.4776000000000000000000000000000","ind_status":"AT"},"geometry":{"type":"Polygon","coordinates":[[[-42.791,-22.7953],[-42.7941,-22.7975],[-42.7953,-22.7954],[-42.7911,-22.7952],[-42.791,-22.7953]]]}},{"type":"Feature","properties":{"cod_tema":"ARL_PROPOSTA","cod_imovel":"RJ-3305752-0A9D81014B06414B93D224130D6E2459","num_area":"3.6053000000000000000000000000000","ind_status":"AT"},"geometry":{"type":"Polygon","coordinates":[[[-42.7588,-22.7753],[-42.7566,-22.7761],[-42.7588,-22.7771],[-42.7588,-22.7753]]]}},{"type":"Feature","properties":{"cod_tema":"ARL_PROPOSTA","cod_imovel":"RJ-3305752-35B6DE8067CA478C9DD11E3BA5E6179B","num_area":"3.7609000000000000000000000000000","ind_status":"PE"},"geometry":{"type":"Polygon","coordinates":[[[-42.7358,-22.7544],[-42.7331,-22.7558],[-42.7358,-22.7547],[-42.7358,-22.7544]]]}},{"type":"Feature","properties":{"cod_tema":"ARL_PROPOSTA","cod_imovel":"RJ-3305752-6DEB54EECA364031AEDF8850015776A5","num_area":"3.3024000000000000000000000000000","ind_status":"AT"},"geometry":{"type":"Polygon","coordinates":[[[-42.7512,-22.7533],[-42.7495,-22.7515],[-42.7512,-22.7532],[-42.7512,-22.7533]]]}},{"type":"Feature","properties":{"cod_tema":"ARL_PROPOSTA","cod_imovel":"RJ-3305752-61D50DC449C84B82BC00913AF2BF8644","num_area":"5.0785000000000000000000000000000","ind_status":"AT"},"geometry":{"type":"Polygon","coordinates":[[[-42.7187,-22.7169],[-42.7169,-22.7148],[-42.718,-22.7177],[-42.7187,-22.7169]]]}},{"type":"Feature","properties":{"cod_tema":"ARL_PROPOSTA","cod_imovel":"RJ-3305752-741370D2C15B487B91E5D2A601789371","num_area":"7.0617000000000000000000000000000","ind_status":"AT"},"geometry":{"type":"Polygon","coordinates":[[[-42.7515,-22.7481],[-42.7479,-22.7471],[-42.7513,-22.7484],[-42.7515,-22.7481]]]}},{"type":"Feature","properties":{"cod_tema":"ARL_PROPOSTA","cod_imovel":"RJ-3305752-E64DBD7A4EDA452BBE23F9FA0823B581","num_area":"9.0681000000000000000000000000000","ind_status":"AT"},"geometry":{"type":"Polygon","coordinates":[[[-42.7493,-22.7721],[-42.751,-22.7755],[-42.752,-22.7729],[-42.7493,-22.7721]]]}},{"type":"Feature","properties":{"cod_tema":"ARL_PROPOSTA","cod_imovel":"RJ-3305752-DC632216C8D94F28A761A25BCAE7EC7F","num_area":"11.324800000000000000000000000000","ind_status":"AT"},"geometry":{"type":"Polygon","coordinates":[[[-42.7346,-22.7056],[-42.7317,-22.7051],[-42.7345,-22.7055],[-42.7346,-22.7056]],[[-42.7324,-22.7041],[-42.7295,-22.7055],[-42.7323,-22.7043],[-42.7324,-22.7041]]]}},{"type":"Feature","properties":{"cod_tema":"ARL_PROPOSTA","cod_imovel":"RJ-3305752-E1BD0F549B204D63AF75051A5564F836","num_area":"8.7309000000000000000000000000000","ind_status":"AT"},"geometry":{"type":"Polygon","coordinates":[[[-42.7457,-22.7784],[-42.7435,-22.7775],[-42.7444,-22.7807],[-42.7457,-22.7784]],[[-42.7457,-22.7877],[-42.7482,-22.7869],[-42.7462,-22.787],[-42.7457,-22.7877]]]}},{"type":"Feature","properties":{"cod_tema":"ARL_PROPOSTA","cod_imovel":"RJ-3305752-EDD822F821F04A1BA4688CCE6D5916DD","num_area":"2.0889000000000000000000000000000","ind_status":"AT"},"geometry":{"type":"Polygon","coordinates":[[[-42.7404,-22.7981],[-42.7377,-22.7975],[-42.74,-22.7987],[-42.7404,-22.7981]]]}},{"type":"Feature","properties":{"cod_tema":"ARL_PROPOSTA","cod_imovel":"RJ-3305752-4CEF59C11B9A45908C70C5B0045B3271","num_area":"22.047800000000000000000000000000","ind_status":"PE"},"geometry":{"type":"Polygon","coordinates":[[[-42.6803,-22.8076],[-42.6824,-22.8077],[-42.6803,-22.8076],[-42.6803,-22.8076]],[[-42.6825,-22.8077],[-42.6855,-22.8042],[-42.6809,-22.8031],[-42.6794,-22.8049],[-42.6842,-22.8055],[-42.6796,-22.805],[-42.6824,-22.8077],[-42.6825,-22.8077]],[[-42.6828,-22.8038],[-42.6809,-22.8008],[-42.6827,-22.8038],[-42.6828,-22.8038]],[[-42.6794,-22.8049],[-42.6784,-22.8073],[-42.6794,-22.8049],[-42.6794,-22.8049]]]}},{"type":"Feature","properties":{"cod_tema":"ARL_PROPOSTA","cod_imovel":"RJ-3305752-86BFCA6798F24109BE8BC9BEA67C20CF","num_area":"9.0741000000000000000000000000000","ind_status":"AT"},"geometry":{"type":"Polygon","coordinates":[[[-42.7462,-22.7883],[-42.7449,-22.7928],[-42.7469,-22.7878],[-42.7462,-22.7883]],[[-42.7466,-22.7871],[-42.7416,-22.7884],[-42.7466,-22.7871],[-42.7466,-22.7871]]]}},{"type":"Feature","properties":{"cod_tema":"ARL_PROPOSTA","cod_imovel":"RJ-3305752-A1A436186C8F4C43AA84C162AB97D072","num_area":"101.12540000000000000000000000000","ind_status":"AT"},"geometry":{"type":"Polygon","coordinates":[[[-42.7233,-22.8331],[-42.7251,-22.8311],[-42.7234,-22.8327],[-42.7233,-22.8331]],[[-42.7245,-22.8418],[-42.7243,-22.8387],[-42.7199,-22.8387],[-42.7236,-22.8413],[-42.7245,-22.8418]],[[-42.7122,-22.8487],[-42.7148,-22.8534],[-42.7119,-22.8471],[-42.714,-22.8466],[-42.7118,-22.8446],[-42.7107,-22.8477],[-42.7122,-22.8487]],[[-42.7146,-22.8358],[-42.7208,-22.8348],[-42.7245,-22.838],[-42.7215,-22.837],[-42.7226,-22.8335],[-42.7155,-22.835],[-42.7146,-22.8358]],[[-42.7148,-22.8403],[-42.7153,-22.85],[-42.7188,-22.853],[-42.7172,-22.8488],[-42.7234,-22.8454],[-42.7172,-22.8457],[-42.7238,-22.8443],[-42.7197,-22.8424],[-42.717,-22.8453],[-42.7158,-22.8429],[-42.7189,-22.8418],[-42.7152,-22.8418],[-42.7148,-22.8403]]]}},{"type":"Feature","properties":{"cod_tema":"ARL_PROPOSTA","cod_imovel":"RJ-3305752-90A822CF68134F139D0BC2BA20B1D158","num_area":"219.83370000000000000000000000000","ind_status":"AT"},"geometry":{"type":"Polygon","coordinates":[[[-42.7118,-22.8466],[-42.7086,-22.8452],[-42.7067,-22.835],[-42.7019,-22.8373],[-42.7038,-22.8343],[-42.6985,-22.8346],[-42.7027,-22.8548],[-42.7141,-22.8568],[-42.7118,-22.8466]],[[-42.7047,-22.8483],[-42.7017,-22.8475],[-42.7091,-22.8463],[-42.7047,-22.8483],[-42.7047,-22.8483]]]}},{"type":"Feature","properties":{"cod_tema":"ARL_PROPOSTA","cod_imovel":"RJ-3305752-D1282873CEDD4606999E3BDA385A9DB9","num_area":"25.573000000000000000000000000000","ind_status":"AT"},"geometry":{"type":"Polygon","coordinates":[[[-42.6785,-22.7989],[-42.6805,-22.8042],[-42.6845,-22.8013],[-42.6832,-22.7985],[-42.6785,-22.7989]]]}},{"type":"Feature","properties":{"cod_tema":"ARL_PROPOSTA","cod_imovel":"RJ-3305752-BEE2DB6933B24762BF05A76AA5AF0E02","num_area":"3.4814000000000000000000000000000","ind_status":"AT"},"geometry":{"type":"Polygon","coordinates":[[[-42.727,-22.7525],[-42.7245,-22.7501],[-42.7257,-22.7518],[-42.727,-22.7525]]]}},{"type":"Feature","properties":{"cod_tema":"ARL_PROPOSTA","cod_imovel":"RJ-3305752-029A3FF017F94EE6A5E704C6D7C088B4","num_area":"17.026800000000000000000000000000","ind_status":"AT"},"geometry":{"type":"Polygon","coordinates":[[[-42.749,-22.7183],[-42.7495,-22.7159],[-42.7447,-22.7157],[-42.7426,-22.7181],[-42.749,-22.7183]]]}},{"type":"Feature","properties":{"cod_tema":"ARL_PROPOSTA","cod_imovel":"RJ-3305752-630C8D84FBB747D885DB7C7EFED26C26","num_area":"3.3305000000000000000000000000000","ind_status":"AT"},"geometry":{"type":"Polygon","coordinates":[[[-42.7019,-22.753],[-42.7005,-22.7508],[-42.7018,-22.753],[-42.7019,-22.753]]]}},{"type":"Feature","properties":{"cod_tema":"ARL_PROPOSTA","cod_imovel":"RJ-3305752-1F3062267E224698BE4AABAEFDA4F517","num_area":"5.4714000000000000000000000000000","ind_status":"AT"},"geometry":{"type":"Polygon","coordinates":[[[-42.7864,-22.7879],[-42.786,-22.791],[-42.7869,-22.7882],[-42.7864,-22.7879]]]}},{"type":"Feature","properties":{"cod_tema":"ARL_PROPOSTA","cod_imovel":"RJ-3305752-3F1F73D6720A417CAC721E50D679FFF4","num_area":"0.8869000000000000000000000000000","ind_status":"AT"},"geometry":{"type":"Polygon","coordinates":[[[-42.6758,-22.8339],[-42.6735,-22.8351],[-42.6758,-22.834],[-42.6758,-22.8339]]]}},{"type":"Feature","properties":{"cod_tema":"ARL_PROPOSTA","cod_imovel":"RJ-3305752-9AD2D038267744D69D3C3B0C0CDC9D21","num_area":"3.2084000000000000000000000000000","ind_status":"AT"},"geometry":{"type":"Polygon","coordinates":[[[-42.7291,-22.7126],[-42.7275,-22.7146],[-42.7296,-22.713],[-42.7291,-22.7126]]]}},{"type":"Feature","properties":{"cod_tema":"ARL_PROPOSTA","cod_imovel":"RJ-3305752-77A2BC042EB24C3789E8FAB531A6E750","num_area":"1.9494000000000000000000000000000","ind_status":"AT"},"geometry":{"type":"Polygon","coordinates":[[[-42.7191,-22.8091],[-42.7166,-22.8094],[-42.7191,-22.81],[-42.7191,-22.8091]]]}},{"type":"Feature","properties":{"cod_tema":"ARL_PROPOSTA","cod_imovel":"RJ-3305752-7DC784B8328B42B39119FA483F3FA6D5","num_area":"9.6444000000000000000000000000000","ind_status":"AT"},"geometry":{"type":"Polygon","coordinates":[[[-42.7084,-22.8077],[-42.7042,-22.8083],[-42.7079,-22.8086],[-42.7084,-22.8077]],[[-42.7082,-22.8092],[-42.7021,-22.8116],[-42.706,-22.8098],[-42.7082,-22.8092]],[[-42.7082,-22.8088],[-42.7032,-22.8108],[-42.7082,-22.8088],[-42.7082,-22.8088]]]}},{"type":"Feature","properties":{"cod_tema":"ARL_PROPOSTA","cod_imovel":"RJ-3305752-C126651D55A646DE93E71D2785009DBF","num_area":"1.6505000000000000000000000000000","ind_status":"AT"},"geometry":{"type":"Polygon","coordinates":[[[-42.6623,-22.828],[-42.6664,-22.8274],[-42.6633,-22.8271],[-42.6623,-22.828]]]}},{"type":"Feature","properties":{"cod_tema":"ARL_PROPOSTA","cod_imovel":"RJ-3305752-0A3933B78E114B04AFD0B8D8D626D027","num_area":"4.2111000000000000000000000000000","ind_status":"AT"},"geometry":{"type":"Polygon","coordinates":[[[-42.7398,-22.8172],[-42.7366,-22.8167],[-42.7386,-22.8181],[-42.7398,-22.8172]]]}},{"type":"Feature","properties":{"cod_tema":"ARL_PROPOSTA","cod_imovel":"RJ-3305752-984F7EF831544CBEB55C6567C6022DB1","num_area":"4.9522000000000000000000000000000","ind_status":"AT"},"geometry":{"type":"Polygon","coordinates":[[[-42.7363,-22.7609],[-42.7347,-22.7585],[-42.7333,-22.7612],[-42.7363,-22.7609],[-42.7363,-22.7609]]]}},{"type":"Feature","properties":{"cod_tema":"ARL_PROPOSTA","cod_imovel":"RJ-3305752-9688EB56A7474305964CCE614A546DE8","num_area":"3.5956000000000000000000000000000","ind_status":"AT"},"geometry":{"type":"Polygon","coordinates":[[[-42.7757,-22.7936],[-42.7743,-22.7919],[-42.7753,-22.7942],[-42.7757,-22.7936]]]}},{"type":"Feature","properties":{"cod_tema":"ARL_PROPOSTA","cod_imovel":"RJ-3305752-63E04885728A428A8C2CEABCF76D6D68","num_area":"7.8859000000000000000000000000000","ind_status":"AT"},"geometry":{"type":"Polygon","coordinates":[[[-42.7748,-22.7607],[-42.7762,-22.7646],[-42.7755,-22.7606],[-42.7748,-22.7607]]]}},{"type":"Feature","properties":{"cod_tema":"ARL_PROPOSTA","cod_imovel":"RJ-3305752-7AA700005E6A407E8D852605B4BE6D46","num_area":"1.5624000000000000000000000000000","ind_status":"AT"},"geometry":{"type":"Polygon","coordinates":[[[-42.739,-22.7821],[-42.7413,-22.782],[-42.7392,-22.7816],[-42.739,-22.7821]]]}},{"type":"Feature","properties":{"cod_tema":"ARL_PROPOSTA","cod_imovel":"RJ-3305752-9830FCBD74FB4BAD969503AB202D6060","num_area":"5.8401000000000000000000000000000","ind_status":"AT"},"geometry":{"type":"Polygon","coordinates":[[[-42.6994,-22.7698],[-42.6981,-22.7724],[-42.7028,-22.7711],[-42.6994,-22.7698]]]}},{"type":"Feature","properties":{"cod_tema":"ARL_PROPOSTA","cod_imovel":"RJ-3305752-604407AB7ADC41958AA5386910848281","num_area":"2.4162000000000000000000000000000","ind_status":"AT"},"geometry":{"type":"Polygon","coordinates":[[[-42.7187,-22.7781],[-42.7169,-22.7808],[-42.7185,-22.7784],[-42.7187,-22.7781]]]}},{"type":"Feature","properties":{"cod_tema":"ARL_PROPOSTA","cod_imovel":"RJ-3305752-76B0B2823D89457A90BDF9D46B7DED6F","num_area":"3.1319000000000000000000000000000","ind_status":"AT"},"geometry":{"type":"Polygon","coordinates":[[[-42.6908,-22.8101],[-42.6878,-22.812],[-42.6911,-22.8109],[-42.6908,-22.8101]]]}},{"type":"Feature","properties":{"cod_tema":"ARL_PROPOSTA","cod_imovel":"RJ-3305752-8EAA48B937A0452FB9C36BA681B15D14","num_area":"9.0521000000000000000000000000000","ind_status":"AT"},"geometry":{"type":"Polygon","coordinates":[[[-42.7041,-22.7929],[-42.7015,-22.7901],[-42.7035,-22.7927],[-42.7041,-22.7929]]]}},{"type":"Feature","properties":{"cod_tema":"ARL_PROPOSTA","cod_imovel":"RJ-3305752-E137B1501B944DB99A2D34DD7E09AD25","num_area":"3.0813000000000000000000000000000","ind_status":"AT"},"geometry":{"type":"Polygon","coordinates":[[[-42.6853,-22.8056],[-42.6827,-22.8078],[-42.685,-22.8072],[-42.6853,-22.8056]]]}},{"type":"Feature","properties":{"cod_tema":"ARL_PROPOSTA","cod_imovel":"RJ-3305752-B99139D8575C4C46B28D95E70705221C","num_area":"2.3107000000000000000000000000000","ind_status":"AT"},"geometry":{"type":"Polygon","coordinates":[[[-42.7339,-22.7812],[-42.7364,-22.7796],[-42.7337,-22.781],[-42.7339,-22.7812]]]}},{"type":"Feature","properties":{"cod_tema":"ARL_PROPOSTA","cod_imovel":"RJ-3305752-BE9AAB42BC304A709B3B761C41A3041E","num_area":"7.4762000000000000000000000000000","ind_status":"AT"},"geometry":{"type":"Polygon","coordinates":[[[-42.6812,-22.771],[-42.6797,-22.7752],[-42.682,-22.7717],[-42.6812,-22.771]]]}},{"type":"Feature","properties":{"cod_tema":"ARL_PROPOSTA","cod_imovel":"RJ-3305752-2556B6130BBE4CBAA43C98F8FE7A384B","num_area":"47.391200000000000000000000000000","ind_status":"AT"},"geometry":{"type":"Polygon","coordinates":[[[-42.7386,-22.8393],[-42.7391,-22.8371],[-42.7276,-22.8373],[-42.7244,-22.8259],[-42.7243,-22.8389],[-42.7378,-22.8393],[-42.7386,-22.8393]]]}},{"type":"Feature","properties":{"cod_tema":"ARL_PROPOSTA","cod_imovel":"RJ-3305752-EE34C9B86E664121917CA73AAB764672","num_area":"57.283600000000000000000000000000","ind_status":"AT"},"geometry":{"type":"Polygon","coordinates":[[[-42.6649,-22.7906],[-42.66,-22.7951],[-42.6737,-22.7932],[-42.667,-22.789],[-42.665,-22.7906],[-42.6649,-22.7906]]]}},{"type":"Feature","properties":{"cod_tema":"ARL_PROPOSTA","cod_imovel":"RJ-3305752-498E6C8FE57D42ED8999F187960C9A65","num_area":"3.9804000000000000000000000000000","ind_status":"AT"},"geometry":{"type":"Polygon","coordinates":[[[-42.7332,-22.7148],[-42.7354,-22.7129],[-42.7336,-22.7144],[-42.7332,-22.7148]]]}},{"type":"Feature","properties":{"cod_tema":"ARL_PROPOSTA","cod_imovel":"RJ-3305752-6AD288D1699F48F2815B1D6EF8C50289","num_area":"8.0639000000000000000000000000000","ind_status":"AT"},"geometry":{"type":"Polygon","coordinates":[[[-42.7548,-22.7618],[-42.7569,-22.7619],[-42.7549,-22.7614],[-42.7548,-22.7618]]]}},{"type":"Feature","properties":{"cod_tema":"ARL_PROPOSTA","cod_imovel":"RJ-3305752-C794990EDC604918934079BE27247698","num_area":"3.0800000000000000000000000000000","ind_status":"AT"},"geometry":{"type":"Polygon","coordinates":[[[-42.7405,-22.7558],[-42.7405,-22.7532],[-42.7394,-22.7554],[-42.7405,-22.7558]]]}},{"type":"Feature","properties":{"cod_tema":"ARL_PROPOSTA","cod_imovel":"RJ-3305752-72F72B826D2F45FEA0C78D41FF9FB7DA","num_area":"34.585200000000000000000000000000","ind_status":"AT"},"geometry":{"type":"Polygon","coordinates":[[[-42.7548,-22.7515],[-42.7568,-22.753],[-42.7583,-22.7501],[-42.7458,-22.7419],[-42.751,-22.7485],[-42.7548,-22.7515]]]}},{"type":"Feature","properties":{"cod_tema":"ARL_PROPOSTA","cod_imovel":"RJ-3305752-8F878FC4100D4FA38F2CDBAD0EBEAD21","num_area":"2.0271000000000000000000000000000","ind_status":"PE"},"geometry":{"type":"Polygon","coordinates":[[[-42.7312,-22.7993],[-42.7294,-22.7978],[-42.7309,-22.7999],[-42.7312,-22.7993]]]}},{"type":"Feature","properties":{"cod_tema":"ARL_PROPOSTA","cod_imovel":"RJ-3305752-CA11FD668D434A918A22F10B708E1DEC","num_area":"11.039400000000000000000000000000","ind_status":"AT"},"geometry":{"type":"Polygon","coordinates":[[[-42.7329,-22.7613],[-42.7348,-22.7583],[-42.7327,-22.7574],[-42.732,-22.761],[-42.7329,-22.7613]],[[-42.7277,-22.7575],[-42.727,-22.7527],[-42.7276,-22.7574],[-42.7277,-22.7575]]]}},{"type":"Feature","properties":{"cod_tema":"ARL_PROPOSTA","cod_imovel":"RJ-3305752-4E62DD08BCD042C180494623483F5D7D","num_area":"4.8900000000000000000000000000000","ind_status":"AT"},"geometry":{"type":"Polygon","coordinates":[[[-42.6995,-22.789],[-42.6965,-22.79],[-42.6986,-22.7908],[-42.6995,-22.789]]]}},{"type":"Feature","properties":{"cod_tema":"ARL_PROPOSTA","cod_imovel":"RJ-3305752-B217529FAC8F4AF89DF3C892518929F3","num_area":"12.002400000000000000000000000000","ind_status":"AT"},"geometry":{"type":"Polygon","coordinates":[[[-42.6925,-22.7759],[-42.6878,-22.7694],[-42.6916,-22.7757],[-42.6925,-22.7759]],[[-42.6858,-22.767],[-42.6811,-22.7701],[-42.6861,-22.7672],[-42.6858,-22.767]]]}},{"type":"Feature","properties":{"cod_tema":"ARL_PROPOSTA","cod_imovel":"RJ-3305752-655AFBE775204821B6E08DC4CBFD4CA7","num_area":"2.1159000000000000000000000000000","ind_status":"AT"},"geometry":{"type":"Polygon","coordinates":[[[-42.7176,-22.7725],[-42.7208,-22.7725],[-42.7176,-22.7725],[-42.7176,-22.7725]]]}},{"type":"Feature","properties":{"cod_tema":"ARL_PROPOSTA","cod_imovel":"RJ-3305752-B254158DFA984F009ED5851DC0084571","num_area":"2.4684000000000000000000000000000","ind_status":"AT"},"geometry":{"type":"Polygon","coordinates":[[[-42.7096,-22.7333],[-42.7066,-22.7356],[-42.7099,-22.7335],[-42.7096,-22.7333]]]}},{"type":"Feature","properties":{"cod_tema":"ARL_PROPOSTA","cod_imovel":"RJ-3305752-3CCA8EC7EA2D40E7B4CD7C04F136FB51","num_area":"3.9223000000000000000000000000000","ind_status":"AT"},"geometry":{"type":"Polygon","coordinates":[[[-42.6819,-22.8311],[-42.6775,-22.832],[-42.682,-22.8324],[-42.6819,-22.8311]]]}},{"type":"Feature","properties":{"cod_tema":"ARL_PROPOSTA","cod_imovel":"RJ-3305752-13B6612DA3914004A9200431477855FD","num_area":"1.7232000000000000000000000000000","ind_status":"AT"},"geometry":{"type":"Polygon","coordinates":[[[-42.7569,-22.7732],[-42.7558,-22.7749],[-42.7572,-22.7728],[-42.7569,-22.7732]]]}},{"type":"Feature","properties":{"cod_tema":"ARL_PROPOSTA","cod_imovel":"RJ-3305752-E6DA9685132D476CBACDC41C0018D071","num_area":"6.0249000000000000000000000000000","ind_status":"AT"},"geometry":{"type":"Polygon","coordinates":[[[-42.6947,-22.7626],[-42.6917,-22.7638],[-42.6943,-22.7633],[-42.6947,-22.7626]]]}},{"type":"Feature","properties":{"cod_tema":"ARL_PROPOSTA","cod_imovel":"RJ-3305752-F7307453CFEB454785FB165AE8246F30","num_area":"5.0605000000000000000000000000000","ind_status":"AT"},"geometry":{"type":"Polygon","coordinates":[[[-42.6782,-22.8107],[-42.6816,-22.8118],[-42.6782,-22.8097],[-42.6782,-22.8107]]]}},{"type":"Feature","properties":{"cod_tema":"ARL_PROPOSTA","cod_imovel":"RJ-3305752-FE015819C87F4132A9F89388E0F185BA","num_area":"3.3816000000000000000000000000000","ind_status":"AT"},"geometry":{"type":"Polygon","coordinates":[[[-42.6824,-22.8156],[-42.6807,-22.817],[-42.6824,-22.8157],[-42.6824,-22.8156]]]}},{"type":"Feature","properties":{"cod_tema":"ARL_PROPOSTA","cod_imovel":"RJ-3305752-1A3BDFA6CD1E47059B612733DD5ABC1D","num_area":"3.8612000000000000000000000000000","ind_status":"AT"},"geometry":{"type":"Polygon","coordinates":[[[-42.7353,-22.7102],[-42.7326,-22.7102],[-42.7343,-22.7114],[-42.7353,-22.7102]]]}},{"type":"Feature","properties":{"cod_tema":"ARL_PROPOSTA","cod_imovel":"RJ-3305752-325947F7797E407B8F0629095C03AC0A","num_area":"6.4447000000000000000000000000000","ind_status":"AT"},"geometry":{"type":"Polygon","coordinates":[[[-42.7075,-22.7381],[-42.7057,-22.7406],[-42.7089,-22.7387],[-42.7075,-22.7381]]]}},{"type":"Feature","properties":{"cod_tema":"ARL_PROPOSTA","cod_imovel":"RJ-3305752-860140B9CCD744E595A2D56C4CCC58CB","num_area":"13.813200000000000000000000000000","ind_status":"AT"},"geometry":{"type":"Polygon","coordinates":[[[-42.6789,-22.7549],[-42.676,-22.76],[-42.68,-22.7569],[-42.6789,-22.7549]],[[-42.6865,-22.7602],[-42.6873,-22.7569],[-42.6863,-22.7598],[-42.6865,-22.7602]],[[-42.6867,-22.7598],[-42.688,-22.7572],[-42.6866,-22.7597],[-42.6867,-22.7598]]]}},{"type":"Feature","properties":{"cod_tema":"ARL_PROPOSTA","cod_imovel":"RJ-3305752-8C89F7CD199F47C383391BFD560E582C","num_area":"168.03680000000000000000000000000","ind_status":"AT"},"geometry":{"type":"Polygon","coordinates":[[[-42.6809,-22.8147],[-42.676,-22.8182],[-42.6824,-22.8267],[-42.6916,-22.8276],[-42.6909,-22.8152],[-42.6809,-22.8147]]]}},{"type":"Feature","properties":{"cod_tema":"ARL_PROPOSTA","cod_imovel":"RJ-3305752-E73DBC1F5CB341508E3B0CAC0BF03842","num_area":"4.7698000000000000000000000000000","ind_status":"AT"},"geometry":{"type":"Polygon","coordinates":[[[-42.7984,-22.7439],[-42.7982,-22.741],[-42.7976,-22.7436],[-42.7984,-22.7439]]]}},{"type":"Feature","properties":{"cod_tema":"ARL_PROPOSTA","cod_imovel":"RJ-3305752-43C9A50F8D1E4E7497FD6F13715E0668","num_area":"13.021900000000000000000000000000","ind_status":"AT"},"geometry":{"type":"Polygon","coordinates":[[[-42.6973,-22.8257],[-42.7024,-22.825],[-42.6974,-22.8224],[-42.6972,-22.8245],[-42.6973,-22.8257]]]}},{"type":"Feature","properties":{"cod_tema":"ARL_PROPOSTA","cod_imovel":"RJ-3305752-D81F63BA3DF24986BF3B7D01F2093950","num_area":"4.9040000000000000000000000000000","ind_status":"AT"},"geometry":{"type":"Polygon","coordinates":[[[-42.7073,-22.7816],[-42.7046,-22.7829],[-42.7073,-22.7817],[-42.7073,-22.7816]]]}},{"type":"Feature","properties":{"cod_tema":"ARL_PROPOSTA","cod_imovel":"RJ-3305752-D3ECD42D5ACA49D689641218B486E403","num_area":"31.729900000000000000000000000000","ind_status":"AT"},"geometry":{"type":"Polygon","coordinates":[[[-42.7258,-22.7153],[-42.716,-22.718],[-42.718,-22.7203],[-42.7258,-22.719],[-42.7266,-22.716],[-42.7258,-22.7153]]]}},{"type":"Feature","properties":{"cod_tema":"ARL_PROPOSTA","cod_imovel":"RJ-3305752-0CB1F7AFA0684CDFB83CCAA9BC2165B5","num_area":"2.9589000000000000000000000000000","ind_status":"AT"},"geometry":{"type":"Polygon","coordinates":[[[-42.7474,-22.7906],[-42.7449,-22.791],[-42.7468,-22.7917],[-42.7474,-22.7906]]]}},{"type":"Feature","properties":{"cod_tema":"ARL_PROPOSTA","cod_imovel":"RJ-3305752-56337BB3D89946B4B04A767829D601C7","num_area":"2.7849000000000000000000000000000","ind_status":"AT"},"geometry":{"type":"Polygon","coordinates":[[[-42.7187,-22.7923],[-42.7154,-22.7915],[-42.7185,-22.793],[-42.7187,-22.7923]]]}},{"type":"Feature","properties":{"cod_tema":"ARL_PROPOSTA","cod_imovel":"RJ-3305752-0F71491250764B9CB0CDCE7259D139D5","num_area":"10.946500000000000000000000000000","ind_status":"AT"},"geometry":{"type":"Polygon","coordinates":[[[-42.6943,-22.7753],[-42.6882,-22.7733],[-42.6934,-22.7765],[-42.6943,-22.7753]]]}},{"type":"Feature","properties":{"cod_tema":"ARL_PROPOSTA","cod_imovel":"RJ-3305752-80D34FD9C0484BC38E7F348CD6EC5495","num_area":"10.689200000000000000000000000000","ind_status":"AT"},"geometry":{"type":"Polygon","coordinates":[[[-42.6768,-22.7934],[-42.6851,-22.7932],[-42.6775,-22.7927],[-42.6768,-22.7934]]]}},{"type":"Feature","properties":{"cod_tema":"ARL_PROPOSTA","cod_imovel":"RJ-3305752-2D4DBEA734CF4A13919A125A1B502A7B","num_area":"3.5861000000000000000000000000000","ind_status":"PE"},"geometry":{"type":"Polygon","coordinates":[[[-42.7252,-22.7636],[-42.7253,-22.7598],[-42.7252,-22.7637],[-42.7252,-22.7636]]]}},{"type":"Feature","properties":{"cod_tema":"ARL_PROPOSTA","cod_imovel":"RJ-3305752-86B6F7E6989144E499F535E8A63BB7EA","num_area":"5.8477000000000000000000000000000","ind_status":"AT"},"geometry":{"type":"Polygon","coordinates":[[[-42.7593,-22.7176],[-42.7571,-22.7137],[-42.7582,-22.7165],[-42.7593,-22.7176]]]}},{"type":"Feature","properties":{"cod_tema":"ARL_PROPOSTA","cod_imovel":"RJ-3305752-D20F3702355A49FC9601E5A5E47F860E","num_area":"4.8394000000000000000000000000000","ind_status":"AT"},"geometry":{"type":"Polygon","coordinates":[[[-42.7141,-22.8294],[-42.7171,-22.8289],[-42.7145,-22.8289],[-42.7141,-22.8294]]]}},{"type":"Feature","properties":{"cod_tema":"ARL_PROPOSTA","cod_imovel":"RJ-3305752-F3920ED1D41B45A9AB6F41F4AF882EED","num_area":"13.205500000000000000000000000000","ind_status":"AT"},"geometry":{"type":"Polygon","coordinates":[[[-42.7521,-22.7222],[-42.7517,-22.7253],[-42.7556,-22.7273],[-42.7524,-22.7225],[-42.7555,-22.7222],[-42.7521,-22.7222],[-42.7521,-22.7222]]]}},{"type":"Feature","properties":{"cod_tema":"ARL_PROPOSTA","cod_imovel":"RJ-3305752-F827BAA92FEC498D8B2AB7C6149FEA9C","num_area":"18.047400000000000000000000000000","ind_status":"AT"},"geometry":{"type":"Polygon","coordinates":[[[-42.7354,-22.7097],[-42.7311,-22.7079],[-42.7363,-22.7102],[-42.7354,-22.7097]],[[-42.7409,-22.713],[-42.7351,-22.7111],[-42.7405,-22.7135],[-42.7409,-22.713]]]}},{"type":"Feature","properties":{"cod_tema":"ARL_PROPOSTA","cod_imovel":"RJ-3305752-58E96E71EF164D0B800CC147BD168181","num_area":"18.141100000000000000000000000000","ind_status":"AT"},"geometry":{"type":"Polygon","coordinates":[[[-42.7392,-22.7133],[-42.7422,-22.7123],[-42.7421,-22.7075],[-42.7395,-22.7121],[-42.7392,-22.7133]]]}},{"type":"Feature","properties":{"cod_tema":"ARL_PROPOSTA","cod_imovel":"RJ-3305752-2471266A6DF54E7A80C4534A4DAFCB15","num_area":"3.3642000000000000000000000000000","ind_status":"AT"},"geometry":{"type":"Polygon","coordinates":[[[-42.7379,-22.7156],[-42.7346,-22.7156],[-42.7375,-22.7159],[-42.7379,-22.7156]]]}},{"type":"Feature","properties":{"cod_tema":"ARL_PROPOSTA","cod_imovel":"RJ-3305752-4C1E044C6AC64E9D9E43125394CA5D56","num_area":"9.9545000000000000000000000000000","ind_status":"AT"},"geometry":{"type":"Polygon","coordinates":[[[-42.6979,-22.8226],[-42.6933,-22.826],[-42.7,-22.825],[-42.6982,-22.823],[-42.6979,-22.8226]]]}},{"type":"Feature","properties":{"cod_tema":"ARL_PROPOSTA","cod_imovel":"RJ-3305752-1832BFC7ACC347A1BC78A9C476669D29","num_area":"30.924700000000000000000000000000","ind_status":"AT"},"geometry":{"type":"Polygon","coordinates":[[[-42.6963,-22.7437],[-42.6951,-22.7505],[-42.6962,-22.7441],[-42.7001,-22.7475],[-42.6963,-22.7437],[-42.6963,-22.7437]],[[-42.7001,-22.7475],[-42.6964,-22.7435],[-42.7001,-22.7475],[-42.7001,-22.7475]],[[-42.6997,-22.729],[-42.7064,-22.7307],[-42.7001,-22.7291],[-42.6997,-22.729]],[[-42.6995,-22.7293],[-42.7004,-22.7352],[-42.6996,-22.7293],[-42.6995,-22.7293]],[[-42.7005,-22.7352],[-42.7024,-22.7391],[-42.7005,-22.7351],[-42.7005,-22.7352]],[[-42.7024,-22.7391],[-42.7026,-22.7352],[-42.7067,-22.7363],[-42.7022,-22.7349],[-42.7024,-22.739],[-42.7024,-22.7391]],[[-42.7067,-22.7363],[-42.7086,-22.7331],[-42.7047,-22.7321],[-42.7075,-22.7309],[-42.7035,-22.7317],[-42.7066,-22.7334],[-42.7008,-22.7308],[-42.704,-22.7359],[-42.7081,-22.7332],[-42.7066,-22.7363],[-42.7067,-22.7363]],[[-42.7033,-22.7315],[-42.7066,-22.735],[-42.7024,-22.7346],[-42.7012,-22.7309],[-42.7033,-22.7315],[-42.7033,-22.7315]]]}},{"type":"Feature","properties":{"cod_tema":"ARL_PROPOSTA","cod_imovel":"RJ-3305752-F6E484EB4F5649CA98045EDC4E40D3DB","num_area":"2.4190000000000000000000000000000","ind_status":"AT"},"geometry":{"type":"Polygon","coordinates":[[[-42.7409,-22.8194],[-42.7438,-22.8212],[-42.7411,-22.8188],[-42.7409,-22.8194]]]}},{"type":"Feature","properties":{"cod_tema":"ARL_PROPOSTA","cod_imovel":"RJ-3305752-2AFD09187FB347188C077CA5DBC40B01","num_area":"8.2156000000000000000000000000000","ind_status":"AT"},"geometry":{"type":"Polygon","coordinates":[[[-42.7565,-22.7534],[-42.7571,-22.7568],[-42.7567,-22.753],[-42.7565,-22.7534]]]}},{"type":"Feature","properties":{"cod_tema":"ARL_PROPOSTA","cod_imovel":"RJ-3305752-C25D5AA520A24FF3830E81B1478030BA","num_area":"2.5945000000000000000000000000000","ind_status":"AT"},"geometry":{"type":"Polygon","coordinates":[[[-42.6902,-22.8011],[-42.6885,-22.803],[-42.6908,-22.8017],[-42.6902,-22.8011]]]}},{"type":"Feature","properties":{"cod_tema":"ARL_PROPOSTA","cod_imovel":"RJ-3305752-537C4492B8914AC288D64EF6375288B0","num_area":"2.5656000000000000000000000000000","ind_status":"AT"},"geometry":{"type":"Polygon","coordinates":[[[-42.7679,-22.7963],[-42.7721,-22.7977],[-42.7682,-22.7958],[-42.7679,-22.7963]]]}},{"type":"Feature","properties":{"cod_tema":"ARL_PROPOSTA","cod_imovel":"RJ-3305752-D54DE07A4B19479EA3185D761E90B288","num_area":"73.724200000000000000000000000000","ind_status":"AT"},"geometry":{"type":"Polygon","coordinates":[[[-42.7358,-22.7275],[-42.7415,-22.7244],[-42.7397,-22.7157],[-42.7348,-22.7218],[-42.7358,-22.7274],[-42.7358,-22.7275]]]}},{"type":"Feature","properties":{"cod_tema":"ARL_PROPOSTA","cod_imovel":"RJ-3305752-730A2828768F4AEA89B2DD7C7AB4966A","num_area":"8.0261000000000000000000000000000","ind_status":"AT"},"geometry":{"type":"Polygon","coordinates":[[[-42.7282,-22.8144],[-42.7299,-22.8126],[-42.7278,-22.8136],[-42.7282,-22.8144]],[[-42.7322,-22.8119],[-42.7326,-22.8151],[-42.7325,-22.8119],[-42.7322,-22.8119]],[[-42.7322,-22.8155],[-42.7319,-22.8118],[-42.7287,-22.8147],[-42.7319,-22.8157],[-42.7322,-22.8155]]]}},{"type":"Feature","properties":{"cod_tema":"ARL_PROPOSTA","cod_imovel":"RJ-3305752-2EEC0F3F90E0447E996497755051E446","num_area":"10.031400000000000000000000000000","ind_status":"AT"},"geometry":{"type":"Polygon","coordinates":[[[-42.7848,-22.7919],[-42.7824,-22.7874],[-42.7836,-22.7914],[-42.781,-22.7936],[-42.7848,-22.7919]]]}},{"type":"Feature","properties":{"cod_tema":"ARL_PROPOSTA","cod_imovel":"RJ-3305752-8404929419B64DD5802C8128651FC0F9","num_area":"10.047400000000000000000000000000","ind_status":"AT"},"geometry":{"type":"Polygon","coordinates":[[[-42.7752,-22.7842],[-42.7736,-22.7875],[-42.7786,-22.7855],[-42.7752,-22.7842]]]}},{"type":"Feature","properties":{"cod_tema":"ARL_PROPOSTA","cod_imovel":"RJ-3305752-47E7461CE358434F9517D3EB0645FF87","num_area":"9.2702000000000000000000000000000","ind_status":"AT"},"geometry":{"type":"Polygon","coordinates":[[[-42.7756,-22.7884],[-42.7729,-22.79],[-42.7776,-22.7886],[-42.7756,-22.7884]]]}},{"type":"Feature","properties":{"cod_tema":"ARL_PROPOSTA","cod_imovel":"RJ-3305752-F64D5807FCD4490CB01AF5C06ECCBE03","num_area":"2.0814000000000000000000000000000","ind_status":"AT"},"geometry":{"type":"Polygon","coordinates":[[[-42.7649,-22.7838],[-42.7658,-22.7819],[-42.7641,-22.7834],[-42.7649,-22.7838]]]}},{"type":"Feature","properties":{"cod_tema":"ARL_PROPOSTA","cod_imovel":"RJ-3305752-195F9E53FE41483394A5EE9C383F349C","num_area":"3.4138000000000000000000000000000","ind_status":"AT"},"geometry":{"type":"Polygon","coordinates":[[[-42.6874,-22.8043],[-42.6853,-22.8057],[-42.6883,-22.8054],[-42.6874,-22.8043]]]}},{"type":"Feature","properties":{"cod_tema":"ARL_PROPOSTA","cod_imovel":"RJ-3305752-6DFD42732A5C403C82C991AA21D6A9A9","num_area":"40.302700000000000000000000000000","ind_status":"AT"},"geometry":{"type":"Polygon","coordinates":[[[-42.7805,-22.7921],[-42.7844,-22.7936],[-42.7831,-22.7861],[-42.7826,-22.7909],[-42.7805,-22.7921]],[[-42.7802,-22.785],[-42.777,-22.7833],[-42.7746,-22.7893],[-42.7778,-22.7909],[-42.7772,-22.7863],[-42.7796,-22.7857],[-42.7802,-22.785]]]}},{"type":"Feature","properties":{"cod_tema":"ARL_PROPOSTA","cod_imovel":"RJ-3305752-D3DE698CFDDD4833B3D1052A00A87050","num_area":"1.7458000000000000000000000000000","ind_status":"AT"},"geometry":{"type":"Polygon","coordinates":[[[-42.7372,-22.7637],[-42.7361,-22.7617],[-42.7354,-22.7637],[-42.7372,-22.7637]]]}},{"type":"Feature","properties":{"cod_tema":"ARL_PROPOSTA","cod_imovel":"RJ-3305752-A969EB39A1D74AA8A01245B168034913","num_area":"13.558100000000000000000000000000","ind_status":"AT"},"geometry":{"type":"Polygon","coordinates":[[[-42.6692,-22.8211],[-42.6734,-22.8207],[-42.6698,-22.8211],[-42.6692,-22.8211]],[[-42.6774,-22.8218],[-42.67,-22.8231],[-42.6769,-22.8229],[-42.6774,-22.8218]]]}},{"type":"Feature","properties":{"cod_tema":"ARL_PROPOSTA","cod_imovel":"RJ-3305752-3C8AD9CDE88F430B8C988BF033424A3A","num_area":"5.0383000000000000000000000000000","ind_status":"AT"},"geometry":{"type":"Polygon","coordinates":[[[-42.6961,-22.7761],[-42.699,-22.7759],[-42.6963,-22.7758],[-42.6961,-22.7761]]]}},{"type":"Feature","properties":{"cod_tema":"ARL_PROPOSTA","cod_imovel":"RJ-3305752-551D5C7736714C29B4542CA9008E0FF8","num_area":"5.0642000000000000000000000000000","ind_status":"AT"},"geometry":{"type":"Polygon","coordinates":[[[-42.7726,-22.7599],[-42.7727,-22.7576],[-42.7706,-22.7598],[-42.7726,-22.7599]]]}},{"type":"Feature","properties":{"cod_tema":"ARL_PROPOSTA","cod_imovel":"RJ-3305752-F31CB2C35B19410FA6F3F824DBA7FCE8","num_area":"10.598000000000000000000000000000","ind_status":"AT"},"geometry":{"type":"Polygon","coordinates":[[[-42.7544,-22.7672],[-42.7522,-22.766],[-42.7536,-22.7687],[-42.7544,-22.7672]],[[-42.7495,-22.7715],[-42.7523,-22.7735],[-42.7497,-22.7713],[-42.7495,-22.7715]]]}},{"type":"Feature","properties":{"cod_tema":"ARL_PROPOSTA","cod_imovel":"RJ-3305752-9F26E35D67014B88AAA54606B62CC961","num_area":"5.0821000000000000000000000000000","ind_status":"AT"},"geometry":{"type":"Polygon","coordinates":[[[-42.7726,-22.7615],[-42.7721,-22.7653],[-42.7737,-22.7619],[-42.7726,-22.7615]]]}},{"type":"Feature","properties":{"cod_tema":"ARL_PROPOSTA","cod_imovel":"RJ-3305752-629A22E65ABB409AA320CA8505288F4A","num_area":"1.8520000000000000000000000000000","ind_status":"AT"},"geometry":{"type":"Polygon","coordinates":[[[-42.7163,-22.7803],[-42.7144,-22.7834],[-42.7158,-22.7812],[-42.7163,-22.7803]]]}},{"type":"Feature","properties":{"cod_tema":"ARL_PROPOSTA","cod_imovel":"RJ-3305752-EDC95B08F7AA432FAC75C46E4643ACE2","num_area":"0.8552000000000000000000000000000","ind_status":"AT"},"geometry":{"type":"Polygon","coordinates":[[[-42.7454,-22.7259],[-42.7459,-22.7284],[-42.7455,-22.726],[-42.7454,-22.7259]]]}},{"type":"Feature","properties":{"cod_tema":"ARL_PROPOSTA","cod_imovel":"RJ-3305752-8B2D3ACE24814FA093F0BCA40EAB9430","num_area":"2.4902000000000000000000000000000","ind_status":"AT"},"geometry":{"type":"Polygon","coordinates":[[[-42.7407,-22.8216],[-42.7432,-22.8221],[-42.7414,-22.821],[-42.7407,-22.8216]]]}},{"type":"Feature","properties":{"cod_tema":"ARL_PROPOSTA","cod_imovel":"RJ-3305752-81C9B88E29B94BBCBC0BCDED1BEB3435","num_area":"8.1333000000000000000000000000000","ind_status":"AT"},"geometry":{"type":"Polygon","coordinates":[[[-42.7376,-22.6997],[-42.7365,-22.6977],[-42.7349,-22.7007],[-42.7375,-22.6997],[-42.7376,-22.6997]]]}},{"type":"Feature","properties":{"cod_tema":"ARL_PROPOSTA","cod_imovel":"RJ-3305752-7C5B6AA016A344A0A8CF98ECEB24E0A8","num_area":"104.87480000000000000000000000000","ind_status":"AT"},"geometry":{"type":"Polygon","coordinates":[[[-42.76,-22.7775],[-42.7579,-22.777],[-42.7599,-22.7773],[-42.76,-22.7775]],[[-42.757,-22.7634],[-42.7536,-22.7664],[-42.7581,-22.764],[-42.757,-22.7634]],[[-42.7675,-22.7828],[-42.7665,-22.7847],[-42.7675,-22.7829],[-42.7675,-22.7828]],[[-42.7744,-22.7817],[-42.7825,-22.7821],[-42.7775,-22.7762],[-42.7744,-22.7817]],[[-42.7654,-22.7869],[-42.761,-22.788],[-42.7748,-22.7914],[-42.7763,-22.7839],[-42.7724,-22.7853],[-42.7686,-22.7827],[-42.7726,-22.7891],[-42.7657,-22.7862],[-42.7654,-22.7869]]]}},{"type":"Feature","properties":{"cod_tema":"ARL_PROPOSTA","cod_imovel":"RJ-3305752-6070CCBAB84C4A97961F1ACC7E3A538E","num_area":"7.8539000000000000000000000000000","ind_status":"AT"},"geometry":{"type":"Polygon","coordinates":[[[-42.7444,-22.7979],[-42.7422,-22.7971],[-42.7418,-22.8017],[-42.7444,-22.7979]]]}},{"type":"Feature","properties":{"cod_tema":"ARL_PROPOSTA","cod_imovel":"RJ-3305752-F260CEDAE0244D03810400087CEB6758","num_area":"10.539900000000000000000000000000","ind_status":"AT"},"geometry":{"type":"Polygon","coordinates":[[[-42.6943,-22.8033],[-42.6967,-22.802],[-42.6889,-22.8037],[-42.6938,-22.8034],[-42.6943,-22.8033]]]}},{"type":"Feature","properties":{"cod_tema":"ARL_PROPOSTA","cod_imovel":"RJ-3305752-2F289F004F2B4B779B7F91BD38D3EB1B","num_area":"10.374600000000000000000000000000","ind_status":"AT"},"geometry":{"type":"Polygon","coordinates":[[[-42.7454,-22.6902],[-42.7496,-22.6871],[-42.748,-22.6856],[-42.7445,-22.6895],[-42.7454,-22.6902]]]}},{"type":"Feature","properties":{"cod_tema":"ARL_PROPOSTA","cod_imovel":"RJ-3305752-FAA8F8C576D24943A8CC235113558B70","num_area":"1.7063000000000000000000000000000","ind_status":"AT"},"geometry":{"type":"Polygon","coordinates":[[[-42.7428,-22.7566],[-42.745,-22.7579],[-42.7429,-22.7566],[-42.7428,-22.7566]]]}},{"type":"Feature","properties":{"cod_tema":"ARL_PROPOSTA","cod_imovel":"RJ-3305752-3B16338222D94C799B781C58A356C94B","num_area":"2.1568000000000000000000000000000","ind_status":"AT"},"geometry":{"type":"Polygon","coordinates":[[[-42.7042,-22.7528],[-42.7092,-22.7557],[-42.7051,-22.7538],[-42.7042,-22.7528]]]}},{"type":"Feature","properties":{"cod_tema":"ARL_PROPOSTA","cod_imovel":"RJ-3305752-BD26AA320D5140109651B2D4BB5E4FEE","num_area":"2.9814000000000000000000000000000","ind_status":"AT"},"geometry":{"type":"Polygon","coordinates":[[[-42.7513,-22.7875],[-42.7482,-22.7882],[-42.7513,-22.7875],[-42.7513,-22.7875]]]}},{"type":"Feature","properties":{"cod_tema":"ARL_PROPOSTA","cod_imovel":"RJ-3305752-A02778FC003E45CAA77E1706356D9660","num_area":"6.8480000000000000000000000000000","ind_status":"AT"},"geometry":{"type":"Polygon","coordinates":[[[-42.7516,-22.7193],[-42.7504,-22.7156],[-42.7511,-22.7192],[-42.7516,-22.7193]]]}},{"type":"Feature","properties":{"cod_tema":"ARL_PROPOSTA","cod_imovel":"RJ-3305752-D8457A7F8AEA497D97B90859D3E0156E","num_area":"1.7076000000000000000000000000000","ind_status":"AT"},"geometry":{"type":"Polygon","coordinates":[[[-42.7405,-22.7671],[-42.7425,-22.7679],[-42.7407,-22.767],[-42.7405,-22.7671]]]}},{"type":"Feature","properties":{"cod_tema":"ARL_PROPOSTA","cod_imovel":"RJ-3305752-18CABF2FE9954B618D56ABAEADA4A2F4","num_area":"15.905900000000000000000000000000","ind_status":"AT"},"geometry":{"type":"Polygon","coordinates":[[[-42.7041,-22.8508],[-42.7063,-22.852],[-42.7091,-22.8469],[-42.7038,-22.8499],[-42.7041,-22.8508]]]}},{"type":"Feature","properties":{"cod_tema":"ARL_PROPOSTA","cod_imovel":"RJ-3305752-4794DE72157140A5B62BD056F307F86E","num_area":"0.9482000000000000000000000000000","ind_status":"AT"},"geometry":{"type":"Polygon","coordinates":[[[-42.7695,-22.791],[-42.7683,-22.7892],[-42.7695,-22.791],[-42.7695,-22.791]]]}},{"type":"Feature","properties":{"cod_tema":"ARL_PROPOSTA","cod_imovel":"RJ-3305752-E4CEFE5E076543A1A1FFC5D757A12088","num_area":"8.8499000000000000000000000000000","ind_status":"AT"},"geometry":{"type":"Polygon","coordinates":[[[-42.7235,-22.7817],[-42.7252,-22.7792],[-42.723,-22.7778],[-42.721,-22.7808],[-42.7229,-22.7791],[-42.7235,-22.7815],[-42.7235,-22.7817]]]}},{"type":"Feature","properties":{"cod_tema":"ARL_PROPOSTA","cod_imovel":"RJ-3305752-D531D8A45E0A46D7AC86B3EE5388BE75","num_area":"5.5738000000000000000000000000000","ind_status":"AT"},"geometry":{"type":"Polygon","coordinates":[[[-42.7909,-22.7907],[-42.7884,-22.7955],[-42.7916,-22.7912],[-42.7909,-22.7907]]]}},{"type":"Feature","properties":{"cod_tema":"ARL_PROPOSTA","cod_imovel":"RJ-3305752-75BE1B653156403E867C4827BA431FF8","num_area":"3.8684000000000000000000000000000","ind_status":"AT"},"geometry":{"type":"Polygon","coordinates":[[[-42.7454,-22.7089],[-42.7475,-22.7083],[-42.7454,-22.7089],[-42.7454,-22.7089]]]}},{"type":"Feature","properties":{"cod_tema":"ARL_PROPOSTA","cod_imovel":"RJ-3305752-9392B00FC3954F07BCC90D134FED57E8","num_area":"1.9416000000000000000000000000000","ind_status":"PE"},"geometry":{"type":"Polygon","coordinates":[[[-42.6879,-22.7652],[-42.6867,-22.7673],[-42.6883,-22.7658],[-42.6879,-22.7652]]]}},{"type":"Feature","properties":{"cod_tema":"ARL_PROPOSTA","cod_imovel":"RJ-3305752-7023F1B968A64321AEF392DFB2CD941A","num_area":"5.4473000000000000000000000000000","ind_status":"PE"},"geometry":{"type":"Polygon","coordinates":[[[-42.7738,-22.7679],[-42.7712,-22.7682],[-42.7738,-22.768],[-42.7738,-22.7679]],[[-42.7739,-22.7676],[-42.7728,-22.7655],[-42.7726,-22.7676],[-42.7739,-22.7676]]]}},{"type":"Feature","properties":{"cod_tema":"ARL_PROPOSTA","cod_imovel":"RJ-3305752-358490705D2041D0B358D4219F0D1E58","num_area":"1.6197000000000000000000000000000","ind_status":"PE"},"geometry":{"type":"Polygon","coordinates":[[[-42.6793,-22.776],[-42.6804,-22.7781],[-42.6795,-22.7758],[-42.6793,-22.776]]]}},{"type":"Feature","properties":{"cod_tema":"ARL_PROPOSTA","cod_imovel":"RJ-3305752-DC1D534D0A6F448B80B7DBFE8A5EE522","num_area":"3.1947000000000000000000000000000","ind_status":"PE"},"geometry":{"type":"Polygon","coordinates":[[[-42.7366,-22.7993],[-42.738,-22.797],[-42.7353,-22.7986],[-42.7366,-22.7993]]]}},{"type":"Feature","properties":{"cod_tema":"ARL_PROPOSTA","cod_imovel":"RJ-3305752-D4874C2E51C441DC85DD73DEA8E42927","num_area":"20.398000000000000000000000000000","ind_status":"PE"},"geometry":{"type":"Polygon","coordinates":[[[-42.7889,-22.7623],[-42.7852,-22.7601],[-42.7812,-22.763],[-42.7878,-22.7638],[-42.7889,-22.7623]]]}},{"type":"Feature","properties":{"cod_tema":"ARL_PROPOSTA","cod_imovel":"RJ-3305752-4F6E980AC1ED412FAA15D772AA0112B0","num_area":"1.1722000000000000000000000000000","ind_status":"PE"},"geometry":{"type":"Polygon","coordinates":[[[-42.7162,-22.7877],[-42.7188,-22.7884],[-42.7163,-22.7876],[-42.7162,-22.7877]]]}},{"type":"Feature","properties":{"cod_tema":"ARL_PROPOSTA","cod_imovel":"RJ-3305752-6071DD832E1D46C892D9DAB31826371A","num_area":"2.3915000000000000000000000000000","ind_status":"PE"},"geometry":{"type":"Polygon","coordinates":[[[-42.7024,-22.8137],[-42.7024,-22.8159],[-42.7027,-22.8134],[-42.7024,-22.8137]]]}},{"type":"Feature","properties":{"cod_tema":"ARL_PROPOSTA","cod_imovel":"RJ-3305752-6C0E19FBCC5547B0BB76D237FB492A8C","num_area":"4.6007000000000000000000000000000","ind_status":"AT"},"geometry":{"type":"Polygon","coordinates":[[[-42.7276,-22.8044],[-42.7302,-22.8061],[-42.7277,-22.8043],[-42.7276,-22.8044]]]}},{"type":"Feature","properties":{"cod_tema":"ARL_PROPOSTA","cod_imovel":"RJ-3305752-C8821C18B3F149DEA8B3A1E42C543425","num_area":"3.7022000000000000000000000000000","ind_status":"AT"},"geometry":{"type":"Polygon","coordinates":[[[-42.7477,-22.7067],[-42.7464,-22.7085],[-42.748,-22.7074],[-42.7477,-22.7067]]]}},{"type":"Feature","properties":{"cod_tema":"ARL_PROPOSTA","cod_imovel":"RJ-3305752-3D27423BBB994AD5BCF092013BB6B80C","num_area":"8.4331000000000000000000000000000","ind_status":"CA"},"geometry":{"type":"Polygon","coordinates":[[[-42.7256,-22.6972],[-42.7205,-22.6984],[-42.7246,-22.7001],[-42.7255,-22.6976],[-42.7256,-22.6972]]]}},{"type":"Feature","properties":{"cod_tema":"ARL_PROPOSTA","cod_imovel":"RJ-3305752-71E9E942542E4E6B8A48EBC0EB18F25F","num_area":"8.4621000000000000000000000000000","ind_status":"AT"},"geometry":{"type":"Polygon","coordinates":[[[-42.7226,-22.7119],[-42.7201,-22.7157],[-42.7231,-22.7139],[-42.7226,-22.7119]]]}},{"type":"Feature","properties":{"cod_tema":"ARL_PROPOSTA","cod_imovel":"RJ-3305752-9F54ACAE53C245DE8A27BFE095344A71","num_area":"2.4659000000000000000000000000000","ind_status":"PE"},"geometry":{"type":"Polygon","coordinates":[[[-42.7297,-22.797],[-42.7312,-22.7992],[-42.7298,-22.7969],[-42.7297,-22.797]]]}},{"type":"Feature","properties":{"cod_tema":"ARL_PROPOSTA","cod_imovel":"RJ-3305752-C157940CA988494CB32DD0BFCE50A673","num_area":"3.2720000000000000000000000000000","ind_status":"AT"},"geometry":{"type":"Polygon","coordinates":[[[-42.736,-22.7944],[-42.7368,-22.7963],[-42.7362,-22.794],[-42.736,-22.7944]]]}},{"type":"Feature","properties":{"cod_tema":"ARL_PROPOSTA","cod_imovel":"RJ-3305752-C55EEA4E035C4DE19A59192F2B27F89F","num_area":"2.4174000000000000000000000000000","ind_status":"PE"},"geometry":{"type":"Polygon","coordinates":[[[-42.7181,-22.7671],[-42.7154,-22.7677],[-42.718,-22.7674],[-42.7181,-22.7671]]]}}]}