{"type":"FeatureCollection","features":[{"type":"Feature","properties":{"cod_tema":"AREA_INFRAESTRUTURA_PUBLICA","cod_imovel":"RJ-3300100-5289B6474B4A461B87D956E33A1E4ADF","num_area":"16.107100000000000000000000000000","ind_status":"AT"},"geometry":{"type":"Polygon","coordinates":[[[-44.1937,-23.0365],[-44.1959,-23.0277],[-44.2007,-23.0312],[-44.1985,-23.0273],[-44.1947,-23.0278],[-44.1938,-23.0363],[-44.1937,-23.0365]]]}},{"type":"Feature","properties":{"cod_tema":"AREA_SERVIDAO_ADMINISTRATIVA_TOTAL","cod_imovel":"RJ-3300100-5289B6474B4A461B87D956E33A1E4ADF","num_area":"16.107100000000000000000000000000","ind_status":"AT"},"geometry":{"type":"Polygon","coordinates":[[[-44.1937,-23.0365],[-44.1959,-23.0277],[-44.2007,-23.0312],[-44.1985,-23.0273],[-44.1947,-23.0278],[-44.1938,-23.0363],[-44.1937,-23.0365]]]}},{"type":"Feature","properties":{"cod_tema":"AREA_UTILIDADE_PUBLICA","cod_imovel":"RJ-3300100-4A25F340A71E47B58A9FD9C5FDB51AB5","num_area":"3.1868000000000000000000000000000","ind_status":"AT"},"geometry":{"type":"Polygon","coordinates":[[[-44.2856,-22.9102],[-44.2808,-22.8934],[-44.2855,-22.9102],[-44.2856,-22.9102]]]}},{"type":"Feature","properties":{"cod_tema":"AREA_SERVIDAO_ADMINISTRATIVA_TOTAL","cod_imovel":"RJ-3300100-4A25F340A71E47B58A9FD9C5FDB51AB5","num_area":"3.1868000000000000000000000000000","ind_status":"AT"},"geometry":{"type":"Polygon","coordinates":[[[-44.2856,-22.9102],[-44.2808,-22.8934],[-44.2855,-22.9102],[-44.2856,-22.9102]]]}},{"type":"Feature","properties":{"cod_tema":"AREA_INFRAESTRUTURA_PUBLICA","cod_imovel":"RJ-3300100-23FDA9E286C1484F8B81ECCCE17C7A97","num_area":"1.6401000000000000000000000000000","ind_status":"AT"},"geometry":{"type":"Polygon","coordinates":[[[-44.2634,-23.0001],[-44.2596,-23.0059],[-44.2631,-23.0003],[-44.2634,-23.0001]]]}},{"type":"Feature","properties":{"cod_tema":"AREA_SERVIDAO_ADMINISTRATIVA_TOTAL","cod_imovel":"RJ-3300100-23FDA9E286C1484F8B81ECCCE17C7A97","num_area":"1.6401000000000000000000000000000","ind_status":"AT"},"geometry":{"type":"Polygon","coordinates":[[[-44.2634,-23.0001],[-44.2596,-23.0059],[-44.2631,-23.0003],[-44.2634,-23.0001]]]}},{"type":"Feature","properties":{"cod_tema":"AREA_UTILIDADE_PUBLICA","cod_imovel":"RJ-3300100-4E6E6299B92C4166872B7EC5F0C0B886","num_area":"0.2871000000000000000000000000000","ind_status":"AT"},"geometry":{"type":"Polygon","coordinates":[[[-44.4072,-22.9411],[-44.4085,-22.9367],[-44.4072,-22.9411],[-44.4072,-22.9411]]]}},{"type":"Feature","properties":{"cod_tema":"AREA_SERVIDAO_ADMINISTRATIVA_TOTAL","cod_imovel":"RJ-3300100-4E6E6299B92C4166872B7EC5F0C0B886","num_area":"0.2871000000000000000000000000000","ind_status":"AT"},"geometry":{"type":"Polygon","coordinates":[[[-44.4072,-22.9411],[-44.4085,-22.9367],[-44.4072,-22.9411],[-44.4072,-22.9411]]]}},{"type":"Feature","properties":{"cod_tema":"AREA_INFRAESTRUTURA_PUBLICA","cod_imovel":"RJ-3300100-4A985546DF8943D3B6F958EA44140E67","num_area":"0.2627000000000000000000000000000","ind_status":"AT"},"geometry":{"type":"Polygon","coordinates":[[[-44.3303,-22.9078],[-44.3327,-22.9057],[-44.3303,-22.9078],[-44.3303,-22.9078]]]}},{"type":"Feature","properties":{"cod_tema":"AREA_SERVIDAO_ADMINISTRATIVA_TOTAL","cod_imovel":"RJ-3300100-4A985546DF8943D3B6F958EA44140E67","num_area":"0.2627000000000000000000000000000","ind_status":"AT"},"geometry":{"type":"Polygon","coordinates":[[[-44.3303,-22.9078],[-44.3327,-22.9057],[-44.3303,-22.9078],[-44.3303,-22.9078]]]}},{"type":"Feature","properties":{"cod_tema":"AREA_INFRAESTRUTURA_PUBLICA","cod_imovel":"RJ-3300100-797AE60122C2402DB7692A3442EE8E51","num_area":"13.347900000000000000000000000000","ind_status":"AT"},"geometry":{"type":"Polygon","coordinates":[[[-44.4266,-22.9438],[-44.4377,-22.9579],[-44.4302,-22.9439],[-44.4266,-22.9438]]]}},{"type":"Feature","properties":{"cod_tema":"AREA_UTILIDADE_PUBLICA","cod_imovel":"RJ-3300100-797AE60122C2402DB7692A3442EE8E51","num_area":"35.573600000000000000000000000000","ind_status":"AT"},"geometry":{"type":"Polygon","coordinates":[[[-44.4293,-22.9397],[-44.4487,-22.9499],[-44.4442,-22.9475],[-44.4293,-22.9397]],[[-44.4468,-22.9516],[-44.4282,-22.9414],[-44.4468,-22.9516],[-44.4468,-22.9516]]]}},{"type":"Feature","properties":{"cod_tema":"AREA_SERVIDAO_ADMINISTRATIVA_TOTAL","cod_imovel":"RJ-3300100-797AE60122C2402DB7692A3442EE8E51","num_area":"48.921500000000000000000000000000","ind_status":"AT"},"geometry":{"type":"Polygon","coordinates":[[[-44.4293,-22.9397],[-44.4487,-22.9499],[-44.4442,-22.9475],[-44.4293,-22.9397]],[[-44.4468,-22.9516],[-44.4282,-22.9414],[-44.4468,-22.9516],[-44.4468,-22.9516]],[[-44.4266,-22.9438],[-44.4377,-22.9579],[-44.4302,-22.9439],[-44.4266,-22.9438]]]}},{"type":"Feature","properties":{"cod_tema":"AREA_UTILIDADE_PUBLICA","cod_imovel":"RJ-3300100-AE1364CB6E8C458886EAC9407D45306C","num_area":"8.0428000000000000000000000000000","ind_status":"AT"},"geometry":{"type":"Polygon","coordinates":[[[-44.1391,-23.1656],[-44.1248,-23.1726],[-44.1387,-23.1658],[-44.1391,-23.1656]]]}},{"type":"Feature","properties":{"cod_tema":"AREA_SERVIDAO_ADMINISTRATIVA_TOTAL","cod_imovel":"RJ-3300100-AE1364CB6E8C458886EAC9407D45306C","num_area":"8.0428000000000000000000000000000","ind_status":"AT"},"geometry":{"type":"Polygon","coordinates":[[[-44.1391,-23.1656],[-44.1248,-23.1726],[-44.1387,-23.1658],[-44.1391,-23.1656]]]}},{"type":"Feature","properties":{"cod_tema":"AREA_UTILIDADE_PUBLICA","cod_imovel":"RJ-3300100-C00A53C5CA22470295B35FCDFAEA51CD","num_area":"15.659800000000000000000000000000","ind_status":"AT"},"geometry":{"type":"Polygon","coordinates":[[[-44.4372,-22.9581],[-44.4316,-22.9445],[-44.4265,-22.9437],[-44.4371,-22.9576],[-44.4372,-22.9581]]]}},{"type":"Feature","properties":{"cod_tema":"AREA_SERVIDAO_ADMINISTRATIVA_TOTAL","cod_imovel":"RJ-3300100-C00A53C5CA22470295B35FCDFAEA51CD","num_area":"15.659800000000000000000000000000","ind_status":"AT"},"geometry":{"type":"Polygon","coordinates":[[[-44.4372,-22.9581],[-44.4316,-22.9445],[-44.4265,-22.9437],[-44.4371,-22.9576],[-44.4372,-22.9581]]]}},{"type":"Feature","properties":{"cod_tema":"AREA_UTILIDADE_PUBLICA","cod_imovel":"RJ-3300100-DB6DCEB144C24CA5BCDC96E0C505D58B","num_area":"0.2978000000000000000000000000000","ind_status":"AT"},"geometry":{"type":"Polygon","coordinates":[[[-44.4175,-22.9026],[-44.413,-22.9049],[-44.4175,-22.9026],[-44.4175,-22.9026]]]}},{"type":"Feature","properties":{"cod_tema":"AREA_SERVIDAO_ADMINISTRATIVA_TOTAL","cod_imovel":"RJ-3300100-DB6DCEB144C24CA5BCDC96E0C505D58B","num_area":"0.2978000000000000000000000000000","ind_status":"AT"},"geometry":{"type":"Polygon","coordinates":[[[-44.4175,-22.9026],[-44.413,-22.9049],[-44.4175,-22.9026],[-44.4175,-22.9026]]]}},{"type":"Feature","properties":{"cod_tema":"AREA_UTILIDADE_PUBLICA","cod_imovel":"RJ-3300100-2C40533D5117458199D6E781E17B4FD5","num_area":"5.1941000000000000000000000000000","ind_status":"AT"},"geometry":{"type":"Polygon","coordinates":[[[-44.2464,-22.8811],[-44.2455,-22.8748],[-44.2524,-22.8713],[-44.2452,-22.8746],[-44.2462,-22.8811],[-44.2464,-22.8811]]]}},{"type":"Feature","properties":{"cod_tema":"AREA_SERVIDAO_ADMINISTRATIVA_TOTAL","cod_imovel":"RJ-3300100-2C40533D5117458199D6E781E17B4FD5","num_area":"5.1941000000000000000000000000000","ind_status":"AT"},"geometry":{"type":"Polygon","coordinates":[[[-44.2464,-22.8811],[-44.2455,-22.8748],[-44.2524,-22.8713],[-44.2452,-22.8746],[-44.2462,-22.8811],[-44.2464,-22.8811]]]}},{"type":"Feature","properties":{"cod_tema":"AREA_UTILIDADE_PUBLICA","cod_imovel":"RJ-3300100-44D9D3D3778F46F782F22D47254381EF","num_area":"8.7719000000000000000000000000000","ind_status":"AT"},"geometry":{"type":"Polygon","coordinates":[[[-44.3264,-22.9063],[-44.3296,-22.9058],[-44.3264,-22.9063],[-44.3264,-22.9063]]]}},{"type":"Feature","properties":{"cod_tema":"AREA_SERVIDAO_ADMINISTRATIVA_TOTAL","cod_imovel":"RJ-3300100-44D9D3D3778F46F782F22D47254381EF","num_area":"8.7719000000000000000000000000000","ind_status":"AT"},"geometry":{"type":"Polygon","coordinates":[[[-44.3264,-22.9063],[-44.3296,-22.9058],[-44.3264,-22.9063],[-44.3264,-22.9063]]]}},{"type":"Feature","properties":{"cod_tema":"AREA_INFRAESTRUTURA_PUBLICA","cod_imovel":"RJ-3300100-7C048622CDE34F30A0BE2E00F6049190","num_area":"16.285300000000000000000000000000","ind_status":"AT"},"geometry":{"type":"Polygon","coordinates":[[[-44.4133,-22.8934],[-44.4194,-22.8632],[-44.4132,-22.8916],[-44.4133,-22.8934]]]}},{"type":"Feature","properties":{"cod_tema":"AREA_SERVIDAO_ADMINISTRATIVA_TOTAL","cod_imovel":"RJ-3300100-7C048622CDE34F30A0BE2E00F6049190","num_area":"16.285300000000000000000000000000","ind_status":"AT"},"geometry":{"type":"Polygon","coordinates":[[[-44.4133,-22.8934],[-44.4194,-22.8632],[-44.4132,-22.8916],[-44.4133,-22.8934]]]}},{"type":"Feature","properties":{"cod_tema":"AREA_INFRAESTRUTURA_PUBLICA","cod_imovel":"RJ-3300100-EBEF940FCAC64EB39186777DD227268F","num_area":"8.4399000000000000000000000000000","ind_status":"AT"},"geometry":{"type":"Polygon","coordinates":[[[-44.4329,-22.8619],[-44.423,-22.859],[-44.4192,-22.8635],[-44.4233,-22.8594],[-44.4324,-22.8619],[-44.4329,-22.8619]]]}},{"type":"Feature","properties":{"cod_tema":"AREA_UTILIDADE_PUBLICA","cod_imovel":"RJ-3300100-EBEF940FCAC64EB39186777DD227268F","num_area":"0.5487000000000000000000000000000","ind_status":"AT"},"geometry":{"type":"Polygon","coordinates":[[[-44.4329,-22.8625],[-44.4258,-22.8642],[-44.4329,-22.8625],[-44.4329,-22.8625]],[[-44.4252,-22.864],[-44.4222,-22.8636],[-44.4251,-22.864],[-44.4252,-22.864]]]}},{"type":"Feature","properties":{"cod_tema":"AREA_SERVIDAO_ADMINISTRATIVA_TOTAL","cod_imovel":"RJ-3300100-EBEF940FCAC64EB39186777DD227268F","num_area":"8.9886000000000000000000000000000","ind_status":"AT"},"geometry":{"type":"Polygon","coordinates":[[[-44.4329,-22.8619],[-44.423,-22.859],[-44.4192,-22.8635],[-44.4233,-22.8594],[-44.4324,-22.8619],[-44.4329,-22.8619]],[[-44.4329,-22.8625],[-44.4258,-22.8642],[-44.4329,-22.8625],[-44.4329,-22.8625]],[[-44.4252,-22.864],[-44.4222,-22.8636],[-44.4251,-22.864],[-44.4252,-22.864]]]}},{"type":"Feature","properties":{"cod_tema":"AREA_UTILIDADE_PUBLICA","cod_imovel":"RJ-3300100-42A8535E9A834EC1836ED0A0CCDBCC47","num_area":"2.8759000000000000000000000000000","ind_status":"AT"},"geometry":{"type":"Polygon","coordinates":[[[-44.2752,-22.8865],[-44.2678,-22.8862],[-44.274,-22.8864],[-44.2752,-22.8865]]]}},{"type":"Feature","properties":{"cod_tema":"AREA_SERVIDAO_ADMINISTRATIVA_TOTAL","cod_imovel":"RJ-3300100-42A8535E9A834EC1836ED0A0CCDBCC47","num_area":"2.8759000000000000000000000000000","ind_status":"AT"},"geometry":{"type":"Polygon","coordinates":[[[-44.2752,-22.8865],[-44.2678,-22.8862],[-44.274,-22.8864],[-44.2752,-22.8865]]]}},{"type":"Feature","properties":{"cod_tema":"AREA_UTILIDADE_PUBLICA","cod_imovel":"RJ-3300100-854D46E093FB468D95AE02537CC7CE4F","num_area":"5.1727000000000000000000000000000","ind_status":"AT"},"geometry":{"type":"Polygon","coordinates":[[[-44.301,-22.912],[-44.2853,-22.9101],[-44.2966,-22.9104],[-44.301,-22.912]]]}},{"type":"Feature","properties":{"cod_tema":"AREA_SERVIDAO_ADMINISTRATIVA_TOTAL","cod_imovel":"RJ-3300100-854D46E093FB468D95AE02537CC7CE4F","num_area":"5.1727000000000000000000000000000","ind_status":"AT"},"geometry":{"type":"Polygon","coordinates":[[[-44.301,-22.912],[-44.2853,-22.9101],[-44.2966,-22.9104],[-44.301,-22.912]]]}},{"type":"Feature","properties":{"cod_tema":"AREA_INFRAESTRUTURA_PUBLICA","cod_imovel":"RJ-3300100-378C443BA1BD44F78D384F6295952784","num_area":"13.155500000000000000000000000000","ind_status":"CA"},"geometry":{"type":"Polygon","coordinates":[[[-44.4371,-22.9579],[-44.4315,-22.9446],[-44.4258,-22.9443],[-44.4309,-22.9448],[-44.4366,-22.9559],[-44.4371,-22.9579]]]}},{"type":"Feature","properties":{"cod_tema":"AREA_UTILIDADE_PUBLICA","cod_imovel":"RJ-3300100-378C443BA1BD44F78D384F6295952784","num_area":"50.743600000000000000000000000000","ind_status":"CA"},"geometry":{"type":"Polygon","coordinates":[[[-44.4493,-22.9494],[-44.4296,-22.9392],[-44.4492,-22.9491],[-44.4493,-22.9494]]]}},{"type":"Feature","properties":{"cod_tema":"AREA_SERVIDAO_ADMINISTRATIVA_TOTAL","cod_imovel":"RJ-3300100-378C443BA1BD44F78D384F6295952784","num_area":"63.899000000000000000000000000000","ind_status":"CA"},"geometry":{"type":"Polygon","coordinates":[[[-44.4493,-22.9494],[-44.4296,-22.9392],[-44.4492,-22.9491],[-44.4493,-22.9494]],[[-44.4371,-22.9579],[-44.4315,-22.9446],[-44.4258,-22.9443],[-44.4309,-22.9448],[-44.4366,-22.9559],[-44.4371,-22.9579]]]}},{"type":"Feature","properties":{"cod_tema":"AREA_UTILIDADE_PUBLICA","cod_imovel":"RJ-3300100-12338B2570B64815B77B16A3C95D7838","num_area":"0.1287000000000000000000000000000","ind_status":"AT"},"geometry":{"type":"Polygon","coordinates":[[[-44.184,-22.9604],[-44.198,-22.963],[-44.1924,-22.9619],[-44.184,-22.9604]]]}},{"type":"Feature","properties":{"cod_tema":"AREA_SERVIDAO_ADMINISTRATIVA_TOTAL","cod_imovel":"RJ-3300100-12338B2570B64815B77B16A3C95D7838","num_area":"0.1287000000000000000000000000000","ind_status":"AT"},"geometry":{"type":"Polygon","coordinates":[[[-44.184,-22.9604],[-44.198,-22.963],[-44.1924,-22.9619],[-44.184,-22.9604]]]}},{"type":"Feature","properties":{"cod_tema":"AREA_INFRAESTRUTURA_PUBLICA","cod_imovel":"RJ-3300100-26BB718970DA4F09B931D8B2A99DE75C","num_area":"4.7336000000000000000000000000000","ind_status":"AT"},"geometry":{"type":"Polygon","coordinates":[[[-44.2808,-22.9677],[-44.2788,-22.9584],[-44.2797,-22.9653],[-44.2808,-22.9677]]]}},{"type":"Feature","properties":{"cod_tema":"AREA_SERVIDAO_ADMINISTRATIVA_TOTAL","cod_imovel":"RJ-3300100-26BB718970DA4F09B931D8B2A99DE75C","num_area":"4.7336000000000000000000000000000","ind_status":"AT"},"geometry":{"type":"Polygon","coordinates":[[[-44.2808,-22.9677],[-44.2788,-22.9584],[-44.2797,-22.9653],[-44.2808,-22.9677]]]}},{"type":"Feature","properties":{"cod_tema":"AREA_INFRAESTRUTURA_PUBLICA","cod_imovel":"RJ-3300100-A97D6145CB2C411F80D4B91889F39558","num_area":"0.5100000000000000000000000000000","ind_status":"AT"},"geometry":{"type":"Polygon","coordinates":[[[-44.2927,-22.8901],[-44.2965,-22.8913],[-44.2927,-22.8901],[-44.2927,-22.8901]]]}},{"type":"Feature","properties":{"cod_tema":"AREA_SERVIDAO_ADMINISTRATIVA_TOTAL","cod_imovel":"RJ-3300100-A97D6145CB2C411F80D4B91889F39558","num_area":"0.5100000000000000000000000000000","ind_status":"AT"},"geometry":{"type":"Polygon","coordinates":[[[-44.2927,-22.8901],[-44.2965,-22.8913],[-44.2927,-22.8901],[-44.2927,-22.8901]]]}},{"type":"Feature","properties":{"cod_tema":"AREA_UTILIDADE_PUBLICA","cod_imovel":"RJ-3300100-7822D6DA7F40469D844448D05F1557B9","num_area":"2.0672000000000000000000000000000","ind_status":"AT"},"geometry":{"type":"Polygon","coordinates":[[[-44.4365,-22.9796],[-44.4425,-22.9804],[-44.4367,-22.9795],[-44.4365,-22.9796]]]}},{"type":"Feature","properties":{"cod_tema":"AREA_SERVIDAO_ADMINISTRATIVA_TOTAL","cod_imovel":"RJ-3300100-7822D6DA7F40469D844448D05F1557B9","num_area":"2.0672000000000000000000000000000","ind_status":"AT"},"geometry":{"type":"Polygon","coordinates":[[[-44.4365,-22.9796],[-44.4425,-22.9804],[-44.4367,-22.9795],[-44.4365,-22.9796]]]}},{"type":"Feature","properties":{"cod_tema":"AREA_UTILIDADE_PUBLICA","cod_imovel":"RJ-3300100-CDE087C6743D4B6AB3CCA03AADB5A708","num_area":"6.0662000000000000000000000000000","ind_status":"AT"},"geometry":{"type":"Polygon","coordinates":[[[-44.349,-22.9133],[-44.3538,-22.9148],[-44.3492,-22.9129],[-44.349,-22.9133]],[[-44.3537,-22.913],[-44.3497,-22.9118],[-44.3527,-22.9126],[-44.3537,-22.913]],[[-44.3546,-22.9172],[-44.3481,-22.9145],[-44.3546,-22.9172],[-44.3546,-22.9172]]]}},{"type":"Feature","properties":{"cod_tema":"AREA_SERVIDAO_ADMINISTRATIVA_TOTAL","cod_imovel":"RJ-3300100-CDE087C6743D4B6AB3CCA03AADB5A708","num_area":"6.0662000000000000000000000000000","ind_status":"AT"},"geometry":{"type":"Polygon","coordinates":[[[-44.349,-22.9133],[-44.3538,-22.9148],[-44.3492,-22.9129],[-44.349,-22.9133]],[[-44.3537,-22.913],[-44.3497,-22.9118],[-44.3527,-22.9126],[-44.3537,-22.913]],[[-44.3546,-22.9172],[-44.3481,-22.9145],[-44.3546,-22.9172],[-44.3546,-22.9172]]]}}]}