{"type":"FeatureCollection","features":[{"type":"Feature","properties":{"cod_tema":"AREA_UTILIDADE_PUBLICA","cod_imovel":"RJ-3300209-C3776E8A2E4A437DBF82F849F8FA25BF","num_area":"0.7413000000000000000000000000000","ind_status":"AT"},"geometry":{"type":"Polygon","coordinates":[[[-42.3141,-22.7479],[-42.3115,-22.7433],[-42.314,-22.7473],[-42.3141,-22.7479]]]}},{"type":"Feature","properties":{"cod_tema":"AREA_SERVIDAO_ADMINISTRATIVA_TOTAL","cod_imovel":"RJ-3300209-C3776E8A2E4A437DBF82F849F8FA25BF","num_area":"0.7413000000000000000000000000000","ind_status":"AT"},"geometry":{"type":"Polygon","coordinates":[[[-42.3141,-22.7479],[-42.3115,-22.7433],[-42.314,-22.7473],[-42.3141,-22.7479]]]}},{"type":"Feature","properties":{"cod_tema":"AREA_INFRAESTRUTURA_PUBLICA","cod_imovel":"RJ-3300209-AD4703D8796A44EDA52005DC1AF925AB","num_area":"1.9214000000000000000000000000000","ind_status":"PE"},"geometry":{"type":"Polygon","coordinates":[[[-42.3935,-22.7726],[-42.3895,-22.7736],[-42.3931,-22.7727],[-42.3935,-22.7726]],[[-42.3957,-22.7831],[-42.3895,-22.7736],[-42.3957,-22.783],[-42.3957,-22.7831]]]}},{"type":"Feature","properties":{"cod_tema":"AREA_SERVIDAO_ADMINISTRATIVA_TOTAL","cod_imovel":"RJ-3300209-AD4703D8796A44EDA52005DC1AF925AB","num_area":"1.9214000000000000000000000000000","ind_status":"PE"},"geometry":{"type":"Polygon","coordinates":[[[-42.3935,-22.7726],[-42.3895,-22.7736],[-42.3931,-22.7727],[-42.3935,-22.7726]],[[-42.3957,-22.7831],[-42.3895,-22.7736],[-42.3957,-22.783],[-42.3957,-22.7831]]]}},{"type":"Feature","properties":{"cod_tema":"AREA_UTILIDADE_PUBLICA","cod_imovel":"RJ-3300209-54B913AE7C9F43E69A8B7A61F64DB8CD","num_area":"0.6793000000000000000000000000000","ind_status":"AT"},"geometry":{"type":"Polygon","coordinates":[[[-42.4371,-22.7514],[-42.4352,-22.743],[-42.4371,-22.7514],[-42.4371,-22.7514]]]}},{"type":"Feature","properties":{"cod_tema":"AREA_SERVIDAO_ADMINISTRATIVA_TOTAL","cod_imovel":"RJ-3300209-54B913AE7C9F43E69A8B7A61F64DB8CD","num_area":"0.6793000000000000000000000000000","ind_status":"AT"},"geometry":{"type":"Polygon","coordinates":[[[-42.4371,-22.7514],[-42.4352,-22.743],[-42.4371,-22.7514],[-42.4371,-22.7514]]]}},{"type":"Feature","properties":{"cod_tema":"AREA_INFRAESTRUTURA_PUBLICA","cod_imovel":"RJ-3300209-09549ACBCC0840F88D37E73F961051A4","num_area":"0.8557000000000000000000000000000","ind_status":"AT"},"geometry":{"type":"Polygon","coordinates":[[[-42.4058,-22.7897],[-42.4092,-22.7902],[-42.4058,-22.7897],[-42.4058,-22.7897]]]}},{"type":"Feature","properties":{"cod_tema":"AREA_SERVIDAO_ADMINISTRATIVA_TOTAL","cod_imovel":"RJ-3300209-09549ACBCC0840F88D37E73F961051A4","num_area":"0.8557000000000000000000000000000","ind_status":"AT"},"geometry":{"type":"Polygon","coordinates":[[[-42.4058,-22.7897],[-42.4092,-22.7902],[-42.4058,-22.7897],[-42.4058,-22.7897]]]}},{"type":"Feature","properties":{"cod_tema":"AREA_INFRAESTRUTURA_PUBLICA","cod_imovel":"RJ-3300209-1231C3A9F7644490B69DD24C33E31E17","num_area":"2.1551000000000000000000000000000","ind_status":"AT"},"geometry":{"type":"Polygon","coordinates":[[[-42.3094,-22.7734],[-42.306,-22.7723],[-42.3088,-22.7665],[-42.3011,-22.7777],[-42.3086,-22.7731],[-42.3094,-22.7734]]]}},{"type":"Feature","properties":{"cod_tema":"AREA_SERVIDAO_ADMINISTRATIVA_TOTAL","cod_imovel":"RJ-3300209-1231C3A9F7644490B69DD24C33E31E17","num_area":"2.1551000000000000000000000000000","ind_status":"AT"},"geometry":{"type":"Polygon","coordinates":[[[-42.3094,-22.7734],[-42.306,-22.7723],[-42.3088,-22.7665],[-42.3011,-22.7777],[-42.3086,-22.7731],[-42.3094,-22.7734]]]}},{"type":"Feature","properties":{"cod_tema":"AREA_INFRAESTRUTURA_PUBLICA","cod_imovel":"RJ-3300209-175B40B17DE546E79CA2E968B928D607","num_area":"1.1278000000000000000000000000000","ind_status":"AT"},"geometry":{"type":"Polygon","coordinates":[[[-42.1936,-22.6969],[-42.1951,-22.6905],[-42.188,-22.6988],[-42.1937,-22.6946],[-42.1936,-22.6969]]]}},{"type":"Feature","properties":{"cod_tema":"AREA_SERVIDAO_ADMINISTRATIVA_TOTAL","cod_imovel":"RJ-3300209-175B40B17DE546E79CA2E968B928D607","num_area":"1.1278000000000000000000000000000","ind_status":"AT"},"geometry":{"type":"Polygon","coordinates":[[[-42.1936,-22.6969],[-42.1951,-22.6905],[-42.188,-22.6988],[-42.1937,-22.6946],[-42.1936,-22.6969]]]}},{"type":"Feature","properties":{"cod_tema":"AREA_UTILIDADE_PUBLICA","cod_imovel":"RJ-3300209-2F02096389664BD8A024A3C6BD946E74","num_area":"1.8489000000000000000000000000000","ind_status":"AT"},"geometry":{"type":"Polygon","coordinates":[[[-42.2227,-22.7365],[-42.2081,-22.7354],[-42.214,-22.7346],[-42.2206,-22.7381],[-42.2159,-22.7419],[-42.2207,-22.7381],[-42.2231,-22.7428],[-42.2207,-22.7381],[-42.2227,-22.7365]]]}},{"type":"Feature","properties":{"cod_tema":"AREA_SERVIDAO_ADMINISTRATIVA_TOTAL","cod_imovel":"RJ-3300209-2F02096389664BD8A024A3C6BD946E74","num_area":"1.8489000000000000000000000000000","ind_status":"AT"},"geometry":{"type":"Polygon","coordinates":[[[-42.2227,-22.7365],[-42.2081,-22.7354],[-42.214,-22.7346],[-42.2206,-22.7381],[-42.2159,-22.7419],[-42.2207,-22.7381],[-42.2231,-22.7428],[-42.2207,-22.7381],[-42.2227,-22.7365]]]}},{"type":"Feature","properties":{"cod_tema":"AREA_UTILIDADE_PUBLICA","cod_imovel":"RJ-3300209-2F883CB9DA614E8A9A10D944A48C8338","num_area":"5.6391000000000000000000000000000","ind_status":"AT"},"geometry":{"type":"Polygon","coordinates":[[[-42.2612,-22.8305],[-42.2538,-22.8366],[-42.2609,-22.8307],[-42.2612,-22.8305]],[[-42.2574,-22.821],[-42.2406,-22.8237],[-42.2562,-22.8208],[-42.2574,-22.821]],[[-42.258,-22.8217],[-42.2414,-22.824],[-42.2559,-22.8213],[-42.258,-22.8217]]]}},{"type":"Feature","properties":{"cod_tema":"AREA_SERVIDAO_ADMINISTRATIVA_TOTAL","cod_imovel":"RJ-3300209-2F883CB9DA614E8A9A10D944A48C8338","num_area":"5.6391000000000000000000000000000","ind_status":"AT"},"geometry":{"type":"Polygon","coordinates":[[[-42.2612,-22.8305],[-42.2538,-22.8366],[-42.2609,-22.8307],[-42.2612,-22.8305]],[[-42.2574,-22.821],[-42.2406,-22.8237],[-42.2562,-22.8208],[-42.2574,-22.821]],[[-42.258,-22.8217],[-42.2414,-22.824],[-42.2559,-22.8213],[-42.258,-22.8217]]]}},{"type":"Feature","properties":{"cod_tema":"AREA_UTILIDADE_PUBLICA","cod_imovel":"RJ-3300209-3C56423F40CE424FAD94029497CD84C5","num_area":"0.2539000000000000000000000000000","ind_status":"AT"},"geometry":{"type":"Polygon","coordinates":[[[-42.3225,-22.7243],[-42.322,-22.7196],[-42.3225,-22.7243],[-42.3225,-22.7243]]]}},{"type":"Feature","properties":{"cod_tema":"AREA_SERVIDAO_ADMINISTRATIVA_TOTAL","cod_imovel":"RJ-3300209-3C56423F40CE424FAD94029497CD84C5","num_area":"0.2539000000000000000000000000000","ind_status":"AT"},"geometry":{"type":"Polygon","coordinates":[[[-42.3225,-22.7243],[-42.322,-22.7196],[-42.3225,-22.7243],[-42.3225,-22.7243]]]}},{"type":"Feature","properties":{"cod_tema":"AREA_UTILIDADE_PUBLICA","cod_imovel":"RJ-3300209-4CBB41F7163446F1ABB200621DB6A23B","num_area":"1.9274000000000000000000000000000","ind_status":"AT"},"geometry":{"type":"Polygon","coordinates":[[[-42.1927,-22.6638],[-42.1968,-22.6691],[-42.1929,-22.6639],[-42.1927,-22.6638]],[[-42.2111,-22.6773],[-42.2042,-22.6749],[-42.2019,-22.679],[-42.2105,-22.6773],[-42.2111,-22.6773]]]}},{"type":"Feature","properties":{"cod_tema":"AREA_SERVIDAO_ADMINISTRATIVA_TOTAL","cod_imovel":"RJ-3300209-4CBB41F7163446F1ABB200621DB6A23B","num_area":"1.9274000000000000000000000000000","ind_status":"AT"},"geometry":{"type":"Polygon","coordinates":[[[-42.1927,-22.6638],[-42.1968,-22.6691],[-42.1929,-22.6639],[-42.1927,-22.6638]],[[-42.2111,-22.6773],[-42.2042,-22.6749],[-42.2019,-22.679],[-42.2105,-22.6773],[-42.2111,-22.6773]]]}},{"type":"Feature","properties":{"cod_tema":"AREA_INFRAESTRUTURA_PUBLICA","cod_imovel":"RJ-3300209-5C33280E74454D02B17F1C3867B528B1","num_area":"0.8258000000000000000000000000000","ind_status":"AT"},"geometry":{"type":"Polygon","coordinates":[[[-42.233,-22.6924],[-42.2113,-22.6773],[-42.2309,-22.6907],[-42.233,-22.6924]]]}},{"type":"Feature","properties":{"cod_tema":"AREA_SERVIDAO_ADMINISTRATIVA_TOTAL","cod_imovel":"RJ-3300209-5C33280E74454D02B17F1C3867B528B1","num_area":"0.8258000000000000000000000000000","ind_status":"AT"},"geometry":{"type":"Polygon","coordinates":[[[-42.233,-22.6924],[-42.2113,-22.6773],[-42.2309,-22.6907],[-42.233,-22.6924]]]}},{"type":"Feature","properties":{"cod_tema":"AREA_UTILIDADE_PUBLICA","cod_imovel":"RJ-3300209-5D8F9956D23F4E2A83A57DE8F72E4796","num_area":"1.0501000000000000000000000000000","ind_status":"AT"},"geometry":{"type":"Polygon","coordinates":[[[-42.2376,-22.7623],[-42.2442,-22.7545],[-42.2384,-22.7618],[-42.2376,-22.7623]]]}},{"type":"Feature","properties":{"cod_tema":"AREA_SERVIDAO_ADMINISTRATIVA_TOTAL","cod_imovel":"RJ-3300209-5D8F9956D23F4E2A83A57DE8F72E4796","num_area":"1.0501000000000000000000000000000","ind_status":"AT"},"geometry":{"type":"Polygon","coordinates":[[[-42.2376,-22.7623],[-42.2442,-22.7545],[-42.2384,-22.7618],[-42.2376,-22.7623]]]}},{"type":"Feature","properties":{"cod_tema":"AREA_UTILIDADE_PUBLICA","cod_imovel":"RJ-3300209-63D9CC2068794FCE99770D1A379FDC03","num_area":"0.2508000000000000000000000000000","ind_status":"AT"},"geometry":{"type":"Polygon","coordinates":[[[-42.3172,-22.825],[-42.321,-22.8242],[-42.3173,-22.8249],[-42.3172,-22.825]]]}},{"type":"Feature","properties":{"cod_tema":"AREA_SERVIDAO_ADMINISTRATIVA_TOTAL","cod_imovel":"RJ-3300209-63D9CC2068794FCE99770D1A379FDC03","num_area":"0.2508000000000000000000000000000","ind_status":"AT"},"geometry":{"type":"Polygon","coordinates":[[[-42.3172,-22.825],[-42.321,-22.8242],[-42.3173,-22.8249],[-42.3172,-22.825]]]}},{"type":"Feature","properties":{"cod_tema":"AREA_INFRAESTRUTURA_PUBLICA","cod_imovel":"RJ-3300209-64C36037C70B4F4188271FF5F01B32BA","num_area":"1.1687000000000000000000000000000","ind_status":"AT"},"geometry":{"type":"Polygon","coordinates":[[[-42.2919,-22.7389],[-42.2855,-22.7475],[-42.2919,-22.7389],[-42.2919,-22.7389]]]}},{"type":"Feature","properties":{"cod_tema":"AREA_UTILIDADE_PUBLICA","cod_imovel":"RJ-3300209-64C36037C70B4F4188271FF5F01B32BA","num_area":"1.3760000000000000000000000000000","ind_status":"AT"},"geometry":{"type":"Polygon","coordinates":[[[-42.2893,-22.7482],[-42.288,-22.7415],[-42.2893,-22.7482],[-42.2893,-22.7482]]]}},{"type":"Feature","properties":{"cod_tema":"AREA_SERVIDAO_ADMINISTRATIVA_TOTAL","cod_imovel":"RJ-3300209-64C36037C70B4F4188271FF5F01B32BA","num_area":"2.5222000000000000000000000000000","ind_status":"AT"},"geometry":{"type":"Polygon","coordinates":[[[-42.2893,-22.7482],[-42.2918,-22.7388],[-42.2855,-22.7475],[-42.2893,-22.7482],[-42.2893,-22.7482]]]}},{"type":"Feature","properties":{"cod_tema":"AREA_UTILIDADE_PUBLICA","cod_imovel":"RJ-3300209-76497F4E5F644C58A7CF47F41D3833AA","num_area":"1.6089000000000000000000000000000","ind_status":"AT"},"geometry":{"type":"Polygon","coordinates":[[[-42.2374,-22.7193],[-42.2455,-22.7174],[-42.2374,-22.7193],[-42.2374,-22.7193]]]}},{"type":"Feature","properties":{"cod_tema":"AREA_SERVIDAO_ADMINISTRATIVA_TOTAL","cod_imovel":"RJ-3300209-76497F4E5F644C58A7CF47F41D3833AA","num_area":"1.6089000000000000000000000000000","ind_status":"AT"},"geometry":{"type":"Polygon","coordinates":[[[-42.2374,-22.7193],[-42.2455,-22.7174],[-42.2374,-22.7193],[-42.2374,-22.7193]]]}},{"type":"Feature","properties":{"cod_tema":"AREA_UTILIDADE_PUBLICA","cod_imovel":"RJ-3300209-9271680CF326474F804AD4E997452EDD","num_area":"1.2715000000000000000000000000000","ind_status":"AT"},"geometry":{"type":"Polygon","coordinates":[[[-42.2685,-22.7493],[-42.2647,-22.751],[-42.2685,-22.7493],[-42.2685,-22.7493]]]}},{"type":"Feature","properties":{"cod_tema":"AREA_SERVIDAO_ADMINISTRATIVA_TOTAL","cod_imovel":"RJ-3300209-9271680CF326474F804AD4E997452EDD","num_area":"1.8264000000000000000000000000000","ind_status":"AT"},"geometry":{"type":"Polygon","coordinates":[[[-42.2685,-22.7493],[-42.2647,-22.751],[-42.2685,-22.7493],[-42.2685,-22.7493]]]}},{"type":"Feature","properties":{"cod_tema":"AREA_INFRAESTRUTURA_PUBLICA","cod_imovel":"RJ-3300209-9B7DE86F19E04323A9AF0330FD0977FE","num_area":"5.3360000000000000000000000000000","ind_status":"AT"},"geometry":{"type":"Polygon","coordinates":[[[-42.3504,-22.7731],[-42.3392,-22.7646],[-42.3485,-22.7711],[-42.3504,-22.7731]]]}},{"type":"Feature","properties":{"cod_tema":"AREA_SERVIDAO_ADMINISTRATIVA_TOTAL","cod_imovel":"RJ-3300209-9B7DE86F19E04323A9AF0330FD0977FE","num_area":"5.3360000000000000000000000000000","ind_status":"AT"},"geometry":{"type":"Polygon","coordinates":[[[-42.3504,-22.7731],[-42.3392,-22.7646],[-42.3485,-22.7711],[-42.3504,-22.7731]]]}},{"type":"Feature","properties":{"cod_tema":"AREA_UTILIDADE_PUBLICA","cod_imovel":"RJ-3300209-A613DB16D2404752BF3CF83375A110C1","num_area":"0.4996000000000000000000000000000","ind_status":"AT"},"geometry":{"type":"Polygon","coordinates":[[[-42.2948,-22.7801],[-42.2883,-22.7841],[-42.2949,-22.7802],[-42.2948,-22.7801]]]}},{"type":"Feature","properties":{"cod_tema":"AREA_SERVIDAO_ADMINISTRATIVA_TOTAL","cod_imovel":"RJ-3300209-A613DB16D2404752BF3CF83375A110C1","num_area":"0.4996000000000000000000000000000","ind_status":"AT"},"geometry":{"type":"Polygon","coordinates":[[[-42.2948,-22.7801],[-42.2883,-22.7841],[-42.2949,-22.7802],[-42.2948,-22.7801]]]}},{"type":"Feature","properties":{"cod_tema":"AREA_INFRAESTRUTURA_PUBLICA","cod_imovel":"RJ-3300209-B3E883E03E7949809BBDA39F4741E600","num_area":"0.2844000000000000000000000000000","ind_status":"AT"},"geometry":{"type":"Polygon","coordinates":[[[-42.1864,-22.6547],[-42.1873,-22.6592],[-42.1864,-22.6547],[-42.1864,-22.6547]]]}},{"type":"Feature","properties":{"cod_tema":"AREA_SERVIDAO_ADMINISTRATIVA_TOTAL","cod_imovel":"RJ-3300209-B3E883E03E7949809BBDA39F4741E600","num_area":"0.2844000000000000000000000000000","ind_status":"AT"},"geometry":{"type":"Polygon","coordinates":[[[-42.1864,-22.6547],[-42.1873,-22.6592],[-42.1864,-22.6547],[-42.1864,-22.6547]]]}},{"type":"Feature","properties":{"cod_tema":"AREA_INFRAESTRUTURA_PUBLICA","cod_imovel":"RJ-3300209-BC45A51A32C94C73B1053B4D8E416439","num_area":"3.4300000000000000000000000000000","ind_status":"AT"},"geometry":{"type":"Polygon","coordinates":[[[-42.3322,-22.813],[-42.3383,-22.8097],[-42.3293,-22.8129],[-42.3322,-22.813]]]}},{"type":"Feature","properties":{"cod_tema":"AREA_UTILIDADE_PUBLICA","cod_imovel":"RJ-3300209-BC45A51A32C94C73B1053B4D8E416439","num_area":"7.2320000000000000000000000000000","ind_status":"AT"},"geometry":{"type":"Polygon","coordinates":[[[-42.3292,-22.8129],[-42.3446,-22.8105],[-42.3326,-22.8131],[-42.3292,-22.8129]]]}},{"type":"Feature","properties":{"cod_tema":"AREA_SERVIDAO_ADMINISTRATIVA_TOTAL","cod_imovel":"RJ-3300209-BC45A51A32C94C73B1053B4D8E416439","num_area":"10.316100000000000000000000000000","ind_status":"AT"},"geometry":{"type":"Polygon","coordinates":[[[-42.3364,-22.8121],[-42.3446,-22.8105],[-42.3292,-22.8129],[-42.3347,-22.8129],[-42.3364,-22.8121]],[[-42.3322,-22.813],[-42.3362,-22.8118],[-42.3309,-22.813],[-42.3322,-22.813]]]}},{"type":"Feature","properties":{"cod_tema":"AREA_UTILIDADE_PUBLICA","cod_imovel":"RJ-3300209-C3B7461F6A9D42B4AD3BB8244827A4C3","num_area":"6.9801000000000000000000000000000","ind_status":"AT"},"geometry":{"type":"Polygon","coordinates":[[[-42.3845,-22.8107],[-42.379,-22.8111],[-42.389,-22.8122],[-42.3845,-22.8107],[-42.3845,-22.8107]],[[-42.3834,-22.8149],[-42.3789,-22.8119],[-42.3834,-22.8149],[-42.3834,-22.8149]]]}},{"type":"Feature","properties":{"cod_tema":"AREA_SERVIDAO_ADMINISTRATIVA_TOTAL","cod_imovel":"RJ-3300209-C3B7461F6A9D42B4AD3BB8244827A4C3","num_area":"6.9801000000000000000000000000000","ind_status":"AT"},"geometry":{"type":"Polygon","coordinates":[[[-42.3845,-22.8107],[-42.379,-22.8111],[-42.389,-22.8122],[-42.3845,-22.8107],[-42.3845,-22.8107]],[[-42.3834,-22.8149],[-42.3789,-22.8119],[-42.3834,-22.8149],[-42.3834,-22.8149]]]}},{"type":"Feature","properties":{"cod_tema":"AREA_INFRAESTRUTURA_PUBLICA","cod_imovel":"RJ-3300209-CB9CD69876C849ABAC2F4EADAB228D78","num_area":"1.2793000000000000000000000000000","ind_status":"AT"},"geometry":{"type":"Polygon","coordinates":[[[-42.2404,-22.849],[-42.2479,-22.8393],[-42.2407,-22.8486],[-42.2404,-22.849]]]}},{"type":"Feature","properties":{"cod_tema":"AREA_SERVIDAO_ADMINISTRATIVA_TOTAL","cod_imovel":"RJ-3300209-CB9CD69876C849ABAC2F4EADAB228D78","num_area":"1.2793000000000000000000000000000","ind_status":"AT"},"geometry":{"type":"Polygon","coordinates":[[[-42.2404,-22.849],[-42.2479,-22.8393],[-42.2407,-22.8486],[-42.2404,-22.849]]]}},{"type":"Feature","properties":{"cod_tema":"AREA_UTILIDADE_PUBLICA","cod_imovel":"RJ-3300209-E645E18CDDB24A1887E82D43E2B18D31","num_area":"0.2144000000000000000000000000000","ind_status":"AT"},"geometry":{"type":"Polygon","coordinates":[[[-42.2413,-22.7463],[-42.2447,-22.7472],[-42.2415,-22.7463],[-42.2413,-22.7463]]]}},{"type":"Feature","properties":{"cod_tema":"AREA_SERVIDAO_ADMINISTRATIVA_TOTAL","cod_imovel":"RJ-3300209-E645E18CDDB24A1887E82D43E2B18D31","num_area":"0.2144000000000000000000000000000","ind_status":"AT"},"geometry":{"type":"Polygon","coordinates":[[[-42.2413,-22.7463],[-42.2447,-22.7472],[-42.2415,-22.7463],[-42.2413,-22.7463]]]}},{"type":"Feature","properties":{"cod_tema":"AREA_UTILIDADE_PUBLICA","cod_imovel":"RJ-3300209-F168977C0B3A44C9A0D3BEF876D79BC6","num_area":"0.7832000000000000000000000000000","ind_status":"AT"},"geometry":{"type":"Polygon","coordinates":[[[-42.2408,-22.7291],[-42.2366,-22.727],[-42.2409,-22.7292],[-42.2408,-22.7291]]]}},{"type":"Feature","properties":{"cod_tema":"AREA_SERVIDAO_ADMINISTRATIVA_TOTAL","cod_imovel":"RJ-3300209-F168977C0B3A44C9A0D3BEF876D79BC6","num_area":"0.7832000000000000000000000000000","ind_status":"AT"},"geometry":{"type":"Polygon","coordinates":[[[-42.2408,-22.7291],[-42.2366,-22.727],[-42.2409,-22.7292],[-42.2408,-22.7291]]]}},{"type":"Feature","properties":{"cod_tema":"AREA_UTILIDADE_PUBLICA","cod_imovel":"RJ-3300209-F6981DF3F8354348BCD850363CDFC7DB","num_area":"0.2553000000000000000000000000000","ind_status":"AT"},"geometry":{"type":"Polygon","coordinates":[[[-42.2458,-22.7427],[-42.2468,-22.7383],[-42.2457,-22.7413],[-42.2458,-22.7427]]]}},{"type":"Feature","properties":{"cod_tema":"AREA_SERVIDAO_ADMINISTRATIVA_TOTAL","cod_imovel":"RJ-3300209-F6981DF3F8354348BCD850363CDFC7DB","num_area":"0.2553000000000000000000000000000","ind_status":"AT"},"geometry":{"type":"Polygon","coordinates":[[[-42.2458,-22.7427],[-42.2468,-22.7383],[-42.2457,-22.7413],[-42.2458,-22.7427]]]}},{"type":"Feature","properties":{"cod_tema":"AREA_UTILIDADE_PUBLICA","cod_imovel":"RJ-3300209-F6AA3C065DC34B869614733C39113D49","num_area":"0.4137000000000000000000000000000","ind_status":"AT"},"geometry":{"type":"Polygon","coordinates":[[[-42.208,-22.6963],[-42.2047,-22.6939],[-42.208,-22.6963],[-42.208,-22.6963]]]}},{"type":"Feature","properties":{"cod_tema":"AREA_SERVIDAO_ADMINISTRATIVA_TOTAL","cod_imovel":"RJ-3300209-F6AA3C065DC34B869614733C39113D49","num_area":"0.4137000000000000000000000000000","ind_status":"AT"},"geometry":{"type":"Polygon","coordinates":[[[-42.208,-22.6963],[-42.2047,-22.6939],[-42.208,-22.6963],[-42.208,-22.6963]]]}},{"type":"Feature","properties":{"cod_tema":"AREA_INFRAESTRUTURA_PUBLICA","cod_imovel":"RJ-3300209-FDBCC403BAC14306A50D1F26E32E338F","num_area":"0.5833000000000000000000000000000","ind_status":"AT"},"geometry":{"type":"Polygon","coordinates":[[[-42.3787,-22.7704],[-42.3849,-22.7716],[-42.3793,-22.7708],[-42.3787,-22.7704]]]}},{"type":"Feature","properties":{"cod_tema":"AREA_SERVIDAO_ADMINISTRATIVA_TOTAL","cod_imovel":"RJ-3300209-FDBCC403BAC14306A50D1F26E32E338F","num_area":"0.5833000000000000000000000000000","ind_status":"AT"},"geometry":{"type":"Polygon","coordinates":[[[-42.3787,-22.7704],[-42.3849,-22.7716],[-42.3793,-22.7708],[-42.3787,-22.7704]]]}},{"type":"Feature","properties":{"cod_tema":"AREA_UTILIDADE_PUBLICA","cod_imovel":"RJ-3300209-2F496CDE5F5E44F8AD937CDBF8233951","num_area":"0.3197000000000000000000000000000","ind_status":"AT"},"geometry":{"type":"Polygon","coordinates":[[[-42.3667,-22.7469],[-42.3705,-22.7487],[-42.3669,-22.747],[-42.3667,-22.7469]]]}},{"type":"Feature","properties":{"cod_tema":"AREA_SERVIDAO_ADMINISTRATIVA_TOTAL","cod_imovel":"RJ-3300209-2F496CDE5F5E44F8AD937CDBF8233951","num_area":"0.3197000000000000000000000000000","ind_status":"AT"},"geometry":{"type":"Polygon","coordinates":[[[-42.3667,-22.7469],[-42.3705,-22.7487],[-42.3669,-22.747],[-42.3667,-22.7469]]]}},{"type":"Feature","properties":{"cod_tema":"AREA_ENTORNO_RESERVATORIO_ENERGIA","cod_imovel":"RJ-3300209-CA03D3D556A7436A9C79EB1ADE1F0C0D","num_area":"2.8925000000000000000000000000000","ind_status":"AT"},"geometry":{"type":"Polygon","coordinates":[[[-42.2866,-22.6407],[-42.288,-22.6346],[-42.2866,-22.6407],[-42.2866,-22.6407]]]}},{"type":"Feature","properties":{"cod_tema":"AREA_SERVIDAO_ADMINISTRATIVA_TOTAL","cod_imovel":"RJ-3300209-CA03D3D556A7436A9C79EB1ADE1F0C0D","num_area":"2.8925000000000000000000000000000","ind_status":"AT"},"geometry":{"type":"Polygon","coordinates":[[[-42.2866,-22.6407],[-42.288,-22.6346],[-42.2866,-22.6407],[-42.2866,-22.6407]]]}},{"type":"Feature","properties":{"cod_tema":"AREA_INFRAESTRUTURA_PUBLICA","cod_imovel":"RJ-3300209-3983E84EDAA047C6BB7DDF75A7005C9F","num_area":"1.7133000000000000000000000000000","ind_status":"AT"},"geometry":{"type":"Polygon","coordinates":[[[-42.2097,-22.7197],[-42.2237,-22.7288],[-42.2098,-22.7197],[-42.2097,-22.7197]]]}},{"type":"Feature","properties":{"cod_tema":"AREA_SERVIDAO_ADMINISTRATIVA_TOTAL","cod_imovel":"RJ-3300209-3983E84EDAA047C6BB7DDF75A7005C9F","num_area":"1.7133000000000000000000000000000","ind_status":"AT"},"geometry":{"type":"Polygon","coordinates":[[[-42.2097,-22.7197],[-42.2237,-22.7288],[-42.2098,-22.7197],[-42.2097,-22.7197]]]}},{"type":"Feature","properties":{"cod_tema":"AREA_INFRAESTRUTURA_PUBLICA","cod_imovel":"RJ-3300209-D4185526A82643A6A7AB0F641BB82947","num_area":"3.6456000000000000000000000000000","ind_status":"AT"},"geometry":{"type":"Polygon","coordinates":[[[-42.3352,-22.7848],[-42.3285,-22.794],[-42.3345,-22.7851],[-42.3352,-22.7848]]]}},{"type":"Feature","properties":{"cod_tema":"AREA_SERVIDAO_ADMINISTRATIVA_TOTAL","cod_imovel":"RJ-3300209-D4185526A82643A6A7AB0F641BB82947","num_area":"3.6456000000000000000000000000000","ind_status":"AT"},"geometry":{"type":"Polygon","coordinates":[[[-42.3352,-22.7848],[-42.3285,-22.794],[-42.3345,-22.7851],[-42.3352,-22.7848]]]}},{"type":"Feature","properties":{"cod_tema":"AREA_UTILIDADE_PUBLICA","cod_imovel":"RJ-3300209-28F22D8A03ED4689976A40A16C233049","num_area":"6.4598000000000000000000000000000","ind_status":"AT"},"geometry":{"type":"Polygon","coordinates":[[[-42.3039,-22.8143],[-42.3147,-22.8159],[-42.3044,-22.8141],[-42.3039,-22.8143]]]}},{"type":"Feature","properties":{"cod_tema":"AREA_SERVIDAO_ADMINISTRATIVA_TOTAL","cod_imovel":"RJ-3300209-28F22D8A03ED4689976A40A16C233049","num_area":"6.4598000000000000000000000000000","ind_status":"AT"},"geometry":{"type":"Polygon","coordinates":[[[-42.3039,-22.8143],[-42.3147,-22.8159],[-42.3044,-22.8141],[-42.3039,-22.8143]]]}},{"type":"Feature","properties":{"cod_tema":"AREA_UTILIDADE_PUBLICA","cod_imovel":"RJ-3300209-F09285081E444E6397B4408BAEEE9B52","num_area":"5.9401000000000000000000000000000","ind_status":"AT"},"geometry":{"type":"Polygon","coordinates":[[[-42.2862,-22.6629],[-42.2908,-22.6657],[-42.2864,-22.663],[-42.2862,-22.6629]],[[-42.2819,-22.6625],[-42.2763,-22.6581],[-42.2786,-22.6535],[-42.2744,-22.6575],[-42.2816,-22.6626],[-42.2819,-22.6625]],[[-42.2942,-22.6686],[-42.3028,-22.6546],[-42.3001,-22.6399],[-42.3027,-22.6546],[-42.2943,-22.6686],[-42.2942,-22.6686]]]}},{"type":"Feature","properties":{"cod_tema":"AREA_SERVIDAO_ADMINISTRATIVA_TOTAL","cod_imovel":"RJ-3300209-F09285081E444E6397B4408BAEEE9B52","num_area":"5.9401000000000000000000000000000","ind_status":"AT"},"geometry":{"type":"Polygon","coordinates":[[[-42.2862,-22.6629],[-42.2908,-22.6657],[-42.2864,-22.663],[-42.2862,-22.6629]],[[-42.2819,-22.6625],[-42.2763,-22.6581],[-42.2786,-22.6535],[-42.2744,-22.6575],[-42.2816,-22.6626],[-42.2819,-22.6625]],[[-42.2942,-22.6686],[-42.3028,-22.6546],[-42.3001,-22.6399],[-42.3027,-22.6546],[-42.2943,-22.6686],[-42.2942,-22.6686]]]}},{"type":"Feature","properties":{"cod_tema":"AREA_INFRAESTRUTURA_PUBLICA","cod_imovel":"RJ-3300209-72D5C94303DE47FDA1C16F800556724F","num_area":"3.6943000000000000000000000000000","ind_status":"AT"},"geometry":{"type":"Polygon","coordinates":[[[-42.2665,-22.6889],[-42.2615,-22.6946],[-42.2562,-22.6913],[-42.2666,-22.7053],[-42.2612,-22.696],[-42.2664,-22.689],[-42.2665,-22.6889]]]}},{"type":"Feature","properties":{"cod_tema":"AREA_SERVIDAO_ADMINISTRATIVA_TOTAL","cod_imovel":"RJ-3300209-72D5C94303DE47FDA1C16F800556724F","num_area":"3.6943000000000000000000000000000","ind_status":"AT"},"geometry":{"type":"Polygon","coordinates":[[[-42.2665,-22.6889],[-42.2615,-22.6946],[-42.2562,-22.6913],[-42.2666,-22.7053],[-42.2612,-22.696],[-42.2664,-22.689],[-42.2665,-22.6889]]]}},{"type":"Feature","properties":{"cod_tema":"AREA_INFRAESTRUTURA_PUBLICA","cod_imovel":"RJ-3300209-D0C08CB605C5438CAAD886D6AFF9D320","num_area":"4.0833000000000000000000000000000","ind_status":"AT"},"geometry":{"type":"Polygon","coordinates":[[[-42.4279,-22.7888],[-42.4386,-22.7928],[-42.4303,-22.7854],[-42.4281,-22.7887],[-42.4279,-22.7888]],[[-42.4118,-22.7667],[-42.4119,-22.7714],[-42.4081,-22.7708],[-42.4118,-22.7739],[-42.4231,-22.7711],[-42.4121,-22.7715],[-42.4119,-22.7668],[-42.4118,-22.7667]]]}},{"type":"Feature","properties":{"cod_tema":"AREA_SERVIDAO_ADMINISTRATIVA_TOTAL","cod_imovel":"RJ-3300209-D0C08CB605C5438CAAD886D6AFF9D320","num_area":"4.0833000000000000000000000000000","ind_status":"AT"},"geometry":{"type":"Polygon","coordinates":[[[-42.4279,-22.7888],[-42.4386,-22.7928],[-42.4303,-22.7854],[-42.4281,-22.7887],[-42.4279,-22.7888]],[[-42.4118,-22.7667],[-42.4119,-22.7714],[-42.4081,-22.7708],[-42.4118,-22.7739],[-42.4231,-22.7711],[-42.4121,-22.7715],[-42.4119,-22.7668],[-42.4118,-22.7667]]]}},{"type":"Feature","properties":{"cod_tema":"AREA_UTILIDADE_PUBLICA","cod_imovel":"RJ-3300209-F1D546F83B574C57AC2F2D3C76810539","num_area":"0.7294000000000000000000000000000","ind_status":"AT"},"geometry":{"type":"Polygon","coordinates":[[[-42.2611,-22.63],[-42.2627,-22.6352],[-42.261,-22.6301],[-42.2611,-22.63]]]}},{"type":"Feature","properties":{"cod_tema":"AREA_SERVIDAO_ADMINISTRATIVA_TOTAL","cod_imovel":"RJ-3300209-F1D546F83B574C57AC2F2D3C76810539","num_area":"0.7294000000000000000000000000000","ind_status":"AT"},"geometry":{"type":"Polygon","coordinates":[[[-42.2611,-22.63],[-42.2627,-22.6352],[-42.261,-22.6301],[-42.2611,-22.63]]]}},{"type":"Feature","properties":{"cod_tema":"AREA_UTILIDADE_PUBLICA","cod_imovel":"RJ-3300209-B1DA36D66F5D4842AD2F57A091C4B483","num_area":"2.1676000000000000000000000000000","ind_status":"CA"},"geometry":{"type":"Polygon","coordinates":[[[-42.2462,-22.8438],[-42.2406,-22.8485],[-42.2445,-22.8454],[-42.2462,-22.8438]]]}},{"type":"Feature","properties":{"cod_tema":"AREA_SERVIDAO_ADMINISTRATIVA_TOTAL","cod_imovel":"RJ-3300209-B1DA36D66F5D4842AD2F57A091C4B483","num_area":"2.1676000000000000000000000000000","ind_status":"CA"},"geometry":{"type":"Polygon","coordinates":[[[-42.2462,-22.8438],[-42.2406,-22.8485],[-42.2445,-22.8454],[-42.2462,-22.8438]]]}},{"type":"Feature","properties":{"cod_tema":"AREA_INFRAESTRUTURA_PUBLICA","cod_imovel":"RJ-3300209-7F6601E5A2E046B6B4F9FA41064C770F","num_area":"0.9129000000000000000000000000000","ind_status":"AT"},"geometry":{"type":"Polygon","coordinates":[[[-42.2919,-22.6757],[-42.2939,-22.6685],[-42.2918,-22.6757],[-42.2919,-22.6757]]]}},{"type":"Feature","properties":{"cod_tema":"AREA_SERVIDAO_ADMINISTRATIVA_TOTAL","cod_imovel":"RJ-3300209-7F6601E5A2E046B6B4F9FA41064C770F","num_area":"0.9129000000000000000000000000000","ind_status":"AT"},"geometry":{"type":"Polygon","coordinates":[[[-42.2919,-22.6757],[-42.2939,-22.6685],[-42.2918,-22.6757],[-42.2919,-22.6757]]]}},{"type":"Feature","properties":{"cod_tema":"AREA_UTILIDADE_PUBLICA","cod_imovel":"RJ-3300209-8DDAD27CC38C47CEB220EC65CB629B2A","num_area":"1.1114000000000000000000000000000","ind_status":"AT"},"geometry":{"type":"Polygon","coordinates":[[[-42.2478,-22.7727],[-42.2468,-22.781],[-42.2477,-22.7727],[-42.2478,-22.7727]]]}},{"type":"Feature","properties":{"cod_tema":"AREA_SERVIDAO_ADMINISTRATIVA_TOTAL","cod_imovel":"RJ-3300209-8DDAD27CC38C47CEB220EC65CB629B2A","num_area":"1.1114000000000000000000000000000","ind_status":"AT"},"geometry":{"type":"Polygon","coordinates":[[[-42.2478,-22.7727],[-42.2468,-22.781],[-42.2477,-22.7727],[-42.2478,-22.7727]]]}},{"type":"Feature","properties":{"cod_tema":"AREA_INFRAESTRUTURA_PUBLICA","cod_imovel":"RJ-3300209-C5349E3793FC4086B5B3A907F2241446","num_area":"6.9953000000000000000000000000000","ind_status":"AT"},"geometry":{"type":"Polygon","coordinates":[[[-42.294,-22.8161],[-42.2833,-22.8184],[-42.2935,-22.8163],[-42.294,-22.8161]]]}},{"type":"Feature","properties":{"cod_tema":"AREA_SERVIDAO_ADMINISTRATIVA_TOTAL","cod_imovel":"RJ-3300209-C5349E3793FC4086B5B3A907F2241446","num_area":"6.9953000000000000000000000000000","ind_status":"AT"},"geometry":{"type":"Polygon","coordinates":[[[-42.294,-22.8161],[-42.2833,-22.8184],[-42.2935,-22.8163],[-42.294,-22.8161]]]}},{"type":"Feature","properties":{"cod_tema":"AREA_INFRAESTRUTURA_PUBLICA","cod_imovel":"RJ-3300209-B1CEC3CE5F0E4E5787CEA68E9CBF9BA7","num_area":"0.4656000000000000000000000000000","ind_status":"AT"},"geometry":{"type":"Polygon","coordinates":[[[-42.3946,-22.8045],[-42.3978,-22.808],[-42.3946,-22.8046],[-42.3946,-22.8045]]]}},{"type":"Feature","properties":{"cod_tema":"AREA_SERVIDAO_ADMINISTRATIVA_TOTAL","cod_imovel":"RJ-3300209-B1CEC3CE5F0E4E5787CEA68E9CBF9BA7","num_area":"0.4656000000000000000000000000000","ind_status":"AT"},"geometry":{"type":"Polygon","coordinates":[[[-42.3946,-22.8045],[-42.3978,-22.808],[-42.3946,-22.8046],[-42.3946,-22.8045]]]}},{"type":"Feature","properties":{"cod_tema":"AREA_UTILIDADE_PUBLICA","cod_imovel":"RJ-3300209-F767AD21B636407B988CFDCBABA2160E","num_area":"2.6574000000000000000000000000000","ind_status":"AT"},"geometry":{"type":"Polygon","coordinates":[[[-42.3211,-22.7573],[-42.3161,-22.7581],[-42.3211,-22.7573],[-42.3211,-22.7573]],[[-42.322,-22.7547],[-42.3166,-22.751],[-42.322,-22.7547],[-42.322,-22.7547]],[[-42.3247,-22.7496],[-42.3241,-22.7552],[-42.3248,-22.7496],[-42.3247,-22.7496]]]}},{"type":"Feature","properties":{"cod_tema":"AREA_SERVIDAO_ADMINISTRATIVA_TOTAL","cod_imovel":"RJ-3300209-F767AD21B636407B988CFDCBABA2160E","num_area":"2.6574000000000000000000000000000","ind_status":"AT"},"geometry":{"type":"Polygon","coordinates":[[[-42.3211,-22.7573],[-42.3161,-22.7581],[-42.3211,-22.7573],[-42.3211,-22.7573]],[[-42.322,-22.7547],[-42.3166,-22.751],[-42.322,-22.7547],[-42.322,-22.7547]],[[-42.3247,-22.7496],[-42.3241,-22.7552],[-42.3248,-22.7496],[-42.3247,-22.7496]]]}},{"type":"Feature","properties":{"cod_tema":"AREA_UTILIDADE_PUBLICA","cod_imovel":"RJ-3300209-BEF0439C6AF849F88881D5418FD1E1D4","num_area":"2.6157000000000000000000000000000","ind_status":"AT"},"geometry":{"type":"Polygon","coordinates":[[[-42.2221,-22.6737],[-42.2123,-22.6756],[-42.2216,-22.6736],[-42.2221,-22.6737]],[[-42.2121,-22.6751],[-42.2196,-22.6619],[-42.2119,-22.6744],[-42.2121,-22.6751]]]}},{"type":"Feature","properties":{"cod_tema":"AREA_SERVIDAO_ADMINISTRATIVA_TOTAL","cod_imovel":"RJ-3300209-BEF0439C6AF849F88881D5418FD1E1D4","num_area":"2.6157000000000000000000000000000","ind_status":"AT"},"geometry":{"type":"Polygon","coordinates":[[[-42.2221,-22.6737],[-42.2123,-22.6756],[-42.2216,-22.6736],[-42.2221,-22.6737]],[[-42.2121,-22.6751],[-42.2196,-22.6619],[-42.2119,-22.6744],[-42.2121,-22.6751]]]}},{"type":"Feature","properties":{"cod_tema":"AREA_INFRAESTRUTURA_PUBLICA","cod_imovel":"RJ-3300209-39FDAB94D9804884B8519FC10ABB9250","num_area":"2.9063000000000000000000000000000","ind_status":"AT"},"geometry":{"type":"Polygon","coordinates":[[[-42.2042,-22.6253],[-42.199,-22.6062],[-42.2141,-22.591],[-42.199,-22.6062],[-42.2043,-22.6249],[-42.2042,-22.6253]]]}},{"type":"Feature","properties":{"cod_tema":"AREA_SERVIDAO_ADMINISTRATIVA_TOTAL","cod_imovel":"RJ-3300209-39FDAB94D9804884B8519FC10ABB9250","num_area":"2.9063000000000000000000000000000","ind_status":"AT"},"geometry":{"type":"Polygon","coordinates":[[[-42.2042,-22.6253],[-42.199,-22.6062],[-42.2141,-22.591],[-42.199,-22.6062],[-42.2043,-22.6249],[-42.2042,-22.6253]]]}},{"type":"Feature","properties":{"cod_tema":"AREA_INFRAESTRUTURA_PUBLICA","cod_imovel":"RJ-3300209-AAE7405DE88544C3A914774E24C4FC32","num_area":"0.6568000000000000000000000000000","ind_status":"AT"},"geometry":{"type":"Polygon","coordinates":[[[-42.4537,-22.8263],[-42.4523,-22.8184],[-42.4536,-22.8257],[-42.4537,-22.8263]]]}},{"type":"Feature","properties":{"cod_tema":"AREA_SERVIDAO_ADMINISTRATIVA_TOTAL","cod_imovel":"RJ-3300209-AAE7405DE88544C3A914774E24C4FC32","num_area":"0.6568000000000000000000000000000","ind_status":"AT"},"geometry":{"type":"Polygon","coordinates":[[[-42.4537,-22.8263],[-42.4523,-22.8184],[-42.4536,-22.8257],[-42.4537,-22.8263]]]}},{"type":"Feature","properties":{"cod_tema":"RESERVATORIO_ENERGIA","cod_imovel":"RJ-3300209-CFE4B1EF655C460FA39B5829121A9612","num_area":"2.9091000000000000000000000000000","ind_status":"AT"},"geometry":{"type":"Polygon","coordinates":[[[-42.2872,-22.6317],[-42.286,-22.6364],[-42.2872,-22.6317],[-42.2872,-22.6317]]]}},{"type":"Feature","properties":{"cod_tema":"AREA_ENTORNO_RESERVATORIO_ENERGIA","cod_imovel":"RJ-3300209-CFE4B1EF655C460FA39B5829121A9612","num_area":"2.3411000000000000000000000000000","ind_status":"AT"},"geometry":{"type":"Polygon","coordinates":[[[-42.2859,-22.6366],[-42.2867,-22.6308],[-42.2859,-22.6366],[-42.2859,-22.6366]]]}},{"type":"Feature","properties":{"cod_tema":"AREA_SERVIDAO_ADMINISTRATIVA_TOTAL","cod_imovel":"RJ-3300209-CFE4B1EF655C460FA39B5829121A9612","num_area":"5.2501000000000000000000000000000","ind_status":"AT"},"geometry":{"type":"Polygon","coordinates":[[[-42.2872,-22.6317],[-42.2859,-22.6366],[-42.2872,-22.6317],[-42.2872,-22.6317]]]}},{"type":"Feature","properties":{"cod_tema":"AREA_INFRAESTRUTURA_PUBLICA","cod_imovel":"RJ-3300209-EFD571E0749D4293908640F5CD606594","num_area":"1.6902000000000000000000000000000","ind_status":"AT"},"geometry":{"type":"Polygon","coordinates":[[[-42.263,-22.6283],[-42.271,-22.6196],[-42.2629,-22.6282],[-42.263,-22.6283]]]}},{"type":"Feature","properties":{"cod_tema":"AREA_SERVIDAO_ADMINISTRATIVA_TOTAL","cod_imovel":"RJ-3300209-EFD571E0749D4293908640F5CD606594","num_area":"1.6902000000000000000000000000000","ind_status":"AT"},"geometry":{"type":"Polygon","coordinates":[[[-42.263,-22.6283],[-42.271,-22.6196],[-42.2629,-22.6282],[-42.263,-22.6283]]]}},{"type":"Feature","properties":{"cod_tema":"AREA_INFRAESTRUTURA_PUBLICA","cod_imovel":"RJ-3300209-EA47314787E648359186B54567E4FE76","num_area":"0.4657000000000000000000000000000","ind_status":"PE"},"geometry":{"type":"Polygon","coordinates":[[[-42.2742,-22.6399],[-42.268,-22.6398],[-42.2739,-22.64],[-42.2742,-22.6399]]]}},{"type":"Feature","properties":{"cod_tema":"AREA_SERVIDAO_ADMINISTRATIVA_TOTAL","cod_imovel":"RJ-3300209-EA47314787E648359186B54567E4FE76","num_area":"0.4657000000000000000000000000000","ind_status":"PE"},"geometry":{"type":"Polygon","coordinates":[[[-42.2742,-22.6399],[-42.268,-22.6398],[-42.2739,-22.64],[-42.2742,-22.6399]]]}},{"type":"Feature","properties":{"cod_tema":"AREA_UTILIDADE_PUBLICA","cod_imovel":"RJ-3300209-6E9FECC0CE41452A8E21C16ED50F8E34","num_area":"6.1051000000000000000000000000000","ind_status":"PE"},"geometry":{"type":"Polygon","coordinates":[[[-42.3532,-22.7177],[-42.3323,-22.7231],[-42.3532,-22.7177],[-42.3532,-22.7177]]]}},{"type":"Feature","properties":{"cod_tema":"AREA_SERVIDAO_ADMINISTRATIVA_TOTAL","cod_imovel":"RJ-3300209-6E9FECC0CE41452A8E21C16ED50F8E34","num_area":"6.1051000000000000000000000000000","ind_status":"PE"},"geometry":{"type":"Polygon","coordinates":[[[-42.3532,-22.7177],[-42.3323,-22.7231],[-42.3532,-22.7177],[-42.3532,-22.7177]]]}},{"type":"Feature","properties":{"cod_tema":"AREA_INFRAESTRUTURA_PUBLICA","cod_imovel":"RJ-3300209-88EBC3A5817B4EA3B04C164F3CF28366","num_area":"0.5521000000000000000000000000000","ind_status":"AT"},"geometry":{"type":"Polygon","coordinates":[[[-42.2403,-22.6931],[-42.2403,-22.6975],[-42.2403,-22.6931],[-42.2403,-22.6931]]]}},{"type":"Feature","properties":{"cod_tema":"AREA_SERVIDAO_ADMINISTRATIVA_TOTAL","cod_imovel":"RJ-3300209-88EBC3A5817B4EA3B04C164F3CF28366","num_area":"0.5521000000000000000000000000000","ind_status":"AT"},"geometry":{"type":"Polygon","coordinates":[[[-42.2403,-22.6931],[-42.2403,-22.6975],[-42.2403,-22.6931],[-42.2403,-22.6931]]]}},{"type":"Feature","properties":{"cod_tema":"AREA_UTILIDADE_PUBLICA","cod_imovel":"RJ-3300209-0A0EB0FEDB0F4B05AD9DBBBCF414E027","num_area":"1.5582000000000000000000000000000","ind_status":"AT"},"geometry":{"type":"Polygon","coordinates":[[[-42.2537,-22.7701],[-42.2493,-22.7726],[-42.2538,-22.7701],[-42.2537,-22.7701]],[[-42.2615,-22.7658],[-42.2674,-22.7645],[-42.2619,-22.7656],[-42.2615,-22.7658]]]}},{"type":"Feature","properties":{"cod_tema":"AREA_SERVIDAO_ADMINISTRATIVA_TOTAL","cod_imovel":"RJ-3300209-0A0EB0FEDB0F4B05AD9DBBBCF414E027","num_area":"1.5582000000000000000000000000000","ind_status":"AT"},"geometry":{"type":"Polygon","coordinates":[[[-42.2537,-22.7701],[-42.2493,-22.7726],[-42.2538,-22.7701],[-42.2537,-22.7701]],[[-42.2615,-22.7658],[-42.2674,-22.7645],[-42.2619,-22.7656],[-42.2615,-22.7658]]]}},{"type":"Feature","properties":{"cod_tema":"AREA_UTILIDADE_PUBLICA","cod_imovel":"RJ-3300209-108391E0D21A4AEDAD545A5699789C4A","num_area":"24.822000000000000000000000000000","ind_status":"AT"},"geometry":{"type":"Polygon","coordinates":[[[-42.226,-22.6096],[-42.2322,-22.6046],[-42.2231,-22.6089],[-42.2135,-22.6305],[-42.2033,-22.6309],[-42.2122,-22.6305],[-42.2136,-22.6349],[-42.2177,-22.6186],[-42.2259,-22.6097],[-42.226,-22.6096]],[[-42.1634,-22.5868],[-42.16,-22.5827],[-42.1668,-22.5819],[-42.1731,-22.5635],[-42.1642,-22.5827],[-42.1434,-22.5645],[-42.1596,-22.5826],[-42.1531,-22.5836],[-42.1535,-22.5912],[-42.1481,-22.592],[-42.1538,-22.6032],[-42.1505,-22.6059],[-42.1556,-22.6041],[-42.1663,-22.6176],[-42.1483,-22.5931],[-42.1537,-22.5912],[-42.1532,-22.5836],[-42.1616,-22.5848],[-42.1634,-22.5868]],[[-42.1786,-22.5977],[-42.1661,-22.5898],[-42.1763,-22.5973],[-42.1786,-22.5977]],[[-42.1805,-22.6355],[-42.1801,-22.6414],[-42.1806,-22.6357],[-42.1805,-22.6355]],[[-42.1993,-22.6374],[-42.202,-22.6321],[-42.1994,-22.6372],[-42.1993,-22.6374]],[[-42.1981,-22.6389],[-42.1942,-22.6329],[-42.1981,-22.6389],[-42.1981,-22.6389]]]}},{"type":"Feature","properties":{"cod_tema":"AREA_SERVIDAO_ADMINISTRATIVA_TOTAL","cod_imovel":"RJ-3300209-108391E0D21A4AEDAD545A5699789C4A","num_area":"24.950200000000000000000000000000","ind_status":"AT"},"geometry":{"type":"Polygon","coordinates":[[[-42.157,-22.6056],[-42.1665,-22.6176],[-42.1482,-22.5922],[-42.1537,-22.5912],[-42.1534,-22.5835],[-42.1634,-22.5868],[-42.16,-22.5827],[-42.1668,-22.5819],[-42.1731,-22.5635],[-42.1642,-22.5827],[-42.1434,-22.5645],[-42.1596,-22.5826],[-42.1531,-22.5836],[-42.1535,-22.5912],[-42.1481,-22.592],[-42.1538,-22.6032],[-42.1505,-22.6059],[-42.1565,-22.6051],[-42.157,-22.6056]],[[-42.226,-22.6096],[-42.2322,-22.6046],[-42.2231,-22.6089],[-42.2135,-22.6305],[-42.2033,-22.6309],[-42.2122,-22.6305],[-42.2136,-22.6349],[-42.2177,-22.6186],[-42.2259,-22.6097],[-42.226,-22.6096]],[[-42.1786,-22.5977],[-42.1661,-22.5898],[-42.1763,-22.5973],[-42.1786,-22.5977]],[[-42.1805,-22.6355],[-42.1801,-22.6414],[-42.1806,-22.6357],[-42.1805,-22.6355]],[[-42.1993,-22.6374],[-42.202,-22.6321],[-42.1994,-22.6372],[-42.1993,-22.6374]],[[-42.1981,-22.6389],[-42.1942,-22.6329],[-42.1981,-22.6389],[-42.1981,-22.6389]]]}},{"type":"Feature","properties":{"cod_tema":"AREA_UTILIDADE_PUBLICA","cod_imovel":"RJ-3300209-06A3C31FDC0A4BA69465648181E948AA","num_area":"1.3848000000000000000000000000000","ind_status":"AT"},"geometry":{"type":"Polygon","coordinates":[[[-42.1356,-22.6485],[-42.1362,-22.652],[-42.1357,-22.6487],[-42.1356,-22.6485]],[[-42.1408,-22.6569],[-42.148,-22.6526],[-42.1409,-22.6569],[-42.1408,-22.6569]]]}},{"type":"Feature","properties":{"cod_tema":"AREA_SERVIDAO_ADMINISTRATIVA_TOTAL","cod_imovel":"RJ-3300209-06A3C31FDC0A4BA69465648181E948AA","num_area":"1.3848000000000000000000000000000","ind_status":"AT"},"geometry":{"type":"Polygon","coordinates":[[[-42.1356,-22.6485],[-42.1362,-22.652],[-42.1357,-22.6487],[-42.1356,-22.6485]],[[-42.1408,-22.6569],[-42.148,-22.6526],[-42.1409,-22.6569],[-42.1408,-22.6569]]]}},{"type":"Feature","properties":{"cod_tema":"AREA_UTILIDADE_PUBLICA","cod_imovel":"RJ-3300209-B4F3DDBBF99B40FAA691DC8CB1505971","num_area":"2.0779000000000000000000000000000","ind_status":"AT"},"geometry":{"type":"Polygon","coordinates":[[[-42.2417,-22.6671],[-42.249,-22.6584],[-42.2381,-22.6651],[-42.2334,-22.6612],[-42.2342,-22.6547],[-42.2335,-22.6616],[-42.2417,-22.6668],[-42.2417,-22.6671]]]}},{"type":"Feature","properties":{"cod_tema":"AREA_SERVIDAO_ADMINISTRATIVA_TOTAL","cod_imovel":"RJ-3300209-B4F3DDBBF99B40FAA691DC8CB1505971","num_area":"2.0779000000000000000000000000000","ind_status":"AT"},"geometry":{"type":"Polygon","coordinates":[[[-42.2417,-22.6671],[-42.249,-22.6584],[-42.2381,-22.6651],[-42.2334,-22.6612],[-42.2342,-22.6547],[-42.2335,-22.6616],[-42.2417,-22.6668],[-42.2417,-22.6671]]]}}]}