{"type":"FeatureCollection","features":[{"type":"Feature","properties":{"cod_tema":"AREA_INFRAESTRUTURA_PUBLICA","cod_imovel":"RJ-3300225-1F3B571707CE46EDB1EBA2ECF6F70593","num_area":"0.4362000000000000000000000000000","ind_status":"AT"},"geometry":{"type":"Polygon","coordinates":[[[-43.0565,-22.1727],[-43.0615,-22.1775],[-43.0568,-22.1732],[-43.0565,-22.1727]]]}},{"type":"Feature","properties":{"cod_tema":"AREA_SERVIDAO_ADMINISTRATIVA_TOTAL","cod_imovel":"RJ-3300225-1F3B571707CE46EDB1EBA2ECF6F70593","num_area":"0.4362000000000000000000000000000","ind_status":"AT"},"geometry":{"type":"Polygon","coordinates":[[[-43.0565,-22.1727],[-43.0615,-22.1775],[-43.0568,-22.1732],[-43.0565,-22.1727]]]}},{"type":"Feature","properties":{"cod_tema":"AREA_INFRAESTRUTURA_PUBLICA","cod_imovel":"RJ-3300225-3207FCEEACB64EB6A71E5FC639F08A53","num_area":"0.1797000000000000000000000000000","ind_status":"AT"},"geometry":{"type":"Polygon","coordinates":[[[-43.1238,-22.2218],[-43.1212,-22.2244],[-43.1238,-22.2218],[-43.1238,-22.2218]]]}},{"type":"Feature","properties":{"cod_tema":"AREA_SERVIDAO_ADMINISTRATIVA_TOTAL","cod_imovel":"RJ-3300225-3207FCEEACB64EB6A71E5FC639F08A53","num_area":"0.1797000000000000000000000000000","ind_status":"AT"},"geometry":{"type":"Polygon","coordinates":[[[-43.1238,-22.2218],[-43.1212,-22.2244],[-43.1238,-22.2218],[-43.1238,-22.2218]]]}},{"type":"Feature","properties":{"cod_tema":"AREA_INFRAESTRUTURA_PUBLICA","cod_imovel":"RJ-3300225-95314C25C83544428E3F377A6530812D","num_area":"0.4562000000000000000000000000000","ind_status":"AT"},"geometry":{"type":"Polygon","coordinates":[[[-43.123,-22.2598],[-43.1282,-22.2634],[-43.1232,-22.2601],[-43.123,-22.2598]]]}},{"type":"Feature","properties":{"cod_tema":"AREA_SERVIDAO_ADMINISTRATIVA_TOTAL","cod_imovel":"RJ-3300225-95314C25C83544428E3F377A6530812D","num_area":"0.4562000000000000000000000000000","ind_status":"AT"},"geometry":{"type":"Polygon","coordinates":[[[-43.123,-22.2598],[-43.1282,-22.2634],[-43.1232,-22.2601],[-43.123,-22.2598]]]}},{"type":"Feature","properties":{"cod_tema":"AREA_INFRAESTRUTURA_PUBLICA","cod_imovel":"RJ-3300225-A23CFE867DA841788CF13B0887DE3576","num_area":"0.9760000000000000000000000000000","ind_status":"AT"},"geometry":{"type":"Polygon","coordinates":[[[-43.1028,-22.2045],[-43.0969,-22.2007],[-43.1023,-22.2039],[-43.1028,-22.2045]],[[-43.1046,-22.2021],[-43.1113,-22.205],[-43.1046,-22.2024],[-43.1046,-22.2021]]]}},{"type":"Feature","properties":{"cod_tema":"AREA_SERVIDAO_ADMINISTRATIVA_TOTAL","cod_imovel":"RJ-3300225-A23CFE867DA841788CF13B0887DE3576","num_area":"0.9760000000000000000000000000000","ind_status":"AT"},"geometry":{"type":"Polygon","coordinates":[[[-43.1028,-22.2045],[-43.0969,-22.2007],[-43.1023,-22.2039],[-43.1028,-22.2045]],[[-43.1046,-22.2021],[-43.1113,-22.205],[-43.1046,-22.2024],[-43.1046,-22.2021]]]}},{"type":"Feature","properties":{"cod_tema":"AREA_INFRAESTRUTURA_PUBLICA","cod_imovel":"RJ-3300225-C17886F144F04054979FA88943B7CCBA","num_area":"0.3627000000000000000000000000000","ind_status":"AT"},"geometry":{"type":"Polygon","coordinates":[[[-43.1089,-22.2613],[-43.1117,-22.2668],[-43.1094,-22.2619],[-43.1089,-22.2613]]]}},{"type":"Feature","properties":{"cod_tema":"AREA_SERVIDAO_ADMINISTRATIVA_TOTAL","cod_imovel":"RJ-3300225-C17886F144F04054979FA88943B7CCBA","num_area":"0.3627000000000000000000000000000","ind_status":"AT"},"geometry":{"type":"Polygon","coordinates":[[[-43.1089,-22.2613],[-43.1117,-22.2668],[-43.1094,-22.2619],[-43.1089,-22.2613]]]}},{"type":"Feature","properties":{"cod_tema":"AREA_UTILIDADE_PUBLICA","cod_imovel":"RJ-3300225-F33DFD4A330044358D4FD09D21694020","num_area":"0.1755000000000000000000000000000","ind_status":"AT"},"geometry":{"type":"Polygon","coordinates":[[[-43.0636,-22.1804],[-43.0617,-22.1774],[-43.0633,-22.1803],[-43.0636,-22.1804]]]}},{"type":"Feature","properties":{"cod_tema":"AREA_SERVIDAO_ADMINISTRATIVA_TOTAL","cod_imovel":"RJ-3300225-F33DFD4A330044358D4FD09D21694020","num_area":"0.1755000000000000000000000000000","ind_status":"AT"},"geometry":{"type":"Polygon","coordinates":[[[-43.0636,-22.1804],[-43.0617,-22.1774],[-43.0633,-22.1803],[-43.0636,-22.1804]]]}},{"type":"Feature","properties":{"cod_tema":"AREA_UTILIDADE_PUBLICA","cod_imovel":"RJ-3300225-21509061744A4BB8B4C6D5C95E429D19","num_area":"0.0747000000000000000000000000000","ind_status":"AT"},"geometry":{"type":"Polygon","coordinates":[[[-43.1208,-22.2477],[-43.1239,-22.2495],[-43.1208,-22.2477],[-43.1208,-22.2477]]]}},{"type":"Feature","properties":{"cod_tema":"AREA_SERVIDAO_ADMINISTRATIVA_TOTAL","cod_imovel":"RJ-3300225-21509061744A4BB8B4C6D5C95E429D19","num_area":"0.0747000000000000000000000000000","ind_status":"AT"},"geometry":{"type":"Polygon","coordinates":[[[-43.1208,-22.2477],[-43.1239,-22.2495],[-43.1208,-22.2477],[-43.1208,-22.2477]]]}},{"type":"Feature","properties":{"cod_tema":"AREA_UTILIDADE_PUBLICA","cod_imovel":"RJ-3300225-33CE3B0AA8D045AF9B73BB37E66365E2","num_area":"0.9414000000000000000000000000000","ind_status":"AT"},"geometry":{"type":"Polygon","coordinates":[[[-43.1049,-22.2232],[-43.1017,-22.2238],[-43.1049,-22.2232],[-43.1049,-22.2232]]]}},{"type":"Feature","properties":{"cod_tema":"AREA_SERVIDAO_ADMINISTRATIVA_TOTAL","cod_imovel":"RJ-3300225-33CE3B0AA8D045AF9B73BB37E66365E2","num_area":"0.9414000000000000000000000000000","ind_status":"AT"},"geometry":{"type":"Polygon","coordinates":[[[-43.1049,-22.2232],[-43.1017,-22.2238],[-43.1049,-22.2232],[-43.1049,-22.2232]]]}},{"type":"Feature","properties":{"cod_tema":"AREA_UTILIDADE_PUBLICA","cod_imovel":"RJ-3300225-380026D22BB14EF1A0E682B2D0F9D482","num_area":"0.3276000000000000000000000000000","ind_status":"AT"},"geometry":{"type":"Polygon","coordinates":[[[-43.1044,-22.2703],[-43.1018,-22.2679],[-43.1043,-22.2702],[-43.1044,-22.2703]]]}},{"type":"Feature","properties":{"cod_tema":"AREA_SERVIDAO_ADMINISTRATIVA_TOTAL","cod_imovel":"RJ-3300225-380026D22BB14EF1A0E682B2D0F9D482","num_area":"0.3276000000000000000000000000000","ind_status":"AT"},"geometry":{"type":"Polygon","coordinates":[[[-43.1044,-22.2703],[-43.1018,-22.2679],[-43.1043,-22.2702],[-43.1044,-22.2703]]]}},{"type":"Feature","properties":{"cod_tema":"AREA_INFRAESTRUTURA_PUBLICA","cod_imovel":"RJ-3300225-B08855DB27F84A5C87BA7B1E3024C7BD","num_area":"0.7174000000000000000000000000000","ind_status":"AT"},"geometry":{"type":"Polygon","coordinates":[[[-43.1054,-22.2341],[-43.1094,-22.2354],[-43.1056,-22.2342],[-43.1054,-22.2341]]]}},{"type":"Feature","properties":{"cod_tema":"AREA_SERVIDAO_ADMINISTRATIVA_TOTAL","cod_imovel":"RJ-3300225-B08855DB27F84A5C87BA7B1E3024C7BD","num_area":"0.7174000000000000000000000000000","ind_status":"AT"},"geometry":{"type":"Polygon","coordinates":[[[-43.1054,-22.2341],[-43.1094,-22.2354],[-43.1056,-22.2342],[-43.1054,-22.2341]]]}},{"type":"Feature","properties":{"cod_tema":"AREA_UTILIDADE_PUBLICA","cod_imovel":"RJ-3300225-A04DD86BA5304F1992082D6A557A3C5A","num_area":"15.955900000000000000000000000000","ind_status":"AT"},"geometry":{"type":"Polygon","coordinates":[[[-43.1562,-22.2029],[-43.1546,-22.1994],[-43.1425,-22.2029],[-43.1339,-22.2144],[-43.1426,-22.2031],[-43.1561,-22.2029],[-43.1562,-22.2029]]]}},{"type":"Feature","properties":{"cod_tema":"RESERVATORIO_ENERGIA","cod_imovel":"RJ-3300225-A04DD86BA5304F1992082D6A557A3C5A","num_area":"5.2997000000000000000000000000000","ind_status":"AT"},"geometry":{"type":"Polygon","coordinates":[[[-43.1377,-22.2091],[-43.1339,-22.2144],[-43.1378,-22.2091],[-43.1377,-22.2091]]]}},{"type":"Feature","properties":{"cod_tema":"AREA_ENTORNO_RESERVATORIO_ENERGIA","cod_imovel":"RJ-3300225-A04DD86BA5304F1992082D6A557A3C5A","num_area":"1.5924000000000000000000000000000","ind_status":"AT"},"geometry":{"type":"Polygon","coordinates":[[[-43.1387,-22.2093],[-43.1339,-22.2144],[-43.1387,-22.2093],[-43.1387,-22.2093]]]}},{"type":"Feature","properties":{"cod_tema":"AREA_SERVIDAO_ADMINISTRATIVA_TOTAL","cod_imovel":"RJ-3300225-A04DD86BA5304F1992082D6A557A3C5A","num_area":"15.997300000000000000000000000000","ind_status":"AT"},"geometry":{"type":"Polygon","coordinates":[[[-43.1562,-22.2029],[-43.1546,-22.1994],[-43.1425,-22.2029],[-43.1339,-22.2144],[-43.1426,-22.2031],[-43.1561,-22.2029],[-43.1562,-22.2029]]]}},{"type":"Feature","properties":{"cod_tema":"AREA_UTILIDADE_PUBLICA","cod_imovel":"RJ-3300225-A439C8F395D048BDB848AD0071CC4738","num_area":"0.4597000000000000000000000000000","ind_status":"AT"},"geometry":{"type":"Polygon","coordinates":[[[-43.1235,-22.2197],[-43.1188,-22.2152],[-43.1235,-22.2198],[-43.1235,-22.2197]],[[-43.1205,-22.2172],[-43.1227,-22.22],[-43.1206,-22.2171],[-43.1205,-22.2172]]]}},{"type":"Feature","properties":{"cod_tema":"AREA_SERVIDAO_ADMINISTRATIVA_TOTAL","cod_imovel":"RJ-3300225-A439C8F395D048BDB848AD0071CC4738","num_area":"0.4597000000000000000000000000000","ind_status":"AT"},"geometry":{"type":"Polygon","coordinates":[[[-43.1235,-22.2197],[-43.1188,-22.2152],[-43.1235,-22.2198],[-43.1235,-22.2197]],[[-43.1205,-22.2172],[-43.1227,-22.22],[-43.1206,-22.2171],[-43.1205,-22.2172]]]}},{"type":"Feature","properties":{"cod_tema":"AREA_INFRAESTRUTURA_PUBLICA","cod_imovel":"RJ-3300225-6134C638F7144B1F97BE454D5555251D","num_area":"1.2389000000000000000000000000000","ind_status":"AT"},"geometry":{"type":"Polygon","coordinates":[[[-43.0892,-22.2347],[-43.0934,-22.2306],[-43.0892,-22.2346],[-43.0892,-22.2347]]]}},{"type":"Feature","properties":{"cod_tema":"AREA_SERVIDAO_ADMINISTRATIVA_TOTAL","cod_imovel":"RJ-3300225-6134C638F7144B1F97BE454D5555251D","num_area":"1.2389000000000000000000000000000","ind_status":"AT"},"geometry":{"type":"Polygon","coordinates":[[[-43.0892,-22.2347],[-43.0934,-22.2306],[-43.0892,-22.2346],[-43.0892,-22.2347]]]}},{"type":"Feature","properties":{"cod_tema":"AREA_INFRAESTRUTURA_PUBLICA","cod_imovel":"RJ-3300225-D2D1B3DFCAE94EFA95A656A4D762FE69","num_area":"1.2895000000000000000000000000000","ind_status":"AT"},"geometry":{"type":"Polygon","coordinates":[[[-43.1077,-22.2422],[-43.1123,-22.248],[-43.1077,-22.2422],[-43.1077,-22.2422]]]}},{"type":"Feature","properties":{"cod_tema":"AREA_SERVIDAO_ADMINISTRATIVA_TOTAL","cod_imovel":"RJ-3300225-D2D1B3DFCAE94EFA95A656A4D762FE69","num_area":"1.2895000000000000000000000000000","ind_status":"AT"},"geometry":{"type":"Polygon","coordinates":[[[-43.1077,-22.2422],[-43.1123,-22.248],[-43.1077,-22.2422],[-43.1077,-22.2422]]]}},{"type":"Feature","properties":{"cod_tema":"AREA_INFRAESTRUTURA_PUBLICA","cod_imovel":"RJ-3300225-793441ACCE19427699668FDC08BCCBDB","num_area":"0.3732000000000000000000000000000","ind_status":"AT"},"geometry":{"type":"Polygon","coordinates":[[[-43.1425,-22.2884],[-43.1494,-22.2904],[-43.1426,-22.2884],[-43.1425,-22.2884]]]}},{"type":"Feature","properties":{"cod_tema":"AREA_SERVIDAO_ADMINISTRATIVA_TOTAL","cod_imovel":"RJ-3300225-793441ACCE19427699668FDC08BCCBDB","num_area":"0.3732000000000000000000000000000","ind_status":"AT"},"geometry":{"type":"Polygon","coordinates":[[[-43.1425,-22.2884],[-43.1494,-22.2904],[-43.1426,-22.2884],[-43.1425,-22.2884]]]}},{"type":"Feature","properties":{"cod_tema":"AREA_UTILIDADE_PUBLICA","cod_imovel":"RJ-3300225-AD8440437D5747A381AD7094D62B076F","num_area":"4.0836000000000000000000000000000","ind_status":"AT"},"geometry":{"type":"Polygon","coordinates":[[[-43.1771,-22.2772],[-43.1765,-22.2648],[-43.1768,-22.2771],[-43.1771,-22.2772]],[[-43.1467,-22.2557],[-43.1527,-22.2592],[-43.1599,-22.2553],[-43.1556,-22.2501],[-43.1528,-22.2591],[-43.1467,-22.2556],[-43.1467,-22.2557]]]}},{"type":"Feature","properties":{"cod_tema":"AREA_SERVIDAO_ADMINISTRATIVA_TOTAL","cod_imovel":"RJ-3300225-AD8440437D5747A381AD7094D62B076F","num_area":"4.0836000000000000000000000000000","ind_status":"AT"},"geometry":{"type":"Polygon","coordinates":[[[-43.1771,-22.2772],[-43.1765,-22.2648],[-43.1768,-22.2771],[-43.1771,-22.2772]],[[-43.1467,-22.2557],[-43.1527,-22.2592],[-43.1599,-22.2553],[-43.1556,-22.2501],[-43.1528,-22.2591],[-43.1467,-22.2556],[-43.1467,-22.2557]]]}},{"type":"Feature","properties":{"cod_tema":"AREA_UTILIDADE_PUBLICA","cod_imovel":"RJ-3300225-438C1FF33DE147CB9B4E9A20C497C8F2","num_area":"2.2590000000000000000000000000000","ind_status":"SU"},"geometry":{"type":"Polygon","coordinates":[[[-43.135,-22.23],[-43.1594,-22.2399],[-43.1353,-22.2305],[-43.135,-22.23]]]}},{"type":"Feature","properties":{"cod_tema":"AREA_SERVIDAO_ADMINISTRATIVA_TOTAL","cod_imovel":"RJ-3300225-438C1FF33DE147CB9B4E9A20C497C8F2","num_area":"2.2590000000000000000000000000000","ind_status":"SU"},"geometry":{"type":"Polygon","coordinates":[[[-43.135,-22.23],[-43.1594,-22.2399],[-43.1353,-22.2305],[-43.135,-22.23]]]}},{"type":"Feature","properties":{"cod_tema":"AREA_UTILIDADE_PUBLICA","cod_imovel":"RJ-3300225-96EB5CA781C54F799B3FC84D8FBC973A","num_area":"28.465400000000000000000000000000","ind_status":"AT"},"geometry":{"type":"Polygon","coordinates":[[[-43.1632,-22.3054],[-43.1676,-22.2991],[-43.1626,-22.3038],[-43.1632,-22.3054]]]}},{"type":"Feature","properties":{"cod_tema":"AREA_SERVIDAO_ADMINISTRATIVA_TOTAL","cod_imovel":"RJ-3300225-96EB5CA781C54F799B3FC84D8FBC973A","num_area":"28.465400000000000000000000000000","ind_status":"AT"},"geometry":{"type":"Polygon","coordinates":[[[-43.1632,-22.3054],[-43.1676,-22.2991],[-43.1626,-22.3038],[-43.1632,-22.3054]]]}},{"type":"Feature","properties":{"cod_tema":"AREA_UTILIDADE_PUBLICA","cod_imovel":"RJ-3300225-6EABEB8F671E4F67A8CFF2F29ED79846","num_area":"112.75400000000000000000000000000","ind_status":"SU"},"geometry":{"type":"Polygon","coordinates":[[[-43.0266,-22.2067],[-43.0239,-22.2092],[-43.026,-22.207],[-43.0266,-22.2067]],[[-43.0369,-22.2084],[-43.0333,-22.2083],[-43.0365,-22.2088],[-43.0369,-22.2084]],[[-43.0573,-22.2128],[-43.0607,-22.2134],[-43.0573,-22.2135],[-43.0573,-22.2128]],[[-43.0259,-22.2023],[-43.0138,-22.1924],[-43.0064,-22.1917],[-43.0251,-22.2015],[-43.0259,-22.2023]],[[-43.0926,-22.2252],[-43.0862,-22.2288],[-43.0926,-22.2252],[-43.0926,-22.2252]],[[-43.0462,-22.2083],[-43.0444,-22.1989],[-43.0523,-22.2122],[-43.0567,-22.2101],[-43.0502,-22.204],[-43.0484,-22.2066],[-43.0419,-22.193],[-43.0467,-22.2081],[-43.0462,-22.2083]],[[-43.0773,-22.2285],[-43.0797,-22.2264],[-43.0604,-22.2172],[-43.0606,-22.2242],[-43.064,-22.2193],[-43.0712,-22.2251],[-43.0645,-22.2324],[-43.0687,-22.2321],[-43.0716,-22.2227],[-43.0765,-22.2286],[-43.0773,-22.2285]]]}},{"type":"Feature","properties":{"cod_tema":"AREA_SERVIDAO_ADMINISTRATIVA_TOTAL","cod_imovel":"RJ-3300225-6EABEB8F671E4F67A8CFF2F29ED79846","num_area":"112.75400000000000000000000000000","ind_status":"SU"},"geometry":{"type":"Polygon","coordinates":[[[-43.0266,-22.2067],[-43.0239,-22.2092],[-43.026,-22.207],[-43.0266,-22.2067]],[[-43.0369,-22.2084],[-43.0333,-22.2083],[-43.0365,-22.2088],[-43.0369,-22.2084]],[[-43.0573,-22.2128],[-43.0607,-22.2134],[-43.0573,-22.2135],[-43.0573,-22.2128]],[[-43.0259,-22.2023],[-43.0138,-22.1924],[-43.0064,-22.1917],[-43.0251,-22.2015],[-43.0259,-22.2023]],[[-43.0926,-22.2252],[-43.0862,-22.2288],[-43.0926,-22.2252],[-43.0926,-22.2252]],[[-43.0462,-22.2083],[-43.0444,-22.1989],[-43.0523,-22.2122],[-43.0567,-22.2101],[-43.0502,-22.204],[-43.0484,-22.2066],[-43.0419,-22.193],[-43.0467,-22.2081],[-43.0462,-22.2083]],[[-43.0773,-22.2285],[-43.0797,-22.2264],[-43.0604,-22.2172],[-43.0606,-22.2242],[-43.064,-22.2193],[-43.0712,-22.2251],[-43.0645,-22.2324],[-43.0687,-22.2321],[-43.0716,-22.2227],[-43.0765,-22.2286],[-43.0773,-22.2285]]]}},{"type":"Feature","properties":{"cod_tema":"AREA_UTILIDADE_PUBLICA","cod_imovel":"RJ-3300225-407E6F1D327E4041B5E7ACFFE6AF77F2","num_area":"1.3383000000000000000000000000000","ind_status":"AT"},"geometry":{"type":"Polygon","coordinates":[[[-43.1199,-22.2269],[-43.1236,-22.2239],[-43.12,-22.2268],[-43.1199,-22.2269]]]}},{"type":"Feature","properties":{"cod_tema":"AREA_SERVIDAO_ADMINISTRATIVA_TOTAL","cod_imovel":"RJ-3300225-407E6F1D327E4041B5E7ACFFE6AF77F2","num_area":"1.3383000000000000000000000000000","ind_status":"AT"},"geometry":{"type":"Polygon","coordinates":[[[-43.1199,-22.2269],[-43.1236,-22.2239],[-43.12,-22.2268],[-43.1199,-22.2269]]]}},{"type":"Feature","properties":{"cod_tema":"AREA_UTILIDADE_PUBLICA","cod_imovel":"RJ-3300225-8EDB4F48A742495BB244EEC13639000F","num_area":"0.4357000000000000000000000000000","ind_status":"AT"},"geometry":{"type":"Polygon","coordinates":[[[-43.1145,-22.2478],[-43.1176,-22.2494],[-43.1146,-22.2479],[-43.1145,-22.2478]],[[-43.1108,-22.2578],[-43.1114,-22.2548],[-43.1108,-22.2579],[-43.1108,-22.2578]]]}},{"type":"Feature","properties":{"cod_tema":"AREA_SERVIDAO_ADMINISTRATIVA_TOTAL","cod_imovel":"RJ-3300225-8EDB4F48A742495BB244EEC13639000F","num_area":"0.4357000000000000000000000000000","ind_status":"AT"},"geometry":{"type":"Polygon","coordinates":[[[-43.1145,-22.2478],[-43.1176,-22.2494],[-43.1146,-22.2479],[-43.1145,-22.2478]],[[-43.1108,-22.2578],[-43.1114,-22.2548],[-43.1108,-22.2579],[-43.1108,-22.2578]]]}},{"type":"Feature","properties":{"cod_tema":"AREA_INFRAESTRUTURA_PUBLICA","cod_imovel":"RJ-3300225-24885B7DA6124723B5E4148BC2155854","num_area":"0.9292000000000000000000000000000","ind_status":"AT"},"geometry":{"type":"Polygon","coordinates":[[[-43.0558,-22.2085],[-43.0628,-22.2095],[-43.0583,-22.2064],[-43.0558,-22.2085]]]}},{"type":"Feature","properties":{"cod_tema":"AREA_SERVIDAO_ADMINISTRATIVA_TOTAL","cod_imovel":"RJ-3300225-24885B7DA6124723B5E4148BC2155854","num_area":"0.9292000000000000000000000000000","ind_status":"AT"},"geometry":{"type":"Polygon","coordinates":[[[-43.0558,-22.2085],[-43.0628,-22.2095],[-43.0583,-22.2064],[-43.0558,-22.2085]]]}},{"type":"Feature","properties":{"cod_tema":"AREA_SERVIDAO_ADMINISTRATIVA_TOTAL","cod_imovel":"RJ-3300225-EE10108CB96C4E4DA06BC67CD02627A9","num_area":"3.5655000000000000000000000000000","ind_status":"AT"},"geometry":{"type":"Polygon","coordinates":[[[-43.0653,-22.2138],[-43.0638,-22.2105],[-43.0654,-22.2139],[-43.0653,-22.2138]]]}},{"type":"Feature","properties":{"cod_tema":"AREA_UTILIDADE_PUBLICA","cod_imovel":"RJ-3300225-4CD0E9A9387247E0861AF5657B72E61D","num_area":"0.8274000000000000000000000000000","ind_status":"AT"},"geometry":{"type":"Polygon","coordinates":[[[-43.1378,-22.2555],[-43.142,-22.2514],[-43.1467,-22.2557],[-43.142,-22.2514],[-43.1379,-22.2552],[-43.1378,-22.2555]]]}},{"type":"Feature","properties":{"cod_tema":"AREA_SERVIDAO_ADMINISTRATIVA_TOTAL","cod_imovel":"RJ-3300225-4CD0E9A9387247E0861AF5657B72E61D","num_area":"0.8274000000000000000000000000000","ind_status":"AT"},"geometry":{"type":"Polygon","coordinates":[[[-43.1378,-22.2555],[-43.142,-22.2514],[-43.1467,-22.2557],[-43.142,-22.2514],[-43.1379,-22.2552],[-43.1378,-22.2555]]]}},{"type":"Feature","properties":{"cod_tema":"AREA_INFRAESTRUTURA_PUBLICA","cod_imovel":"RJ-3300225-FA5BC039D75244E0B29D0022FBAB8F6E","num_area":"0.3176000000000000000000000000000","ind_status":"AT"},"geometry":{"type":"Polygon","coordinates":[[[-43.1691,-22.2558],[-43.1634,-22.2579],[-43.1687,-22.2559],[-43.1691,-22.2558]]]}},{"type":"Feature","properties":{"cod_tema":"AREA_SERVIDAO_ADMINISTRATIVA_TOTAL","cod_imovel":"RJ-3300225-FA5BC039D75244E0B29D0022FBAB8F6E","num_area":"0.3176000000000000000000000000000","ind_status":"AT"},"geometry":{"type":"Polygon","coordinates":[[[-43.1691,-22.2558],[-43.1634,-22.2579],[-43.1687,-22.2559],[-43.1691,-22.2558]]]}}]}