{"type":"FeatureCollection","features":[{"type":"Feature","properties":{"cod_tema":"AREA_INFRAESTRUTURA_PUBLICA","cod_imovel":"RJ-3300308-D43F11DCE7AB4B9299649931F340DCFA","num_area":"2.8353000000000000000000000000000","ind_status":"AT"},"geometry":{"type":"Polygon","coordinates":[[[-43.9581,-22.4829],[-43.9618,-22.4842],[-43.9581,-22.4829],[-43.9581,-22.4829]]]}},{"type":"Feature","properties":{"cod_tema":"AREA_SERVIDAO_ADMINISTRATIVA_TOTAL","cod_imovel":"RJ-3300308-D43F11DCE7AB4B9299649931F340DCFA","num_area":"2.8353000000000000000000000000000","ind_status":"AT"},"geometry":{"type":"Polygon","coordinates":[[[-43.9581,-22.4829],[-43.9618,-22.4842],[-43.9581,-22.4829],[-43.9581,-22.4829]]]}},{"type":"Feature","properties":{"cod_tema":"AREA_INFRAESTRUTURA_PUBLICA","cod_imovel":"RJ-3300308-0C2D1C50A1264F4982EA1587D01D2FFB","num_area":"5.2457000000000000000000000000000","ind_status":"AT"},"geometry":{"type":"Polygon","coordinates":[[[-43.9064,-22.4881],[-43.9168,-22.488],[-43.9065,-22.4881],[-43.9064,-22.4881]]]}},{"type":"Feature","properties":{"cod_tema":"AREA_SERVIDAO_ADMINISTRATIVA_TOTAL","cod_imovel":"RJ-3300308-0C2D1C50A1264F4982EA1587D01D2FFB","num_area":"5.2457000000000000000000000000000","ind_status":"AT"},"geometry":{"type":"Polygon","coordinates":[[[-43.9064,-22.4881],[-43.9168,-22.488],[-43.9065,-22.4881],[-43.9064,-22.4881]]]}},{"type":"Feature","properties":{"cod_tema":"AREA_INFRAESTRUTURA_PUBLICA","cod_imovel":"RJ-3300308-72DA13DD8D1343E5841C0329F0D05FA8","num_area":"7.4890000000000000000000000000000","ind_status":"AT"},"geometry":{"type":"Polygon","coordinates":[[[-43.8868,-22.4809],[-43.8823,-22.4919],[-43.8849,-22.4861],[-43.8868,-22.4809]]]}},{"type":"Feature","properties":{"cod_tema":"AREA_UTILIDADE_PUBLICA","cod_imovel":"RJ-3300308-72DA13DD8D1343E5841C0329F0D05FA8","num_area":"0.4420000000000000000000000000000","ind_status":"AT"},"geometry":{"type":"Polygon","coordinates":[[[-43.8745,-22.485],[-43.8866,-22.4855],[-43.8747,-22.4852],[-43.8745,-22.485]]]}},{"type":"Feature","properties":{"cod_tema":"AREA_SERVIDAO_ADMINISTRATIVA_TOTAL","cod_imovel":"RJ-3300308-72DA13DD8D1343E5841C0329F0D05FA8","num_area":"7.9136000000000000000000000000000","ind_status":"AT"},"geometry":{"type":"Polygon","coordinates":[[[-43.8868,-22.4809],[-43.8847,-22.4849],[-43.8745,-22.485],[-43.8847,-22.4849],[-43.8823,-22.4919],[-43.8853,-22.4851],[-43.8868,-22.4809]]]}},{"type":"Feature","properties":{"cod_tema":"AREA_INFRAESTRUTURA_PUBLICA","cod_imovel":"RJ-3300308-D4919F71977045D98141C5C7C6AA17EE","num_area":"0.8760000000000000000000000000000","ind_status":"AT"},"geometry":{"type":"Polygon","coordinates":[[[-43.9486,-22.5199],[-43.9421,-22.5151],[-43.9486,-22.5199],[-43.9486,-22.5199]]]}},{"type":"Feature","properties":{"cod_tema":"AREA_SERVIDAO_ADMINISTRATIVA_TOTAL","cod_imovel":"RJ-3300308-D4919F71977045D98141C5C7C6AA17EE","num_area":"0.8760000000000000000000000000000","ind_status":"AT"},"geometry":{"type":"Polygon","coordinates":[[[-43.9486,-22.5199],[-43.9421,-22.5151],[-43.9486,-22.5199],[-43.9486,-22.5199]]]}},{"type":"Feature","properties":{"cod_tema":"AREA_UTILIDADE_PUBLICA","cod_imovel":"RJ-3300308-9AF5F7BD303E47788350554BDF79A021","num_area":"4.6783000000000000000000000000000","ind_status":"AT"},"geometry":{"type":"Polygon","coordinates":[[[-43.9815,-22.5098],[-43.9761,-22.5015],[-43.9787,-22.4962],[-43.976,-22.5014],[-43.9718,-22.4969],[-43.9814,-22.5098],[-43.9737,-22.51],[-43.9742,-22.5142],[-43.9738,-22.5102],[-43.9815,-22.51],[-43.9815,-22.5098]]]}},{"type":"Feature","properties":{"cod_tema":"AREA_SERVIDAO_ADMINISTRATIVA_TOTAL","cod_imovel":"RJ-3300308-9AF5F7BD303E47788350554BDF79A021","num_area":"4.6783000000000000000000000000000","ind_status":"AT"},"geometry":{"type":"Polygon","coordinates":[[[-43.9815,-22.5098],[-43.9761,-22.5015],[-43.9787,-22.4962],[-43.976,-22.5014],[-43.9718,-22.4969],[-43.9814,-22.5098],[-43.9737,-22.51],[-43.9742,-22.5142],[-43.9738,-22.5102],[-43.9815,-22.51],[-43.9815,-22.5098]]]}},{"type":"Feature","properties":{"cod_tema":"AREA_INFRAESTRUTURA_PUBLICA","cod_imovel":"RJ-3300308-E3554D38C2404CACB05D2D6D5338AB3A","num_area":"0.6959000000000000000000000000000","ind_status":"AT"},"geometry":{"type":"Polygon","coordinates":[[[-43.9958,-22.4061],[-43.9957,-22.4006],[-43.9954,-22.4057],[-43.9958,-22.4061]]]}},{"type":"Feature","properties":{"cod_tema":"AREA_SERVIDAO_ADMINISTRATIVA_TOTAL","cod_imovel":"RJ-3300308-E3554D38C2404CACB05D2D6D5338AB3A","num_area":"0.6959000000000000000000000000000","ind_status":"AT"},"geometry":{"type":"Polygon","coordinates":[[[-43.9958,-22.4061],[-43.9957,-22.4006],[-43.9954,-22.4057],[-43.9958,-22.4061]]]}},{"type":"Feature","properties":{"cod_tema":"AREA_INFRAESTRUTURA_PUBLICA","cod_imovel":"RJ-3300308-04D5C5FF0A824AF09C1A035D55079C83","num_area":"0.2771000000000000000000000000000","ind_status":"AT"},"geometry":{"type":"Polygon","coordinates":[[[-43.7527,-22.4668],[-43.7507,-22.4703],[-43.7525,-22.4669],[-43.7527,-22.4668]]]}},{"type":"Feature","properties":{"cod_tema":"AREA_SERVIDAO_ADMINISTRATIVA_TOTAL","cod_imovel":"RJ-3300308-04D5C5FF0A824AF09C1A035D55079C83","num_area":"0.2771000000000000000000000000000","ind_status":"AT"},"geometry":{"type":"Polygon","coordinates":[[[-43.7527,-22.4668],[-43.7507,-22.4703],[-43.7525,-22.4669],[-43.7527,-22.4668]]]}},{"type":"Feature","properties":{"cod_tema":"AREA_UTILIDADE_PUBLICA","cod_imovel":"RJ-3300308-0B3FC8E5318A4DC4A64EA32D857F8BD3","num_area":"0.5288000000000000000000000000000","ind_status":"AT"},"geometry":{"type":"Polygon","coordinates":[[[-43.9,-22.3802],[-43.8933,-22.3815],[-43.9,-22.3802],[-43.9,-22.3802]]]}},{"type":"Feature","properties":{"cod_tema":"AREA_SERVIDAO_ADMINISTRATIVA_TOTAL","cod_imovel":"RJ-3300308-0B3FC8E5318A4DC4A64EA32D857F8BD3","num_area":"0.5288000000000000000000000000000","ind_status":"AT"},"geometry":{"type":"Polygon","coordinates":[[[-43.9,-22.3802],[-43.8933,-22.3815],[-43.9,-22.3802],[-43.9,-22.3802]]]}},{"type":"Feature","properties":{"cod_tema":"AREA_INFRAESTRUTURA_PUBLICA","cod_imovel":"RJ-3300308-0E41B9292FE94530B8A4D4411AFBC811","num_area":"0.4606000000000000000000000000000","ind_status":"AT"},"geometry":{"type":"Polygon","coordinates":[[[-43.9964,-22.4311],[-43.9924,-22.4281],[-43.9964,-22.4311],[-43.9964,-22.4311]]]}},{"type":"Feature","properties":{"cod_tema":"AREA_SERVIDAO_ADMINISTRATIVA_TOTAL","cod_imovel":"RJ-3300308-0E41B9292FE94530B8A4D4411AFBC811","num_area":"0.4606000000000000000000000000000","ind_status":"AT"},"geometry":{"type":"Polygon","coordinates":[[[-43.9964,-22.4311],[-43.9924,-22.4281],[-43.9964,-22.4311],[-43.9964,-22.4311]]]}},{"type":"Feature","properties":{"cod_tema":"AREA_INFRAESTRUTURA_PUBLICA","cod_imovel":"RJ-3300308-1E2441B74112404580D9E80EFB264D7C","num_area":"1.2440000000000000000000000000000","ind_status":"AT"},"geometry":{"type":"Polygon","coordinates":[[[-43.9535,-22.3737],[-43.9402,-22.3695],[-43.9534,-22.3737],[-43.9535,-22.3737]]]}},{"type":"Feature","properties":{"cod_tema":"AREA_SERVIDAO_ADMINISTRATIVA_TOTAL","cod_imovel":"RJ-3300308-1E2441B74112404580D9E80EFB264D7C","num_area":"1.2440000000000000000000000000000","ind_status":"AT"},"geometry":{"type":"Polygon","coordinates":[[[-43.9535,-22.3737],[-43.9402,-22.3695],[-43.9534,-22.3737],[-43.9535,-22.3737]]]}},{"type":"Feature","properties":{"cod_tema":"AREA_UTILIDADE_PUBLICA","cod_imovel":"RJ-3300308-1AB94A05F781450C912068350805B89F","num_area":"3.5657000000000000000000000000000","ind_status":"AT"},"geometry":{"type":"Polygon","coordinates":[[[-43.8255,-22.4911],[-43.8308,-22.49],[-43.8255,-22.4911],[-43.8255,-22.4911]],[[-43.8293,-22.4945],[-43.828,-22.4913],[-43.8292,-22.4946],[-43.8293,-22.4945]]]}},{"type":"Feature","properties":{"cod_tema":"AREA_SERVIDAO_ADMINISTRATIVA_TOTAL","cod_imovel":"RJ-3300308-1AB94A05F781450C912068350805B89F","num_area":"3.5657000000000000000000000000000","ind_status":"AT"},"geometry":{"type":"Polygon","coordinates":[[[-43.8255,-22.4911],[-43.8308,-22.49],[-43.8255,-22.4911],[-43.8255,-22.4911]],[[-43.8293,-22.4945],[-43.828,-22.4913],[-43.8292,-22.4946],[-43.8293,-22.4945]]]}},{"type":"Feature","properties":{"cod_tema":"AREA_INFRAESTRUTURA_PUBLICA","cod_imovel":"RJ-3300308-1F9029FCA5234E708ED1FF9D10222DF6","num_area":"0.3858000000000000000000000000000","ind_status":"AT"},"geometry":{"type":"Polygon","coordinates":[[[-43.8839,-22.3487],[-43.8904,-22.3477],[-43.884,-22.3487],[-43.8839,-22.3487]]]}},{"type":"Feature","properties":{"cod_tema":"AREA_SERVIDAO_ADMINISTRATIVA_TOTAL","cod_imovel":"RJ-3300308-1F9029FCA5234E708ED1FF9D10222DF6","num_area":"0.3858000000000000000000000000000","ind_status":"AT"},"geometry":{"type":"Polygon","coordinates":[[[-43.8839,-22.3487],[-43.8904,-22.3477],[-43.884,-22.3487],[-43.8839,-22.3487]]]}},{"type":"Feature","properties":{"cod_tema":"AREA_UTILIDADE_PUBLICA","cod_imovel":"RJ-3300308-28117547CB874683BC74B465D41476D0","num_area":"1.1257000000000000000000000000000","ind_status":"AT"},"geometry":{"type":"Polygon","coordinates":[[[-44.0229,-22.3526],[-44.0167,-22.3585],[-44.023,-22.3526],[-44.0229,-22.3526]]]}},{"type":"Feature","properties":{"cod_tema":"AREA_SERVIDAO_ADMINISTRATIVA_TOTAL","cod_imovel":"RJ-3300308-28117547CB874683BC74B465D41476D0","num_area":"1.1257000000000000000000000000000","ind_status":"AT"},"geometry":{"type":"Polygon","coordinates":[[[-44.0229,-22.3526],[-44.0167,-22.3585],[-44.023,-22.3526],[-44.0229,-22.3526]]]}},{"type":"Feature","properties":{"cod_tema":"AREA_UTILIDADE_PUBLICA","cod_imovel":"RJ-3300308-29AADFB4F6A84D03B92565B60A1D93AC","num_area":"0.5810000000000000000000000000000","ind_status":"AT"},"geometry":{"type":"Polygon","coordinates":[[[-44.0525,-22.3479],[-44.0592,-22.3494],[-44.0527,-22.3477],[-44.0525,-22.3479]]]}},{"type":"Feature","properties":{"cod_tema":"AREA_SERVIDAO_ADMINISTRATIVA_TOTAL","cod_imovel":"RJ-3300308-29AADFB4F6A84D03B92565B60A1D93AC","num_area":"0.5810000000000000000000000000000","ind_status":"AT"},"geometry":{"type":"Polygon","coordinates":[[[-44.0525,-22.3479],[-44.0592,-22.3494],[-44.0527,-22.3477],[-44.0525,-22.3479]]]}},{"type":"Feature","properties":{"cod_tema":"AREA_UTILIDADE_PUBLICA","cod_imovel":"RJ-3300308-2B660CC920EB4AE8A1ABB996ADA01AAF","num_area":"0.3913000000000000000000000000000","ind_status":"AT"},"geometry":{"type":"Polygon","coordinates":[[[-43.9979,-22.4655],[-44.0014,-22.456],[-43.9978,-22.4659],[-43.9979,-22.4655]]]}},{"type":"Feature","properties":{"cod_tema":"AREA_SERVIDAO_ADMINISTRATIVA_TOTAL","cod_imovel":"RJ-3300308-2B660CC920EB4AE8A1ABB996ADA01AAF","num_area":"0.3913000000000000000000000000000","ind_status":"AT"},"geometry":{"type":"Polygon","coordinates":[[[-43.9979,-22.4655],[-44.0014,-22.456],[-43.9978,-22.4659],[-43.9979,-22.4655]]]}},{"type":"Feature","properties":{"cod_tema":"AREA_UTILIDADE_PUBLICA","cod_imovel":"RJ-3300308-34C1E2929FD54A73BD47EE6E8409F53E","num_area":"0.5052000000000000000000000000000","ind_status":"AT"},"geometry":{"type":"Polygon","coordinates":[[[-43.8751,-22.4261],[-43.8743,-22.4343],[-43.8751,-22.4261],[-43.8751,-22.4261]]]}},{"type":"Feature","properties":{"cod_tema":"AREA_SERVIDAO_ADMINISTRATIVA_TOTAL","cod_imovel":"RJ-3300308-34C1E2929FD54A73BD47EE6E8409F53E","num_area":"0.5052000000000000000000000000000","ind_status":"AT"},"geometry":{"type":"Polygon","coordinates":[[[-43.8751,-22.4261],[-43.8743,-22.4343],[-43.8751,-22.4261],[-43.8751,-22.4261]]]}},{"type":"Feature","properties":{"cod_tema":"AREA_INFRAESTRUTURA_PUBLICA","cod_imovel":"RJ-3300308-41264A4E1C8C44E2A78CAF6B8C7EE8AC","num_area":"4.4526000000000000000000000000000","ind_status":"AT"},"geometry":{"type":"Polygon","coordinates":[[[-44.0519,-22.4559],[-44.0451,-22.4618],[-44.0462,-22.4587],[-44.0464,-22.4643],[-44.0521,-22.4556],[-44.0519,-22.4559]],[[-44.0471,-22.4587],[-44.0501,-22.4587],[-44.0471,-22.4587],[-44.0471,-22.4587]],[[-44.0454,-22.4621],[-44.0539,-22.4558],[-44.0454,-22.4621],[-44.0454,-22.4621]],[[-44.0471,-22.4609],[-44.0538,-22.4557],[-44.0474,-22.4608],[-44.0471,-22.4609]],[[-44.0511,-22.4563],[-44.0473,-22.4577],[-44.0511,-22.4563],[-44.0511,-22.4563]]]}},{"type":"Feature","properties":{"cod_tema":"AREA_SERVIDAO_ADMINISTRATIVA_TOTAL","cod_imovel":"RJ-3300308-41264A4E1C8C44E2A78CAF6B8C7EE8AC","num_area":"4.4526000000000000000000000000000","ind_status":"AT"},"geometry":{"type":"Polygon","coordinates":[[[-44.0519,-22.4559],[-44.0451,-22.4618],[-44.0462,-22.4587],[-44.0464,-22.4643],[-44.0521,-22.4556],[-44.0519,-22.4559]],[[-44.0471,-22.4587],[-44.0501,-22.4587],[-44.0471,-22.4587],[-44.0471,-22.4587]],[[-44.0454,-22.4621],[-44.0539,-22.4558],[-44.0454,-22.4621],[-44.0454,-22.4621]],[[-44.0471,-22.4609],[-44.0538,-22.4557],[-44.0474,-22.4608],[-44.0471,-22.4609]],[[-44.0511,-22.4563],[-44.0473,-22.4577],[-44.0511,-22.4563],[-44.0511,-22.4563]]]}},{"type":"Feature","properties":{"cod_tema":"AREA_INFRAESTRUTURA_PUBLICA","cod_imovel":"RJ-3300308-443FBCB7F980461B82E9890A67CF267E","num_area":"0.8311000000000000000000000000000","ind_status":"AT"},"geometry":{"type":"Polygon","coordinates":[[[-44.0283,-22.375],[-44.0313,-22.3765],[-44.025,-22.3727],[-44.0282,-22.3749],[-44.0283,-22.375]]]}},{"type":"Feature","properties":{"cod_tema":"AREA_SERVIDAO_ADMINISTRATIVA_TOTAL","cod_imovel":"RJ-3300308-443FBCB7F980461B82E9890A67CF267E","num_area":"0.8311000000000000000000000000000","ind_status":"AT"},"geometry":{"type":"Polygon","coordinates":[[[-44.0283,-22.375],[-44.0313,-22.3765],[-44.025,-22.3727],[-44.0282,-22.3749],[-44.0283,-22.375]]]}},{"type":"Feature","properties":{"cod_tema":"AREA_INFRAESTRUTURA_PUBLICA","cod_imovel":"RJ-3300308-4DC54AA7511345B6A02B12BF2E502A16","num_area":"1.0720000000000000000000000000000","ind_status":"AT"},"geometry":{"type":"Polygon","coordinates":[[[-43.9877,-22.3922],[-43.9913,-22.3949],[-43.988,-22.3924],[-43.9877,-22.3922]]]}},{"type":"Feature","properties":{"cod_tema":"AREA_SERVIDAO_ADMINISTRATIVA_TOTAL","cod_imovel":"RJ-3300308-4DC54AA7511345B6A02B12BF2E502A16","num_area":"1.0720000000000000000000000000000","ind_status":"AT"},"geometry":{"type":"Polygon","coordinates":[[[-43.9877,-22.3922],[-43.9913,-22.3949],[-43.988,-22.3924],[-43.9877,-22.3922]]]}},{"type":"Feature","properties":{"cod_tema":"AREA_UTILIDADE_PUBLICA","cod_imovel":"RJ-3300308-5405D8DC66174426811C33A8E7E8402F","num_area":"0.3467000000000000000000000000000","ind_status":"AT"},"geometry":{"type":"Polygon","coordinates":[[[-43.8052,-22.5264],[-43.8067,-22.5305],[-43.8052,-22.5264],[-43.8052,-22.5264]]]}},{"type":"Feature","properties":{"cod_tema":"AREA_SERVIDAO_ADMINISTRATIVA_TOTAL","cod_imovel":"RJ-3300308-5405D8DC66174426811C33A8E7E8402F","num_area":"0.3467000000000000000000000000000","ind_status":"AT"},"geometry":{"type":"Polygon","coordinates":[[[-43.8052,-22.5264],[-43.8067,-22.5305],[-43.8052,-22.5264],[-43.8052,-22.5264]]]}},{"type":"Feature","properties":{"cod_tema":"AREA_UTILIDADE_PUBLICA","cod_imovel":"RJ-3300308-5C305EB070ED48FE9AF33BF05CAFF3A8","num_area":"0.1576000000000000000000000000000","ind_status":"AT"},"geometry":{"type":"Polygon","coordinates":[[[-43.9795,-22.3857],[-43.9682,-22.3773],[-43.9791,-22.3857],[-43.9795,-22.3857]]]}},{"type":"Feature","properties":{"cod_tema":"AREA_SERVIDAO_ADMINISTRATIVA_TOTAL","cod_imovel":"RJ-3300308-5C305EB070ED48FE9AF33BF05CAFF3A8","num_area":"0.1576000000000000000000000000000","ind_status":"AT"},"geometry":{"type":"Polygon","coordinates":[[[-43.9795,-22.3857],[-43.9682,-22.3773],[-43.9791,-22.3857],[-43.9795,-22.3857]]]}},{"type":"Feature","properties":{"cod_tema":"AREA_UTILIDADE_PUBLICA","cod_imovel":"RJ-3300308-5CF17EFCB2504600A1568B29FA20AB87","num_area":"0.3358000000000000000000000000000","ind_status":"AT"},"geometry":{"type":"Polygon","coordinates":[[[-44.0142,-22.3504],[-44.0082,-22.3446],[-44.0142,-22.3504],[-44.0142,-22.3504]]]}},{"type":"Feature","properties":{"cod_tema":"AREA_SERVIDAO_ADMINISTRATIVA_TOTAL","cod_imovel":"RJ-3300308-5CF17EFCB2504600A1568B29FA20AB87","num_area":"0.3358000000000000000000000000000","ind_status":"AT"},"geometry":{"type":"Polygon","coordinates":[[[-44.0142,-22.3504],[-44.0082,-22.3446],[-44.0142,-22.3504],[-44.0142,-22.3504]]]}},{"type":"Feature","properties":{"cod_tema":"AREA_UTILIDADE_PUBLICA","cod_imovel":"RJ-3300308-602FC2EC4FD54BCEB312F123EFEABCAE","num_area":"0.1570000000000000000000000000000","ind_status":"AT"},"geometry":{"type":"Polygon","coordinates":[[[-44.0353,-22.3485],[-44.0401,-22.3484],[-44.0353,-22.3485],[-44.0353,-22.3485]]]}},{"type":"Feature","properties":{"cod_tema":"AREA_SERVIDAO_ADMINISTRATIVA_TOTAL","cod_imovel":"RJ-3300308-602FC2EC4FD54BCEB312F123EFEABCAE","num_area":"0.1570000000000000000000000000000","ind_status":"AT"},"geometry":{"type":"Polygon","coordinates":[[[-44.0353,-22.3485],[-44.0401,-22.3484],[-44.0353,-22.3485],[-44.0353,-22.3485]]]}},{"type":"Feature","properties":{"cod_tema":"AREA_INFRAESTRUTURA_PUBLICA","cod_imovel":"RJ-3300308-63A68A60F7DF4991AB16DE4E34DE829A","num_area":"0.7441000000000000000000000000000","ind_status":"PE"},"geometry":{"type":"Polygon","coordinates":[[[-43.931,-22.4052],[-43.9305,-22.3977],[-43.931,-22.4052],[-43.931,-22.4052]]]}},{"type":"Feature","properties":{"cod_tema":"AREA_SERVIDAO_ADMINISTRATIVA_TOTAL","cod_imovel":"RJ-3300308-63A68A60F7DF4991AB16DE4E34DE829A","num_area":"0.7441000000000000000000000000000","ind_status":"PE"},"geometry":{"type":"Polygon","coordinates":[[[-43.931,-22.4052],[-43.9305,-22.3977],[-43.931,-22.4052],[-43.931,-22.4052]]]}},{"type":"Feature","properties":{"cod_tema":"AREA_INFRAESTRUTURA_PUBLICA","cod_imovel":"RJ-3300308-7185F285533448D2B0A8E5370830C809","num_area":"0.6468000000000000000000000000000","ind_status":"AT"},"geometry":{"type":"Polygon","coordinates":[[[-43.9944,-22.3581],[-43.9973,-22.3592],[-43.9945,-22.3581],[-43.9944,-22.3581]]]}},{"type":"Feature","properties":{"cod_tema":"AREA_SERVIDAO_ADMINISTRATIVA_TOTAL","cod_imovel":"RJ-3300308-7185F285533448D2B0A8E5370830C809","num_area":"0.6468000000000000000000000000000","ind_status":"AT"},"geometry":{"type":"Polygon","coordinates":[[[-43.9944,-22.3581],[-43.9973,-22.3592],[-43.9945,-22.3581],[-43.9944,-22.3581]]]}},{"type":"Feature","properties":{"cod_tema":"AREA_INFRAESTRUTURA_PUBLICA","cod_imovel":"RJ-3300308-742FA0D224AB4E86B6FADD2AD0B4108E","num_area":"0.6117000000000000000000000000000","ind_status":"AT"},"geometry":{"type":"Polygon","coordinates":[[[-43.8395,-22.4533],[-43.838,-22.4491],[-43.8395,-22.453],[-43.8395,-22.4533]]]}},{"type":"Feature","properties":{"cod_tema":"AREA_SERVIDAO_ADMINISTRATIVA_TOTAL","cod_imovel":"RJ-3300308-742FA0D224AB4E86B6FADD2AD0B4108E","num_area":"0.6117000000000000000000000000000","ind_status":"AT"},"geometry":{"type":"Polygon","coordinates":[[[-43.8395,-22.4533],[-43.838,-22.4491],[-43.8395,-22.453],[-43.8395,-22.4533]]]}},{"type":"Feature","properties":{"cod_tema":"AREA_INFRAESTRUTURA_PUBLICA","cod_imovel":"RJ-3300308-74DD99B72D7B4B6D9948779FB3E85CBD","num_area":"0.5428000000000000000000000000000","ind_status":"AT"},"geometry":{"type":"Polygon","coordinates":[[[-44.0318,-22.4707],[-44.0304,-22.4764],[-44.0318,-22.4707],[-44.0318,-22.4707]]]}},{"type":"Feature","properties":{"cod_tema":"AREA_SERVIDAO_ADMINISTRATIVA_TOTAL","cod_imovel":"RJ-3300308-74DD99B72D7B4B6D9948779FB3E85CBD","num_area":"0.5428000000000000000000000000000","ind_status":"AT"},"geometry":{"type":"Polygon","coordinates":[[[-44.0318,-22.4707],[-44.0304,-22.4764],[-44.0318,-22.4707],[-44.0318,-22.4707]]]}},{"type":"Feature","properties":{"cod_tema":"AREA_INFRAESTRUTURA_PUBLICA","cod_imovel":"RJ-3300308-74EEC6DF9D39464B96510D3268451D7D","num_area":"2.7854000000000000000000000000000","ind_status":"AT"},"geometry":{"type":"Polygon","coordinates":[[[-43.8698,-22.4361],[-43.8625,-22.4392],[-43.8621,-22.4269],[-43.8636,-22.4348],[-43.8582,-22.4417],[-43.8697,-22.4362],[-43.8698,-22.4361]]]}},{"type":"Feature","properties":{"cod_tema":"AREA_SERVIDAO_ADMINISTRATIVA_TOTAL","cod_imovel":"RJ-3300308-74EEC6DF9D39464B96510D3268451D7D","num_area":"2.7854000000000000000000000000000","ind_status":"AT"},"geometry":{"type":"Polygon","coordinates":[[[-43.8698,-22.4361],[-43.8625,-22.4392],[-43.8621,-22.4269],[-43.8636,-22.4348],[-43.8582,-22.4417],[-43.8697,-22.4362],[-43.8698,-22.4361]]]}},{"type":"Feature","properties":{"cod_tema":"AREA_UTILIDADE_PUBLICA","cod_imovel":"RJ-3300308-7AF94F439DEB4F3CB2C7C97F0327AAD4","num_area":"0.8084000000000000000000000000000","ind_status":"AT"},"geometry":{"type":"Polygon","coordinates":[[[-44.0066,-22.3911],[-44.0164,-22.3836],[-44.0076,-22.3911],[-44.0066,-22.3911]]]}},{"type":"Feature","properties":{"cod_tema":"AREA_SERVIDAO_ADMINISTRATIVA_TOTAL","cod_imovel":"RJ-3300308-7AF94F439DEB4F3CB2C7C97F0327AAD4","num_area":"0.8084000000000000000000000000000","ind_status":"AT"},"geometry":{"type":"Polygon","coordinates":[[[-44.0066,-22.3911],[-44.0164,-22.3836],[-44.0076,-22.3911],[-44.0066,-22.3911]]]}},{"type":"Feature","properties":{"cod_tema":"AREA_UTILIDADE_PUBLICA","cod_imovel":"RJ-3300308-81415E8DCE7D46449560EC70D450CFD5","num_area":"0.2424000000000000000000000000000","ind_status":"AT"},"geometry":{"type":"Polygon","coordinates":[[[-43.9417,-22.4281],[-43.9406,-22.424],[-43.9423,-22.4285],[-43.9417,-22.4281]]]}},{"type":"Feature","properties":{"cod_tema":"AREA_SERVIDAO_ADMINISTRATIVA_TOTAL","cod_imovel":"RJ-3300308-81415E8DCE7D46449560EC70D450CFD5","num_area":"0.2424000000000000000000000000000","ind_status":"AT"},"geometry":{"type":"Polygon","coordinates":[[[-43.9417,-22.4281],[-43.9406,-22.424],[-43.9423,-22.4285],[-43.9417,-22.4281]]]}},{"type":"Feature","properties":{"cod_tema":"AREA_UTILIDADE_PUBLICA","cod_imovel":"RJ-3300308-835E2CCD19EC4A27B180D7A81F7A349A","num_area":"0.3043000000000000000000000000000","ind_status":"AT"},"geometry":{"type":"Polygon","coordinates":[[[-43.7928,-22.545],[-43.7948,-22.5408],[-43.7928,-22.545],[-43.7928,-22.545]]]}},{"type":"Feature","properties":{"cod_tema":"AREA_SERVIDAO_ADMINISTRATIVA_TOTAL","cod_imovel":"RJ-3300308-835E2CCD19EC4A27B180D7A81F7A349A","num_area":"0.3043000000000000000000000000000","ind_status":"AT"},"geometry":{"type":"Polygon","coordinates":[[[-43.7928,-22.545],[-43.7948,-22.5408],[-43.7928,-22.545],[-43.7928,-22.545]]]}},{"type":"Feature","properties":{"cod_tema":"AREA_UTILIDADE_PUBLICA","cod_imovel":"RJ-3300308-83F6720897934B31AEB8338BB21FB6D5","num_area":"0.2244000000000000000000000000000","ind_status":"AT"},"geometry":{"type":"Polygon","coordinates":[[[-43.903,-22.3618],[-43.9005,-22.3591],[-43.903,-22.3618],[-43.903,-22.3618]]]}},{"type":"Feature","properties":{"cod_tema":"AREA_SERVIDAO_ADMINISTRATIVA_TOTAL","cod_imovel":"RJ-3300308-83F6720897934B31AEB8338BB21FB6D5","num_area":"0.2244000000000000000000000000000","ind_status":"AT"},"geometry":{"type":"Polygon","coordinates":[[[-43.903,-22.3618],[-43.9005,-22.3591],[-43.903,-22.3618],[-43.903,-22.3618]]]}},{"type":"Feature","properties":{"cod_tema":"AREA_INFRAESTRUTURA_PUBLICA","cod_imovel":"RJ-3300308-866A7E0341E64A5E826CDA202B17A2DF","num_area":"0.7422000000000000000000000000000","ind_status":"AT"},"geometry":{"type":"Polygon","coordinates":[[[-44.0473,-22.4576],[-44.0523,-22.4535],[-44.0474,-22.4571],[-44.0473,-22.4576]]]}},{"type":"Feature","properties":{"cod_tema":"AREA_SERVIDAO_ADMINISTRATIVA_TOTAL","cod_imovel":"RJ-3300308-866A7E0341E64A5E826CDA202B17A2DF","num_area":"0.7422000000000000000000000000000","ind_status":"AT"},"geometry":{"type":"Polygon","coordinates":[[[-44.0473,-22.4576],[-44.0523,-22.4535],[-44.0474,-22.4571],[-44.0473,-22.4576]]]}},{"type":"Feature","properties":{"cod_tema":"AREA_INFRAESTRUTURA_PUBLICA","cod_imovel":"RJ-3300308-89EB26BC4D9F4518A693E3DC80DCCD93","num_area":"0.3917000000000000000000000000000","ind_status":"AT"},"geometry":{"type":"Polygon","coordinates":[[[-43.8907,-22.3774],[-43.8858,-22.3735],[-43.8907,-22.3774],[-43.8907,-22.3774]]]}},{"type":"Feature","properties":{"cod_tema":"AREA_SERVIDAO_ADMINISTRATIVA_TOTAL","cod_imovel":"RJ-3300308-89EB26BC4D9F4518A693E3DC80DCCD93","num_area":"0.3917000000000000000000000000000","ind_status":"AT"},"geometry":{"type":"Polygon","coordinates":[[[-43.8907,-22.3774],[-43.8858,-22.3735],[-43.8907,-22.3774],[-43.8907,-22.3774]]]}},{"type":"Feature","properties":{"cod_tema":"AREA_INFRAESTRUTURA_PUBLICA","cod_imovel":"RJ-3300308-8D760B62BE654792838E78277F24C42B","num_area":"1.8540000000000000000000000000000","ind_status":"AT"},"geometry":{"type":"Polygon","coordinates":[[[-43.8601,-22.3556],[-43.8564,-22.3589],[-43.8522,-22.3506],[-43.8565,-22.3599],[-43.8601,-22.3556],[-43.8601,-22.3556]]]}},{"type":"Feature","properties":{"cod_tema":"AREA_SERVIDAO_ADMINISTRATIVA_TOTAL","cod_imovel":"RJ-3300308-8D760B62BE654792838E78277F24C42B","num_area":"1.8540000000000000000000000000000","ind_status":"AT"},"geometry":{"type":"Polygon","coordinates":[[[-43.8601,-22.3556],[-43.8564,-22.3589],[-43.8522,-22.3506],[-43.8565,-22.3599],[-43.8601,-22.3556],[-43.8601,-22.3556]]]}},{"type":"Feature","properties":{"cod_tema":"AREA_UTILIDADE_PUBLICA","cod_imovel":"RJ-3300308-9061201E1446406EB03BC6771E87303C","num_area":"0.6073000000000000000000000000000","ind_status":"AT"},"geometry":{"type":"Polygon","coordinates":[[[-44.0602,-22.4612],[-44.0573,-22.4669],[-44.06,-22.4614],[-44.0602,-22.4612]]]}},{"type":"Feature","properties":{"cod_tema":"AREA_SERVIDAO_ADMINISTRATIVA_TOTAL","cod_imovel":"RJ-3300308-9061201E1446406EB03BC6771E87303C","num_area":"0.6073000000000000000000000000000","ind_status":"AT"},"geometry":{"type":"Polygon","coordinates":[[[-44.0602,-22.4612],[-44.0573,-22.4669],[-44.06,-22.4614],[-44.0602,-22.4612]]]}},{"type":"Feature","properties":{"cod_tema":"AREA_UTILIDADE_PUBLICA","cod_imovel":"RJ-3300308-90BE75E697FF41FFBAD422976B91250B","num_area":"2.9229000000000000000000000000000","ind_status":"AT"},"geometry":{"type":"Polygon","coordinates":[[[-43.8078,-22.4246],[-43.8022,-22.4297],[-43.8053,-22.4271],[-43.8078,-22.4246]]]}},{"type":"Feature","properties":{"cod_tema":"AREA_SERVIDAO_ADMINISTRATIVA_TOTAL","cod_imovel":"RJ-3300308-90BE75E697FF41FFBAD422976B91250B","num_area":"2.9229000000000000000000000000000","ind_status":"AT"},"geometry":{"type":"Polygon","coordinates":[[[-43.8078,-22.4246],[-43.8022,-22.4297],[-43.8053,-22.4271],[-43.8078,-22.4246]]]}},{"type":"Feature","properties":{"cod_tema":"AREA_INFRAESTRUTURA_PUBLICA","cod_imovel":"RJ-3300308-997F5669F09D4A5E90269B2650CC3B8D","num_area":"0.2123000000000000000000000000000","ind_status":"AT"},"geometry":{"type":"Polygon","coordinates":[[[-44.0304,-22.3629],[-44.0277,-22.3662],[-44.0303,-22.363],[-44.0304,-22.3629]]]}},{"type":"Feature","properties":{"cod_tema":"AREA_SERVIDAO_ADMINISTRATIVA_TOTAL","cod_imovel":"RJ-3300308-997F5669F09D4A5E90269B2650CC3B8D","num_area":"0.2123000000000000000000000000000","ind_status":"AT"},"geometry":{"type":"Polygon","coordinates":[[[-44.0304,-22.3629],[-44.0277,-22.3662],[-44.0303,-22.363],[-44.0304,-22.3629]]]}},{"type":"Feature","properties":{"cod_tema":"AREA_UTILIDADE_PUBLICA","cod_imovel":"RJ-3300308-9D056AEF72FE426A878CA2B996C9687D","num_area":"0.3453000000000000000000000000000","ind_status":"AT"},"geometry":{"type":"Polygon","coordinates":[[[-43.9868,-22.4578],[-43.9876,-22.4519],[-43.9869,-22.4575],[-43.9868,-22.4578]]]}},{"type":"Feature","properties":{"cod_tema":"AREA_SERVIDAO_ADMINISTRATIVA_TOTAL","cod_imovel":"RJ-3300308-9D056AEF72FE426A878CA2B996C9687D","num_area":"0.3453000000000000000000000000000","ind_status":"AT"},"geometry":{"type":"Polygon","coordinates":[[[-43.9868,-22.4578],[-43.9876,-22.4519],[-43.9869,-22.4575],[-43.9868,-22.4578]]]}},{"type":"Feature","properties":{"cod_tema":"AREA_UTILIDADE_PUBLICA","cod_imovel":"RJ-3300308-9D03538B46F549B7BDEFD1C493033314","num_area":"0.1957000000000000000000000000000","ind_status":"AT"},"geometry":{"type":"Polygon","coordinates":[[[-43.9075,-22.3845],[-43.9124,-22.3822],[-43.9075,-22.3845],[-43.9075,-22.3845]]]}},{"type":"Feature","properties":{"cod_tema":"AREA_SERVIDAO_ADMINISTRATIVA_TOTAL","cod_imovel":"RJ-3300308-9D03538B46F549B7BDEFD1C493033314","num_area":"0.1957000000000000000000000000000","ind_status":"AT"},"geometry":{"type":"Polygon","coordinates":[[[-43.9075,-22.3845],[-43.9124,-22.3822],[-43.9075,-22.3845],[-43.9075,-22.3845]]]}},{"type":"Feature","properties":{"cod_tema":"AREA_UTILIDADE_PUBLICA","cod_imovel":"RJ-3300308-9D7DF6D4C85D45BBA0E8F59EEA01DB43","num_area":"0.7556000000000000000000000000000","ind_status":"PE"},"geometry":{"type":"Polygon","coordinates":[[[-44.044,-22.385],[-44.0356,-22.395],[-44.044,-22.385],[-44.044,-22.385]]]}},{"type":"Feature","properties":{"cod_tema":"AREA_SERVIDAO_ADMINISTRATIVA_TOTAL","cod_imovel":"RJ-3300308-9D7DF6D4C85D45BBA0E8F59EEA01DB43","num_area":"0.7556000000000000000000000000000","ind_status":"PE"},"geometry":{"type":"Polygon","coordinates":[[[-44.044,-22.385],[-44.0356,-22.395],[-44.044,-22.385],[-44.044,-22.385]]]}},{"type":"Feature","properties":{"cod_tema":"AREA_UTILIDADE_PUBLICA","cod_imovel":"RJ-3300308-A0A1AC9BB5834D63B9CA9820D6F7E85F","num_area":"0.3086000000000000000000000000000","ind_status":"AT"},"geometry":{"type":"Polygon","coordinates":[[[-44.018,-22.3555],[-44.0142,-22.3505],[-44.018,-22.3555],[-44.018,-22.3555]]]}},{"type":"Feature","properties":{"cod_tema":"AREA_SERVIDAO_ADMINISTRATIVA_TOTAL","cod_imovel":"RJ-3300308-A0A1AC9BB5834D63B9CA9820D6F7E85F","num_area":"0.3086000000000000000000000000000","ind_status":"AT"},"geometry":{"type":"Polygon","coordinates":[[[-44.018,-22.3555],[-44.0142,-22.3505],[-44.018,-22.3555],[-44.018,-22.3555]]]}},{"type":"Feature","properties":{"cod_tema":"AREA_INFRAESTRUTURA_PUBLICA","cod_imovel":"RJ-3300308-A22EEF785D0D42BEB33749235BA8D452","num_area":"1.1009000000000000000000000000000","ind_status":"AT"},"geometry":{"type":"Polygon","coordinates":[[[-43.7985,-22.4779],[-43.7907,-22.4742],[-43.7982,-22.4777],[-43.7985,-22.4779]]]}},{"type":"Feature","properties":{"cod_tema":"AREA_SERVIDAO_ADMINISTRATIVA_TOTAL","cod_imovel":"RJ-3300308-A22EEF785D0D42BEB33749235BA8D452","num_area":"1.1009000000000000000000000000000","ind_status":"AT"},"geometry":{"type":"Polygon","coordinates":[[[-43.7985,-22.4779],[-43.7907,-22.4742],[-43.7982,-22.4777],[-43.7985,-22.4779]]]}},{"type":"Feature","properties":{"cod_tema":"AREA_INFRAESTRUTURA_PUBLICA","cod_imovel":"RJ-3300308-ADF3265CB1274B368FC0CA98C5494223","num_area":"1.0795000000000000000000000000000","ind_status":"PE"},"geometry":{"type":"Polygon","coordinates":[[[-44.0187,-22.4262],[-44.013,-22.4236],[-44.0153,-22.4184],[-44.013,-22.4236],[-44.0187,-22.4262],[-44.0187,-22.4262]],[[-44.0148,-22.418],[-44.0114,-22.4159],[-44.0145,-22.4177],[-44.0148,-22.418]]]}},{"type":"Feature","properties":{"cod_tema":"AREA_SERVIDAO_ADMINISTRATIVA_TOTAL","cod_imovel":"RJ-3300308-ADF3265CB1274B368FC0CA98C5494223","num_area":"1.0795000000000000000000000000000","ind_status":"PE"},"geometry":{"type":"Polygon","coordinates":[[[-44.0187,-22.4262],[-44.013,-22.4236],[-44.0153,-22.4184],[-44.013,-22.4236],[-44.0187,-22.4262],[-44.0187,-22.4262]],[[-44.0148,-22.418],[-44.0114,-22.4159],[-44.0145,-22.4177],[-44.0148,-22.418]]]}},{"type":"Feature","properties":{"cod_tema":"AREA_UTILIDADE_PUBLICA","cod_imovel":"RJ-3300308-B029DD1238AD406491C8A02F40D2FC2A","num_area":"0.4863000000000000000000000000000","ind_status":"AT"},"geometry":{"type":"Polygon","coordinates":[[[-44.0217,-22.3475],[-44.0245,-22.3425],[-44.0217,-22.3472],[-44.0217,-22.3475]]]}},{"type":"Feature","properties":{"cod_tema":"AREA_SERVIDAO_ADMINISTRATIVA_TOTAL","cod_imovel":"RJ-3300308-B029DD1238AD406491C8A02F40D2FC2A","num_area":"0.4863000000000000000000000000000","ind_status":"AT"},"geometry":{"type":"Polygon","coordinates":[[[-44.0217,-22.3475],[-44.0245,-22.3425],[-44.0217,-22.3472],[-44.0217,-22.3475]]]}},{"type":"Feature","properties":{"cod_tema":"AREA_UTILIDADE_PUBLICA","cod_imovel":"RJ-3300308-B369C99BF39F403EADFB6A8597CC364E","num_area":"0.3473000000000000000000000000000","ind_status":"AT"},"geometry":{"type":"Polygon","coordinates":[[[-43.9964,-22.4311],[-44.0002,-22.4316],[-44.0005,-22.4256],[-43.9971,-22.4313],[-43.9964,-22.4311]]]}},{"type":"Feature","properties":{"cod_tema":"AREA_SERVIDAO_ADMINISTRATIVA_TOTAL","cod_imovel":"RJ-3300308-B369C99BF39F403EADFB6A8597CC364E","num_area":"0.3473000000000000000000000000000","ind_status":"AT"},"geometry":{"type":"Polygon","coordinates":[[[-43.9964,-22.4311],[-44.0002,-22.4316],[-44.0005,-22.4256],[-43.9971,-22.4313],[-43.9964,-22.4311]]]}},{"type":"Feature","properties":{"cod_tema":"AREA_UTILIDADE_PUBLICA","cod_imovel":"RJ-3300308-BAEC5A8601374DEDAA6EECAA408B438B","num_area":"0.1837000000000000000000000000000","ind_status":"AT"},"geometry":{"type":"Polygon","coordinates":[[[-43.8939,-22.3893],[-43.8908,-22.3882],[-43.8938,-22.3893],[-43.8939,-22.3893]]]}},{"type":"Feature","properties":{"cod_tema":"AREA_SERVIDAO_ADMINISTRATIVA_TOTAL","cod_imovel":"RJ-3300308-BAEC5A8601374DEDAA6EECAA408B438B","num_area":"0.1837000000000000000000000000000","ind_status":"AT"},"geometry":{"type":"Polygon","coordinates":[[[-43.8939,-22.3893],[-43.8908,-22.3882],[-43.8938,-22.3893],[-43.8939,-22.3893]]]}},{"type":"Feature","properties":{"cod_tema":"AREA_UTILIDADE_PUBLICA","cod_imovel":"RJ-3300308-BB6D37C96B0C43049785C896EB92079D","num_area":"0.6429000000000000000000000000000","ind_status":"AT"},"geometry":{"type":"Polygon","coordinates":[[[-43.9871,-22.4373],[-43.9935,-22.4309],[-43.9871,-22.4369],[-43.9871,-22.4373]]]}},{"type":"Feature","properties":{"cod_tema":"AREA_SERVIDAO_ADMINISTRATIVA_TOTAL","cod_imovel":"RJ-3300308-BB6D37C96B0C43049785C896EB92079D","num_area":"0.6429000000000000000000000000000","ind_status":"AT"},"geometry":{"type":"Polygon","coordinates":[[[-43.9871,-22.4373],[-43.9935,-22.4309],[-43.9871,-22.4369],[-43.9871,-22.4373]]]}},{"type":"Feature","properties":{"cod_tema":"AREA_INFRAESTRUTURA_PUBLICA","cod_imovel":"RJ-3300308-BE66A0BD43CC4F4DAB58A958C4F787E9","num_area":"0.2813000000000000000000000000000","ind_status":"AT"},"geometry":{"type":"Polygon","coordinates":[[[-43.9815,-22.3365],[-43.9757,-22.334],[-43.9815,-22.3366],[-43.9815,-22.3365]]]}},{"type":"Feature","properties":{"cod_tema":"AREA_SERVIDAO_ADMINISTRATIVA_TOTAL","cod_imovel":"RJ-3300308-BE66A0BD43CC4F4DAB58A958C4F787E9","num_area":"0.2813000000000000000000000000000","ind_status":"AT"},"geometry":{"type":"Polygon","coordinates":[[[-43.9815,-22.3365],[-43.9757,-22.334],[-43.9815,-22.3366],[-43.9815,-22.3365]]]}},{"type":"Feature","properties":{"cod_tema":"AREA_UTILIDADE_PUBLICA","cod_imovel":"RJ-3300308-C42DB7EF5D8E42FFA576743C73ED9EEC","num_area":"3.2820000000000000000000000000000","ind_status":"AT"},"geometry":{"type":"Polygon","coordinates":[[[-43.8427,-22.51],[-43.8371,-22.5108],[-43.8427,-22.5102],[-43.8427,-22.51]]]}},{"type":"Feature","properties":{"cod_tema":"AREA_SERVIDAO_ADMINISTRATIVA_TOTAL","cod_imovel":"RJ-3300308-C42DB7EF5D8E42FFA576743C73ED9EEC","num_area":"3.2820000000000000000000000000000","ind_status":"AT"},"geometry":{"type":"Polygon","coordinates":[[[-43.8427,-22.51],[-43.8371,-22.5108],[-43.8427,-22.5102],[-43.8427,-22.51]]]}},{"type":"Feature","properties":{"cod_tema":"AREA_UTILIDADE_PUBLICA","cod_imovel":"RJ-3300308-CC9439B2E82C4CEB839B244306069693","num_area":"0.8084000000000000000000000000000","ind_status":"AT"},"geometry":{"type":"Polygon","coordinates":[[[-43.8027,-22.4809],[-43.8098,-22.4832],[-43.8027,-22.4809],[-43.8027,-22.4809]]]}},{"type":"Feature","properties":{"cod_tema":"AREA_SERVIDAO_ADMINISTRATIVA_TOTAL","cod_imovel":"RJ-3300308-CC9439B2E82C4CEB839B244306069693","num_area":"0.8084000000000000000000000000000","ind_status":"AT"},"geometry":{"type":"Polygon","coordinates":[[[-43.8027,-22.4809],[-43.8098,-22.4832],[-43.8027,-22.4809],[-43.8027,-22.4809]]]}},{"type":"Feature","properties":{"cod_tema":"AREA_INFRAESTRUTURA_PUBLICA","cod_imovel":"RJ-3300308-D0AA6D2D037E4346BF7F204E0295FC29","num_area":"1.5709000000000000000000000000000","ind_status":"PE"},"geometry":{"type":"Polygon","coordinates":[[[-43.9616,-22.4404],[-43.972,-22.4275],[-43.9617,-22.4403],[-43.9616,-22.4404]]]}},{"type":"Feature","properties":{"cod_tema":"AREA_SERVIDAO_ADMINISTRATIVA_TOTAL","cod_imovel":"RJ-3300308-D0AA6D2D037E4346BF7F204E0295FC29","num_area":"1.5709000000000000000000000000000","ind_status":"PE"},"geometry":{"type":"Polygon","coordinates":[[[-43.9616,-22.4404],[-43.972,-22.4275],[-43.9617,-22.4403],[-43.9616,-22.4404]]]}},{"type":"Feature","properties":{"cod_tema":"AREA_INFRAESTRUTURA_PUBLICA","cod_imovel":"RJ-3300308-D9320640239E4783AD6919DA7B33BB91","num_area":"1.2280000000000000000000000000000","ind_status":"AT"},"geometry":{"type":"Polygon","coordinates":[[[-44.0115,-22.4159],[-44.005,-22.4106],[-44.0112,-22.4158],[-44.0115,-22.4159]]]}},{"type":"Feature","properties":{"cod_tema":"AREA_SERVIDAO_ADMINISTRATIVA_TOTAL","cod_imovel":"RJ-3300308-D9320640239E4783AD6919DA7B33BB91","num_area":"1.2280000000000000000000000000000","ind_status":"AT"},"geometry":{"type":"Polygon","coordinates":[[[-44.0115,-22.4159],[-44.005,-22.4106],[-44.0112,-22.4158],[-44.0115,-22.4159]]]}},{"type":"Feature","properties":{"cod_tema":"AREA_INFRAESTRUTURA_PUBLICA","cod_imovel":"RJ-3300308-D375943CE8FD4142AF00410304D6CFD5","num_area":"0.1954000000000000000000000000000","ind_status":"AT"},"geometry":{"type":"Polygon","coordinates":[[[-43.8564,-22.3659],[-43.8529,-22.3645],[-43.8565,-22.3656],[-43.8564,-22.3659]]]}},{"type":"Feature","properties":{"cod_tema":"AREA_SERVIDAO_ADMINISTRATIVA_TOTAL","cod_imovel":"RJ-3300308-D375943CE8FD4142AF00410304D6CFD5","num_area":"0.1954000000000000000000000000000","ind_status":"AT"},"geometry":{"type":"Polygon","coordinates":[[[-43.8564,-22.3659],[-43.8529,-22.3645],[-43.8565,-22.3656],[-43.8564,-22.3659]]]}},{"type":"Feature","properties":{"cod_tema":"AREA_INFRAESTRUTURA_PUBLICA","cod_imovel":"RJ-3300308-D669BF7CD6DE46E5986ABAFAD4311951","num_area":"0.4422000000000000000000000000000","ind_status":"AT"},"geometry":{"type":"Polygon","coordinates":[[[-43.9193,-22.4498],[-43.9185,-22.4408],[-43.9194,-22.4502],[-43.9193,-22.4498]]]}},{"type":"Feature","properties":{"cod_tema":"AREA_SERVIDAO_ADMINISTRATIVA_TOTAL","cod_imovel":"RJ-3300308-D669BF7CD6DE46E5986ABAFAD4311951","num_area":"0.4422000000000000000000000000000","ind_status":"AT"},"geometry":{"type":"Polygon","coordinates":[[[-43.9193,-22.4498],[-43.9185,-22.4408],[-43.9194,-22.4502],[-43.9193,-22.4498]]]}},{"type":"Feature","properties":{"cod_tema":"AREA_UTILIDADE_PUBLICA","cod_imovel":"RJ-3300308-F53721F26DF14DC5953619159D53136C","num_area":"0.3320000000000000000000000000000","ind_status":"AT"},"geometry":{"type":"Polygon","coordinates":[[[-43.9802,-22.4575],[-43.9837,-22.4579],[-43.9802,-22.4577],[-43.9802,-22.4575]]]}},{"type":"Feature","properties":{"cod_tema":"AREA_SERVIDAO_ADMINISTRATIVA_TOTAL","cod_imovel":"RJ-3300308-F53721F26DF14DC5953619159D53136C","num_area":"0.3320000000000000000000000000000","ind_status":"AT"},"geometry":{"type":"Polygon","coordinates":[[[-43.9802,-22.4575],[-43.9837,-22.4579],[-43.9802,-22.4577],[-43.9802,-22.4575]]]}},{"type":"Feature","properties":{"cod_tema":"AREA_INFRAESTRUTURA_PUBLICA","cod_imovel":"RJ-3300308-FA552E5658114827B1F3994C9B57AB8B","num_area":"0.3935000000000000000000000000000","ind_status":"AT"},"geometry":{"type":"Polygon","coordinates":[[[-43.8006,-22.4802],[-43.7985,-22.4779],[-43.8006,-22.4802],[-43.8006,-22.4802]]]}},{"type":"Feature","properties":{"cod_tema":"AREA_SERVIDAO_ADMINISTRATIVA_TOTAL","cod_imovel":"RJ-3300308-FA552E5658114827B1F3994C9B57AB8B","num_area":"0.3935000000000000000000000000000","ind_status":"AT"},"geometry":{"type":"Polygon","coordinates":[[[-43.8006,-22.4802],[-43.7985,-22.4779],[-43.8006,-22.4802],[-43.8006,-22.4802]]]}},{"type":"Feature","properties":{"cod_tema":"AREA_UTILIDADE_PUBLICA","cod_imovel":"RJ-3300308-FABE4B4D4FEF4450AD28B452674F53A8","num_area":"2.8954000000000000000000000000000","ind_status":"AT"},"geometry":{"type":"Polygon","coordinates":[[[-43.7754,-22.4681],[-43.7832,-22.4729],[-43.7754,-22.468],[-43.7754,-22.4681]]]}},{"type":"Feature","properties":{"cod_tema":"AREA_SERVIDAO_ADMINISTRATIVA_TOTAL","cod_imovel":"RJ-3300308-FABE4B4D4FEF4450AD28B452674F53A8","num_area":"2.8954000000000000000000000000000","ind_status":"AT"},"geometry":{"type":"Polygon","coordinates":[[[-43.7754,-22.4681],[-43.7832,-22.4729],[-43.7754,-22.468],[-43.7754,-22.4681]]]}},{"type":"Feature","properties":{"cod_tema":"AREA_UTILIDADE_PUBLICA","cod_imovel":"RJ-3300308-FB0A343B64A14495A8FC8A122EA3060F","num_area":"3.7986000000000000000000000000000","ind_status":"AT"},"geometry":{"type":"Polygon","coordinates":[[[-43.8743,-22.3642],[-43.878,-22.362],[-43.8749,-22.3637],[-43.8743,-22.3642]]]}},{"type":"Feature","properties":{"cod_tema":"AREA_SERVIDAO_ADMINISTRATIVA_TOTAL","cod_imovel":"RJ-3300308-FB0A343B64A14495A8FC8A122EA3060F","num_area":"4.0164000000000000000000000000000","ind_status":"AT"},"geometry":{"type":"Polygon","coordinates":[[[-43.8743,-22.3642],[-43.8779,-22.3655],[-43.8769,-22.3612],[-43.8749,-22.3637],[-43.8743,-22.3642]]]}},{"type":"Feature","properties":{"cod_tema":"AREA_INFRAESTRUTURA_PUBLICA","cod_imovel":"RJ-3300308-7C14A7EF31964BB6AA2333911CD59086","num_area":"0.6043000000000000000000000000000","ind_status":"AT"},"geometry":{"type":"Polygon","coordinates":[[[-43.7893,-22.4577],[-43.7962,-22.4593],[-43.7897,-22.4579],[-43.7893,-22.4577]]]}},{"type":"Feature","properties":{"cod_tema":"AREA_SERVIDAO_ADMINISTRATIVA_TOTAL","cod_imovel":"RJ-3300308-7C14A7EF31964BB6AA2333911CD59086","num_area":"0.6043000000000000000000000000000","ind_status":"AT"},"geometry":{"type":"Polygon","coordinates":[[[-43.7893,-22.4577],[-43.7962,-22.4593],[-43.7897,-22.4579],[-43.7893,-22.4577]]]}},{"type":"Feature","properties":{"cod_tema":"AREA_UTILIDADE_PUBLICA","cod_imovel":"RJ-3300308-CE7349C4AB3643B8B761C985668C92D3","num_area":"5.7533000000000000000000000000000","ind_status":"AT"},"geometry":{"type":"Polygon","coordinates":[[[-43.9126,-22.4932],[-43.9237,-22.4962],[-43.915,-22.4939],[-43.9126,-22.4932]]]}},{"type":"Feature","properties":{"cod_tema":"AREA_SERVIDAO_ADMINISTRATIVA_TOTAL","cod_imovel":"RJ-3300308-CE7349C4AB3643B8B761C985668C92D3","num_area":"5.7533000000000000000000000000000","ind_status":"AT"},"geometry":{"type":"Polygon","coordinates":[[[-43.9126,-22.4932],[-43.9237,-22.4962],[-43.915,-22.4939],[-43.9126,-22.4932]]]}},{"type":"Feature","properties":{"cod_tema":"AREA_INFRAESTRUTURA_PUBLICA","cod_imovel":"RJ-3300308-0A0BC9383B9E46419F49286F747EF13E","num_area":"0.4448000000000000000000000000000","ind_status":"AT"},"geometry":{"type":"Polygon","coordinates":[[[-43.7694,-22.393],[-43.7761,-22.3982],[-43.7695,-22.393],[-43.7694,-22.393]]]}},{"type":"Feature","properties":{"cod_tema":"AREA_SERVIDAO_ADMINISTRATIVA_TOTAL","cod_imovel":"RJ-3300308-0A0BC9383B9E46419F49286F747EF13E","num_area":"0.4448000000000000000000000000000","ind_status":"AT"},"geometry":{"type":"Polygon","coordinates":[[[-43.7694,-22.393],[-43.7761,-22.3982],[-43.7695,-22.393],[-43.7694,-22.393]]]}},{"type":"Feature","properties":{"cod_tema":"AREA_UTILIDADE_PUBLICA","cod_imovel":"RJ-3300308-614016369C004ADCB98747665A99FFE8","num_area":"4.7933000000000000000000000000000","ind_status":"AT"},"geometry":{"type":"Polygon","coordinates":[[[-43.9422,-22.515],[-43.9399,-22.5109],[-43.9422,-22.515],[-43.9422,-22.515]],[[-43.942,-22.5144],[-43.94,-22.5111],[-43.9423,-22.5149],[-43.942,-22.5144]],[[-43.9336,-22.5318],[-43.9389,-22.5329],[-43.9336,-22.5318],[-43.9336,-22.5318]],[[-43.9336,-22.5315],[-43.9389,-22.5326],[-43.9337,-22.5315],[-43.9336,-22.5315]],[[-43.9398,-22.511],[-43.9421,-22.515],[-43.9398,-22.511],[-43.9398,-22.511]],[[-43.9397,-22.5111],[-43.942,-22.5151],[-43.9397,-22.5111],[-43.9397,-22.5111]]]}},{"type":"Feature","properties":{"cod_tema":"AREA_SERVIDAO_ADMINISTRATIVA_TOTAL","cod_imovel":"RJ-3300308-614016369C004ADCB98747665A99FFE8","num_area":"4.7933000000000000000000000000000","ind_status":"AT"},"geometry":{"type":"Polygon","coordinates":[[[-43.9422,-22.515],[-43.9399,-22.5109],[-43.9422,-22.515],[-43.9422,-22.515]],[[-43.942,-22.5144],[-43.94,-22.5111],[-43.9423,-22.5149],[-43.942,-22.5144]],[[-43.9336,-22.5318],[-43.9389,-22.5329],[-43.9336,-22.5318],[-43.9336,-22.5318]],[[-43.9336,-22.5315],[-43.9389,-22.5326],[-43.9337,-22.5315],[-43.9336,-22.5315]],[[-43.9398,-22.511],[-43.9421,-22.515],[-43.9398,-22.511],[-43.9398,-22.511]],[[-43.9397,-22.5111],[-43.942,-22.5151],[-43.9397,-22.5111],[-43.9397,-22.5111]]]}},{"type":"Feature","properties":{"cod_tema":"AREA_UTILIDADE_PUBLICA","cod_imovel":"RJ-3300308-CAA74ED0ABD04506AB180E90977EBFD5","num_area":"0.1103000000000000000000000000000","ind_status":"AT"},"geometry":{"type":"Polygon","coordinates":[[[-43.9035,-22.362],[-43.9055,-22.3645],[-43.9036,-22.362],[-43.9035,-22.362]]]}},{"type":"Feature","properties":{"cod_tema":"AREA_SERVIDAO_ADMINISTRATIVA_TOTAL","cod_imovel":"RJ-3300308-CAA74ED0ABD04506AB180E90977EBFD5","num_area":"0.1103000000000000000000000000000","ind_status":"AT"},"geometry":{"type":"Polygon","coordinates":[[[-43.9035,-22.362],[-43.9055,-22.3645],[-43.9036,-22.362],[-43.9035,-22.362]]]}},{"type":"Feature","properties":{"cod_tema":"AREA_INFRAESTRUTURA_PUBLICA","cod_imovel":"RJ-3300308-2296A39230954C719DDFA1A4265A449F","num_area":"0.8148000000000000000000000000000","ind_status":"AT"},"geometry":{"type":"Polygon","coordinates":[[[-44.0203,-22.3346],[-44.0254,-22.3398],[-44.0205,-22.3347],[-44.0203,-22.3346]]]}},{"type":"Feature","properties":{"cod_tema":"AREA_SERVIDAO_ADMINISTRATIVA_TOTAL","cod_imovel":"RJ-3300308-2296A39230954C719DDFA1A4265A449F","num_area":"0.8148000000000000000000000000000","ind_status":"AT"},"geometry":{"type":"Polygon","coordinates":[[[-44.0203,-22.3346],[-44.0254,-22.3398],[-44.0205,-22.3347],[-44.0203,-22.3346]]]}},{"type":"Feature","properties":{"cod_tema":"AREA_INFRAESTRUTURA_PUBLICA","cod_imovel":"RJ-3300308-3A0630FF7FA04B45AC0139E50345C602","num_area":"7.1341000000000000000000000000000","ind_status":"AT"},"geometry":{"type":"Polygon","coordinates":[[[-43.8399,-22.3955],[-43.8351,-22.399],[-43.8312,-22.3953],[-43.8357,-22.3993],[-43.8399,-22.3955]]]}},{"type":"Feature","properties":{"cod_tema":"AREA_SERVIDAO_ADMINISTRATIVA_TOTAL","cod_imovel":"RJ-3300308-3A0630FF7FA04B45AC0139E50345C602","num_area":"7.1341000000000000000000000000000","ind_status":"AT"},"geometry":{"type":"Polygon","coordinates":[[[-43.8399,-22.3955],[-43.8351,-22.399],[-43.8312,-22.3953],[-43.8357,-22.3993],[-43.8399,-22.3955]]]}},{"type":"Feature","properties":{"cod_tema":"AREA_UTILIDADE_PUBLICA","cod_imovel":"RJ-3300308-DF2BB8ECE41246679D12F86B6689EC47","num_area":"2.0519000000000000000000000000000","ind_status":"AT"},"geometry":{"type":"Polygon","coordinates":[[[-43.8966,-22.4495],[-43.9148,-22.4568],[-43.8974,-22.45],[-43.8966,-22.4495]]]}},{"type":"Feature","properties":{"cod_tema":"AREA_SERVIDAO_ADMINISTRATIVA_TOTAL","cod_imovel":"RJ-3300308-DF2BB8ECE41246679D12F86B6689EC47","num_area":"2.0519000000000000000000000000000","ind_status":"AT"},"geometry":{"type":"Polygon","coordinates":[[[-43.8966,-22.4495],[-43.9148,-22.4568],[-43.8974,-22.45],[-43.8966,-22.4495]]]}},{"type":"Feature","properties":{"cod_tema":"AREA_INFRAESTRUTURA_PUBLICA","cod_imovel":"RJ-3300308-B953C0943C7C4D1194F43FC23D6E7468","num_area":"4.1672000000000000000000000000000","ind_status":"AT"},"geometry":{"type":"Polygon","coordinates":[[[-43.9033,-22.4659],[-43.9081,-22.4674],[-43.9125,-22.4617],[-43.904,-22.4661],[-43.9033,-22.4659]]]}},{"type":"Feature","properties":{"cod_tema":"AREA_SERVIDAO_ADMINISTRATIVA_TOTAL","cod_imovel":"RJ-3300308-B953C0943C7C4D1194F43FC23D6E7468","num_area":"4.1672000000000000000000000000000","ind_status":"AT"},"geometry":{"type":"Polygon","coordinates":[[[-43.9033,-22.4659],[-43.9081,-22.4674],[-43.9125,-22.4617],[-43.904,-22.4661],[-43.9033,-22.4659]]]}},{"type":"Feature","properties":{"cod_tema":"AREA_INFRAESTRUTURA_PUBLICA","cod_imovel":"RJ-3300308-D8CFEE6134C548BFB871E4CC31C855C8","num_area":"0.6665000000000000000000000000000","ind_status":"AT"},"geometry":{"type":"Polygon","coordinates":[[[-43.9081,-22.3976],[-43.9029,-22.3912],[-43.9083,-22.397],[-43.9081,-22.3976]]]}},{"type":"Feature","properties":{"cod_tema":"AREA_SERVIDAO_ADMINISTRATIVA_TOTAL","cod_imovel":"RJ-3300308-D8CFEE6134C548BFB871E4CC31C855C8","num_area":"0.6665000000000000000000000000000","ind_status":"AT"},"geometry":{"type":"Polygon","coordinates":[[[-43.9081,-22.3976],[-43.9029,-22.3912],[-43.9083,-22.397],[-43.9081,-22.3976]]]}},{"type":"Feature","properties":{"cod_tema":"AREA_UTILIDADE_PUBLICA","cod_imovel":"RJ-3300308-B54BFCB313704FF4862FE45CA68D70E4","num_area":"2.0038000000000000000000000000000","ind_status":"AT"},"geometry":{"type":"Polygon","coordinates":[[[-43.8868,-22.5137],[-43.8806,-22.515],[-43.8867,-22.5137],[-43.8868,-22.5137]]]}},{"type":"Feature","properties":{"cod_tema":"AREA_SERVIDAO_ADMINISTRATIVA_TOTAL","cod_imovel":"RJ-3300308-B54BFCB313704FF4862FE45CA68D70E4","num_area":"2.0038000000000000000000000000000","ind_status":"AT"},"geometry":{"type":"Polygon","coordinates":[[[-43.8868,-22.5137],[-43.8806,-22.515],[-43.8867,-22.5137],[-43.8868,-22.5137]]]}},{"type":"Feature","properties":{"cod_tema":"AREA_INFRAESTRUTURA_PUBLICA","cod_imovel":"RJ-3300308-BDAA926B4D6A4F1092A2E8DF3E8CB77F","num_area":"2.3092000000000000000000000000000","ind_status":"AT"},"geometry":{"type":"Polygon","coordinates":[[[-43.8876,-22.5133],[-43.8954,-22.5141],[-43.8876,-22.5133],[-43.8876,-22.5133]]]}},{"type":"Feature","properties":{"cod_tema":"AREA_SERVIDAO_ADMINISTRATIVA_TOTAL","cod_imovel":"RJ-3300308-BDAA926B4D6A4F1092A2E8DF3E8CB77F","num_area":"2.3092000000000000000000000000000","ind_status":"AT"},"geometry":{"type":"Polygon","coordinates":[[[-43.8876,-22.5133],[-43.8954,-22.5141],[-43.8876,-22.5133],[-43.8876,-22.5133]]]}},{"type":"Feature","properties":{"cod_tema":"AREA_INFRAESTRUTURA_PUBLICA","cod_imovel":"RJ-3300308-10B8E71CB4DE41CF815F8C779EEB0942","num_area":"2.6892000000000000000000000000000","ind_status":"AT"},"geometry":{"type":"Polygon","coordinates":[[[-43.875,-22.4545],[-43.8763,-22.4509],[-43.875,-22.4546],[-43.875,-22.4545]],[[-43.8743,-22.4556],[-43.8702,-22.4555],[-43.8655,-22.4653],[-43.8738,-22.4557],[-43.8743,-22.4556]]]}},{"type":"Feature","properties":{"cod_tema":"AREA_SERVIDAO_ADMINISTRATIVA_TOTAL","cod_imovel":"RJ-3300308-10B8E71CB4DE41CF815F8C779EEB0942","num_area":"2.6892000000000000000000000000000","ind_status":"AT"},"geometry":{"type":"Polygon","coordinates":[[[-43.875,-22.4545],[-43.8763,-22.4509],[-43.875,-22.4546],[-43.875,-22.4545]],[[-43.8743,-22.4556],[-43.8702,-22.4555],[-43.8655,-22.4653],[-43.8738,-22.4557],[-43.8743,-22.4556]]]}},{"type":"Feature","properties":{"cod_tema":"AREA_INFRAESTRUTURA_PUBLICA","cod_imovel":"RJ-3300308-72EFA69416B74D338C1C8AEE848C3D8E","num_area":"1.0892000000000000000000000000000","ind_status":"AT"},"geometry":{"type":"Polygon","coordinates":[[[-43.8979,-22.4923],[-43.9091,-22.4964],[-43.8987,-22.4928],[-43.8979,-22.4923]]]}},{"type":"Feature","properties":{"cod_tema":"AREA_SERVIDAO_ADMINISTRATIVA_TOTAL","cod_imovel":"RJ-3300308-72EFA69416B74D338C1C8AEE848C3D8E","num_area":"1.0892000000000000000000000000000","ind_status":"AT"},"geometry":{"type":"Polygon","coordinates":[[[-43.8979,-22.4923],[-43.9091,-22.4964],[-43.8987,-22.4928],[-43.8979,-22.4923]]]}},{"type":"Feature","properties":{"cod_tema":"AREA_UTILIDADE_PUBLICA","cod_imovel":"RJ-3300308-B86EAB17A2A84942B81E46A5D67A33FB","num_area":"0.1612000000000000000000000000000","ind_status":"AT"},"geometry":{"type":"Polygon","coordinates":[[[-44.022,-22.3316],[-44.0202,-22.3346],[-44.022,-22.3316],[-44.022,-22.3316]]]}},{"type":"Feature","properties":{"cod_tema":"AREA_SERVIDAO_ADMINISTRATIVA_TOTAL","cod_imovel":"RJ-3300308-B86EAB17A2A84942B81E46A5D67A33FB","num_area":"0.1612000000000000000000000000000","ind_status":"AT"},"geometry":{"type":"Polygon","coordinates":[[[-44.022,-22.3316],[-44.0202,-22.3346],[-44.022,-22.3316],[-44.022,-22.3316]]]}},{"type":"Feature","properties":{"cod_tema":"AREA_INFRAESTRUTURA_PUBLICA","cod_imovel":"RJ-3300308-CE9B3DE930BA4874A5D11EEC31B605C0","num_area":"8.0493000000000000000000000000000","ind_status":"AT"},"geometry":{"type":"Polygon","coordinates":[[[-43.908,-22.5224],[-43.9161,-22.5261],[-43.8943,-22.514],[-43.9078,-22.5223],[-43.908,-22.5224]]]}},{"type":"Feature","properties":{"cod_tema":"AREA_SERVIDAO_ADMINISTRATIVA_TOTAL","cod_imovel":"RJ-3300308-CE9B3DE930BA4874A5D11EEC31B605C0","num_area":"8.0493000000000000000000000000000","ind_status":"AT"},"geometry":{"type":"Polygon","coordinates":[[[-43.908,-22.5224],[-43.9161,-22.5261],[-43.8943,-22.514],[-43.9078,-22.5223],[-43.908,-22.5224]]]}},{"type":"Feature","properties":{"cod_tema":"AREA_INFRAESTRUTURA_PUBLICA","cod_imovel":"RJ-3300308-4C21CE8C532340F192A04C0C142BCFB3","num_area":"9.6001000000000000000000000000000","ind_status":"AT"},"geometry":{"type":"Polygon","coordinates":[[[-43.8477,-22.4587],[-43.8572,-22.4667],[-43.8527,-22.4621],[-43.8477,-22.4587]]]}},{"type":"Feature","properties":{"cod_tema":"AREA_SERVIDAO_ADMINISTRATIVA_TOTAL","cod_imovel":"RJ-3300308-4C21CE8C532340F192A04C0C142BCFB3","num_area":"9.6001000000000000000000000000000","ind_status":"AT"},"geometry":{"type":"Polygon","coordinates":[[[-43.8477,-22.4587],[-43.8572,-22.4667],[-43.8527,-22.4621],[-43.8477,-22.4587]]]}},{"type":"Feature","properties":{"cod_tema":"AREA_UTILIDADE_PUBLICA","cod_imovel":"RJ-3300308-5208BE1CFB934A6CB2F7975178D33C75","num_area":"0.2787000000000000000000000000000","ind_status":"AT"},"geometry":{"type":"Polygon","coordinates":[[[-43.925,-22.5222],[-43.9239,-22.5162],[-43.925,-22.5221],[-43.925,-22.5222]]]}},{"type":"Feature","properties":{"cod_tema":"AREA_SERVIDAO_ADMINISTRATIVA_TOTAL","cod_imovel":"RJ-3300308-5208BE1CFB934A6CB2F7975178D33C75","num_area":"0.2787000000000000000000000000000","ind_status":"AT"},"geometry":{"type":"Polygon","coordinates":[[[-43.925,-22.5222],[-43.9239,-22.5162],[-43.925,-22.5221],[-43.925,-22.5222]]]}},{"type":"Feature","properties":{"cod_tema":"AREA_UTILIDADE_PUBLICA","cod_imovel":"RJ-3300308-23E485C9C7AE4A0EAFC39F94A97766D2","num_area":"0.3216000000000000000000000000000","ind_status":"AT"},"geometry":{"type":"Polygon","coordinates":[[[-43.7828,-22.399],[-43.7768,-22.3995],[-43.7828,-22.399],[-43.7828,-22.399]]]}},{"type":"Feature","properties":{"cod_tema":"AREA_SERVIDAO_ADMINISTRATIVA_TOTAL","cod_imovel":"RJ-3300308-23E485C9C7AE4A0EAFC39F94A97766D2","num_area":"0.3216000000000000000000000000000","ind_status":"AT"},"geometry":{"type":"Polygon","coordinates":[[[-43.7828,-22.399],[-43.7768,-22.3995],[-43.7828,-22.399],[-43.7828,-22.399]]]}},{"type":"Feature","properties":{"cod_tema":"AREA_INFRAESTRUTURA_PUBLICA","cod_imovel":"RJ-3300308-F7EFEBD11A04460EA032C99FC0572836","num_area":"1.6547000000000000000000000000000","ind_status":"AT"},"geometry":{"type":"Polygon","coordinates":[[[-44.0255,-22.4843],[-44.0318,-22.4956],[-44.0256,-22.4844],[-44.0255,-22.4843]]]}},{"type":"Feature","properties":{"cod_tema":"AREA_SERVIDAO_ADMINISTRATIVA_TOTAL","cod_imovel":"RJ-3300308-F7EFEBD11A04460EA032C99FC0572836","num_area":"1.6547000000000000000000000000000","ind_status":"AT"},"geometry":{"type":"Polygon","coordinates":[[[-44.0255,-22.4843],[-44.0318,-22.4956],[-44.0256,-22.4844],[-44.0255,-22.4843]]]}},{"type":"Feature","properties":{"cod_tema":"AREA_INFRAESTRUTURA_PUBLICA","cod_imovel":"RJ-3300308-15FA11DB9F6D4C7280697557202DDB9D","num_area":"0.4386000000000000000000000000000","ind_status":"AT"},"geometry":{"type":"Polygon","coordinates":[[[-43.9958,-22.324],[-43.9862,-22.3221],[-43.9956,-22.3241],[-43.9958,-22.324]]]}},{"type":"Feature","properties":{"cod_tema":"AREA_SERVIDAO_ADMINISTRATIVA_TOTAL","cod_imovel":"RJ-3300308-15FA11DB9F6D4C7280697557202DDB9D","num_area":"0.4386000000000000000000000000000","ind_status":"AT"},"geometry":{"type":"Polygon","coordinates":[[[-43.9958,-22.324],[-43.9862,-22.3221],[-43.9956,-22.3241],[-43.9958,-22.324]]]}},{"type":"Feature","properties":{"cod_tema":"AREA_UTILIDADE_PUBLICA","cod_imovel":"RJ-3300308-593117DC62B34D92BFDB39F4D9E70A49","num_area":"6.2000000000000000000000000000000","ind_status":"AT"},"geometry":{"type":"Polygon","coordinates":[[[-43.8764,-22.451],[-43.8655,-22.4653],[-43.8708,-22.4551],[-43.8886,-22.4519],[-43.8858,-22.4585],[-43.8899,-22.4529],[-43.8744,-22.4554],[-43.8762,-22.4511],[-43.8764,-22.451]]]}},{"type":"Feature","properties":{"cod_tema":"AREA_SERVIDAO_ADMINISTRATIVA_TOTAL","cod_imovel":"RJ-3300308-593117DC62B34D92BFDB39F4D9E70A49","num_area":"6.2000000000000000000000000000000","ind_status":"AT"},"geometry":{"type":"Polygon","coordinates":[[[-43.8764,-22.451],[-43.8655,-22.4653],[-43.8708,-22.4551],[-43.8886,-22.4519],[-43.8858,-22.4585],[-43.8899,-22.4529],[-43.8744,-22.4554],[-43.8762,-22.4511],[-43.8764,-22.451]]]}},{"type":"Feature","properties":{"cod_tema":"AREA_INFRAESTRUTURA_PUBLICA","cod_imovel":"RJ-3300308-8FE4153C5A60412A844EF132AF1F2585","num_area":"0.7828000000000000000000000000000","ind_status":"AT"},"geometry":{"type":"Polygon","coordinates":[[[-44.0255,-22.4823],[-44.0208,-22.4806],[-44.0252,-22.4827],[-44.0255,-22.4823]]]}},{"type":"Feature","properties":{"cod_tema":"AREA_SERVIDAO_ADMINISTRATIVA_TOTAL","cod_imovel":"RJ-3300308-8FE4153C5A60412A844EF132AF1F2585","num_area":"0.7828000000000000000000000000000","ind_status":"AT"},"geometry":{"type":"Polygon","coordinates":[[[-44.0255,-22.4823],[-44.0208,-22.4806],[-44.0252,-22.4827],[-44.0255,-22.4823]]]}},{"type":"Feature","properties":{"cod_tema":"AREA_INFRAESTRUTURA_PUBLICA","cod_imovel":"RJ-3300308-9FA5DFAF657140A79EAAB828D5549864","num_area":"6.7353000000000000000000000000000","ind_status":"AT"},"geometry":{"type":"Polygon","coordinates":[[[-43.899,-22.4851],[-43.9055,-22.488],[-43.8992,-22.4853],[-43.899,-22.4851]]]}},{"type":"Feature","properties":{"cod_tema":"AREA_SERVIDAO_ADMINISTRATIVA_TOTAL","cod_imovel":"RJ-3300308-9FA5DFAF657140A79EAAB828D5549864","num_area":"6.7353000000000000000000000000000","ind_status":"AT"},"geometry":{"type":"Polygon","coordinates":[[[-43.899,-22.4851],[-43.9055,-22.488],[-43.8992,-22.4853],[-43.899,-22.4851]]]}},{"type":"Feature","properties":{"cod_tema":"AREA_INFRAESTRUTURA_PUBLICA","cod_imovel":"RJ-3300308-A748DA0581E545FE826AE0A2BC503237","num_area":"1.1885000000000000000000000000000","ind_status":"AT"},"geometry":{"type":"Polygon","coordinates":[[[-43.9149,-22.4567],[-43.9203,-22.4582],[-43.9151,-22.4568],[-43.9149,-22.4567]]]}},{"type":"Feature","properties":{"cod_tema":"AREA_SERVIDAO_ADMINISTRATIVA_TOTAL","cod_imovel":"RJ-3300308-A748DA0581E545FE826AE0A2BC503237","num_area":"1.1885000000000000000000000000000","ind_status":"AT"},"geometry":{"type":"Polygon","coordinates":[[[-43.9149,-22.4567],[-43.9203,-22.4582],[-43.9151,-22.4568],[-43.9149,-22.4567]]]}},{"type":"Feature","properties":{"cod_tema":"AREA_INFRAESTRUTURA_PUBLICA","cod_imovel":"RJ-3300308-89915086CFB84CE0A52B06132261CAEB","num_area":"0.6182000000000000000000000000000","ind_status":"AT"},"geometry":{"type":"Polygon","coordinates":[[[-44.0274,-22.4317],[-44.0187,-22.4264],[-44.0274,-22.4317],[-44.0274,-22.4317]]]}},{"type":"Feature","properties":{"cod_tema":"AREA_SERVIDAO_ADMINISTRATIVA_TOTAL","cod_imovel":"RJ-3300308-89915086CFB84CE0A52B06132261CAEB","num_area":"0.6182000000000000000000000000000","ind_status":"AT"},"geometry":{"type":"Polygon","coordinates":[[[-44.0274,-22.4317],[-44.0187,-22.4264],[-44.0274,-22.4317],[-44.0274,-22.4317]]]}},{"type":"Feature","properties":{"cod_tema":"AREA_UTILIDADE_PUBLICA","cod_imovel":"RJ-3300308-9C80C4B285444D45B68A5CF9C6E29B2A","num_area":"0.6590000000000000000000000000000","ind_status":"AT"},"geometry":{"type":"Polygon","coordinates":[[[-44.0082,-22.3446],[-44.0091,-22.3405],[-44.0027,-22.3371],[-44.0091,-22.3405],[-44.008,-22.3443],[-44.0082,-22.3446]]]}},{"type":"Feature","properties":{"cod_tema":"AREA_SERVIDAO_ADMINISTRATIVA_TOTAL","cod_imovel":"RJ-3300308-9C80C4B285444D45B68A5CF9C6E29B2A","num_area":"0.6590000000000000000000000000000","ind_status":"AT"},"geometry":{"type":"Polygon","coordinates":[[[-44.0082,-22.3446],[-44.0091,-22.3405],[-44.0027,-22.3371],[-44.0091,-22.3405],[-44.008,-22.3443],[-44.0082,-22.3446]]]}},{"type":"Feature","properties":{"cod_tema":"AREA_UTILIDADE_PUBLICA","cod_imovel":"RJ-3300308-A44FEB136A724BD7B7AD7F9C5D37DF68","num_area":"0.3810000000000000000000000000000","ind_status":"AT"},"geometry":{"type":"Polygon","coordinates":[[[-43.9888,-22.3406],[-43.9957,-22.3385],[-43.9893,-22.3399],[-43.9888,-22.3406]]]}},{"type":"Feature","properties":{"cod_tema":"AREA_SERVIDAO_ADMINISTRATIVA_TOTAL","cod_imovel":"RJ-3300308-A44FEB136A724BD7B7AD7F9C5D37DF68","num_area":"0.3810000000000000000000000000000","ind_status":"AT"},"geometry":{"type":"Polygon","coordinates":[[[-43.9888,-22.3406],[-43.9957,-22.3385],[-43.9893,-22.3399],[-43.9888,-22.3406]]]}},{"type":"Feature","properties":{"cod_tema":"AREA_INFRAESTRUTURA_PUBLICA","cod_imovel":"RJ-3300308-74F3579928F245358DC1AEA8443AA2FA","num_area":"23.722500000000000000000000000000","ind_status":"AT"},"geometry":{"type":"Polygon","coordinates":[[[-43.8568,-22.4904],[-43.8489,-22.4923],[-43.854,-22.4877],[-43.8501,-22.4868],[-43.8513,-22.4813],[-43.845,-22.4879],[-43.8498,-22.488],[-43.8486,-22.4934],[-43.8567,-22.4905],[-43.8568,-22.4904]],[[-43.8593,-22.5147],[-43.8705,-22.5121],[-43.8593,-22.5146],[-43.8593,-22.5147]]]}},{"type":"Feature","properties":{"cod_tema":"AREA_SERVIDAO_ADMINISTRATIVA_TOTAL","cod_imovel":"RJ-3300308-74F3579928F245358DC1AEA8443AA2FA","num_area":"23.722500000000000000000000000000","ind_status":"AT"},"geometry":{"type":"Polygon","coordinates":[[[-43.8568,-22.4904],[-43.8489,-22.4923],[-43.854,-22.4877],[-43.8501,-22.4868],[-43.8513,-22.4813],[-43.845,-22.4879],[-43.8498,-22.488],[-43.8486,-22.4934],[-43.8567,-22.4905],[-43.8568,-22.4904]],[[-43.8593,-22.5147],[-43.8705,-22.5121],[-43.8593,-22.5146],[-43.8593,-22.5147]]]}},{"type":"Feature","properties":{"cod_tema":"AREA_UTILIDADE_PUBLICA","cod_imovel":"RJ-3300308-470935C4E57944F8A34F5F5158188034","num_area":"0.8454000000000000000000000000000","ind_status":"AT"},"geometry":{"type":"Polygon","coordinates":[[[-44.0433,-22.3477],[-44.0401,-22.3394],[-44.0394,-22.3485],[-44.0431,-22.3476],[-44.0433,-22.3477]]]}},{"type":"Feature","properties":{"cod_tema":"AREA_SERVIDAO_ADMINISTRATIVA_TOTAL","cod_imovel":"RJ-3300308-470935C4E57944F8A34F5F5158188034","num_area":"0.8454000000000000000000000000000","ind_status":"AT"},"geometry":{"type":"Polygon","coordinates":[[[-44.0433,-22.3477],[-44.0401,-22.3394],[-44.0394,-22.3485],[-44.0431,-22.3476],[-44.0433,-22.3477]]]}},{"type":"Feature","properties":{"cod_tema":"AREA_INFRAESTRUTURA_PUBLICA","cod_imovel":"RJ-3300308-25BFD3603B5748549EE16C2FCF8F0346","num_area":"3.7329000000000000000000000000000","ind_status":"AT"},"geometry":{"type":"Polygon","coordinates":[[[-43.8973,-22.3444],[-43.8884,-22.3528],[-43.8921,-22.349],[-43.8973,-22.3444]],[[-43.8967,-22.3439],[-43.8881,-22.3525],[-43.8947,-22.3459],[-43.8967,-22.3439]]]}},{"type":"Feature","properties":{"cod_tema":"AREA_UTILIDADE_PUBLICA","cod_imovel":"RJ-3300308-25BFD3603B5748549EE16C2FCF8F0346","num_area":"0.5233000000000000000000000000000","ind_status":"AT"},"geometry":{"type":"Polygon","coordinates":[[[-43.8937,-22.355],[-43.8911,-22.3471],[-43.8938,-22.3541],[-43.8937,-22.355]]]}},{"type":"Feature","properties":{"cod_tema":"AREA_SERVIDAO_ADMINISTRATIVA_TOTAL","cod_imovel":"RJ-3300308-25BFD3603B5748549EE16C2FCF8F0346","num_area":"4.2418000000000000000000000000000","ind_status":"AT"},"geometry":{"type":"Polygon","coordinates":[[[-43.8973,-22.3444],[-43.8881,-22.3525],[-43.8923,-22.3478],[-43.8884,-22.3528],[-43.8928,-22.3484],[-43.8937,-22.355],[-43.8928,-22.3484],[-43.8973,-22.3444]]]}},{"type":"Feature","properties":{"cod_tema":"AREA_UTILIDADE_PUBLICA","cod_imovel":"RJ-3300308-078C93BF2F5046DC83B1CD8F1C411E27","num_area":"0.9371000000000000000000000000000","ind_status":"AT"},"geometry":{"type":"Polygon","coordinates":[[[-44.0003,-22.4108],[-43.9965,-22.4066],[-44.0052,-22.4107],[-43.9959,-22.4061],[-43.9999,-22.4107],[-44.0003,-22.4108]]]}},{"type":"Feature","properties":{"cod_tema":"AREA_SERVIDAO_ADMINISTRATIVA_TOTAL","cod_imovel":"RJ-3300308-078C93BF2F5046DC83B1CD8F1C411E27","num_area":"0.9371000000000000000000000000000","ind_status":"AT"},"geometry":{"type":"Polygon","coordinates":[[[-44.0003,-22.4108],[-43.9965,-22.4066],[-44.0052,-22.4107],[-43.9959,-22.4061],[-43.9999,-22.4107],[-44.0003,-22.4108]]]}},{"type":"Feature","properties":{"cod_tema":"AREA_INFRAESTRUTURA_PUBLICA","cod_imovel":"RJ-3300308-044147DB566F4F4A966B9D89B4377453","num_area":"0.6227000000000000000000000000000","ind_status":"AT"},"geometry":{"type":"Polygon","coordinates":[[[-43.7552,-22.407],[-43.7659,-22.4164],[-43.7553,-22.4071],[-43.7552,-22.407]]]}},{"type":"Feature","properties":{"cod_tema":"AREA_SERVIDAO_ADMINISTRATIVA_TOTAL","cod_imovel":"RJ-3300308-044147DB566F4F4A966B9D89B4377453","num_area":"0.6227000000000000000000000000000","ind_status":"AT"},"geometry":{"type":"Polygon","coordinates":[[[-43.7552,-22.407],[-43.7659,-22.4164],[-43.7553,-22.4071],[-43.7552,-22.407]]]}},{"type":"Feature","properties":{"cod_tema":"AREA_UTILIDADE_PUBLICA","cod_imovel":"RJ-3300308-815E487CA55640FEA5E59E6B1BAC9012","num_area":"1.8591000000000000000000000000000","ind_status":"AT"},"geometry":{"type":"Polygon","coordinates":[[[-43.805,-22.5096],[-43.8104,-22.5109],[-43.8069,-22.5106],[-43.805,-22.5096]]]}},{"type":"Feature","properties":{"cod_tema":"AREA_SERVIDAO_ADMINISTRATIVA_TOTAL","cod_imovel":"RJ-3300308-815E487CA55640FEA5E59E6B1BAC9012","num_area":"1.8591000000000000000000000000000","ind_status":"AT"},"geometry":{"type":"Polygon","coordinates":[[[-43.805,-22.5096],[-43.8104,-22.5109],[-43.8069,-22.5106],[-43.805,-22.5096]]]}}]}