{"type":"FeatureCollection","features":[{"type":"Feature","properties":{"cod_tema":"AREA_INFRAESTRUTURA_PUBLICA","cod_imovel":"RJ-3300803-BAE3621DD9DC419A95B91CC1C6C39861","num_area":"9.2413000000000000000000000000000","ind_status":"PE"},"geometry":{"type":"Polygon","coordinates":[[[-42.6994,-22.5542],[-42.7022,-22.5501],[-42.699,-22.5508],[-42.6975,-22.5391],[-42.6954,-22.5515],[-42.6988,-22.5509],[-42.6954,-22.5521],[-42.6994,-22.5542],[-42.6994,-22.5542]]]}},{"type":"Feature","properties":{"cod_tema":"AREA_SERVIDAO_ADMINISTRATIVA_TOTAL","cod_imovel":"RJ-3300803-BAE3621DD9DC419A95B91CC1C6C39861","num_area":"9.2413000000000000000000000000000","ind_status":"PE"},"geometry":{"type":"Polygon","coordinates":[[[-42.6994,-22.5542],[-42.7022,-22.5501],[-42.699,-22.5508],[-42.6975,-22.5391],[-42.6954,-22.5515],[-42.6988,-22.5509],[-42.6954,-22.5521],[-42.6994,-22.5542],[-42.6994,-22.5542]]]}},{"type":"Feature","properties":{"cod_tema":"AREA_INFRAESTRUTURA_PUBLICA","cod_imovel":"RJ-3300803-05B34E478E414AA38BB9F78569497D5C","num_area":"0.2160000000000000000000000000000","ind_status":"AT"},"geometry":{"type":"Polygon","coordinates":[[[-42.8563,-22.529],[-42.8599,-22.5281],[-42.8563,-22.529],[-42.8563,-22.529]]]}},{"type":"Feature","properties":{"cod_tema":"AREA_SERVIDAO_ADMINISTRATIVA_TOTAL","cod_imovel":"RJ-3300803-05B34E478E414AA38BB9F78569497D5C","num_area":"0.2160000000000000000000000000000","ind_status":"AT"},"geometry":{"type":"Polygon","coordinates":[[[-42.8563,-22.529],[-42.8599,-22.5281],[-42.8563,-22.529],[-42.8563,-22.529]]]}},{"type":"Feature","properties":{"cod_tema":"AREA_INFRAESTRUTURA_PUBLICA","cod_imovel":"RJ-3300803-F7A50C3765BC42D2B7F85B1ED34FCAEB","num_area":"0.3739000000000000000000000000000","ind_status":"PE"},"geometry":{"type":"Polygon","coordinates":[[[-42.5996,-22.5907],[-42.5923,-22.5894],[-42.6008,-22.5921],[-42.5996,-22.5907]]]}},{"type":"Feature","properties":{"cod_tema":"AREA_SERVIDAO_ADMINISTRATIVA_TOTAL","cod_imovel":"RJ-3300803-F7A50C3765BC42D2B7F85B1ED34FCAEB","num_area":"0.3739000000000000000000000000000","ind_status":"PE"},"geometry":{"type":"Polygon","coordinates":[[[-42.5996,-22.5907],[-42.5923,-22.5894],[-42.6008,-22.5921],[-42.5996,-22.5907]]]}},{"type":"Feature","properties":{"cod_tema":"AREA_INFRAESTRUTURA_PUBLICA","cod_imovel":"RJ-3300803-10BDC44EB6FB46AE8D5E2996684CF4D9","num_area":"0.1180000000000000000000000000000","ind_status":"AT"},"geometry":{"type":"Polygon","coordinates":[[[-42.8049,-22.6087],[-42.8015,-22.608],[-42.8047,-22.6084],[-42.8049,-22.6087]]]}},{"type":"Feature","properties":{"cod_tema":"AREA_SERVIDAO_ADMINISTRATIVA_TOTAL","cod_imovel":"RJ-3300803-10BDC44EB6FB46AE8D5E2996684CF4D9","num_area":"0.1180000000000000000000000000000","ind_status":"AT"},"geometry":{"type":"Polygon","coordinates":[[[-42.8049,-22.6087],[-42.8015,-22.608],[-42.8047,-22.6084],[-42.8049,-22.6087]]]}},{"type":"Feature","properties":{"cod_tema":"AREA_INFRAESTRUTURA_PUBLICA","cod_imovel":"RJ-3300803-1FC65EE3745A4E7D9496DC3DFEDAD0E2","num_area":"0.2773000000000000000000000000000","ind_status":"AT"},"geometry":{"type":"Polygon","coordinates":[[[-42.7751,-22.4767],[-42.7795,-22.4771],[-42.7755,-22.4768],[-42.7751,-22.4767]]]}},{"type":"Feature","properties":{"cod_tema":"AREA_SERVIDAO_ADMINISTRATIVA_TOTAL","cod_imovel":"RJ-3300803-1FC65EE3745A4E7D9496DC3DFEDAD0E2","num_area":"0.2773000000000000000000000000000","ind_status":"AT"},"geometry":{"type":"Polygon","coordinates":[[[-42.7751,-22.4767],[-42.7795,-22.4771],[-42.7755,-22.4768],[-42.7751,-22.4767]]]}},{"type":"Feature","properties":{"cod_tema":"AREA_UTILIDADE_PUBLICA","cod_imovel":"RJ-3300803-2696ED2F4EF343448DFDBD8D1E51C633","num_area":"0.4541000000000000000000000000000","ind_status":"AT"},"geometry":{"type":"Polygon","coordinates":[[[-42.8172,-22.5026],[-42.8194,-22.5052],[-42.8172,-22.5026],[-42.8172,-22.5026]]]}},{"type":"Feature","properties":{"cod_tema":"AREA_SERVIDAO_ADMINISTRATIVA_TOTAL","cod_imovel":"RJ-3300803-2696ED2F4EF343448DFDBD8D1E51C633","num_area":"0.4541000000000000000000000000000","ind_status":"AT"},"geometry":{"type":"Polygon","coordinates":[[[-42.8172,-22.5026],[-42.8194,-22.5052],[-42.8172,-22.5026],[-42.8172,-22.5026]]]}},{"type":"Feature","properties":{"cod_tema":"AREA_INFRAESTRUTURA_PUBLICA","cod_imovel":"RJ-3300803-411B9269003F4D2BB4D0F848B8853712","num_area":"0.3932000000000000000000000000000","ind_status":"AT"},"geometry":{"type":"Polygon","coordinates":[[[-42.7184,-22.5618],[-42.72,-22.5659],[-42.7185,-22.562],[-42.7184,-22.5618]]]}},{"type":"Feature","properties":{"cod_tema":"AREA_SERVIDAO_ADMINISTRATIVA_TOTAL","cod_imovel":"RJ-3300803-411B9269003F4D2BB4D0F848B8853712","num_area":"0.3932000000000000000000000000000","ind_status":"AT"},"geometry":{"type":"Polygon","coordinates":[[[-42.7184,-22.5618],[-42.72,-22.5659],[-42.7185,-22.562],[-42.7184,-22.5618]]]}},{"type":"Feature","properties":{"cod_tema":"AREA_UTILIDADE_PUBLICA","cod_imovel":"RJ-3300803-44180F3F8CE043B18495C51247E9409F","num_area":"0.1955000000000000000000000000000","ind_status":"AT"},"geometry":{"type":"Polygon","coordinates":[[[-42.6107,-22.5207],[-42.6026,-22.5221],[-42.6107,-22.5206],[-42.6107,-22.5207]]]}},{"type":"Feature","properties":{"cod_tema":"AREA_SERVIDAO_ADMINISTRATIVA_TOTAL","cod_imovel":"RJ-3300803-44180F3F8CE043B18495C51247E9409F","num_area":"0.1955000000000000000000000000000","ind_status":"AT"},"geometry":{"type":"Polygon","coordinates":[[[-42.6107,-22.5207],[-42.6026,-22.5221],[-42.6107,-22.5206],[-42.6107,-22.5207]]]}},{"type":"Feature","properties":{"cod_tema":"AREA_INFRAESTRUTURA_PUBLICA","cod_imovel":"RJ-3300803-461633CFE9344A8C9183A438933873A3","num_area":"0.1478000000000000000000000000000","ind_status":"AT"},"geometry":{"type":"Polygon","coordinates":[[[-42.8252,-22.6346],[-42.8255,-22.6309],[-42.8252,-22.6346],[-42.8252,-22.6346]]]}},{"type":"Feature","properties":{"cod_tema":"AREA_SERVIDAO_ADMINISTRATIVA_TOTAL","cod_imovel":"RJ-3300803-461633CFE9344A8C9183A438933873A3","num_area":"0.1478000000000000000000000000000","ind_status":"AT"},"geometry":{"type":"Polygon","coordinates":[[[-42.8252,-22.6346],[-42.8255,-22.6309],[-42.8252,-22.6346],[-42.8252,-22.6346]]]}},{"type":"Feature","properties":{"cod_tema":"AREA_UTILIDADE_PUBLICA","cod_imovel":"RJ-3300803-54E63057CC8B4EE2975750905B23C053","num_area":"0.3088000000000000000000000000000","ind_status":"AT"},"geometry":{"type":"Polygon","coordinates":[[[-42.8223,-22.5231],[-42.8188,-22.523],[-42.8221,-22.523],[-42.8223,-22.5231]]]}},{"type":"Feature","properties":{"cod_tema":"AREA_SERVIDAO_ADMINISTRATIVA_TOTAL","cod_imovel":"RJ-3300803-54E63057CC8B4EE2975750905B23C053","num_area":"0.3088000000000000000000000000000","ind_status":"AT"},"geometry":{"type":"Polygon","coordinates":[[[-42.8223,-22.5231],[-42.8188,-22.523],[-42.8221,-22.523],[-42.8223,-22.5231]]]}},{"type":"Feature","properties":{"cod_tema":"AREA_UTILIDADE_PUBLICA","cod_imovel":"RJ-3300803-5AD7BC12B5C341568EA699ACA504EFFD","num_area":"0.4060000000000000000000000000000","ind_status":"AT"},"geometry":{"type":"Polygon","coordinates":[[[-42.6177,-22.4388],[-42.6227,-22.4429],[-42.6186,-22.4396],[-42.6177,-22.4388]]]}},{"type":"Feature","properties":{"cod_tema":"AREA_SERVIDAO_ADMINISTRATIVA_TOTAL","cod_imovel":"RJ-3300803-5AD7BC12B5C341568EA699ACA504EFFD","num_area":"0.4984000000000000000000000000000","ind_status":"AT"},"geometry":{"type":"Polygon","coordinates":[[[-42.6216,-22.4432],[-42.6176,-22.4388],[-42.6216,-22.4432],[-42.6216,-22.4432]]]}},{"type":"Feature","properties":{"cod_tema":"AREA_INFRAESTRUTURA_PUBLICA","cod_imovel":"RJ-3300803-66F65E8350E04422AE839BE9180529BE","num_area":"0.1338000000000000000000000000000","ind_status":"AT"},"geometry":{"type":"Polygon","coordinates":[[[-42.7328,-22.4987],[-42.7297,-22.4997],[-42.7326,-22.4988],[-42.7328,-22.4987]]]}},{"type":"Feature","properties":{"cod_tema":"AREA_SERVIDAO_ADMINISTRATIVA_TOTAL","cod_imovel":"RJ-3300803-66F65E8350E04422AE839BE9180529BE","num_area":"0.1338000000000000000000000000000","ind_status":"AT"},"geometry":{"type":"Polygon","coordinates":[[[-42.7328,-22.4987],[-42.7297,-22.4997],[-42.7326,-22.4988],[-42.7328,-22.4987]]]}},{"type":"Feature","properties":{"cod_tema":"AREA_INFRAESTRUTURA_PUBLICA","cod_imovel":"RJ-3300803-68A24A185B984DC7AF4A575E479BFCB2","num_area":"0.2705000000000000000000000000000","ind_status":"AT"},"geometry":{"type":"Polygon","coordinates":[[[-42.7206,-22.5557],[-42.7167,-22.5579],[-42.7206,-22.5557],[-42.7206,-22.5557]]]}},{"type":"Feature","properties":{"cod_tema":"AREA_SERVIDAO_ADMINISTRATIVA_TOTAL","cod_imovel":"RJ-3300803-68A24A185B984DC7AF4A575E479BFCB2","num_area":"0.2705000000000000000000000000000","ind_status":"AT"},"geometry":{"type":"Polygon","coordinates":[[[-42.7206,-22.5557],[-42.7167,-22.5579],[-42.7206,-22.5557],[-42.7206,-22.5557]]]}},{"type":"Feature","properties":{"cod_tema":"AREA_UTILIDADE_PUBLICA","cod_imovel":"RJ-3300803-72EC2534EBF54DF19728CA196DB8CE30","num_area":"0.1184000000000000000000000000000","ind_status":"AT"},"geometry":{"type":"Polygon","coordinates":[[[-42.7029,-22.5141],[-42.701,-22.5168],[-42.7029,-22.5141],[-42.7029,-22.5141]]]}},{"type":"Feature","properties":{"cod_tema":"AREA_SERVIDAO_ADMINISTRATIVA_TOTAL","cod_imovel":"RJ-3300803-72EC2534EBF54DF19728CA196DB8CE30","num_area":"0.1184000000000000000000000000000","ind_status":"AT"},"geometry":{"type":"Polygon","coordinates":[[[-42.7029,-22.5141],[-42.701,-22.5168],[-42.7029,-22.5141],[-42.7029,-22.5141]]]}},{"type":"Feature","properties":{"cod_tema":"AREA_INFRAESTRUTURA_PUBLICA","cod_imovel":"RJ-3300803-7DABCA0362954BBE8EA939CBE34F1B55","num_area":"0.1906000000000000000000000000000","ind_status":"AT"},"geometry":{"type":"Polygon","coordinates":[[[-42.8368,-22.6279],[-42.8386,-22.6226],[-42.8368,-22.6279],[-42.8368,-22.6279]]]}},{"type":"Feature","properties":{"cod_tema":"AREA_SERVIDAO_ADMINISTRATIVA_TOTAL","cod_imovel":"RJ-3300803-7DABCA0362954BBE8EA939CBE34F1B55","num_area":"0.1906000000000000000000000000000","ind_status":"AT"},"geometry":{"type":"Polygon","coordinates":[[[-42.8368,-22.6279],[-42.8386,-22.6226],[-42.8368,-22.6279],[-42.8368,-22.6279]]]}},{"type":"Feature","properties":{"cod_tema":"AREA_INFRAESTRUTURA_PUBLICA","cod_imovel":"RJ-3300803-7EFCEB51DEEF46EAAEC1BE9A2F44D93F","num_area":"0.0846000000000000000000000000000","ind_status":"AT"},"geometry":{"type":"Polygon","coordinates":[[[-42.7374,-22.5591],[-42.7344,-22.5576],[-42.7374,-22.5591],[-42.7374,-22.5591]]]}},{"type":"Feature","properties":{"cod_tema":"AREA_SERVIDAO_ADMINISTRATIVA_TOTAL","cod_imovel":"RJ-3300803-7EFCEB51DEEF46EAAEC1BE9A2F44D93F","num_area":"0.0846000000000000000000000000000","ind_status":"AT"},"geometry":{"type":"Polygon","coordinates":[[[-42.7374,-22.5591],[-42.7344,-22.5576],[-42.7374,-22.5591],[-42.7374,-22.5591]]]}},{"type":"Feature","properties":{"cod_tema":"AREA_INFRAESTRUTURA_PUBLICA","cod_imovel":"RJ-3300803-86AF68FD4F344E929B592EB92C116FD0","num_area":"0.0961000000000000000000000000000","ind_status":"AT"},"geometry":{"type":"Polygon","coordinates":[[[-42.638,-22.5062],[-42.632,-22.5015],[-42.6377,-22.5059],[-42.638,-22.5062]]]}},{"type":"Feature","properties":{"cod_tema":"AREA_SERVIDAO_ADMINISTRATIVA_TOTAL","cod_imovel":"RJ-3300803-86AF68FD4F344E929B592EB92C116FD0","num_area":"0.0961000000000000000000000000000","ind_status":"AT"},"geometry":{"type":"Polygon","coordinates":[[[-42.638,-22.5062],[-42.632,-22.5015],[-42.6377,-22.5059],[-42.638,-22.5062]]]}},{"type":"Feature","properties":{"cod_tema":"AREA_INFRAESTRUTURA_PUBLICA","cod_imovel":"RJ-3300803-8385F50E7C6D416584D1ACAAA80BBBF0","num_area":"0.1689000000000000000000000000000","ind_status":"AT"},"geometry":{"type":"Polygon","coordinates":[[[-42.8401,-22.6228],[-42.8385,-22.6261],[-42.8401,-22.6228],[-42.8401,-22.6228]]]}},{"type":"Feature","properties":{"cod_tema":"AREA_SERVIDAO_ADMINISTRATIVA_TOTAL","cod_imovel":"RJ-3300803-8385F50E7C6D416584D1ACAAA80BBBF0","num_area":"0.1689000000000000000000000000000","ind_status":"AT"},"geometry":{"type":"Polygon","coordinates":[[[-42.8401,-22.6228],[-42.8385,-22.6261],[-42.8401,-22.6228],[-42.8401,-22.6228]]]}},{"type":"Feature","properties":{"cod_tema":"AREA_INFRAESTRUTURA_PUBLICA","cod_imovel":"RJ-3300803-8D26E119243D4DDE8B3E7BB9A3101584","num_area":"0.3564000000000000000000000000000","ind_status":"AT"},"geometry":{"type":"Polygon","coordinates":[[[-42.8062,-22.4978],[-42.8095,-22.4987],[-42.8064,-22.4979],[-42.8062,-22.4978]]]}},{"type":"Feature","properties":{"cod_tema":"AREA_SERVIDAO_ADMINISTRATIVA_TOTAL","cod_imovel":"RJ-3300803-8D26E119243D4DDE8B3E7BB9A3101584","num_area":"0.3564000000000000000000000000000","ind_status":"AT"},"geometry":{"type":"Polygon","coordinates":[[[-42.8062,-22.4978],[-42.8095,-22.4987],[-42.8064,-22.4979],[-42.8062,-22.4978]]]}},{"type":"Feature","properties":{"cod_tema":"AREA_UTILIDADE_PUBLICA","cod_imovel":"RJ-3300803-8FB593AB7E1F413AA0ADAB1CAFE990A4","num_area":"0.2609000000000000000000000000000","ind_status":"AT"},"geometry":{"type":"Polygon","coordinates":[[[-42.6154,-22.4386],[-42.6185,-22.4395],[-42.6155,-22.4386],[-42.6154,-22.4386]]]}},{"type":"Feature","properties":{"cod_tema":"AREA_SERVIDAO_ADMINISTRATIVA_TOTAL","cod_imovel":"RJ-3300803-8FB593AB7E1F413AA0ADAB1CAFE990A4","num_area":"0.2609000000000000000000000000000","ind_status":"AT"},"geometry":{"type":"Polygon","coordinates":[[[-42.6154,-22.4386],[-42.6185,-22.4395],[-42.6155,-22.4386],[-42.6154,-22.4386]]]}},{"type":"Feature","properties":{"cod_tema":"AREA_INFRAESTRUTURA_PUBLICA","cod_imovel":"RJ-3300803-AD455064D86947B7801F74140FCC9DD7","num_area":"0.6432000000000000000000000000000","ind_status":"AT"},"geometry":{"type":"Polygon","coordinates":[[[-42.7215,-22.5673],[-42.7205,-22.5713],[-42.7215,-22.5673],[-42.7215,-22.5673]]]}},{"type":"Feature","properties":{"cod_tema":"AREA_SERVIDAO_ADMINISTRATIVA_TOTAL","cod_imovel":"RJ-3300803-AD455064D86947B7801F74140FCC9DD7","num_area":"0.6432000000000000000000000000000","ind_status":"AT"},"geometry":{"type":"Polygon","coordinates":[[[-42.7215,-22.5673],[-42.7205,-22.5713],[-42.7215,-22.5673],[-42.7215,-22.5673]]]}},{"type":"Feature","properties":{"cod_tema":"AREA_INFRAESTRUTURA_PUBLICA","cod_imovel":"RJ-3300803-AF65C98D8A744B73BA655626DC875464","num_area":"0.2881000000000000000000000000000","ind_status":"AT"},"geometry":{"type":"Polygon","coordinates":[[[-42.734,-22.6201],[-42.7346,-22.6231],[-42.734,-22.6201],[-42.734,-22.6201]]]}},{"type":"Feature","properties":{"cod_tema":"AREA_SERVIDAO_ADMINISTRATIVA_TOTAL","cod_imovel":"RJ-3300803-AF65C98D8A744B73BA655626DC875464","num_area":"0.2881000000000000000000000000000","ind_status":"AT"},"geometry":{"type":"Polygon","coordinates":[[[-42.734,-22.6201],[-42.7346,-22.6231],[-42.734,-22.6201],[-42.734,-22.6201]]]}},{"type":"Feature","properties":{"cod_tema":"AREA_INFRAESTRUTURA_PUBLICA","cod_imovel":"RJ-3300803-B2BBC1F956A84A2CA491FE24A26E0D50","num_area":"0.1810000000000000000000000000000","ind_status":"AT"},"geometry":{"type":"Polygon","coordinates":[[[-42.8212,-22.6249],[-42.8254,-22.6241],[-42.8212,-22.6249],[-42.8212,-22.6249]]]}},{"type":"Feature","properties":{"cod_tema":"AREA_SERVIDAO_ADMINISTRATIVA_TOTAL","cod_imovel":"RJ-3300803-B2BBC1F956A84A2CA491FE24A26E0D50","num_area":"0.1810000000000000000000000000000","ind_status":"AT"},"geometry":{"type":"Polygon","coordinates":[[[-42.8212,-22.6249],[-42.8254,-22.6241],[-42.8212,-22.6249],[-42.8212,-22.6249]]]}},{"type":"Feature","properties":{"cod_tema":"AREA_INFRAESTRUTURA_PUBLICA","cod_imovel":"RJ-3300803-B52797530B9346329243B34C8D342791","num_area":"0.3049000000000000000000000000000","ind_status":"AT"},"geometry":{"type":"Polygon","coordinates":[[[-42.8638,-22.5604],[-42.8597,-22.563],[-42.8638,-22.5604],[-42.8638,-22.5604]]]}},{"type":"Feature","properties":{"cod_tema":"AREA_SERVIDAO_ADMINISTRATIVA_TOTAL","cod_imovel":"RJ-3300803-B52797530B9346329243B34C8D342791","num_area":"0.3049000000000000000000000000000","ind_status":"AT"},"geometry":{"type":"Polygon","coordinates":[[[-42.8638,-22.5604],[-42.8597,-22.563],[-42.8638,-22.5604],[-42.8638,-22.5604]]]}},{"type":"Feature","properties":{"cod_tema":"AREA_INFRAESTRUTURA_PUBLICA","cod_imovel":"RJ-3300803-B695B1ED4F1C4495BBC040514F5685C2","num_area":"0.2698000000000000000000000000000","ind_status":"AT"},"geometry":{"type":"Polygon","coordinates":[[[-42.8354,-22.5885],[-42.8398,-22.5874],[-42.8356,-22.5886],[-42.8354,-22.5885]],[[-42.8402,-22.5913],[-42.8402,-22.5873],[-42.8402,-22.5913],[-42.8402,-22.5913]]]}},{"type":"Feature","properties":{"cod_tema":"AREA_SERVIDAO_ADMINISTRATIVA_TOTAL","cod_imovel":"RJ-3300803-B695B1ED4F1C4495BBC040514F5685C2","num_area":"0.2698000000000000000000000000000","ind_status":"AT"},"geometry":{"type":"Polygon","coordinates":[[[-42.8354,-22.5885],[-42.8398,-22.5874],[-42.8356,-22.5886],[-42.8354,-22.5885]],[[-42.8402,-22.5913],[-42.8402,-22.5873],[-42.8402,-22.5913],[-42.8402,-22.5913]]]}},{"type":"Feature","properties":{"cod_tema":"AREA_UTILIDADE_PUBLICA","cod_imovel":"RJ-3300803-D679E4BF0E1441D79374448F0E7754D2","num_area":"0.2031000000000000000000000000000","ind_status":"AT"},"geometry":{"type":"Polygon","coordinates":[[[-42.7323,-22.5122],[-42.736,-22.5121],[-42.732,-22.5124],[-42.7323,-22.5122]]]}},{"type":"Feature","properties":{"cod_tema":"AREA_SERVIDAO_ADMINISTRATIVA_TOTAL","cod_imovel":"RJ-3300803-D679E4BF0E1441D79374448F0E7754D2","num_area":"0.2031000000000000000000000000000","ind_status":"AT"},"geometry":{"type":"Polygon","coordinates":[[[-42.7323,-22.5122],[-42.736,-22.5121],[-42.732,-22.5124],[-42.7323,-22.5122]]]}},{"type":"Feature","properties":{"cod_tema":"AREA_INFRAESTRUTURA_PUBLICA","cod_imovel":"RJ-3300803-C3C92BDE9A814DE1AE190CC9C282BD54","num_area":"0.2923000000000000000000000000000","ind_status":"AT"},"geometry":{"type":"Polygon","coordinates":[[[-42.6679,-22.5832],[-42.6721,-22.583],[-42.6679,-22.5832],[-42.6679,-22.5832]]]}},{"type":"Feature","properties":{"cod_tema":"AREA_SERVIDAO_ADMINISTRATIVA_TOTAL","cod_imovel":"RJ-3300803-C3C92BDE9A814DE1AE190CC9C282BD54","num_area":"0.2923000000000000000000000000000","ind_status":"AT"},"geometry":{"type":"Polygon","coordinates":[[[-42.6679,-22.5832],[-42.6721,-22.583],[-42.6679,-22.5832],[-42.6679,-22.5832]]]}},{"type":"Feature","properties":{"cod_tema":"AREA_INFRAESTRUTURA_PUBLICA","cod_imovel":"RJ-3300803-C45C9118FB4449B78FB5584084147177","num_area":"0.2515000000000000000000000000000","ind_status":"AT"},"geometry":{"type":"Polygon","coordinates":[[[-42.8322,-22.6238],[-42.8254,-22.6243],[-42.8318,-22.6238],[-42.8322,-22.6238]]]}},{"type":"Feature","properties":{"cod_tema":"AREA_SERVIDAO_ADMINISTRATIVA_TOTAL","cod_imovel":"RJ-3300803-C45C9118FB4449B78FB5584084147177","num_area":"0.2515000000000000000000000000000","ind_status":"AT"},"geometry":{"type":"Polygon","coordinates":[[[-42.8322,-22.6238],[-42.8254,-22.6243],[-42.8318,-22.6238],[-42.8322,-22.6238]]]}},{"type":"Feature","properties":{"cod_tema":"AREA_INFRAESTRUTURA_PUBLICA","cod_imovel":"RJ-3300803-D5B5475EB94C41E7A108DF445F3556C8","num_area":"0.7554000000000000000000000000000","ind_status":"AT"},"geometry":{"type":"Polygon","coordinates":[[[-42.7447,-22.6178],[-42.7471,-22.6199],[-42.7448,-22.6177],[-42.7447,-22.6178]]]}},{"type":"Feature","properties":{"cod_tema":"AREA_SERVIDAO_ADMINISTRATIVA_TOTAL","cod_imovel":"RJ-3300803-D5B5475EB94C41E7A108DF445F3556C8","num_area":"0.7554000000000000000000000000000","ind_status":"AT"},"geometry":{"type":"Polygon","coordinates":[[[-42.7447,-22.6178],[-42.7471,-22.6199],[-42.7448,-22.6177],[-42.7447,-22.6178]]]}},{"type":"Feature","properties":{"cod_tema":"AREA_INFRAESTRUTURA_PUBLICA","cod_imovel":"RJ-3300803-DDA3235EFDC4406EBA6001847AACCF93","num_area":"0.2586000000000000000000000000000","ind_status":"AT"},"geometry":{"type":"Polygon","coordinates":[[[-42.8394,-22.5421],[-42.8346,-22.5413],[-42.8393,-22.5421],[-42.8394,-22.5421]]]}},{"type":"Feature","properties":{"cod_tema":"AREA_SERVIDAO_ADMINISTRATIVA_TOTAL","cod_imovel":"RJ-3300803-DDA3235EFDC4406EBA6001847AACCF93","num_area":"0.2586000000000000000000000000000","ind_status":"AT"},"geometry":{"type":"Polygon","coordinates":[[[-42.8394,-22.5421],[-42.8346,-22.5413],[-42.8393,-22.5421],[-42.8394,-22.5421]]]}},{"type":"Feature","properties":{"cod_tema":"AREA_INFRAESTRUTURA_PUBLICA","cod_imovel":"RJ-3300803-E146C5CB64274C1799BCE40B01AF20F2","num_area":"0.2228000000000000000000000000000","ind_status":"AT"},"geometry":{"type":"Polygon","coordinates":[[[-42.6943,-22.529],[-42.6998,-22.5278],[-42.6943,-22.529],[-42.6943,-22.529]]]}},{"type":"Feature","properties":{"cod_tema":"AREA_SERVIDAO_ADMINISTRATIVA_TOTAL","cod_imovel":"RJ-3300803-E146C5CB64274C1799BCE40B01AF20F2","num_area":"0.2228000000000000000000000000000","ind_status":"AT"},"geometry":{"type":"Polygon","coordinates":[[[-42.6943,-22.529],[-42.6998,-22.5278],[-42.6943,-22.529],[-42.6943,-22.529]]]}},{"type":"Feature","properties":{"cod_tema":"AREA_INFRAESTRUTURA_PUBLICA","cod_imovel":"RJ-3300803-E10DABC2AE444FB1B0E14D2D6214949F","num_area":"0.5128000000000000000000000000000","ind_status":"AT"},"geometry":{"type":"Polygon","coordinates":[[[-42.7321,-22.4242],[-42.7304,-22.4189],[-42.7319,-22.4238],[-42.7321,-22.4242]]]}},{"type":"Feature","properties":{"cod_tema":"AREA_SERVIDAO_ADMINISTRATIVA_TOTAL","cod_imovel":"RJ-3300803-E10DABC2AE444FB1B0E14D2D6214949F","num_area":"0.5128000000000000000000000000000","ind_status":"AT"},"geometry":{"type":"Polygon","coordinates":[[[-42.7321,-22.4242],[-42.7304,-22.4189],[-42.7319,-22.4238],[-42.7321,-22.4242]]]}},{"type":"Feature","properties":{"cod_tema":"AREA_INFRAESTRUTURA_PUBLICA","cod_imovel":"RJ-3300803-E76E4939C4C54C7EBE4CC66350B46F96","num_area":"0.1710000000000000000000000000000","ind_status":"AT"},"geometry":{"type":"Polygon","coordinates":[[[-42.7414,-22.5631],[-42.7443,-22.5645],[-42.7414,-22.5631],[-42.7414,-22.5631]]]}},{"type":"Feature","properties":{"cod_tema":"AREA_SERVIDAO_ADMINISTRATIVA_TOTAL","cod_imovel":"RJ-3300803-E76E4939C4C54C7EBE4CC66350B46F96","num_area":"0.1710000000000000000000000000000","ind_status":"AT"},"geometry":{"type":"Polygon","coordinates":[[[-42.7414,-22.5631],[-42.7443,-22.5645],[-42.7414,-22.5631],[-42.7414,-22.5631]]]}},{"type":"Feature","properties":{"cod_tema":"AREA_UTILIDADE_PUBLICA","cod_imovel":"RJ-3300803-C0C656385977497EA5863DA870388791","num_area":"0.1604000000000000000000000000000","ind_status":"AT"},"geometry":{"type":"Polygon","coordinates":[[[-42.6648,-22.4792],[-42.6627,-22.4822],[-42.6646,-22.4793],[-42.6648,-22.4792]]]}},{"type":"Feature","properties":{"cod_tema":"AREA_SERVIDAO_ADMINISTRATIVA_TOTAL","cod_imovel":"RJ-3300803-C0C656385977497EA5863DA870388791","num_area":"0.1604000000000000000000000000000","ind_status":"AT"},"geometry":{"type":"Polygon","coordinates":[[[-42.6648,-22.4792],[-42.6627,-22.4822],[-42.6646,-22.4793],[-42.6648,-22.4792]]]}},{"type":"Feature","properties":{"cod_tema":"AREA_INFRAESTRUTURA_PUBLICA","cod_imovel":"RJ-3300803-672F35B91964400789031D103AE2BD05","num_area":"0.3267000000000000000000000000000","ind_status":"AT"},"geometry":{"type":"Polygon","coordinates":[[[-42.7909,-22.5296],[-42.7875,-22.5337],[-42.7907,-22.5297],[-42.7909,-22.5296]]]}},{"type":"Feature","properties":{"cod_tema":"AREA_SERVIDAO_ADMINISTRATIVA_TOTAL","cod_imovel":"RJ-3300803-672F35B91964400789031D103AE2BD05","num_area":"0.3267000000000000000000000000000","ind_status":"AT"},"geometry":{"type":"Polygon","coordinates":[[[-42.7909,-22.5296],[-42.7875,-22.5337],[-42.7907,-22.5297],[-42.7909,-22.5296]]]}},{"type":"Feature","properties":{"cod_tema":"AREA_INFRAESTRUTURA_PUBLICA","cod_imovel":"RJ-3300803-2BB29B45FFA44A2E93DA66465DD3B61E","num_area":"1.4234000000000000000000000000000","ind_status":"AT"},"geometry":{"type":"Polygon","coordinates":[[[-42.7516,-22.5056],[-42.7432,-22.5084],[-42.7516,-22.5056],[-42.7516,-22.5056]]]}},{"type":"Feature","properties":{"cod_tema":"AREA_SERVIDAO_ADMINISTRATIVA_TOTAL","cod_imovel":"RJ-3300803-2BB29B45FFA44A2E93DA66465DD3B61E","num_area":"1.4234000000000000000000000000000","ind_status":"AT"},"geometry":{"type":"Polygon","coordinates":[[[-42.7516,-22.5056],[-42.7432,-22.5084],[-42.7516,-22.5056],[-42.7516,-22.5056]]]}},{"type":"Feature","properties":{"cod_tema":"AREA_INFRAESTRUTURA_PUBLICA","cod_imovel":"RJ-3300803-B57F615EC9894A7280C66DDF2CB41C62","num_area":"0.2137000000000000000000000000000","ind_status":"AT"},"geometry":{"type":"Polygon","coordinates":[[[-42.6076,-22.4823],[-42.6043,-22.4819],[-42.6075,-22.4824],[-42.6076,-22.4823]]]}},{"type":"Feature","properties":{"cod_tema":"AREA_SERVIDAO_ADMINISTRATIVA_TOTAL","cod_imovel":"RJ-3300803-B57F615EC9894A7280C66DDF2CB41C62","num_area":"0.2137000000000000000000000000000","ind_status":"AT"},"geometry":{"type":"Polygon","coordinates":[[[-42.6076,-22.4823],[-42.6043,-22.4819],[-42.6075,-22.4824],[-42.6076,-22.4823]]]}},{"type":"Feature","properties":{"cod_tema":"AREA_UTILIDADE_PUBLICA","cod_imovel":"RJ-3300803-EBABEF8C32C44F88AB687455E1831C63","num_area":"0.9064000000000000000000000000000","ind_status":"AT"},"geometry":{"type":"Polygon","coordinates":[[[-42.7577,-22.4744],[-42.7507,-22.4754],[-42.7558,-22.4745],[-42.7548,-22.4812],[-42.7577,-22.4744],[-42.7577,-22.4744]]]}},{"type":"Feature","properties":{"cod_tema":"AREA_SERVIDAO_ADMINISTRATIVA_TOTAL","cod_imovel":"RJ-3300803-EBABEF8C32C44F88AB687455E1831C63","num_area":"0.9064000000000000000000000000000","ind_status":"AT"},"geometry":{"type":"Polygon","coordinates":[[[-42.7577,-22.4744],[-42.7507,-22.4754],[-42.7558,-22.4745],[-42.7548,-22.4812],[-42.7577,-22.4744],[-42.7577,-22.4744]]]}},{"type":"Feature","properties":{"cod_tema":"AREA_INFRAESTRUTURA_PUBLICA","cod_imovel":"RJ-3300803-49388D04013C430589500E883E78CDB3","num_area":"0.3473000000000000000000000000000","ind_status":"AT"},"geometry":{"type":"Polygon","coordinates":[[[-42.6047,-22.5096],[-42.5965,-22.508],[-42.6047,-22.5096],[-42.6047,-22.5096]]]}},{"type":"Feature","properties":{"cod_tema":"AREA_SERVIDAO_ADMINISTRATIVA_TOTAL","cod_imovel":"RJ-3300803-49388D04013C430589500E883E78CDB3","num_area":"0.3473000000000000000000000000000","ind_status":"AT"},"geometry":{"type":"Polygon","coordinates":[[[-42.6047,-22.5096],[-42.5965,-22.508],[-42.6047,-22.5096],[-42.6047,-22.5096]]]}},{"type":"Feature","properties":{"cod_tema":"AREA_INFRAESTRUTURA_PUBLICA","cod_imovel":"RJ-3300803-D4F267326D2B49A290A026F20D1382E3","num_area":"0.7130000000000000000000000000000","ind_status":"AT"},"geometry":{"type":"Polygon","coordinates":[[[-42.6447,-22.4499],[-42.6417,-22.4464],[-42.6447,-22.4499],[-42.6447,-22.4499]]]}},{"type":"Feature","properties":{"cod_tema":"AREA_SERVIDAO_ADMINISTRATIVA_TOTAL","cod_imovel":"RJ-3300803-D4F267326D2B49A290A026F20D1382E3","num_area":"0.7130000000000000000000000000000","ind_status":"AT"},"geometry":{"type":"Polygon","coordinates":[[[-42.6447,-22.4499],[-42.6417,-22.4464],[-42.6447,-22.4499],[-42.6447,-22.4499]]]}},{"type":"Feature","properties":{"cod_tema":"AREA_INFRAESTRUTURA_PUBLICA","cod_imovel":"RJ-3300803-0FFD48672751471F8669E556B7954CBC","num_area":"0.2963000000000000000000000000000","ind_status":"AT"},"geometry":{"type":"Polygon","coordinates":[[[-42.6107,-22.5108],[-42.6058,-22.5096],[-42.6106,-22.5107],[-42.6107,-22.5108]]]}},{"type":"Feature","properties":{"cod_tema":"AREA_SERVIDAO_ADMINISTRATIVA_TOTAL","cod_imovel":"RJ-3300803-0FFD48672751471F8669E556B7954CBC","num_area":"0.2963000000000000000000000000000","ind_status":"AT"},"geometry":{"type":"Polygon","coordinates":[[[-42.6107,-22.5108],[-42.6058,-22.5096],[-42.6106,-22.5107],[-42.6107,-22.5108]]]}},{"type":"Feature","properties":{"cod_tema":"AREA_UTILIDADE_PUBLICA","cod_imovel":"RJ-3300803-EE1A6F084E6E4732ACDEFDFE4E81B8BE","num_area":"0.9064000000000000000000000000000","ind_status":"CA"},"geometry":{"type":"Polygon","coordinates":[[[-42.7577,-22.4744],[-42.7507,-22.4754],[-42.7558,-22.4745],[-42.7548,-22.4812],[-42.7577,-22.4744],[-42.7577,-22.4744]]]}},{"type":"Feature","properties":{"cod_tema":"AREA_SERVIDAO_ADMINISTRATIVA_TOTAL","cod_imovel":"RJ-3300803-EE1A6F084E6E4732ACDEFDFE4E81B8BE","num_area":"0.9064000000000000000000000000000","ind_status":"CA"},"geometry":{"type":"Polygon","coordinates":[[[-42.7577,-22.4744],[-42.7507,-22.4754],[-42.7558,-22.4745],[-42.7548,-22.4812],[-42.7577,-22.4744],[-42.7577,-22.4744]]]}},{"type":"Feature","properties":{"cod_tema":"AREA_INFRAESTRUTURA_PUBLICA","cod_imovel":"RJ-3300803-B3384CCA590B4D55B700B9931BE86CD6","num_area":"0.1981000000000000000000000000000","ind_status":"AT"},"geometry":{"type":"Polygon","coordinates":[[[-42.7707,-22.5476],[-42.7659,-22.5502],[-42.771,-22.5474],[-42.7707,-22.5476]]]}},{"type":"Feature","properties":{"cod_tema":"AREA_SERVIDAO_ADMINISTRATIVA_TOTAL","cod_imovel":"RJ-3300803-B3384CCA590B4D55B700B9931BE86CD6","num_area":"0.1981000000000000000000000000000","ind_status":"AT"},"geometry":{"type":"Polygon","coordinates":[[[-42.7707,-22.5476],[-42.7659,-22.5502],[-42.771,-22.5474],[-42.7707,-22.5476]]]}},{"type":"Feature","properties":{"cod_tema":"AREA_UTILIDADE_PUBLICA","cod_imovel":"RJ-3300803-C34D69B66EB941408BA0339000F5BE37","num_area":"0.2762000000000000000000000000000","ind_status":"AT"},"geometry":{"type":"Polygon","coordinates":[[[-42.6107,-22.6126],[-42.6117,-22.6155],[-42.6107,-22.6126],[-42.6107,-22.6126]]]}},{"type":"Feature","properties":{"cod_tema":"AREA_SERVIDAO_ADMINISTRATIVA_TOTAL","cod_imovel":"RJ-3300803-C34D69B66EB941408BA0339000F5BE37","num_area":"0.2762000000000000000000000000000","ind_status":"AT"},"geometry":{"type":"Polygon","coordinates":[[[-42.6107,-22.6126],[-42.6117,-22.6155],[-42.6107,-22.6126],[-42.6107,-22.6126]]]}},{"type":"Feature","properties":{"cod_tema":"AREA_INFRAESTRUTURA_PUBLICA","cod_imovel":"RJ-3300803-5D4973CE52E44D6EA416E585CD4EC599","num_area":"0.3023000000000000000000000000000","ind_status":"AT"},"geometry":{"type":"Polygon","coordinates":[[[-42.6184,-22.5183],[-42.6221,-22.52],[-42.6184,-22.5183],[-42.6184,-22.5183]]]}},{"type":"Feature","properties":{"cod_tema":"AREA_SERVIDAO_ADMINISTRATIVA_TOTAL","cod_imovel":"RJ-3300803-5D4973CE52E44D6EA416E585CD4EC599","num_area":"0.3023000000000000000000000000000","ind_status":"AT"},"geometry":{"type":"Polygon","coordinates":[[[-42.6184,-22.5183],[-42.6221,-22.52],[-42.6184,-22.5183],[-42.6184,-22.5183]]]}},{"type":"Feature","properties":{"cod_tema":"AREA_INFRAESTRUTURA_PUBLICA","cod_imovel":"RJ-3300803-8DE562ECC7014EBFB825E5CC098FB1B9","num_area":"0.4785000000000000000000000000000","ind_status":"AT"},"geometry":{"type":"Polygon","coordinates":[[[-42.8501,-22.602],[-42.8535,-22.6022],[-42.8501,-22.602],[-42.8501,-22.602]]]}},{"type":"Feature","properties":{"cod_tema":"AREA_SERVIDAO_ADMINISTRATIVA_TOTAL","cod_imovel":"RJ-3300803-8DE562ECC7014EBFB825E5CC098FB1B9","num_area":"0.4785000000000000000000000000000","ind_status":"AT"},"geometry":{"type":"Polygon","coordinates":[[[-42.8501,-22.602],[-42.8535,-22.6022],[-42.8501,-22.602],[-42.8501,-22.602]]]}},{"type":"Feature","properties":{"cod_tema":"AREA_UTILIDADE_PUBLICA","cod_imovel":"RJ-3300803-ED58FBA54E334B849E2ABE7AF7DEA667","num_area":"1.0606000000000000000000000000000","ind_status":"PE"},"geometry":{"type":"Polygon","coordinates":[[[-42.7693,-22.6269],[-42.7658,-22.6261],[-42.7693,-22.6269],[-42.7693,-22.6269]]]}},{"type":"Feature","properties":{"cod_tema":"AREA_SERVIDAO_ADMINISTRATIVA_TOTAL","cod_imovel":"RJ-3300803-ED58FBA54E334B849E2ABE7AF7DEA667","num_area":"1.0606000000000000000000000000000","ind_status":"PE"},"geometry":{"type":"Polygon","coordinates":[[[-42.7693,-22.6269],[-42.7658,-22.6261],[-42.7693,-22.6269],[-42.7693,-22.6269]]]}},{"type":"Feature","properties":{"cod_tema":"AREA_INFRAESTRUTURA_PUBLICA","cod_imovel":"RJ-3300803-249788F6384242118C880BD7B81BB41F","num_area":"0.2981000000000000000000000000000","ind_status":"PE"},"geometry":{"type":"Polygon","coordinates":[[[-42.801,-22.621],[-42.7977,-22.6158],[-42.801,-22.6209],[-42.801,-22.621]]]}},{"type":"Feature","properties":{"cod_tema":"AREA_SERVIDAO_ADMINISTRATIVA_TOTAL","cod_imovel":"RJ-3300803-249788F6384242118C880BD7B81BB41F","num_area":"0.2981000000000000000000000000000","ind_status":"PE"},"geometry":{"type":"Polygon","coordinates":[[[-42.801,-22.621],[-42.7977,-22.6158],[-42.801,-22.6209],[-42.801,-22.621]]]}},{"type":"Feature","properties":{"cod_tema":"AREA_INFRAESTRUTURA_PUBLICA","cod_imovel":"RJ-3300803-EA61EC69C3424866B9AE34922D122E52","num_area":"0.3318000000000000000000000000000","ind_status":"AT"},"geometry":{"type":"Polygon","coordinates":[[[-42.6758,-22.5567],[-42.6698,-22.559],[-42.6756,-22.5567],[-42.6758,-22.5567]]]}},{"type":"Feature","properties":{"cod_tema":"AREA_SERVIDAO_ADMINISTRATIVA_TOTAL","cod_imovel":"RJ-3300803-EA61EC69C3424866B9AE34922D122E52","num_area":"0.3318000000000000000000000000000","ind_status":"AT"},"geometry":{"type":"Polygon","coordinates":[[[-42.6758,-22.5567],[-42.6698,-22.559],[-42.6756,-22.5567],[-42.6758,-22.5567]]]}},{"type":"Feature","properties":{"cod_tema":"AREA_INFRAESTRUTURA_PUBLICA","cod_imovel":"RJ-3300803-DE4C145D4D7641AF9696F3D4A13A5D48","num_area":"0.1788000000000000000000000000000","ind_status":"AT"},"geometry":{"type":"Polygon","coordinates":[[[-42.6613,-22.629],[-42.663,-22.6254],[-42.6614,-22.6288],[-42.6613,-22.629]]]}},{"type":"Feature","properties":{"cod_tema":"AREA_SERVIDAO_ADMINISTRATIVA_TOTAL","cod_imovel":"RJ-3300803-DE4C145D4D7641AF9696F3D4A13A5D48","num_area":"0.1788000000000000000000000000000","ind_status":"AT"},"geometry":{"type":"Polygon","coordinates":[[[-42.6613,-22.629],[-42.663,-22.6254],[-42.6614,-22.6288],[-42.6613,-22.629]]]}},{"type":"Feature","properties":{"cod_tema":"AREA_UTILIDADE_PUBLICA","cod_imovel":"RJ-3300803-F278E933AB80471DBA6B992B9D1C5C9A","num_area":"1.0182000000000000000000000000000","ind_status":"AT"},"geometry":{"type":"Polygon","coordinates":[[[-42.6404,-22.6219],[-42.6408,-22.6279],[-42.6418,-22.6225],[-42.6356,-22.617],[-42.6407,-22.6219],[-42.6404,-22.6219]]]}},{"type":"Feature","properties":{"cod_tema":"AREA_SERVIDAO_ADMINISTRATIVA_TOTAL","cod_imovel":"RJ-3300803-F278E933AB80471DBA6B992B9D1C5C9A","num_area":"1.0182000000000000000000000000000","ind_status":"AT"},"geometry":{"type":"Polygon","coordinates":[[[-42.6404,-22.6219],[-42.6408,-22.6279],[-42.6418,-22.6225],[-42.6356,-22.617],[-42.6407,-22.6219],[-42.6404,-22.6219]]]}},{"type":"Feature","properties":{"cod_tema":"AREA_INFRAESTRUTURA_PUBLICA","cod_imovel":"RJ-3300803-82178A6FD92B48D1AE0F30FF40ABFEAF","num_area":"3.7908000000000000000000000000000","ind_status":"SU"},"geometry":{"type":"Polygon","coordinates":[[[-42.8745,-22.6301],[-42.8671,-22.6327],[-42.8852,-22.6268],[-42.8745,-22.6301]]]}},{"type":"Feature","properties":{"cod_tema":"AREA_SERVIDAO_ADMINISTRATIVA_TOTAL","cod_imovel":"RJ-3300803-82178A6FD92B48D1AE0F30FF40ABFEAF","num_area":"3.7908000000000000000000000000000","ind_status":"SU"},"geometry":{"type":"Polygon","coordinates":[[[-42.8745,-22.6301],[-42.8671,-22.6327],[-42.8852,-22.6268],[-42.8745,-22.6301]]]}},{"type":"Feature","properties":{"cod_tema":"AREA_INFRAESTRUTURA_PUBLICA","cod_imovel":"RJ-3300803-0B69AA62554F4C5184AD48E7BAD6A839","num_area":"3.6586000000000000000000000000000","ind_status":"AT"},"geometry":{"type":"Polygon","coordinates":[[[-42.7372,-22.4293],[-42.7397,-22.4321],[-42.7333,-22.4356],[-42.7215,-22.4372],[-42.7377,-22.4315],[-42.7474,-22.4362],[-42.7379,-22.4294],[-42.7372,-22.4293]]]}},{"type":"Feature","properties":{"cod_tema":"AREA_SERVIDAO_ADMINISTRATIVA_TOTAL","cod_imovel":"RJ-3300803-0B69AA62554F4C5184AD48E7BAD6A839","num_area":"3.6586000000000000000000000000000","ind_status":"AT"},"geometry":{"type":"Polygon","coordinates":[[[-42.7372,-22.4293],[-42.7397,-22.4321],[-42.7333,-22.4356],[-42.7215,-22.4372],[-42.7377,-22.4315],[-42.7474,-22.4362],[-42.7379,-22.4294],[-42.7372,-22.4293]]]}},{"type":"Feature","properties":{"cod_tema":"AREA_INFRAESTRUTURA_PUBLICA","cod_imovel":"RJ-3300803-D8EF0DA058DA433FB316CFE49F6E55D1","num_area":"0.3710000000000000000000000000000","ind_status":"AT"},"geometry":{"type":"Polygon","coordinates":[[[-42.8267,-22.5461],[-42.8262,-22.5415],[-42.8265,-22.5465],[-42.8267,-22.5461]]]}},{"type":"Feature","properties":{"cod_tema":"AREA_SERVIDAO_ADMINISTRATIVA_TOTAL","cod_imovel":"RJ-3300803-D8EF0DA058DA433FB316CFE49F6E55D1","num_area":"0.3710000000000000000000000000000","ind_status":"AT"},"geometry":{"type":"Polygon","coordinates":[[[-42.8267,-22.5461],[-42.8262,-22.5415],[-42.8265,-22.5465],[-42.8267,-22.5461]]]}},{"type":"Feature","properties":{"cod_tema":"AREA_SERVIDAO_ADMINISTRATIVA_TOTAL","cod_imovel":"RJ-3300803-FE38DE7159F84B00886FB05D2E10D791","num_area":"6.5415000000000000000000000000000","ind_status":"AT"},"geometry":{"type":"Polygon","coordinates":[[[-42.6117,-22.5728],[-42.6159,-22.5716],[-42.6116,-22.5725],[-42.6117,-22.5728]]]}},{"type":"Feature","properties":{"cod_tema":"AREA_INFRAESTRUTURA_PUBLICA","cod_imovel":"RJ-3300803-C86A512D269040EB8B3CD4E727210151","num_area":"0.7254000000000000000000000000000","ind_status":"AT"},"geometry":{"type":"Polygon","coordinates":[[[-42.7974,-22.4932],[-42.7962,-22.4895],[-42.7974,-22.4932],[-42.7974,-22.4932]]]}},{"type":"Feature","properties":{"cod_tema":"AREA_SERVIDAO_ADMINISTRATIVA_TOTAL","cod_imovel":"RJ-3300803-C86A512D269040EB8B3CD4E727210151","num_area":"0.7254000000000000000000000000000","ind_status":"AT"},"geometry":{"type":"Polygon","coordinates":[[[-42.7974,-22.4932],[-42.7962,-22.4895],[-42.7974,-22.4932],[-42.7974,-22.4932]]]}},{"type":"Feature","properties":{"cod_tema":"AREA_INFRAESTRUTURA_PUBLICA","cod_imovel":"RJ-3300803-60373DD1758B47CE9EB35A6544A12846","num_area":"0.4989000000000000000000000000000","ind_status":"AT"},"geometry":{"type":"Polygon","coordinates":[[[-42.659,-22.599],[-42.6559,-22.5957],[-42.6589,-22.5985],[-42.659,-22.599]],[[-42.656,-22.6015],[-42.6498,-22.6019],[-42.6557,-22.6014],[-42.656,-22.6015]]]}},{"type":"Feature","properties":{"cod_tema":"AREA_SERVIDAO_ADMINISTRATIVA_TOTAL","cod_imovel":"RJ-3300803-60373DD1758B47CE9EB35A6544A12846","num_area":"0.4989000000000000000000000000000","ind_status":"AT"},"geometry":{"type":"Polygon","coordinates":[[[-42.659,-22.599],[-42.6559,-22.5957],[-42.6589,-22.5985],[-42.659,-22.599]],[[-42.656,-22.6015],[-42.6498,-22.6019],[-42.6557,-22.6014],[-42.656,-22.6015]]]}},{"type":"Feature","properties":{"cod_tema":"AREA_INFRAESTRUTURA_PUBLICA","cod_imovel":"RJ-3300803-403359A6AA6F493992D3B69CDC4C8BED","num_area":"0.5192000000000000000000000000000","ind_status":"AT"},"geometry":{"type":"Polygon","coordinates":[[[-42.6385,-22.4704],[-42.6428,-22.4708],[-42.6388,-22.4706],[-42.6385,-22.4704]]]}},{"type":"Feature","properties":{"cod_tema":"AREA_SERVIDAO_ADMINISTRATIVA_TOTAL","cod_imovel":"RJ-3300803-403359A6AA6F493992D3B69CDC4C8BED","num_area":"0.5192000000000000000000000000000","ind_status":"AT"},"geometry":{"type":"Polygon","coordinates":[[[-42.6385,-22.4704],[-42.6428,-22.4708],[-42.6388,-22.4706],[-42.6385,-22.4704]]]}},{"type":"Feature","properties":{"cod_tema":"AREA_UTILIDADE_PUBLICA","cod_imovel":"RJ-3300803-41B4904AB6684AD5A2A26F6B1DE474A2","num_area":"1.5638000000000000000000000000000","ind_status":"AT"},"geometry":{"type":"Polygon","coordinates":[[[-42.8625,-22.5591],[-42.868,-22.5592],[-42.8625,-22.5591],[-42.8625,-22.5591]]]}},{"type":"Feature","properties":{"cod_tema":"AREA_SERVIDAO_ADMINISTRATIVA_TOTAL","cod_imovel":"RJ-3300803-41B4904AB6684AD5A2A26F6B1DE474A2","num_area":"1.9601000000000000000000000000000","ind_status":"AT"},"geometry":{"type":"Polygon","coordinates":[[[-42.8625,-22.5591],[-42.868,-22.5592],[-42.8625,-22.5591],[-42.8625,-22.5591]]]}},{"type":"Feature","properties":{"cod_tema":"AREA_INFRAESTRUTURA_PUBLICA","cod_imovel":"RJ-3300803-241041B38863475CB5737B2A40F68073","num_area":"0.2500000000000000000000000000000","ind_status":"AT"},"geometry":{"type":"Polygon","coordinates":[[[-42.7189,-22.6284],[-42.7151,-22.6304],[-42.7193,-22.628],[-42.7189,-22.6284]]]}},{"type":"Feature","properties":{"cod_tema":"AREA_UTILIDADE_PUBLICA","cod_imovel":"RJ-3300803-241041B38863475CB5737B2A40F68073","num_area":"0.2236000000000000000000000000000","ind_status":"AT"},"geometry":{"type":"Polygon","coordinates":[[[-42.7215,-22.6269],[-42.7183,-22.6287],[-42.7215,-22.6269],[-42.7215,-22.6269]]]}},{"type":"Feature","properties":{"cod_tema":"AREA_SERVIDAO_ADMINISTRATIVA_TOTAL","cod_imovel":"RJ-3300803-241041B38863475CB5737B2A40F68073","num_area":"0.4412000000000000000000000000000","ind_status":"AT"},"geometry":{"type":"Polygon","coordinates":[[[-42.7184,-22.6287],[-42.7151,-22.6304],[-42.722,-22.6266],[-42.7183,-22.6287],[-42.7184,-22.6287]]]}},{"type":"Feature","properties":{"cod_tema":"AREA_INFRAESTRUTURA_PUBLICA","cod_imovel":"RJ-3300803-3C494C92A3684DFF8015A8EC747237D5","num_area":"0.8215000000000000000000000000000","ind_status":"AT"},"geometry":{"type":"Polygon","coordinates":[[[-42.6096,-22.6115],[-42.5984,-22.5962],[-42.6096,-22.6115],[-42.6096,-22.6115]]]}},{"type":"Feature","properties":{"cod_tema":"AREA_UTILIDADE_PUBLICA","cod_imovel":"RJ-3300803-3C494C92A3684DFF8015A8EC747237D5","num_area":"3.4902000000000000000000000000000","ind_status":"AT"},"geometry":{"type":"Polygon","coordinates":[[[-42.6052,-22.6138],[-42.5944,-22.6016],[-42.6052,-22.6133],[-42.6052,-22.6138]]]}},{"type":"Feature","properties":{"cod_tema":"AREA_SERVIDAO_ADMINISTRATIVA_TOTAL","cod_imovel":"RJ-3300803-3C494C92A3684DFF8015A8EC747237D5","num_area":"4.3117000000000000000000000000000","ind_status":"AT"},"geometry":{"type":"Polygon","coordinates":[[[-42.6052,-22.6138],[-42.5944,-22.6016],[-42.6052,-22.6133],[-42.6052,-22.6138]],[[-42.6096,-22.6115],[-42.5984,-22.5962],[-42.6096,-22.6115],[-42.6096,-22.6115]]]}},{"type":"Feature","properties":{"cod_tema":"AREA_UTILIDADE_PUBLICA","cod_imovel":"RJ-3300803-5D03258288104821A072D7577B640A92","num_area":"1.4765000000000000000000000000000","ind_status":"AT"},"geometry":{"type":"Polygon","coordinates":[[[-42.7968,-22.62],[-42.794,-22.6214],[-42.797,-22.6203],[-42.7968,-22.62]]]}},{"type":"Feature","properties":{"cod_tema":"AREA_SERVIDAO_ADMINISTRATIVA_TOTAL","cod_imovel":"RJ-3300803-5D03258288104821A072D7577B640A92","num_area":"1.4765000000000000000000000000000","ind_status":"AT"},"geometry":{"type":"Polygon","coordinates":[[[-42.7968,-22.62],[-42.794,-22.6214],[-42.797,-22.6203],[-42.7968,-22.62]]]}},{"type":"Feature","properties":{"cod_tema":"AREA_INFRAESTRUTURA_PUBLICA","cod_imovel":"RJ-3300803-3C534E046E0B47E39CAE6B1254107118","num_area":"0.3430000000000000000000000000000","ind_status":"AT"},"geometry":{"type":"Polygon","coordinates":[[[-42.7216,-22.462],[-42.7203,-22.4557],[-42.7216,-22.4619],[-42.7216,-22.462]]]}},{"type":"Feature","properties":{"cod_tema":"AREA_SERVIDAO_ADMINISTRATIVA_TOTAL","cod_imovel":"RJ-3300803-3C534E046E0B47E39CAE6B1254107118","num_area":"0.3430000000000000000000000000000","ind_status":"AT"},"geometry":{"type":"Polygon","coordinates":[[[-42.7216,-22.462],[-42.7203,-22.4557],[-42.7216,-22.4619],[-42.7216,-22.462]]]}},{"type":"Feature","properties":{"cod_tema":"AREA_INFRAESTRUTURA_PUBLICA","cod_imovel":"RJ-3300803-FB314B3185E64F96982FCBFF8E8154C5","num_area":"1.1074000000000000000000000000000","ind_status":"AT"},"geometry":{"type":"Polygon","coordinates":[[[-42.8313,-22.5062],[-42.8363,-22.4958],[-42.8315,-22.5063],[-42.8313,-22.5062]]]}},{"type":"Feature","properties":{"cod_tema":"AREA_SERVIDAO_ADMINISTRATIVA_TOTAL","cod_imovel":"RJ-3300803-FB314B3185E64F96982FCBFF8E8154C5","num_area":"1.1074000000000000000000000000000","ind_status":"AT"},"geometry":{"type":"Polygon","coordinates":[[[-42.8313,-22.5062],[-42.8363,-22.4958],[-42.8315,-22.5063],[-42.8313,-22.5062]]]}},{"type":"Feature","properties":{"cod_tema":"AREA_INFRAESTRUTURA_PUBLICA","cod_imovel":"RJ-3300803-9A72864419D74D0BB66DCCA76DE3A06A","num_area":"0.1466000000000000000000000000000","ind_status":"AT"},"geometry":{"type":"Polygon","coordinates":[[[-42.7204,-22.5081],[-42.7194,-22.5117],[-42.7204,-22.5081],[-42.7204,-22.5081]]]}},{"type":"Feature","properties":{"cod_tema":"AREA_SERVIDAO_ADMINISTRATIVA_TOTAL","cod_imovel":"RJ-3300803-9A72864419D74D0BB66DCCA76DE3A06A","num_area":"0.1466000000000000000000000000000","ind_status":"AT"},"geometry":{"type":"Polygon","coordinates":[[[-42.7204,-22.5081],[-42.7194,-22.5117],[-42.7204,-22.5081],[-42.7204,-22.5081]]]}},{"type":"Feature","properties":{"cod_tema":"AREA_INFRAESTRUTURA_PUBLICA","cod_imovel":"RJ-3300803-CDCB0520A5DB4682B9950076F6042417","num_area":"0.9992000000000000000000000000000","ind_status":"AT"},"geometry":{"type":"Polygon","coordinates":[[[-42.7337,-22.6186],[-42.7273,-22.6177],[-42.7325,-22.6183],[-42.7337,-22.6186]]]}},{"type":"Feature","properties":{"cod_tema":"AREA_SERVIDAO_ADMINISTRATIVA_TOTAL","cod_imovel":"RJ-3300803-CDCB0520A5DB4682B9950076F6042417","num_area":"0.9992000000000000000000000000000","ind_status":"AT"},"geometry":{"type":"Polygon","coordinates":[[[-42.7337,-22.6186],[-42.7273,-22.6177],[-42.7325,-22.6183],[-42.7337,-22.6186]]]}},{"type":"Feature","properties":{"cod_tema":"AREA_INFRAESTRUTURA_PUBLICA","cod_imovel":"RJ-3300803-E249E54695A44E289683533A9E38633E","num_area":"0.9308000000000000000000000000000","ind_status":"AT"},"geometry":{"type":"Polygon","coordinates":[[[-42.6653,-22.512],[-42.6558,-22.5174],[-42.665,-22.5119],[-42.6653,-22.512]]]}},{"type":"Feature","properties":{"cod_tema":"AREA_SERVIDAO_ADMINISTRATIVA_TOTAL","cod_imovel":"RJ-3300803-E249E54695A44E289683533A9E38633E","num_area":"0.9308000000000000000000000000000","ind_status":"AT"},"geometry":{"type":"Polygon","coordinates":[[[-42.6653,-22.512],[-42.6558,-22.5174],[-42.665,-22.5119],[-42.6653,-22.512]]]}},{"type":"Feature","properties":{"cod_tema":"AREA_UTILIDADE_PUBLICA","cod_imovel":"RJ-3300803-6C9E5E00BA3948768BB2BDF4494D5685","num_area":"0.4068000000000000000000000000000","ind_status":"AT"},"geometry":{"type":"Polygon","coordinates":[[[-42.6856,-22.5068],[-42.6874,-22.5094],[-42.6856,-22.5068],[-42.6856,-22.5068]]]}},{"type":"Feature","properties":{"cod_tema":"AREA_SERVIDAO_ADMINISTRATIVA_TOTAL","cod_imovel":"RJ-3300803-6C9E5E00BA3948768BB2BDF4494D5685","num_area":"0.4068000000000000000000000000000","ind_status":"AT"},"geometry":{"type":"Polygon","coordinates":[[[-42.6856,-22.5068],[-42.6874,-22.5094],[-42.6856,-22.5068],[-42.6856,-22.5068]]]}},{"type":"Feature","properties":{"cod_tema":"AREA_INFRAESTRUTURA_PUBLICA","cod_imovel":"RJ-3300803-47BC39575BE1475CA284CCFA48ED3403","num_area":"1.4993000000000000000000000000000","ind_status":"AT"},"geometry":{"type":"Polygon","coordinates":[[[-42.7971,-22.4772],[-42.8033,-22.4693],[-42.7974,-22.4769],[-42.7971,-22.4772]]]}},{"type":"Feature","properties":{"cod_tema":"AREA_SERVIDAO_ADMINISTRATIVA_TOTAL","cod_imovel":"RJ-3300803-47BC39575BE1475CA284CCFA48ED3403","num_area":"1.4993000000000000000000000000000","ind_status":"AT"},"geometry":{"type":"Polygon","coordinates":[[[-42.7971,-22.4772],[-42.8033,-22.4693],[-42.7974,-22.4769],[-42.7971,-22.4772]]]}},{"type":"Feature","properties":{"cod_tema":"AREA_UTILIDADE_PUBLICA","cod_imovel":"RJ-3300803-A6023F2AC428402FBC598DE71F39B733","num_area":"1.3703000000000000000000000000000","ind_status":"PE"},"geometry":{"type":"Polygon","coordinates":[[[-42.6565,-22.5661],[-42.6602,-22.5648],[-42.6555,-22.5662],[-42.6565,-22.5661]]]}},{"type":"Feature","properties":{"cod_tema":"AREA_SERVIDAO_ADMINISTRATIVA_TOTAL","cod_imovel":"RJ-3300803-A6023F2AC428402FBC598DE71F39B733","num_area":"1.3703000000000000000000000000000","ind_status":"PE"},"geometry":{"type":"Polygon","coordinates":[[[-42.6565,-22.5661],[-42.6602,-22.5648],[-42.6555,-22.5662],[-42.6565,-22.5661]]]}},{"type":"Feature","properties":{"cod_tema":"AREA_INFRAESTRUTURA_PUBLICA","cod_imovel":"RJ-3300803-C27615D82D364A1F8D9D9B9711ECABB7","num_area":"0.2730000000000000000000000000000","ind_status":"AT"},"geometry":{"type":"Polygon","coordinates":[[[-42.7779,-22.4613],[-42.7811,-22.4631],[-42.7779,-22.4613],[-42.7779,-22.4613]]]}},{"type":"Feature","properties":{"cod_tema":"AREA_SERVIDAO_ADMINISTRATIVA_TOTAL","cod_imovel":"RJ-3300803-C27615D82D364A1F8D9D9B9711ECABB7","num_area":"0.2730000000000000000000000000000","ind_status":"AT"},"geometry":{"type":"Polygon","coordinates":[[[-42.7779,-22.4613],[-42.7811,-22.4631],[-42.7779,-22.4613],[-42.7779,-22.4613]]]}},{"type":"Feature","properties":{"cod_tema":"AREA_INFRAESTRUTURA_PUBLICA","cod_imovel":"RJ-3300803-C46C05ABC0844D79B0A37AB845659BC5","num_area":"0.1995000000000000000000000000000","ind_status":"AT"},"geometry":{"type":"Polygon","coordinates":[[[-42.8693,-22.5156],[-42.8712,-22.5195],[-42.8695,-22.5157],[-42.8693,-22.5156]]]}},{"type":"Feature","properties":{"cod_tema":"AREA_SERVIDAO_ADMINISTRATIVA_TOTAL","cod_imovel":"RJ-3300803-C46C05ABC0844D79B0A37AB845659BC5","num_area":"0.1995000000000000000000000000000","ind_status":"AT"},"geometry":{"type":"Polygon","coordinates":[[[-42.8693,-22.5156],[-42.8712,-22.5195],[-42.8695,-22.5157],[-42.8693,-22.5156]]]}},{"type":"Feature","properties":{"cod_tema":"AREA_INFRAESTRUTURA_PUBLICA","cod_imovel":"RJ-3300803-97545D37B87B4F4E9A01B399745653A6","num_area":"0.4067000000000000000000000000000","ind_status":"AT"},"geometry":{"type":"Polygon","coordinates":[[[-42.8046,-22.4612],[-42.8031,-22.467],[-42.8051,-22.4607],[-42.8046,-22.4612]]]}},{"type":"Feature","properties":{"cod_tema":"AREA_SERVIDAO_ADMINISTRATIVA_TOTAL","cod_imovel":"RJ-3300803-97545D37B87B4F4E9A01B399745653A6","num_area":"0.4067000000000000000000000000000","ind_status":"AT"},"geometry":{"type":"Polygon","coordinates":[[[-42.8046,-22.4612],[-42.8031,-22.467],[-42.8051,-22.4607],[-42.8046,-22.4612]]]}},{"type":"Feature","properties":{"cod_tema":"AREA_INFRAESTRUTURA_PUBLICA","cod_imovel":"RJ-3300803-8ACDA88EDFEA4DCC82E69DBC02FFD788","num_area":"0.2089000000000000000000000000000","ind_status":"AT"},"geometry":{"type":"Polygon","coordinates":[[[-42.834,-22.5408],[-42.8331,-22.5358],[-42.834,-22.5408],[-42.834,-22.5408]]]}},{"type":"Feature","properties":{"cod_tema":"AREA_SERVIDAO_ADMINISTRATIVA_TOTAL","cod_imovel":"RJ-3300803-8ACDA88EDFEA4DCC82E69DBC02FFD788","num_area":"0.2089000000000000000000000000000","ind_status":"AT"},"geometry":{"type":"Polygon","coordinates":[[[-42.834,-22.5408],[-42.8331,-22.5358],[-42.834,-22.5408],[-42.834,-22.5408]]]}},{"type":"Feature","properties":{"cod_tema":"AREA_INFRAESTRUTURA_PUBLICA","cod_imovel":"RJ-3300803-C8F970C33B6F487AB7DEC1CAF2A6B6F4","num_area":"0.4438000000000000000000000000000","ind_status":"AT"},"geometry":{"type":"Polygon","coordinates":[[[-42.7223,-22.5174],[-42.7202,-22.5204],[-42.7223,-22.5177],[-42.7223,-22.5174]]]}},{"type":"Feature","properties":{"cod_tema":"AREA_SERVIDAO_ADMINISTRATIVA_TOTAL","cod_imovel":"RJ-3300803-C8F970C33B6F487AB7DEC1CAF2A6B6F4","num_area":"0.4438000000000000000000000000000","ind_status":"AT"},"geometry":{"type":"Polygon","coordinates":[[[-42.7223,-22.5174],[-42.7202,-22.5204],[-42.7223,-22.5177],[-42.7223,-22.5174]]]}},{"type":"Feature","properties":{"cod_tema":"AREA_INFRAESTRUTURA_PUBLICA","cod_imovel":"RJ-3300803-00E5496C2D684C2A9DD2C83FA0558653","num_area":"0.2277000000000000000000000000000","ind_status":"AT"},"geometry":{"type":"Polygon","coordinates":[[[-42.7086,-22.512],[-42.7107,-22.5093],[-42.7087,-22.5119],[-42.7086,-22.512]]]}},{"type":"Feature","properties":{"cod_tema":"AREA_SERVIDAO_ADMINISTRATIVA_TOTAL","cod_imovel":"RJ-3300803-00E5496C2D684C2A9DD2C83FA0558653","num_area":"0.2277000000000000000000000000000","ind_status":"AT"},"geometry":{"type":"Polygon","coordinates":[[[-42.7086,-22.512],[-42.7107,-22.5093],[-42.7087,-22.5119],[-42.7086,-22.512]]]}},{"type":"Feature","properties":{"cod_tema":"AREA_UTILIDADE_PUBLICA","cod_imovel":"RJ-3300803-BABE632B985740C38E8448C577C073A4","num_area":"0.2592000000000000000000000000000","ind_status":"AT"},"geometry":{"type":"Polygon","coordinates":[[[-42.7867,-22.4515],[-42.7886,-22.4478],[-42.7872,-22.4511],[-42.7867,-22.4515]]]}},{"type":"Feature","properties":{"cod_tema":"AREA_SERVIDAO_ADMINISTRATIVA_TOTAL","cod_imovel":"RJ-3300803-BABE632B985740C38E8448C577C073A4","num_area":"0.2592000000000000000000000000000","ind_status":"AT"},"geometry":{"type":"Polygon","coordinates":[[[-42.7867,-22.4515],[-42.7886,-22.4478],[-42.7872,-22.4511],[-42.7867,-22.4515]]]}},{"type":"Feature","properties":{"cod_tema":"AREA_UTILIDADE_PUBLICA","cod_imovel":"RJ-3300803-C7D6D8E5F5A34178ACC6AEDFCA5384AE","num_area":"0.2284000000000000000000000000000","ind_status":"AT"},"geometry":{"type":"Polygon","coordinates":[[[-42.8493,-22.5321],[-42.8461,-22.5338],[-42.8495,-22.5321],[-42.8493,-22.5321]]]}},{"type":"Feature","properties":{"cod_tema":"AREA_SERVIDAO_ADMINISTRATIVA_TOTAL","cod_imovel":"RJ-3300803-C7D6D8E5F5A34178ACC6AEDFCA5384AE","num_area":"0.2284000000000000000000000000000","ind_status":"AT"},"geometry":{"type":"Polygon","coordinates":[[[-42.8493,-22.5321],[-42.8461,-22.5338],[-42.8495,-22.5321],[-42.8493,-22.5321]]]}},{"type":"Feature","properties":{"cod_tema":"AREA_INFRAESTRUTURA_PUBLICA","cod_imovel":"RJ-3300803-113C8EDFA8584631AD1F77F63207CB06","num_area":"0.5102000000000000000000000000000","ind_status":"AT"},"geometry":{"type":"Polygon","coordinates":[[[-42.6435,-22.5112],[-42.6452,-22.5047],[-42.644,-22.5124],[-42.6435,-22.5112]]]}},{"type":"Feature","properties":{"cod_tema":"AREA_SERVIDAO_ADMINISTRATIVA_TOTAL","cod_imovel":"RJ-3300803-113C8EDFA8584631AD1F77F63207CB06","num_area":"0.5102000000000000000000000000000","ind_status":"AT"},"geometry":{"type":"Polygon","coordinates":[[[-42.6435,-22.5112],[-42.6452,-22.5047],[-42.644,-22.5124],[-42.6435,-22.5112]]]}},{"type":"Feature","properties":{"cod_tema":"AREA_INFRAESTRUTURA_PUBLICA","cod_imovel":"RJ-3300803-BB01A6E3CA58492EBD52ACE7D0D8258B","num_area":"1.2154000000000000000000000000000","ind_status":"AT"},"geometry":{"type":"Polygon","coordinates":[[[-42.7984,-22.4729],[-42.7898,-22.4691],[-42.7981,-22.4729],[-42.7984,-22.4729]]]}},{"type":"Feature","properties":{"cod_tema":"AREA_SERVIDAO_ADMINISTRATIVA_TOTAL","cod_imovel":"RJ-3300803-BB01A6E3CA58492EBD52ACE7D0D8258B","num_area":"1.2154000000000000000000000000000","ind_status":"AT"},"geometry":{"type":"Polygon","coordinates":[[[-42.7984,-22.4729],[-42.7898,-22.4691],[-42.7981,-22.4729],[-42.7984,-22.4729]]]}},{"type":"Feature","properties":{"cod_tema":"AREA_UTILIDADE_PUBLICA","cod_imovel":"RJ-3300803-9B36033256FF45F894F837A4D23B739E","num_area":"0.5797000000000000000000000000000","ind_status":"AT"},"geometry":{"type":"Polygon","coordinates":[[[-42.6453,-22.5087],[-42.6449,-22.5034],[-42.6452,-22.5086],[-42.6453,-22.5087]]]}},{"type":"Feature","properties":{"cod_tema":"AREA_SERVIDAO_ADMINISTRATIVA_TOTAL","cod_imovel":"RJ-3300803-9B36033256FF45F894F837A4D23B739E","num_area":"0.5797000000000000000000000000000","ind_status":"AT"},"geometry":{"type":"Polygon","coordinates":[[[-42.6453,-22.5087],[-42.6449,-22.5034],[-42.6452,-22.5086],[-42.6453,-22.5087]]]}},{"type":"Feature","properties":{"cod_tema":"AREA_INFRAESTRUTURA_PUBLICA","cod_imovel":"RJ-3300803-7D366EFA8C864634B929F498CEFFEC58","num_area":"0.9401000000000000000000000000000","ind_status":"AT"},"geometry":{"type":"Polygon","coordinates":[[[-42.7053,-22.4809],[-42.6949,-22.47],[-42.7054,-22.4809],[-42.7053,-22.4809]]]}},{"type":"Feature","properties":{"cod_tema":"AREA_SERVIDAO_ADMINISTRATIVA_TOTAL","cod_imovel":"RJ-3300803-7D366EFA8C864634B929F498CEFFEC58","num_area":"0.9401000000000000000000000000000","ind_status":"AT"},"geometry":{"type":"Polygon","coordinates":[[[-42.7053,-22.4809],[-42.6949,-22.47],[-42.7054,-22.4809],[-42.7053,-22.4809]]]}},{"type":"Feature","properties":{"cod_tema":"AREA_INFRAESTRUTURA_PUBLICA","cod_imovel":"RJ-3300803-3142BA63FD7944DF940203C7E03D348E","num_area":"1.1171000000000000000000000000000","ind_status":"AT"},"geometry":{"type":"Polygon","coordinates":[[[-42.7589,-22.4352],[-42.7389,-22.4213],[-42.7589,-22.4352],[-42.7589,-22.4352]]]}},{"type":"Feature","properties":{"cod_tema":"AREA_SERVIDAO_ADMINISTRATIVA_TOTAL","cod_imovel":"RJ-3300803-3142BA63FD7944DF940203C7E03D348E","num_area":"1.1171000000000000000000000000000","ind_status":"AT"},"geometry":{"type":"Polygon","coordinates":[[[-42.7589,-22.4352],[-42.7389,-22.4213],[-42.7589,-22.4352],[-42.7589,-22.4352]]]}},{"type":"Feature","properties":{"cod_tema":"AREA_INFRAESTRUTURA_PUBLICA","cod_imovel":"RJ-3300803-6B9A185D55F94FDEAAA995D52FB76214","num_area":"0.9528000000000000000000000000000","ind_status":"AT"},"geometry":{"type":"Polygon","coordinates":[[[-42.8984,-22.5349],[-42.8937,-22.5418],[-42.8979,-22.5352],[-42.8984,-22.5349]]]}},{"type":"Feature","properties":{"cod_tema":"AREA_SERVIDAO_ADMINISTRATIVA_TOTAL","cod_imovel":"RJ-3300803-6B9A185D55F94FDEAAA995D52FB76214","num_area":"0.9528000000000000000000000000000","ind_status":"AT"},"geometry":{"type":"Polygon","coordinates":[[[-42.8984,-22.5349],[-42.8937,-22.5418],[-42.8979,-22.5352],[-42.8984,-22.5349]]]}},{"type":"Feature","properties":{"cod_tema":"AREA_INFRAESTRUTURA_PUBLICA","cod_imovel":"RJ-3300803-BA267BCD93CB4EE296FF675F0F4E8263","num_area":"0.4412000000000000000000000000000","ind_status":"AT"},"geometry":{"type":"Polygon","coordinates":[[[-42.6529,-22.5187],[-42.6463,-22.5167],[-42.6529,-22.5187],[-42.6529,-22.5187]]]}},{"type":"Feature","properties":{"cod_tema":"AREA_SERVIDAO_ADMINISTRATIVA_TOTAL","cod_imovel":"RJ-3300803-BA267BCD93CB4EE296FF675F0F4E8263","num_area":"0.4412000000000000000000000000000","ind_status":"AT"},"geometry":{"type":"Polygon","coordinates":[[[-42.6529,-22.5187],[-42.6463,-22.5167],[-42.6529,-22.5187],[-42.6529,-22.5187]]]}},{"type":"Feature","properties":{"cod_tema":"AREA_INFRAESTRUTURA_PUBLICA","cod_imovel":"RJ-3300803-C75DCD76123540A6B0EEFB5AD2E01758","num_area":"0.3795000000000000000000000000000","ind_status":"AT"},"geometry":{"type":"Polygon","coordinates":[[[-42.8331,-22.5358],[-42.8344,-22.5316],[-42.8331,-22.5356],[-42.8331,-22.5358]]]}},{"type":"Feature","properties":{"cod_tema":"AREA_SERVIDAO_ADMINISTRATIVA_TOTAL","cod_imovel":"RJ-3300803-C75DCD76123540A6B0EEFB5AD2E01758","num_area":"0.3795000000000000000000000000000","ind_status":"AT"},"geometry":{"type":"Polygon","coordinates":[[[-42.8331,-22.5358],[-42.8344,-22.5316],[-42.8331,-22.5356],[-42.8331,-22.5358]]]}},{"type":"Feature","properties":{"cod_tema":"AREA_UTILIDADE_PUBLICA","cod_imovel":"RJ-3300803-422DDC4E449E49A5987A941AA813337B","num_area":"0.5823000000000000000000000000000","ind_status":"AT"},"geometry":{"type":"Polygon","coordinates":[[[-42.7138,-22.4516],[-42.7103,-22.4458],[-42.7138,-22.4516],[-42.7138,-22.4516]]]}},{"type":"Feature","properties":{"cod_tema":"AREA_SERVIDAO_ADMINISTRATIVA_TOTAL","cod_imovel":"RJ-3300803-422DDC4E449E49A5987A941AA813337B","num_area":"0.5823000000000000000000000000000","ind_status":"AT"},"geometry":{"type":"Polygon","coordinates":[[[-42.7138,-22.4516],[-42.7103,-22.4458],[-42.7138,-22.4516],[-42.7138,-22.4516]]]}},{"type":"Feature","properties":{"cod_tema":"AREA_INFRAESTRUTURA_PUBLICA","cod_imovel":"RJ-3300803-5BEEE06480C5423DA3EC26C761BF05A3","num_area":"0.3175000000000000000000000000000","ind_status":"AT"},"geometry":{"type":"Polygon","coordinates":[[[-42.6661,-22.6005],[-42.659,-22.5992],[-42.6661,-22.6005],[-42.6661,-22.6005]]]}},{"type":"Feature","properties":{"cod_tema":"AREA_SERVIDAO_ADMINISTRATIVA_TOTAL","cod_imovel":"RJ-3300803-5BEEE06480C5423DA3EC26C761BF05A3","num_area":"0.3175000000000000000000000000000","ind_status":"AT"},"geometry":{"type":"Polygon","coordinates":[[[-42.6661,-22.6005],[-42.659,-22.5992],[-42.6661,-22.6005],[-42.6661,-22.6005]]]}},{"type":"Feature","properties":{"cod_tema":"AREA_UTILIDADE_PUBLICA","cod_imovel":"RJ-3300803-EEEC8F16AC4E40AD9206BFFE97A6270A","num_area":"0.2404000000000000000000000000000","ind_status":"AT"},"geometry":{"type":"Polygon","coordinates":[[[-42.8442,-22.5861],[-42.841,-22.5877],[-42.845,-22.5855],[-42.8442,-22.5861]]]}},{"type":"Feature","properties":{"cod_tema":"AREA_SERVIDAO_ADMINISTRATIVA_TOTAL","cod_imovel":"RJ-3300803-EEEC8F16AC4E40AD9206BFFE97A6270A","num_area":"0.2404000000000000000000000000000","ind_status":"AT"},"geometry":{"type":"Polygon","coordinates":[[[-42.8442,-22.5861],[-42.841,-22.5877],[-42.845,-22.5855],[-42.8442,-22.5861]]]}},{"type":"Feature","properties":{"cod_tema":"AREA_INFRAESTRUTURA_PUBLICA","cod_imovel":"RJ-3300803-534D08DCD60A40E1836AF3E609FADF75","num_area":"0.2122000000000000000000000000000","ind_status":"AT"},"geometry":{"type":"Polygon","coordinates":[[[-42.7308,-22.5557],[-42.7344,-22.5576],[-42.7308,-22.5557],[-42.7308,-22.5557]]]}},{"type":"Feature","properties":{"cod_tema":"AREA_SERVIDAO_ADMINISTRATIVA_TOTAL","cod_imovel":"RJ-3300803-534D08DCD60A40E1836AF3E609FADF75","num_area":"0.2122000000000000000000000000000","ind_status":"AT"},"geometry":{"type":"Polygon","coordinates":[[[-42.7308,-22.5557],[-42.7344,-22.5576],[-42.7308,-22.5557],[-42.7308,-22.5557]]]}},{"type":"Feature","properties":{"cod_tema":"AREA_INFRAESTRUTURA_PUBLICA","cod_imovel":"RJ-3300803-8DA75DB83CA64BCFAFC2204B65D3D36F","num_area":"1.3133000000000000000000000000000","ind_status":"AT"},"geometry":{"type":"Polygon","coordinates":[[[-42.7777,-22.5613],[-42.7736,-22.56],[-42.7777,-22.5614],[-42.7777,-22.5613]]]}},{"type":"Feature","properties":{"cod_tema":"AREA_SERVIDAO_ADMINISTRATIVA_TOTAL","cod_imovel":"RJ-3300803-8DA75DB83CA64BCFAFC2204B65D3D36F","num_area":"1.3133000000000000000000000000000","ind_status":"AT"},"geometry":{"type":"Polygon","coordinates":[[[-42.7777,-22.5613],[-42.7736,-22.56],[-42.7777,-22.5614],[-42.7777,-22.5613]]]}},{"type":"Feature","properties":{"cod_tema":"AREA_INFRAESTRUTURA_PUBLICA","cod_imovel":"RJ-3300803-C547695D8F3A4D0B8CEA2E7B33731503","num_area":"0.6759000000000000000000000000000","ind_status":"AT"},"geometry":{"type":"Polygon","coordinates":[[[-42.8718,-22.5212],[-42.8729,-22.5283],[-42.8718,-22.5217],[-42.8718,-22.5212]]]}},{"type":"Feature","properties":{"cod_tema":"AREA_SERVIDAO_ADMINISTRATIVA_TOTAL","cod_imovel":"RJ-3300803-C547695D8F3A4D0B8CEA2E7B33731503","num_area":"0.6759000000000000000000000000000","ind_status":"AT"},"geometry":{"type":"Polygon","coordinates":[[[-42.8718,-22.5212],[-42.8729,-22.5283],[-42.8718,-22.5217],[-42.8718,-22.5212]]]}},{"type":"Feature","properties":{"cod_tema":"AREA_INFRAESTRUTURA_PUBLICA","cod_imovel":"RJ-3300803-28F7F7FDABA5467F80A017F838C3A363","num_area":"0.2877000000000000000000000000000","ind_status":"AT"},"geometry":{"type":"Polygon","coordinates":[[[-42.6457,-22.5162],[-42.6414,-22.517],[-42.6456,-22.5161],[-42.6457,-22.5162]]]}},{"type":"Feature","properties":{"cod_tema":"AREA_SERVIDAO_ADMINISTRATIVA_TOTAL","cod_imovel":"RJ-3300803-28F7F7FDABA5467F80A017F838C3A363","num_area":"0.2877000000000000000000000000000","ind_status":"AT"},"geometry":{"type":"Polygon","coordinates":[[[-42.6457,-22.5162],[-42.6414,-22.517],[-42.6456,-22.5161],[-42.6457,-22.5162]]]}},{"type":"Feature","properties":{"cod_tema":"AREA_INFRAESTRUTURA_PUBLICA","cod_imovel":"RJ-3300803-04E291406FE04D509E32154E869086D1","num_area":"0.5774000000000000000000000000000","ind_status":"AT"},"geometry":{"type":"Polygon","coordinates":[[[-42.7643,-22.4524],[-42.7608,-22.4497],[-42.7637,-22.4467],[-42.7607,-22.4497],[-42.7643,-22.4524],[-42.7643,-22.4524]]]}},{"type":"Feature","properties":{"cod_tema":"AREA_SERVIDAO_ADMINISTRATIVA_TOTAL","cod_imovel":"RJ-3300803-04E291406FE04D509E32154E869086D1","num_area":"0.5774000000000000000000000000000","ind_status":"AT"},"geometry":{"type":"Polygon","coordinates":[[[-42.7643,-22.4524],[-42.7608,-22.4497],[-42.7637,-22.4467],[-42.7607,-22.4497],[-42.7643,-22.4524],[-42.7643,-22.4524]]]}},{"type":"Feature","properties":{"cod_tema":"AREA_INFRAESTRUTURA_PUBLICA","cod_imovel":"RJ-3300803-8D7B05FE470E4B858A214B948BA282BA","num_area":"0.0868000000000000000000000000000","ind_status":"AT"},"geometry":{"type":"Polygon","coordinates":[[[-42.7857,-22.4569],[-42.7855,-22.4604],[-42.7858,-22.4572],[-42.7857,-22.4569]]]}},{"type":"Feature","properties":{"cod_tema":"AREA_SERVIDAO_ADMINISTRATIVA_TOTAL","cod_imovel":"RJ-3300803-8D7B05FE470E4B858A214B948BA282BA","num_area":"0.0868000000000000000000000000000","ind_status":"AT"},"geometry":{"type":"Polygon","coordinates":[[[-42.7857,-22.4569],[-42.7855,-22.4604],[-42.7858,-22.4572],[-42.7857,-22.4569]]]}},{"type":"Feature","properties":{"cod_tema":"AREA_INFRAESTRUTURA_PUBLICA","cod_imovel":"RJ-3300803-CDD65CD471D54CC1B46FBFAF9C5122C7","num_area":"0.4514000000000000000000000000000","ind_status":"AT"},"geometry":{"type":"Polygon","coordinates":[[[-42.6537,-22.4826],[-42.6479,-22.4811],[-42.6537,-22.4826],[-42.6537,-22.4826]]]}},{"type":"Feature","properties":{"cod_tema":"AREA_SERVIDAO_ADMINISTRATIVA_TOTAL","cod_imovel":"RJ-3300803-CDD65CD471D54CC1B46FBFAF9C5122C7","num_area":"0.4514000000000000000000000000000","ind_status":"AT"},"geometry":{"type":"Polygon","coordinates":[[[-42.6537,-22.4826],[-42.6479,-22.4811],[-42.6537,-22.4826],[-42.6537,-22.4826]]]}},{"type":"Feature","properties":{"cod_tema":"AREA_UTILIDADE_PUBLICA","cod_imovel":"RJ-3300803-EC20EA53FF3544DCBB8977DD755EF004","num_area":"0.4325000000000000000000000000000","ind_status":"AT"},"geometry":{"type":"Polygon","coordinates":[[[-42.8756,-22.5312],[-42.8732,-22.5282],[-42.8764,-22.5324],[-42.8756,-22.5312]]]}},{"type":"Feature","properties":{"cod_tema":"AREA_SERVIDAO_ADMINISTRATIVA_TOTAL","cod_imovel":"RJ-3300803-EC20EA53FF3544DCBB8977DD755EF004","num_area":"0.4325000000000000000000000000000","ind_status":"AT"},"geometry":{"type":"Polygon","coordinates":[[[-42.8756,-22.5312],[-42.8732,-22.5282],[-42.8764,-22.5324],[-42.8756,-22.5312]]]}},{"type":"Feature","properties":{"cod_tema":"AREA_INFRAESTRUTURA_PUBLICA","cod_imovel":"RJ-3300803-103C7F5D500F4F0AA540EBD504F82606","num_area":"0.3841000000000000000000000000000","ind_status":"AT"},"geometry":{"type":"Polygon","coordinates":[[[-42.7451,-22.6258],[-42.7418,-22.621],[-42.7451,-22.6258],[-42.7451,-22.6258]]]}},{"type":"Feature","properties":{"cod_tema":"AREA_SERVIDAO_ADMINISTRATIVA_TOTAL","cod_imovel":"RJ-3300803-103C7F5D500F4F0AA540EBD504F82606","num_area":"0.3841000000000000000000000000000","ind_status":"AT"},"geometry":{"type":"Polygon","coordinates":[[[-42.7451,-22.6258],[-42.7418,-22.621],[-42.7451,-22.6258],[-42.7451,-22.6258]]]}},{"type":"Feature","properties":{"cod_tema":"AREA_INFRAESTRUTURA_PUBLICA","cod_imovel":"RJ-3300803-565B734735C74B6A8FF7E952CAD2BC06","num_area":"0.2425000000000000000000000000000","ind_status":"AT"},"geometry":{"type":"Polygon","coordinates":[[[-42.8424,-22.5591],[-42.8453,-22.5623],[-42.8424,-22.5591],[-42.8424,-22.5591]]]}},{"type":"Feature","properties":{"cod_tema":"AREA_SERVIDAO_ADMINISTRATIVA_TOTAL","cod_imovel":"RJ-3300803-565B734735C74B6A8FF7E952CAD2BC06","num_area":"0.2425000000000000000000000000000","ind_status":"AT"},"geometry":{"type":"Polygon","coordinates":[[[-42.8424,-22.5591],[-42.8453,-22.5623],[-42.8424,-22.5591],[-42.8424,-22.5591]]]}},{"type":"Feature","properties":{"cod_tema":"AREA_INFRAESTRUTURA_PUBLICA","cod_imovel":"RJ-3300803-C039304FA53B4020AF00999B1AB287EB","num_area":"0.7995000000000000000000000000000","ind_status":"AT"},"geometry":{"type":"Polygon","coordinates":[[[-42.7654,-22.572],[-42.7651,-22.5675],[-42.7685,-22.569],[-42.7647,-22.5648],[-42.7653,-22.5717],[-42.7654,-22.572]]]}},{"type":"Feature","properties":{"cod_tema":"AREA_SERVIDAO_ADMINISTRATIVA_TOTAL","cod_imovel":"RJ-3300803-C039304FA53B4020AF00999B1AB287EB","num_area":"0.7995000000000000000000000000000","ind_status":"AT"},"geometry":{"type":"Polygon","coordinates":[[[-42.7654,-22.572],[-42.7651,-22.5675],[-42.7685,-22.569],[-42.7647,-22.5648],[-42.7653,-22.5717],[-42.7654,-22.572]]]}},{"type":"Feature","properties":{"cod_tema":"AREA_INFRAESTRUTURA_PUBLICA","cod_imovel":"RJ-3300803-0BE6317D843248A2A80DBA9FB4E94DD0","num_area":"0.1144000000000000000000000000000","ind_status":"AT"},"geometry":{"type":"Polygon","coordinates":[[[-42.8379,-22.6148],[-42.8366,-22.6183],[-42.8376,-22.6154],[-42.8379,-22.6148]]]}},{"type":"Feature","properties":{"cod_tema":"AREA_SERVIDAO_ADMINISTRATIVA_TOTAL","cod_imovel":"RJ-3300803-0BE6317D843248A2A80DBA9FB4E94DD0","num_area":"0.1144000000000000000000000000000","ind_status":"AT"},"geometry":{"type":"Polygon","coordinates":[[[-42.8379,-22.6148],[-42.8366,-22.6183],[-42.8376,-22.6154],[-42.8379,-22.6148]]]}},{"type":"Feature","properties":{"cod_tema":"AREA_INFRAESTRUTURA_PUBLICA","cod_imovel":"RJ-3300803-5400CFEBE8864B4FA2C170ADB3CA28D5","num_area":"0.1819000000000000000000000000000","ind_status":"AT"},"geometry":{"type":"Polygon","coordinates":[[[-42.8147,-22.6373],[-42.8119,-22.6349],[-42.8145,-22.6372],[-42.8147,-22.6373]]]}},{"type":"Feature","properties":{"cod_tema":"AREA_SERVIDAO_ADMINISTRATIVA_TOTAL","cod_imovel":"RJ-3300803-5400CFEBE8864B4FA2C170ADB3CA28D5","num_area":"0.1819000000000000000000000000000","ind_status":"AT"},"geometry":{"type":"Polygon","coordinates":[[[-42.8147,-22.6373],[-42.8119,-22.6349],[-42.8145,-22.6372],[-42.8147,-22.6373]]]}},{"type":"Feature","properties":{"cod_tema":"AREA_INFRAESTRUTURA_PUBLICA","cod_imovel":"RJ-3300803-B890E3433D2E434BBC34D40255A2E64D","num_area":"0.3431000000000000000000000000000","ind_status":"AT"},"geometry":{"type":"Polygon","coordinates":[[[-42.7777,-22.601],[-42.7794,-22.6036],[-42.7816,-22.5992],[-42.7778,-22.6011],[-42.7777,-22.601]]]}},{"type":"Feature","properties":{"cod_tema":"AREA_SERVIDAO_ADMINISTRATIVA_TOTAL","cod_imovel":"RJ-3300803-B890E3433D2E434BBC34D40255A2E64D","num_area":"0.3431000000000000000000000000000","ind_status":"AT"},"geometry":{"type":"Polygon","coordinates":[[[-42.7777,-22.601],[-42.7794,-22.6036],[-42.7816,-22.5992],[-42.7778,-22.6011],[-42.7777,-22.601]]]}},{"type":"Feature","properties":{"cod_tema":"AREA_INFRAESTRUTURA_PUBLICA","cod_imovel":"RJ-3300803-07C79D7885024050AAC2316D521BC28B","num_area":"0.5850000000000000000000000000000","ind_status":"AT"},"geometry":{"type":"Polygon","coordinates":[[[-42.8575,-22.6135],[-42.8476,-22.6163],[-42.857,-22.6141],[-42.8575,-22.6135]]]}},{"type":"Feature","properties":{"cod_tema":"AREA_SERVIDAO_ADMINISTRATIVA_TOTAL","cod_imovel":"RJ-3300803-07C79D7885024050AAC2316D521BC28B","num_area":"0.5850000000000000000000000000000","ind_status":"AT"},"geometry":{"type":"Polygon","coordinates":[[[-42.8575,-22.6135],[-42.8476,-22.6163],[-42.857,-22.6141],[-42.8575,-22.6135]]]}},{"type":"Feature","properties":{"cod_tema":"AREA_INFRAESTRUTURA_PUBLICA","cod_imovel":"RJ-3300803-35F46EA0CD394346AB6D14CED8B83C01","num_area":"0.1033000000000000000000000000000","ind_status":"AT"},"geometry":{"type":"Polygon","coordinates":[[[-42.841,-22.6062],[-42.8403,-22.6103],[-42.841,-22.6062],[-42.841,-22.6062]]]}},{"type":"Feature","properties":{"cod_tema":"AREA_SERVIDAO_ADMINISTRATIVA_TOTAL","cod_imovel":"RJ-3300803-35F46EA0CD394346AB6D14CED8B83C01","num_area":"0.1033000000000000000000000000000","ind_status":"AT"},"geometry":{"type":"Polygon","coordinates":[[[-42.841,-22.6062],[-42.8403,-22.6103],[-42.841,-22.6062],[-42.841,-22.6062]]]}},{"type":"Feature","properties":{"cod_tema":"AREA_INFRAESTRUTURA_PUBLICA","cod_imovel":"RJ-3300803-D22BE5367E584A8D9DC53927A05976F9","num_area":"0.2776000000000000000000000000000","ind_status":"AT"},"geometry":{"type":"Polygon","coordinates":[[[-42.7592,-22.5868],[-42.7628,-22.587],[-42.7592,-22.5868],[-42.7592,-22.5868]]]}},{"type":"Feature","properties":{"cod_tema":"AREA_SERVIDAO_ADMINISTRATIVA_TOTAL","cod_imovel":"RJ-3300803-D22BE5367E584A8D9DC53927A05976F9","num_area":"0.2776000000000000000000000000000","ind_status":"AT"},"geometry":{"type":"Polygon","coordinates":[[[-42.7592,-22.5868],[-42.7628,-22.587],[-42.7592,-22.5868],[-42.7592,-22.5868]]]}},{"type":"Feature","properties":{"cod_tema":"AREA_INFRAESTRUTURA_PUBLICA","cod_imovel":"RJ-3300803-31EEC9046D5240A9B2AD41A374686D0C","num_area":"0.6341000000000000000000000000000","ind_status":"AT"},"geometry":{"type":"Polygon","coordinates":[[[-42.7777,-22.601],[-42.7722,-22.5972],[-42.7776,-22.601],[-42.7777,-22.601]]]}},{"type":"Feature","properties":{"cod_tema":"AREA_SERVIDAO_ADMINISTRATIVA_TOTAL","cod_imovel":"RJ-3300803-31EEC9046D5240A9B2AD41A374686D0C","num_area":"0.6341000000000000000000000000000","ind_status":"AT"},"geometry":{"type":"Polygon","coordinates":[[[-42.7777,-22.601],[-42.7722,-22.5972],[-42.7776,-22.601],[-42.7777,-22.601]]]}},{"type":"Feature","properties":{"cod_tema":"AREA_INFRAESTRUTURA_PUBLICA","cod_imovel":"RJ-3300803-34282789FAB14E31A2618506CEAA8D25","num_area":"0.2564000000000000000000000000000","ind_status":"AT"},"geometry":{"type":"Polygon","coordinates":[[[-42.7816,-22.4886],[-42.7864,-22.4889],[-42.7816,-22.4886],[-42.7816,-22.4886]]]}},{"type":"Feature","properties":{"cod_tema":"AREA_SERVIDAO_ADMINISTRATIVA_TOTAL","cod_imovel":"RJ-3300803-34282789FAB14E31A2618506CEAA8D25","num_area":"0.2564000000000000000000000000000","ind_status":"AT"},"geometry":{"type":"Polygon","coordinates":[[[-42.7816,-22.4886],[-42.7864,-22.4889],[-42.7816,-22.4886],[-42.7816,-22.4886]]]}},{"type":"Feature","properties":{"cod_tema":"AREA_INFRAESTRUTURA_PUBLICA","cod_imovel":"RJ-3300803-94EECB0C494B4E30850E2C5AD706C195","num_area":"0.2923000000000000000000000000000","ind_status":"AT"},"geometry":{"type":"Polygon","coordinates":[[[-42.7704,-22.477],[-42.7734,-22.4755],[-42.7706,-22.477],[-42.7704,-22.477]]]}},{"type":"Feature","properties":{"cod_tema":"AREA_SERVIDAO_ADMINISTRATIVA_TOTAL","cod_imovel":"RJ-3300803-94EECB0C494B4E30850E2C5AD706C195","num_area":"0.2923000000000000000000000000000","ind_status":"AT"},"geometry":{"type":"Polygon","coordinates":[[[-42.7704,-22.477],[-42.7734,-22.4755],[-42.7706,-22.477],[-42.7704,-22.477]]]}},{"type":"Feature","properties":{"cod_tema":"AREA_INFRAESTRUTURA_PUBLICA","cod_imovel":"RJ-3300803-B303BF1D45C1480FBFD675288B0AD399","num_area":"0.6626000000000000000000000000000","ind_status":"AT"},"geometry":{"type":"Polygon","coordinates":[[[-42.8612,-22.5912],[-42.8522,-22.5849],[-42.8612,-22.5912],[-42.8612,-22.5912]]]}},{"type":"Feature","properties":{"cod_tema":"AREA_SERVIDAO_ADMINISTRATIVA_TOTAL","cod_imovel":"RJ-3300803-B303BF1D45C1480FBFD675288B0AD399","num_area":"0.6626000000000000000000000000000","ind_status":"AT"},"geometry":{"type":"Polygon","coordinates":[[[-42.8612,-22.5912],[-42.8522,-22.5849],[-42.8612,-22.5912],[-42.8612,-22.5912]]]}},{"type":"Feature","properties":{"cod_tema":"AREA_INFRAESTRUTURA_PUBLICA","cod_imovel":"RJ-3300803-CF419D0F76FF4820BE3D8CE027AC3DD1","num_area":"0.3568000000000000000000000000000","ind_status":"AT"},"geometry":{"type":"Polygon","coordinates":[[[-42.7396,-22.583],[-42.7441,-22.5845],[-42.7396,-22.583],[-42.7396,-22.583]]]}},{"type":"Feature","properties":{"cod_tema":"AREA_SERVIDAO_ADMINISTRATIVA_TOTAL","cod_imovel":"RJ-3300803-CF419D0F76FF4820BE3D8CE027AC3DD1","num_area":"0.3568000000000000000000000000000","ind_status":"AT"},"geometry":{"type":"Polygon","coordinates":[[[-42.7396,-22.583],[-42.7441,-22.5845],[-42.7396,-22.583],[-42.7396,-22.583]]]}},{"type":"Feature","properties":{"cod_tema":"AREA_UTILIDADE_PUBLICA","cod_imovel":"RJ-3300803-038CE5AE6A38479F880EB63CE14E3CB7","num_area":"6.0147000000000000000000000000000","ind_status":"AT"},"geometry":{"type":"Polygon","coordinates":[[[-42.7373,-22.5592],[-42.7413,-22.5632],[-42.7374,-22.559],[-42.7373,-22.5592]],[[-42.725,-22.5795],[-42.7297,-22.582],[-42.7255,-22.5795],[-42.725,-22.5795]]]}},{"type":"Feature","properties":{"cod_tema":"AREA_SERVIDAO_ADMINISTRATIVA_TOTAL","cod_imovel":"RJ-3300803-038CE5AE6A38479F880EB63CE14E3CB7","num_area":"16.323700000000000000000000000000","ind_status":"AT"},"geometry":{"type":"Polygon","coordinates":[[[-42.7373,-22.5592],[-42.7413,-22.5632],[-42.7374,-22.559],[-42.7373,-22.5592]],[[-42.725,-22.5795],[-42.7297,-22.582],[-42.7255,-22.5795],[-42.725,-22.5795]]]}},{"type":"Feature","properties":{"cod_tema":"AREA_UTILIDADE_PUBLICA","cod_imovel":"RJ-3300803-EF61715039274CE0A8DE1D60FC5A7A59","num_area":"4.1294000000000000000000000000000","ind_status":"AT"},"geometry":{"type":"Polygon","coordinates":[[[-42.86,-22.5675],[-42.8608,-22.5631],[-42.8597,-22.5673],[-42.86,-22.5675]]]}},{"type":"Feature","properties":{"cod_tema":"AREA_SERVIDAO_ADMINISTRATIVA_TOTAL","cod_imovel":"RJ-3300803-EF61715039274CE0A8DE1D60FC5A7A59","num_area":"4.1294000000000000000000000000000","ind_status":"AT"},"geometry":{"type":"Polygon","coordinates":[[[-42.86,-22.5675],[-42.8608,-22.5631],[-42.8597,-22.5673],[-42.86,-22.5675]]]}},{"type":"Feature","properties":{"cod_tema":"AREA_SERVIDAO_ADMINISTRATIVA_TOTAL","cod_imovel":"RJ-3300803-8D6F55B6A9054D5C80116EA742B25F1D","num_area":"3.7850000000000000000000000000000","ind_status":"AT"},"geometry":{"type":"Polygon","coordinates":[[[-42.8227,-22.6154],[-42.8215,-22.6183],[-42.8283,-22.6182],[-42.8218,-22.6177],[-42.8227,-22.6154]]]}},{"type":"Feature","properties":{"cod_tema":"AREA_UTILIDADE_PUBLICA","cod_imovel":"RJ-3300803-9088F9EB13C14E708EAFEC9655DD6F92","num_area":"0.3114000000000000000000000000000","ind_status":"AT"},"geometry":{"type":"Polygon","coordinates":[[[-42.8718,-22.5211],[-42.8739,-22.5242],[-42.8718,-22.5212],[-42.8718,-22.5211]]]}},{"type":"Feature","properties":{"cod_tema":"AREA_SERVIDAO_ADMINISTRATIVA_TOTAL","cod_imovel":"RJ-3300803-9088F9EB13C14E708EAFEC9655DD6F92","num_area":"0.3114000000000000000000000000000","ind_status":"AT"},"geometry":{"type":"Polygon","coordinates":[[[-42.8718,-22.5211],[-42.8739,-22.5242],[-42.8718,-22.5212],[-42.8718,-22.5211]]]}},{"type":"Feature","properties":{"cod_tema":"AREA_UTILIDADE_PUBLICA","cod_imovel":"RJ-3300803-424D004BACDD43F7AB38E49F15365033","num_area":"0.9971000000000000000000000000000","ind_status":"AT"},"geometry":{"type":"Polygon","coordinates":[[[-42.7907,-22.5618],[-42.7859,-22.5629],[-42.7907,-22.5618],[-42.7907,-22.5618]]]}},{"type":"Feature","properties":{"cod_tema":"AREA_SERVIDAO_ADMINISTRATIVA_TOTAL","cod_imovel":"RJ-3300803-424D004BACDD43F7AB38E49F15365033","num_area":"0.9971000000000000000000000000000","ind_status":"AT"},"geometry":{"type":"Polygon","coordinates":[[[-42.7907,-22.5618],[-42.7859,-22.5629],[-42.7907,-22.5618],[-42.7907,-22.5618]]]}},{"type":"Feature","properties":{"cod_tema":"AREA_INFRAESTRUTURA_PUBLICA","cod_imovel":"RJ-3300803-51AE8855981F403A83D000B9C51C1F93","num_area":"2.1101000000000000000000000000000","ind_status":"AT"},"geometry":{"type":"Polygon","coordinates":[[[-42.7778,-22.4614],[-42.7701,-22.4543],[-42.7776,-22.4612],[-42.7778,-22.4614]],[[-42.761,-22.4735],[-42.7612,-22.4659],[-42.7609,-22.4734],[-42.761,-22.4735]]]}},{"type":"Feature","properties":{"cod_tema":"AREA_SERVIDAO_ADMINISTRATIVA_TOTAL","cod_imovel":"RJ-3300803-51AE8855981F403A83D000B9C51C1F93","num_area":"2.1101000000000000000000000000000","ind_status":"AT"},"geometry":{"type":"Polygon","coordinates":[[[-42.7778,-22.4614],[-42.7701,-22.4543],[-42.7776,-22.4612],[-42.7778,-22.4614]],[[-42.761,-22.4735],[-42.7612,-22.4659],[-42.7609,-22.4734],[-42.761,-22.4735]]]}},{"type":"Feature","properties":{"cod_tema":"AREA_UTILIDADE_PUBLICA","cod_imovel":"RJ-3300803-694302504B914DC1B49F7CDAD5B93810","num_area":"0.4091000000000000000000000000000","ind_status":"AT"},"geometry":{"type":"Polygon","coordinates":[[[-42.6137,-22.5125],[-42.6199,-22.5106],[-42.6138,-22.5125],[-42.6137,-22.5125]],[[-42.6159,-22.5114],[-42.6178,-22.5087],[-42.6162,-22.5113],[-42.6159,-22.5114]]]}},{"type":"Feature","properties":{"cod_tema":"AREA_SERVIDAO_ADMINISTRATIVA_TOTAL","cod_imovel":"RJ-3300803-694302504B914DC1B49F7CDAD5B93810","num_area":"0.4091000000000000000000000000000","ind_status":"AT"},"geometry":{"type":"Polygon","coordinates":[[[-42.6137,-22.5125],[-42.6199,-22.5106],[-42.6138,-22.5125],[-42.6137,-22.5125]],[[-42.6159,-22.5114],[-42.6178,-22.5087],[-42.6162,-22.5113],[-42.6159,-22.5114]]]}},{"type":"Feature","properties":{"cod_tema":"AREA_UTILIDADE_PUBLICA","cod_imovel":"RJ-3300803-57922EB16BBD4B15A8DE9ADF76671B99","num_area":"0.2428000000000000000000000000000","ind_status":"AT"},"geometry":{"type":"Polygon","coordinates":[[[-42.7145,-22.4539],[-42.7176,-22.4555],[-42.7145,-22.4539],[-42.7145,-22.4539]]]}},{"type":"Feature","properties":{"cod_tema":"AREA_SERVIDAO_ADMINISTRATIVA_TOTAL","cod_imovel":"RJ-3300803-57922EB16BBD4B15A8DE9ADF76671B99","num_area":"0.2428000000000000000000000000000","ind_status":"AT"},"geometry":{"type":"Polygon","coordinates":[[[-42.7145,-22.4539],[-42.7176,-22.4555],[-42.7145,-22.4539],[-42.7145,-22.4539]]]}},{"type":"Feature","properties":{"cod_tema":"AREA_INFRAESTRUTURA_PUBLICA","cod_imovel":"RJ-3300803-401B7B665BF04F178DF5D2DB894C8008","num_area":"9.6796000000000000000000000000000","ind_status":"AT"},"geometry":{"type":"Polygon","coordinates":[[[-42.5983,-22.5758],[-42.6117,-22.5729],[-42.6059,-22.5742],[-42.5983,-22.5758]]]}},{"type":"Feature","properties":{"cod_tema":"AREA_SERVIDAO_ADMINISTRATIVA_TOTAL","cod_imovel":"RJ-3300803-401B7B665BF04F178DF5D2DB894C8008","num_area":"9.6796000000000000000000000000000","ind_status":"AT"},"geometry":{"type":"Polygon","coordinates":[[[-42.5983,-22.5758],[-42.6117,-22.5729],[-42.6059,-22.5742],[-42.5983,-22.5758]]]}},{"type":"Feature","properties":{"cod_tema":"AREA_UTILIDADE_PUBLICA","cod_imovel":"RJ-3300803-7391310962CB4FFEBB40931614055BEC","num_area":"0.4780000000000000000000000000000","ind_status":"AT"},"geometry":{"type":"Polygon","coordinates":[[[-42.5867,-22.6074],[-42.5851,-22.6021],[-42.5864,-22.6073],[-42.5867,-22.6074]]]}},{"type":"Feature","properties":{"cod_tema":"AREA_SERVIDAO_ADMINISTRATIVA_TOTAL","cod_imovel":"RJ-3300803-7391310962CB4FFEBB40931614055BEC","num_area":"0.4780000000000000000000000000000","ind_status":"AT"},"geometry":{"type":"Polygon","coordinates":[[[-42.5867,-22.6074],[-42.5851,-22.6021],[-42.5864,-22.6073],[-42.5867,-22.6074]]]}},{"type":"Feature","properties":{"cod_tema":"AREA_INFRAESTRUTURA_PUBLICA","cod_imovel":"RJ-3300803-4897740A5C2B463784379CA5D04E5A9C","num_area":"0.7376000000000000000000000000000","ind_status":"AT"},"geometry":{"type":"Polygon","coordinates":[[[-42.6968,-22.6249],[-42.6932,-22.6242],[-42.6968,-22.6249],[-42.6968,-22.6249]]]}},{"type":"Feature","properties":{"cod_tema":"AREA_SERVIDAO_ADMINISTRATIVA_TOTAL","cod_imovel":"RJ-3300803-4897740A5C2B463784379CA5D04E5A9C","num_area":"0.7376000000000000000000000000000","ind_status":"AT"},"geometry":{"type":"Polygon","coordinates":[[[-42.6968,-22.6249],[-42.6932,-22.6242],[-42.6968,-22.6249],[-42.6968,-22.6249]]]}},{"type":"Feature","properties":{"cod_tema":"AREA_INFRAESTRUTURA_PUBLICA","cod_imovel":"RJ-3300803-9A2706456B634F8FA2E8086F2581B2F6","num_area":"0.2932000000000000000000000000000","ind_status":"AT"},"geometry":{"type":"Polygon","coordinates":[[[-42.6388,-22.5052],[-42.6398,-22.5081],[-42.6369,-22.5021],[-42.6388,-22.5052],[-42.6388,-22.5052]]]}},{"type":"Feature","properties":{"cod_tema":"AREA_SERVIDAO_ADMINISTRATIVA_TOTAL","cod_imovel":"RJ-3300803-9A2706456B634F8FA2E8086F2581B2F6","num_area":"0.2932000000000000000000000000000","ind_status":"AT"},"geometry":{"type":"Polygon","coordinates":[[[-42.6388,-22.5052],[-42.6398,-22.5081],[-42.6369,-22.5021],[-42.6388,-22.5052],[-42.6388,-22.5052]]]}},{"type":"Feature","properties":{"cod_tema":"AREA_INFRAESTRUTURA_PUBLICA","cod_imovel":"RJ-3300803-4B180F542178408196D7F20745F92F63","num_area":"5.5175000000000000000000000000000","ind_status":"AT"},"geometry":{"type":"Polygon","coordinates":[[[-42.6563,-22.5631],[-42.6598,-22.5615],[-42.6563,-22.563],[-42.6563,-22.5631]],[[-42.6571,-22.5659],[-42.6602,-22.5648],[-42.6485,-22.5697],[-42.6567,-22.5661],[-42.6571,-22.5659]]]}},{"type":"Feature","properties":{"cod_tema":"AREA_SERVIDAO_ADMINISTRATIVA_TOTAL","cod_imovel":"RJ-3300803-4B180F542178408196D7F20745F92F63","num_area":"5.5175000000000000000000000000000","ind_status":"AT"},"geometry":{"type":"Polygon","coordinates":[[[-42.6563,-22.5631],[-42.6598,-22.5615],[-42.6563,-22.563],[-42.6563,-22.5631]],[[-42.6571,-22.5659],[-42.6602,-22.5648],[-42.6485,-22.5697],[-42.6567,-22.5661],[-42.6571,-22.5659]]]}},{"type":"Feature","properties":{"cod_tema":"AREA_INFRAESTRUTURA_PUBLICA","cod_imovel":"RJ-3300803-B19B90789D124CFCA36451699C3D5DBE","num_area":"8.7609000000000000000000000000000","ind_status":"AT"},"geometry":{"type":"Polygon","coordinates":[[[-42.7736,-22.5603],[-42.7613,-22.5574],[-42.7704,-22.5595],[-42.7736,-22.5603]]]}},{"type":"Feature","properties":{"cod_tema":"AREA_SERVIDAO_ADMINISTRATIVA_TOTAL","cod_imovel":"RJ-3300803-B19B90789D124CFCA36451699C3D5DBE","num_area":"8.7609000000000000000000000000000","ind_status":"AT"},"geometry":{"type":"Polygon","coordinates":[[[-42.7736,-22.5603],[-42.7613,-22.5574],[-42.7704,-22.5595],[-42.7736,-22.5603]]]}},{"type":"Feature","properties":{"cod_tema":"AREA_UTILIDADE_PUBLICA","cod_imovel":"RJ-3300803-D9F628D492204F859E43EAE2ECF8F1E4","num_area":"0.4288000000000000000000000000000","ind_status":"AT"},"geometry":{"type":"Polygon","coordinates":[[[-42.6109,-22.5199],[-42.6067,-22.5202],[-42.6109,-22.52],[-42.6109,-22.5199]]]}},{"type":"Feature","properties":{"cod_tema":"AREA_SERVIDAO_ADMINISTRATIVA_TOTAL","cod_imovel":"RJ-3300803-D9F628D492204F859E43EAE2ECF8F1E4","num_area":"0.4288000000000000000000000000000","ind_status":"AT"},"geometry":{"type":"Polygon","coordinates":[[[-42.6109,-22.5199],[-42.6067,-22.5202],[-42.6109,-22.52],[-42.6109,-22.5199]]]}},{"type":"Feature","properties":{"cod_tema":"AREA_INFRAESTRUTURA_PUBLICA","cod_imovel":"RJ-3300803-A7449122FA894FF0850DF6A803D72B4A","num_area":"0.3260000000000000000000000000000","ind_status":"AT"},"geometry":{"type":"Polygon","coordinates":[[[-42.7812,-22.4631],[-42.7778,-22.4614],[-42.7812,-22.4631],[-42.7812,-22.4631]]]}},{"type":"Feature","properties":{"cod_tema":"AREA_SERVIDAO_ADMINISTRATIVA_TOTAL","cod_imovel":"RJ-3300803-A7449122FA894FF0850DF6A803D72B4A","num_area":"0.3260000000000000000000000000000","ind_status":"AT"},"geometry":{"type":"Polygon","coordinates":[[[-42.7812,-22.4631],[-42.7778,-22.4614],[-42.7812,-22.4631],[-42.7812,-22.4631]]]}},{"type":"Feature","properties":{"cod_tema":"AREA_UTILIDADE_PUBLICA","cod_imovel":"RJ-3300803-C293CF3F695E40D899FA8F5AB7C14A52","num_area":"0.1915000000000000000000000000000","ind_status":"AT"},"geometry":{"type":"Polygon","coordinates":[[[-42.7003,-22.6086],[-42.6952,-22.6069],[-42.7003,-22.6086],[-42.7003,-22.6086]]]}},{"type":"Feature","properties":{"cod_tema":"AREA_SERVIDAO_ADMINISTRATIVA_TOTAL","cod_imovel":"RJ-3300803-C293CF3F695E40D899FA8F5AB7C14A52","num_area":"0.1915000000000000000000000000000","ind_status":"AT"},"geometry":{"type":"Polygon","coordinates":[[[-42.7003,-22.6086],[-42.6952,-22.6069],[-42.7003,-22.6086],[-42.7003,-22.6086]]]}},{"type":"Feature","properties":{"cod_tema":"AREA_INFRAESTRUTURA_PUBLICA","cod_imovel":"RJ-3300803-CBF3F0B9DF4A489BBA1FE986CBBC01D1","num_area":"0.6491000000000000000000000000000","ind_status":"AT"},"geometry":{"type":"Polygon","coordinates":[[[-42.6743,-22.5821],[-42.6823,-22.5816],[-42.6746,-22.582],[-42.6743,-22.5821]]]}},{"type":"Feature","properties":{"cod_tema":"AREA_SERVIDAO_ADMINISTRATIVA_TOTAL","cod_imovel":"RJ-3300803-CBF3F0B9DF4A489BBA1FE986CBBC01D1","num_area":"0.6491000000000000000000000000000","ind_status":"AT"},"geometry":{"type":"Polygon","coordinates":[[[-42.6743,-22.5821],[-42.6823,-22.5816],[-42.6746,-22.582],[-42.6743,-22.5821]]]}},{"type":"Feature","properties":{"cod_tema":"AREA_INFRAESTRUTURA_PUBLICA","cod_imovel":"RJ-3300803-EA48DE14DCB744079BEA2B91AF9CC53C","num_area":"0.6539000000000000000000000000000","ind_status":"AT"},"geometry":{"type":"Polygon","coordinates":[[[-42.6599,-22.6249],[-42.6641,-22.6238],[-42.6599,-22.6249],[-42.6599,-22.6249]]]}},{"type":"Feature","properties":{"cod_tema":"AREA_UTILIDADE_PUBLICA","cod_imovel":"RJ-3300803-EA48DE14DCB744079BEA2B91AF9CC53C","num_area":"0.2617000000000000000000000000000","ind_status":"AT"},"geometry":{"type":"Polygon","coordinates":[[[-42.6644,-22.6242],[-42.661,-22.6232],[-42.6644,-22.6242],[-42.6644,-22.6242]]]}},{"type":"Feature","properties":{"cod_tema":"AREA_SERVIDAO_ADMINISTRATIVA_TOTAL","cod_imovel":"RJ-3300803-EA48DE14DCB744079BEA2B91AF9CC53C","num_area":"0.8947000000000000000000000000000","ind_status":"AT"},"geometry":{"type":"Polygon","coordinates":[[[-42.6599,-22.6249],[-42.6644,-22.6242],[-42.6599,-22.6249],[-42.6599,-22.6249]]]}},{"type":"Feature","properties":{"cod_tema":"AREA_INFRAESTRUTURA_PUBLICA","cod_imovel":"RJ-3300803-90010F0B312B4EA3B2DB084C8BE9F3AC","num_area":"0.2018000000000000000000000000000","ind_status":"AT"},"geometry":{"type":"Polygon","coordinates":[[[-42.6596,-22.6041],[-42.6623,-22.6062],[-42.6596,-22.6041],[-42.6596,-22.6041]]]}},{"type":"Feature","properties":{"cod_tema":"AREA_SERVIDAO_ADMINISTRATIVA_TOTAL","cod_imovel":"RJ-3300803-90010F0B312B4EA3B2DB084C8BE9F3AC","num_area":"0.2018000000000000000000000000000","ind_status":"AT"},"geometry":{"type":"Polygon","coordinates":[[[-42.6596,-22.6041],[-42.6623,-22.6062],[-42.6596,-22.6041],[-42.6596,-22.6041]]]}},{"type":"Feature","properties":{"cod_tema":"AREA_UTILIDADE_PUBLICA","cod_imovel":"RJ-3300803-1D24C10F9E094C06AF42A38437B3A328","num_area":"1.1298000000000000000000000000000","ind_status":"AT"},"geometry":{"type":"Polygon","coordinates":[[[-42.79,-22.5244],[-42.7869,-22.5207],[-42.7927,-22.528],[-42.79,-22.5245],[-42.79,-22.5244]]]}},{"type":"Feature","properties":{"cod_tema":"AREA_SERVIDAO_ADMINISTRATIVA_TOTAL","cod_imovel":"RJ-3300803-1D24C10F9E094C06AF42A38437B3A328","num_area":"1.1298000000000000000000000000000","ind_status":"AT"},"geometry":{"type":"Polygon","coordinates":[[[-42.79,-22.5244],[-42.7869,-22.5207],[-42.7927,-22.528],[-42.79,-22.5245],[-42.79,-22.5244]]]}},{"type":"Feature","properties":{"cod_tema":"AREA_INFRAESTRUTURA_PUBLICA","cod_imovel":"RJ-3300803-C3C8E59A7787416FBED1D53B84D7D147","num_area":"0.3765000000000000000000000000000","ind_status":"AT"},"geometry":{"type":"Polygon","coordinates":[[[-42.7754,-22.5419],[-42.779,-22.5421],[-42.7756,-22.5419],[-42.7754,-22.5419]]]}},{"type":"Feature","properties":{"cod_tema":"AREA_SERVIDAO_ADMINISTRATIVA_TOTAL","cod_imovel":"RJ-3300803-C3C8E59A7787416FBED1D53B84D7D147","num_area":"0.3765000000000000000000000000000","ind_status":"AT"},"geometry":{"type":"Polygon","coordinates":[[[-42.7754,-22.5419],[-42.779,-22.5421],[-42.7756,-22.5419],[-42.7754,-22.5419]]]}},{"type":"Feature","properties":{"cod_tema":"AREA_INFRAESTRUTURA_PUBLICA","cod_imovel":"RJ-3300803-3069D087538C43239A4167607F020E19","num_area":"0.4307000000000000000000000000000","ind_status":"AT"},"geometry":{"type":"Polygon","coordinates":[[[-42.7066,-22.5746],[-42.6999,-22.5738],[-42.7101,-22.5763],[-42.7066,-22.5746]]]}},{"type":"Feature","properties":{"cod_tema":"AREA_SERVIDAO_ADMINISTRATIVA_TOTAL","cod_imovel":"RJ-3300803-3069D087538C43239A4167607F020E19","num_area":"0.4307000000000000000000000000000","ind_status":"AT"},"geometry":{"type":"Polygon","coordinates":[[[-42.7066,-22.5746],[-42.6999,-22.5738],[-42.7101,-22.5763],[-42.7066,-22.5746]]]}}]}