{"type":"FeatureCollection","features":[{"type":"Feature","properties":{"cod_tema":"AREA_UTILIDADE_PUBLICA","cod_imovel":"RJ-3301207-0B4AD872D817425C9EA9C5873ECE985F","num_area":"0.2203000000000000000000000000000","ind_status":"AT"},"geometry":{"type":"Polygon","coordinates":[[[-42.5147,-21.8351],[-42.5179,-21.8353],[-42.5147,-21.8349],[-42.5147,-21.8351]]]}},{"type":"Feature","properties":{"cod_tema":"AREA_SERVIDAO_ADMINISTRATIVA_TOTAL","cod_imovel":"RJ-3301207-0B4AD872D817425C9EA9C5873ECE985F","num_area":"0.2203000000000000000000000000000","ind_status":"AT"},"geometry":{"type":"Polygon","coordinates":[[[-42.5147,-21.8351],[-42.5179,-21.8353],[-42.5147,-21.8349],[-42.5147,-21.8351]]]}},{"type":"Feature","properties":{"cod_tema":"AREA_UTILIDADE_PUBLICA","cod_imovel":"RJ-3301207-04E6D2F81CD94927BA9E74AA20235AA1","num_area":"0.3805000000000000000000000000000","ind_status":"AT"},"geometry":{"type":"Polygon","coordinates":[[[-42.6177,-21.992],[-42.6183,-22.0004],[-42.6177,-21.992],[-42.6177,-21.992]]]}},{"type":"Feature","properties":{"cod_tema":"AREA_SERVIDAO_ADMINISTRATIVA_TOTAL","cod_imovel":"RJ-3301207-04E6D2F81CD94927BA9E74AA20235AA1","num_area":"0.3805000000000000000000000000000","ind_status":"AT"},"geometry":{"type":"Polygon","coordinates":[[[-42.6177,-21.992],[-42.6183,-22.0004],[-42.6177,-21.992],[-42.6177,-21.992]]]}},{"type":"Feature","properties":{"cod_tema":"AREA_UTILIDADE_PUBLICA","cod_imovel":"RJ-3301207-07CDB6F3B8164EC7A14B6D477B6B3293","num_area":"0.1043000000000000000000000000000","ind_status":"AT"},"geometry":{"type":"Polygon","coordinates":[[[-42.5157,-21.9025],[-42.5172,-21.9054],[-42.5157,-21.9025],[-42.5157,-21.9025]]]}},{"type":"Feature","properties":{"cod_tema":"AREA_SERVIDAO_ADMINISTRATIVA_TOTAL","cod_imovel":"RJ-3301207-07CDB6F3B8164EC7A14B6D477B6B3293","num_area":"0.1043000000000000000000000000000","ind_status":"AT"},"geometry":{"type":"Polygon","coordinates":[[[-42.5157,-21.9025],[-42.5172,-21.9054],[-42.5157,-21.9025],[-42.5157,-21.9025]]]}},{"type":"Feature","properties":{"cod_tema":"AREA_INFRAESTRUTURA_PUBLICA","cod_imovel":"RJ-3301207-06599D9069BC4229B557F1740648853D","num_area":"2.9467000000000000000000000000000","ind_status":"AT"},"geometry":{"type":"Polygon","coordinates":[[[-42.4356,-21.7873],[-42.4338,-21.7846],[-42.4356,-21.7873],[-42.4356,-21.7873]],[[-42.4511,-21.8005],[-42.4434,-21.7936],[-42.4511,-21.8005],[-42.4511,-21.8005]],[[-42.4452,-21.7901],[-42.4503,-21.7833],[-42.4703,-21.7923],[-42.4503,-21.7833],[-42.4452,-21.7901],[-42.4452,-21.7901]]]}},{"type":"Feature","properties":{"cod_tema":"AREA_SERVIDAO_ADMINISTRATIVA_TOTAL","cod_imovel":"RJ-3301207-06599D9069BC4229B557F1740648853D","num_area":"2.9467000000000000000000000000000","ind_status":"AT"},"geometry":{"type":"Polygon","coordinates":[[[-42.4356,-21.7873],[-42.4338,-21.7846],[-42.4356,-21.7873],[-42.4356,-21.7873]],[[-42.4511,-21.8005],[-42.4434,-21.7936],[-42.4511,-21.8005],[-42.4511,-21.8005]],[[-42.4452,-21.7901],[-42.4503,-21.7833],[-42.4703,-21.7923],[-42.4503,-21.7833],[-42.4452,-21.7901],[-42.4452,-21.7901]]]}},{"type":"Feature","properties":{"cod_tema":"AREA_UTILIDADE_PUBLICA","cod_imovel":"RJ-3301207-08AF62ED3039466AA1812F9270A90EC6","num_area":"0.5778000000000000000000000000000","ind_status":"AT"},"geometry":{"type":"Polygon","coordinates":[[[-42.6757,-21.9564],[-42.6699,-21.9537],[-42.6757,-21.9564],[-42.6757,-21.9564]]]}},{"type":"Feature","properties":{"cod_tema":"AREA_SERVIDAO_ADMINISTRATIVA_TOTAL","cod_imovel":"RJ-3301207-08AF62ED3039466AA1812F9270A90EC6","num_area":"0.5778000000000000000000000000000","ind_status":"AT"},"geometry":{"type":"Polygon","coordinates":[[[-42.6757,-21.9564],[-42.6699,-21.9537],[-42.6757,-21.9564],[-42.6757,-21.9564]]]}},{"type":"Feature","properties":{"cod_tema":"AREA_INFRAESTRUTURA_PUBLICA","cod_imovel":"RJ-3301207-08C54B56E4C7471CB8A0C897ECFA1707","num_area":"0.9331000000000000000000000000000","ind_status":"AT"},"geometry":{"type":"Polygon","coordinates":[[[-42.6263,-21.9304],[-42.6311,-21.9351],[-42.6262,-21.9306],[-42.6263,-21.9304]]]}},{"type":"Feature","properties":{"cod_tema":"AREA_SERVIDAO_ADMINISTRATIVA_TOTAL","cod_imovel":"RJ-3301207-08C54B56E4C7471CB8A0C897ECFA1707","num_area":"0.9331000000000000000000000000000","ind_status":"AT"},"geometry":{"type":"Polygon","coordinates":[[[-42.6263,-21.9304],[-42.6311,-21.9351],[-42.6262,-21.9306],[-42.6263,-21.9304]]]}},{"type":"Feature","properties":{"cod_tema":"AREA_INFRAESTRUTURA_PUBLICA","cod_imovel":"RJ-3301207-0BD5F07BCF6340769E45C59209307173","num_area":"0.3799000000000000000000000000000","ind_status":"AT"},"geometry":{"type":"Polygon","coordinates":[[[-42.5366,-21.821],[-42.5422,-21.8235],[-42.5368,-21.8211],[-42.5366,-21.821]]]}},{"type":"Feature","properties":{"cod_tema":"AREA_SERVIDAO_ADMINISTRATIVA_TOTAL","cod_imovel":"RJ-3301207-0BD5F07BCF6340769E45C59209307173","num_area":"0.3799000000000000000000000000000","ind_status":"AT"},"geometry":{"type":"Polygon","coordinates":[[[-42.5366,-21.821],[-42.5422,-21.8235],[-42.5368,-21.8211],[-42.5366,-21.821]]]}},{"type":"Feature","properties":{"cod_tema":"AREA_UTILIDADE_PUBLICA","cod_imovel":"RJ-3301207-1BB83D09AA3049CFAB47852D50835128","num_area":"0.1774000000000000000000000000000","ind_status":"AT"},"geometry":{"type":"Polygon","coordinates":[[[-42.5906,-21.9471],[-42.5875,-21.9479],[-42.5906,-21.9471],[-42.5906,-21.9471]]]}},{"type":"Feature","properties":{"cod_tema":"AREA_SERVIDAO_ADMINISTRATIVA_TOTAL","cod_imovel":"RJ-3301207-1BB83D09AA3049CFAB47852D50835128","num_area":"0.1774000000000000000000000000000","ind_status":"AT"},"geometry":{"type":"Polygon","coordinates":[[[-42.5906,-21.9471],[-42.5875,-21.9479],[-42.5906,-21.9471],[-42.5906,-21.9471]]]}},{"type":"Feature","properties":{"cod_tema":"AREA_UTILIDADE_PUBLICA","cod_imovel":"RJ-3301207-1F67CB30797141E192361AF699D1292D","num_area":"0.2567000000000000000000000000000","ind_status":"AT"},"geometry":{"type":"Polygon","coordinates":[[[-42.5158,-21.8477],[-42.5179,-21.8413],[-42.5158,-21.8477],[-42.5158,-21.8477]]]}},{"type":"Feature","properties":{"cod_tema":"AREA_SERVIDAO_ADMINISTRATIVA_TOTAL","cod_imovel":"RJ-3301207-1F67CB30797141E192361AF699D1292D","num_area":"0.2567000000000000000000000000000","ind_status":"AT"},"geometry":{"type":"Polygon","coordinates":[[[-42.5158,-21.8477],[-42.5179,-21.8413],[-42.5158,-21.8477],[-42.5158,-21.8477]]]}},{"type":"Feature","properties":{"cod_tema":"AREA_UTILIDADE_PUBLICA","cod_imovel":"RJ-3301207-28B2A38155024E6F94322709FCCAE080","num_area":"1.5009000000000000000000000000000","ind_status":"AT"},"geometry":{"type":"Polygon","coordinates":[[[-42.4751,-21.7992],[-42.477,-21.8056],[-42.4721,-21.8104],[-42.4778,-21.8023],[-42.4845,-21.8097],[-42.4752,-21.7992],[-42.4751,-21.7992]],[[-42.4838,-21.7988],[-42.4948,-21.8033],[-42.4837,-21.7987],[-42.4838,-21.7988]]]}},{"type":"Feature","properties":{"cod_tema":"AREA_SERVIDAO_ADMINISTRATIVA_TOTAL","cod_imovel":"RJ-3301207-28B2A38155024E6F94322709FCCAE080","num_area":"1.5009000000000000000000000000000","ind_status":"AT"},"geometry":{"type":"Polygon","coordinates":[[[-42.4751,-21.7992],[-42.477,-21.8056],[-42.4721,-21.8104],[-42.4778,-21.8023],[-42.4845,-21.8097],[-42.4752,-21.7992],[-42.4751,-21.7992]],[[-42.4838,-21.7988],[-42.4948,-21.8033],[-42.4837,-21.7987],[-42.4838,-21.7988]]]}},{"type":"Feature","properties":{"cod_tema":"AREA_INFRAESTRUTURA_PUBLICA","cod_imovel":"RJ-3301207-2BCEC0025E9646698A8B3316AFA9650C","num_area":"0.4972000000000000000000000000000","ind_status":"AT"},"geometry":{"type":"Polygon","coordinates":[[[-42.6441,-21.8733],[-42.6404,-21.8714],[-42.6441,-21.8734],[-42.6441,-21.8733]],[[-42.644,-21.8731],[-42.6405,-21.8713],[-42.644,-21.8731],[-42.644,-21.8731]]]}},{"type":"Feature","properties":{"cod_tema":"AREA_SERVIDAO_ADMINISTRATIVA_TOTAL","cod_imovel":"RJ-3301207-2BCEC0025E9646698A8B3316AFA9650C","num_area":"0.7270000000000000000000000000000","ind_status":"AT"},"geometry":{"type":"Polygon","coordinates":[[[-42.6441,-21.8733],[-42.6404,-21.8714],[-42.6441,-21.8734],[-42.6441,-21.8733]],[[-42.644,-21.8731],[-42.6405,-21.8713],[-42.644,-21.8731],[-42.644,-21.8731]]]}},{"type":"Feature","properties":{"cod_tema":"AREA_INFRAESTRUTURA_PUBLICA","cod_imovel":"RJ-3301207-2D14735A78F6470C95FC4A5324FC91E9","num_area":"0.6591000000000000000000000000000","ind_status":"AT"},"geometry":{"type":"Polygon","coordinates":[[[-42.5009,-21.8279],[-42.5122,-21.8248],[-42.5009,-21.8279],[-42.5009,-21.8279]]]}},{"type":"Feature","properties":{"cod_tema":"AREA_SERVIDAO_ADMINISTRATIVA_TOTAL","cod_imovel":"RJ-3301207-2D14735A78F6470C95FC4A5324FC91E9","num_area":"0.6591000000000000000000000000000","ind_status":"AT"},"geometry":{"type":"Polygon","coordinates":[[[-42.5009,-21.8279],[-42.5122,-21.8248],[-42.5009,-21.8279],[-42.5009,-21.8279]]]}},{"type":"Feature","properties":{"cod_tema":"AREA_UTILIDADE_PUBLICA","cod_imovel":"RJ-3301207-31B4E7A8E7904691B7E51C42AE80B421","num_area":"0.4372000000000000000000000000000","ind_status":"AT"},"geometry":{"type":"Polygon","coordinates":[[[-42.632,-21.8741],[-42.6295,-21.8762],[-42.6322,-21.874],[-42.632,-21.8741]],[[-42.629,-21.8718],[-42.6342,-21.872],[-42.629,-21.8718],[-42.629,-21.8718]]]}},{"type":"Feature","properties":{"cod_tema":"AREA_SERVIDAO_ADMINISTRATIVA_TOTAL","cod_imovel":"RJ-3301207-31B4E7A8E7904691B7E51C42AE80B421","num_area":"0.4372000000000000000000000000000","ind_status":"AT"},"geometry":{"type":"Polygon","coordinates":[[[-42.632,-21.8741],[-42.6295,-21.8762],[-42.6322,-21.874],[-42.632,-21.8741]],[[-42.629,-21.8718],[-42.6342,-21.872],[-42.629,-21.8718],[-42.629,-21.8718]]]}},{"type":"Feature","properties":{"cod_tema":"AREA_UTILIDADE_PUBLICA","cod_imovel":"RJ-3301207-3309B99C61574EEF8BBBFC6B636EB378","num_area":"0.2444000000000000000000000000000","ind_status":"AT"},"geometry":{"type":"Polygon","coordinates":[[[-42.501,-21.8124],[-42.501,-21.8163],[-42.501,-21.8124],[-42.501,-21.8124]]]}},{"type":"Feature","properties":{"cod_tema":"AREA_SERVIDAO_ADMINISTRATIVA_TOTAL","cod_imovel":"RJ-3301207-3309B99C61574EEF8BBBFC6B636EB378","num_area":"0.2444000000000000000000000000000","ind_status":"AT"},"geometry":{"type":"Polygon","coordinates":[[[-42.501,-21.8124],[-42.501,-21.8163],[-42.501,-21.8124],[-42.501,-21.8124]]]}},{"type":"Feature","properties":{"cod_tema":"AREA_UTILIDADE_PUBLICA","cod_imovel":"RJ-3301207-3CA4A849CC5B4081A57AC8D7AFA4BE8B","num_area":"0.3808000000000000000000000000000","ind_status":"AT"},"geometry":{"type":"Polygon","coordinates":[[[-42.5347,-21.8808],[-42.5389,-21.882],[-42.5347,-21.8808],[-42.5347,-21.8808]]]}},{"type":"Feature","properties":{"cod_tema":"AREA_SERVIDAO_ADMINISTRATIVA_TOTAL","cod_imovel":"RJ-3301207-3CA4A849CC5B4081A57AC8D7AFA4BE8B","num_area":"0.3808000000000000000000000000000","ind_status":"AT"},"geometry":{"type":"Polygon","coordinates":[[[-42.5347,-21.8808],[-42.5389,-21.882],[-42.5347,-21.8808],[-42.5347,-21.8808]]]}},{"type":"Feature","properties":{"cod_tema":"AREA_UTILIDADE_PUBLICA","cod_imovel":"RJ-3301207-3F4ADA2B5FC747B8983B218E90346DC9","num_area":"0.1852000000000000000000000000000","ind_status":"AT"},"geometry":{"type":"Polygon","coordinates":[[[-42.6245,-21.9152],[-42.6242,-21.9115],[-42.6246,-21.9151],[-42.6245,-21.9152]]]}},{"type":"Feature","properties":{"cod_tema":"AREA_SERVIDAO_ADMINISTRATIVA_TOTAL","cod_imovel":"RJ-3301207-3F4ADA2B5FC747B8983B218E90346DC9","num_area":"0.1852000000000000000000000000000","ind_status":"AT"},"geometry":{"type":"Polygon","coordinates":[[[-42.6245,-21.9152],[-42.6242,-21.9115],[-42.6246,-21.9151],[-42.6245,-21.9152]]]}},{"type":"Feature","properties":{"cod_tema":"AREA_UTILIDADE_PUBLICA","cod_imovel":"RJ-3301207-4010118F9C9941B1BB81F259BBB10CD7","num_area":"0.3014000000000000000000000000000","ind_status":"AT"},"geometry":{"type":"Polygon","coordinates":[[[-42.534,-21.8907],[-42.5395,-21.8866],[-42.534,-21.8907],[-42.534,-21.8907]]]}},{"type":"Feature","properties":{"cod_tema":"AREA_SERVIDAO_ADMINISTRATIVA_TOTAL","cod_imovel":"RJ-3301207-4010118F9C9941B1BB81F259BBB10CD7","num_area":"0.3014000000000000000000000000000","ind_status":"AT"},"geometry":{"type":"Polygon","coordinates":[[[-42.534,-21.8907],[-42.5395,-21.8866],[-42.534,-21.8907],[-42.534,-21.8907]]]}},{"type":"Feature","properties":{"cod_tema":"AREA_INFRAESTRUTURA_PUBLICA","cod_imovel":"RJ-3301207-41D25385E70648099C20BA3E24AA6034","num_area":"0.1396000000000000000000000000000","ind_status":"AT"},"geometry":{"type":"Polygon","coordinates":[[[-42.6263,-21.9618],[-42.6286,-21.9597],[-42.6263,-21.9618],[-42.6263,-21.9618]]]}},{"type":"Feature","properties":{"cod_tema":"AREA_SERVIDAO_ADMINISTRATIVA_TOTAL","cod_imovel":"RJ-3301207-41D25385E70648099C20BA3E24AA6034","num_area":"0.1396000000000000000000000000000","ind_status":"AT"},"geometry":{"type":"Polygon","coordinates":[[[-42.6263,-21.9618],[-42.6286,-21.9597],[-42.6263,-21.9618],[-42.6263,-21.9618]]]}},{"type":"Feature","properties":{"cod_tema":"AREA_UTILIDADE_PUBLICA","cod_imovel":"RJ-3301207-4BF8872F9EDC4E13BE3B8CFADB266C69","num_area":"0.2735000000000000000000000000000","ind_status":"AT"},"geometry":{"type":"Polygon","coordinates":[[[-42.647,-21.912],[-42.6527,-21.9118],[-42.647,-21.912],[-42.647,-21.912]]]}},{"type":"Feature","properties":{"cod_tema":"AREA_SERVIDAO_ADMINISTRATIVA_TOTAL","cod_imovel":"RJ-3301207-4BF8872F9EDC4E13BE3B8CFADB266C69","num_area":"0.2735000000000000000000000000000","ind_status":"AT"},"geometry":{"type":"Polygon","coordinates":[[[-42.647,-21.912],[-42.6527,-21.9118],[-42.647,-21.912],[-42.647,-21.912]]]}},{"type":"Feature","properties":{"cod_tema":"AREA_UTILIDADE_PUBLICA","cod_imovel":"RJ-3301207-61EB85E1DAD342B1A122CB8FA2626014","num_area":"0.4128000000000000000000000000000","ind_status":"AT"},"geometry":{"type":"Polygon","coordinates":[[[-42.6457,-21.9478],[-42.6416,-21.9453],[-42.6457,-21.9478],[-42.6457,-21.9478]]]}},{"type":"Feature","properties":{"cod_tema":"AREA_SERVIDAO_ADMINISTRATIVA_TOTAL","cod_imovel":"RJ-3301207-61EB85E1DAD342B1A122CB8FA2626014","num_area":"0.8347000000000000000000000000000","ind_status":"AT"},"geometry":{"type":"Polygon","coordinates":[[[-42.6457,-21.9478],[-42.6416,-21.9453],[-42.6457,-21.9478],[-42.6457,-21.9478]]]}},{"type":"Feature","properties":{"cod_tema":"AREA_UTILIDADE_PUBLICA","cod_imovel":"RJ-3301207-649DC123868C4037A44561B9A65A7D6A","num_area":"0.2194000000000000000000000000000","ind_status":"AT"},"geometry":{"type":"Polygon","coordinates":[[[-42.4998,-21.8054],[-42.4949,-21.8033],[-42.4998,-21.8054],[-42.4998,-21.8054]]]}},{"type":"Feature","properties":{"cod_tema":"AREA_SERVIDAO_ADMINISTRATIVA_TOTAL","cod_imovel":"RJ-3301207-649DC123868C4037A44561B9A65A7D6A","num_area":"0.2194000000000000000000000000000","ind_status":"AT"},"geometry":{"type":"Polygon","coordinates":[[[-42.4998,-21.8054],[-42.4949,-21.8033],[-42.4998,-21.8054],[-42.4998,-21.8054]]]}},{"type":"Feature","properties":{"cod_tema":"AREA_UTILIDADE_PUBLICA","cod_imovel":"RJ-3301207-65679D175DD248C7BC0E88E184BA1279","num_area":"0.1739000000000000000000000000000","ind_status":"AT"},"geometry":{"type":"Polygon","coordinates":[[[-42.5467,-21.8969],[-42.5436,-21.9012],[-42.5467,-21.8969],[-42.5467,-21.8969]]]}},{"type":"Feature","properties":{"cod_tema":"AREA_SERVIDAO_ADMINISTRATIVA_TOTAL","cod_imovel":"RJ-3301207-65679D175DD248C7BC0E88E184BA1279","num_area":"0.1739000000000000000000000000000","ind_status":"AT"},"geometry":{"type":"Polygon","coordinates":[[[-42.5467,-21.8969],[-42.5436,-21.9012],[-42.5467,-21.8969],[-42.5467,-21.8969]]]}},{"type":"Feature","properties":{"cod_tema":"AREA_INFRAESTRUTURA_PUBLICA","cod_imovel":"RJ-3301207-67E91D83EFDD4986B43B300FBF6C9421","num_area":"0.5727000000000000000000000000000","ind_status":"AT"},"geometry":{"type":"Polygon","coordinates":[[[-42.6334,-21.9587],[-42.6341,-21.9642],[-42.6334,-21.9587],[-42.6334,-21.9587]]]}},{"type":"Feature","properties":{"cod_tema":"AREA_SERVIDAO_ADMINISTRATIVA_TOTAL","cod_imovel":"RJ-3301207-67E91D83EFDD4986B43B300FBF6C9421","num_area":"0.5727000000000000000000000000000","ind_status":"AT"},"geometry":{"type":"Polygon","coordinates":[[[-42.6334,-21.9587],[-42.6341,-21.9642],[-42.6334,-21.9587],[-42.6334,-21.9587]]]}},{"type":"Feature","properties":{"cod_tema":"AREA_UTILIDADE_PUBLICA","cod_imovel":"RJ-3301207-6A7DA5FF407A477581BAF370360F61E7","num_area":"0.9947000000000000000000000000000","ind_status":"AT"},"geometry":{"type":"Polygon","coordinates":[[[-42.5603,-21.87],[-42.565,-21.8699],[-42.5667,-21.8634],[-42.565,-21.8699],[-42.5603,-21.87],[-42.5603,-21.87]]]}},{"type":"Feature","properties":{"cod_tema":"AREA_SERVIDAO_ADMINISTRATIVA_TOTAL","cod_imovel":"RJ-3301207-6A7DA5FF407A477581BAF370360F61E7","num_area":"0.9947000000000000000000000000000","ind_status":"AT"},"geometry":{"type":"Polygon","coordinates":[[[-42.5603,-21.87],[-42.565,-21.8699],[-42.5667,-21.8634],[-42.565,-21.8699],[-42.5603,-21.87],[-42.5603,-21.87]]]}},{"type":"Feature","properties":{"cod_tema":"AREA_INFRAESTRUTURA_PUBLICA","cod_imovel":"RJ-3301207-6D4A32EB4722449B98832E7781FF3A4B","num_area":"0.8624000000000000000000000000000","ind_status":"AT"},"geometry":{"type":"Polygon","coordinates":[[[-42.6464,-21.9115],[-42.638,-21.9075],[-42.6464,-21.9114],[-42.6464,-21.9115]]]}},{"type":"Feature","properties":{"cod_tema":"AREA_SERVIDAO_ADMINISTRATIVA_TOTAL","cod_imovel":"RJ-3301207-6D4A32EB4722449B98832E7781FF3A4B","num_area":"0.8624000000000000000000000000000","ind_status":"AT"},"geometry":{"type":"Polygon","coordinates":[[[-42.6464,-21.9115],[-42.638,-21.9075],[-42.6464,-21.9114],[-42.6464,-21.9115]]]}},{"type":"Feature","properties":{"cod_tema":"AREA_INFRAESTRUTURA_PUBLICA","cod_imovel":"RJ-3301207-6DE8C73BE16143978A463AA8A1ADBE5A","num_area":"0.3596000000000000000000000000000","ind_status":"AT"},"geometry":{"type":"Polygon","coordinates":[[[-42.5489,-21.8612],[-42.5524,-21.8584],[-42.5489,-21.8612],[-42.5489,-21.8612]]]}},{"type":"Feature","properties":{"cod_tema":"AREA_UTILIDADE_PUBLICA","cod_imovel":"RJ-3301207-6DE8C73BE16143978A463AA8A1ADBE5A","num_area":"0.3182000000000000000000000000000","ind_status":"AT"},"geometry":{"type":"Polygon","coordinates":[[[-42.554,-21.863],[-42.5523,-21.8584],[-42.554,-21.863],[-42.554,-21.863]]]}},{"type":"Feature","properties":{"cod_tema":"AREA_SERVIDAO_ADMINISTRATIVA_TOTAL","cod_imovel":"RJ-3301207-6DE8C73BE16143978A463AA8A1ADBE5A","num_area":"0.6739000000000000000000000000000","ind_status":"AT"},"geometry":{"type":"Polygon","coordinates":[[[-42.5489,-21.8612],[-42.5549,-21.862],[-42.5523,-21.8584],[-42.5489,-21.8612],[-42.5489,-21.8612]]]}},{"type":"Feature","properties":{"cod_tema":"AREA_INFRAESTRUTURA_PUBLICA","cod_imovel":"RJ-3301207-73B57D8334B24EBE9136B9D9C1AB162E","num_area":"0.8302000000000000000000000000000","ind_status":"AT"},"geometry":{"type":"Polygon","coordinates":[[[-42.5866,-21.8716],[-42.5895,-21.869],[-42.5932,-21.8737],[-42.5918,-21.8685],[-42.5866,-21.8715],[-42.5866,-21.8716]]]}},{"type":"Feature","properties":{"cod_tema":"AREA_SERVIDAO_ADMINISTRATIVA_TOTAL","cod_imovel":"RJ-3301207-73B57D8334B24EBE9136B9D9C1AB162E","num_area":"0.8302000000000000000000000000000","ind_status":"AT"},"geometry":{"type":"Polygon","coordinates":[[[-42.5866,-21.8716],[-42.5895,-21.869],[-42.5932,-21.8737],[-42.5918,-21.8685],[-42.5866,-21.8715],[-42.5866,-21.8716]]]}},{"type":"Feature","properties":{"cod_tema":"AREA_INFRAESTRUTURA_PUBLICA","cod_imovel":"RJ-3301207-74A65EAB69DB4E2AABD75EDA541DE899","num_area":"0.8729000000000000000000000000000","ind_status":"AT"},"geometry":{"type":"Polygon","coordinates":[[[-42.4585,-21.8205],[-42.4521,-21.8169],[-42.4535,-21.8214],[-42.4541,-21.8179],[-42.4582,-21.8204],[-42.4585,-21.8205]]]}},{"type":"Feature","properties":{"cod_tema":"AREA_SERVIDAO_ADMINISTRATIVA_TOTAL","cod_imovel":"RJ-3301207-74A65EAB69DB4E2AABD75EDA541DE899","num_area":"0.8729000000000000000000000000000","ind_status":"AT"},"geometry":{"type":"Polygon","coordinates":[[[-42.4585,-21.8205],[-42.4521,-21.8169],[-42.4535,-21.8214],[-42.4541,-21.8179],[-42.4582,-21.8204],[-42.4585,-21.8205]]]}},{"type":"Feature","properties":{"cod_tema":"AREA_UTILIDADE_PUBLICA","cod_imovel":"RJ-3301207-75D78C4B1ABF40A18E36DF697988285A","num_area":"0.2539000000000000000000000000000","ind_status":"AT"},"geometry":{"type":"Polygon","coordinates":[[[-42.4782,-21.7961],[-42.4837,-21.7986],[-42.4782,-21.7961],[-42.4782,-21.7961]]]}},{"type":"Feature","properties":{"cod_tema":"AREA_SERVIDAO_ADMINISTRATIVA_TOTAL","cod_imovel":"RJ-3301207-75D78C4B1ABF40A18E36DF697988285A","num_area":"0.2539000000000000000000000000000","ind_status":"AT"},"geometry":{"type":"Polygon","coordinates":[[[-42.4782,-21.7961],[-42.4837,-21.7986],[-42.4782,-21.7961],[-42.4782,-21.7961]]]}},{"type":"Feature","properties":{"cod_tema":"AREA_UTILIDADE_PUBLICA","cod_imovel":"RJ-3301207-7962840CCC8647918A3DA737E7D13485","num_area":"0.7203000000000000000000000000000","ind_status":"AT"},"geometry":{"type":"Polygon","coordinates":[[[-42.5607,-21.8652],[-42.5642,-21.8634],[-42.5607,-21.8652],[-42.5607,-21.8652]],[[-42.566,-21.8677],[-42.5656,-21.8628],[-42.566,-21.8677],[-42.566,-21.8677]]]}},{"type":"Feature","properties":{"cod_tema":"AREA_SERVIDAO_ADMINISTRATIVA_TOTAL","cod_imovel":"RJ-3301207-7962840CCC8647918A3DA737E7D13485","num_area":"0.7203000000000000000000000000000","ind_status":"AT"},"geometry":{"type":"Polygon","coordinates":[[[-42.5607,-21.8652],[-42.5642,-21.8634],[-42.5607,-21.8652],[-42.5607,-21.8652]],[[-42.566,-21.8677],[-42.5656,-21.8628],[-42.566,-21.8677],[-42.566,-21.8677]]]}},{"type":"Feature","properties":{"cod_tema":"AREA_INFRAESTRUTURA_PUBLICA","cod_imovel":"RJ-3301207-7AACAD539A1E40FF95BAB3DAB2E35BFB","num_area":"0.3746000000000000000000000000000","ind_status":"AT"},"geometry":{"type":"Polygon","coordinates":[[[-42.5503,-21.8302],[-42.5474,-21.8335],[-42.5503,-21.8302],[-42.5503,-21.8302]]]}},{"type":"Feature","properties":{"cod_tema":"AREA_SERVIDAO_ADMINISTRATIVA_TOTAL","cod_imovel":"RJ-3301207-7AACAD539A1E40FF95BAB3DAB2E35BFB","num_area":"0.3746000000000000000000000000000","ind_status":"AT"},"geometry":{"type":"Polygon","coordinates":[[[-42.5503,-21.8302],[-42.5474,-21.8335],[-42.5503,-21.8302],[-42.5503,-21.8302]]]}},{"type":"Feature","properties":{"cod_tema":"AREA_UTILIDADE_PUBLICA","cod_imovel":"RJ-3301207-7D627B48A9B14AF996610B0769726534","num_area":"0.9822000000000000000000000000000","ind_status":"AT"},"geometry":{"type":"Polygon","coordinates":[[[-42.636,-21.9376],[-42.6402,-21.9384],[-42.6354,-21.9417],[-42.6389,-21.9492],[-42.6403,-21.9384],[-42.636,-21.9376],[-42.636,-21.9376]]]}},{"type":"Feature","properties":{"cod_tema":"AREA_SERVIDAO_ADMINISTRATIVA_TOTAL","cod_imovel":"RJ-3301207-7D627B48A9B14AF996610B0769726534","num_area":"0.9822000000000000000000000000000","ind_status":"AT"},"geometry":{"type":"Polygon","coordinates":[[[-42.636,-21.9376],[-42.6402,-21.9384],[-42.6354,-21.9417],[-42.6389,-21.9492],[-42.6403,-21.9384],[-42.636,-21.9376],[-42.636,-21.9376]]]}},{"type":"Feature","properties":{"cod_tema":"AREA_UTILIDADE_PUBLICA","cod_imovel":"RJ-3301207-802DC2EFE66A46C29F14A70011D3CF5B","num_area":"0.3282000000000000000000000000000","ind_status":"AT"},"geometry":{"type":"Polygon","coordinates":[[[-42.5118,-21.9042],[-42.5132,-21.8998],[-42.5118,-21.9039],[-42.5118,-21.9042]]]}},{"type":"Feature","properties":{"cod_tema":"AREA_SERVIDAO_ADMINISTRATIVA_TOTAL","cod_imovel":"RJ-3301207-802DC2EFE66A46C29F14A70011D3CF5B","num_area":"0.3282000000000000000000000000000","ind_status":"AT"},"geometry":{"type":"Polygon","coordinates":[[[-42.5118,-21.9042],[-42.5132,-21.8998],[-42.5118,-21.9039],[-42.5118,-21.9042]]]}},{"type":"Feature","properties":{"cod_tema":"AREA_UTILIDADE_PUBLICA","cod_imovel":"RJ-3301207-8092CD6D426E4D69AC0F68D410E052E8","num_area":"0.3678000000000000000000000000000","ind_status":"AT"},"geometry":{"type":"Polygon","coordinates":[[[-42.63,-21.9895],[-42.6375,-21.9879],[-42.63,-21.9895],[-42.63,-21.9895]]]}},{"type":"Feature","properties":{"cod_tema":"AREA_SERVIDAO_ADMINISTRATIVA_TOTAL","cod_imovel":"RJ-3301207-8092CD6D426E4D69AC0F68D410E052E8","num_area":"0.3678000000000000000000000000000","ind_status":"AT"},"geometry":{"type":"Polygon","coordinates":[[[-42.63,-21.9895],[-42.6375,-21.9879],[-42.63,-21.9895],[-42.63,-21.9895]]]}},{"type":"Feature","properties":{"cod_tema":"AREA_UTILIDADE_PUBLICA","cod_imovel":"RJ-3301207-89A21BB109DF401CB7343DF05B4E3F6F","num_area":"0.5546000000000000000000000000000","ind_status":"AT"},"geometry":{"type":"Polygon","coordinates":[[[-42.6127,-21.8935],[-42.61,-21.8826],[-42.6127,-21.8935],[-42.6127,-21.8935]]]}},{"type":"Feature","properties":{"cod_tema":"AREA_SERVIDAO_ADMINISTRATIVA_TOTAL","cod_imovel":"RJ-3301207-89A21BB109DF401CB7343DF05B4E3F6F","num_area":"0.5546000000000000000000000000000","ind_status":"AT"},"geometry":{"type":"Polygon","coordinates":[[[-42.6127,-21.8935],[-42.61,-21.8826],[-42.6127,-21.8935],[-42.6127,-21.8935]]]}},{"type":"Feature","properties":{"cod_tema":"AREA_UTILIDADE_PUBLICA","cod_imovel":"RJ-3301207-8942CED1DC9C4911B27B35A9CBDDFAC7","num_area":"0.6706000000000000000000000000000","ind_status":"AT"},"geometry":{"type":"Polygon","coordinates":[[[-42.5655,-21.8628],[-42.5697,-21.8608],[-42.5655,-21.8628],[-42.5655,-21.8628]]]}},{"type":"Feature","properties":{"cod_tema":"AREA_SERVIDAO_ADMINISTRATIVA_TOTAL","cod_imovel":"RJ-3301207-8942CED1DC9C4911B27B35A9CBDDFAC7","num_area":"0.6706000000000000000000000000000","ind_status":"AT"},"geometry":{"type":"Polygon","coordinates":[[[-42.5655,-21.8628],[-42.5697,-21.8608],[-42.5655,-21.8628],[-42.5655,-21.8628]]]}},{"type":"Feature","properties":{"cod_tema":"AREA_UTILIDADE_PUBLICA","cod_imovel":"RJ-3301207-8A2D6F1956074EDBB9FD3A0A438575FB","num_area":"0.1164000000000000000000000000000","ind_status":"AT"},"geometry":{"type":"Polygon","coordinates":[[[-42.6726,-21.9503],[-42.6754,-21.9485],[-42.6726,-21.9503],[-42.6726,-21.9503]]]}},{"type":"Feature","properties":{"cod_tema":"AREA_SERVIDAO_ADMINISTRATIVA_TOTAL","cod_imovel":"RJ-3301207-8A2D6F1956074EDBB9FD3A0A438575FB","num_area":"0.1164000000000000000000000000000","ind_status":"AT"},"geometry":{"type":"Polygon","coordinates":[[[-42.6726,-21.9503],[-42.6754,-21.9485],[-42.6726,-21.9503],[-42.6726,-21.9503]]]}},{"type":"Feature","properties":{"cod_tema":"AREA_UTILIDADE_PUBLICA","cod_imovel":"RJ-3301207-8A8985A9BBEE48A992E1479EA0C6ED5F","num_area":"0.1851000000000000000000000000000","ind_status":"AT"},"geometry":{"type":"Polygon","coordinates":[[[-42.6612,-21.8822],[-42.6587,-21.8794],[-42.6612,-21.8822],[-42.6612,-21.8822]]]}},{"type":"Feature","properties":{"cod_tema":"AREA_SERVIDAO_ADMINISTRATIVA_TOTAL","cod_imovel":"RJ-3301207-8A8985A9BBEE48A992E1479EA0C6ED5F","num_area":"0.1851000000000000000000000000000","ind_status":"AT"},"geometry":{"type":"Polygon","coordinates":[[[-42.6612,-21.8822],[-42.6587,-21.8794],[-42.6612,-21.8822],[-42.6612,-21.8822]]]}},{"type":"Feature","properties":{"cod_tema":"AREA_UTILIDADE_PUBLICA","cod_imovel":"RJ-3301207-8B56E339D043441FB5045D8CE2162DD5","num_area":"0.3180000000000000000000000000000","ind_status":"AT"},"geometry":{"type":"Polygon","coordinates":[[[-42.5267,-21.9109],[-42.5222,-21.911],[-42.5266,-21.9109],[-42.5267,-21.9109]]]}},{"type":"Feature","properties":{"cod_tema":"AREA_SERVIDAO_ADMINISTRATIVA_TOTAL","cod_imovel":"RJ-3301207-8B56E339D043441FB5045D8CE2162DD5","num_area":"0.3180000000000000000000000000000","ind_status":"AT"},"geometry":{"type":"Polygon","coordinates":[[[-42.5267,-21.9109],[-42.5222,-21.911],[-42.5266,-21.9109],[-42.5267,-21.9109]]]}},{"type":"Feature","properties":{"cod_tema":"AREA_UTILIDADE_PUBLICA","cod_imovel":"RJ-3301207-919F3DD967E64D8D85B1A44EA88037AF","num_area":"0.1297000000000000000000000000000","ind_status":"AT"},"geometry":{"type":"Polygon","coordinates":[[[-42.5273,-21.9136],[-42.5307,-21.9156],[-42.5274,-21.9137],[-42.5273,-21.9136]]]}},{"type":"Feature","properties":{"cod_tema":"AREA_SERVIDAO_ADMINISTRATIVA_TOTAL","cod_imovel":"RJ-3301207-919F3DD967E64D8D85B1A44EA88037AF","num_area":"0.1297000000000000000000000000000","ind_status":"AT"},"geometry":{"type":"Polygon","coordinates":[[[-42.5273,-21.9136],[-42.5307,-21.9156],[-42.5274,-21.9137],[-42.5273,-21.9136]]]}},{"type":"Feature","properties":{"cod_tema":"AREA_UTILIDADE_PUBLICA","cod_imovel":"RJ-3301207-985AE8BC7C8946FB97A67CBD4943F222","num_area":"0.9030000000000000000000000000000","ind_status":"AT"},"geometry":{"type":"Polygon","coordinates":[[[-42.6498,-21.8704],[-42.6433,-21.8696],[-42.6498,-21.8704],[-42.6498,-21.8704]]]}},{"type":"Feature","properties":{"cod_tema":"AREA_SERVIDAO_ADMINISTRATIVA_TOTAL","cod_imovel":"RJ-3301207-985AE8BC7C8946FB97A67CBD4943F222","num_area":"0.9030000000000000000000000000000","ind_status":"AT"},"geometry":{"type":"Polygon","coordinates":[[[-42.6498,-21.8704],[-42.6433,-21.8696],[-42.6498,-21.8704],[-42.6498,-21.8704]]]}},{"type":"Feature","properties":{"cod_tema":"AREA_UTILIDADE_PUBLICA","cod_imovel":"RJ-3301207-98C1253309D5407C9E6337DEBD89C4E6","num_area":"0.4974000000000000000000000000000","ind_status":"AT"},"geometry":{"type":"Polygon","coordinates":[[[-42.5624,-21.9878],[-42.5683,-21.9896],[-42.563,-21.9878],[-42.5624,-21.9878]]]}},{"type":"Feature","properties":{"cod_tema":"AREA_SERVIDAO_ADMINISTRATIVA_TOTAL","cod_imovel":"RJ-3301207-98C1253309D5407C9E6337DEBD89C4E6","num_area":"0.4974000000000000000000000000000","ind_status":"AT"},"geometry":{"type":"Polygon","coordinates":[[[-42.5624,-21.9878],[-42.5683,-21.9896],[-42.563,-21.9878],[-42.5624,-21.9878]]]}},{"type":"Feature","properties":{"cod_tema":"AREA_UTILIDADE_PUBLICA","cod_imovel":"RJ-3301207-98ED23DD30A247F288760E03640B9B91","num_area":"0.3595000000000000000000000000000","ind_status":"AT"},"geometry":{"type":"Polygon","coordinates":[[[-42.6191,-21.9861],[-42.6177,-21.9921],[-42.6192,-21.9861],[-42.6191,-21.9861]]]}},{"type":"Feature","properties":{"cod_tema":"AREA_SERVIDAO_ADMINISTRATIVA_TOTAL","cod_imovel":"RJ-3301207-98ED23DD30A247F288760E03640B9B91","num_area":"0.3595000000000000000000000000000","ind_status":"AT"},"geometry":{"type":"Polygon","coordinates":[[[-42.6191,-21.9861],[-42.6177,-21.9921],[-42.6192,-21.9861],[-42.6191,-21.9861]]]}},{"type":"Feature","properties":{"cod_tema":"AREA_INFRAESTRUTURA_PUBLICA","cod_imovel":"RJ-3301207-A2B87B776A7646A8A1B636B6164F8111","num_area":"0.8166000000000000000000000000000","ind_status":"AT"},"geometry":{"type":"Polygon","coordinates":[[[-42.5747,-21.9171],[-42.5771,-21.9079],[-42.5747,-21.9169],[-42.5747,-21.9171]]]}},{"type":"Feature","properties":{"cod_tema":"AREA_SERVIDAO_ADMINISTRATIVA_TOTAL","cod_imovel":"RJ-3301207-A2B87B776A7646A8A1B636B6164F8111","num_area":"0.8166000000000000000000000000000","ind_status":"AT"},"geometry":{"type":"Polygon","coordinates":[[[-42.5747,-21.9171],[-42.5771,-21.9079],[-42.5747,-21.9169],[-42.5747,-21.9171]]]}},{"type":"Feature","properties":{"cod_tema":"AREA_UTILIDADE_PUBLICA","cod_imovel":"RJ-3301207-A3BC54B3794846C293E8EBD58DD4A7DB","num_area":"0.1286000000000000000000000000000","ind_status":"AT"},"geometry":{"type":"Polygon","coordinates":[[[-42.554,-21.863],[-42.5512,-21.8656],[-42.554,-21.863],[-42.554,-21.863]]]}},{"type":"Feature","properties":{"cod_tema":"AREA_SERVIDAO_ADMINISTRATIVA_TOTAL","cod_imovel":"RJ-3301207-A3BC54B3794846C293E8EBD58DD4A7DB","num_area":"0.1286000000000000000000000000000","ind_status":"AT"},"geometry":{"type":"Polygon","coordinates":[[[-42.554,-21.863],[-42.5512,-21.8656],[-42.554,-21.863],[-42.554,-21.863]]]}},{"type":"Feature","properties":{"cod_tema":"AREA_UTILIDADE_PUBLICA","cod_imovel":"RJ-3301207-AA9BF43E9C304A1F9E006A4D7D1760B0","num_area":"1.3212000000000000000000000000000","ind_status":"AT"},"geometry":{"type":"Polygon","coordinates":[[[-42.6884,-21.9623],[-42.6886,-21.9522],[-42.6879,-21.9622],[-42.6845,-21.9616],[-42.6884,-21.9623],[-42.6884,-21.9623]]]}},{"type":"Feature","properties":{"cod_tema":"AREA_SERVIDAO_ADMINISTRATIVA_TOTAL","cod_imovel":"RJ-3301207-AA9BF43E9C304A1F9E006A4D7D1760B0","num_area":"1.3212000000000000000000000000000","ind_status":"AT"},"geometry":{"type":"Polygon","coordinates":[[[-42.6884,-21.9623],[-42.6886,-21.9522],[-42.6879,-21.9622],[-42.6845,-21.9616],[-42.6884,-21.9623],[-42.6884,-21.9623]]]}},{"type":"Feature","properties":{"cod_tema":"AREA_INFRAESTRUTURA_PUBLICA","cod_imovel":"RJ-3301207-AC31610936F64A8491469BB0D49AC27B","num_area":"1.0068000000000000000000000000000","ind_status":"AT"},"geometry":{"type":"Polygon","coordinates":[[[-42.557,-21.8539],[-42.5529,-21.8567],[-42.557,-21.8539],[-42.557,-21.8539]]]}},{"type":"Feature","properties":{"cod_tema":"AREA_SERVIDAO_ADMINISTRATIVA_TOTAL","cod_imovel":"RJ-3301207-AC31610936F64A8491469BB0D49AC27B","num_area":"1.0068000000000000000000000000000","ind_status":"AT"},"geometry":{"type":"Polygon","coordinates":[[[-42.557,-21.8539],[-42.5529,-21.8567],[-42.557,-21.8539],[-42.557,-21.8539]]]}},{"type":"Feature","properties":{"cod_tema":"AREA_INFRAESTRUTURA_PUBLICA","cod_imovel":"RJ-3301207-AFD3B60A777242A388EF7AF2E1DF0E5D","num_area":"0.9121000000000000000000000000000","ind_status":"AT"},"geometry":{"type":"Polygon","coordinates":[[[-42.501,-21.8163],[-42.4903,-21.8183],[-42.5011,-21.8197],[-42.501,-21.8163],[-42.501,-21.8163]]]}},{"type":"Feature","properties":{"cod_tema":"AREA_SERVIDAO_ADMINISTRATIVA_TOTAL","cod_imovel":"RJ-3301207-AFD3B60A777242A388EF7AF2E1DF0E5D","num_area":"0.9121000000000000000000000000000","ind_status":"AT"},"geometry":{"type":"Polygon","coordinates":[[[-42.501,-21.8163],[-42.4903,-21.8183],[-42.5011,-21.8197],[-42.501,-21.8163],[-42.501,-21.8163]]]}},{"type":"Feature","properties":{"cod_tema":"AREA_UTILIDADE_PUBLICA","cod_imovel":"RJ-3301207-B15F0CD36D0D423FA0501E8E49455B43","num_area":"0.1407000000000000000000000000000","ind_status":"AT"},"geometry":{"type":"Polygon","coordinates":[[[-42.6603,-21.9134],[-42.6571,-21.9135],[-42.6602,-21.9134],[-42.6603,-21.9134]]]}},{"type":"Feature","properties":{"cod_tema":"AREA_SERVIDAO_ADMINISTRATIVA_TOTAL","cod_imovel":"RJ-3301207-B15F0CD36D0D423FA0501E8E49455B43","num_area":"0.5575000000000000000000000000000","ind_status":"AT"},"geometry":{"type":"Polygon","coordinates":[[[-42.6603,-21.9134],[-42.6571,-21.9135],[-42.6602,-21.9134],[-42.6603,-21.9134]]]}},{"type":"Feature","properties":{"cod_tema":"AREA_UTILIDADE_PUBLICA","cod_imovel":"RJ-3301207-B1C9E9C184324A1E9E5FA1F12C2CAE14","num_area":"0.1955000000000000000000000000000","ind_status":"AT"},"geometry":{"type":"Polygon","coordinates":[[[-42.4827,-21.8163],[-42.4774,-21.813],[-42.4824,-21.8162],[-42.4827,-21.8163]]]}},{"type":"Feature","properties":{"cod_tema":"AREA_SERVIDAO_ADMINISTRATIVA_TOTAL","cod_imovel":"RJ-3301207-B1C9E9C184324A1E9E5FA1F12C2CAE14","num_area":"0.1955000000000000000000000000000","ind_status":"AT"},"geometry":{"type":"Polygon","coordinates":[[[-42.4827,-21.8163],[-42.4774,-21.813],[-42.4824,-21.8162],[-42.4827,-21.8163]]]}},{"type":"Feature","properties":{"cod_tema":"AREA_UTILIDADE_PUBLICA","cod_imovel":"RJ-3301207-B2F0AFC858884668A2F29B2AB30DCE68","num_area":"0.8141000000000000000000000000000","ind_status":"AT"},"geometry":{"type":"Polygon","coordinates":[[[-42.5228,-21.8264],[-42.5273,-21.8196],[-42.5174,-21.8251],[-42.5228,-21.8265],[-42.5228,-21.8264]],[[-42.5273,-21.8196],[-42.5222,-21.8154],[-42.5273,-21.8196],[-42.5273,-21.8196]]]}},{"type":"Feature","properties":{"cod_tema":"AREA_SERVIDAO_ADMINISTRATIVA_TOTAL","cod_imovel":"RJ-3301207-B2F0AFC858884668A2F29B2AB30DCE68","num_area":"0.8141000000000000000000000000000","ind_status":"AT"},"geometry":{"type":"Polygon","coordinates":[[[-42.5228,-21.8264],[-42.5273,-21.8196],[-42.5174,-21.8251],[-42.5228,-21.8265],[-42.5228,-21.8264]],[[-42.5273,-21.8196],[-42.5222,-21.8154],[-42.5273,-21.8196],[-42.5273,-21.8196]]]}},{"type":"Feature","properties":{"cod_tema":"AREA_UTILIDADE_PUBLICA","cod_imovel":"RJ-3301207-C3FA2D54BE074BD789AF419C36104D4B","num_area":"0.2456000000000000000000000000000","ind_status":"AT"},"geometry":{"type":"Polygon","coordinates":[[[-42.6064,-21.88],[-42.6017,-21.8785],[-42.6064,-21.88],[-42.6064,-21.88]]]}},{"type":"Feature","properties":{"cod_tema":"AREA_SERVIDAO_ADMINISTRATIVA_TOTAL","cod_imovel":"RJ-3301207-C3FA2D54BE074BD789AF419C36104D4B","num_area":"0.2456000000000000000000000000000","ind_status":"AT"},"geometry":{"type":"Polygon","coordinates":[[[-42.6064,-21.88],[-42.6017,-21.8785],[-42.6064,-21.88],[-42.6064,-21.88]]]}},{"type":"Feature","properties":{"cod_tema":"AREA_UTILIDADE_PUBLICA","cod_imovel":"RJ-3301207-CD1802BF20CA4023BEBDDCAB938E0593","num_area":"0.1035000000000000000000000000000","ind_status":"AT"},"geometry":{"type":"Polygon","coordinates":[[[-42.626,-21.8862],[-42.6228,-21.8856],[-42.626,-21.8862],[-42.626,-21.8862]]]}},{"type":"Feature","properties":{"cod_tema":"AREA_SERVIDAO_ADMINISTRATIVA_TOTAL","cod_imovel":"RJ-3301207-CD1802BF20CA4023BEBDDCAB938E0593","num_area":"0.1035000000000000000000000000000","ind_status":"AT"},"geometry":{"type":"Polygon","coordinates":[[[-42.626,-21.8862],[-42.6228,-21.8856],[-42.626,-21.8862],[-42.626,-21.8862]]]}},{"type":"Feature","properties":{"cod_tema":"AREA_UTILIDADE_PUBLICA","cod_imovel":"RJ-3301207-CA5FC6C80B2D486CBCF5DAE9D1634C89","num_area":"0.3762000000000000000000000000000","ind_status":"AT"},"geometry":{"type":"Polygon","coordinates":[[[-42.459,-21.808],[-42.4545,-21.8024],[-42.459,-21.808],[-42.459,-21.808]]]}},{"type":"Feature","properties":{"cod_tema":"AREA_SERVIDAO_ADMINISTRATIVA_TOTAL","cod_imovel":"RJ-3301207-CA5FC6C80B2D486CBCF5DAE9D1634C89","num_area":"0.3762000000000000000000000000000","ind_status":"AT"},"geometry":{"type":"Polygon","coordinates":[[[-42.459,-21.808],[-42.4545,-21.8024],[-42.459,-21.808],[-42.459,-21.808]]]}},{"type":"Feature","properties":{"cod_tema":"AREA_UTILIDADE_PUBLICA","cod_imovel":"RJ-3301207-D4D4E70DFAE84BE8AFA10312F1B57652","num_area":"0.4482000000000000000000000000000","ind_status":"AT"},"geometry":{"type":"Polygon","coordinates":[[[-42.5155,-21.8246],[-42.5109,-21.8219],[-42.5156,-21.8246],[-42.5155,-21.8246]]]}},{"type":"Feature","properties":{"cod_tema":"AREA_SERVIDAO_ADMINISTRATIVA_TOTAL","cod_imovel":"RJ-3301207-D4D4E70DFAE84BE8AFA10312F1B57652","num_area":"0.4482000000000000000000000000000","ind_status":"AT"},"geometry":{"type":"Polygon","coordinates":[[[-42.5155,-21.8246],[-42.5109,-21.8219],[-42.5156,-21.8246],[-42.5155,-21.8246]]]}},{"type":"Feature","properties":{"cod_tema":"AREA_UTILIDADE_PUBLICA","cod_imovel":"RJ-3301207-DC5A6934B2C743399EEE9AAA977DE385","num_area":"0.2106000000000000000000000000000","ind_status":"AT"},"geometry":{"type":"Polygon","coordinates":[[[-42.5277,-21.856],[-42.5246,-21.8548],[-42.5277,-21.856],[-42.5277,-21.856]]]}},{"type":"Feature","properties":{"cod_tema":"AREA_SERVIDAO_ADMINISTRATIVA_TOTAL","cod_imovel":"RJ-3301207-DC5A6934B2C743399EEE9AAA977DE385","num_area":"0.2106000000000000000000000000000","ind_status":"AT"},"geometry":{"type":"Polygon","coordinates":[[[-42.5277,-21.856],[-42.5246,-21.8548],[-42.5277,-21.856],[-42.5277,-21.856]]]}},{"type":"Feature","properties":{"cod_tema":"AREA_UTILIDADE_PUBLICA","cod_imovel":"RJ-3301207-D792A135AC5E4DC0ABE4CE6E735A5156","num_area":"1.0734000000000000000000000000000","ind_status":"AT"},"geometry":{"type":"Polygon","coordinates":[[[-42.5542,-21.8654],[-42.5583,-21.8663],[-42.5575,-21.8726],[-42.5571,-21.8657],[-42.5607,-21.8652],[-42.5542,-21.8654],[-42.5542,-21.8654]],[[-42.5604,-21.862],[-42.5639,-21.8637],[-42.5604,-21.862],[-42.5604,-21.862]]]}},{"type":"Feature","properties":{"cod_tema":"AREA_SERVIDAO_ADMINISTRATIVA_TOTAL","cod_imovel":"RJ-3301207-D792A135AC5E4DC0ABE4CE6E735A5156","num_area":"1.0734000000000000000000000000000","ind_status":"AT"},"geometry":{"type":"Polygon","coordinates":[[[-42.5542,-21.8654],[-42.5583,-21.8663],[-42.5575,-21.8726],[-42.5571,-21.8657],[-42.5607,-21.8652],[-42.5542,-21.8654],[-42.5542,-21.8654]],[[-42.5604,-21.862],[-42.5639,-21.8637],[-42.5604,-21.862],[-42.5604,-21.862]]]}},{"type":"Feature","properties":{"cod_tema":"AREA_UTILIDADE_PUBLICA","cod_imovel":"RJ-3301207-DB21293FBB374939A518494253F9817C","num_area":"0.3121000000000000000000000000000","ind_status":"AT"},"geometry":{"type":"Polygon","coordinates":[[[-42.5007,-21.8057],[-42.4994,-21.8103],[-42.5051,-21.8072],[-42.5011,-21.8058],[-42.5007,-21.8057]]]}},{"type":"Feature","properties":{"cod_tema":"AREA_SERVIDAO_ADMINISTRATIVA_TOTAL","cod_imovel":"RJ-3301207-DB21293FBB374939A518494253F9817C","num_area":"0.3121000000000000000000000000000","ind_status":"AT"},"geometry":{"type":"Polygon","coordinates":[[[-42.5007,-21.8057],[-42.4994,-21.8103],[-42.5051,-21.8072],[-42.5011,-21.8058],[-42.5007,-21.8057]]]}},{"type":"Feature","properties":{"cod_tema":"AREA_INFRAESTRUTURA_PUBLICA","cod_imovel":"RJ-3301207-DF192DE3D78F461D9C63C9CE74AE46E1","num_area":"0.6423000000000000000000000000000","ind_status":"AT"},"geometry":{"type":"Polygon","coordinates":[[[-42.6169,-21.9997],[-42.6177,-21.992],[-42.617,-21.9996],[-42.6169,-21.9997]]]}},{"type":"Feature","properties":{"cod_tema":"AREA_SERVIDAO_ADMINISTRATIVA_TOTAL","cod_imovel":"RJ-3301207-DF192DE3D78F461D9C63C9CE74AE46E1","num_area":"0.6423000000000000000000000000000","ind_status":"AT"},"geometry":{"type":"Polygon","coordinates":[[[-42.6169,-21.9997],[-42.6177,-21.992],[-42.617,-21.9996],[-42.6169,-21.9997]]]}},{"type":"Feature","properties":{"cod_tema":"AREA_UTILIDADE_PUBLICA","cod_imovel":"RJ-3301207-E00E859A07364B5EBF59B8E7C6069F07","num_area":"0.8343000000000000000000000000000","ind_status":"AT"},"geometry":{"type":"Polygon","coordinates":[[[-42.6128,-21.8935],[-42.6165,-21.8932],[-42.6059,-21.898],[-42.6192,-21.8942],[-42.6128,-21.8935],[-42.6128,-21.8935]]]}},{"type":"Feature","properties":{"cod_tema":"AREA_SERVIDAO_ADMINISTRATIVA_TOTAL","cod_imovel":"RJ-3301207-E00E859A07364B5EBF59B8E7C6069F07","num_area":"1.0234000000000000000000000000000","ind_status":"AT"},"geometry":{"type":"Polygon","coordinates":[[[-42.6128,-21.8935],[-42.6165,-21.8932],[-42.6059,-21.898],[-42.6192,-21.8942],[-42.6128,-21.8935],[-42.6128,-21.8935]]]}},{"type":"Feature","properties":{"cod_tema":"AREA_UTILIDADE_PUBLICA","cod_imovel":"RJ-3301207-E39EF631AAFA40C6B261864441E44B2D","num_area":"0.4876000000000000000000000000000","ind_status":"AT"},"geometry":{"type":"Polygon","coordinates":[[[-42.6284,-21.9008],[-42.6255,-21.896],[-42.6296,-21.8926],[-42.6254,-21.896],[-42.6282,-21.9007],[-42.6284,-21.9008]]]}},{"type":"Feature","properties":{"cod_tema":"AREA_SERVIDAO_ADMINISTRATIVA_TOTAL","cod_imovel":"RJ-3301207-E39EF631AAFA40C6B261864441E44B2D","num_area":"0.4876000000000000000000000000000","ind_status":"AT"},"geometry":{"type":"Polygon","coordinates":[[[-42.6284,-21.9008],[-42.6255,-21.896],[-42.6296,-21.8926],[-42.6254,-21.896],[-42.6282,-21.9007],[-42.6284,-21.9008]]]}},{"type":"Feature","properties":{"cod_tema":"AREA_UTILIDADE_PUBLICA","cod_imovel":"RJ-3301207-E4265EC2AA294DC5A92A2D71F9488BEF","num_area":"0.1992000000000000000000000000000","ind_status":"AT"},"geometry":{"type":"Polygon","coordinates":[[[-42.5403,-21.8375],[-42.5393,-21.8416],[-42.5403,-21.8375],[-42.5403,-21.8375]]]}},{"type":"Feature","properties":{"cod_tema":"AREA_SERVIDAO_ADMINISTRATIVA_TOTAL","cod_imovel":"RJ-3301207-E4265EC2AA294DC5A92A2D71F9488BEF","num_area":"0.1992000000000000000000000000000","ind_status":"AT"},"geometry":{"type":"Polygon","coordinates":[[[-42.5403,-21.8375],[-42.5393,-21.8416],[-42.5403,-21.8375],[-42.5403,-21.8375]]]}},{"type":"Feature","properties":{"cod_tema":"AREA_INFRAESTRUTURA_PUBLICA","cod_imovel":"RJ-3301207-EED7A1487B654B0AA71DFDBDEA6F9517","num_area":"0.0708000000000000000000000000000","ind_status":"AT"},"geometry":{"type":"Polygon","coordinates":[[[-42.4749,-21.8766],[-42.4697,-21.8809],[-42.4747,-21.8772],[-42.4749,-21.8766]]]}},{"type":"Feature","properties":{"cod_tema":"AREA_SERVIDAO_ADMINISTRATIVA_TOTAL","cod_imovel":"RJ-3301207-EED7A1487B654B0AA71DFDBDEA6F9517","num_area":"0.0708000000000000000000000000000","ind_status":"AT"},"geometry":{"type":"Polygon","coordinates":[[[-42.4749,-21.8766],[-42.4697,-21.8809],[-42.4747,-21.8772],[-42.4749,-21.8766]]]}},{"type":"Feature","properties":{"cod_tema":"AREA_UTILIDADE_PUBLICA","cod_imovel":"RJ-3301207-EBFBD6AB55C84A289F1E705C43493B5C","num_area":"0.2754000000000000000000000000000","ind_status":"AT"},"geometry":{"type":"Polygon","coordinates":[[[-42.6017,-21.8785],[-42.596,-21.8756],[-42.6017,-21.8785],[-42.6017,-21.8785]]]}},{"type":"Feature","properties":{"cod_tema":"AREA_SERVIDAO_ADMINISTRATIVA_TOTAL","cod_imovel":"RJ-3301207-EBFBD6AB55C84A289F1E705C43493B5C","num_area":"0.2754000000000000000000000000000","ind_status":"AT"},"geometry":{"type":"Polygon","coordinates":[[[-42.6017,-21.8785],[-42.596,-21.8756],[-42.6017,-21.8785],[-42.6017,-21.8785]]]}},{"type":"Feature","properties":{"cod_tema":"AREA_UTILIDADE_PUBLICA","cod_imovel":"RJ-3301207-EF1E6683BF0A4742A1C08C6BA11C7FC7","num_area":"0.5516000000000000000000000000000","ind_status":"AT"},"geometry":{"type":"Polygon","coordinates":[[[-42.4631,-21.8203],[-42.4585,-21.8204],[-42.4631,-21.8203],[-42.4631,-21.8203]]]}},{"type":"Feature","properties":{"cod_tema":"AREA_SERVIDAO_ADMINISTRATIVA_TOTAL","cod_imovel":"RJ-3301207-EF1E6683BF0A4742A1C08C6BA11C7FC7","num_area":"0.5516000000000000000000000000000","ind_status":"AT"},"geometry":{"type":"Polygon","coordinates":[[[-42.4631,-21.8203],[-42.4585,-21.8204],[-42.4631,-21.8203],[-42.4631,-21.8203]]]}},{"type":"Feature","properties":{"cod_tema":"AREA_UTILIDADE_PUBLICA","cod_imovel":"RJ-3301207-FE52FBD92ACB4FD5A44AD07E9D514B69","num_area":"2.0533000000000000000000000000000","ind_status":"AT"},"geometry":{"type":"Polygon","coordinates":[[[-42.6067,-21.9154],[-42.6075,-21.9225],[-42.6038,-21.9204],[-42.607,-21.9266],[-42.6076,-21.9225],[-42.6067,-21.9154]]]}},{"type":"Feature","properties":{"cod_tema":"AREA_SERVIDAO_ADMINISTRATIVA_TOTAL","cod_imovel":"RJ-3301207-FE52FBD92ACB4FD5A44AD07E9D514B69","num_area":"2.0533000000000000000000000000000","ind_status":"AT"},"geometry":{"type":"Polygon","coordinates":[[[-42.6067,-21.9154],[-42.6075,-21.9225],[-42.6038,-21.9204],[-42.607,-21.9266],[-42.6076,-21.9225],[-42.6067,-21.9154]]]}},{"type":"Feature","properties":{"cod_tema":"AREA_INFRAESTRUTURA_PUBLICA","cod_imovel":"RJ-3301207-F7580B1BFCF34A46BDF407BC3DFFD84C","num_area":"0.3693000000000000000000000000000","ind_status":"AT"},"geometry":{"type":"Polygon","coordinates":[[[-42.6066,-21.9153],[-42.606,-21.9081],[-42.6066,-21.9153],[-42.6066,-21.9153]]]}},{"type":"Feature","properties":{"cod_tema":"AREA_UTILIDADE_PUBLICA","cod_imovel":"RJ-3301207-F7580B1BFCF34A46BDF407BC3DFFD84C","num_area":"0.2086000000000000000000000000000","ind_status":"AT"},"geometry":{"type":"Polygon","coordinates":[[[-42.6231,-21.9078],[-42.6206,-21.9115],[-42.6231,-21.9078],[-42.6231,-21.9078]]]}},{"type":"Feature","properties":{"cod_tema":"AREA_SERVIDAO_ADMINISTRATIVA_TOTAL","cod_imovel":"RJ-3301207-F7580B1BFCF34A46BDF407BC3DFFD84C","num_area":"0.5779000000000000000000000000000","ind_status":"AT"},"geometry":{"type":"Polygon","coordinates":[[[-42.6066,-21.9153],[-42.606,-21.9081],[-42.6066,-21.9153],[-42.6066,-21.9153]],[[-42.6231,-21.9078],[-42.6206,-21.9115],[-42.6231,-21.9078],[-42.6231,-21.9078]]]}},{"type":"Feature","properties":{"cod_tema":"AREA_INFRAESTRUTURA_PUBLICA","cod_imovel":"RJ-3301207-BDD9927881224D2C96FE24BDC123AD4E","num_area":"2.1055000000000000000000000000000","ind_status":"AT"},"geometry":{"type":"Polygon","coordinates":[[[-42.5102,-21.8577],[-42.5013,-21.8629],[-42.5008,-21.8595],[-42.5049,-21.8662],[-42.5014,-21.8629],[-42.5102,-21.8577]]]}},{"type":"Feature","properties":{"cod_tema":"AREA_SERVIDAO_ADMINISTRATIVA_TOTAL","cod_imovel":"RJ-3301207-BDD9927881224D2C96FE24BDC123AD4E","num_area":"2.1055000000000000000000000000000","ind_status":"AT"},"geometry":{"type":"Polygon","coordinates":[[[-42.5102,-21.8577],[-42.5013,-21.8629],[-42.5008,-21.8595],[-42.5049,-21.8662],[-42.5014,-21.8629],[-42.5102,-21.8577]]]}},{"type":"Feature","properties":{"cod_tema":"AREA_INFRAESTRUTURA_PUBLICA","cod_imovel":"RJ-3301207-8B85231BD71A44589F19245D35074CDA","num_area":"0.8553000000000000000000000000000","ind_status":"AT"},"geometry":{"type":"Polygon","coordinates":[[[-42.6521,-21.8898],[-42.6476,-21.8871],[-42.6479,-21.894],[-42.6486,-21.8886],[-42.6523,-21.89],[-42.6521,-21.8898]]]}},{"type":"Feature","properties":{"cod_tema":"AREA_SERVIDAO_ADMINISTRATIVA_TOTAL","cod_imovel":"RJ-3301207-8B85231BD71A44589F19245D35074CDA","num_area":"0.8553000000000000000000000000000","ind_status":"AT"},"geometry":{"type":"Polygon","coordinates":[[[-42.6521,-21.8898],[-42.6476,-21.8871],[-42.6479,-21.894],[-42.6486,-21.8886],[-42.6523,-21.89],[-42.6521,-21.8898]]]}},{"type":"Feature","properties":{"cod_tema":"AREA_UTILIDADE_PUBLICA","cod_imovel":"RJ-3301207-E660C1933F4C4C0197DA87655D8CB40B","num_area":"0.5614000000000000000000000000000","ind_status":"AT"},"geometry":{"type":"Polygon","coordinates":[[[-42.6362,-21.884],[-42.6335,-21.8795],[-42.6266,-21.886],[-42.6362,-21.8839],[-42.6362,-21.884]]]}},{"type":"Feature","properties":{"cod_tema":"AREA_SERVIDAO_ADMINISTRATIVA_TOTAL","cod_imovel":"RJ-3301207-E660C1933F4C4C0197DA87655D8CB40B","num_area":"0.5614000000000000000000000000000","ind_status":"AT"},"geometry":{"type":"Polygon","coordinates":[[[-42.6362,-21.884],[-42.6335,-21.8795],[-42.6266,-21.886],[-42.6362,-21.8839],[-42.6362,-21.884]]]}},{"type":"Feature","properties":{"cod_tema":"AREA_INFRAESTRUTURA_PUBLICA","cod_imovel":"RJ-3301207-484AB448E38B4229BC7E0F7C9061B95F","num_area":"0.5902000000000000000000000000000","ind_status":"AT"},"geometry":{"type":"Polygon","coordinates":[[[-42.5712,-21.9015],[-42.5666,-21.8982],[-42.571,-21.9012],[-42.5712,-21.9015]],[[-42.5651,-21.896],[-42.5623,-21.8946],[-42.5651,-21.896],[-42.5651,-21.896]]]}},{"type":"Feature","properties":{"cod_tema":"AREA_SERVIDAO_ADMINISTRATIVA_TOTAL","cod_imovel":"RJ-3301207-484AB448E38B4229BC7E0F7C9061B95F","num_area":"0.5902000000000000000000000000000","ind_status":"AT"},"geometry":{"type":"Polygon","coordinates":[[[-42.5712,-21.9015],[-42.5666,-21.8982],[-42.571,-21.9012],[-42.5712,-21.9015]],[[-42.5651,-21.896],[-42.5623,-21.8946],[-42.5651,-21.896],[-42.5651,-21.896]]]}},{"type":"Feature","properties":{"cod_tema":"AREA_INFRAESTRUTURA_PUBLICA","cod_imovel":"RJ-3301207-C9E05150D23B4B6B88C7419C9AE0216D","num_area":"0.4121000000000000000000000000000","ind_status":"AT"},"geometry":{"type":"Polygon","coordinates":[[[-42.4714,-21.7986],[-42.471,-21.7929],[-42.4711,-21.7984],[-42.4714,-21.7986]]]}},{"type":"Feature","properties":{"cod_tema":"AREA_SERVIDAO_ADMINISTRATIVA_TOTAL","cod_imovel":"RJ-3301207-C9E05150D23B4B6B88C7419C9AE0216D","num_area":"0.4121000000000000000000000000000","ind_status":"AT"},"geometry":{"type":"Polygon","coordinates":[[[-42.4714,-21.7986],[-42.471,-21.7929],[-42.4711,-21.7984],[-42.4714,-21.7986]]]}},{"type":"Feature","properties":{"cod_tema":"AREA_UTILIDADE_PUBLICA","cod_imovel":"RJ-3301207-9CE6D4C59C80452E9E0B6BDF924ED2F5","num_area":"0.6747000000000000000000000000000","ind_status":"AT"},"geometry":{"type":"Polygon","coordinates":[[[-42.498,-21.8783],[-42.5007,-21.8717],[-42.498,-21.8782],[-42.498,-21.8783]]]}},{"type":"Feature","properties":{"cod_tema":"AREA_SERVIDAO_ADMINISTRATIVA_TOTAL","cod_imovel":"RJ-3301207-9CE6D4C59C80452E9E0B6BDF924ED2F5","num_area":"0.6819000000000000000000000000000","ind_status":"AT"},"geometry":{"type":"Polygon","coordinates":[[[-42.498,-21.8783],[-42.5007,-21.8717],[-42.498,-21.8782],[-42.498,-21.8783]]]}},{"type":"Feature","properties":{"cod_tema":"AREA_UTILIDADE_PUBLICA","cod_imovel":"RJ-3301207-51B3CACC11414897BDE0223E4EBFDE2C","num_area":"0.1951000000000000000000000000000","ind_status":"AT"},"geometry":{"type":"Polygon","coordinates":[[[-42.5516,-21.8369],[-42.5483,-21.8354],[-42.5514,-21.837],[-42.5516,-21.8369]]]}},{"type":"Feature","properties":{"cod_tema":"AREA_SERVIDAO_ADMINISTRATIVA_TOTAL","cod_imovel":"RJ-3301207-51B3CACC11414897BDE0223E4EBFDE2C","num_area":"0.1951000000000000000000000000000","ind_status":"AT"},"geometry":{"type":"Polygon","coordinates":[[[-42.5516,-21.8369],[-42.5483,-21.8354],[-42.5514,-21.837],[-42.5516,-21.8369]]]}},{"type":"Feature","properties":{"cod_tema":"AREA_UTILIDADE_PUBLICA","cod_imovel":"RJ-3301207-3289085929D049E29B9315C4BEEA0CD3","num_area":"0.0598000000000000000000000000000","ind_status":"AT"},"geometry":{"type":"Polygon","coordinates":[[[-42.6067,-21.8588],[-42.606,-21.8624],[-42.6068,-21.859],[-42.6067,-21.8588]]]}},{"type":"Feature","properties":{"cod_tema":"AREA_SERVIDAO_ADMINISTRATIVA_TOTAL","cod_imovel":"RJ-3301207-3289085929D049E29B9315C4BEEA0CD3","num_area":"0.0598000000000000000000000000000","ind_status":"AT"},"geometry":{"type":"Polygon","coordinates":[[[-42.6067,-21.8588],[-42.606,-21.8624],[-42.6068,-21.859],[-42.6067,-21.8588]]]}},{"type":"Feature","properties":{"cod_tema":"AREA_UTILIDADE_PUBLICA","cod_imovel":"RJ-3301207-9D787F7DF95C4FEE91DD7EABA4B83CB3","num_area":"0.3933000000000000000000000000000","ind_status":"AT"},"geometry":{"type":"Polygon","coordinates":[[[-42.4881,-21.8769],[-42.49,-21.8833],[-42.4881,-21.8769],[-42.4881,-21.8769]]]}},{"type":"Feature","properties":{"cod_tema":"AREA_SERVIDAO_ADMINISTRATIVA_TOTAL","cod_imovel":"RJ-3301207-9D787F7DF95C4FEE91DD7EABA4B83CB3","num_area":"0.7149000000000000000000000000000","ind_status":"AT"},"geometry":{"type":"Polygon","coordinates":[[[-42.4919,-21.8817],[-42.4881,-21.8768],[-42.4894,-21.883],[-42.4919,-21.8817]]]}},{"type":"Feature","properties":{"cod_tema":"AREA_UTILIDADE_PUBLICA","cod_imovel":"RJ-3301207-F1E10884D3724C37B6763D3E7F0EF9E0","num_area":"0.2134000000000000000000000000000","ind_status":"AT"},"geometry":{"type":"Polygon","coordinates":[[[-42.6631,-21.9155],[-42.663,-21.9188],[-42.6631,-21.9155],[-42.6631,-21.9155]]]}},{"type":"Feature","properties":{"cod_tema":"AREA_SERVIDAO_ADMINISTRATIVA_TOTAL","cod_imovel":"RJ-3301207-F1E10884D3724C37B6763D3E7F0EF9E0","num_area":"0.2134000000000000000000000000000","ind_status":"AT"},"geometry":{"type":"Polygon","coordinates":[[[-42.6631,-21.9155],[-42.663,-21.9188],[-42.6631,-21.9155],[-42.6631,-21.9155]]]}},{"type":"Feature","properties":{"cod_tema":"AREA_UTILIDADE_PUBLICA","cod_imovel":"RJ-3301207-A8C4D1DC98A84530B70AB4EE5842A5AA","num_area":"1.3843000000000000000000000000000","ind_status":"AT"},"geometry":{"type":"Polygon","coordinates":[[[-42.5662,-21.8982],[-42.5566,-21.899],[-42.5657,-21.8981],[-42.5662,-21.8982]]]}},{"type":"Feature","properties":{"cod_tema":"AREA_SERVIDAO_ADMINISTRATIVA_TOTAL","cod_imovel":"RJ-3301207-A8C4D1DC98A84530B70AB4EE5842A5AA","num_area":"1.3843000000000000000000000000000","ind_status":"AT"},"geometry":{"type":"Polygon","coordinates":[[[-42.5662,-21.8982],[-42.5566,-21.899],[-42.5657,-21.8981],[-42.5662,-21.8982]]]}},{"type":"Feature","properties":{"cod_tema":"AREA_UTILIDADE_PUBLICA","cod_imovel":"RJ-3301207-EF34912479464D298FC25BD395272A6D","num_area":"0.3139000000000000000000000000000","ind_status":"AT"},"geometry":{"type":"Polygon","coordinates":[[[-42.6045,-21.8932],[-42.6106,-21.896],[-42.6045,-21.8932],[-42.6045,-21.8932]]]}},{"type":"Feature","properties":{"cod_tema":"AREA_SERVIDAO_ADMINISTRATIVA_TOTAL","cod_imovel":"RJ-3301207-EF34912479464D298FC25BD395272A6D","num_area":"0.3139000000000000000000000000000","ind_status":"AT"},"geometry":{"type":"Polygon","coordinates":[[[-42.6045,-21.8932],[-42.6106,-21.896],[-42.6045,-21.8932],[-42.6045,-21.8932]]]}},{"type":"Feature","properties":{"cod_tema":"AREA_UTILIDADE_PUBLICA","cod_imovel":"RJ-3301207-1B39923FC3594189858F437DA0FE42EB","num_area":"1.0975000000000000000000000000000","ind_status":"AT"},"geometry":{"type":"Polygon","coordinates":[[[-42.6064,-21.8799],[-42.6119,-21.8807],[-42.6146,-21.8689],[-42.6119,-21.8806],[-42.6064,-21.8799],[-42.6064,-21.8799]]]}},{"type":"Feature","properties":{"cod_tema":"AREA_SERVIDAO_ADMINISTRATIVA_TOTAL","cod_imovel":"RJ-3301207-1B39923FC3594189858F437DA0FE42EB","num_area":"1.0975000000000000000000000000000","ind_status":"AT"},"geometry":{"type":"Polygon","coordinates":[[[-42.6064,-21.8799],[-42.6119,-21.8807],[-42.6146,-21.8689],[-42.6119,-21.8806],[-42.6064,-21.8799],[-42.6064,-21.8799]]]}},{"type":"Feature","properties":{"cod_tema":"AREA_UTILIDADE_PUBLICA","cod_imovel":"RJ-3301207-CA9D6ECD348944B08B6D59EDDE2097D1","num_area":"0.1139000000000000000000000000000","ind_status":"AT"},"geometry":{"type":"Polygon","coordinates":[[[-42.6439,-21.9399],[-42.6467,-21.9387],[-42.6439,-21.9399],[-42.6439,-21.9399]]]}},{"type":"Feature","properties":{"cod_tema":"AREA_SERVIDAO_ADMINISTRATIVA_TOTAL","cod_imovel":"RJ-3301207-CA9D6ECD348944B08B6D59EDDE2097D1","num_area":"0.1139000000000000000000000000000","ind_status":"AT"},"geometry":{"type":"Polygon","coordinates":[[[-42.6439,-21.9399],[-42.6467,-21.9387],[-42.6439,-21.9399],[-42.6439,-21.9399]]]}},{"type":"Feature","properties":{"cod_tema":"AREA_UTILIDADE_PUBLICA","cod_imovel":"RJ-3301207-0B60F97FCBD14BD090A6D77D732F9C20","num_area":"1.7176000000000000000000000000000","ind_status":"AT"},"geometry":{"type":"Polygon","coordinates":[[[-42.5943,-21.9163],[-42.6038,-21.9205],[-42.5943,-21.9163],[-42.5943,-21.9163]],[[-42.5734,-21.9391],[-42.5769,-21.9352],[-42.5947,-21.9375],[-42.5769,-21.9352],[-42.5737,-21.9389],[-42.5734,-21.9391]]]}},{"type":"Feature","properties":{"cod_tema":"AREA_SERVIDAO_ADMINISTRATIVA_TOTAL","cod_imovel":"RJ-3301207-0B60F97FCBD14BD090A6D77D732F9C20","num_area":"1.7176000000000000000000000000000","ind_status":"AT"},"geometry":{"type":"Polygon","coordinates":[[[-42.5943,-21.9163],[-42.6038,-21.9205],[-42.5943,-21.9163],[-42.5943,-21.9163]],[[-42.5734,-21.9391],[-42.5769,-21.9352],[-42.5947,-21.9375],[-42.5769,-21.9352],[-42.5737,-21.9389],[-42.5734,-21.9391]]]}},{"type":"Feature","properties":{"cod_tema":"AREA_UTILIDADE_PUBLICA","cod_imovel":"RJ-3301207-B5F62DC626B144D39D833108FE448FA9","num_area":"2.7680000000000000000000000000000","ind_status":"AT"},"geometry":{"type":"Polygon","coordinates":[[[-42.5198,-21.8736],[-42.533,-21.8711],[-42.52,-21.8732],[-42.5198,-21.8736]],[[-42.5212,-21.8793],[-42.5321,-21.8815],[-42.5212,-21.8793],[-42.5212,-21.8793]]]}},{"type":"Feature","properties":{"cod_tema":"AREA_SERVIDAO_ADMINISTRATIVA_TOTAL","cod_imovel":"RJ-3301207-B5F62DC626B144D39D833108FE448FA9","num_area":"3.7031000000000000000000000000000","ind_status":"AT"},"geometry":{"type":"Polygon","coordinates":[[[-42.5198,-21.8736],[-42.533,-21.8711],[-42.52,-21.8732],[-42.5198,-21.8736]],[[-42.5212,-21.8793],[-42.5321,-21.8815],[-42.5212,-21.8793],[-42.5212,-21.8793]]]}},{"type":"Feature","properties":{"cod_tema":"AREA_UTILIDADE_PUBLICA","cod_imovel":"RJ-3301207-8E230523B50240FDB6D6DAE3C7AE2C05","num_area":"0.2011000000000000000000000000000","ind_status":"AT"},"geometry":{"type":"Polygon","coordinates":[[[-42.5792,-21.982],[-42.5821,-21.9782],[-42.5792,-21.982],[-42.5792,-21.982]]]}},{"type":"Feature","properties":{"cod_tema":"AREA_SERVIDAO_ADMINISTRATIVA_TOTAL","cod_imovel":"RJ-3301207-8E230523B50240FDB6D6DAE3C7AE2C05","num_area":"0.2011000000000000000000000000000","ind_status":"AT"},"geometry":{"type":"Polygon","coordinates":[[[-42.5792,-21.982],[-42.5821,-21.9782],[-42.5792,-21.982],[-42.5792,-21.982]]]}},{"type":"Feature","properties":{"cod_tema":"AREA_INFRAESTRUTURA_PUBLICA","cod_imovel":"RJ-3301207-3F3D9F4307124C858FEFED9928331020","num_area":"0.7609000000000000000000000000000","ind_status":"AT"},"geometry":{"type":"Polygon","coordinates":[[[-42.6312,-21.9351],[-42.6286,-21.9336],[-42.6314,-21.9353],[-42.6312,-21.9351]]]}},{"type":"Feature","properties":{"cod_tema":"AREA_SERVIDAO_ADMINISTRATIVA_TOTAL","cod_imovel":"RJ-3301207-3F3D9F4307124C858FEFED9928331020","num_area":"0.7609000000000000000000000000000","ind_status":"AT"},"geometry":{"type":"Polygon","coordinates":[[[-42.6312,-21.9351],[-42.6286,-21.9336],[-42.6314,-21.9353],[-42.6312,-21.9351]]]}},{"type":"Feature","properties":{"cod_tema":"AREA_UTILIDADE_PUBLICA","cod_imovel":"RJ-3301207-1C5F275125F64597A0023996B0021E8E","num_area":"0.3931000000000000000000000000000","ind_status":"AT"},"geometry":{"type":"Polygon","coordinates":[[[-42.5815,-21.8607],[-42.5853,-21.8597],[-42.5819,-21.8605],[-42.5815,-21.8607]]]}},{"type":"Feature","properties":{"cod_tema":"AREA_SERVIDAO_ADMINISTRATIVA_TOTAL","cod_imovel":"RJ-3301207-1C5F275125F64597A0023996B0021E8E","num_area":"0.3931000000000000000000000000000","ind_status":"AT"},"geometry":{"type":"Polygon","coordinates":[[[-42.5815,-21.8607],[-42.5853,-21.8597],[-42.5819,-21.8605],[-42.5815,-21.8607]]]}},{"type":"Feature","properties":{"cod_tema":"AREA_UTILIDADE_PUBLICA","cod_imovel":"RJ-3301207-10D7098AFB1F4B77BCDD4744263D157F","num_area":"0.1461000000000000000000000000000","ind_status":"AT"},"geometry":{"type":"Polygon","coordinates":[[[-42.5185,-21.8639],[-42.5186,-21.8677],[-42.5185,-21.8641],[-42.5185,-21.8639]]]}},{"type":"Feature","properties":{"cod_tema":"AREA_SERVIDAO_ADMINISTRATIVA_TOTAL","cod_imovel":"RJ-3301207-10D7098AFB1F4B77BCDD4744263D157F","num_area":"0.1461000000000000000000000000000","ind_status":"AT"},"geometry":{"type":"Polygon","coordinates":[[[-42.5185,-21.8639],[-42.5186,-21.8677],[-42.5185,-21.8641],[-42.5185,-21.8639]]]}},{"type":"Feature","properties":{"cod_tema":"AREA_UTILIDADE_PUBLICA","cod_imovel":"RJ-3301207-4884AB9F1FEB4903862CF22B735885CC","num_area":"0.2541000000000000000000000000000","ind_status":"AT"},"geometry":{"type":"Polygon","coordinates":[[[-42.6517,-21.9496],[-42.6456,-21.9481],[-42.6517,-21.9496],[-42.6517,-21.9496]]]}},{"type":"Feature","properties":{"cod_tema":"AREA_SERVIDAO_ADMINISTRATIVA_TOTAL","cod_imovel":"RJ-3301207-4884AB9F1FEB4903862CF22B735885CC","num_area":"0.2541000000000000000000000000000","ind_status":"AT"},"geometry":{"type":"Polygon","coordinates":[[[-42.6517,-21.9496],[-42.6456,-21.9481],[-42.6517,-21.9496],[-42.6517,-21.9496]]]}},{"type":"Feature","properties":{"cod_tema":"AREA_UTILIDADE_PUBLICA","cod_imovel":"RJ-3301207-DBB81E7BBDF54F65976AE550C6324247","num_area":"1.4403000000000000000000000000000","ind_status":"AT"},"geometry":{"type":"Polygon","coordinates":[[[-42.564,-21.9506],[-42.5664,-21.9463],[-42.564,-21.9506],[-42.564,-21.9506]]]}},{"type":"Feature","properties":{"cod_tema":"AREA_SERVIDAO_ADMINISTRATIVA_TOTAL","cod_imovel":"RJ-3301207-DBB81E7BBDF54F65976AE550C6324247","num_area":"1.4403000000000000000000000000000","ind_status":"AT"},"geometry":{"type":"Polygon","coordinates":[[[-42.564,-21.9506],[-42.5664,-21.9463],[-42.564,-21.9506],[-42.564,-21.9506]]]}},{"type":"Feature","properties":{"cod_tema":"AREA_INFRAESTRUTURA_PUBLICA","cod_imovel":"RJ-3301207-A31E924B5911476B8B373A211268B6A3","num_area":"0.4399000000000000000000000000000","ind_status":"AT"},"geometry":{"type":"Polygon","coordinates":[[[-42.5484,-21.8493],[-42.5491,-21.8457],[-42.5535,-21.8484],[-42.5491,-21.8456],[-42.5484,-21.8493],[-42.5484,-21.8493]]]}},{"type":"Feature","properties":{"cod_tema":"AREA_SERVIDAO_ADMINISTRATIVA_TOTAL","cod_imovel":"RJ-3301207-A31E924B5911476B8B373A211268B6A3","num_area":"0.4399000000000000000000000000000","ind_status":"AT"},"geometry":{"type":"Polygon","coordinates":[[[-42.5484,-21.8493],[-42.5491,-21.8457],[-42.5535,-21.8484],[-42.5491,-21.8456],[-42.5484,-21.8493],[-42.5484,-21.8493]]]}},{"type":"Feature","properties":{"cod_tema":"AREA_INFRAESTRUTURA_PUBLICA","cod_imovel":"RJ-3301207-6D2796A2E2BD4865AC0A7D889F61427D","num_area":"53.837600000000000000000000000000","ind_status":"AT"},"geometry":{"type":"Polygon","coordinates":[[[-42.5723,-21.8439],[-42.577,-21.8462],[-42.5723,-21.8439],[-42.5723,-21.8439]],[[-42.599,-21.8549],[-42.578,-21.8465],[-42.5998,-21.8553],[-42.599,-21.8549]],[[-42.6173,-21.8596],[-42.5997,-21.8556],[-42.6365,-21.8659],[-42.5787,-21.8462],[-42.6174,-21.8597],[-42.6173,-21.8596]],[[-42.6205,-21.8606],[-42.6238,-21.8623],[-42.6199,-21.8606],[-42.6205,-21.8606]],[[-42.6327,-21.8652],[-42.6366,-21.866],[-42.6251,-21.8632],[-42.6303,-21.8644],[-42.6327,-21.8652]]]}},{"type":"Feature","properties":{"cod_tema":"AREA_UTILIDADE_PUBLICA","cod_imovel":"RJ-3301207-6D2796A2E2BD4865AC0A7D889F61427D","num_area":"212.27230000000000000000000000000","ind_status":"AT"},"geometry":{"type":"Polygon","coordinates":[[[-42.5785,-21.846],[-42.6046,-21.854],[-42.5784,-21.8459],[-42.5785,-21.846]],[[-42.6087,-21.8513],[-42.6044,-21.855],[-42.6347,-21.8644],[-42.6087,-21.8513],[-42.6087,-21.8513]],[[-42.5739,-21.8329],[-42.5822,-21.8385],[-42.5791,-21.8433],[-42.5843,-21.8389],[-42.6044,-21.8463],[-42.6043,-21.8537],[-42.6075,-21.8527],[-42.6062,-21.846],[-42.574,-21.833],[-42.5739,-21.8329]]]}},{"type":"Feature","properties":{"cod_tema":"AREA_SERVIDAO_ADMINISTRATIVA_TOTAL","cod_imovel":"RJ-3301207-6D2796A2E2BD4865AC0A7D889F61427D","num_area":"266.02460000000000000000000000000","ind_status":"AT"},"geometry":{"type":"Polygon","coordinates":[[[-42.5785,-21.846],[-42.6158,-21.862],[-42.5997,-21.8556],[-42.6365,-21.8659],[-42.5784,-21.8459],[-42.5785,-21.846]],[[-42.6087,-21.8513],[-42.6044,-21.855],[-42.6347,-21.8644],[-42.6087,-21.8513],[-42.6087,-21.8513]],[[-42.5739,-21.8329],[-42.5822,-21.8387],[-42.5752,-21.842],[-42.5802,-21.8437],[-42.5843,-21.8389],[-42.6044,-21.8463],[-42.6043,-21.8537],[-42.6075,-21.8527],[-42.6062,-21.846],[-42.574,-21.833],[-42.5739,-21.8329]],[[-42.5723,-21.8439],[-42.577,-21.8462],[-42.5723,-21.8439],[-42.5723,-21.8439]],[[-42.599,-21.8549],[-42.578,-21.8465],[-42.5998,-21.8553],[-42.599,-21.8549]],[[-42.6205,-21.8606],[-42.6238,-21.8623],[-42.6199,-21.8606],[-42.6205,-21.8606]],[[-42.6327,-21.8652],[-42.6366,-21.866],[-42.6251,-21.8632],[-42.6303,-21.8644],[-42.6327,-21.8652]]]}},{"type":"Feature","properties":{"cod_tema":"AREA_INFRAESTRUTURA_PUBLICA","cod_imovel":"RJ-3301207-C9A18D934ECD433595C96274C5A8820A","num_area":"1.0191000000000000000000000000000","ind_status":"AT"},"geometry":{"type":"Polygon","coordinates":[[[-42.6005,-21.9884],[-42.6005,-21.9805],[-42.6007,-21.9866],[-42.6005,-21.9884]]]}},{"type":"Feature","properties":{"cod_tema":"AREA_SERVIDAO_ADMINISTRATIVA_TOTAL","cod_imovel":"RJ-3301207-C9A18D934ECD433595C96274C5A8820A","num_area":"1.0191000000000000000000000000000","ind_status":"AT"},"geometry":{"type":"Polygon","coordinates":[[[-42.6005,-21.9884],[-42.6005,-21.9805],[-42.6007,-21.9866],[-42.6005,-21.9884]]]}},{"type":"Feature","properties":{"cod_tema":"AREA_UTILIDADE_PUBLICA","cod_imovel":"RJ-3301207-0978D2B1C74846B79FE8BFC063036064","num_area":"0.1570000000000000000000000000000","ind_status":"AT"},"geometry":{"type":"Polygon","coordinates":[[[-42.5329,-21.9184],[-42.5308,-21.9156],[-42.5329,-21.9184],[-42.5329,-21.9184]]]}},{"type":"Feature","properties":{"cod_tema":"AREA_SERVIDAO_ADMINISTRATIVA_TOTAL","cod_imovel":"RJ-3301207-0978D2B1C74846B79FE8BFC063036064","num_area":"0.1570000000000000000000000000000","ind_status":"AT"},"geometry":{"type":"Polygon","coordinates":[[[-42.5329,-21.9184],[-42.5308,-21.9156],[-42.5329,-21.9184],[-42.5329,-21.9184]]]}},{"type":"Feature","properties":{"cod_tema":"AREA_UTILIDADE_PUBLICA","cod_imovel":"RJ-3301207-1462AD4C276A460A90499BA58640A9A9","num_area":"0.2549000000000000000000000000000","ind_status":"AT"},"geometry":{"type":"Polygon","coordinates":[[[-42.4901,-21.8715],[-42.4881,-21.8768],[-42.4901,-21.8715],[-42.4901,-21.8715]]]}},{"type":"Feature","properties":{"cod_tema":"AREA_SERVIDAO_ADMINISTRATIVA_TOTAL","cod_imovel":"RJ-3301207-1462AD4C276A460A90499BA58640A9A9","num_area":"0.2549000000000000000000000000000","ind_status":"AT"},"geometry":{"type":"Polygon","coordinates":[[[-42.4901,-21.8715],[-42.4881,-21.8768],[-42.4901,-21.8715],[-42.4901,-21.8715]]]}},{"type":"Feature","properties":{"cod_tema":"AREA_INFRAESTRUTURA_PUBLICA","cod_imovel":"RJ-3301207-BED53A5E297E47AA8A8BDA1071A11F77","num_area":"0.8812000000000000000000000000000","ind_status":"AT"},"geometry":{"type":"Polygon","coordinates":[[[-42.5173,-21.8529],[-42.5158,-21.8481],[-42.5093,-21.8594],[-42.5173,-21.8529],[-42.5173,-21.8529]]]}},{"type":"Feature","properties":{"cod_tema":"AREA_SERVIDAO_ADMINISTRATIVA_TOTAL","cod_imovel":"RJ-3301207-BED53A5E297E47AA8A8BDA1071A11F77","num_area":"0.8812000000000000000000000000000","ind_status":"AT"},"geometry":{"type":"Polygon","coordinates":[[[-42.5173,-21.8529],[-42.5158,-21.8481],[-42.5093,-21.8594],[-42.5173,-21.8529],[-42.5173,-21.8529]]]}},{"type":"Feature","properties":{"cod_tema":"AREA_INFRAESTRUTURA_PUBLICA","cod_imovel":"RJ-3301207-0834F95210C446F1A76474E7FB34B076","num_area":"0.3673000000000000000000000000000","ind_status":"AT"},"geometry":{"type":"Polygon","coordinates":[[[-42.4823,-21.8342],[-42.4865,-21.8338],[-42.4824,-21.8342],[-42.4823,-21.8342]]]}},{"type":"Feature","properties":{"cod_tema":"AREA_SERVIDAO_ADMINISTRATIVA_TOTAL","cod_imovel":"RJ-3301207-0834F95210C446F1A76474E7FB34B076","num_area":"0.3673000000000000000000000000000","ind_status":"AT"},"geometry":{"type":"Polygon","coordinates":[[[-42.4823,-21.8342],[-42.4865,-21.8338],[-42.4824,-21.8342],[-42.4823,-21.8342]]]}},{"type":"Feature","properties":{"cod_tema":"AREA_UTILIDADE_PUBLICA","cod_imovel":"RJ-3301207-F7FECCBBEA2A4271BFA047492B6E481D","num_area":"0.6681000000000000000000000000000","ind_status":"AT"},"geometry":{"type":"Polygon","coordinates":[[[-42.569,-21.8558],[-42.5765,-21.8593],[-42.569,-21.8558],[-42.569,-21.8558]]]}},{"type":"Feature","properties":{"cod_tema":"AREA_SERVIDAO_ADMINISTRATIVA_TOTAL","cod_imovel":"RJ-3301207-F7FECCBBEA2A4271BFA047492B6E481D","num_area":"0.6681000000000000000000000000000","ind_status":"AT"},"geometry":{"type":"Polygon","coordinates":[[[-42.569,-21.8558],[-42.5765,-21.8593],[-42.569,-21.8558],[-42.569,-21.8558]]]}},{"type":"Feature","properties":{"cod_tema":"AREA_INFRAESTRUTURA_PUBLICA","cod_imovel":"RJ-3301207-D67D7C283D0244BCA1CF1A8567D391A5","num_area":"0.8857000000000000000000000000000","ind_status":"AT"},"geometry":{"type":"Polygon","coordinates":[[[-42.6575,-21.966],[-42.654,-21.968],[-42.6549,-21.9633],[-42.6502,-21.9671],[-42.6575,-21.966],[-42.6575,-21.966]]]}},{"type":"Feature","properties":{"cod_tema":"AREA_SERVIDAO_ADMINISTRATIVA_TOTAL","cod_imovel":"RJ-3301207-D67D7C283D0244BCA1CF1A8567D391A5","num_area":"0.8857000000000000000000000000000","ind_status":"AT"},"geometry":{"type":"Polygon","coordinates":[[[-42.6575,-21.966],[-42.654,-21.968],[-42.6549,-21.9633],[-42.6502,-21.9671],[-42.6575,-21.966],[-42.6575,-21.966]]]}},{"type":"Feature","properties":{"cod_tema":"AREA_INFRAESTRUTURA_PUBLICA","cod_imovel":"RJ-3301207-D6F4C351E7BD4E7B87192E771A108E14","num_area":"0.2400000000000000000000000000000","ind_status":"AT"},"geometry":{"type":"Polygon","coordinates":[[[-42.569,-21.8558],[-42.5654,-21.8526],[-42.569,-21.8558],[-42.569,-21.8558]]]}},{"type":"Feature","properties":{"cod_tema":"AREA_SERVIDAO_ADMINISTRATIVA_TOTAL","cod_imovel":"RJ-3301207-D6F4C351E7BD4E7B87192E771A108E14","num_area":"0.2400000000000000000000000000000","ind_status":"AT"},"geometry":{"type":"Polygon","coordinates":[[[-42.569,-21.8558],[-42.5654,-21.8526],[-42.569,-21.8558],[-42.569,-21.8558]]]}},{"type":"Feature","properties":{"cod_tema":"AREA_UTILIDADE_PUBLICA","cod_imovel":"RJ-3301207-C7A7755BD3894B42818AFCD2DB56A060","num_area":"0.2863000000000000000000000000000","ind_status":"AT"},"geometry":{"type":"Polygon","coordinates":[[[-42.5409,-21.936],[-42.539,-21.9328],[-42.5409,-21.936],[-42.5409,-21.936]]]}},{"type":"Feature","properties":{"cod_tema":"AREA_SERVIDAO_ADMINISTRATIVA_TOTAL","cod_imovel":"RJ-3301207-C7A7755BD3894B42818AFCD2DB56A060","num_area":"0.2863000000000000000000000000000","ind_status":"AT"},"geometry":{"type":"Polygon","coordinates":[[[-42.5409,-21.936],[-42.539,-21.9328],[-42.5409,-21.936],[-42.5409,-21.936]]]}},{"type":"Feature","properties":{"cod_tema":"AREA_UTILIDADE_PUBLICA","cod_imovel":"RJ-3301207-199F1DF888D34FB2A4933CBDD9E49AF8","num_area":"0.4332000000000000000000000000000","ind_status":"AT"},"geometry":{"type":"Polygon","coordinates":[[[-42.5158,-21.8477],[-42.508,-21.8511],[-42.5158,-21.8477],[-42.5158,-21.8477]]]}},{"type":"Feature","properties":{"cod_tema":"AREA_SERVIDAO_ADMINISTRATIVA_TOTAL","cod_imovel":"RJ-3301207-199F1DF888D34FB2A4933CBDD9E49AF8","num_area":"0.4332000000000000000000000000000","ind_status":"AT"},"geometry":{"type":"Polygon","coordinates":[[[-42.5158,-21.8477],[-42.508,-21.8511],[-42.5158,-21.8477],[-42.5158,-21.8477]]]}},{"type":"Feature","properties":{"cod_tema":"AREA_UTILIDADE_PUBLICA","cod_imovel":"RJ-3301207-1137AFC2A96E4CD386A2F05203F80660","num_area":"0.5774000000000000000000000000000","ind_status":"AT"},"geometry":{"type":"Polygon","coordinates":[[[-42.513,-21.8997],[-42.5086,-21.8957],[-42.5123,-21.8902],[-42.5086,-21.8957],[-42.5132,-21.8998],[-42.513,-21.8997]]]}},{"type":"Feature","properties":{"cod_tema":"AREA_SERVIDAO_ADMINISTRATIVA_TOTAL","cod_imovel":"RJ-3301207-1137AFC2A96E4CD386A2F05203F80660","num_area":"0.5774000000000000000000000000000","ind_status":"AT"},"geometry":{"type":"Polygon","coordinates":[[[-42.513,-21.8997],[-42.5086,-21.8957],[-42.5123,-21.8902],[-42.5086,-21.8957],[-42.5132,-21.8998],[-42.513,-21.8997]]]}},{"type":"Feature","properties":{"cod_tema":"AREA_UTILIDADE_PUBLICA","cod_imovel":"RJ-3301207-0C1AECCA75C54098BA1E1CB34AE378D2","num_area":"0.4521000000000000000000000000000","ind_status":"AT"},"geometry":{"type":"Polygon","coordinates":[[[-42.4543,-21.848],[-42.4528,-21.8527],[-42.4543,-21.848],[-42.4543,-21.848]]]}},{"type":"Feature","properties":{"cod_tema":"AREA_SERVIDAO_ADMINISTRATIVA_TOTAL","cod_imovel":"RJ-3301207-0C1AECCA75C54098BA1E1CB34AE378D2","num_area":"0.4521000000000000000000000000000","ind_status":"AT"},"geometry":{"type":"Polygon","coordinates":[[[-42.4543,-21.848],[-42.4528,-21.8527],[-42.4543,-21.848],[-42.4543,-21.848]]]}},{"type":"Feature","properties":{"cod_tema":"AREA_INFRAESTRUTURA_PUBLICA","cod_imovel":"RJ-3301207-0DD3110F52474D5FB4806F237E61E591","num_area":"3.2327000000000000000000000000000","ind_status":"AT"},"geometry":{"type":"Polygon","coordinates":[[[-42.5748,-21.9171],[-42.5627,-21.9233],[-42.5476,-21.9167],[-42.5559,-21.9226],[-42.5663,-21.9209],[-42.5668,-21.9268],[-42.5717,-21.9204],[-42.5748,-21.9257],[-42.5746,-21.9179],[-42.5748,-21.9171]]]}},{"type":"Feature","properties":{"cod_tema":"AREA_SERVIDAO_ADMINISTRATIVA_TOTAL","cod_imovel":"RJ-3301207-0DD3110F52474D5FB4806F237E61E591","num_area":"3.2327000000000000000000000000000","ind_status":"AT"},"geometry":{"type":"Polygon","coordinates":[[[-42.5748,-21.9171],[-42.5627,-21.9233],[-42.5476,-21.9167],[-42.5559,-21.9226],[-42.5663,-21.9209],[-42.5668,-21.9268],[-42.5717,-21.9204],[-42.5748,-21.9257],[-42.5746,-21.9179],[-42.5748,-21.9171]]]}},{"type":"Feature","properties":{"cod_tema":"AREA_INFRAESTRUTURA_PUBLICA","cod_imovel":"RJ-3301207-409432F34F8340BA98E4864F7C092643","num_area":"0.8414000000000000000000000000000","ind_status":"AT"},"geometry":{"type":"Polygon","coordinates":[[[-42.5176,-21.9122],[-42.5106,-21.9069],[-42.5176,-21.9122],[-42.5176,-21.9122]]]}},{"type":"Feature","properties":{"cod_tema":"AREA_INFRAESTRUTURA_PUBLICA","cod_imovel":"RJ-3301207-53E3056D2BB244438C4DB6935837CCAF","num_area":"1.4090000000000000000000000000000","ind_status":"PE"},"geometry":{"type":"Polygon","coordinates":[[[-42.5572,-21.9892],[-42.5499,-21.996],[-42.5584,-21.9991],[-42.5499,-21.996],[-42.5572,-21.9894],[-42.5572,-21.9892]]]}},{"type":"Feature","properties":{"cod_tema":"AREA_SERVIDAO_ADMINISTRATIVA_TOTAL","cod_imovel":"RJ-3301207-53E3056D2BB244438C4DB6935837CCAF","num_area":"1.4090000000000000000000000000000","ind_status":"PE"},"geometry":{"type":"Polygon","coordinates":[[[-42.5572,-21.9892],[-42.5499,-21.996],[-42.5584,-21.9991],[-42.5499,-21.996],[-42.5572,-21.9894],[-42.5572,-21.9892]]]}},{"type":"Feature","properties":{"cod_tema":"AREA_INFRAESTRUTURA_PUBLICA","cod_imovel":"RJ-3301207-656D7279D0CD45F68CE90A5CE3BBA8FE","num_area":"1.8468000000000000000000000000000","ind_status":"AT"},"geometry":{"type":"Polygon","coordinates":[[[-42.5559,-21.8279],[-42.5665,-21.8357],[-42.5561,-21.8279],[-42.5559,-21.8279]]]}},{"type":"Feature","properties":{"cod_tema":"AREA_SERVIDAO_ADMINISTRATIVA_TOTAL","cod_imovel":"RJ-3301207-656D7279D0CD45F68CE90A5CE3BBA8FE","num_area":"1.8468000000000000000000000000000","ind_status":"AT"},"geometry":{"type":"Polygon","coordinates":[[[-42.5559,-21.8279],[-42.5665,-21.8357],[-42.5561,-21.8279],[-42.5559,-21.8279]]]}},{"type":"Feature","properties":{"cod_tema":"AREA_UTILIDADE_PUBLICA","cod_imovel":"RJ-3301207-DC31D4FC14194DE6BE0066FE90DDCCCF","num_area":"0.0995000000000000000000000000000","ind_status":"AT"},"geometry":{"type":"Polygon","coordinates":[[[-42.6406,-21.8907],[-42.6416,-21.8878],[-42.6406,-21.8907],[-42.6406,-21.8907]]]}},{"type":"Feature","properties":{"cod_tema":"AREA_SERVIDAO_ADMINISTRATIVA_TOTAL","cod_imovel":"RJ-3301207-DC31D4FC14194DE6BE0066FE90DDCCCF","num_area":"0.0995000000000000000000000000000","ind_status":"AT"},"geometry":{"type":"Polygon","coordinates":[[[-42.6406,-21.8907],[-42.6416,-21.8878],[-42.6406,-21.8907],[-42.6406,-21.8907]]]}},{"type":"Feature","properties":{"cod_tema":"AREA_INFRAESTRUTURA_PUBLICA","cod_imovel":"RJ-3301207-09F7CB1DCD82461591EB23C46A812447","num_area":"0.3129000000000000000000000000000","ind_status":"AT"},"geometry":{"type":"Polygon","coordinates":[[[-42.5986,-21.9378],[-42.5945,-21.9373],[-42.5986,-21.9379],[-42.5986,-21.9378]]]}},{"type":"Feature","properties":{"cod_tema":"AREA_SERVIDAO_ADMINISTRATIVA_TOTAL","cod_imovel":"RJ-3301207-09F7CB1DCD82461591EB23C46A812447","num_area":"0.3129000000000000000000000000000","ind_status":"AT"},"geometry":{"type":"Polygon","coordinates":[[[-42.5986,-21.9378],[-42.5945,-21.9373],[-42.5986,-21.9379],[-42.5986,-21.9378]]]}}]}