{"type":"FeatureCollection","features":[{"type":"Feature","properties":{"cod_tema":"AREA_INFRAESTRUTURA_PUBLICA","cod_imovel":"RJ-3301504-D1F3542AA64C40AB98B17D7EAAB39AE4","num_area":"0.3120000000000000000000000000000","ind_status":"AT"},"geometry":{"type":"Polygon","coordinates":[[[-42.3015,-22.0856],[-42.3066,-22.0914],[-42.3015,-22.086],[-42.3015,-22.0856]]]}},{"type":"Feature","properties":{"cod_tema":"AREA_SERVIDAO_ADMINISTRATIVA_TOTAL","cod_imovel":"RJ-3301504-D1F3542AA64C40AB98B17D7EAAB39AE4","num_area":"0.3120000000000000000000000000000","ind_status":"AT"},"geometry":{"type":"Polygon","coordinates":[[[-42.3015,-22.0856],[-42.3066,-22.0914],[-42.3015,-22.086],[-42.3015,-22.0856]]]}},{"type":"Feature","properties":{"cod_tema":"AREA_INFRAESTRUTURA_PUBLICA","cod_imovel":"RJ-3301504-276E65AD066E495B8F8F540DFC4C8D02","num_area":"1.0997000000000000000000000000000","ind_status":"AT"},"geometry":{"type":"Polygon","coordinates":[[[-42.2951,-22.0825],[-42.2811,-22.0881],[-42.2951,-22.0825],[-42.2951,-22.0825]]]}},{"type":"Feature","properties":{"cod_tema":"AREA_SERVIDAO_ADMINISTRATIVA_TOTAL","cod_imovel":"RJ-3301504-276E65AD066E495B8F8F540DFC4C8D02","num_area":"1.0997000000000000000000000000000","ind_status":"AT"},"geometry":{"type":"Polygon","coordinates":[[[-42.2951,-22.0825],[-42.2811,-22.0881],[-42.2951,-22.0825],[-42.2951,-22.0825]]]}},{"type":"Feature","properties":{"cod_tema":"AREA_INFRAESTRUTURA_PUBLICA","cod_imovel":"RJ-3301504-AE9F15843A5049119E559730672C4780","num_area":"0.9313000000000000000000000000000","ind_status":"AT"},"geometry":{"type":"Polygon","coordinates":[[[-42.3721,-22.0556],[-42.3664,-22.0537],[-42.3715,-22.0548],[-42.3721,-22.0556]]]}},{"type":"Feature","properties":{"cod_tema":"AREA_SERVIDAO_ADMINISTRATIVA_TOTAL","cod_imovel":"RJ-3301504-AE9F15843A5049119E559730672C4780","num_area":"0.9313000000000000000000000000000","ind_status":"AT"},"geometry":{"type":"Polygon","coordinates":[[[-42.3721,-22.0556],[-42.3664,-22.0537],[-42.3715,-22.0548],[-42.3721,-22.0556]]]}},{"type":"Feature","properties":{"cod_tema":"AREA_INFRAESTRUTURA_PUBLICA","cod_imovel":"RJ-3301504-D1BBD2AC3AB249B2AC1B0ECD9BB7FEA7","num_area":"0.1915000000000000000000000000000","ind_status":"AT"},"geometry":{"type":"Polygon","coordinates":[[[-42.3775,-22.0515],[-42.3734,-22.052],[-42.3772,-22.0512],[-42.3775,-22.0515]]]}},{"type":"Feature","properties":{"cod_tema":"AREA_SERVIDAO_ADMINISTRATIVA_TOTAL","cod_imovel":"RJ-3301504-D1BBD2AC3AB249B2AC1B0ECD9BB7FEA7","num_area":"0.1915000000000000000000000000000","ind_status":"AT"},"geometry":{"type":"Polygon","coordinates":[[[-42.3775,-22.0515],[-42.3734,-22.052],[-42.3772,-22.0512],[-42.3775,-22.0515]]]}},{"type":"Feature","properties":{"cod_tema":"AREA_INFRAESTRUTURA_PUBLICA","cod_imovel":"RJ-3301504-5857D98B6B7441A2AF6AB5BAD2F8A452","num_area":"0.4056000000000000000000000000000","ind_status":"AT"},"geometry":{"type":"Polygon","coordinates":[[[-42.3242,-22.0171],[-42.3199,-22.0208],[-42.3242,-22.0172],[-42.3242,-22.0171]]]}},{"type":"Feature","properties":{"cod_tema":"AREA_SERVIDAO_ADMINISTRATIVA_TOTAL","cod_imovel":"RJ-3301504-5857D98B6B7441A2AF6AB5BAD2F8A452","num_area":"0.4056000000000000000000000000000","ind_status":"AT"},"geometry":{"type":"Polygon","coordinates":[[[-42.3242,-22.0171],[-42.3199,-22.0208],[-42.3242,-22.0172],[-42.3242,-22.0171]]]}},{"type":"Feature","properties":{"cod_tema":"AREA_INFRAESTRUTURA_PUBLICA","cod_imovel":"RJ-3301504-FA4D4634BF294875AAA139D4C698CC14","num_area":"0.1516000000000000000000000000000","ind_status":"AT"},"geometry":{"type":"Polygon","coordinates":[[[-42.3378,-22.1029],[-42.3349,-22.1013],[-42.3378,-22.1029],[-42.3378,-22.1029]]]}},{"type":"Feature","properties":{"cod_tema":"AREA_SERVIDAO_ADMINISTRATIVA_TOTAL","cod_imovel":"RJ-3301504-FA4D4634BF294875AAA139D4C698CC14","num_area":"0.1516000000000000000000000000000","ind_status":"AT"},"geometry":{"type":"Polygon","coordinates":[[[-42.3378,-22.1029],[-42.3349,-22.1013],[-42.3378,-22.1029],[-42.3378,-22.1029]]]}},{"type":"Feature","properties":{"cod_tema":"AREA_INFRAESTRUTURA_PUBLICA","cod_imovel":"RJ-3301504-11A63FF3EF3E47F193414CD5ECA37982","num_area":"1.3360000000000000000000000000000","ind_status":"AT"},"geometry":{"type":"Polygon","coordinates":[[[-42.3453,-22.0635],[-42.3511,-22.0644],[-42.3463,-22.0693],[-42.3555,-22.0562],[-42.3499,-22.0655],[-42.3456,-22.0633],[-42.3453,-22.0635]]]}},{"type":"Feature","properties":{"cod_tema":"AREA_SERVIDAO_ADMINISTRATIVA_TOTAL","cod_imovel":"RJ-3301504-11A63FF3EF3E47F193414CD5ECA37982","num_area":"1.3360000000000000000000000000000","ind_status":"AT"},"geometry":{"type":"Polygon","coordinates":[[[-42.3453,-22.0635],[-42.3511,-22.0644],[-42.3463,-22.0693],[-42.3555,-22.0562],[-42.3499,-22.0655],[-42.3456,-22.0633],[-42.3453,-22.0635]]]}},{"type":"Feature","properties":{"cod_tema":"AREA_INFRAESTRUTURA_PUBLICA","cod_imovel":"RJ-3301504-03881E8F535B4B5E83B9B59A6CC2057E","num_area":"0.2335000000000000000000000000000","ind_status":"AT"},"geometry":{"type":"Polygon","coordinates":[[[-42.326,-22.0923],[-42.3227,-22.0888],[-42.3249,-22.0919],[-42.326,-22.0923]]]}},{"type":"Feature","properties":{"cod_tema":"AREA_SERVIDAO_ADMINISTRATIVA_TOTAL","cod_imovel":"RJ-3301504-03881E8F535B4B5E83B9B59A6CC2057E","num_area":"0.2335000000000000000000000000000","ind_status":"AT"},"geometry":{"type":"Polygon","coordinates":[[[-42.326,-22.0923],[-42.3227,-22.0888],[-42.3249,-22.0919],[-42.326,-22.0923]]]}},{"type":"Feature","properties":{"cod_tema":"AREA_INFRAESTRUTURA_PUBLICA","cod_imovel":"RJ-3301504-49840F3FBCB64CEDB0F17BEBC0F73D84","num_area":"0.1902000000000000000000000000000","ind_status":"AT"},"geometry":{"type":"Polygon","coordinates":[[[-42.3224,-22.0882],[-42.3241,-22.0917],[-42.3228,-22.0886],[-42.3224,-22.0882]]]}},{"type":"Feature","properties":{"cod_tema":"AREA_SERVIDAO_ADMINISTRATIVA_TOTAL","cod_imovel":"RJ-3301504-49840F3FBCB64CEDB0F17BEBC0F73D84","num_area":"0.1902000000000000000000000000000","ind_status":"AT"},"geometry":{"type":"Polygon","coordinates":[[[-42.3224,-22.0882],[-42.3241,-22.0917],[-42.3228,-22.0886],[-42.3224,-22.0882]]]}},{"type":"Feature","properties":{"cod_tema":"AREA_INFRAESTRUTURA_PUBLICA","cod_imovel":"RJ-3301504-16F3A860848C405C91F2548CC66A41D9","num_area":"0.3691000000000000000000000000000","ind_status":"AT"},"geometry":{"type":"Polygon","coordinates":[[[-42.3648,-22.0611],[-42.3626,-22.0551],[-42.3647,-22.061],[-42.3648,-22.0611]]]}},{"type":"Feature","properties":{"cod_tema":"AREA_SERVIDAO_ADMINISTRATIVA_TOTAL","cod_imovel":"RJ-3301504-16F3A860848C405C91F2548CC66A41D9","num_area":"0.3691000000000000000000000000000","ind_status":"AT"},"geometry":{"type":"Polygon","coordinates":[[[-42.3648,-22.0611],[-42.3626,-22.0551],[-42.3647,-22.061],[-42.3648,-22.0611]]]}},{"type":"Feature","properties":{"cod_tema":"AREA_INFRAESTRUTURA_PUBLICA","cod_imovel":"RJ-3301504-2291E49142094AE2ACB1304CD5E520EA","num_area":"0.6729000000000000000000000000000","ind_status":"AT"},"geometry":{"type":"Polygon","coordinates":[[[-42.3015,-22.0803],[-42.2912,-22.0846],[-42.301,-22.0805],[-42.3015,-22.0803]]]}},{"type":"Feature","properties":{"cod_tema":"AREA_SERVIDAO_ADMINISTRATIVA_TOTAL","cod_imovel":"RJ-3301504-2291E49142094AE2ACB1304CD5E520EA","num_area":"0.6729000000000000000000000000000","ind_status":"AT"},"geometry":{"type":"Polygon","coordinates":[[[-42.3015,-22.0803],[-42.2912,-22.0846],[-42.301,-22.0805],[-42.3015,-22.0803]]]}},{"type":"Feature","properties":{"cod_tema":"AREA_UTILIDADE_PUBLICA","cod_imovel":"RJ-3301504-22E7585691104128BD0BE4A51E3A35DB","num_area":"0.1692000000000000000000000000000","ind_status":"AT"},"geometry":{"type":"Polygon","coordinates":[[[-42.309,-22.0428],[-42.3049,-22.043],[-42.3088,-22.0429],[-42.309,-22.0428]]]}},{"type":"Feature","properties":{"cod_tema":"AREA_SERVIDAO_ADMINISTRATIVA_TOTAL","cod_imovel":"RJ-3301504-22E7585691104128BD0BE4A51E3A35DB","num_area":"0.1692000000000000000000000000000","ind_status":"AT"},"geometry":{"type":"Polygon","coordinates":[[[-42.309,-22.0428],[-42.3049,-22.043],[-42.3088,-22.0429],[-42.309,-22.0428]]]}},{"type":"Feature","properties":{"cod_tema":"AREA_INFRAESTRUTURA_PUBLICA","cod_imovel":"RJ-3301504-3B35B978C265494D89B4F8A8CB12539C","num_area":"0.2604000000000000000000000000000","ind_status":"AT"},"geometry":{"type":"Polygon","coordinates":[[[-42.3491,-22.0837],[-42.3462,-22.0868],[-42.3491,-22.0837],[-42.3491,-22.0837]]]}},{"type":"Feature","properties":{"cod_tema":"AREA_SERVIDAO_ADMINISTRATIVA_TOTAL","cod_imovel":"RJ-3301504-3B35B978C265494D89B4F8A8CB12539C","num_area":"0.2604000000000000000000000000000","ind_status":"AT"},"geometry":{"type":"Polygon","coordinates":[[[-42.3491,-22.0837],[-42.3462,-22.0868],[-42.3491,-22.0837],[-42.3491,-22.0837]]]}},{"type":"Feature","properties":{"cod_tema":"AREA_INFRAESTRUTURA_PUBLICA","cod_imovel":"RJ-3301504-4B279D9276B64CCEBDC13E04079A416D","num_area":"0.2346000000000000000000000000000","ind_status":"AT"},"geometry":{"type":"Polygon","coordinates":[[[-42.305,-22.0526],[-42.3015,-22.0484],[-42.3048,-22.0522],[-42.305,-22.0526]]]}},{"type":"Feature","properties":{"cod_tema":"AREA_SERVIDAO_ADMINISTRATIVA_TOTAL","cod_imovel":"RJ-3301504-4B279D9276B64CCEBDC13E04079A416D","num_area":"0.2346000000000000000000000000000","ind_status":"AT"},"geometry":{"type":"Polygon","coordinates":[[[-42.305,-22.0526],[-42.3015,-22.0484],[-42.3048,-22.0522],[-42.305,-22.0526]]]}},{"type":"Feature","properties":{"cod_tema":"AREA_INFRAESTRUTURA_PUBLICA","cod_imovel":"RJ-3301504-5AE305C2928B4D8086202302EA5B719F","num_area":"0.2719000000000000000000000000000","ind_status":"AT"},"geometry":{"type":"Polygon","coordinates":[[[-42.3552,-22.0478],[-42.3531,-22.0457],[-42.3552,-22.0478],[-42.3552,-22.0478]]]}},{"type":"Feature","properties":{"cod_tema":"AREA_SERVIDAO_ADMINISTRATIVA_TOTAL","cod_imovel":"RJ-3301504-5AE305C2928B4D8086202302EA5B719F","num_area":"0.2719000000000000000000000000000","ind_status":"AT"},"geometry":{"type":"Polygon","coordinates":[[[-42.3552,-22.0478],[-42.3531,-22.0457],[-42.3552,-22.0478],[-42.3552,-22.0478]]]}},{"type":"Feature","properties":{"cod_tema":"AREA_INFRAESTRUTURA_PUBLICA","cod_imovel":"RJ-3301504-94B4B14D60B9496291DEB96D2471ECE0","num_area":"0.3420000000000000000000000000000","ind_status":"AT"},"geometry":{"type":"Polygon","coordinates":[[[-42.3771,-22.0091],[-42.3729,-22.006],[-42.377,-22.0092],[-42.3771,-22.0091]]]}},{"type":"Feature","properties":{"cod_tema":"AREA_SERVIDAO_ADMINISTRATIVA_TOTAL","cod_imovel":"RJ-3301504-94B4B14D60B9496291DEB96D2471ECE0","num_area":"0.3420000000000000000000000000000","ind_status":"AT"},"geometry":{"type":"Polygon","coordinates":[[[-42.3771,-22.0091],[-42.3729,-22.006],[-42.377,-22.0092],[-42.3771,-22.0091]]]}},{"type":"Feature","properties":{"cod_tema":"AREA_INFRAESTRUTURA_PUBLICA","cod_imovel":"RJ-3301504-956CC568AE394ACB864C817EC7E08BA3","num_area":"1.0226000000000000000000000000000","ind_status":"AT"},"geometry":{"type":"Polygon","coordinates":[[[-42.334,-22.1006],[-42.329,-22.0991],[-42.3347,-22.1012],[-42.334,-22.1006]],[[-42.321,-22.0991],[-42.3267,-22.1006],[-42.332,-22.0947],[-42.3267,-22.1006],[-42.321,-22.0991],[-42.321,-22.0991]]]}},{"type":"Feature","properties":{"cod_tema":"AREA_SERVIDAO_ADMINISTRATIVA_TOTAL","cod_imovel":"RJ-3301504-956CC568AE394ACB864C817EC7E08BA3","num_area":"1.0226000000000000000000000000000","ind_status":"AT"},"geometry":{"type":"Polygon","coordinates":[[[-42.334,-22.1006],[-42.329,-22.0991],[-42.3347,-22.1012],[-42.334,-22.1006]],[[-42.321,-22.0991],[-42.3267,-22.1006],[-42.332,-22.0947],[-42.3267,-22.1006],[-42.321,-22.0991],[-42.321,-22.0991]]]}},{"type":"Feature","properties":{"cod_tema":"AREA_INFRAESTRUTURA_PUBLICA","cod_imovel":"RJ-3301504-969ACAB813A94A2ABD12028F9512ED59","num_area":"0.3474000000000000000000000000000","ind_status":"AT"},"geometry":{"type":"Polygon","coordinates":[[[-42.2812,-22.0884],[-42.2771,-22.0923],[-42.2814,-22.0882],[-42.2812,-22.0884]]]}},{"type":"Feature","properties":{"cod_tema":"AREA_SERVIDAO_ADMINISTRATIVA_TOTAL","cod_imovel":"RJ-3301504-969ACAB813A94A2ABD12028F9512ED59","num_area":"0.3474000000000000000000000000000","ind_status":"AT"},"geometry":{"type":"Polygon","coordinates":[[[-42.2812,-22.0884],[-42.2771,-22.0923],[-42.2814,-22.0882],[-42.2812,-22.0884]]]}},{"type":"Feature","properties":{"cod_tema":"AREA_INFRAESTRUTURA_PUBLICA","cod_imovel":"RJ-3301504-C7E1EF889225451091E3298D6FDBFBA4","num_area":"0.2966000000000000000000000000000","ind_status":"AT"},"geometry":{"type":"Polygon","coordinates":[[[-42.3961,-22.0341],[-42.3944,-22.0308],[-42.3959,-22.034],[-42.3961,-22.0341]]]}},{"type":"Feature","properties":{"cod_tema":"AREA_SERVIDAO_ADMINISTRATIVA_TOTAL","cod_imovel":"RJ-3301504-C7E1EF889225451091E3298D6FDBFBA4","num_area":"0.2966000000000000000000000000000","ind_status":"AT"},"geometry":{"type":"Polygon","coordinates":[[[-42.3961,-22.0341],[-42.3944,-22.0308],[-42.3959,-22.034],[-42.3961,-22.0341]]]}},{"type":"Feature","properties":{"cod_tema":"AREA_INFRAESTRUTURA_PUBLICA","cod_imovel":"RJ-3301504-B243349C16E24EDBBCC86846DF49072F","num_area":"0.3731000000000000000000000000000","ind_status":"AT"},"geometry":{"type":"Polygon","coordinates":[[[-42.3262,-22.1014],[-42.3258,-22.1082],[-42.3263,-22.1015],[-42.3262,-22.1014]]]}},{"type":"Feature","properties":{"cod_tema":"AREA_SERVIDAO_ADMINISTRATIVA_TOTAL","cod_imovel":"RJ-3301504-B243349C16E24EDBBCC86846DF49072F","num_area":"0.3731000000000000000000000000000","ind_status":"AT"},"geometry":{"type":"Polygon","coordinates":[[[-42.3262,-22.1014],[-42.3258,-22.1082],[-42.3263,-22.1015],[-42.3262,-22.1014]]]}},{"type":"Feature","properties":{"cod_tema":"AREA_INFRAESTRUTURA_PUBLICA","cod_imovel":"RJ-3301504-D3B3350D88FF4A3A89BF1B6D6FBE6560","num_area":"0.2931000000000000000000000000000","ind_status":"AT"},"geometry":{"type":"Polygon","coordinates":[[[-42.3153,-22.0262],[-42.3153,-22.0309],[-42.3153,-22.0262],[-42.3153,-22.0262]]]}},{"type":"Feature","properties":{"cod_tema":"AREA_SERVIDAO_ADMINISTRATIVA_TOTAL","cod_imovel":"RJ-3301504-D3B3350D88FF4A3A89BF1B6D6FBE6560","num_area":"0.2931000000000000000000000000000","ind_status":"AT"},"geometry":{"type":"Polygon","coordinates":[[[-42.3153,-22.0262],[-42.3153,-22.0309],[-42.3153,-22.0262],[-42.3153,-22.0262]]]}},{"type":"Feature","properties":{"cod_tema":"AREA_INFRAESTRUTURA_PUBLICA","cod_imovel":"RJ-3301504-F0BE7A3A0C204EF7B2108763ECBE1609","num_area":"0.5258000000000000000000000000000","ind_status":"AT"},"geometry":{"type":"Polygon","coordinates":[[[-42.3295,-22.0927],[-42.3332,-22.094],[-42.3295,-22.0927],[-42.3295,-22.0927]]]}},{"type":"Feature","properties":{"cod_tema":"AREA_SERVIDAO_ADMINISTRATIVA_TOTAL","cod_imovel":"RJ-3301504-F0BE7A3A0C204EF7B2108763ECBE1609","num_area":"0.5258000000000000000000000000000","ind_status":"AT"},"geometry":{"type":"Polygon","coordinates":[[[-42.3295,-22.0927],[-42.3332,-22.094],[-42.3295,-22.0927],[-42.3295,-22.0927]]]}},{"type":"Feature","properties":{"cod_tema":"AREA_INFRAESTRUTURA_PUBLICA","cod_imovel":"RJ-3301504-07CD2AE33C9A410AA0C727959FD9C171","num_area":"1.0150000000000000000000000000000","ind_status":"AT"},"geometry":{"type":"Polygon","coordinates":[[[-42.3027,-22.0519],[-42.3107,-22.0588],[-42.3028,-22.0519],[-42.3027,-22.0519]],[[-42.3101,-22.0657],[-42.3138,-22.0569],[-42.3106,-22.0663],[-42.3101,-22.0657]]]}},{"type":"Feature","properties":{"cod_tema":"AREA_SERVIDAO_ADMINISTRATIVA_TOTAL","cod_imovel":"RJ-3301504-07CD2AE33C9A410AA0C727959FD9C171","num_area":"1.0150000000000000000000000000000","ind_status":"AT"},"geometry":{"type":"Polygon","coordinates":[[[-42.3027,-22.0519],[-42.3107,-22.0588],[-42.3028,-22.0519],[-42.3027,-22.0519]],[[-42.3101,-22.0657],[-42.3138,-22.0569],[-42.3106,-22.0663],[-42.3101,-22.0657]]]}},{"type":"Feature","properties":{"cod_tema":"AREA_UTILIDADE_PUBLICA","cod_imovel":"RJ-3301504-14BAE513634A41E7B4E1CDE7CAB749CC","num_area":"0.6763000000000000000000000000000","ind_status":"AT"},"geometry":{"type":"Polygon","coordinates":[[[-42.3405,-22.1064],[-42.3397,-22.1133],[-42.3405,-22.1069],[-42.3405,-22.1064]],[[-42.3404,-22.1061],[-42.3451,-22.1087],[-42.3404,-22.1061],[-42.3404,-22.1061]]]}},{"type":"Feature","properties":{"cod_tema":"AREA_SERVIDAO_ADMINISTRATIVA_TOTAL","cod_imovel":"RJ-3301504-14BAE513634A41E7B4E1CDE7CAB749CC","num_area":"0.6763000000000000000000000000000","ind_status":"AT"},"geometry":{"type":"Polygon","coordinates":[[[-42.3405,-22.1064],[-42.3397,-22.1133],[-42.3405,-22.1069],[-42.3405,-22.1064]],[[-42.3404,-22.1061],[-42.3451,-22.1087],[-42.3404,-22.1061],[-42.3404,-22.1061]]]}},{"type":"Feature","properties":{"cod_tema":"AREA_UTILIDADE_PUBLICA","cod_imovel":"RJ-3301504-998CB7C941BB4D05A9775D8FD2D7A1E5","num_area":"0.4429000000000000000000000000000","ind_status":"AT"},"geometry":{"type":"Polygon","coordinates":[[[-42.3733,-22.0518],[-42.3708,-22.0418],[-42.3733,-22.0518],[-42.3733,-22.0518]]]}},{"type":"Feature","properties":{"cod_tema":"AREA_SERVIDAO_ADMINISTRATIVA_TOTAL","cod_imovel":"RJ-3301504-998CB7C941BB4D05A9775D8FD2D7A1E5","num_area":"0.4429000000000000000000000000000","ind_status":"AT"},"geometry":{"type":"Polygon","coordinates":[[[-42.3733,-22.0518],[-42.3708,-22.0418],[-42.3733,-22.0518],[-42.3733,-22.0518]]]}},{"type":"Feature","properties":{"cod_tema":"AREA_INFRAESTRUTURA_PUBLICA","cod_imovel":"RJ-3301504-92EC243620074BC3A51EAD6BB534F3B1","num_area":"0.2520000000000000000000000000000","ind_status":"AT"},"geometry":{"type":"Polygon","coordinates":[[[-42.2728,-22.0905],[-42.2772,-22.0918],[-42.2726,-22.0904],[-42.2728,-22.0905]]]}},{"type":"Feature","properties":{"cod_tema":"AREA_SERVIDAO_ADMINISTRATIVA_TOTAL","cod_imovel":"RJ-3301504-92EC243620074BC3A51EAD6BB534F3B1","num_area":"0.2520000000000000000000000000000","ind_status":"AT"},"geometry":{"type":"Polygon","coordinates":[[[-42.2728,-22.0905],[-42.2772,-22.0918],[-42.2726,-22.0904],[-42.2728,-22.0905]]]}},{"type":"Feature","properties":{"cod_tema":"AREA_UTILIDADE_PUBLICA","cod_imovel":"RJ-3301504-9C5B61E1DCBE40BFBD2756DC5D8347A6","num_area":"0.2619000000000000000000000000000","ind_status":"AT"},"geometry":{"type":"Polygon","coordinates":[[[-42.32,-22.0041],[-42.3181,-21.9994],[-42.3202,-22.0052],[-42.32,-22.0041]]]}},{"type":"Feature","properties":{"cod_tema":"AREA_SERVIDAO_ADMINISTRATIVA_TOTAL","cod_imovel":"RJ-3301504-9C5B61E1DCBE40BFBD2756DC5D8347A6","num_area":"0.2619000000000000000000000000000","ind_status":"AT"},"geometry":{"type":"Polygon","coordinates":[[[-42.32,-22.0041],[-42.3181,-21.9994],[-42.3202,-22.0052],[-42.32,-22.0041]]]}},{"type":"Feature","properties":{"cod_tema":"AREA_UTILIDADE_PUBLICA","cod_imovel":"RJ-3301504-701E9DDE1FB04F3A87E9B64222E49441","num_area":"0.2554000000000000000000000000000","ind_status":"AT"},"geometry":{"type":"Polygon","coordinates":[[[-42.3766,-22.0302],[-42.3714,-22.0272],[-42.3764,-22.0302],[-42.3766,-22.0302]]]}},{"type":"Feature","properties":{"cod_tema":"AREA_SERVIDAO_ADMINISTRATIVA_TOTAL","cod_imovel":"RJ-3301504-701E9DDE1FB04F3A87E9B64222E49441","num_area":"0.2554000000000000000000000000000","ind_status":"AT"},"geometry":{"type":"Polygon","coordinates":[[[-42.3766,-22.0302],[-42.3714,-22.0272],[-42.3764,-22.0302],[-42.3766,-22.0302]]]}},{"type":"Feature","properties":{"cod_tema":"AREA_INFRAESTRUTURA_PUBLICA","cod_imovel":"RJ-3301504-4DACB7895AD54EF688E67C3B8ACFD59D","num_area":"0.5622000000000000000000000000000","ind_status":"AT"},"geometry":{"type":"Polygon","coordinates":[[[-42.3079,-22.0753],[-42.3127,-22.0731],[-42.3087,-22.0751],[-42.3079,-22.0753]],[[-42.3108,-22.0765],[-42.3119,-22.0806],[-42.3109,-22.0765],[-42.3108,-22.0765]]]}},{"type":"Feature","properties":{"cod_tema":"AREA_SERVIDAO_ADMINISTRATIVA_TOTAL","cod_imovel":"RJ-3301504-4DACB7895AD54EF688E67C3B8ACFD59D","num_area":"0.5622000000000000000000000000000","ind_status":"AT"},"geometry":{"type":"Polygon","coordinates":[[[-42.3079,-22.0753],[-42.3127,-22.0731],[-42.3087,-22.0751],[-42.3079,-22.0753]],[[-42.3108,-22.0765],[-42.3119,-22.0806],[-42.3109,-22.0765],[-42.3108,-22.0765]]]}}]}