{"type":"FeatureCollection","features":[{"type":"Feature","properties":{"cod_tema":"AREA_UTILIDADE_PUBLICA","cod_imovel":"RJ-3301702-414F81544F62480A851C77DF4721CED7","num_area":"0.3271000000000000000000000000000","ind_status":"AT"},"geometry":{"type":"Polygon","coordinates":[[[-43.3681,-22.627],[-43.365,-22.627],[-43.3681,-22.627],[-43.3681,-22.627]]]}},{"type":"Feature","properties":{"cod_tema":"AREA_SERVIDAO_ADMINISTRATIVA_TOTAL","cod_imovel":"RJ-3301702-414F81544F62480A851C77DF4721CED7","num_area":"0.3271000000000000000000000000000","ind_status":"AT"},"geometry":{"type":"Polygon","coordinates":[[[-43.3681,-22.627],[-43.365,-22.627],[-43.3681,-22.627],[-43.3681,-22.627]]]}},{"type":"Feature","properties":{"cod_tema":"AREA_UTILIDADE_PUBLICA","cod_imovel":"RJ-3301702-7FFCABBC268B419690DF47786B5E251A","num_area":"1.1035000000000000000000000000000","ind_status":"AT"},"geometry":{"type":"Polygon","coordinates":[[[-43.4095,-22.6077],[-43.4041,-22.6083],[-43.4086,-22.6077],[-43.4095,-22.6077]]]}},{"type":"Feature","properties":{"cod_tema":"AREA_SERVIDAO_ADMINISTRATIVA_TOTAL","cod_imovel":"RJ-3301702-7FFCABBC268B419690DF47786B5E251A","num_area":"1.1035000000000000000000000000000","ind_status":"AT"},"geometry":{"type":"Polygon","coordinates":[[[-43.4095,-22.6077],[-43.4041,-22.6083],[-43.4086,-22.6077],[-43.4095,-22.6077]]]}},{"type":"Feature","properties":{"cod_tema":"AREA_UTILIDADE_PUBLICA","cod_imovel":"RJ-3301702-B179421D08B746BF9D0429826DCA4585","num_area":"9.8828000000000000000000000000000","ind_status":"AT"},"geometry":{"type":"Polygon","coordinates":[[[-43.3133,-22.6748],[-43.3157,-22.6836],[-43.3148,-22.6796],[-43.3133,-22.6748]],[[-43.3205,-22.6672],[-43.3184,-22.6759],[-43.3205,-22.6672],[-43.3205,-22.6672]]]}},{"type":"Feature","properties":{"cod_tema":"AREA_SERVIDAO_ADMINISTRATIVA_TOTAL","cod_imovel":"RJ-3301702-B179421D08B746BF9D0429826DCA4585","num_area":"9.8828000000000000000000000000000","ind_status":"AT"},"geometry":{"type":"Polygon","coordinates":[[[-43.3133,-22.6748],[-43.3157,-22.6836],[-43.3148,-22.6796],[-43.3133,-22.6748]],[[-43.3205,-22.6672],[-43.3184,-22.6759],[-43.3205,-22.6672],[-43.3205,-22.6672]]]}},{"type":"Feature","properties":{"cod_tema":"AREA_INFRAESTRUTURA_PUBLICA","cod_imovel":"RJ-3301702-448F74F0D8B14674BA2FC40FEB33F586","num_area":"1.3555000000000000000000000000000","ind_status":"AT"},"geometry":{"type":"Polygon","coordinates":[[[-43.3905,-22.6139],[-43.4008,-22.6061],[-43.391,-22.6136],[-43.3905,-22.6139]]]}},{"type":"Feature","properties":{"cod_tema":"AREA_SERVIDAO_ADMINISTRATIVA_TOTAL","cod_imovel":"RJ-3301702-448F74F0D8B14674BA2FC40FEB33F586","num_area":"1.3555000000000000000000000000000","ind_status":"AT"},"geometry":{"type":"Polygon","coordinates":[[[-43.3905,-22.6139],[-43.4008,-22.6061],[-43.391,-22.6136],[-43.3905,-22.6139]]]}},{"type":"Feature","properties":{"cod_tema":"AREA_INFRAESTRUTURA_PUBLICA","cod_imovel":"RJ-3301702-2B368583C3824015B93BAD28C5D492A3","num_area":"0.5262000000000000000000000000000","ind_status":"AT"},"geometry":{"type":"Polygon","coordinates":[[[-43.3817,-22.6248],[-43.3797,-22.6196],[-43.3816,-22.6245],[-43.3817,-22.6248]]]}},{"type":"Feature","properties":{"cod_tema":"AREA_SERVIDAO_ADMINISTRATIVA_TOTAL","cod_imovel":"RJ-3301702-2B368583C3824015B93BAD28C5D492A3","num_area":"0.5262000000000000000000000000000","ind_status":"AT"},"geometry":{"type":"Polygon","coordinates":[[[-43.3817,-22.6248],[-43.3797,-22.6196],[-43.3816,-22.6245],[-43.3817,-22.6248]]]}},{"type":"Feature","properties":{"cod_tema":"AREA_INFRAESTRUTURA_PUBLICA","cod_imovel":"RJ-3301702-EB98915D21CE41DD9ACB3874584DB6F1","num_area":"0.5390000000000000000000000000000","ind_status":"AT"},"geometry":{"type":"Polygon","coordinates":[[[-43.3793,-22.6021],[-43.3741,-22.6034],[-43.3793,-22.6021],[-43.3793,-22.6021]]]}},{"type":"Feature","properties":{"cod_tema":"AREA_SERVIDAO_ADMINISTRATIVA_TOTAL","cod_imovel":"RJ-3301702-EB98915D21CE41DD9ACB3874584DB6F1","num_area":"0.5390000000000000000000000000000","ind_status":"AT"},"geometry":{"type":"Polygon","coordinates":[[[-43.3793,-22.6021],[-43.3741,-22.6034],[-43.3793,-22.6021],[-43.3793,-22.6021]]]}},{"type":"Feature","properties":{"cod_tema":"AREA_INFRAESTRUTURA_PUBLICA","cod_imovel":"RJ-3301702-E23B6C8686E148B897C36F795B35739B","num_area":"3.8923000000000000000000000000000","ind_status":"AT"},"geometry":{"type":"Polygon","coordinates":[[[-43.2556,-22.6163],[-43.25,-22.6125],[-43.2538,-22.6151],[-43.2556,-22.6163]]]}},{"type":"Feature","properties":{"cod_tema":"AREA_SERVIDAO_ADMINISTRATIVA_TOTAL","cod_imovel":"RJ-3301702-E23B6C8686E148B897C36F795B35739B","num_area":"4.1738000000000000000000000000000","ind_status":"AT"},"geometry":{"type":"Polygon","coordinates":[[[-43.2556,-22.6163],[-43.25,-22.6125],[-43.2538,-22.6151],[-43.2556,-22.6163]]]}},{"type":"Feature","properties":{"cod_tema":"AREA_UTILIDADE_PUBLICA","cod_imovel":"RJ-3301702-BE40DF3D03DF47AD80E9403D667F81F6","num_area":"8.2230000000000000000000000000000","ind_status":"AT"},"geometry":{"type":"Polygon","coordinates":[[[-43.3752,-22.6669],[-43.3856,-22.6678],[-43.3774,-22.667],[-43.3752,-22.6669]]]}},{"type":"Feature","properties":{"cod_tema":"AREA_SERVIDAO_ADMINISTRATIVA_TOTAL","cod_imovel":"RJ-3301702-BE40DF3D03DF47AD80E9403D667F81F6","num_area":"8.2230000000000000000000000000000","ind_status":"AT"},"geometry":{"type":"Polygon","coordinates":[[[-43.3752,-22.6669],[-43.3856,-22.6678],[-43.3774,-22.667],[-43.3752,-22.6669]]]}},{"type":"Feature","properties":{"cod_tema":"AREA_UTILIDADE_PUBLICA","cod_imovel":"RJ-3301702-244CA5B1A3354C2297F7B0A2270932E9","num_area":"0.7568000000000000000000000000000","ind_status":"AT"},"geometry":{"type":"Polygon","coordinates":[[[-43.3698,-22.5988],[-43.3638,-22.5995],[-43.3696,-22.5988],[-43.3698,-22.5988]]]}},{"type":"Feature","properties":{"cod_tema":"AREA_SERVIDAO_ADMINISTRATIVA_TOTAL","cod_imovel":"RJ-3301702-244CA5B1A3354C2297F7B0A2270932E9","num_area":"0.7568000000000000000000000000000","ind_status":"AT"},"geometry":{"type":"Polygon","coordinates":[[[-43.3698,-22.5988],[-43.3638,-22.5995],[-43.3696,-22.5988],[-43.3698,-22.5988]]]}},{"type":"Feature","properties":{"cod_tema":"AREA_UTILIDADE_PUBLICA","cod_imovel":"RJ-3301702-34C141A5C812486187EA3BD9EEE6E6AD","num_area":"0.3966000000000000000000000000000","ind_status":"AT"},"geometry":{"type":"Polygon","coordinates":[[[-43.3518,-22.6094],[-43.3491,-22.6071],[-43.3518,-22.6094],[-43.3518,-22.6094]]]}},{"type":"Feature","properties":{"cod_tema":"AREA_SERVIDAO_ADMINISTRATIVA_TOTAL","cod_imovel":"RJ-3301702-34C141A5C812486187EA3BD9EEE6E6AD","num_area":"0.3966000000000000000000000000000","ind_status":"AT"},"geometry":{"type":"Polygon","coordinates":[[[-43.3518,-22.6094],[-43.3491,-22.6071],[-43.3518,-22.6094],[-43.3518,-22.6094]]]}}]}