{"type":"FeatureCollection","features":[{"type":"Feature","properties":{"cod_tema":"AREA_INFRAESTRUTURA_PUBLICA","cod_imovel":"RJ-3301900-2A27627FF78E49AB9E1CC580E37515EE","num_area":"0.3203000000000000000000000000000","ind_status":"AT"},"geometry":{"type":"Polygon","coordinates":[[[-42.7922,-22.7609],[-42.7942,-22.7642],[-42.7923,-22.761],[-42.7922,-22.7609]]]}},{"type":"Feature","properties":{"cod_tema":"AREA_SERVIDAO_ADMINISTRATIVA_TOTAL","cod_imovel":"RJ-3301900-2A27627FF78E49AB9E1CC580E37515EE","num_area":"0.3203000000000000000000000000000","ind_status":"AT"},"geometry":{"type":"Polygon","coordinates":[[[-42.7922,-22.7609],[-42.7942,-22.7642],[-42.7923,-22.761],[-42.7922,-22.7609]]]}},{"type":"Feature","properties":{"cod_tema":"AREA_INFRAESTRUTURA_PUBLICA","cod_imovel":"RJ-3301900-09DEFFA6D2F44C409BBE25A7656A23A4","num_area":"0.7723000000000000000000000000000","ind_status":"AT"},"geometry":{"type":"Polygon","coordinates":[[[-42.8715,-22.7071],[-42.8744,-22.7062],[-42.8714,-22.7077],[-42.8715,-22.7071]]]}},{"type":"Feature","properties":{"cod_tema":"AREA_SERVIDAO_ADMINISTRATIVA_TOTAL","cod_imovel":"RJ-3301900-09DEFFA6D2F44C409BBE25A7656A23A4","num_area":"0.7723000000000000000000000000000","ind_status":"AT"},"geometry":{"type":"Polygon","coordinates":[[[-42.8715,-22.7071],[-42.8744,-22.7062],[-42.8714,-22.7077],[-42.8715,-22.7071]]]}},{"type":"Feature","properties":{"cod_tema":"AREA_INFRAESTRUTURA_PUBLICA","cod_imovel":"RJ-3301900-182B26D2AEB9496C8FBC3BD1ABA0E5CC","num_area":"1.5834000000000000000000000000000","ind_status":"AT"},"geometry":{"type":"Polygon","coordinates":[[[-42.8372,-22.7795],[-42.8324,-22.7737],[-42.836,-22.7696],[-42.8301,-22.7748],[-42.8372,-22.7795],[-42.8372,-22.7795]]]}},{"type":"Feature","properties":{"cod_tema":"AREA_SERVIDAO_ADMINISTRATIVA_TOTAL","cod_imovel":"RJ-3301900-182B26D2AEB9496C8FBC3BD1ABA0E5CC","num_area":"1.5834000000000000000000000000000","ind_status":"AT"},"geometry":{"type":"Polygon","coordinates":[[[-42.8372,-22.7795],[-42.8324,-22.7737],[-42.836,-22.7696],[-42.8301,-22.7748],[-42.8372,-22.7795],[-42.8372,-22.7795]]]}},{"type":"Feature","properties":{"cod_tema":"AREA_INFRAESTRUTURA_PUBLICA","cod_imovel":"RJ-3301900-1E33D9AE8889488184CE8316754B9BAD","num_area":"1.5351000000000000000000000000000","ind_status":"AT"},"geometry":{"type":"Polygon","coordinates":[[[-42.8019,-22.7903],[-42.8035,-22.7934],[-42.8073,-22.7867],[-42.8021,-22.7904],[-42.8019,-22.7903]],[[-42.8038,-22.7961],[-42.8098,-22.8006],[-42.8045,-22.7965],[-42.8038,-22.7961]]]}},{"type":"Feature","properties":{"cod_tema":"AREA_SERVIDAO_ADMINISTRATIVA_TOTAL","cod_imovel":"RJ-3301900-1E33D9AE8889488184CE8316754B9BAD","num_area":"1.5351000000000000000000000000000","ind_status":"AT"},"geometry":{"type":"Polygon","coordinates":[[[-42.8019,-22.7903],[-42.8035,-22.7934],[-42.8073,-22.7867],[-42.8021,-22.7904],[-42.8019,-22.7903]],[[-42.8038,-22.7961],[-42.8098,-22.8006],[-42.8045,-22.7965],[-42.8038,-22.7961]]]}},{"type":"Feature","properties":{"cod_tema":"AREA_INFRAESTRUTURA_PUBLICA","cod_imovel":"RJ-3301900-25E945F418DC4725B03E6E9C65EBAAB9","num_area":"0.9792000000000000000000000000000","ind_status":"AT"},"geometry":{"type":"Polygon","coordinates":[[[-42.8073,-22.7242],[-42.8101,-22.7201],[-42.8073,-22.7242],[-42.8073,-22.7242]]]}},{"type":"Feature","properties":{"cod_tema":"AREA_UTILIDADE_PUBLICA","cod_imovel":"RJ-3301900-25E945F418DC4725B03E6E9C65EBAAB9","num_area":"2.1259000000000000000000000000000","ind_status":"AT"},"geometry":{"type":"Polygon","coordinates":[[[-42.8069,-22.7243],[-42.8091,-22.7204],[-42.8069,-22.7243],[-42.8069,-22.7243]]]}},{"type":"Feature","properties":{"cod_tema":"AREA_SERVIDAO_ADMINISTRATIVA_TOTAL","cod_imovel":"RJ-3301900-25E945F418DC4725B03E6E9C65EBAAB9","num_area":"0.9792000000000000000000000000000","ind_status":"AT"},"geometry":{"type":"Polygon","coordinates":[[[-42.8073,-22.7242],[-42.8101,-22.7201],[-42.8073,-22.7242],[-42.8073,-22.7242]]]}},{"type":"Feature","properties":{"cod_tema":"AREA_SERVIDAO_ADMINISTRATIVA_TOTAL","cod_imovel":"RJ-3301900-25E945F418DC4725B03E6E9C65EBAAB9","num_area":"2.1259000000000000000000000000000","ind_status":"AT"},"geometry":{"type":"Polygon","coordinates":[[[-42.8069,-22.7243],[-42.8091,-22.7204],[-42.8069,-22.7243],[-42.8069,-22.7243]]]}},{"type":"Feature","properties":{"cod_tema":"AREA_UTILIDADE_PUBLICA","cod_imovel":"RJ-3301900-31BD6B5DF61D4863A0E846A050EA78C2","num_area":"6.2798000000000000000000000000000","ind_status":"AT"},"geometry":{"type":"Polygon","coordinates":[[[-42.8033,-22.7366],[-42.8072,-22.7479],[-42.8033,-22.7366],[-42.8033,-22.7366]]]}},{"type":"Feature","properties":{"cod_tema":"AREA_SERVIDAO_ADMINISTRATIVA_TOTAL","cod_imovel":"RJ-3301900-31BD6B5DF61D4863A0E846A050EA78C2","num_area":"6.2798000000000000000000000000000","ind_status":"AT"},"geometry":{"type":"Polygon","coordinates":[[[-42.8033,-22.7366],[-42.8072,-22.7479],[-42.8033,-22.7366],[-42.8033,-22.7366]]]}},{"type":"Feature","properties":{"cod_tema":"AREA_UTILIDADE_PUBLICA","cod_imovel":"RJ-3301900-33E7B315B064463CAF2117E98256C242","num_area":"0.4915000000000000000000000000000","ind_status":"AT"},"geometry":{"type":"Polygon","coordinates":[[[-42.8757,-22.8256],[-42.8804,-22.8237],[-42.8762,-22.8251],[-42.8757,-22.8256]]]}},{"type":"Feature","properties":{"cod_tema":"AREA_SERVIDAO_ADMINISTRATIVA_TOTAL","cod_imovel":"RJ-3301900-33E7B315B064463CAF2117E98256C242","num_area":"0.4915000000000000000000000000000","ind_status":"AT"},"geometry":{"type":"Polygon","coordinates":[[[-42.8757,-22.8256],[-42.8804,-22.8237],[-42.8762,-22.8251],[-42.8757,-22.8256]]]}},{"type":"Feature","properties":{"cod_tema":"AREA_UTILIDADE_PUBLICA","cod_imovel":"RJ-3301900-5672B91FE66D4335972C878867101E5F","num_area":"0.4430000000000000000000000000000","ind_status":"AT"},"geometry":{"type":"Polygon","coordinates":[[[-42.8108,-22.8397],[-42.8055,-22.8392],[-42.8107,-22.8395],[-42.8108,-22.8397]]]}},{"type":"Feature","properties":{"cod_tema":"AREA_SERVIDAO_ADMINISTRATIVA_TOTAL","cod_imovel":"RJ-3301900-5672B91FE66D4335972C878867101E5F","num_area":"0.4430000000000000000000000000000","ind_status":"AT"},"geometry":{"type":"Polygon","coordinates":[[[-42.8108,-22.8397],[-42.8055,-22.8392],[-42.8107,-22.8395],[-42.8108,-22.8397]]]}},{"type":"Feature","properties":{"cod_tema":"AREA_INFRAESTRUTURA_PUBLICA","cod_imovel":"RJ-3301900-5941D8201F2D493F8D833B3C6AEA6B45","num_area":"0.3551000000000000000000000000000","ind_status":"AT"},"geometry":{"type":"Polygon","coordinates":[[[-42.9018,-22.7938],[-42.8989,-22.7925],[-42.9018,-22.7938],[-42.9018,-22.7938]]]}},{"type":"Feature","properties":{"cod_tema":"AREA_SERVIDAO_ADMINISTRATIVA_TOTAL","cod_imovel":"RJ-3301900-5941D8201F2D493F8D833B3C6AEA6B45","num_area":"0.3551000000000000000000000000000","ind_status":"AT"},"geometry":{"type":"Polygon","coordinates":[[[-42.9018,-22.7938],[-42.8989,-22.7925],[-42.9018,-22.7938],[-42.9018,-22.7938]]]}},{"type":"Feature","properties":{"cod_tema":"AREA_INFRAESTRUTURA_PUBLICA","cod_imovel":"RJ-3301900-6E599A6F2BBF40618A0568336E0E62A1","num_area":"0.1507000000000000000000000000000","ind_status":"AT"},"geometry":{"type":"Polygon","coordinates":[[[-42.7624,-22.8377],[-42.7591,-22.839],[-42.7627,-22.8377],[-42.7624,-22.8377]]]}},{"type":"Feature","properties":{"cod_tema":"AREA_SERVIDAO_ADMINISTRATIVA_TOTAL","cod_imovel":"RJ-3301900-6E599A6F2BBF40618A0568336E0E62A1","num_area":"0.1507000000000000000000000000000","ind_status":"AT"},"geometry":{"type":"Polygon","coordinates":[[[-42.7624,-22.8377],[-42.7591,-22.839],[-42.7627,-22.8377],[-42.7624,-22.8377]]]}},{"type":"Feature","properties":{"cod_tema":"AREA_INFRAESTRUTURA_PUBLICA","cod_imovel":"RJ-3301900-7D2F7FC565AE49CEBFB8C1F0E656FA09","num_area":"0.5465000000000000000000000000000","ind_status":"AT"},"geometry":{"type":"Polygon","coordinates":[[[-42.8287,-22.8469],[-42.8312,-22.8505],[-42.8287,-22.8471],[-42.8287,-22.8469]]]}},{"type":"Feature","properties":{"cod_tema":"AREA_UTILIDADE_PUBLICA","cod_imovel":"RJ-3301900-7D2F7FC565AE49CEBFB8C1F0E656FA09","num_area":"3.3946000000000000000000000000000","ind_status":"AT"},"geometry":{"type":"Polygon","coordinates":[[[-42.8231,-22.8496],[-42.8273,-22.8479],[-42.8244,-22.8494],[-42.8231,-22.8496]]]}},{"type":"Feature","properties":{"cod_tema":"AREA_SERVIDAO_ADMINISTRATIVA_TOTAL","cod_imovel":"RJ-3301900-7D2F7FC565AE49CEBFB8C1F0E656FA09","num_area":"3.9409000000000000000000000000000","ind_status":"AT"},"geometry":{"type":"Polygon","coordinates":[[[-42.8287,-22.8469],[-42.8312,-22.8505],[-42.8287,-22.8471],[-42.8287,-22.8469]],[[-42.8231,-22.8496],[-42.8273,-22.8479],[-42.8244,-22.8494],[-42.8231,-22.8496]]]}},{"type":"Feature","properties":{"cod_tema":"AREA_UTILIDADE_PUBLICA","cod_imovel":"RJ-3301900-8677916A936245CF927961A4FB1B2B3F","num_area":"1.3677000000000000000000000000000","ind_status":"AT"},"geometry":{"type":"Polygon","coordinates":[[[-42.7829,-22.6883],[-42.7854,-22.6905],[-42.7829,-22.6883],[-42.7829,-22.6883]]]}},{"type":"Feature","properties":{"cod_tema":"AREA_SERVIDAO_ADMINISTRATIVA_TOTAL","cod_imovel":"RJ-3301900-8677916A936245CF927961A4FB1B2B3F","num_area":"1.3677000000000000000000000000000","ind_status":"AT"},"geometry":{"type":"Polygon","coordinates":[[[-42.7829,-22.6883],[-42.7854,-22.6905],[-42.7829,-22.6883],[-42.7829,-22.6883]]]}},{"type":"Feature","properties":{"cod_tema":"AREA_INFRAESTRUTURA_PUBLICA","cod_imovel":"RJ-3301900-8C94DE7FE26142D7A85CB513F3E401B5","num_area":"2.9736000000000000000000000000000","ind_status":"AT"},"geometry":{"type":"Polygon","coordinates":[[[-42.8099,-22.7198],[-42.8127,-22.7177],[-42.8099,-22.7198],[-42.8099,-22.7198]]]}},{"type":"Feature","properties":{"cod_tema":"AREA_SERVIDAO_ADMINISTRATIVA_TOTAL","cod_imovel":"RJ-3301900-8C94DE7FE26142D7A85CB513F3E401B5","num_area":"2.9736000000000000000000000000000","ind_status":"AT"},"geometry":{"type":"Polygon","coordinates":[[[-42.8099,-22.7198],[-42.8127,-22.7177],[-42.8099,-22.7198],[-42.8099,-22.7198]]]}},{"type":"Feature","properties":{"cod_tema":"AREA_INFRAESTRUTURA_PUBLICA","cod_imovel":"RJ-3301900-8B670176477847089D842DCC690D2DFB","num_area":"1.2646000000000000000000000000000","ind_status":"AT"},"geometry":{"type":"Polygon","coordinates":[[[-42.8299,-22.8357],[-42.8266,-22.836],[-42.8274,-22.8442],[-42.8266,-22.836],[-42.8299,-22.8357],[-42.8299,-22.8357]]]}},{"type":"Feature","properties":{"cod_tema":"AREA_SERVIDAO_ADMINISTRATIVA_TOTAL","cod_imovel":"RJ-3301900-8B670176477847089D842DCC690D2DFB","num_area":"1.2646000000000000000000000000000","ind_status":"AT"},"geometry":{"type":"Polygon","coordinates":[[[-42.8299,-22.8357],[-42.8266,-22.836],[-42.8274,-22.8442],[-42.8266,-22.836],[-42.8299,-22.8357],[-42.8299,-22.8357]]]}},{"type":"Feature","properties":{"cod_tema":"AREA_INFRAESTRUTURA_PUBLICA","cod_imovel":"RJ-3301900-9E0B9CE1BDA8491E958C0CA9AF18E813","num_area":"0.6371000000000000000000000000000","ind_status":"AT"},"geometry":{"type":"Polygon","coordinates":[[[-42.7572,-22.8089],[-42.7538,-22.8082],[-42.7572,-22.8089],[-42.7572,-22.8089]]]}},{"type":"Feature","properties":{"cod_tema":"AREA_SERVIDAO_ADMINISTRATIVA_TOTAL","cod_imovel":"RJ-3301900-9E0B9CE1BDA8491E958C0CA9AF18E813","num_area":"0.6371000000000000000000000000000","ind_status":"AT"},"geometry":{"type":"Polygon","coordinates":[[[-42.7572,-22.8089],[-42.7538,-22.8082],[-42.7572,-22.8089],[-42.7572,-22.8089]]]}},{"type":"Feature","properties":{"cod_tema":"AREA_INFRAESTRUTURA_PUBLICA","cod_imovel":"RJ-3301900-A9E54E791B6B4E8481BCAE8D66E6567F","num_area":"0.1276000000000000000000000000000","ind_status":"AT"},"geometry":{"type":"Polygon","coordinates":[[[-42.7604,-22.8128],[-42.7577,-22.8099],[-42.7603,-22.8128],[-42.7604,-22.8128]]]}},{"type":"Feature","properties":{"cod_tema":"AREA_SERVIDAO_ADMINISTRATIVA_TOTAL","cod_imovel":"RJ-3301900-A9E54E791B6B4E8481BCAE8D66E6567F","num_area":"0.1276000000000000000000000000000","ind_status":"AT"},"geometry":{"type":"Polygon","coordinates":[[[-42.7604,-22.8128],[-42.7577,-22.8099],[-42.7603,-22.8128],[-42.7604,-22.8128]]]}},{"type":"Feature","properties":{"cod_tema":"AREA_INFRAESTRUTURA_PUBLICA","cod_imovel":"RJ-3301900-B6F5882790E04725A993883D3F2AC4A1","num_area":"2.1818000000000000000000000000000","ind_status":"AT"},"geometry":{"type":"Polygon","coordinates":[[[-42.8625,-22.8465],[-42.8729,-22.8666],[-42.8625,-22.8465],[-42.8625,-22.8465]]]}},{"type":"Feature","properties":{"cod_tema":"AREA_SERVIDAO_ADMINISTRATIVA_TOTAL","cod_imovel":"RJ-3301900-B6F5882790E04725A993883D3F2AC4A1","num_area":"2.1818000000000000000000000000000","ind_status":"AT"},"geometry":{"type":"Polygon","coordinates":[[[-42.8625,-22.8465],[-42.8729,-22.8666],[-42.8625,-22.8465],[-42.8625,-22.8465]]]}},{"type":"Feature","properties":{"cod_tema":"AREA_INFRAESTRUTURA_PUBLICA","cod_imovel":"RJ-3301900-BBFF89F74DCE440A9168B9E013F39C16","num_area":"0.8269000000000000000000000000000","ind_status":"AT"},"geometry":{"type":"Polygon","coordinates":[[[-42.9066,-22.7192],[-42.9115,-22.725],[-42.9067,-22.7194],[-42.9066,-22.7192]]]}},{"type":"Feature","properties":{"cod_tema":"AREA_SERVIDAO_ADMINISTRATIVA_TOTAL","cod_imovel":"RJ-3301900-BBFF89F74DCE440A9168B9E013F39C16","num_area":"0.8269000000000000000000000000000","ind_status":"AT"},"geometry":{"type":"Polygon","coordinates":[[[-42.9066,-22.7192],[-42.9115,-22.725],[-42.9067,-22.7194],[-42.9066,-22.7192]]]}},{"type":"Feature","properties":{"cod_tema":"AREA_INFRAESTRUTURA_PUBLICA","cod_imovel":"RJ-3301900-CCD8AB66B3B444268A2C44846B30485B","num_area":"0.2159000000000000000000000000000","ind_status":"AT"},"geometry":{"type":"Polygon","coordinates":[[[-42.7579,-22.8092],[-42.7662,-22.8064],[-42.7579,-22.8092],[-42.7579,-22.8092]]]}},{"type":"Feature","properties":{"cod_tema":"AREA_SERVIDAO_ADMINISTRATIVA_TOTAL","cod_imovel":"RJ-3301900-CCD8AB66B3B444268A2C44846B30485B","num_area":"0.2159000000000000000000000000000","ind_status":"AT"},"geometry":{"type":"Polygon","coordinates":[[[-42.7579,-22.8092],[-42.7662,-22.8064],[-42.7579,-22.8092],[-42.7579,-22.8092]]]}},{"type":"Feature","properties":{"cod_tema":"AREA_UTILIDADE_PUBLICA","cod_imovel":"RJ-3301900-DD64B2D3620F4780828558BCC2E033C3","num_area":"4.2792000000000000000000000000000","ind_status":"AT"},"geometry":{"type":"Polygon","coordinates":[[[-42.8278,-22.69],[-42.841,-22.6872],[-42.828,-22.69],[-42.8278,-22.69]]]}},{"type":"Feature","properties":{"cod_tema":"AREA_SERVIDAO_ADMINISTRATIVA_TOTAL","cod_imovel":"RJ-3301900-DD64B2D3620F4780828558BCC2E033C3","num_area":"4.2792000000000000000000000000000","ind_status":"AT"},"geometry":{"type":"Polygon","coordinates":[[[-42.8278,-22.69],[-42.841,-22.6872],[-42.828,-22.69],[-42.8278,-22.69]]]}},{"type":"Feature","properties":{"cod_tema":"AREA_INFRAESTRUTURA_PUBLICA","cod_imovel":"RJ-3301900-E5760A7449A04CCF9FE01D8B0EAB4F4D","num_area":"1.8615000000000000000000000000000","ind_status":"AT"},"geometry":{"type":"Polygon","coordinates":[[[-42.8287,-22.8431],[-42.8287,-22.8467],[-42.8288,-22.8432],[-42.8287,-22.8431]]]}},{"type":"Feature","properties":{"cod_tema":"AREA_SERVIDAO_ADMINISTRATIVA_TOTAL","cod_imovel":"RJ-3301900-E5760A7449A04CCF9FE01D8B0EAB4F4D","num_area":"1.8615000000000000000000000000000","ind_status":"AT"},"geometry":{"type":"Polygon","coordinates":[[[-42.8287,-22.8431],[-42.8287,-22.8467],[-42.8288,-22.8432],[-42.8287,-22.8431]]]}},{"type":"Feature","properties":{"cod_tema":"AREA_UTILIDADE_PUBLICA","cod_imovel":"RJ-3301900-DDA38537607F47BAA6E5E92AE0736965","num_area":"3.3166000000000000000000000000000","ind_status":"AT"},"geometry":{"type":"Polygon","coordinates":[[[-42.7576,-22.8216],[-42.7606,-22.8264],[-42.7576,-22.8216],[-42.7576,-22.8216]],[[-42.7523,-22.8446],[-42.7592,-22.8391],[-42.7523,-22.8445],[-42.7523,-22.8446]],[[-42.7484,-22.8224],[-42.7606,-22.8266],[-42.7485,-22.8225],[-42.7484,-22.8224]]]}},{"type":"Feature","properties":{"cod_tema":"AREA_SERVIDAO_ADMINISTRATIVA_TOTAL","cod_imovel":"RJ-3301900-DDA38537607F47BAA6E5E92AE0736965","num_area":"3.3166000000000000000000000000000","ind_status":"AT"},"geometry":{"type":"Polygon","coordinates":[[[-42.7576,-22.8216],[-42.7606,-22.8264],[-42.7576,-22.8216],[-42.7576,-22.8216]],[[-42.7523,-22.8446],[-42.7592,-22.8391],[-42.7523,-22.8445],[-42.7523,-22.8446]],[[-42.7484,-22.8224],[-42.7606,-22.8266],[-42.7485,-22.8225],[-42.7484,-22.8224]]]}},{"type":"Feature","properties":{"cod_tema":"AREA_INFRAESTRUTURA_PUBLICA","cod_imovel":"RJ-3301900-EDC9906FE6C748A6AB76B980601214BF","num_area":"0.8620000000000000000000000000000","ind_status":"AT"},"geometry":{"type":"Polygon","coordinates":[[[-42.8858,-22.7056],[-42.8843,-22.7019],[-42.891,-22.7054],[-42.8858,-22.7056]]]}},{"type":"Feature","properties":{"cod_tema":"AREA_SERVIDAO_ADMINISTRATIVA_TOTAL","cod_imovel":"RJ-3301900-EDC9906FE6C748A6AB76B980601214BF","num_area":"0.8620000000000000000000000000000","ind_status":"AT"},"geometry":{"type":"Polygon","coordinates":[[[-42.8858,-22.7056],[-42.8843,-22.7019],[-42.891,-22.7054],[-42.8858,-22.7056]]]}},{"type":"Feature","properties":{"cod_tema":"AREA_INFRAESTRUTURA_PUBLICA","cod_imovel":"RJ-3301900-5008538DF6074BFC914FD8E1C54F969E","num_area":"1.8807000000000000000000000000000","ind_status":"AT"},"geometry":{"type":"Polygon","coordinates":[[[-42.8403,-22.785],[-42.8514,-22.7891],[-42.8405,-22.785],[-42.8403,-22.785]]]}},{"type":"Feature","properties":{"cod_tema":"AREA_SERVIDAO_ADMINISTRATIVA_TOTAL","cod_imovel":"RJ-3301900-5008538DF6074BFC914FD8E1C54F969E","num_area":"1.8807000000000000000000000000000","ind_status":"AT"},"geometry":{"type":"Polygon","coordinates":[[[-42.8403,-22.785],[-42.8514,-22.7891],[-42.8405,-22.785],[-42.8403,-22.785]]]}},{"type":"Feature","properties":{"cod_tema":"AREA_UTILIDADE_PUBLICA","cod_imovel":"RJ-3301900-7795F2FAEBA04209AA56050E5707C126","num_area":"0.7995000000000000000000000000000","ind_status":"AT"},"geometry":{"type":"Polygon","coordinates":[[[-42.8771,-22.8118],[-42.8749,-22.8155],[-42.8772,-22.8121],[-42.8771,-22.8118]]]}},{"type":"Feature","properties":{"cod_tema":"AREA_SERVIDAO_ADMINISTRATIVA_TOTAL","cod_imovel":"RJ-3301900-7795F2FAEBA04209AA56050E5707C126","num_area":"0.7995000000000000000000000000000","ind_status":"AT"},"geometry":{"type":"Polygon","coordinates":[[[-42.8771,-22.8118],[-42.8749,-22.8155],[-42.8772,-22.8121],[-42.8771,-22.8118]]]}},{"type":"Feature","properties":{"cod_tema":"AREA_UTILIDADE_PUBLICA","cod_imovel":"RJ-3301900-FF66E91C05694A1EB7939A022078F70E","num_area":"4.3993000000000000000000000000000","ind_status":"AT"},"geometry":{"type":"Polygon","coordinates":[[[-42.807,-22.7017],[-42.809,-22.6921],[-42.807,-22.7007],[-42.807,-22.7017]]]}},{"type":"Feature","properties":{"cod_tema":"AREA_SERVIDAO_ADMINISTRATIVA_TOTAL","cod_imovel":"RJ-3301900-FF66E91C05694A1EB7939A022078F70E","num_area":"4.3993000000000000000000000000000","ind_status":"AT"},"geometry":{"type":"Polygon","coordinates":[[[-42.807,-22.7017],[-42.809,-22.6921],[-42.807,-22.7007],[-42.807,-22.7017]]]}},{"type":"Feature","properties":{"cod_tema":"AREA_INFRAESTRUTURA_PUBLICA","cod_imovel":"RJ-3301900-C5CE77D9E57B478EB4EC1F90BEF7DB32","num_area":"0.4899000000000000000000000000000","ind_status":"AT"},"geometry":{"type":"Polygon","coordinates":[[[-42.8005,-22.7982],[-42.7968,-22.8005],[-42.8006,-22.7983],[-42.8005,-22.7982]]]}},{"type":"Feature","properties":{"cod_tema":"AREA_SERVIDAO_ADMINISTRATIVA_TOTAL","cod_imovel":"RJ-3301900-C5CE77D9E57B478EB4EC1F90BEF7DB32","num_area":"0.4899000000000000000000000000000","ind_status":"AT"},"geometry":{"type":"Polygon","coordinates":[[[-42.8005,-22.7982],[-42.7968,-22.8005],[-42.8006,-22.7983],[-42.8005,-22.7982]]]}},{"type":"Feature","properties":{"cod_tema":"AREA_INFRAESTRUTURA_PUBLICA","cod_imovel":"RJ-3301900-459F634E91A0414E86732B575B014800","num_area":"7.5639000000000000000000000000000","ind_status":"AT"},"geometry":{"type":"Polygon","coordinates":[[[-42.8407,-22.6868],[-42.8217,-22.6813],[-42.8408,-22.6872],[-42.8407,-22.6868]]]}},{"type":"Feature","properties":{"cod_tema":"AREA_SERVIDAO_ADMINISTRATIVA_TOTAL","cod_imovel":"RJ-3301900-459F634E91A0414E86732B575B014800","num_area":"7.5639000000000000000000000000000","ind_status":"AT"},"geometry":{"type":"Polygon","coordinates":[[[-42.8407,-22.6868],[-42.8217,-22.6813],[-42.8408,-22.6872],[-42.8407,-22.6868]]]}},{"type":"Feature","properties":{"cod_tema":"AREA_INFRAESTRUTURA_PUBLICA","cod_imovel":"RJ-3301900-1B14E4764EF048FFB17521E6F1B9AEA0","num_area":"0.2548000000000000000000000000000","ind_status":"AT"},"geometry":{"type":"Polygon","coordinates":[[[-42.7818,-22.6472],[-42.7825,-22.6426],[-42.7818,-22.6471],[-42.7818,-22.6472]]]}},{"type":"Feature","properties":{"cod_tema":"AREA_SERVIDAO_ADMINISTRATIVA_TOTAL","cod_imovel":"RJ-3301900-1B14E4764EF048FFB17521E6F1B9AEA0","num_area":"0.2548000000000000000000000000000","ind_status":"AT"},"geometry":{"type":"Polygon","coordinates":[[[-42.7818,-22.6472],[-42.7825,-22.6426],[-42.7818,-22.6471],[-42.7818,-22.6472]]]}},{"type":"Feature","properties":{"cod_tema":"AREA_INFRAESTRUTURA_PUBLICA","cod_imovel":"RJ-3301900-CF8EA3F37BD9430B82CD24CE27850546","num_area":"0.5256000000000000000000000000000","ind_status":"AT"},"geometry":{"type":"Polygon","coordinates":[[[-42.7965,-22.6401],[-42.8011,-22.6399],[-42.7971,-22.6401],[-42.7965,-22.6401]]]}},{"type":"Feature","properties":{"cod_tema":"AREA_SERVIDAO_ADMINISTRATIVA_TOTAL","cod_imovel":"RJ-3301900-CF8EA3F37BD9430B82CD24CE27850546","num_area":"0.5256000000000000000000000000000","ind_status":"AT"},"geometry":{"type":"Polygon","coordinates":[[[-42.7965,-22.6401],[-42.8011,-22.6399],[-42.7971,-22.6401],[-42.7965,-22.6401]]]}},{"type":"Feature","properties":{"cod_tema":"AREA_INFRAESTRUTURA_PUBLICA","cod_imovel":"RJ-3301900-8A5A8490ED374898AC9A485BE32DA99D","num_area":"0.6714000000000000000000000000000","ind_status":"AT"},"geometry":{"type":"Polygon","coordinates":[[[-42.7931,-22.64],[-42.7964,-22.6402],[-42.7931,-22.64],[-42.7931,-22.64]]]}},{"type":"Feature","properties":{"cod_tema":"AREA_SERVIDAO_ADMINISTRATIVA_TOTAL","cod_imovel":"RJ-3301900-8A5A8490ED374898AC9A485BE32DA99D","num_area":"0.6714000000000000000000000000000","ind_status":"AT"},"geometry":{"type":"Polygon","coordinates":[[[-42.7931,-22.64],[-42.7964,-22.6402],[-42.7931,-22.64],[-42.7931,-22.64]]]}},{"type":"Feature","properties":{"cod_tema":"AREA_INFRAESTRUTURA_PUBLICA","cod_imovel":"RJ-3301900-AEC9381AFF3C4B50856618CCC85C1379","num_area":"0.4350000000000000000000000000000","ind_status":"AT"},"geometry":{"type":"Polygon","coordinates":[[[-42.9032,-22.7883],[-42.9069,-22.791],[-42.9033,-22.7883],[-42.9032,-22.7883]]]}},{"type":"Feature","properties":{"cod_tema":"AREA_SERVIDAO_ADMINISTRATIVA_TOTAL","cod_imovel":"RJ-3301900-AEC9381AFF3C4B50856618CCC85C1379","num_area":"0.4350000000000000000000000000000","ind_status":"AT"},"geometry":{"type":"Polygon","coordinates":[[[-42.9032,-22.7883],[-42.9069,-22.791],[-42.9033,-22.7883],[-42.9032,-22.7883]]]}},{"type":"Feature","properties":{"cod_tema":"AREA_INFRAESTRUTURA_PUBLICA","cod_imovel":"RJ-3301900-F30C66D5F51F4E40A5093369368CBF8C","num_area":"1.1565000000000000000000000000000","ind_status":"AT"},"geometry":{"type":"Polygon","coordinates":[[[-42.8048,-22.8094],[-42.808,-22.8075],[-42.8048,-22.8094],[-42.8048,-22.8094]]]}},{"type":"Feature","properties":{"cod_tema":"AREA_SERVIDAO_ADMINISTRATIVA_TOTAL","cod_imovel":"RJ-3301900-F30C66D5F51F4E40A5093369368CBF8C","num_area":"1.1565000000000000000000000000000","ind_status":"AT"},"geometry":{"type":"Polygon","coordinates":[[[-42.8048,-22.8094],[-42.808,-22.8075],[-42.8048,-22.8094],[-42.8048,-22.8094]]]}}]}