{"type":"FeatureCollection","features":[{"type":"Feature","properties":{"cod_tema":"AREA_UTILIDADE_PUBLICA","cod_imovel":"RJ-3302007-8447AB10B85B40848C66CF6810126B20","num_area":"8.2523000000000000000000000000000","ind_status":"AT"},"geometry":{"type":"Polygon","coordinates":[[[-43.7845,-22.7023],[-43.7868,-22.6985],[-43.7842,-22.702],[-43.7845,-22.7023]],[[-43.7949,-22.7234],[-43.7804,-22.7146],[-43.7806,-22.709],[-43.7783,-22.716],[-43.7668,-22.7109],[-43.7759,-22.7161],[-43.7839,-22.7144],[-43.7947,-22.7234],[-43.7949,-22.7234]]]}},{"type":"Feature","properties":{"cod_tema":"AREA_SERVIDAO_ADMINISTRATIVA_TOTAL","cod_imovel":"RJ-3302007-8447AB10B85B40848C66CF6810126B20","num_area":"8.2523000000000000000000000000000","ind_status":"AT"},"geometry":{"type":"Polygon","coordinates":[[[-43.7845,-22.7023],[-43.7868,-22.6985],[-43.7842,-22.702],[-43.7845,-22.7023]],[[-43.7949,-22.7234],[-43.7804,-22.7146],[-43.7806,-22.709],[-43.7783,-22.716],[-43.7668,-22.7109],[-43.7759,-22.7161],[-43.7839,-22.7144],[-43.7947,-22.7234],[-43.7949,-22.7234]]]}},{"type":"Feature","properties":{"cod_tema":"AREA_UTILIDADE_PUBLICA","cod_imovel":"RJ-3302007-E6CF279A135344608DEFDC194C177702","num_area":"0.3229000000000000000000000000000","ind_status":"AT"},"geometry":{"type":"Polygon","coordinates":[[[-43.8365,-22.8449],[-43.8402,-22.8458],[-43.8372,-22.8449],[-43.8365,-22.8449]]]}},{"type":"Feature","properties":{"cod_tema":"AREA_SERVIDAO_ADMINISTRATIVA_TOTAL","cod_imovel":"RJ-3302007-E6CF279A135344608DEFDC194C177702","num_area":"0.3229000000000000000000000000000","ind_status":"AT"},"geometry":{"type":"Polygon","coordinates":[[[-43.8365,-22.8449],[-43.8402,-22.8458],[-43.8372,-22.8449],[-43.8365,-22.8449]]]}},{"type":"Feature","properties":{"cod_tema":"AREA_INFRAESTRUTURA_PUBLICA","cod_imovel":"RJ-3302007-39E78A1C4DC3474BAE1A876AA77026F4","num_area":"6.9625000000000000000000000000000","ind_status":"AT"},"geometry":{"type":"Polygon","coordinates":[[[-43.8119,-22.8492],[-43.8115,-22.8596],[-43.8122,-22.8493],[-43.8119,-22.8492]]]}},{"type":"Feature","properties":{"cod_tema":"AREA_SERVIDAO_ADMINISTRATIVA_TOTAL","cod_imovel":"RJ-3302007-39E78A1C4DC3474BAE1A876AA77026F4","num_area":"6.9625000000000000000000000000000","ind_status":"AT"},"geometry":{"type":"Polygon","coordinates":[[[-43.8119,-22.8492],[-43.8115,-22.8596],[-43.8122,-22.8493],[-43.8119,-22.8492]]]}},{"type":"Feature","properties":{"cod_tema":"AREA_INFRAESTRUTURA_PUBLICA","cod_imovel":"RJ-3302007-FD3A0969FE9C4C269934F3616D48178F","num_area":"7.8691000000000000000000000000000","ind_status":"PE"},"geometry":{"type":"Polygon","coordinates":[[[-43.8971,-22.9078],[-43.8826,-22.9002],[-43.8965,-22.9076],[-43.8971,-22.9078]]]}},{"type":"Feature","properties":{"cod_tema":"AREA_UTILIDADE_PUBLICA","cod_imovel":"RJ-3302007-FD3A0969FE9C4C269934F3616D48178F","num_area":"16.370900000000000000000000000000","ind_status":"PE"},"geometry":{"type":"Polygon","coordinates":[[[-43.8942,-22.9147],[-43.8831,-22.9055],[-43.8939,-22.9145],[-43.8942,-22.9147]],[[-43.8965,-22.913],[-43.8832,-22.9041],[-43.8957,-22.9126],[-43.8965,-22.913]]]}},{"type":"Feature","properties":{"cod_tema":"AREA_SERVIDAO_ADMINISTRATIVA_TOTAL","cod_imovel":"RJ-3302007-FD3A0969FE9C4C269934F3616D48178F","num_area":"24.240000000000000000000000000000","ind_status":"PE"},"geometry":{"type":"Polygon","coordinates":[[[-43.8971,-22.9078],[-43.8826,-22.9002],[-43.8965,-22.9076],[-43.8971,-22.9078]],[[-43.8942,-22.9147],[-43.8831,-22.9055],[-43.8939,-22.9145],[-43.8942,-22.9147]],[[-43.8965,-22.913],[-43.8832,-22.9041],[-43.8957,-22.9126],[-43.8965,-22.913]]]}},{"type":"Feature","properties":{"cod_tema":"AREA_INFRAESTRUTURA_PUBLICA","cod_imovel":"RJ-3302007-AE0D3FD4C7874A2CBA747B7875E8C7CA","num_area":"16.003100000000000000000000000000","ind_status":"AT"},"geometry":{"type":"Polygon","coordinates":[[[-43.7595,-22.697],[-43.7533,-22.702],[-43.7645,-22.7003],[-43.7598,-22.6972],[-43.7595,-22.697]]]}},{"type":"Feature","properties":{"cod_tema":"AREA_SERVIDAO_ADMINISTRATIVA_TOTAL","cod_imovel":"RJ-3302007-AE0D3FD4C7874A2CBA747B7875E8C7CA","num_area":"16.003100000000000000000000000000","ind_status":"AT"},"geometry":{"type":"Polygon","coordinates":[[[-43.7595,-22.697],[-43.7533,-22.702],[-43.7645,-22.7003],[-43.7598,-22.6972],[-43.7595,-22.697]]]}},{"type":"Feature","properties":{"cod_tema":"AREA_UTILIDADE_PUBLICA","cod_imovel":"RJ-3302007-6B5D4218BFF249ADA8ADEE72D6D394EA","num_area":"0.6176000000000000000000000000000","ind_status":"SU"},"geometry":{"type":"Polygon","coordinates":[[[-43.798,-22.7321],[-43.7946,-22.7364],[-43.7996,-22.7399],[-43.7946,-22.7363],[-43.798,-22.7321],[-43.798,-22.7321]]]}},{"type":"Feature","properties":{"cod_tema":"AREA_SERVIDAO_ADMINISTRATIVA_TOTAL","cod_imovel":"RJ-3302007-6B5D4218BFF249ADA8ADEE72D6D394EA","num_area":"0.6176000000000000000000000000000","ind_status":"SU"},"geometry":{"type":"Polygon","coordinates":[[[-43.798,-22.7321],[-43.7946,-22.7364],[-43.7996,-22.7399],[-43.7946,-22.7363],[-43.798,-22.7321],[-43.798,-22.7321]]]}},{"type":"Feature","properties":{"cod_tema":"AREA_UTILIDADE_PUBLICA","cod_imovel":"RJ-3302007-334AA35E5031453689A6012D498CB242","num_area":"0.5267000000000000000000000000000","ind_status":"SU"},"geometry":{"type":"Polygon","coordinates":[[[-43.8165,-22.7479],[-43.8212,-22.7525],[-43.8167,-22.7481],[-43.8165,-22.7479]]]}},{"type":"Feature","properties":{"cod_tema":"AREA_SERVIDAO_ADMINISTRATIVA_TOTAL","cod_imovel":"RJ-3302007-334AA35E5031453689A6012D498CB242","num_area":"0.5267000000000000000000000000000","ind_status":"SU"},"geometry":{"type":"Polygon","coordinates":[[[-43.8165,-22.7479],[-43.8212,-22.7525],[-43.8167,-22.7481],[-43.8165,-22.7479]]]}},{"type":"Feature","properties":{"cod_tema":"AREA_UTILIDADE_PUBLICA","cod_imovel":"RJ-3302007-161D731A63F243938FCA8503113FD212","num_area":"1.1954000000000000000000000000000","ind_status":"AT"},"geometry":{"type":"Polygon","coordinates":[[[-43.8128,-22.8589],[-43.817,-22.8619],[-43.813,-22.8588],[-43.8128,-22.8589]]]}},{"type":"Feature","properties":{"cod_tema":"AREA_SERVIDAO_ADMINISTRATIVA_TOTAL","cod_imovel":"RJ-3302007-161D731A63F243938FCA8503113FD212","num_area":"1.1954000000000000000000000000000","ind_status":"AT"},"geometry":{"type":"Polygon","coordinates":[[[-43.8128,-22.8589],[-43.817,-22.8619],[-43.813,-22.8588],[-43.8128,-22.8589]]]}},{"type":"Feature","properties":{"cod_tema":"AREA_UTILIDADE_PUBLICA","cod_imovel":"RJ-3302007-C56C336145714B80BB953AF69A0BA044","num_area":"0.1073000000000000000000000000000","ind_status":"AT"},"geometry":{"type":"Polygon","coordinates":[[[-43.8125,-22.774],[-43.8159,-22.7748],[-43.8125,-22.774],[-43.8125,-22.774]]]}},{"type":"Feature","properties":{"cod_tema":"AREA_SERVIDAO_ADMINISTRATIVA_TOTAL","cod_imovel":"RJ-3302007-C56C336145714B80BB953AF69A0BA044","num_area":"0.1073000000000000000000000000000","ind_status":"AT"},"geometry":{"type":"Polygon","coordinates":[[[-43.8125,-22.774],[-43.8159,-22.7748],[-43.8125,-22.774],[-43.8125,-22.774]]]}},{"type":"Feature","properties":{"cod_tema":"AREA_INFRAESTRUTURA_PUBLICA","cod_imovel":"RJ-3302007-91593F51A4884D7DA2BADF0B7D0061B3","num_area":"1.2054000000000000000000000000000","ind_status":"AT"},"geometry":{"type":"Polygon","coordinates":[[[-43.8649,-22.8549],[-43.8712,-22.8583],[-43.8624,-22.8525],[-43.8649,-22.8548],[-43.8649,-22.8549]]]}},{"type":"Feature","properties":{"cod_tema":"AREA_SERVIDAO_ADMINISTRATIVA_TOTAL","cod_imovel":"RJ-3302007-91593F51A4884D7DA2BADF0B7D0061B3","num_area":"1.2054000000000000000000000000000","ind_status":"AT"},"geometry":{"type":"Polygon","coordinates":[[[-43.8649,-22.8549],[-43.8712,-22.8583],[-43.8624,-22.8525],[-43.8649,-22.8548],[-43.8649,-22.8549]]]}}]}