{"type":"FeatureCollection","features":[{"type":"Feature","properties":{"cod_tema":"AREA_UTILIDADE_PUBLICA","cod_imovel":"RJ-3302502-6F4484BAB63245CAB438CC613D308FCF","num_area":"0.2646000000000000000000000000000","ind_status":"AT"},"geometry":{"type":"Polygon","coordinates":[[[-43.0745,-22.6259],[-43.0741,-22.6211],[-43.0745,-22.6259],[-43.0745,-22.6259]]]}},{"type":"Feature","properties":{"cod_tema":"AREA_SERVIDAO_ADMINISTRATIVA_TOTAL","cod_imovel":"RJ-3302502-6F4484BAB63245CAB438CC613D308FCF","num_area":"0.2646000000000000000000000000000","ind_status":"AT"},"geometry":{"type":"Polygon","coordinates":[[[-43.0745,-22.6259],[-43.0741,-22.6211],[-43.0745,-22.6259],[-43.0745,-22.6259]]]}},{"type":"Feature","properties":{"cod_tema":"AREA_INFRAESTRUTURA_PUBLICA","cod_imovel":"RJ-3302502-B3377425D63F4EA49065EB18AAF51534","num_area":"0.6938000000000000000000000000000","ind_status":"AT"},"geometry":{"type":"Polygon","coordinates":[[[-43.1345,-22.587],[-43.1314,-22.5839],[-43.1345,-22.587],[-43.1345,-22.587]]]}},{"type":"Feature","properties":{"cod_tema":"AREA_SERVIDAO_ADMINISTRATIVA_TOTAL","cod_imovel":"RJ-3302502-B3377425D63F4EA49065EB18AAF51534","num_area":"0.6938000000000000000000000000000","ind_status":"AT"},"geometry":{"type":"Polygon","coordinates":[[[-43.1345,-22.587],[-43.1314,-22.5839],[-43.1345,-22.587],[-43.1345,-22.587]]]}},{"type":"Feature","properties":{"cod_tema":"AREA_INFRAESTRUTURA_PUBLICA","cod_imovel":"RJ-3302502-26B79114A9D741678C01C9A8F8C6CBCC","num_area":"0.2686000000000000000000000000000","ind_status":"PE"},"geometry":{"type":"Polygon","coordinates":[[[-43.1373,-22.6813],[-43.1344,-22.6845],[-43.1373,-22.6813],[-43.1373,-22.6813]]]}},{"type":"Feature","properties":{"cod_tema":"AREA_SERVIDAO_ADMINISTRATIVA_TOTAL","cod_imovel":"RJ-3302502-26B79114A9D741678C01C9A8F8C6CBCC","num_area":"0.2686000000000000000000000000000","ind_status":"PE"},"geometry":{"type":"Polygon","coordinates":[[[-43.1373,-22.6813],[-43.1344,-22.6845],[-43.1373,-22.6813],[-43.1373,-22.6813]]]}},{"type":"Feature","properties":{"cod_tema":"AREA_INFRAESTRUTURA_PUBLICA","cod_imovel":"RJ-3302502-193454CC1B5E423A8AEDE0C86A04301B","num_area":"0.9059000000000000000000000000000","ind_status":"AT"},"geometry":{"type":"Polygon","coordinates":[[[-43.1156,-22.6766],[-43.1159,-22.6805],[-43.1155,-22.6769],[-43.1156,-22.6766]]]}},{"type":"Feature","properties":{"cod_tema":"AREA_SERVIDAO_ADMINISTRATIVA_TOTAL","cod_imovel":"RJ-3302502-193454CC1B5E423A8AEDE0C86A04301B","num_area":"0.9059000000000000000000000000000","ind_status":"AT"},"geometry":{"type":"Polygon","coordinates":[[[-43.1156,-22.6766],[-43.1159,-22.6805],[-43.1155,-22.6769],[-43.1156,-22.6766]]]}},{"type":"Feature","properties":{"cod_tema":"AREA_INFRAESTRUTURA_PUBLICA","cod_imovel":"RJ-3302502-53DEEBF0E0594479B864CAF1D978C373","num_area":"0.1980000000000000000000000000000","ind_status":"AT"},"geometry":{"type":"Polygon","coordinates":[[[-43.1095,-22.6002],[-43.1116,-22.6026],[-43.1096,-22.6003],[-43.1095,-22.6002]]]}},{"type":"Feature","properties":{"cod_tema":"AREA_SERVIDAO_ADMINISTRATIVA_TOTAL","cod_imovel":"RJ-3302502-53DEEBF0E0594479B864CAF1D978C373","num_area":"0.1980000000000000000000000000000","ind_status":"AT"},"geometry":{"type":"Polygon","coordinates":[[[-43.1095,-22.6002],[-43.1116,-22.6026],[-43.1096,-22.6003],[-43.1095,-22.6002]]]}},{"type":"Feature","properties":{"cod_tema":"AREA_INFRAESTRUTURA_PUBLICA","cod_imovel":"RJ-3302502-81E17A9C043E4FF5B338C9A708707483","num_area":"49.999900000000000000000000000000","ind_status":"PE"},"geometry":{"type":"Polygon","coordinates":[[[-43.2147,-22.6694],[-43.2191,-22.6681],[-43.2181,-22.662],[-43.2126,-22.6627],[-43.2144,-22.6693],[-43.2147,-22.6694]]]}},{"type":"Feature","properties":{"cod_tema":"AREA_SERVIDAO_ADMINISTRATIVA_TOTAL","cod_imovel":"RJ-3302502-81E17A9C043E4FF5B338C9A708707483","num_area":"49.999900000000000000000000000000","ind_status":"PE"},"geometry":{"type":"Polygon","coordinates":[[[-43.2147,-22.6694],[-43.2191,-22.6681],[-43.2181,-22.662],[-43.2126,-22.6627],[-43.2144,-22.6693],[-43.2147,-22.6694]]]}},{"type":"Feature","properties":{"cod_tema":"AREA_UTILIDADE_PUBLICA","cod_imovel":"RJ-3302502-8DA8DE3A0D784A9786C391985C7969B9","num_area":"1.1495000000000000000000000000000","ind_status":"AT"},"geometry":{"type":"Polygon","coordinates":[[[-43.2045,-22.6592],[-43.194,-22.6683],[-43.2045,-22.6592],[-43.2045,-22.6592]]]}},{"type":"Feature","properties":{"cod_tema":"AREA_SERVIDAO_ADMINISTRATIVA_TOTAL","cod_imovel":"RJ-3302502-8DA8DE3A0D784A9786C391985C7969B9","num_area":"1.1495000000000000000000000000000","ind_status":"AT"},"geometry":{"type":"Polygon","coordinates":[[[-43.2045,-22.6592],[-43.194,-22.6683],[-43.2045,-22.6592],[-43.2045,-22.6592]]]}},{"type":"Feature","properties":{"cod_tema":"AREA_UTILIDADE_PUBLICA","cod_imovel":"RJ-3302502-FEFE975BB8804F2D992E73AAAF917727","num_area":"0.6717000000000000000000000000000","ind_status":"AT"},"geometry":{"type":"Polygon","coordinates":[[[-43.1972,-22.6589],[-43.2011,-22.6566],[-43.1972,-22.6589],[-43.1972,-22.6589]]]}},{"type":"Feature","properties":{"cod_tema":"AREA_SERVIDAO_ADMINISTRATIVA_TOTAL","cod_imovel":"RJ-3302502-FEFE975BB8804F2D992E73AAAF917727","num_area":"0.6717000000000000000000000000000","ind_status":"AT"},"geometry":{"type":"Polygon","coordinates":[[[-43.1972,-22.6589],[-43.2011,-22.6566],[-43.1972,-22.6589],[-43.1972,-22.6589]]]}},{"type":"Feature","properties":{"cod_tema":"AREA_INFRAESTRUTURA_PUBLICA","cod_imovel":"RJ-3302502-20F67668CCA24E43A61C47E454C36944","num_area":"3.1203000000000000000000000000000","ind_status":"AT"},"geometry":{"type":"Polygon","coordinates":[[[-43.0752,-22.6332],[-43.0715,-22.6316],[-43.0735,-22.6275],[-43.0698,-22.6322],[-43.0751,-22.6332],[-43.0752,-22.6332]],[[-43.0805,-22.6292],[-43.075,-22.6343],[-43.0793,-22.63],[-43.0805,-22.6292]],[[-43.1133,-22.6394],[-43.097,-22.6408],[-43.1135,-22.6393],[-43.1133,-22.6394]]]}},{"type":"Feature","properties":{"cod_tema":"AREA_SERVIDAO_ADMINISTRATIVA_TOTAL","cod_imovel":"RJ-3302502-20F67668CCA24E43A61C47E454C36944","num_area":"3.1203000000000000000000000000000","ind_status":"AT"},"geometry":{"type":"Polygon","coordinates":[[[-43.0752,-22.6332],[-43.0715,-22.6316],[-43.0735,-22.6275],[-43.0698,-22.6322],[-43.0751,-22.6332],[-43.0752,-22.6332]],[[-43.0805,-22.6292],[-43.075,-22.6343],[-43.0793,-22.63],[-43.0805,-22.6292]],[[-43.1133,-22.6394],[-43.097,-22.6408],[-43.1135,-22.6393],[-43.1133,-22.6394]]]}},{"type":"Feature","properties":{"cod_tema":"AREA_UTILIDADE_PUBLICA","cod_imovel":"RJ-3302502-E5DF76E456E544A78142D641CC3AF337","num_area":"2.3679000000000000000000000000000","ind_status":"AT"},"geometry":{"type":"Polygon","coordinates":[[[-43.0792,-22.6607],[-43.0734,-22.6587],[-43.0792,-22.6608],[-43.0792,-22.6607]]]}},{"type":"Feature","properties":{"cod_tema":"AREA_SERVIDAO_ADMINISTRATIVA_TOTAL","cod_imovel":"RJ-3302502-E5DF76E456E544A78142D641CC3AF337","num_area":"2.3679000000000000000000000000000","ind_status":"AT"},"geometry":{"type":"Polygon","coordinates":[[[-43.0792,-22.6607],[-43.0734,-22.6587],[-43.0792,-22.6608],[-43.0792,-22.6607]]]}},{"type":"Feature","properties":{"cod_tema":"AREA_INFRAESTRUTURA_PUBLICA","cod_imovel":"RJ-3302502-EF626A5C8D1241BC905AC42BB8C0C30F","num_area":"0.4247000000000000000000000000000","ind_status":"AT"},"geometry":{"type":"Polygon","coordinates":[[[-43.0471,-22.6205],[-43.0439,-22.6211],[-43.0469,-22.6206],[-43.0471,-22.6205]]]}},{"type":"Feature","properties":{"cod_tema":"AREA_SERVIDAO_ADMINISTRATIVA_TOTAL","cod_imovel":"RJ-3302502-EF626A5C8D1241BC905AC42BB8C0C30F","num_area":"0.4247000000000000000000000000000","ind_status":"AT"},"geometry":{"type":"Polygon","coordinates":[[[-43.0471,-22.6205],[-43.0439,-22.6211],[-43.0469,-22.6206],[-43.0471,-22.6205]]]}},{"type":"Feature","properties":{"cod_tema":"AREA_UTILIDADE_PUBLICA","cod_imovel":"RJ-3302502-3B14118F7B2641F6A6CF7521F0BF9AB6","num_area":"4.0022000000000000000000000000000","ind_status":"AT"},"geometry":{"type":"Polygon","coordinates":[[[-43.0579,-22.5918],[-43.0639,-22.5907],[-43.058,-22.5918],[-43.0579,-22.5918]]]}},{"type":"Feature","properties":{"cod_tema":"AREA_SERVIDAO_ADMINISTRATIVA_TOTAL","cod_imovel":"RJ-3302502-3B14118F7B2641F6A6CF7521F0BF9AB6","num_area":"4.0022000000000000000000000000000","ind_status":"AT"},"geometry":{"type":"Polygon","coordinates":[[[-43.0579,-22.5918],[-43.0639,-22.5907],[-43.058,-22.5918],[-43.0579,-22.5918]]]}},{"type":"Feature","properties":{"cod_tema":"AREA_INFRAESTRUTURA_PUBLICA","cod_imovel":"RJ-3302502-B9AE642FA3D8419CAC5EF99521779647","num_area":"0.1357000000000000000000000000000","ind_status":"AT"},"geometry":{"type":"Polygon","coordinates":[[[-43.0737,-22.5939],[-43.0704,-22.5939],[-43.0736,-22.594],[-43.0737,-22.5939]]]}},{"type":"Feature","properties":{"cod_tema":"AREA_SERVIDAO_ADMINISTRATIVA_TOTAL","cod_imovel":"RJ-3302502-B9AE642FA3D8419CAC5EF99521779647","num_area":"0.1357000000000000000000000000000","ind_status":"AT"},"geometry":{"type":"Polygon","coordinates":[[[-43.0737,-22.5939],[-43.0704,-22.5939],[-43.0736,-22.594],[-43.0737,-22.5939]]]}},{"type":"Feature","properties":{"cod_tema":"AREA_INFRAESTRUTURA_PUBLICA","cod_imovel":"RJ-3302502-ADE9BDA6377C400B9D3BD96F8D1B5495","num_area":"0.2681000000000000000000000000000","ind_status":"AT"},"geometry":{"type":"Polygon","coordinates":[[[-43.0359,-22.5711],[-43.035,-22.5641],[-43.0359,-22.5711],[-43.0359,-22.5711]]]}},{"type":"Feature","properties":{"cod_tema":"AREA_SERVIDAO_ADMINISTRATIVA_TOTAL","cod_imovel":"RJ-3302502-ADE9BDA6377C400B9D3BD96F8D1B5495","num_area":"0.2681000000000000000000000000000","ind_status":"AT"},"geometry":{"type":"Polygon","coordinates":[[[-43.0359,-22.5711],[-43.035,-22.5641],[-43.0359,-22.5711],[-43.0359,-22.5711]]]}},{"type":"Feature","properties":{"cod_tema":"AREA_INFRAESTRUTURA_PUBLICA","cod_imovel":"RJ-3302502-5520721E4DF240BCAC0893AE48E2E0D4","num_area":"0.8345000000000000000000000000000","ind_status":"AT"},"geometry":{"type":"Polygon","coordinates":[[[-43.0454,-22.582],[-43.0419,-22.58],[-43.0423,-22.5841],[-43.0453,-22.582],[-43.0454,-22.582]]]}},{"type":"Feature","properties":{"cod_tema":"AREA_SERVIDAO_ADMINISTRATIVA_TOTAL","cod_imovel":"RJ-3302502-5520721E4DF240BCAC0893AE48E2E0D4","num_area":"0.8358000000000000000000000000000","ind_status":"AT"},"geometry":{"type":"Polygon","coordinates":[[[-43.0441,-22.5816],[-43.0423,-22.5841],[-43.0442,-22.5816],[-43.0441,-22.5816]]]}},{"type":"Feature","properties":{"cod_tema":"AREA_UTILIDADE_PUBLICA","cod_imovel":"RJ-3302502-5307D9881D4E47E59F85834FD602570B","num_area":"0.1314000000000000000000000000000","ind_status":"AT"},"geometry":{"type":"Polygon","coordinates":[[[-43.0741,-22.6211],[-43.0735,-22.6175],[-43.0741,-22.621],[-43.0741,-22.6211]]]}},{"type":"Feature","properties":{"cod_tema":"AREA_SERVIDAO_ADMINISTRATIVA_TOTAL","cod_imovel":"RJ-3302502-5307D9881D4E47E59F85834FD602570B","num_area":"0.1314000000000000000000000000000","ind_status":"AT"},"geometry":{"type":"Polygon","coordinates":[[[-43.0741,-22.6211],[-43.0735,-22.6175],[-43.0741,-22.621],[-43.0741,-22.6211]]]}}]}