{"type":"FeatureCollection","features":[{"type":"Feature","properties":{"cod_tema":"AREA_INFRAESTRUTURA_PUBLICA","cod_imovel":"RJ-3302601-771C64FCD7B7445792BE2BC352C5DE43","num_area":"4.6352000000000000000000000000000","ind_status":"AT"},"geometry":{"type":"Polygon","coordinates":[[[-44.1497,-22.9567],[-44.1575,-22.9594],[-44.1515,-22.9572],[-44.1497,-22.9567]]]}},{"type":"Feature","properties":{"cod_tema":"AREA_UTILIDADE_PUBLICA","cod_imovel":"RJ-3302601-771C64FCD7B7445792BE2BC352C5DE43","num_area":"1.3685000000000000000000000000000","ind_status":"AT"},"geometry":{"type":"Polygon","coordinates":[[[-44.1518,-22.9561],[-44.1423,-22.9562],[-44.1636,-22.9627],[-44.1518,-22.9561],[-44.1518,-22.9561]]]}},{"type":"Feature","properties":{"cod_tema":"AREA_SERVIDAO_ADMINISTRATIVA_TOTAL","cod_imovel":"RJ-3302601-771C64FCD7B7445792BE2BC352C5DE43","num_area":"5.9062000000000000000000000000000","ind_status":"AT"},"geometry":{"type":"Polygon","coordinates":[[[-44.1496,-22.9572],[-44.1636,-22.9627],[-44.1423,-22.9562],[-44.1496,-22.9574],[-44.1496,-22.9572]],[[-44.1553,-22.9583],[-44.1498,-22.9567],[-44.1551,-22.9581],[-44.1553,-22.9583]]]}},{"type":"Feature","properties":{"cod_tema":"AREA_UTILIDADE_PUBLICA","cod_imovel":"RJ-3302601-20D5FD1B041D4B1496DB87C995D2D083","num_area":"1.3228000000000000000000000000000","ind_status":"AT"},"geometry":{"type":"Polygon","coordinates":[[[-44.0903,-22.9554],[-44.104,-22.9528],[-44.0904,-22.9555],[-44.0903,-22.9554]]]}},{"type":"Feature","properties":{"cod_tema":"AREA_SERVIDAO_ADMINISTRATIVA_TOTAL","cod_imovel":"RJ-3302601-20D5FD1B041D4B1496DB87C995D2D083","num_area":"1.3228000000000000000000000000000","ind_status":"AT"},"geometry":{"type":"Polygon","coordinates":[[[-44.0903,-22.9554],[-44.104,-22.9528],[-44.0904,-22.9555],[-44.0903,-22.9554]]]}},{"type":"Feature","properties":{"cod_tema":"AREA_INFRAESTRUTURA_PUBLICA","cod_imovel":"RJ-3302601-0248AEC89A3649F49CDF24C98524C4F6","num_area":"3.5861000000000000000000000000000","ind_status":"AT"},"geometry":{"type":"Polygon","coordinates":[[[-43.9943,-22.9323],[-43.99,-22.9318],[-43.9942,-22.9326],[-43.9943,-22.9323]],[[-43.9907,-22.9338],[-43.9941,-22.9333],[-43.9911,-22.9337],[-43.9907,-22.9338]]]}},{"type":"Feature","properties":{"cod_tema":"AREA_SERVIDAO_ADMINISTRATIVA_TOTAL","cod_imovel":"RJ-3302601-0248AEC89A3649F49CDF24C98524C4F6","num_area":"3.5861000000000000000000000000000","ind_status":"AT"},"geometry":{"type":"Polygon","coordinates":[[[-43.9943,-22.9323],[-43.99,-22.9318],[-43.9942,-22.9326],[-43.9943,-22.9323]],[[-43.9907,-22.9338],[-43.9941,-22.9333],[-43.9911,-22.9337],[-43.9907,-22.9338]]]}},{"type":"Feature","properties":{"cod_tema":"AREA_INFRAESTRUTURA_PUBLICA","cod_imovel":"RJ-3302601-1FDC4ECFBF9F4393AFEAA42238302C4F","num_area":"2.1645000000000000000000000000000","ind_status":"AT"},"geometry":{"type":"Polygon","coordinates":[[[-44.0329,-22.9346],[-44.026,-22.9341],[-44.0325,-22.9338],[-44.0329,-22.9346]],[[-44.0356,-22.9329],[-44.0326,-22.93],[-44.0354,-22.933],[-44.0356,-22.9329]]]}},{"type":"Feature","properties":{"cod_tema":"AREA_SERVIDAO_ADMINISTRATIVA_TOTAL","cod_imovel":"RJ-3302601-1FDC4ECFBF9F4393AFEAA42238302C4F","num_area":"2.1645000000000000000000000000000","ind_status":"AT"},"geometry":{"type":"Polygon","coordinates":[[[-44.0329,-22.9346],[-44.026,-22.9341],[-44.0325,-22.9338],[-44.0329,-22.9346]],[[-44.0356,-22.9329],[-44.0326,-22.93],[-44.0354,-22.933],[-44.0356,-22.9329]]]}},{"type":"Feature","properties":{"cod_tema":"AREA_UTILIDADE_PUBLICA","cod_imovel":"RJ-3302601-612B552A4D094C299814748DA4EF5DF5","num_area":"2.0944000000000000000000000000000","ind_status":"AT"},"geometry":{"type":"Polygon","coordinates":[[[-43.9897,-22.9333],[-43.9856,-22.933],[-43.989,-22.9333],[-43.9897,-22.9333]],[[-43.9899,-22.9318],[-43.9856,-22.9311],[-43.9894,-22.9317],[-43.9899,-22.9318]]]}},{"type":"Feature","properties":{"cod_tema":"AREA_SERVIDAO_ADMINISTRATIVA_TOTAL","cod_imovel":"RJ-3302601-612B552A4D094C299814748DA4EF5DF5","num_area":"2.0944000000000000000000000000000","ind_status":"AT"},"geometry":{"type":"Polygon","coordinates":[[[-43.9897,-22.9333],[-43.9856,-22.933],[-43.989,-22.9333],[-43.9897,-22.9333]],[[-43.9899,-22.9318],[-43.9856,-22.9311],[-43.9894,-22.9317],[-43.9899,-22.9318]]]}},{"type":"Feature","properties":{"cod_tema":"AREA_UTILIDADE_PUBLICA","cod_imovel":"RJ-3302601-7357856ED2C143949A28B221B50EF5AD","num_area":"0.3789000000000000000000000000000","ind_status":"AT"},"geometry":{"type":"Polygon","coordinates":[[[-43.9316,-22.9132],[-43.9352,-22.9139],[-43.9316,-22.9132],[-43.9316,-22.9132]]]}},{"type":"Feature","properties":{"cod_tema":"AREA_SERVIDAO_ADMINISTRATIVA_TOTAL","cod_imovel":"RJ-3302601-7357856ED2C143949A28B221B50EF5AD","num_area":"0.3789000000000000000000000000000","ind_status":"AT"},"geometry":{"type":"Polygon","coordinates":[[[-43.9316,-22.9132],[-43.9352,-22.9139],[-43.9316,-22.9132],[-43.9316,-22.9132]]]}},{"type":"Feature","properties":{"cod_tema":"AREA_UTILIDADE_PUBLICA","cod_imovel":"RJ-3302601-DF7D12DA35A042CF97D37871F43AF47D","num_area":"0.2053000000000000000000000000000","ind_status":"AT"},"geometry":{"type":"Polygon","coordinates":[[[-44.1047,-22.9535],[-44.1043,-22.959],[-44.1048,-22.9527],[-44.1047,-22.9535]]]}},{"type":"Feature","properties":{"cod_tema":"AREA_SERVIDAO_ADMINISTRATIVA_TOTAL","cod_imovel":"RJ-3302601-DF7D12DA35A042CF97D37871F43AF47D","num_area":"0.2053000000000000000000000000000","ind_status":"AT"},"geometry":{"type":"Polygon","coordinates":[[[-44.1047,-22.9535],[-44.1043,-22.959],[-44.1048,-22.9527],[-44.1047,-22.9535]]]}},{"type":"Feature","properties":{"cod_tema":"AREA_INFRAESTRUTURA_PUBLICA","cod_imovel":"RJ-3302601-FFD0A6A84B8B4F9EB87ABE40B7A40895","num_area":"1.4715000000000000000000000000000","ind_status":"AT"},"geometry":{"type":"Polygon","coordinates":[[[-44.0046,-22.9317],[-44.0108,-22.9313],[-44.0052,-22.9318],[-44.0046,-22.9317]]]}},{"type":"Feature","properties":{"cod_tema":"AREA_UTILIDADE_PUBLICA","cod_imovel":"RJ-3302601-FFD0A6A84B8B4F9EB87ABE40B7A40895","num_area":"0.9985000000000000000000000000000","ind_status":"AT"},"geometry":{"type":"Polygon","coordinates":[[[-44.0049,-22.9342],[-44.0106,-22.9332],[-44.0069,-22.9339],[-44.0049,-22.9342]],[[-44.0061,-22.9353],[-44.0105,-22.9334],[-44.007,-22.9341],[-44.0061,-22.9353]]]}},{"type":"Feature","properties":{"cod_tema":"AREA_SERVIDAO_ADMINISTRATIVA_TOTAL","cod_imovel":"RJ-3302601-FFD0A6A84B8B4F9EB87ABE40B7A40895","num_area":"2.4315000000000000000000000000000","ind_status":"AT"},"geometry":{"type":"Polygon","coordinates":[[[-44.0049,-22.9342],[-44.0106,-22.9332],[-44.0069,-22.9339],[-44.0049,-22.9342]],[[-44.0061,-22.9353],[-44.0105,-22.9334],[-44.0061,-22.9352],[-44.0061,-22.9353]],[[-44.0046,-22.9317],[-44.0108,-22.9313],[-44.0052,-22.9318],[-44.0046,-22.9317]]]}},{"type":"Feature","properties":{"cod_tema":"AREA_UTILIDADE_PUBLICA","cod_imovel":"RJ-3302601-47FBF15D151244DDBC44DD78EB680D0D","num_area":"1.0898000000000000000000000000000","ind_status":"AT"},"geometry":{"type":"Polygon","coordinates":[[[-43.9619,-22.914],[-43.9657,-22.9117],[-43.9636,-22.9066],[-43.9656,-22.9116],[-43.9616,-22.914],[-43.9619,-22.914]]]}},{"type":"Feature","properties":{"cod_tema":"AREA_SERVIDAO_ADMINISTRATIVA_TOTAL","cod_imovel":"RJ-3302601-47FBF15D151244DDBC44DD78EB680D0D","num_area":"1.0898000000000000000000000000000","ind_status":"AT"},"geometry":{"type":"Polygon","coordinates":[[[-43.9619,-22.914],[-43.9657,-22.9117],[-43.9636,-22.9066],[-43.9656,-22.9116],[-43.9616,-22.914],[-43.9619,-22.914]]]}},{"type":"Feature","properties":{"cod_tema":"AREA_INFRAESTRUTURA_PUBLICA","cod_imovel":"RJ-3302601-68EE503655FA4E44A4FE097D43767450","num_area":"2.1565000000000000000000000000000","ind_status":"AT"},"geometry":{"type":"Polygon","coordinates":[[[-44.117,-23.0233],[-44.1211,-23.0247],[-44.1177,-23.0238],[-44.117,-23.0233]]]}},{"type":"Feature","properties":{"cod_tema":"AREA_SERVIDAO_ADMINISTRATIVA_TOTAL","cod_imovel":"RJ-3302601-68EE503655FA4E44A4FE097D43767450","num_area":"2.1565000000000000000000000000000","ind_status":"AT"},"geometry":{"type":"Polygon","coordinates":[[[-44.117,-23.0233],[-44.1211,-23.0247],[-44.1177,-23.0238],[-44.117,-23.0233]]]}},{"type":"Feature","properties":{"cod_tema":"AREA_INFRAESTRUTURA_PUBLICA","cod_imovel":"RJ-3302601-4CD1AB5244F043048E8A9E9F75D2D84E","num_area":"28.470900000000000000000000000000","ind_status":"PE"},"geometry":{"type":"Polygon","coordinates":[[[-43.9719,-22.9318],[-43.9767,-22.931],[-43.9678,-22.9273],[-43.9682,-22.9323],[-43.9719,-22.9318]]]}},{"type":"Feature","properties":{"cod_tema":"AREA_SERVIDAO_ADMINISTRATIVA_TOTAL","cod_imovel":"RJ-3302601-4CD1AB5244F043048E8A9E9F75D2D84E","num_area":"28.470900000000000000000000000000","ind_status":"PE"},"geometry":{"type":"Polygon","coordinates":[[[-43.9719,-22.9318],[-43.9767,-22.931],[-43.9678,-22.9273],[-43.9682,-22.9323],[-43.9719,-22.9318]]]}},{"type":"Feature","properties":{"cod_tema":"AREA_UTILIDADE_PUBLICA","cod_imovel":"RJ-3302601-80FDF0EC523C4615B26EC5E08F0D9C06","num_area":"3.6230000000000000000000000000000","ind_status":"AT"},"geometry":{"type":"Polygon","coordinates":[[[-44.0791,-22.9506],[-44.088,-22.9353],[-44.0981,-22.9353],[-44.1096,-22.9234],[-44.0981,-22.9353],[-44.088,-22.9353],[-44.079,-22.9506],[-44.0791,-22.9506]]]}},{"type":"Feature","properties":{"cod_tema":"AREA_SERVIDAO_ADMINISTRATIVA_TOTAL","cod_imovel":"RJ-3302601-80FDF0EC523C4615B26EC5E08F0D9C06","num_area":"3.6230000000000000000000000000000","ind_status":"AT"},"geometry":{"type":"Polygon","coordinates":[[[-44.0791,-22.9506],[-44.088,-22.9353],[-44.0981,-22.9353],[-44.1096,-22.9234],[-44.0981,-22.9353],[-44.088,-22.9353],[-44.079,-22.9506],[-44.0791,-22.9506]]]}},{"type":"Feature","properties":{"cod_tema":"AREA_INFRAESTRUTURA_PUBLICA","cod_imovel":"RJ-3302601-8DA1EA7EB2974E54B4325BEEF9D0CE60","num_area":"3.5774000000000000000000000000000","ind_status":"AT"},"geometry":{"type":"Polygon","coordinates":[[[-44.1061,-23.0051],[-44.1103,-23.013],[-44.1061,-23.0051],[-44.1061,-23.0051]],[[-44.1078,-23.0137],[-44.1048,-23.0086],[-44.1078,-23.0137],[-44.1078,-23.0137]]]}},{"type":"Feature","properties":{"cod_tema":"AREA_SERVIDAO_ADMINISTRATIVA_TOTAL","cod_imovel":"RJ-3302601-8DA1EA7EB2974E54B4325BEEF9D0CE60","num_area":"3.5774000000000000000000000000000","ind_status":"AT"},"geometry":{"type":"Polygon","coordinates":[[[-44.1061,-23.0051],[-44.1103,-23.013],[-44.1061,-23.0051],[-44.1061,-23.0051]],[[-44.1078,-23.0137],[-44.1048,-23.0086],[-44.1078,-23.0137],[-44.1078,-23.0137]]]}},{"type":"Feature","properties":{"cod_tema":"AREA_INFRAESTRUTURA_PUBLICA","cod_imovel":"RJ-3302601-5821A606C04F4A05B124A1FB66038842","num_area":"1.4758000000000000000000000000000","ind_status":"AT"},"geometry":{"type":"Polygon","coordinates":[[[-44.0204,-22.9059],[-44.0113,-22.9149],[-44.0197,-22.9109],[-44.0203,-22.9058],[-44.0204,-22.9059]]]}},{"type":"Feature","properties":{"cod_tema":"AREA_SERVIDAO_ADMINISTRATIVA_TOTAL","cod_imovel":"RJ-3302601-5821A606C04F4A05B124A1FB66038842","num_area":"1.4758000000000000000000000000000","ind_status":"AT"},"geometry":{"type":"Polygon","coordinates":[[[-44.0204,-22.9059],[-44.0113,-22.9149],[-44.0197,-22.9109],[-44.0203,-22.9058],[-44.0204,-22.9059]]]}},{"type":"Feature","properties":{"cod_tema":"AREA_INFRAESTRUTURA_PUBLICA","cod_imovel":"RJ-3302601-12FB9ACA309643D483CE4C20C352A52C","num_area":"2.0844000000000000000000000000000","ind_status":"AT"},"geometry":{"type":"Polygon","coordinates":[[[-44.1286,-22.9518],[-44.1171,-22.9492],[-44.1257,-22.9512],[-44.1286,-22.9518]]]}},{"type":"Feature","properties":{"cod_tema":"AREA_UTILIDADE_PUBLICA","cod_imovel":"RJ-3302601-12FB9ACA309643D483CE4C20C352A52C","num_area":"2.2765000000000000000000000000000","ind_status":"AT"},"geometry":{"type":"Polygon","coordinates":[[[-44.1191,-22.9528],[-44.1288,-22.945],[-44.1238,-22.9322],[-44.1151,-22.9355],[-44.1238,-22.9323],[-44.1285,-22.942],[-44.1192,-22.9527],[-44.1191,-22.9528]]]}},{"type":"Feature","properties":{"cod_tema":"AREA_SERVIDAO_ADMINISTRATIVA_TOTAL","cod_imovel":"RJ-3302601-12FB9ACA309643D483CE4C20C352A52C","num_area":"4.3521000000000000000000000000000","ind_status":"AT"},"geometry":{"type":"Polygon","coordinates":[[[-44.1286,-22.9518],[-44.1229,-22.9505],[-44.1288,-22.945],[-44.1256,-22.9338],[-44.1181,-22.9327],[-44.1151,-22.9355],[-44.1256,-22.9338],[-44.1287,-22.945],[-44.1228,-22.9505],[-44.1171,-22.9492],[-44.1227,-22.9506],[-44.1191,-22.9528],[-44.1257,-22.9512],[-44.1286,-22.9518]]]}},{"type":"Feature","properties":{"cod_tema":"AREA_INFRAESTRUTURA_PUBLICA","cod_imovel":"RJ-3302601-9B233A3A31B64E99AE53400C4750E20D","num_area":"1.1536000000000000000000000000000","ind_status":"AT"},"geometry":{"type":"Polygon","coordinates":[[[-44.1066,-23.0087],[-44.1059,-23.0027],[-44.1066,-23.0087],[-44.1066,-23.0087]]]}},{"type":"Feature","properties":{"cod_tema":"AREA_SERVIDAO_ADMINISTRATIVA_TOTAL","cod_imovel":"RJ-3302601-9B233A3A31B64E99AE53400C4750E20D","num_area":"1.1536000000000000000000000000000","ind_status":"AT"},"geometry":{"type":"Polygon","coordinates":[[[-44.1066,-23.0087],[-44.1059,-23.0027],[-44.1066,-23.0087],[-44.1066,-23.0087]]]}},{"type":"Feature","properties":{"cod_tema":"AREA_INFRAESTRUTURA_PUBLICA","cod_imovel":"RJ-3302601-DE86C351A0EA45FE977A3439D441F945","num_area":"0.4476000000000000000000000000000","ind_status":"AT"},"geometry":{"type":"Polygon","coordinates":[[[-44.1565,-23.0266],[-44.1593,-23.0255],[-44.1565,-23.0266],[-44.1565,-23.0266]]]}},{"type":"Feature","properties":{"cod_tema":"AREA_SERVIDAO_ADMINISTRATIVA_TOTAL","cod_imovel":"RJ-3302601-DE86C351A0EA45FE977A3439D441F945","num_area":"0.6243000000000000000000000000000","ind_status":"AT"},"geometry":{"type":"Polygon","coordinates":[[[-44.1565,-23.0266],[-44.1595,-23.0256],[-44.1565,-23.0266],[-44.1565,-23.0266]]]}},{"type":"Feature","properties":{"cod_tema":"AREA_UTILIDADE_PUBLICA","cod_imovel":"RJ-3302601-B83DAEC3620F4078BFC58F52C5F66646","num_area":"0.9775000000000000000000000000000","ind_status":"AT"},"geometry":{"type":"Polygon","coordinates":[[[-43.9162,-22.9138],[-43.913,-22.9136],[-43.9162,-22.9138],[-43.9162,-22.9138]]]}}]}