{"type":"FeatureCollection","features":[{"type":"Feature","properties":{"cod_tema":"AREA_UTILIDADE_PUBLICA","cod_imovel":"RJ-3302908-175245DE082E449EBA9740FCE232BD28","num_area":"0.7639000000000000000000000000000","ind_status":"AT"},"geometry":{"type":"Polygon","coordinates":[[[-43.4802,-22.4388],[-43.4837,-22.4363],[-43.4807,-22.4316],[-43.4836,-22.4362],[-43.4801,-22.4388],[-43.4802,-22.4388]]]}},{"type":"Feature","properties":{"cod_tema":"AREA_SERVIDAO_ADMINISTRATIVA_TOTAL","cod_imovel":"RJ-3302908-175245DE082E449EBA9740FCE232BD28","num_area":"0.7639000000000000000000000000000","ind_status":"AT"},"geometry":{"type":"Polygon","coordinates":[[[-43.4802,-22.4388],[-43.4837,-22.4363],[-43.4807,-22.4316],[-43.4836,-22.4362],[-43.4801,-22.4388],[-43.4802,-22.4388]]]}},{"type":"Feature","properties":{"cod_tema":"AREA_INFRAESTRUTURA_PUBLICA","cod_imovel":"RJ-3302908-6420446302A2400EBD5FF1EB674A7D1A","num_area":"2.1461000000000000000000000000000","ind_status":"AT"},"geometry":{"type":"Polygon","coordinates":[[[-43.4464,-22.4622],[-43.4453,-22.467],[-43.4463,-22.4627],[-43.4464,-22.4622]]]}},{"type":"Feature","properties":{"cod_tema":"AREA_SERVIDAO_ADMINISTRATIVA_TOTAL","cod_imovel":"RJ-3302908-6420446302A2400EBD5FF1EB674A7D1A","num_area":"2.1461000000000000000000000000000","ind_status":"AT"},"geometry":{"type":"Polygon","coordinates":[[[-43.4464,-22.4622],[-43.4453,-22.467],[-43.4463,-22.4627],[-43.4464,-22.4622]]]}},{"type":"Feature","properties":{"cod_tema":"AREA_UTILIDADE_PUBLICA","cod_imovel":"RJ-3302908-99CB7C51D4ED41BCBB26C72A14FC8DCB","num_area":"0.4550000000000000000000000000000","ind_status":"AT"},"geometry":{"type":"Polygon","coordinates":[[[-43.4919,-22.424],[-43.4915,-22.42],[-43.492,-22.4236],[-43.4919,-22.424]]]}},{"type":"Feature","properties":{"cod_tema":"AREA_SERVIDAO_ADMINISTRATIVA_TOTAL","cod_imovel":"RJ-3302908-99CB7C51D4ED41BCBB26C72A14FC8DCB","num_area":"0.4550000000000000000000000000000","ind_status":"AT"},"geometry":{"type":"Polygon","coordinates":[[[-43.4919,-22.424],[-43.4915,-22.42],[-43.492,-22.4236],[-43.4919,-22.424]]]}},{"type":"Feature","properties":{"cod_tema":"AREA_UTILIDADE_PUBLICA","cod_imovel":"RJ-3302908-9B459C65A9EA40DE9F1C149D50B54E64","num_area":"0.4533000000000000000000000000000","ind_status":"AT"},"geometry":{"type":"Polygon","coordinates":[[[-43.3186,-22.4712],[-43.3203,-22.4746],[-43.3187,-22.4713],[-43.3186,-22.4712]]]}},{"type":"Feature","properties":{"cod_tema":"AREA_SERVIDAO_ADMINISTRATIVA_TOTAL","cod_imovel":"RJ-3302908-9B459C65A9EA40DE9F1C149D50B54E64","num_area":"0.4533000000000000000000000000000","ind_status":"AT"},"geometry":{"type":"Polygon","coordinates":[[[-43.3186,-22.4712],[-43.3203,-22.4746],[-43.3187,-22.4713],[-43.3186,-22.4712]]]}},{"type":"Feature","properties":{"cod_tema":"AREA_UTILIDADE_PUBLICA","cod_imovel":"RJ-3302908-C8FFF4DE7FF24A988CB6ECDBBB6B4D2A","num_area":"6.2141000000000000000000000000000","ind_status":"AT"},"geometry":{"type":"Polygon","coordinates":[[[-43.5175,-22.5047],[-43.5149,-22.5073],[-43.5175,-22.5047],[-43.5175,-22.5047]],[[-43.5018,-22.5086],[-43.5161,-22.5097],[-43.5007,-22.5043],[-43.5072,-22.507],[-43.5019,-22.5086],[-43.5018,-22.5086]]]}},{"type":"Feature","properties":{"cod_tema":"AREA_SERVIDAO_ADMINISTRATIVA_TOTAL","cod_imovel":"RJ-3302908-C8FFF4DE7FF24A988CB6ECDBBB6B4D2A","num_area":"6.2141000000000000000000000000000","ind_status":"AT"},"geometry":{"type":"Polygon","coordinates":[[[-43.5175,-22.5047],[-43.5149,-22.5073],[-43.5175,-22.5047],[-43.5175,-22.5047]],[[-43.5018,-22.5086],[-43.5161,-22.5097],[-43.5007,-22.5043],[-43.5072,-22.507],[-43.5019,-22.5086],[-43.5018,-22.5086]]]}},{"type":"Feature","properties":{"cod_tema":"AREA_INFRAESTRUTURA_PUBLICA","cod_imovel":"RJ-3302908-988F406915E74A9A81A2378703C612ED","num_area":"0.7784000000000000000000000000000","ind_status":"AT"},"geometry":{"type":"Polygon","coordinates":[[[-43.5315,-22.472],[-43.5382,-22.4686],[-43.5325,-22.4714],[-43.5315,-22.472]]]}},{"type":"Feature","properties":{"cod_tema":"AREA_SERVIDAO_ADMINISTRATIVA_TOTAL","cod_imovel":"RJ-3302908-988F406915E74A9A81A2378703C612ED","num_area":"0.7784000000000000000000000000000","ind_status":"AT"},"geometry":{"type":"Polygon","coordinates":[[[-43.5315,-22.472],[-43.5382,-22.4686],[-43.5325,-22.4714],[-43.5315,-22.472]]]}},{"type":"Feature","properties":{"cod_tema":"AREA_UTILIDADE_PUBLICA","cod_imovel":"RJ-3302908-B89E78F2DD95463A9D4E6BCDC24C62F6","num_area":"0.4066000000000000000000000000000","ind_status":"AT"},"geometry":{"type":"Polygon","coordinates":[[[-43.5403,-22.4488],[-43.5366,-22.4496],[-43.5402,-22.4488],[-43.5403,-22.4488]]]}},{"type":"Feature","properties":{"cod_tema":"AREA_SERVIDAO_ADMINISTRATIVA_TOTAL","cod_imovel":"RJ-3302908-B89E78F2DD95463A9D4E6BCDC24C62F6","num_area":"0.4066000000000000000000000000000","ind_status":"AT"},"geometry":{"type":"Polygon","coordinates":[[[-43.5403,-22.4488],[-43.5366,-22.4496],[-43.5402,-22.4488],[-43.5403,-22.4488]]]}},{"type":"Feature","properties":{"cod_tema":"AREA_UTILIDADE_PUBLICA","cod_imovel":"RJ-3302908-D228C6D143C0481B817D7E94003321B2","num_area":"1.2136000000000000000000000000000","ind_status":"AT"},"geometry":{"type":"Polygon","coordinates":[[[-43.5106,-22.45],[-43.5048,-22.4477],[-43.51,-22.4501],[-43.5106,-22.45]]]}},{"type":"Feature","properties":{"cod_tema":"AREA_SERVIDAO_ADMINISTRATIVA_TOTAL","cod_imovel":"RJ-3302908-D228C6D143C0481B817D7E94003321B2","num_area":"1.2136000000000000000000000000000","ind_status":"AT"},"geometry":{"type":"Polygon","coordinates":[[[-43.5106,-22.45],[-43.5048,-22.4477],[-43.51,-22.4501],[-43.5106,-22.45]]]}},{"type":"Feature","properties":{"cod_tema":"AREA_UTILIDADE_PUBLICA","cod_imovel":"RJ-3302908-60616D581017439D9E0B546516A24862","num_area":"2.3062000000000000000000000000000","ind_status":"AT"},"geometry":{"type":"Polygon","coordinates":[[[-43.487,-22.4979],[-43.4876,-22.5063],[-43.487,-22.4978],[-43.487,-22.4979]]]}},{"type":"Feature","properties":{"cod_tema":"AREA_SERVIDAO_ADMINISTRATIVA_TOTAL","cod_imovel":"RJ-3302908-60616D581017439D9E0B546516A24862","num_area":"2.3062000000000000000000000000000","ind_status":"AT"},"geometry":{"type":"Polygon","coordinates":[[[-43.487,-22.4979],[-43.4876,-22.5063],[-43.487,-22.4978],[-43.487,-22.4979]]]}},{"type":"Feature","properties":{"cod_tema":"AREA_UTILIDADE_PUBLICA","cod_imovel":"RJ-3302908-EC8CF445B97F4DE6AC5E5C097AFEE0BD","num_area":"1.9327000000000000000000000000000","ind_status":"AT"},"geometry":{"type":"Polygon","coordinates":[[[-43.5403,-22.5177],[-43.5481,-22.5278],[-43.5407,-22.5181],[-43.5403,-22.5177]]]}},{"type":"Feature","properties":{"cod_tema":"AREA_SERVIDAO_ADMINISTRATIVA_TOTAL","cod_imovel":"RJ-3302908-EC8CF445B97F4DE6AC5E5C097AFEE0BD","num_area":"1.9327000000000000000000000000000","ind_status":"AT"},"geometry":{"type":"Polygon","coordinates":[[[-43.5403,-22.5177],[-43.5481,-22.5278],[-43.5407,-22.5181],[-43.5403,-22.5177]]]}},{"type":"Feature","properties":{"cod_tema":"AREA_UTILIDADE_PUBLICA","cod_imovel":"RJ-3302908-A4C30D9941694351A6922B849683D068","num_area":"1.3816000000000000000000000000000","ind_status":"AT"},"geometry":{"type":"Polygon","coordinates":[[[-43.4659,-22.4323],[-43.4576,-22.4293],[-43.4579,-22.4329],[-43.4581,-22.4292],[-43.4659,-22.4322],[-43.4659,-22.4323]]]}},{"type":"Feature","properties":{"cod_tema":"RESERVATORIO_ENERGIA","cod_imovel":"RJ-3302908-A4C30D9941694351A6922B849683D068","num_area":"2.4840000000000000000000000000000","ind_status":"AT"},"geometry":{"type":"Polygon","coordinates":[[[-43.4601,-22.4259],[-43.4562,-22.433],[-43.4584,-22.4278],[-43.4601,-22.4259]]]}},{"type":"Feature","properties":{"cod_tema":"AREA_ENTORNO_RESERVATORIO_ENERGIA","cod_imovel":"RJ-3302908-A4C30D9941694351A6922B849683D068","num_area":"5.0160000000000000000000000000000","ind_status":"AT"},"geometry":{"type":"Polygon","coordinates":[[[-43.4598,-22.4258],[-43.4564,-22.4332],[-43.4599,-22.4258],[-43.4598,-22.4258]],[[-43.4601,-22.4259],[-43.4562,-22.433],[-43.4599,-22.4258],[-43.4601,-22.4259]]]}},{"type":"Feature","properties":{"cod_tema":"AREA_ENTORNO_RESERVATORIO_ENERGIA","cod_imovel":"RJ-3302908-A4C30D9941694351A6922B849683D068","num_area":"1.7414000000000000000000000000000","ind_status":"AT"},"geometry":{"type":"Polygon","coordinates":[[[-43.4662,-22.4323],[-43.465,-22.4289],[-43.4661,-22.4322],[-43.4662,-22.4323]],[[-43.4655,-22.4289],[-43.4666,-22.4323],[-43.4653,-22.4289],[-43.4655,-22.4289]]]}},{"type":"Feature","properties":{"cod_tema":"AREA_SERVIDAO_ADMINISTRATIVA_TOTAL","cod_imovel":"RJ-3302908-A4C30D9941694351A6922B849683D068","num_area":"10.422400000000000000000000000000","ind_status":"AT"},"geometry":{"type":"Polygon","coordinates":[[[-43.4662,-22.4323],[-43.4658,-22.4289],[-43.4578,-22.4291],[-43.4598,-22.4258],[-43.4558,-22.4327],[-43.4581,-22.4292],[-43.4661,-22.4322],[-43.4662,-22.4323]]]}},{"type":"Feature","properties":{"cod_tema":"AREA_INFRAESTRUTURA_PUBLICA","cod_imovel":"RJ-3302908-7A16B45A56D84CB888D5E2192BD4DBF8","num_area":"5.0423000000000000000000000000000","ind_status":"AT"},"geometry":{"type":"Polygon","coordinates":[[[-43.6061,-22.5798],[-43.5966,-22.5677],[-43.605,-22.5792],[-43.6061,-22.5798]]]}},{"type":"Feature","properties":{"cod_tema":"AREA_SERVIDAO_ADMINISTRATIVA_TOTAL","cod_imovel":"RJ-3302908-7A16B45A56D84CB888D5E2192BD4DBF8","num_area":"5.0423000000000000000000000000000","ind_status":"AT"},"geometry":{"type":"Polygon","coordinates":[[[-43.6061,-22.5798],[-43.5966,-22.5677],[-43.605,-22.5792],[-43.6061,-22.5798]]]}},{"type":"Feature","properties":{"cod_tema":"AREA_UTILIDADE_PUBLICA","cod_imovel":"RJ-3302908-598DF49A185F4168B227F0E6418E68A4","num_area":"1.3995000000000000000000000000000","ind_status":"AT"},"geometry":{"type":"Polygon","coordinates":[[[-43.4739,-22.5351],[-43.4693,-22.5398],[-43.4737,-22.5353],[-43.4739,-22.5351]]]}},{"type":"Feature","properties":{"cod_tema":"AREA_SERVIDAO_ADMINISTRATIVA_TOTAL","cod_imovel":"RJ-3302908-598DF49A185F4168B227F0E6418E68A4","num_area":"1.3995000000000000000000000000000","ind_status":"AT"},"geometry":{"type":"Polygon","coordinates":[[[-43.4739,-22.5351],[-43.4693,-22.5398],[-43.4737,-22.5353],[-43.4739,-22.5351]]]}},{"type":"Feature","properties":{"cod_tema":"AREA_INFRAESTRUTURA_PUBLICA","cod_imovel":"RJ-3302908-8813FBAA57714489BADD402368EBA415","num_area":"2.2488000000000000000000000000000","ind_status":"AT"},"geometry":{"type":"Polygon","coordinates":[[[-43.5161,-22.5509],[-43.5138,-22.5556],[-43.5164,-22.5504],[-43.5203,-22.5545],[-43.5103,-22.5444],[-43.5163,-22.5504],[-43.5161,-22.5509]]]}},{"type":"Feature","properties":{"cod_tema":"AREA_SERVIDAO_ADMINISTRATIVA_TOTAL","cod_imovel":"RJ-3302908-8813FBAA57714489BADD402368EBA415","num_area":"2.2488000000000000000000000000000","ind_status":"AT"},"geometry":{"type":"Polygon","coordinates":[[[-43.5161,-22.5509],[-43.5138,-22.5556],[-43.5164,-22.5504],[-43.5203,-22.5545],[-43.5103,-22.5444],[-43.5163,-22.5504],[-43.5161,-22.5509]]]}},{"type":"Feature","properties":{"cod_tema":"AREA_INFRAESTRUTURA_PUBLICA","cod_imovel":"RJ-3302908-BF6D06626A0B46D9AEE8D95A4D00B148","num_area":"7.5705000000000000000000000000000","ind_status":"AT"},"geometry":{"type":"Polygon","coordinates":[[[-43.51,-22.5444],[-43.5063,-22.5339],[-43.5111,-22.5342],[-43.5194,-22.519],[-43.5284,-22.5167],[-43.5249,-22.513],[-43.5283,-22.5167],[-43.5193,-22.5189],[-43.511,-22.5341],[-43.5062,-22.5339],[-43.5088,-22.539],[-43.5004,-22.5374],[-43.5097,-22.5444],[-43.51,-22.5444]]]}},{"type":"Feature","properties":{"cod_tema":"AREA_SERVIDAO_ADMINISTRATIVA_TOTAL","cod_imovel":"RJ-3302908-BF6D06626A0B46D9AEE8D95A4D00B148","num_area":"7.5705000000000000000000000000000","ind_status":"AT"},"geometry":{"type":"Polygon","coordinates":[[[-43.51,-22.5444],[-43.5063,-22.5339],[-43.5111,-22.5342],[-43.5194,-22.519],[-43.5284,-22.5167],[-43.5249,-22.513],[-43.5283,-22.5167],[-43.5193,-22.5189],[-43.511,-22.5341],[-43.5062,-22.5339],[-43.5088,-22.539],[-43.5004,-22.5374],[-43.5097,-22.5444],[-43.51,-22.5444]]]}},{"type":"Feature","properties":{"cod_tema":"AREA_UTILIDADE_PUBLICA","cod_imovel":"RJ-3302908-FF16B4FC28C4441C898BA944E0F33ACE","num_area":"1.5111000000000000000000000000000","ind_status":"AT"},"geometry":{"type":"Polygon","coordinates":[[[-43.3871,-22.4763],[-43.3763,-22.4739],[-43.3867,-22.4761],[-43.3871,-22.4763]]]}},{"type":"Feature","properties":{"cod_tema":"AREA_SERVIDAO_ADMINISTRATIVA_TOTAL","cod_imovel":"RJ-3302908-FF16B4FC28C4441C898BA944E0F33ACE","num_area":"1.5111000000000000000000000000000","ind_status":"AT"},"geometry":{"type":"Polygon","coordinates":[[[-43.3871,-22.4763],[-43.3763,-22.4739],[-43.3867,-22.4761],[-43.3871,-22.4763]]]}},{"type":"Feature","properties":{"cod_tema":"AREA_UTILIDADE_PUBLICA","cod_imovel":"RJ-3302908-3EFFB402496A4059A95302161CB46B20","num_area":"0.1952000000000000000000000000000","ind_status":"AT"},"geometry":{"type":"Polygon","coordinates":[[[-43.3656,-22.465],[-43.37,-22.4629],[-43.3656,-22.465],[-43.3656,-22.465]]]}},{"type":"Feature","properties":{"cod_tema":"AREA_SERVIDAO_ADMINISTRATIVA_TOTAL","cod_imovel":"RJ-3302908-3EFFB402496A4059A95302161CB46B20","num_area":"0.1952000000000000000000000000000","ind_status":"AT"},"geometry":{"type":"Polygon","coordinates":[[[-43.3656,-22.465],[-43.37,-22.4629],[-43.3656,-22.465],[-43.3656,-22.465]]]}},{"type":"Feature","properties":{"cod_tema":"AREA_UTILIDADE_PUBLICA","cod_imovel":"RJ-3302908-237388EA4C454D329107D2074999243C","num_area":"0.4127000000000000000000000000000","ind_status":"AT"},"geometry":{"type":"Polygon","coordinates":[[[-43.3993,-22.5079],[-43.3967,-22.5062],[-43.3993,-22.5081],[-43.3993,-22.5079]]]}},{"type":"Feature","properties":{"cod_tema":"AREA_SERVIDAO_ADMINISTRATIVA_TOTAL","cod_imovel":"RJ-3302908-237388EA4C454D329107D2074999243C","num_area":"0.4127000000000000000000000000000","ind_status":"AT"},"geometry":{"type":"Polygon","coordinates":[[[-43.3993,-22.5079],[-43.3967,-22.5062],[-43.3993,-22.5081],[-43.3993,-22.5079]]]}},{"type":"Feature","properties":{"cod_tema":"AREA_UTILIDADE_PUBLICA","cod_imovel":"RJ-3302908-74F76A4DC64E4D13B6104579AD19D2FB","num_area":"0.4761000000000000000000000000000","ind_status":"AT"},"geometry":{"type":"Polygon","coordinates":[[[-43.5084,-22.4704],[-43.5119,-22.4736],[-43.5085,-22.4706],[-43.5084,-22.4704]]]}},{"type":"Feature","properties":{"cod_tema":"AREA_SERVIDAO_ADMINISTRATIVA_TOTAL","cod_imovel":"RJ-3302908-74F76A4DC64E4D13B6104579AD19D2FB","num_area":"0.4761000000000000000000000000000","ind_status":"AT"},"geometry":{"type":"Polygon","coordinates":[[[-43.5084,-22.4704],[-43.5119,-22.4736],[-43.5085,-22.4706],[-43.5084,-22.4704]]]}},{"type":"Feature","properties":{"cod_tema":"AREA_INFRAESTRUTURA_PUBLICA","cod_imovel":"RJ-3302908-5C07BC2AF75C4435A3865C0823FFFDD0","num_area":"0.3270000000000000000000000000000","ind_status":"AT"},"geometry":{"type":"Polygon","coordinates":[[[-43.3276,-22.4701],[-43.3303,-22.4687],[-43.3276,-22.4701],[-43.3276,-22.4701]]]}},{"type":"Feature","properties":{"cod_tema":"AREA_SERVIDAO_ADMINISTRATIVA_TOTAL","cod_imovel":"RJ-3302908-5C07BC2AF75C4435A3865C0823FFFDD0","num_area":"0.3270000000000000000000000000000","ind_status":"AT"},"geometry":{"type":"Polygon","coordinates":[[[-43.3276,-22.4701],[-43.3303,-22.4687],[-43.3276,-22.4701],[-43.3276,-22.4701]]]}},{"type":"Feature","properties":{"cod_tema":"AREA_INFRAESTRUTURA_PUBLICA","cod_imovel":"RJ-3302908-44736274711B483494EB265BD94E1385","num_area":"3.3033000000000000000000000000000","ind_status":"AT"},"geometry":{"type":"Polygon","coordinates":[[[-43.5101,-22.4496],[-43.5156,-22.449],[-43.5102,-22.4496],[-43.5101,-22.4496]]]}},{"type":"Feature","properties":{"cod_tema":"AREA_SERVIDAO_ADMINISTRATIVA_TOTAL","cod_imovel":"RJ-3302908-44736274711B483494EB265BD94E1385","num_area":"3.3033000000000000000000000000000","ind_status":"AT"},"geometry":{"type":"Polygon","coordinates":[[[-43.5101,-22.4496],[-43.5156,-22.449],[-43.5102,-22.4496],[-43.5101,-22.4496]]]}},{"type":"Feature","properties":{"cod_tema":"AREA_INFRAESTRUTURA_PUBLICA","cod_imovel":"RJ-3302908-7444885DEB354CD384FA9B89FD7A297D","num_area":"0.2994000000000000000000000000000","ind_status":"AT"},"geometry":{"type":"Polygon","coordinates":[[[-43.3187,-22.4711],[-43.3203,-22.4745],[-43.3188,-22.4712],[-43.3187,-22.4711]]]}},{"type":"Feature","properties":{"cod_tema":"AREA_SERVIDAO_ADMINISTRATIVA_TOTAL","cod_imovel":"RJ-3302908-7444885DEB354CD384FA9B89FD7A297D","num_area":"0.2994000000000000000000000000000","ind_status":"AT"},"geometry":{"type":"Polygon","coordinates":[[[-43.3187,-22.4711],[-43.3203,-22.4745],[-43.3188,-22.4712],[-43.3187,-22.4711]]]}},{"type":"Feature","properties":{"cod_tema":"AREA_UTILIDADE_PUBLICA","cod_imovel":"RJ-3302908-644D1C1937D34E90824E725CCBEF1209","num_area":"38.960300000000000000000000000000","ind_status":"AT"},"geometry":{"type":"Polygon","coordinates":[[[-43.5968,-22.5973],[-43.6115,-22.5841],[-43.6308,-22.598],[-43.6117,-22.5839],[-43.6168,-22.5775],[-43.611,-22.5832],[-43.6061,-22.5798],[-43.6108,-22.5834],[-43.6022,-22.5919],[-43.5968,-22.5973]]]}},{"type":"Feature","properties":{"cod_tema":"AREA_SERVIDAO_ADMINISTRATIVA_TOTAL","cod_imovel":"RJ-3302908-644D1C1937D34E90824E725CCBEF1209","num_area":"38.960300000000000000000000000000","ind_status":"AT"},"geometry":{"type":"Polygon","coordinates":[[[-43.5968,-22.5973],[-43.6115,-22.5841],[-43.6308,-22.598],[-43.6117,-22.5839],[-43.6168,-22.5775],[-43.611,-22.5832],[-43.6061,-22.5798],[-43.6108,-22.5834],[-43.6022,-22.5919],[-43.5968,-22.5973]]]}},{"type":"Feature","properties":{"cod_tema":"AREA_INFRAESTRUTURA_PUBLICA","cod_imovel":"RJ-3302908-C9231219AEB540AB968CAAEE1B7C20D1","num_area":"0.3873000000000000000000000000000","ind_status":"PE"},"geometry":{"type":"Polygon","coordinates":[[[-43.4007,-22.5069],[-43.4007,-22.5119],[-43.4003,-22.5071],[-43.4007,-22.5069]]]}},{"type":"Feature","properties":{"cod_tema":"AREA_SERVIDAO_ADMINISTRATIVA_TOTAL","cod_imovel":"RJ-3302908-C9231219AEB540AB968CAAEE1B7C20D1","num_area":"0.3873000000000000000000000000000","ind_status":"PE"},"geometry":{"type":"Polygon","coordinates":[[[-43.4007,-22.5069],[-43.4007,-22.5119],[-43.4003,-22.5071],[-43.4007,-22.5069]]]}},{"type":"Feature","properties":{"cod_tema":"AREA_INFRAESTRUTURA_PUBLICA","cod_imovel":"RJ-3302908-3CEA89DE118A45FF836453AC3BA3A57E","num_area":"1.2936000000000000000000000000000","ind_status":"AT"},"geometry":{"type":"Polygon","coordinates":[[[-43.4734,-22.4621],[-43.4755,-22.4679],[-43.4736,-22.4624],[-43.4734,-22.4621]]]}},{"type":"Feature","properties":{"cod_tema":"AREA_SERVIDAO_ADMINISTRATIVA_TOTAL","cod_imovel":"RJ-3302908-3CEA89DE118A45FF836453AC3BA3A57E","num_area":"1.2936000000000000000000000000000","ind_status":"AT"},"geometry":{"type":"Polygon","coordinates":[[[-43.4734,-22.4621],[-43.4755,-22.4679],[-43.4736,-22.4624],[-43.4734,-22.4621]]]}}]}