{"type":"FeatureCollection","features":[{"type":"Feature","properties":{"cod_tema":"AREA_INFRAESTRUTURA_PUBLICA","cod_imovel":"RJ-3303005-ABCEFB1523A743909C822B2078B7527E","num_area":"0.4561000000000000000000000000000","ind_status":"AT"},"geometry":{"type":"Polygon","coordinates":[[[-42.0742,-21.407],[-42.0787,-21.4047],[-42.0742,-21.407],[-42.0742,-21.407]]]}},{"type":"Feature","properties":{"cod_tema":"AREA_SERVIDAO_ADMINISTRATIVA_TOTAL","cod_imovel":"RJ-3303005-ABCEFB1523A743909C822B2078B7527E","num_area":"0.4561000000000000000000000000000","ind_status":"AT"},"geometry":{"type":"Polygon","coordinates":[[[-42.0742,-21.407],[-42.0787,-21.4047],[-42.0742,-21.407],[-42.0742,-21.407]]]}},{"type":"Feature","properties":{"cod_tema":"AREA_INFRAESTRUTURA_PUBLICA","cod_imovel":"RJ-3303005-019A8BF5943F4C43AE853B0EF9394641","num_area":"0.2549000000000000000000000000000","ind_status":"AT"},"geometry":{"type":"Polygon","coordinates":[[[-42.0817,-21.4412],[-42.0779,-21.4381],[-42.0815,-21.4409],[-42.0817,-21.4412]]]}},{"type":"Feature","properties":{"cod_tema":"AREA_SERVIDAO_ADMINISTRATIVA_TOTAL","cod_imovel":"RJ-3303005-019A8BF5943F4C43AE853B0EF9394641","num_area":"0.2549000000000000000000000000000","ind_status":"AT"},"geometry":{"type":"Polygon","coordinates":[[[-42.0817,-21.4412],[-42.0779,-21.4381],[-42.0815,-21.4409],[-42.0817,-21.4412]]]}},{"type":"Feature","properties":{"cod_tema":"AREA_INFRAESTRUTURA_PUBLICA","cod_imovel":"RJ-3303005-117F84CA4F27412C9BF00793E3ADA8AE","num_area":"2.1594000000000000000000000000000","ind_status":"AT"},"geometry":{"type":"Polygon","coordinates":[[[-42.2262,-21.4082],[-42.2138,-21.4073],[-42.2157,-21.4119],[-42.2162,-21.4085],[-42.2262,-21.4082],[-42.2262,-21.4082]]]}},{"type":"Feature","properties":{"cod_tema":"AREA_SERVIDAO_ADMINISTRATIVA_TOTAL","cod_imovel":"RJ-3303005-117F84CA4F27412C9BF00793E3ADA8AE","num_area":"2.1594000000000000000000000000000","ind_status":"AT"},"geometry":{"type":"Polygon","coordinates":[[[-42.2262,-21.4082],[-42.2138,-21.4073],[-42.2157,-21.4119],[-42.2162,-21.4085],[-42.2262,-21.4082],[-42.2262,-21.4082]]]}},{"type":"Feature","properties":{"cod_tema":"AREA_UTILIDADE_PUBLICA","cod_imovel":"RJ-3303005-1AD16E36037F4D20B36AF815FA892C5F","num_area":"0.8543000000000000000000000000000","ind_status":"AT"},"geometry":{"type":"Polygon","coordinates":[[[-42.046,-21.3645],[-42.0442,-21.3552],[-42.0463,-21.3642],[-42.046,-21.3645]]]}},{"type":"Feature","properties":{"cod_tema":"AREA_SERVIDAO_ADMINISTRATIVA_TOTAL","cod_imovel":"RJ-3303005-1AD16E36037F4D20B36AF815FA892C5F","num_area":"0.8543000000000000000000000000000","ind_status":"AT"},"geometry":{"type":"Polygon","coordinates":[[[-42.046,-21.3645],[-42.0442,-21.3552],[-42.0463,-21.3642],[-42.046,-21.3645]]]}},{"type":"Feature","properties":{"cod_tema":"AREA_UTILIDADE_PUBLICA","cod_imovel":"RJ-3303005-22D945C73BD149B1A506B0BE09A8ECA7","num_area":"0.3166000000000000000000000000000","ind_status":"AT"},"geometry":{"type":"Polygon","coordinates":[[[-42.1478,-21.3989],[-42.1432,-21.3952],[-42.1477,-21.3988],[-42.1478,-21.3989]]]}},{"type":"Feature","properties":{"cod_tema":"AREA_SERVIDAO_ADMINISTRATIVA_TOTAL","cod_imovel":"RJ-3303005-22D945C73BD149B1A506B0BE09A8ECA7","num_area":"0.3166000000000000000000000000000","ind_status":"AT"},"geometry":{"type":"Polygon","coordinates":[[[-42.1478,-21.3989],[-42.1432,-21.3952],[-42.1477,-21.3988],[-42.1478,-21.3989]]]}},{"type":"Feature","properties":{"cod_tema":"AREA_UTILIDADE_PUBLICA","cod_imovel":"RJ-3303005-252D47F8E67E48928F57592530AD9CC0","num_area":"0.4573000000000000000000000000000","ind_status":"AT"},"geometry":{"type":"Polygon","coordinates":[[[-42.2232,-21.4637],[-42.2227,-21.4569],[-42.2232,-21.4634],[-42.2232,-21.4637]]]}},{"type":"Feature","properties":{"cod_tema":"AREA_SERVIDAO_ADMINISTRATIVA_TOTAL","cod_imovel":"RJ-3303005-252D47F8E67E48928F57592530AD9CC0","num_area":"0.4573000000000000000000000000000","ind_status":"AT"},"geometry":{"type":"Polygon","coordinates":[[[-42.2232,-21.4637],[-42.2227,-21.4569],[-42.2232,-21.4634],[-42.2232,-21.4637]]]}},{"type":"Feature","properties":{"cod_tema":"AREA_UTILIDADE_PUBLICA","cod_imovel":"RJ-3303005-25C598F6A7264143978DA8B9603256F0","num_area":"0.2068000000000000000000000000000","ind_status":"AT"},"geometry":{"type":"Polygon","coordinates":[[[-42.0467,-21.3514],[-42.0439,-21.3541],[-42.0465,-21.3516],[-42.0467,-21.3514]]]}},{"type":"Feature","properties":{"cod_tema":"AREA_SERVIDAO_ADMINISTRATIVA_TOTAL","cod_imovel":"RJ-3303005-25C598F6A7264143978DA8B9603256F0","num_area":"0.2068000000000000000000000000000","ind_status":"AT"},"geometry":{"type":"Polygon","coordinates":[[[-42.0467,-21.3514],[-42.0439,-21.3541],[-42.0465,-21.3516],[-42.0467,-21.3514]]]}},{"type":"Feature","properties":{"cod_tema":"AREA_UTILIDADE_PUBLICA","cod_imovel":"RJ-3303005-2DB0F030949049D6902725A3A13898F7","num_area":"0.6520000000000000000000000000000","ind_status":"AT"},"geometry":{"type":"Polygon","coordinates":[[[-42.2033,-21.384],[-42.207,-21.3771],[-42.2034,-21.3837],[-42.2033,-21.384]]]}},{"type":"Feature","properties":{"cod_tema":"AREA_SERVIDAO_ADMINISTRATIVA_TOTAL","cod_imovel":"RJ-3303005-2DB0F030949049D6902725A3A13898F7","num_area":"0.6520000000000000000000000000000","ind_status":"AT"},"geometry":{"type":"Polygon","coordinates":[[[-42.2033,-21.384],[-42.207,-21.3771],[-42.2034,-21.3837],[-42.2033,-21.384]]]}},{"type":"Feature","properties":{"cod_tema":"AREA_INFRAESTRUTURA_PUBLICA","cod_imovel":"RJ-3303005-34B4976916064D4F9C084F515ABE4D68","num_area":"0.1961000000000000000000000000000","ind_status":"AT"},"geometry":{"type":"Polygon","coordinates":[[[-42.251,-21.3867],[-42.2476,-21.3862],[-42.251,-21.3867],[-42.251,-21.3867]]]}},{"type":"Feature","properties":{"cod_tema":"AREA_SERVIDAO_ADMINISTRATIVA_TOTAL","cod_imovel":"RJ-3303005-34B4976916064D4F9C084F515ABE4D68","num_area":"0.1961000000000000000000000000000","ind_status":"AT"},"geometry":{"type":"Polygon","coordinates":[[[-42.251,-21.3867],[-42.2476,-21.3862],[-42.251,-21.3867],[-42.251,-21.3867]]]}},{"type":"Feature","properties":{"cod_tema":"AREA_UTILIDADE_PUBLICA","cod_imovel":"RJ-3303005-36107D16727F46C98C8E64D703B7B4E1","num_area":"0.3929000000000000000000000000000","ind_status":"AT"},"geometry":{"type":"Polygon","coordinates":[[[-42.208,-21.4057],[-42.2121,-21.4016],[-42.208,-21.4057],[-42.208,-21.4057]]]}},{"type":"Feature","properties":{"cod_tema":"AREA_SERVIDAO_ADMINISTRATIVA_TOTAL","cod_imovel":"RJ-3303005-36107D16727F46C98C8E64D703B7B4E1","num_area":"0.3929000000000000000000000000000","ind_status":"AT"},"geometry":{"type":"Polygon","coordinates":[[[-42.208,-21.4057],[-42.2121,-21.4016],[-42.208,-21.4057],[-42.208,-21.4057]]]}},{"type":"Feature","properties":{"cod_tema":"AREA_UTILIDADE_PUBLICA","cod_imovel":"RJ-3303005-3E920CD7F1254F769A0861BB803ADBA6","num_area":"0.3210000000000000000000000000000","ind_status":"AT"},"geometry":{"type":"Polygon","coordinates":[[[-42.1862,-21.4438],[-42.1812,-21.4437],[-42.1862,-21.4438],[-42.1862,-21.4438]]]}},{"type":"Feature","properties":{"cod_tema":"AREA_SERVIDAO_ADMINISTRATIVA_TOTAL","cod_imovel":"RJ-3303005-3E920CD7F1254F769A0861BB803ADBA6","num_area":"0.3210000000000000000000000000000","ind_status":"AT"},"geometry":{"type":"Polygon","coordinates":[[[-42.1862,-21.4438],[-42.1812,-21.4437],[-42.1862,-21.4438],[-42.1862,-21.4438]]]}},{"type":"Feature","properties":{"cod_tema":"AREA_UTILIDADE_PUBLICA","cod_imovel":"RJ-3303005-43ECB9D05CD748F180D5BD9BB5822405","num_area":"0.2843000000000000000000000000000","ind_status":"AT"},"geometry":{"type":"Polygon","coordinates":[[[-42.0378,-21.3574],[-42.0384,-21.3527],[-42.0378,-21.3574],[-42.0378,-21.3574]]]}},{"type":"Feature","properties":{"cod_tema":"AREA_SERVIDAO_ADMINISTRATIVA_TOTAL","cod_imovel":"RJ-3303005-43ECB9D05CD748F180D5BD9BB5822405","num_area":"0.2843000000000000000000000000000","ind_status":"AT"},"geometry":{"type":"Polygon","coordinates":[[[-42.0378,-21.3574],[-42.0384,-21.3527],[-42.0378,-21.3574],[-42.0378,-21.3574]]]}},{"type":"Feature","properties":{"cod_tema":"AREA_UTILIDADE_PUBLICA","cod_imovel":"RJ-3303005-45CC989387114F80821ACB3724D0D3F1","num_area":"0.4017000000000000000000000000000","ind_status":"AT"},"geometry":{"type":"Polygon","coordinates":[[[-42.1065,-21.4021],[-42.1025,-21.3976],[-42.1065,-21.4021],[-42.1065,-21.4021]]]}},{"type":"Feature","properties":{"cod_tema":"AREA_SERVIDAO_ADMINISTRATIVA_TOTAL","cod_imovel":"RJ-3303005-45CC989387114F80821ACB3724D0D3F1","num_area":"0.4017000000000000000000000000000","ind_status":"AT"},"geometry":{"type":"Polygon","coordinates":[[[-42.1065,-21.4021],[-42.1025,-21.3976],[-42.1065,-21.4021],[-42.1065,-21.4021]]]}},{"type":"Feature","properties":{"cod_tema":"AREA_UTILIDADE_PUBLICA","cod_imovel":"RJ-3303005-4F2AF2A4E85144038577C9D07EA9156D","num_area":"0.9094000000000000000000000000000","ind_status":"AT"},"geometry":{"type":"Polygon","coordinates":[[[-42.0471,-21.3656],[-42.0397,-21.358],[-42.047,-21.3655],[-42.0471,-21.3656]]]}},{"type":"Feature","properties":{"cod_tema":"AREA_SERVIDAO_ADMINISTRATIVA_TOTAL","cod_imovel":"RJ-3303005-4F2AF2A4E85144038577C9D07EA9156D","num_area":"0.9094000000000000000000000000000","ind_status":"AT"},"geometry":{"type":"Polygon","coordinates":[[[-42.0471,-21.3656],[-42.0397,-21.358],[-42.047,-21.3655],[-42.0471,-21.3656]]]}},{"type":"Feature","properties":{"cod_tema":"AREA_UTILIDADE_PUBLICA","cod_imovel":"RJ-3303005-5626AB98083F429D9465AE2798B23E5D","num_area":"0.3782000000000000000000000000000","ind_status":"AT"},"geometry":{"type":"Polygon","coordinates":[[[-42.2092,-21.4608],[-42.2046,-21.4598],[-42.2089,-21.4603],[-42.2092,-21.4608]]]}},{"type":"Feature","properties":{"cod_tema":"AREA_SERVIDAO_ADMINISTRATIVA_TOTAL","cod_imovel":"RJ-3303005-5626AB98083F429D9465AE2798B23E5D","num_area":"0.3782000000000000000000000000000","ind_status":"AT"},"geometry":{"type":"Polygon","coordinates":[[[-42.2092,-21.4608],[-42.2046,-21.4598],[-42.2089,-21.4603],[-42.2092,-21.4608]]]}},{"type":"Feature","properties":{"cod_tema":"AREA_INFRAESTRUTURA_PUBLICA","cod_imovel":"RJ-3303005-5AEB941588634EC6BA0EE0EA9B03C766","num_area":"0.5035000000000000000000000000000","ind_status":"AT"},"geometry":{"type":"Polygon","coordinates":[[[-42.2152,-21.3938],[-42.2148,-21.3876],[-42.2152,-21.3937],[-42.2152,-21.3938]]]}},{"type":"Feature","properties":{"cod_tema":"AREA_SERVIDAO_ADMINISTRATIVA_TOTAL","cod_imovel":"RJ-3303005-5AEB941588634EC6BA0EE0EA9B03C766","num_area":"0.5035000000000000000000000000000","ind_status":"AT"},"geometry":{"type":"Polygon","coordinates":[[[-42.2152,-21.3938],[-42.2148,-21.3876],[-42.2152,-21.3937],[-42.2152,-21.3938]]]}},{"type":"Feature","properties":{"cod_tema":"AREA_UTILIDADE_PUBLICA","cod_imovel":"RJ-3303005-5CE4CB2890874437A78D956A155DA1E3","num_area":"0.7097000000000000000000000000000","ind_status":"AT"},"geometry":{"type":"Polygon","coordinates":[[[-42.1332,-21.4348],[-42.1253,-21.4348],[-42.1326,-21.4348],[-42.1332,-21.4348]]]}},{"type":"Feature","properties":{"cod_tema":"AREA_SERVIDAO_ADMINISTRATIVA_TOTAL","cod_imovel":"RJ-3303005-5CE4CB2890874437A78D956A155DA1E3","num_area":"0.7097000000000000000000000000000","ind_status":"AT"},"geometry":{"type":"Polygon","coordinates":[[[-42.1332,-21.4348],[-42.1253,-21.4348],[-42.1326,-21.4348],[-42.1332,-21.4348]]]}},{"type":"Feature","properties":{"cod_tema":"AREA_UTILIDADE_PUBLICA","cod_imovel":"RJ-3303005-5F7EC6E8D12D472BB3FF8FC69B2B8141","num_area":"0.3061000000000000000000000000000","ind_status":"AT"},"geometry":{"type":"Polygon","coordinates":[[[-42.1118,-21.4631],[-42.1092,-21.4594],[-42.1115,-21.4625],[-42.1118,-21.4631]]]}},{"type":"Feature","properties":{"cod_tema":"AREA_SERVIDAO_ADMINISTRATIVA_TOTAL","cod_imovel":"RJ-3303005-5F7EC6E8D12D472BB3FF8FC69B2B8141","num_area":"0.3061000000000000000000000000000","ind_status":"AT"},"geometry":{"type":"Polygon","coordinates":[[[-42.1118,-21.4631],[-42.1092,-21.4594],[-42.1115,-21.4625],[-42.1118,-21.4631]]]}},{"type":"Feature","properties":{"cod_tema":"AREA_UTILIDADE_PUBLICA","cod_imovel":"RJ-3303005-617C00652235435B82E760294D4E79CB","num_area":"0.4463000000000000000000000000000","ind_status":"AT"},"geometry":{"type":"Polygon","coordinates":[[[-42.2216,-21.4014],[-42.2264,-21.3985],[-42.2216,-21.4014],[-42.2216,-21.4014]]]}},{"type":"Feature","properties":{"cod_tema":"AREA_SERVIDAO_ADMINISTRATIVA_TOTAL","cod_imovel":"RJ-3303005-617C00652235435B82E760294D4E79CB","num_area":"0.4463000000000000000000000000000","ind_status":"AT"},"geometry":{"type":"Polygon","coordinates":[[[-42.2216,-21.4014],[-42.2264,-21.3985],[-42.2216,-21.4014],[-42.2216,-21.4014]]]}},{"type":"Feature","properties":{"cod_tema":"AREA_UTILIDADE_PUBLICA","cod_imovel":"RJ-3303005-6B717CCDCA064068BC933954293A49A8","num_area":"0.5621000000000000000000000000000","ind_status":"AT"},"geometry":{"type":"Polygon","coordinates":[[[-42.222,-21.4438],[-42.2248,-21.4476],[-42.2222,-21.4442],[-42.222,-21.4438]]]}},{"type":"Feature","properties":{"cod_tema":"AREA_SERVIDAO_ADMINISTRATIVA_TOTAL","cod_imovel":"RJ-3303005-6B717CCDCA064068BC933954293A49A8","num_area":"0.5621000000000000000000000000000","ind_status":"AT"},"geometry":{"type":"Polygon","coordinates":[[[-42.222,-21.4438],[-42.2248,-21.4476],[-42.2222,-21.4442],[-42.222,-21.4438]]]}},{"type":"Feature","properties":{"cod_tema":"AREA_INFRAESTRUTURA_PUBLICA","cod_imovel":"RJ-3303005-6D9707D3866B48F291254C48C28E9480","num_area":"0.3306000000000000000000000000000","ind_status":"AT"},"geometry":{"type":"Polygon","coordinates":[[[-42.1131,-21.4099],[-42.1174,-21.4121],[-42.1134,-21.41],[-42.1131,-21.4099]]]}},{"type":"Feature","properties":{"cod_tema":"AREA_SERVIDAO_ADMINISTRATIVA_TOTAL","cod_imovel":"RJ-3303005-6D9707D3866B48F291254C48C28E9480","num_area":"0.3306000000000000000000000000000","ind_status":"AT"},"geometry":{"type":"Polygon","coordinates":[[[-42.1131,-21.4099],[-42.1174,-21.4121],[-42.1134,-21.41],[-42.1131,-21.4099]]]}},{"type":"Feature","properties":{"cod_tema":"AREA_UTILIDADE_PUBLICA","cod_imovel":"RJ-3303005-74308BE8323844FDB09EE6B6AC1B8EB5","num_area":"0.3818000000000000000000000000000","ind_status":"AT"},"geometry":{"type":"Polygon","coordinates":[[[-42.1085,-21.4322],[-42.1057,-21.4343],[-42.1085,-21.4322],[-42.1085,-21.4322]]]}},{"type":"Feature","properties":{"cod_tema":"AREA_SERVIDAO_ADMINISTRATIVA_TOTAL","cod_imovel":"RJ-3303005-74308BE8323844FDB09EE6B6AC1B8EB5","num_area":"0.3818000000000000000000000000000","ind_status":"AT"},"geometry":{"type":"Polygon","coordinates":[[[-42.1085,-21.4322],[-42.1057,-21.4343],[-42.1085,-21.4322],[-42.1085,-21.4322]]]}},{"type":"Feature","properties":{"cod_tema":"AREA_UTILIDADE_PUBLICA","cod_imovel":"RJ-3303005-780C218891BE4C53A5DFC4F18817C192","num_area":"6.0286000000000000000000000000000","ind_status":"AT"},"geometry":{"type":"Polygon","coordinates":[[[-42.1636,-21.4056],[-42.1501,-21.4111],[-42.151,-21.4214],[-42.1529,-21.414],[-42.1605,-21.4173],[-42.1504,-21.4112],[-42.1634,-21.4057],[-42.1636,-21.4056]]]}},{"type":"Feature","properties":{"cod_tema":"AREA_SERVIDAO_ADMINISTRATIVA_TOTAL","cod_imovel":"RJ-3303005-780C218891BE4C53A5DFC4F18817C192","num_area":"6.0286000000000000000000000000000","ind_status":"AT"},"geometry":{"type":"Polygon","coordinates":[[[-42.1636,-21.4056],[-42.1501,-21.4111],[-42.151,-21.4214],[-42.1529,-21.414],[-42.1605,-21.4173],[-42.1504,-21.4112],[-42.1634,-21.4057],[-42.1636,-21.4056]]]}},{"type":"Feature","properties":{"cod_tema":"AREA_UTILIDADE_PUBLICA","cod_imovel":"RJ-3303005-7BD7FE24DBB84E3AAEAB2DA13200B340","num_area":"1.3091000000000000000000000000000","ind_status":"AT"},"geometry":{"type":"Polygon","coordinates":[[[-42.1135,-21.431],[-42.1166,-21.4332],[-42.1135,-21.431],[-42.1185,-21.4288],[-42.1097,-21.4318],[-42.1166,-21.4362],[-42.1128,-21.4309],[-42.1135,-21.431]]]}},{"type":"Feature","properties":{"cod_tema":"AREA_SERVIDAO_ADMINISTRATIVA_TOTAL","cod_imovel":"RJ-3303005-7BD7FE24DBB84E3AAEAB2DA13200B340","num_area":"1.3091000000000000000000000000000","ind_status":"AT"},"geometry":{"type":"Polygon","coordinates":[[[-42.1135,-21.431],[-42.1166,-21.4332],[-42.1135,-21.431],[-42.1185,-21.4288],[-42.1097,-21.4318],[-42.1166,-21.4362],[-42.1128,-21.4309],[-42.1135,-21.431]]]}},{"type":"Feature","properties":{"cod_tema":"AREA_UTILIDADE_PUBLICA","cod_imovel":"RJ-3303005-838A2ECF82FD4604A353D32F4B422930","num_area":"0.4318000000000000000000000000000","ind_status":"AT"},"geometry":{"type":"Polygon","coordinates":[[[-42.0963,-21.4081],[-42.0991,-21.4033],[-42.0963,-21.4081],[-42.0963,-21.4081]]]}},{"type":"Feature","properties":{"cod_tema":"AREA_SERVIDAO_ADMINISTRATIVA_TOTAL","cod_imovel":"RJ-3303005-838A2ECF82FD4604A353D32F4B422930","num_area":"0.4318000000000000000000000000000","ind_status":"AT"},"geometry":{"type":"Polygon","coordinates":[[[-42.0963,-21.4081],[-42.0991,-21.4033],[-42.0963,-21.4081],[-42.0963,-21.4081]]]}},{"type":"Feature","properties":{"cod_tema":"AREA_UTILIDADE_PUBLICA","cod_imovel":"RJ-3303005-86B5306CC66541D992889AB3BB19B861","num_area":"1.1661000000000000000000000000000","ind_status":"AT"},"geometry":{"type":"Polygon","coordinates":[[[-42.1601,-21.3931],[-42.1733,-21.3967],[-42.1603,-21.3932],[-42.1601,-21.3931]]]}},{"type":"Feature","properties":{"cod_tema":"AREA_SERVIDAO_ADMINISTRATIVA_TOTAL","cod_imovel":"RJ-3303005-86B5306CC66541D992889AB3BB19B861","num_area":"1.1661000000000000000000000000000","ind_status":"AT"},"geometry":{"type":"Polygon","coordinates":[[[-42.1601,-21.3931],[-42.1733,-21.3967],[-42.1603,-21.3932],[-42.1601,-21.3931]]]}},{"type":"Feature","properties":{"cod_tema":"AREA_INFRAESTRUTURA_PUBLICA","cod_imovel":"RJ-3303005-8F90F399993D46F580161FB59D2D8407","num_area":"0.8708000000000000000000000000000","ind_status":"AT"},"geometry":{"type":"Polygon","coordinates":[[[-42.1333,-21.4135],[-42.1398,-21.4129],[-42.1333,-21.4135],[-42.1333,-21.4135]]]}},{"type":"Feature","properties":{"cod_tema":"AREA_SERVIDAO_ADMINISTRATIVA_TOTAL","cod_imovel":"RJ-3303005-8F90F399993D46F580161FB59D2D8407","num_area":"1.0189000000000000000000000000000","ind_status":"AT"},"geometry":{"type":"Polygon","coordinates":[[[-42.1333,-21.4135],[-42.1398,-21.4129],[-42.1333,-21.4135],[-42.1333,-21.4135]]]}},{"type":"Feature","properties":{"cod_tema":"AREA_UTILIDADE_PUBLICA","cod_imovel":"RJ-3303005-90DA02CEAF66427985532B76D54E4DD6","num_area":"0.6233000000000000000000000000000","ind_status":"AT"},"geometry":{"type":"Polygon","coordinates":[[[-42.1936,-21.3948],[-42.1976,-21.3913],[-42.1937,-21.3948],[-42.1936,-21.3948]],[[-42.2004,-21.3894],[-42.1976,-21.3968],[-42.2007,-21.3891],[-42.2004,-21.3894]]]}},{"type":"Feature","properties":{"cod_tema":"AREA_SERVIDAO_ADMINISTRATIVA_TOTAL","cod_imovel":"RJ-3303005-90DA02CEAF66427985532B76D54E4DD6","num_area":"0.6233000000000000000000000000000","ind_status":"AT"},"geometry":{"type":"Polygon","coordinates":[[[-42.1936,-21.3948],[-42.1976,-21.3913],[-42.1937,-21.3948],[-42.1936,-21.3948]],[[-42.2004,-21.3894],[-42.1976,-21.3968],[-42.2007,-21.3891],[-42.2004,-21.3894]]]}},{"type":"Feature","properties":{"cod_tema":"AREA_UTILIDADE_PUBLICA","cod_imovel":"RJ-3303005-9CC068D678EC4A2BBD28D796CBE52ED5","num_area":"0.3072000000000000000000000000000","ind_status":"AT"},"geometry":{"type":"Polygon","coordinates":[[[-42.2261,-21.4083],[-42.2304,-21.4119],[-42.2264,-21.4084],[-42.2261,-21.4083]]]}},{"type":"Feature","properties":{"cod_tema":"AREA_SERVIDAO_ADMINISTRATIVA_TOTAL","cod_imovel":"RJ-3303005-9CC068D678EC4A2BBD28D796CBE52ED5","num_area":"0.3072000000000000000000000000000","ind_status":"AT"},"geometry":{"type":"Polygon","coordinates":[[[-42.2261,-21.4083],[-42.2304,-21.4119],[-42.2264,-21.4084],[-42.2261,-21.4083]]]}},{"type":"Feature","properties":{"cod_tema":"AREA_UTILIDADE_PUBLICA","cod_imovel":"RJ-3303005-9EB1F0A3325047BB91A2334E9DDACD25","num_area":"0.8642000000000000000000000000000","ind_status":"AT"},"geometry":{"type":"Polygon","coordinates":[[[-42.1313,-21.4137],[-42.1218,-21.4197],[-42.1334,-21.4136],[-42.1313,-21.4137]]]}},{"type":"Feature","properties":{"cod_tema":"AREA_SERVIDAO_ADMINISTRATIVA_TOTAL","cod_imovel":"RJ-3303005-9EB1F0A3325047BB91A2334E9DDACD25","num_area":"0.8642000000000000000000000000000","ind_status":"AT"},"geometry":{"type":"Polygon","coordinates":[[[-42.1313,-21.4137],[-42.1218,-21.4197],[-42.1334,-21.4136],[-42.1313,-21.4137]]]}},{"type":"Feature","properties":{"cod_tema":"AREA_UTILIDADE_PUBLICA","cod_imovel":"RJ-3303005-A129574A20814FF5984D35ADBAA08A34","num_area":"0.6454000000000000000000000000000","ind_status":"CA"},"geometry":{"type":"Polygon","coordinates":[[[-42.1174,-21.4439],[-42.1173,-21.4502],[-42.1174,-21.4439],[-42.1174,-21.4439]]]}},{"type":"Feature","properties":{"cod_tema":"AREA_SERVIDAO_ADMINISTRATIVA_TOTAL","cod_imovel":"RJ-3303005-A129574A20814FF5984D35ADBAA08A34","num_area":"0.6454000000000000000000000000000","ind_status":"CA"},"geometry":{"type":"Polygon","coordinates":[[[-42.1174,-21.4439],[-42.1173,-21.4502],[-42.1174,-21.4439],[-42.1174,-21.4439]]]}},{"type":"Feature","properties":{"cod_tema":"AREA_INFRAESTRUTURA_PUBLICA","cod_imovel":"RJ-3303005-A4A3722C66DD41B191ACB64193938E2D","num_area":"1.8703000000000000000000000000000","ind_status":"AT"},"geometry":{"type":"Polygon","coordinates":[[[-42.1998,-21.4565],[-42.1956,-21.4614],[-42.1998,-21.4565],[-42.1998,-21.4565]]]}},{"type":"Feature","properties":{"cod_tema":"AREA_UTILIDADE_PUBLICA","cod_imovel":"RJ-3303005-A4A3722C66DD41B191ACB64193938E2D","num_area":"0.9029000000000000000000000000000","ind_status":"AT"},"geometry":{"type":"Polygon","coordinates":[[[-42.1953,-21.4585],[-42.1983,-21.4594],[-42.1953,-21.4585],[-42.1953,-21.4585]],[[-42.2011,-21.4566],[-42.2,-21.46],[-42.2013,-21.4567],[-42.2011,-21.4566]]]}},{"type":"Feature","properties":{"cod_tema":"AREA_SERVIDAO_ADMINISTRATIVA_TOTAL","cod_imovel":"RJ-3303005-A4A3722C66DD41B191ACB64193938E2D","num_area":"2.7261000000000000000000000000000","ind_status":"AT"},"geometry":{"type":"Polygon","coordinates":[[[-42.1998,-21.4565],[-42.1944,-21.4608],[-42.2003,-21.46],[-42.1998,-21.4565],[-42.1998,-21.4565]]]}},{"type":"Feature","properties":{"cod_tema":"AREA_UTILIDADE_PUBLICA","cod_imovel":"RJ-3303005-B29475899D21421391F512DED32C5E60","num_area":"0.8578000000000000000000000000000","ind_status":"AT"},"geometry":{"type":"Polygon","coordinates":[[[-42.1468,-21.4268],[-42.1522,-21.4252],[-42.1535,-21.43],[-42.1511,-21.4214],[-42.1523,-21.4252],[-42.1468,-21.4268],[-42.1468,-21.4268]]]}},{"type":"Feature","properties":{"cod_tema":"AREA_SERVIDAO_ADMINISTRATIVA_TOTAL","cod_imovel":"RJ-3303005-B29475899D21421391F512DED32C5E60","num_area":"0.8578000000000000000000000000000","ind_status":"AT"},"geometry":{"type":"Polygon","coordinates":[[[-42.1468,-21.4268],[-42.1522,-21.4252],[-42.1535,-21.43],[-42.1511,-21.4214],[-42.1523,-21.4252],[-42.1468,-21.4268],[-42.1468,-21.4268]]]}},{"type":"Feature","properties":{"cod_tema":"AREA_INFRAESTRUTURA_PUBLICA","cod_imovel":"RJ-3303005-B8C064346B9F42B9BBDA2000A3B33D12","num_area":"0.3498000000000000000000000000000","ind_status":"AT"},"geometry":{"type":"Polygon","coordinates":[[[-42.0968,-21.4481],[-42.092,-21.4495],[-42.0968,-21.4481],[-42.0968,-21.4481]]]}},{"type":"Feature","properties":{"cod_tema":"AREA_SERVIDAO_ADMINISTRATIVA_TOTAL","cod_imovel":"RJ-3303005-B8C064346B9F42B9BBDA2000A3B33D12","num_area":"0.3498000000000000000000000000000","ind_status":"AT"},"geometry":{"type":"Polygon","coordinates":[[[-42.0968,-21.4481],[-42.092,-21.4495],[-42.0968,-21.4481],[-42.0968,-21.4481]]]}},{"type":"Feature","properties":{"cod_tema":"AREA_UTILIDADE_PUBLICA","cod_imovel":"RJ-3303005-C71887D427FF494281C3FE1085E9E0A6","num_area":"0.4933000000000000000000000000000","ind_status":"AT"},"geometry":{"type":"Polygon","coordinates":[[[-42.0562,-21.3755],[-42.0619,-21.3803],[-42.0562,-21.3755],[-42.0562,-21.3755]]]}},{"type":"Feature","properties":{"cod_tema":"AREA_SERVIDAO_ADMINISTRATIVA_TOTAL","cod_imovel":"RJ-3303005-C71887D427FF494281C3FE1085E9E0A6","num_area":"0.4933000000000000000000000000000","ind_status":"AT"},"geometry":{"type":"Polygon","coordinates":[[[-42.0562,-21.3755],[-42.0619,-21.3803],[-42.0562,-21.3755],[-42.0562,-21.3755]]]}},{"type":"Feature","properties":{"cod_tema":"AREA_UTILIDADE_PUBLICA","cod_imovel":"RJ-3303005-C93535D7932C4F4CADA611DE08064BFF","num_area":"0.1508000000000000000000000000000","ind_status":"AT"},"geometry":{"type":"Polygon","coordinates":[[[-42.0988,-21.3901],[-42.1003,-21.3932],[-42.0988,-21.3901],[-42.0988,-21.3901]]]}},{"type":"Feature","properties":{"cod_tema":"AREA_SERVIDAO_ADMINISTRATIVA_TOTAL","cod_imovel":"RJ-3303005-C93535D7932C4F4CADA611DE08064BFF","num_area":"0.1508000000000000000000000000000","ind_status":"AT"},"geometry":{"type":"Polygon","coordinates":[[[-42.0988,-21.3901],[-42.1003,-21.3932],[-42.0988,-21.3901],[-42.0988,-21.3901]]]}},{"type":"Feature","properties":{"cod_tema":"AREA_UTILIDADE_PUBLICA","cod_imovel":"RJ-3303005-D43394431FA64B74A7E8279785B66096","num_area":"0.3176000000000000000000000000000","ind_status":"AT"},"geometry":{"type":"Polygon","coordinates":[[[-42.233,-21.4029],[-42.2294,-21.4052],[-42.233,-21.4029],[-42.233,-21.4029]]]}},{"type":"Feature","properties":{"cod_tema":"AREA_SERVIDAO_ADMINISTRATIVA_TOTAL","cod_imovel":"RJ-3303005-D43394431FA64B74A7E8279785B66096","num_area":"0.3176000000000000000000000000000","ind_status":"AT"},"geometry":{"type":"Polygon","coordinates":[[[-42.233,-21.4029],[-42.2294,-21.4052],[-42.233,-21.4029],[-42.233,-21.4029]]]}},{"type":"Feature","properties":{"cod_tema":"AREA_UTILIDADE_PUBLICA","cod_imovel":"RJ-3303005-D752703255AF4F638CA7C24F782B7A9B","num_area":"0.3379000000000000000000000000000","ind_status":"AT"},"geometry":{"type":"Polygon","coordinates":[[[-42.1906,-21.3988],[-42.1937,-21.3948],[-42.1905,-21.3986],[-42.1906,-21.3988]]]}},{"type":"Feature","properties":{"cod_tema":"AREA_SERVIDAO_ADMINISTRATIVA_TOTAL","cod_imovel":"RJ-3303005-D752703255AF4F638CA7C24F782B7A9B","num_area":"0.3379000000000000000000000000000","ind_status":"AT"},"geometry":{"type":"Polygon","coordinates":[[[-42.1906,-21.3988],[-42.1937,-21.3948],[-42.1905,-21.3986],[-42.1906,-21.3988]]]}},{"type":"Feature","properties":{"cod_tema":"AREA_UTILIDADE_PUBLICA","cod_imovel":"RJ-3303005-E58D3C801F494759BEE4E6EE7B98CD6C","num_area":"0.4541000000000000000000000000000","ind_status":"AT"},"geometry":{"type":"Polygon","coordinates":[[[-42.1626,-21.3055],[-42.1587,-21.3093],[-42.1626,-21.3055],[-42.1626,-21.3055]]]}},{"type":"Feature","properties":{"cod_tema":"AREA_SERVIDAO_ADMINISTRATIVA_TOTAL","cod_imovel":"RJ-3303005-E58D3C801F494759BEE4E6EE7B98CD6C","num_area":"0.4541000000000000000000000000000","ind_status":"AT"},"geometry":{"type":"Polygon","coordinates":[[[-42.1626,-21.3055],[-42.1587,-21.3093],[-42.1626,-21.3055],[-42.1626,-21.3055]]]}},{"type":"Feature","properties":{"cod_tema":"AREA_UTILIDADE_PUBLICA","cod_imovel":"RJ-3303005-E8F379A8F1F149ECB4EB3FD6EE20D890","num_area":"0.6734000000000000000000000000000","ind_status":"AT"},"geometry":{"type":"Polygon","coordinates":[[[-42.1076,-21.4266],[-42.1022,-21.4302],[-42.1076,-21.4266],[-42.1076,-21.4266]]]}},{"type":"Feature","properties":{"cod_tema":"AREA_SERVIDAO_ADMINISTRATIVA_TOTAL","cod_imovel":"RJ-3303005-E8F379A8F1F149ECB4EB3FD6EE20D890","num_area":"0.6734000000000000000000000000000","ind_status":"AT"},"geometry":{"type":"Polygon","coordinates":[[[-42.1076,-21.4266],[-42.1022,-21.4302],[-42.1076,-21.4266],[-42.1076,-21.4266]]]}},{"type":"Feature","properties":{"cod_tema":"AREA_UTILIDADE_PUBLICA","cod_imovel":"RJ-3303005-EA267A9662C24E1CA12A9A4CD09803CE","num_area":"0.4513000000000000000000000000000","ind_status":"AT"},"geometry":{"type":"Polygon","coordinates":[[[-42.072,-21.3781],[-42.0758,-21.3724],[-42.0717,-21.3784],[-42.072,-21.3781]]]}},{"type":"Feature","properties":{"cod_tema":"AREA_SERVIDAO_ADMINISTRATIVA_TOTAL","cod_imovel":"RJ-3303005-EA267A9662C24E1CA12A9A4CD09803CE","num_area":"0.4513000000000000000000000000000","ind_status":"AT"},"geometry":{"type":"Polygon","coordinates":[[[-42.072,-21.3781],[-42.0758,-21.3724],[-42.0717,-21.3784],[-42.072,-21.3781]]]}},{"type":"Feature","properties":{"cod_tema":"AREA_UTILIDADE_PUBLICA","cod_imovel":"RJ-3303005-EC8C913D63394EE7ADADD03A8E9FB32E","num_area":"0.4237000000000000000000000000000","ind_status":"AT"},"geometry":{"type":"Polygon","coordinates":[[[-42.1197,-21.4464],[-42.1265,-21.4423],[-42.1199,-21.4463],[-42.1197,-21.4464]]]}},{"type":"Feature","properties":{"cod_tema":"AREA_SERVIDAO_ADMINISTRATIVA_TOTAL","cod_imovel":"RJ-3303005-EC8C913D63394EE7ADADD03A8E9FB32E","num_area":"0.4237000000000000000000000000000","ind_status":"AT"},"geometry":{"type":"Polygon","coordinates":[[[-42.1197,-21.4464],[-42.1265,-21.4423],[-42.1199,-21.4463],[-42.1197,-21.4464]]]}},{"type":"Feature","properties":{"cod_tema":"AREA_UTILIDADE_PUBLICA","cod_imovel":"RJ-3303005-EC9A0DAB7E0E4FAAAF0FB660F1CAD35A","num_area":"0.1816000000000000000000000000000","ind_status":"AT"},"geometry":{"type":"Polygon","coordinates":[[[-42.1545,-21.4687],[-42.1573,-21.4669],[-42.1545,-21.4687],[-42.1545,-21.4687]]]}},{"type":"Feature","properties":{"cod_tema":"AREA_SERVIDAO_ADMINISTRATIVA_TOTAL","cod_imovel":"RJ-3303005-EC9A0DAB7E0E4FAAAF0FB660F1CAD35A","num_area":"0.1816000000000000000000000000000","ind_status":"AT"},"geometry":{"type":"Polygon","coordinates":[[[-42.1545,-21.4687],[-42.1573,-21.4669],[-42.1545,-21.4687],[-42.1545,-21.4687]]]}},{"type":"Feature","properties":{"cod_tema":"AREA_UTILIDADE_PUBLICA","cod_imovel":"RJ-3303005-EDEF3824DE0F4C25A8AA5C370FB3B4AA","num_area":"1.0433000000000000000000000000000","ind_status":"AT"},"geometry":{"type":"Polygon","coordinates":[[[-42.2706,-21.4361],[-42.2646,-21.4354],[-42.2706,-21.4361],[-42.2706,-21.4361]],[[-42.2761,-21.4333],[-42.268,-21.4332],[-42.2758,-21.4337],[-42.2761,-21.4333]]]}},{"type":"Feature","properties":{"cod_tema":"AREA_SERVIDAO_ADMINISTRATIVA_TOTAL","cod_imovel":"RJ-3303005-EDEF3824DE0F4C25A8AA5C370FB3B4AA","num_area":"1.0433000000000000000000000000000","ind_status":"AT"},"geometry":{"type":"Polygon","coordinates":[[[-42.2706,-21.4361],[-42.2646,-21.4354],[-42.2706,-21.4361],[-42.2706,-21.4361]],[[-42.2761,-21.4333],[-42.268,-21.4332],[-42.2758,-21.4337],[-42.2761,-21.4333]]]}},{"type":"Feature","properties":{"cod_tema":"AREA_UTILIDADE_PUBLICA","cod_imovel":"RJ-3303005-F022E59F3C98463094C05D0DE49B1BD5","num_area":"0.4013000000000000000000000000000","ind_status":"AT"},"geometry":{"type":"Polygon","coordinates":[[[-42.1938,-21.4505],[-42.188,-21.4524],[-42.1936,-21.4506],[-42.1938,-21.4505]]]}},{"type":"Feature","properties":{"cod_tema":"AREA_SERVIDAO_ADMINISTRATIVA_TOTAL","cod_imovel":"RJ-3303005-F022E59F3C98463094C05D0DE49B1BD5","num_area":"0.4013000000000000000000000000000","ind_status":"AT"},"geometry":{"type":"Polygon","coordinates":[[[-42.1938,-21.4505],[-42.188,-21.4524],[-42.1936,-21.4506],[-42.1938,-21.4505]]]}},{"type":"Feature","properties":{"cod_tema":"AREA_UTILIDADE_PUBLICA","cod_imovel":"RJ-3303005-F0D367F4085549BE8C6DB695C4FD6F0E","num_area":"0.2193000000000000000000000000000","ind_status":"AT"},"geometry":{"type":"Polygon","coordinates":[[[-42.1649,-21.354],[-42.1621,-21.3523],[-42.1649,-21.354],[-42.1649,-21.354]]]}},{"type":"Feature","properties":{"cod_tema":"AREA_SERVIDAO_ADMINISTRATIVA_TOTAL","cod_imovel":"RJ-3303005-F0D367F4085549BE8C6DB695C4FD6F0E","num_area":"0.2193000000000000000000000000000","ind_status":"AT"},"geometry":{"type":"Polygon","coordinates":[[[-42.1649,-21.354],[-42.1621,-21.3523],[-42.1649,-21.354],[-42.1649,-21.354]]]}},{"type":"Feature","properties":{"cod_tema":"AREA_UTILIDADE_PUBLICA","cod_imovel":"RJ-3303005-F262BA9E46984D04B15E80C6DB93E138","num_area":"0.5081000000000000000000000000000","ind_status":"AT"},"geometry":{"type":"Polygon","coordinates":[[[-42.1806,-21.4006],[-42.1757,-21.4003],[-42.1806,-21.4006],[-42.1806,-21.4006]]]}},{"type":"Feature","properties":{"cod_tema":"AREA_SERVIDAO_ADMINISTRATIVA_TOTAL","cod_imovel":"RJ-3303005-F262BA9E46984D04B15E80C6DB93E138","num_area":"0.5081000000000000000000000000000","ind_status":"AT"},"geometry":{"type":"Polygon","coordinates":[[[-42.1806,-21.4006],[-42.1757,-21.4003],[-42.1806,-21.4006],[-42.1806,-21.4006]]]}},{"type":"Feature","properties":{"cod_tema":"AREA_INFRAESTRUTURA_PUBLICA","cod_imovel":"RJ-3303005-F3B57EF1191548D88BD832AC3CC8A11B","num_area":"0.5709000000000000000000000000000","ind_status":"AT"},"geometry":{"type":"Polygon","coordinates":[[[-42.0854,-21.4404],[-42.0864,-21.4436],[-42.0846,-21.4398],[-42.0814,-21.4433],[-42.0852,-21.4402],[-42.0854,-21.4404]]]}},{"type":"Feature","properties":{"cod_tema":"AREA_SERVIDAO_ADMINISTRATIVA_TOTAL","cod_imovel":"RJ-3303005-F3B57EF1191548D88BD832AC3CC8A11B","num_area":"0.5709000000000000000000000000000","ind_status":"AT"},"geometry":{"type":"Polygon","coordinates":[[[-42.0854,-21.4404],[-42.0864,-21.4436],[-42.0846,-21.4398],[-42.0814,-21.4433],[-42.0852,-21.4402],[-42.0854,-21.4404]]]}},{"type":"Feature","properties":{"cod_tema":"AREA_INFRAESTRUTURA_PUBLICA","cod_imovel":"RJ-3303005-F99C86866820475086622D66B8627B51","num_area":"0.2613000000000000000000000000000","ind_status":"AT"},"geometry":{"type":"Polygon","coordinates":[[[-42.1414,-21.4034],[-42.1436,-21.3999],[-42.1414,-21.4034],[-42.1414,-21.4034]]]}},{"type":"Feature","properties":{"cod_tema":"AREA_SERVIDAO_ADMINISTRATIVA_TOTAL","cod_imovel":"RJ-3303005-F99C86866820475086622D66B8627B51","num_area":"0.2613000000000000000000000000000","ind_status":"AT"},"geometry":{"type":"Polygon","coordinates":[[[-42.1414,-21.4034],[-42.1436,-21.3999],[-42.1414,-21.4034],[-42.1414,-21.4034]]]}},{"type":"Feature","properties":{"cod_tema":"AREA_INFRAESTRUTURA_PUBLICA","cod_imovel":"RJ-3303005-FDA5F2EDED434B2C83D328F33532E04B","num_area":"5.5095000000000000000000000000000","ind_status":"PE"},"geometry":{"type":"Polygon","coordinates":[[[-42.1992,-21.4601],[-42.1964,-21.4687],[-42.1992,-21.4601],[-42.1992,-21.4601]]]}},{"type":"Feature","properties":{"cod_tema":"AREA_UTILIDADE_PUBLICA","cod_imovel":"RJ-3303005-FDA5F2EDED434B2C83D328F33532E04B","num_area":"0.0914000000000000000000000000000","ind_status":"PE"},"geometry":{"type":"Polygon","coordinates":[[[-42.1963,-21.4687],[-42.1983,-21.4601],[-42.1976,-21.4633],[-42.1963,-21.4687]]]}},{"type":"Feature","properties":{"cod_tema":"AREA_SERVIDAO_ADMINISTRATIVA_TOTAL","cod_imovel":"RJ-3303005-FDA5F2EDED434B2C83D328F33532E04B","num_area":"5.5631000000000000000000000000000","ind_status":"PE"},"geometry":{"type":"Polygon","coordinates":[[[-42.1963,-21.4687],[-42.1992,-21.4601],[-42.1964,-21.4684],[-42.1963,-21.4687]]]}},{"type":"Feature","properties":{"cod_tema":"AREA_UTILIDADE_PUBLICA","cod_imovel":"RJ-3303005-FE34BCAA9F214894BCDB5316BC1708D9","num_area":"0.9283000000000000000000000000000","ind_status":"AT"},"geometry":{"type":"Polygon","coordinates":[[[-42.1504,-21.4338],[-42.1577,-21.4331],[-42.1534,-21.4299],[-42.1575,-21.4342],[-42.1504,-21.4338],[-42.1504,-21.4338]]]}},{"type":"Feature","properties":{"cod_tema":"AREA_SERVIDAO_ADMINISTRATIVA_TOTAL","cod_imovel":"RJ-3303005-FE34BCAA9F214894BCDB5316BC1708D9","num_area":"0.9283000000000000000000000000000","ind_status":"AT"},"geometry":{"type":"Polygon","coordinates":[[[-42.1504,-21.4338],[-42.1577,-21.4331],[-42.1534,-21.4299],[-42.1575,-21.4342],[-42.1504,-21.4338],[-42.1504,-21.4338]]]}},{"type":"Feature","properties":{"cod_tema":"AREA_UTILIDADE_PUBLICA","cod_imovel":"RJ-3303005-15882E7C31924B739267B489498A70C2","num_area":"0.3162000000000000000000000000000","ind_status":"AT"},"geometry":{"type":"Polygon","coordinates":[[[-42.243,-21.45],[-42.2472,-21.4464],[-42.243,-21.4499],[-42.243,-21.45]]]}},{"type":"Feature","properties":{"cod_tema":"AREA_SERVIDAO_ADMINISTRATIVA_TOTAL","cod_imovel":"RJ-3303005-15882E7C31924B739267B489498A70C2","num_area":"0.3162000000000000000000000000000","ind_status":"AT"},"geometry":{"type":"Polygon","coordinates":[[[-42.243,-21.45],[-42.2472,-21.4464],[-42.243,-21.4499],[-42.243,-21.45]]]}},{"type":"Feature","properties":{"cod_tema":"AREA_UTILIDADE_PUBLICA","cod_imovel":"RJ-3303005-11200CA8C722473A8DDEC4E98F4160C8","num_area":"0.7230000000000000000000000000000","ind_status":"AT"},"geometry":{"type":"Polygon","coordinates":[[[-42.2378,-21.4525],[-42.2317,-21.4528],[-42.2376,-21.4523],[-42.2378,-21.4525]]]}},{"type":"Feature","properties":{"cod_tema":"AREA_SERVIDAO_ADMINISTRATIVA_TOTAL","cod_imovel":"RJ-3303005-11200CA8C722473A8DDEC4E98F4160C8","num_area":"0.7230000000000000000000000000000","ind_status":"AT"},"geometry":{"type":"Polygon","coordinates":[[[-42.2378,-21.4525],[-42.2317,-21.4528],[-42.2376,-21.4523],[-42.2378,-21.4525]]]}},{"type":"Feature","properties":{"cod_tema":"AREA_UTILIDADE_PUBLICA","cod_imovel":"RJ-3303005-8A1C2F1C2DC3458DAA053FBA91253EA4","num_area":"1.0977000000000000000000000000000","ind_status":"AT"},"geometry":{"type":"Polygon","coordinates":[[[-42.2189,-21.3625],[-42.2153,-21.361],[-42.2188,-21.3626],[-42.2189,-21.3625]],[[-42.2251,-21.3651],[-42.2205,-21.3678],[-42.2251,-21.3652],[-42.2251,-21.3651]]]}},{"type":"Feature","properties":{"cod_tema":"AREA_SERVIDAO_ADMINISTRATIVA_TOTAL","cod_imovel":"RJ-3303005-8A1C2F1C2DC3458DAA053FBA91253EA4","num_area":"1.0977000000000000000000000000000","ind_status":"AT"},"geometry":{"type":"Polygon","coordinates":[[[-42.2189,-21.3625],[-42.2153,-21.361],[-42.2188,-21.3626],[-42.2189,-21.3625]],[[-42.2251,-21.3651],[-42.2205,-21.3678],[-42.2251,-21.3652],[-42.2251,-21.3651]]]}},{"type":"Feature","properties":{"cod_tema":"AREA_UTILIDADE_PUBLICA","cod_imovel":"RJ-3303005-6B7514BD8E644CACA88F2DDFD2EFEF54","num_area":"2.4544000000000000000000000000000","ind_status":"AT"},"geometry":{"type":"Polygon","coordinates":[[[-42.1413,-21.4647],[-42.1536,-21.4556],[-42.1434,-21.4617],[-42.1447,-21.4526],[-42.1518,-21.4516],[-42.1403,-21.4516],[-42.1457,-21.4518],[-42.1414,-21.4646],[-42.1413,-21.4647]]]}},{"type":"Feature","properties":{"cod_tema":"AREA_SERVIDAO_ADMINISTRATIVA_TOTAL","cod_imovel":"RJ-3303005-6B7514BD8E644CACA88F2DDFD2EFEF54","num_area":"2.4544000000000000000000000000000","ind_status":"AT"},"geometry":{"type":"Polygon","coordinates":[[[-42.1413,-21.4647],[-42.1536,-21.4556],[-42.1434,-21.4617],[-42.1447,-21.4526],[-42.1518,-21.4516],[-42.1403,-21.4516],[-42.1457,-21.4518],[-42.1414,-21.4646],[-42.1413,-21.4647]]]}},{"type":"Feature","properties":{"cod_tema":"AREA_UTILIDADE_PUBLICA","cod_imovel":"RJ-3303005-E049B45470574F9F9DC63490E108D1A5","num_area":"0.3062000000000000000000000000000","ind_status":"AT"},"geometry":{"type":"Polygon","coordinates":[[[-42.1208,-21.3929],[-42.1155,-21.3946],[-42.1208,-21.3929],[-42.1208,-21.3929]]]}},{"type":"Feature","properties":{"cod_tema":"AREA_SERVIDAO_ADMINISTRATIVA_TOTAL","cod_imovel":"RJ-3303005-E049B45470574F9F9DC63490E108D1A5","num_area":"0.3062000000000000000000000000000","ind_status":"AT"},"geometry":{"type":"Polygon","coordinates":[[[-42.1208,-21.3929],[-42.1155,-21.3946],[-42.1208,-21.3929],[-42.1208,-21.3929]]]}},{"type":"Feature","properties":{"cod_tema":"AREA_INFRAESTRUTURA_PUBLICA","cod_imovel":"RJ-3303005-335E49B6193E4B18A4BCB368E3C426C6","num_area":"0.6907000000000000000000000000000","ind_status":"AT"},"geometry":{"type":"Polygon","coordinates":[[[-42.0925,-21.3705],[-42.0833,-21.3745],[-42.0924,-21.3704],[-42.0925,-21.3705]]]}},{"type":"Feature","properties":{"cod_tema":"AREA_SERVIDAO_ADMINISTRATIVA_TOTAL","cod_imovel":"RJ-3303005-335E49B6193E4B18A4BCB368E3C426C6","num_area":"0.6907000000000000000000000000000","ind_status":"AT"},"geometry":{"type":"Polygon","coordinates":[[[-42.0925,-21.3705],[-42.0833,-21.3745],[-42.0924,-21.3704],[-42.0925,-21.3705]]]}},{"type":"Feature","properties":{"cod_tema":"AREA_UTILIDADE_PUBLICA","cod_imovel":"RJ-3303005-D2B56C262B7D4290A34CF138A94942DD","num_area":"0.4798000000000000000000000000000","ind_status":"AT"},"geometry":{"type":"Polygon","coordinates":[[[-42.2261,-21.4083],[-42.2223,-21.4064],[-42.2261,-21.4083],[-42.2261,-21.4083]]]}},{"type":"Feature","properties":{"cod_tema":"AREA_SERVIDAO_ADMINISTRATIVA_TOTAL","cod_imovel":"RJ-3303005-D2B56C262B7D4290A34CF138A94942DD","num_area":"0.4798000000000000000000000000000","ind_status":"AT"},"geometry":{"type":"Polygon","coordinates":[[[-42.2261,-21.4083],[-42.2223,-21.4064],[-42.2261,-21.4083],[-42.2261,-21.4083]]]}},{"type":"Feature","properties":{"cod_tema":"AREA_UTILIDADE_PUBLICA","cod_imovel":"RJ-3303005-F101942CFC0D45E2800A468E667EA9C9","num_area":"2.6313000000000000000000000000000","ind_status":"AT"},"geometry":{"type":"Polygon","coordinates":[[[-42.2386,-21.4398],[-42.2462,-21.4313],[-42.2408,-21.4322],[-42.2365,-21.4257],[-42.2433,-21.435],[-42.2393,-21.4395],[-42.2386,-21.4398]]]}},{"type":"Feature","properties":{"cod_tema":"AREA_SERVIDAO_ADMINISTRATIVA_TOTAL","cod_imovel":"RJ-3303005-F101942CFC0D45E2800A468E667EA9C9","num_area":"2.6313000000000000000000000000000","ind_status":"AT"},"geometry":{"type":"Polygon","coordinates":[[[-42.2386,-21.4398],[-42.2462,-21.4313],[-42.2408,-21.4322],[-42.2365,-21.4257],[-42.2433,-21.435],[-42.2393,-21.4395],[-42.2386,-21.4398]]]}},{"type":"Feature","properties":{"cod_tema":"AREA_INFRAESTRUTURA_PUBLICA","cod_imovel":"RJ-3303005-0C26CCB60C644CA3BA7DDB7CFC91D3D8","num_area":"0.4039000000000000000000000000000","ind_status":"AT"},"geometry":{"type":"Polygon","coordinates":[[[-42.1189,-21.4459],[-42.1166,-21.4503],[-42.1189,-21.4459],[-42.1189,-21.4459]]]}},{"type":"Feature","properties":{"cod_tema":"AREA_SERVIDAO_ADMINISTRATIVA_TOTAL","cod_imovel":"RJ-3303005-0C26CCB60C644CA3BA7DDB7CFC91D3D8","num_area":"0.4039000000000000000000000000000","ind_status":"AT"},"geometry":{"type":"Polygon","coordinates":[[[-42.1189,-21.4459],[-42.1166,-21.4503],[-42.1189,-21.4459],[-42.1189,-21.4459]]]}},{"type":"Feature","properties":{"cod_tema":"AREA_UTILIDADE_PUBLICA","cod_imovel":"RJ-3303005-2D23C175F2764CE59A3DDDA84D946E48","num_area":"0.1745000000000000000000000000000","ind_status":"CA"},"geometry":{"type":"Polygon","coordinates":[[[-42.1587,-21.4549],[-42.1582,-21.4583],[-42.1589,-21.455],[-42.1587,-21.4549]]]}},{"type":"Feature","properties":{"cod_tema":"AREA_SERVIDAO_ADMINISTRATIVA_TOTAL","cod_imovel":"RJ-3303005-2D23C175F2764CE59A3DDDA84D946E48","num_area":"0.1745000000000000000000000000000","ind_status":"CA"},"geometry":{"type":"Polygon","coordinates":[[[-42.1587,-21.4549],[-42.1582,-21.4583],[-42.1589,-21.455],[-42.1587,-21.4549]]]}},{"type":"Feature","properties":{"cod_tema":"AREA_UTILIDADE_PUBLICA","cod_imovel":"RJ-3303005-7FCE4B8EB99546438E7AF69B18E5EC93","num_area":"0.3889000000000000000000000000000","ind_status":"AT"},"geometry":{"type":"Polygon","coordinates":[[[-42.0952,-21.4546],[-42.0916,-21.452],[-42.0952,-21.4546],[-42.0952,-21.4546]]]}},{"type":"Feature","properties":{"cod_tema":"AREA_SERVIDAO_ADMINISTRATIVA_TOTAL","cod_imovel":"RJ-3303005-7FCE4B8EB99546438E7AF69B18E5EC93","num_area":"0.3889000000000000000000000000000","ind_status":"AT"},"geometry":{"type":"Polygon","coordinates":[[[-42.0952,-21.4546],[-42.0916,-21.452],[-42.0952,-21.4546],[-42.0952,-21.4546]]]}},{"type":"Feature","properties":{"cod_tema":"AREA_UTILIDADE_PUBLICA","cod_imovel":"RJ-3303005-A6F5554C6D00492E84DC63E71DE0344A","num_area":"0.7929000000000000000000000000000","ind_status":"AT"},"geometry":{"type":"Polygon","coordinates":[[[-42.2318,-21.4188],[-42.2365,-21.4256],[-42.2319,-21.419],[-42.2318,-21.4188]]]}},{"type":"Feature","properties":{"cod_tema":"AREA_SERVIDAO_ADMINISTRATIVA_TOTAL","cod_imovel":"RJ-3303005-A6F5554C6D00492E84DC63E71DE0344A","num_area":"0.7929000000000000000000000000000","ind_status":"AT"},"geometry":{"type":"Polygon","coordinates":[[[-42.2318,-21.4188],[-42.2365,-21.4256],[-42.2319,-21.419],[-42.2318,-21.4188]]]}},{"type":"Feature","properties":{"cod_tema":"AREA_UTILIDADE_PUBLICA","cod_imovel":"RJ-3303005-C590489E3FBC489B87259830E1924830","num_area":"0.3924000000000000000000000000000","ind_status":"AT"},"geometry":{"type":"Polygon","coordinates":[[[-42.0878,-21.4125],[-42.0915,-21.4164],[-42.0879,-21.4125],[-42.0878,-21.4125]]]}},{"type":"Feature","properties":{"cod_tema":"AREA_SERVIDAO_ADMINISTRATIVA_TOTAL","cod_imovel":"RJ-3303005-C590489E3FBC489B87259830E1924830","num_area":"0.3924000000000000000000000000000","ind_status":"AT"},"geometry":{"type":"Polygon","coordinates":[[[-42.0878,-21.4125],[-42.0915,-21.4164],[-42.0879,-21.4125],[-42.0878,-21.4125]]]}},{"type":"Feature","properties":{"cod_tema":"AREA_UTILIDADE_PUBLICA","cod_imovel":"RJ-3303005-74990E4DEA504B4AB6175781DCFE347A","num_area":"0.3393000000000000000000000000000","ind_status":"AT"},"geometry":{"type":"Polygon","coordinates":[[[-42.1694,-21.4659],[-42.1722,-21.4634],[-42.1696,-21.4657],[-42.1694,-21.4659]]]}},{"type":"Feature","properties":{"cod_tema":"AREA_SERVIDAO_ADMINISTRATIVA_TOTAL","cod_imovel":"RJ-3303005-74990E4DEA504B4AB6175781DCFE347A","num_area":"0.3393000000000000000000000000000","ind_status":"AT"},"geometry":{"type":"Polygon","coordinates":[[[-42.1694,-21.4659],[-42.1722,-21.4634],[-42.1696,-21.4657],[-42.1694,-21.4659]]]}},{"type":"Feature","properties":{"cod_tema":"AREA_UTILIDADE_PUBLICA","cod_imovel":"RJ-3303005-CA5506DA45AA44AD881BFE6FCE120B67","num_area":"0.2538000000000000000000000000000","ind_status":"AT"},"geometry":{"type":"Polygon","coordinates":[[[-42.2242,-21.3727],[-42.2215,-21.3716],[-42.2242,-21.3727],[-42.2242,-21.3727]]]}},{"type":"Feature","properties":{"cod_tema":"AREA_SERVIDAO_ADMINISTRATIVA_TOTAL","cod_imovel":"RJ-3303005-CA5506DA45AA44AD881BFE6FCE120B67","num_area":"0.2538000000000000000000000000000","ind_status":"AT"},"geometry":{"type":"Polygon","coordinates":[[[-42.2242,-21.3727],[-42.2215,-21.3716],[-42.2242,-21.3727],[-42.2242,-21.3727]]]}},{"type":"Feature","properties":{"cod_tema":"AREA_UTILIDADE_PUBLICA","cod_imovel":"RJ-3303005-EDA09991E6FF461DB01C5A87F74F16D9","num_area":"0.3493000000000000000000000000000","ind_status":"AT"},"geometry":{"type":"Polygon","coordinates":[[[-42.1867,-21.378],[-42.1914,-21.3788],[-42.1859,-21.3779],[-42.1867,-21.378]]]}},{"type":"Feature","properties":{"cod_tema":"AREA_SERVIDAO_ADMINISTRATIVA_TOTAL","cod_imovel":"RJ-3303005-EDA09991E6FF461DB01C5A87F74F16D9","num_area":"0.3493000000000000000000000000000","ind_status":"AT"},"geometry":{"type":"Polygon","coordinates":[[[-42.1867,-21.378],[-42.1914,-21.3788],[-42.1859,-21.3779],[-42.1867,-21.378]]]}},{"type":"Feature","properties":{"cod_tema":"AREA_INFRAESTRUTURA_PUBLICA","cod_imovel":"RJ-3303005-E4477453CF4642F1A2ED9B5381632344","num_area":"1.0677000000000000000000000000000","ind_status":"AT"},"geometry":{"type":"Polygon","coordinates":[[[-42.149,-21.3408],[-42.1558,-21.332],[-42.149,-21.3406],[-42.149,-21.3408]]]}},{"type":"Feature","properties":{"cod_tema":"AREA_SERVIDAO_ADMINISTRATIVA_TOTAL","cod_imovel":"RJ-3303005-E4477453CF4642F1A2ED9B5381632344","num_area":"1.0677000000000000000000000000000","ind_status":"AT"},"geometry":{"type":"Polygon","coordinates":[[[-42.149,-21.3408],[-42.1558,-21.332],[-42.149,-21.3406],[-42.149,-21.3408]]]}},{"type":"Feature","properties":{"cod_tema":"AREA_INFRAESTRUTURA_PUBLICA","cod_imovel":"RJ-3303005-19584B23F76C4CD38FC122E094D5DD5A","num_area":"0.4900000000000000000000000000000","ind_status":"AT"},"geometry":{"type":"Polygon","coordinates":[[[-42.1527,-21.3699],[-42.1495,-21.3682],[-42.1524,-21.3703],[-42.1527,-21.3699]]]}},{"type":"Feature","properties":{"cod_tema":"AREA_SERVIDAO_ADMINISTRATIVA_TOTAL","cod_imovel":"RJ-3303005-19584B23F76C4CD38FC122E094D5DD5A","num_area":"0.4900000000000000000000000000000","ind_status":"AT"},"geometry":{"type":"Polygon","coordinates":[[[-42.1527,-21.3699],[-42.1495,-21.3682],[-42.1524,-21.3703],[-42.1527,-21.3699]]]}},{"type":"Feature","properties":{"cod_tema":"AREA_INFRAESTRUTURA_PUBLICA","cod_imovel":"RJ-3303005-3CD3B76C6BAD4A07AB1323D8CEB899CF","num_area":"0.6834000000000000000000000000000","ind_status":"AT"},"geometry":{"type":"Polygon","coordinates":[[[-42.1478,-21.3428],[-42.1439,-21.344],[-42.1478,-21.3428],[-42.1478,-21.3428]]]}},{"type":"Feature","properties":{"cod_tema":"AREA_SERVIDAO_ADMINISTRATIVA_TOTAL","cod_imovel":"RJ-3303005-3CD3B76C6BAD4A07AB1323D8CEB899CF","num_area":"0.6834000000000000000000000000000","ind_status":"AT"},"geometry":{"type":"Polygon","coordinates":[[[-42.1478,-21.3428],[-42.1439,-21.344],[-42.1478,-21.3428],[-42.1478,-21.3428]]]}},{"type":"Feature","properties":{"cod_tema":"AREA_UTILIDADE_PUBLICA","cod_imovel":"RJ-3303005-5810BD2C7A19499180E356B15DD7ED0C","num_area":"0.7722000000000000000000000000000","ind_status":"CA"},"geometry":{"type":"Polygon","coordinates":[[[-42.2381,-21.4524],[-42.238,-21.4461],[-42.2381,-21.4524],[-42.2381,-21.4524]],[[-42.2369,-21.4425],[-42.2377,-21.4462],[-42.2369,-21.4425],[-42.2369,-21.4425]]]}},{"type":"Feature","properties":{"cod_tema":"AREA_SERVIDAO_ADMINISTRATIVA_TOTAL","cod_imovel":"RJ-3303005-5810BD2C7A19499180E356B15DD7ED0C","num_area":"0.7722000000000000000000000000000","ind_status":"CA"},"geometry":{"type":"Polygon","coordinates":[[[-42.2381,-21.4524],[-42.238,-21.4461],[-42.2381,-21.4524],[-42.2381,-21.4524]],[[-42.2369,-21.4425],[-42.2377,-21.4462],[-42.2369,-21.4425],[-42.2369,-21.4425]]]}},{"type":"Feature","properties":{"cod_tema":"AREA_UTILIDADE_PUBLICA","cod_imovel":"RJ-3303005-EC03EC9F29694C5E8FBA1903F34F2D48","num_area":"0.4636000000000000000000000000000","ind_status":"PE"},"geometry":{"type":"Polygon","coordinates":[[[-42.1386,-21.4202],[-42.1421,-21.4255],[-42.1386,-21.4202],[-42.1386,-21.4202]]]}},{"type":"Feature","properties":{"cod_tema":"AREA_SERVIDAO_ADMINISTRATIVA_TOTAL","cod_imovel":"RJ-3303005-EC03EC9F29694C5E8FBA1903F34F2D48","num_area":"0.4636000000000000000000000000000","ind_status":"PE"},"geometry":{"type":"Polygon","coordinates":[[[-42.1386,-21.4202],[-42.1421,-21.4255],[-42.1386,-21.4202],[-42.1386,-21.4202]]]}},{"type":"Feature","properties":{"cod_tema":"AREA_UTILIDADE_PUBLICA","cod_imovel":"RJ-3303005-BC82CEB7A9BC430B9BD548D05EA6AB79","num_area":"0.4098000000000000000000000000000","ind_status":"AT"},"geometry":{"type":"Polygon","coordinates":[[[-42.0771,-21.4278],[-42.0791,-21.4316],[-42.0772,-21.4279],[-42.0771,-21.4278]]]}},{"type":"Feature","properties":{"cod_tema":"AREA_SERVIDAO_ADMINISTRATIVA_TOTAL","cod_imovel":"RJ-3303005-BC82CEB7A9BC430B9BD548D05EA6AB79","num_area":"0.4098000000000000000000000000000","ind_status":"AT"},"geometry":{"type":"Polygon","coordinates":[[[-42.0771,-21.4278],[-42.0791,-21.4316],[-42.0772,-21.4279],[-42.0771,-21.4278]]]}},{"type":"Feature","properties":{"cod_tema":"AREA_UTILIDADE_PUBLICA","cod_imovel":"RJ-3303005-AAD3722544894A65ADFF69814CA9B05D","num_area":"0.2127000000000000000000000000000","ind_status":"AT"},"geometry":{"type":"Polygon","coordinates":[[[-42.108,-21.4548],[-42.1084,-21.4585],[-42.108,-21.4548],[-42.108,-21.4548]]]}},{"type":"Feature","properties":{"cod_tema":"AREA_SERVIDAO_ADMINISTRATIVA_TOTAL","cod_imovel":"RJ-3303005-AAD3722544894A65ADFF69814CA9B05D","num_area":"0.2127000000000000000000000000000","ind_status":"AT"},"geometry":{"type":"Polygon","coordinates":[[[-42.108,-21.4548],[-42.1084,-21.4585],[-42.108,-21.4548],[-42.108,-21.4548]]]}},{"type":"Feature","properties":{"cod_tema":"AREA_UTILIDADE_PUBLICA","cod_imovel":"RJ-3303005-BE844A39247F4D03A950D0F72797E7E5","num_area":"0.2013000000000000000000000000000","ind_status":"PE"},"geometry":{"type":"Polygon","coordinates":[[[-42.2021,-21.4262],[-42.1942,-21.4219],[-42.2006,-21.4261],[-42.2021,-21.4262]]]}},{"type":"Feature","properties":{"cod_tema":"AREA_SERVIDAO_ADMINISTRATIVA_TOTAL","cod_imovel":"RJ-3303005-BE844A39247F4D03A950D0F72797E7E5","num_area":"0.2013000000000000000000000000000","ind_status":"PE"},"geometry":{"type":"Polygon","coordinates":[[[-42.2021,-21.4262],[-42.1942,-21.4219],[-42.2006,-21.4261],[-42.2021,-21.4262]]]}},{"type":"Feature","properties":{"cod_tema":"AREA_INFRAESTRUTURA_PUBLICA","cod_imovel":"RJ-3303005-5D576776B732414BBDE45073B4CC7FC8","num_area":"0.4452000000000000000000000000000","ind_status":"AT"},"geometry":{"type":"Polygon","coordinates":[[[-42.1665,-21.322],[-42.1663,-21.3151],[-42.1665,-21.322],[-42.1665,-21.322]]]}},{"type":"Feature","properties":{"cod_tema":"AREA_SERVIDAO_ADMINISTRATIVA_TOTAL","cod_imovel":"RJ-3303005-5D576776B732414BBDE45073B4CC7FC8","num_area":"0.4452000000000000000000000000000","ind_status":"AT"},"geometry":{"type":"Polygon","coordinates":[[[-42.1665,-21.322],[-42.1663,-21.3151],[-42.1665,-21.322],[-42.1665,-21.322]]]}},{"type":"Feature","properties":{"cod_tema":"AREA_UTILIDADE_PUBLICA","cod_imovel":"RJ-3303005-97E2742FE09843BD86BB9A9CA968455A","num_area":"0.5524000000000000000000000000000","ind_status":"AT"},"geometry":{"type":"Polygon","coordinates":[[[-42.1357,-21.3207],[-42.1345,-21.3171],[-42.1354,-21.3207],[-42.1357,-21.3207]]]}},{"type":"Feature","properties":{"cod_tema":"AREA_SERVIDAO_ADMINISTRATIVA_TOTAL","cod_imovel":"RJ-3303005-97E2742FE09843BD86BB9A9CA968455A","num_area":"0.5524000000000000000000000000000","ind_status":"AT"},"geometry":{"type":"Polygon","coordinates":[[[-42.1357,-21.3207],[-42.1345,-21.3171],[-42.1354,-21.3207],[-42.1357,-21.3207]]]}},{"type":"Feature","properties":{"cod_tema":"AREA_UTILIDADE_PUBLICA","cod_imovel":"RJ-3303005-4BB8C358FD8640C7A2AA381E4EBC82F8","num_area":"2.3260000000000000000000000000000","ind_status":"AT"},"geometry":{"type":"Polygon","coordinates":[[[-42.169,-21.3238],[-42.1558,-21.3319],[-42.1678,-21.3234],[-42.1734,-21.3307],[-42.1779,-21.33],[-42.1735,-21.3306],[-42.169,-21.3238],[-42.169,-21.3238]]]}},{"type":"Feature","properties":{"cod_tema":"AREA_SERVIDAO_ADMINISTRATIVA_TOTAL","cod_imovel":"RJ-3303005-4BB8C358FD8640C7A2AA381E4EBC82F8","num_area":"2.3260000000000000000000000000000","ind_status":"AT"},"geometry":{"type":"Polygon","coordinates":[[[-42.169,-21.3238],[-42.1558,-21.3319],[-42.1678,-21.3234],[-42.1734,-21.3307],[-42.1779,-21.33],[-42.1735,-21.3306],[-42.169,-21.3238],[-42.169,-21.3238]]]}},{"type":"Feature","properties":{"cod_tema":"AREA_UTILIDADE_PUBLICA","cod_imovel":"RJ-3303005-CAF187F0DBC04F159A11A1FD6D58E91C","num_area":"0.8051000000000000000000000000000","ind_status":"AT"},"geometry":{"type":"Polygon","coordinates":[[[-42.1889,-21.3352],[-42.1976,-21.3378],[-42.1889,-21.3352],[-42.1889,-21.3352]]]}},{"type":"Feature","properties":{"cod_tema":"AREA_SERVIDAO_ADMINISTRATIVA_TOTAL","cod_imovel":"RJ-3303005-CAF187F0DBC04F159A11A1FD6D58E91C","num_area":"0.8051000000000000000000000000000","ind_status":"AT"},"geometry":{"type":"Polygon","coordinates":[[[-42.1889,-21.3352],[-42.1976,-21.3378],[-42.1889,-21.3352],[-42.1889,-21.3352]]]}},{"type":"Feature","properties":{"cod_tema":"AREA_UTILIDADE_PUBLICA","cod_imovel":"RJ-3303005-D1A6F947A85E415FAF0D6B84E144DBCA","num_area":"1.1257000000000000000000000000000","ind_status":"AT"},"geometry":{"type":"Polygon","coordinates":[[[-42.1021,-21.3929],[-42.1081,-21.3896],[-42.1076,-21.3802],[-42.108,-21.3896],[-42.1029,-21.3928],[-42.1021,-21.3929]]]}},{"type":"Feature","properties":{"cod_tema":"AREA_SERVIDAO_ADMINISTRATIVA_TOTAL","cod_imovel":"RJ-3303005-D1A6F947A85E415FAF0D6B84E144DBCA","num_area":"1.1257000000000000000000000000000","ind_status":"AT"},"geometry":{"type":"Polygon","coordinates":[[[-42.1021,-21.3929],[-42.1081,-21.3896],[-42.1076,-21.3802],[-42.108,-21.3896],[-42.1029,-21.3928],[-42.1021,-21.3929]]]}},{"type":"Feature","properties":{"cod_tema":"AREA_INFRAESTRUTURA_PUBLICA","cod_imovel":"RJ-3303005-7C623A868598485AAFD7C8895C9B47B3","num_area":"0.8916000000000000000000000000000","ind_status":"PE"},"geometry":{"type":"Polygon","coordinates":[[[-42.1615,-21.3545],[-42.154,-21.3553],[-42.1614,-21.3545],[-42.1615,-21.3545]]]}},{"type":"Feature","properties":{"cod_tema":"AREA_SERVIDAO_ADMINISTRATIVA_TOTAL","cod_imovel":"RJ-3303005-7C623A868598485AAFD7C8895C9B47B3","num_area":"0.8916000000000000000000000000000","ind_status":"PE"},"geometry":{"type":"Polygon","coordinates":[[[-42.1615,-21.3545],[-42.154,-21.3553],[-42.1614,-21.3545],[-42.1615,-21.3545]]]}},{"type":"Feature","properties":{"cod_tema":"AREA_UTILIDADE_PUBLICA","cod_imovel":"RJ-3303005-BD05FFABE2D24F1D88BEFD7BBF852033","num_area":"0.3831000000000000000000000000000","ind_status":"AT"},"geometry":{"type":"Polygon","coordinates":[[[-42.136,-21.458],[-42.1388,-21.4523],[-42.136,-21.4579],[-42.136,-21.458]]]}},{"type":"Feature","properties":{"cod_tema":"AREA_SERVIDAO_ADMINISTRATIVA_TOTAL","cod_imovel":"RJ-3303005-BD05FFABE2D24F1D88BEFD7BBF852033","num_area":"0.3831000000000000000000000000000","ind_status":"AT"},"geometry":{"type":"Polygon","coordinates":[[[-42.136,-21.458],[-42.1388,-21.4523],[-42.136,-21.4579],[-42.136,-21.458]]]}},{"type":"Feature","properties":{"cod_tema":"AREA_UTILIDADE_PUBLICA","cod_imovel":"RJ-3303005-2D05F8A74ED74211878110B5AE237FE2","num_area":"0.4637000000000000000000000000000","ind_status":"AT"},"geometry":{"type":"Polygon","coordinates":[[[-42.2019,-21.3717],[-42.1975,-21.3685],[-42.2018,-21.3715],[-42.2019,-21.3717]]]}},{"type":"Feature","properties":{"cod_tema":"AREA_SERVIDAO_ADMINISTRATIVA_TOTAL","cod_imovel":"RJ-3303005-2D05F8A74ED74211878110B5AE237FE2","num_area":"0.4637000000000000000000000000000","ind_status":"AT"},"geometry":{"type":"Polygon","coordinates":[[[-42.2019,-21.3717],[-42.1975,-21.3685],[-42.2018,-21.3715],[-42.2019,-21.3717]]]}},{"type":"Feature","properties":{"cod_tema":"AREA_UTILIDADE_PUBLICA","cod_imovel":"RJ-3303005-B96BE4DD922744D996BCC024E456C5A1","num_area":"1.4094000000000000000000000000000","ind_status":"AT"},"geometry":{"type":"Polygon","coordinates":[[[-42.181,-21.3653],[-42.1827,-21.3747],[-42.197,-21.3686],[-42.1824,-21.3727],[-42.1808,-21.3658],[-42.181,-21.3653]]]}},{"type":"Feature","properties":{"cod_tema":"AREA_SERVIDAO_ADMINISTRATIVA_TOTAL","cod_imovel":"RJ-3303005-B96BE4DD922744D996BCC024E456C5A1","num_area":"1.4094000000000000000000000000000","ind_status":"AT"},"geometry":{"type":"Polygon","coordinates":[[[-42.181,-21.3653],[-42.1827,-21.3747],[-42.197,-21.3686],[-42.1824,-21.3727],[-42.1808,-21.3658],[-42.181,-21.3653]]]}},{"type":"Feature","properties":{"cod_tema":"AREA_INFRAESTRUTURA_PUBLICA","cod_imovel":"RJ-3303005-81B864E00B85448FA1AFACE3757B1020","num_area":"8.8931000000000000000000000000000","ind_status":"PE"},"geometry":{"type":"Polygon","coordinates":[[[-42.1791,-21.3986],[-42.1682,-21.3866],[-42.1789,-21.3984],[-42.1791,-21.3986]]]}},{"type":"Feature","properties":{"cod_tema":"AREA_SERVIDAO_ADMINISTRATIVA_TOTAL","cod_imovel":"RJ-3303005-81B864E00B85448FA1AFACE3757B1020","num_area":"10.911900000000000000000000000000","ind_status":"PE"},"geometry":{"type":"Polygon","coordinates":[[[-42.1694,-21.3932],[-42.1794,-21.3982],[-42.1682,-21.3866],[-42.17,-21.393],[-42.1694,-21.3932]]]}},{"type":"Feature","properties":{"cod_tema":"AREA_UTILIDADE_PUBLICA","cod_imovel":"RJ-3303005-EFB19A334D27489BBBB0EFD0FD59F25D","num_area":"0.7052000000000000000000000000000","ind_status":"AT"},"geometry":{"type":"Polygon","coordinates":[[[-42.0745,-21.4278],[-42.0751,-21.4217],[-42.0748,-21.4271],[-42.0745,-21.4278]]]}},{"type":"Feature","properties":{"cod_tema":"AREA_SERVIDAO_ADMINISTRATIVA_TOTAL","cod_imovel":"RJ-3303005-EFB19A334D27489BBBB0EFD0FD59F25D","num_area":"0.7052000000000000000000000000000","ind_status":"AT"},"geometry":{"type":"Polygon","coordinates":[[[-42.0745,-21.4278],[-42.0751,-21.4217],[-42.0748,-21.4271],[-42.0745,-21.4278]]]}},{"type":"Feature","properties":{"cod_tema":"AREA_UTILIDADE_PUBLICA","cod_imovel":"RJ-3303005-8773394E687C458C96684755AF87B6C4","num_area":"0.7320000000000000000000000000000","ind_status":"AT"},"geometry":{"type":"Polygon","coordinates":[[[-42.1822,-21.3182],[-42.1752,-21.3219],[-42.1821,-21.3183],[-42.1822,-21.3182]]]}},{"type":"Feature","properties":{"cod_tema":"AREA_SERVIDAO_ADMINISTRATIVA_TOTAL","cod_imovel":"RJ-3303005-8773394E687C458C96684755AF87B6C4","num_area":"0.7320000000000000000000000000000","ind_status":"AT"},"geometry":{"type":"Polygon","coordinates":[[[-42.1822,-21.3182],[-42.1752,-21.3219],[-42.1821,-21.3183],[-42.1822,-21.3182]]]}},{"type":"Feature","properties":{"cod_tema":"AREA_INFRAESTRUTURA_PUBLICA","cod_imovel":"RJ-3303005-26522192507B46CF912F75EEC580CED8","num_area":"0.1910000000000000000000000000000","ind_status":"AT"},"geometry":{"type":"Polygon","coordinates":[[[-42.1513,-21.3531],[-42.1489,-21.3508],[-42.1511,-21.3529],[-42.1513,-21.3531]]]}},{"type":"Feature","properties":{"cod_tema":"AREA_SERVIDAO_ADMINISTRATIVA_TOTAL","cod_imovel":"RJ-3303005-26522192507B46CF912F75EEC580CED8","num_area":"0.1910000000000000000000000000000","ind_status":"AT"},"geometry":{"type":"Polygon","coordinates":[[[-42.1513,-21.3531],[-42.1489,-21.3508],[-42.1511,-21.3529],[-42.1513,-21.3531]]]}},{"type":"Feature","properties":{"cod_tema":"AREA_UTILIDADE_PUBLICA","cod_imovel":"RJ-3303005-A7F5E73A6517431FAC403256E6E72562","num_area":"0.3901000000000000000000000000000","ind_status":"AT"},"geometry":{"type":"Polygon","coordinates":[[[-42.2266,-21.4347],[-42.2191,-21.4378],[-42.2266,-21.4347],[-42.2266,-21.4347]]]}},{"type":"Feature","properties":{"cod_tema":"AREA_SERVIDAO_ADMINISTRATIVA_TOTAL","cod_imovel":"RJ-3303005-A7F5E73A6517431FAC403256E6E72562","num_area":"0.3901000000000000000000000000000","ind_status":"AT"},"geometry":{"type":"Polygon","coordinates":[[[-42.2266,-21.4347],[-42.2191,-21.4378],[-42.2266,-21.4347],[-42.2266,-21.4347]]]}},{"type":"Feature","properties":{"cod_tema":"AREA_INFRAESTRUTURA_PUBLICA","cod_imovel":"RJ-3303005-8E4FF18C9E7644F8945C9D5A0BC69464","num_area":"0.3366000000000000000000000000000","ind_status":"AT"},"geometry":{"type":"Polygon","coordinates":[[[-42.1464,-21.3112],[-42.1431,-21.3146],[-42.1464,-21.3114],[-42.1464,-21.3112]]]}},{"type":"Feature","properties":{"cod_tema":"AREA_UTILIDADE_PUBLICA","cod_imovel":"RJ-3303005-8E4FF18C9E7644F8945C9D5A0BC69464","num_area":"1.0469000000000000000000000000000","ind_status":"AT"},"geometry":{"type":"Polygon","coordinates":[[[-42.1431,-21.3146],[-42.1478,-21.3161],[-42.1432,-21.3146],[-42.1464,-21.3109],[-42.1411,-21.311],[-42.1464,-21.311],[-42.1431,-21.3146],[-42.1431,-21.3146]]]}},{"type":"Feature","properties":{"cod_tema":"AREA_SERVIDAO_ADMINISTRATIVA_TOTAL","cod_imovel":"RJ-3303005-8E4FF18C9E7644F8945C9D5A0BC69464","num_area":"1.1234000000000000000000000000000","ind_status":"AT"},"geometry":{"type":"Polygon","coordinates":[[[-42.1464,-21.3112],[-42.1411,-21.3111],[-42.1464,-21.3109],[-42.1429,-21.3146],[-42.1478,-21.3161],[-42.1432,-21.3146],[-42.1464,-21.3114],[-42.1464,-21.3112]]]}}]}