{"type":"FeatureCollection","features":[{"type":"Feature","properties":{"cod_tema":"AREA_INFRAESTRUTURA_PUBLICA","cod_imovel":"RJ-3303104-B21CB680B8CB4A659CC0016C6D174BE3","num_area":"0.5683000000000000000000000000000","ind_status":"AT"},"geometry":{"type":"Polygon","coordinates":[[[-41.8672,-20.992],[-41.8694,-20.9986],[-41.8673,-20.9924],[-41.8672,-20.992]]]}},{"type":"Feature","properties":{"cod_tema":"AREA_SERVIDAO_ADMINISTRATIVA_TOTAL","cod_imovel":"RJ-3303104-B21CB680B8CB4A659CC0016C6D174BE3","num_area":"0.5683000000000000000000000000000","ind_status":"AT"},"geometry":{"type":"Polygon","coordinates":[[[-41.8672,-20.992],[-41.8694,-20.9986],[-41.8673,-20.9924],[-41.8672,-20.992]]]}},{"type":"Feature","properties":{"cod_tema":"AREA_INFRAESTRUTURA_PUBLICA","cod_imovel":"RJ-3303104-E4D86EACEB8F4E16A6632A9FC0A74669","num_area":"0.9681000000000000000000000000000","ind_status":"AT"},"geometry":{"type":"Polygon","coordinates":[[[-41.8492,-20.9783],[-41.8465,-20.9745],[-41.8491,-20.978],[-41.8492,-20.9783]]]}},{"type":"Feature","properties":{"cod_tema":"AREA_SERVIDAO_ADMINISTRATIVA_TOTAL","cod_imovel":"RJ-3303104-E4D86EACEB8F4E16A6632A9FC0A74669","num_area":"0.9681000000000000000000000000000","ind_status":"AT"},"geometry":{"type":"Polygon","coordinates":[[[-41.8492,-20.9783],[-41.8465,-20.9745],[-41.8491,-20.978],[-41.8492,-20.9783]]]}},{"type":"Feature","properties":{"cod_tema":"AREA_UTILIDADE_PUBLICA","cod_imovel":"RJ-3303104-0054A2BE17FA4C46919F6BB716E3B1B7","num_area":"0.1196000000000000000000000000000","ind_status":"AT"},"geometry":{"type":"Polygon","coordinates":[[[-41.8515,-21.0184],[-41.8536,-21.0157],[-41.8517,-21.0181],[-41.8515,-21.0184]]]}},{"type":"Feature","properties":{"cod_tema":"AREA_SERVIDAO_ADMINISTRATIVA_TOTAL","cod_imovel":"RJ-3303104-0054A2BE17FA4C46919F6BB716E3B1B7","num_area":"0.1196000000000000000000000000000","ind_status":"AT"},"geometry":{"type":"Polygon","coordinates":[[[-41.8515,-21.0184],[-41.8536,-21.0157],[-41.8517,-21.0181],[-41.8515,-21.0184]]]}},{"type":"Feature","properties":{"cod_tema":"AREA_UTILIDADE_PUBLICA","cod_imovel":"RJ-3303104-056672B837D446188129D8E400D2CA97","num_area":"1.1698000000000000000000000000000","ind_status":"AT"},"geometry":{"type":"Polygon","coordinates":[[[-41.9478,-21.1039],[-41.9581,-21.1006],[-41.9582,-21.0908],[-41.958,-21.1006],[-41.9479,-21.1037],[-41.9478,-21.1039]]]}},{"type":"Feature","properties":{"cod_tema":"AREA_SERVIDAO_ADMINISTRATIVA_TOTAL","cod_imovel":"RJ-3303104-056672B837D446188129D8E400D2CA97","num_area":"1.1698000000000000000000000000000","ind_status":"AT"},"geometry":{"type":"Polygon","coordinates":[[[-41.9478,-21.1039],[-41.9581,-21.1006],[-41.9582,-21.0908],[-41.958,-21.1006],[-41.9479,-21.1037],[-41.9478,-21.1039]]]}},{"type":"Feature","properties":{"cod_tema":"AREA_INFRAESTRUTURA_PUBLICA","cod_imovel":"RJ-3303104-0A9A231B21614627BCD8AD7A63420501","num_area":"0.3046000000000000000000000000000","ind_status":"AT"},"geometry":{"type":"Polygon","coordinates":[[[-41.9721,-21.062],[-41.969,-21.0664],[-41.9717,-21.0623],[-41.9721,-21.062]]]}},{"type":"Feature","properties":{"cod_tema":"AREA_SERVIDAO_ADMINISTRATIVA_TOTAL","cod_imovel":"RJ-3303104-0A9A231B21614627BCD8AD7A63420501","num_area":"0.3046000000000000000000000000000","ind_status":"AT"},"geometry":{"type":"Polygon","coordinates":[[[-41.9721,-21.062],[-41.969,-21.0664],[-41.9717,-21.0623],[-41.9721,-21.062]]]}},{"type":"Feature","properties":{"cod_tema":"AREA_UTILIDADE_PUBLICA","cod_imovel":"RJ-3303104-0B90CFC125F8480AAE7D1355C8FC4DB6","num_area":"0.3940000000000000000000000000000","ind_status":"AT"},"geometry":{"type":"Polygon","coordinates":[[[-41.9256,-21.1342],[-41.93,-21.1316],[-41.9248,-21.1346],[-41.9256,-21.1342]]]}},{"type":"Feature","properties":{"cod_tema":"AREA_SERVIDAO_ADMINISTRATIVA_TOTAL","cod_imovel":"RJ-3303104-0B90CFC125F8480AAE7D1355C8FC4DB6","num_area":"0.3940000000000000000000000000000","ind_status":"AT"},"geometry":{"type":"Polygon","coordinates":[[[-41.9256,-21.1342],[-41.93,-21.1316],[-41.9248,-21.1346],[-41.9256,-21.1342]]]}},{"type":"Feature","properties":{"cod_tema":"AREA_INFRAESTRUTURA_PUBLICA","cod_imovel":"RJ-3303104-15422D18D5684DD0A24F56C4FAAE8782","num_area":"0.8084000000000000000000000000000","ind_status":"AT"},"geometry":{"type":"Polygon","coordinates":[[[-41.9368,-20.9457],[-41.9419,-20.9523],[-41.937,-20.9458],[-41.9368,-20.9457]]]}},{"type":"Feature","properties":{"cod_tema":"AREA_SERVIDAO_ADMINISTRATIVA_TOTAL","cod_imovel":"RJ-3303104-15422D18D5684DD0A24F56C4FAAE8782","num_area":"0.8084000000000000000000000000000","ind_status":"AT"},"geometry":{"type":"Polygon","coordinates":[[[-41.9368,-20.9457],[-41.9419,-20.9523],[-41.937,-20.9458],[-41.9368,-20.9457]]]}},{"type":"Feature","properties":{"cod_tema":"AREA_INFRAESTRUTURA_PUBLICA","cod_imovel":"RJ-3303104-15EF7F3725A0439DACDB2DC96D6ED955","num_area":"2.8223000000000000000000000000000","ind_status":"AT"},"geometry":{"type":"Polygon","coordinates":[[[-41.9579,-21.0818],[-41.9571,-21.0905],[-41.9575,-21.0822],[-41.9579,-21.0818]]]}},{"type":"Feature","properties":{"cod_tema":"AREA_UTILIDADE_PUBLICA","cod_imovel":"RJ-3303104-15EF7F3725A0439DACDB2DC96D6ED955","num_area":"1.4611000000000000000000000000000","ind_status":"AT"},"geometry":{"type":"Polygon","coordinates":[[[-41.9558,-21.084],[-41.9563,-21.0893],[-41.9558,-21.084],[-41.9558,-21.084]]]}},{"type":"Feature","properties":{"cod_tema":"AREA_SERVIDAO_ADMINISTRATIVA_TOTAL","cod_imovel":"RJ-3303104-15EF7F3725A0439DACDB2DC96D6ED955","num_area":"4.2834000000000000000000000000000","ind_status":"AT"},"geometry":{"type":"Polygon","coordinates":[[[-41.9558,-21.084],[-41.9563,-21.0893],[-41.9558,-21.084],[-41.9558,-21.084]],[[-41.9579,-21.0818],[-41.9571,-21.0905],[-41.9575,-21.0822],[-41.9579,-21.0818]]]}},{"type":"Feature","properties":{"cod_tema":"AREA_INFRAESTRUTURA_PUBLICA","cod_imovel":"RJ-3303104-17FF8BAAB4D649A6BDE5CA24A1D005CC","num_area":"2.3507000000000000000000000000000","ind_status":"AT"},"geometry":{"type":"Polygon","coordinates":[[[-41.926,-21.1455],[-41.9288,-21.1525],[-41.9273,-21.1472],[-41.926,-21.1455]],[[-41.9273,-21.1481],[-41.934,-21.1416],[-41.9273,-21.148],[-41.9273,-21.1481]]]}},{"type":"Feature","properties":{"cod_tema":"AREA_SERVIDAO_ADMINISTRATIVA_TOTAL","cod_imovel":"RJ-3303104-17FF8BAAB4D649A6BDE5CA24A1D005CC","num_area":"2.3507000000000000000000000000000","ind_status":"AT"},"geometry":{"type":"Polygon","coordinates":[[[-41.926,-21.1455],[-41.9288,-21.1525],[-41.9273,-21.1472],[-41.926,-21.1455]],[[-41.9273,-21.1481],[-41.934,-21.1416],[-41.9273,-21.148],[-41.9273,-21.1481]]]}},{"type":"Feature","properties":{"cod_tema":"AREA_UTILIDADE_PUBLICA","cod_imovel":"RJ-3303104-1C79F43C83C1448F82EEF814E1858DDF","num_area":"1.9073000000000000000000000000000","ind_status":"AT"},"geometry":{"type":"Polygon","coordinates":[[[-42.0058,-21.0326],[-42.0025,-21.0371],[-42.0056,-21.0331],[-42.0058,-21.0326]]]}},{"type":"Feature","properties":{"cod_tema":"AREA_SERVIDAO_ADMINISTRATIVA_TOTAL","cod_imovel":"RJ-3303104-1C79F43C83C1448F82EEF814E1858DDF","num_area":"1.9073000000000000000000000000000","ind_status":"AT"},"geometry":{"type":"Polygon","coordinates":[[[-42.0058,-21.0326],[-42.0025,-21.0371],[-42.0056,-21.0331],[-42.0058,-21.0326]]]}},{"type":"Feature","properties":{"cod_tema":"AREA_UTILIDADE_PUBLICA","cod_imovel":"RJ-3303104-1F72AD74754B474F8BFBB0A9BE741633","num_area":"0.3624000000000000000000000000000","ind_status":"AT"},"geometry":{"type":"Polygon","coordinates":[[[-41.9557,-20.9767],[-41.961,-20.975],[-41.9557,-20.9767],[-41.9557,-20.9767]]]}},{"type":"Feature","properties":{"cod_tema":"AREA_SERVIDAO_ADMINISTRATIVA_TOTAL","cod_imovel":"RJ-3303104-1F72AD74754B474F8BFBB0A9BE741633","num_area":"0.3624000000000000000000000000000","ind_status":"AT"},"geometry":{"type":"Polygon","coordinates":[[[-41.9557,-20.9767],[-41.961,-20.975],[-41.9557,-20.9767],[-41.9557,-20.9767]]]}},{"type":"Feature","properties":{"cod_tema":"AREA_UTILIDADE_PUBLICA","cod_imovel":"RJ-3303104-1F8E022881114CA0B3263214CA8E979A","num_area":"0.3609000000000000000000000000000","ind_status":"AT"},"geometry":{"type":"Polygon","coordinates":[[[-41.8646,-21.0357],[-41.8606,-21.0357],[-41.8642,-21.0354],[-41.8646,-21.0357]]]}},{"type":"Feature","properties":{"cod_tema":"AREA_SERVIDAO_ADMINISTRATIVA_TOTAL","cod_imovel":"RJ-3303104-1F8E022881114CA0B3263214CA8E979A","num_area":"0.3609000000000000000000000000000","ind_status":"AT"},"geometry":{"type":"Polygon","coordinates":[[[-41.8646,-21.0357],[-41.8606,-21.0357],[-41.8642,-21.0354],[-41.8646,-21.0357]]]}},{"type":"Feature","properties":{"cod_tema":"AREA_INFRAESTRUTURA_PUBLICA","cod_imovel":"RJ-3303104-2106C516DCC44F7A877631666E1CDF4A","num_area":"0.5541000000000000000000000000000","ind_status":"AT"},"geometry":{"type":"Polygon","coordinates":[[[-41.8396,-21.0228],[-41.8445,-21.0215],[-41.8396,-21.0227],[-41.8396,-21.0228]]]}},{"type":"Feature","properties":{"cod_tema":"AREA_SERVIDAO_ADMINISTRATIVA_TOTAL","cod_imovel":"RJ-3303104-2106C516DCC44F7A877631666E1CDF4A","num_area":"0.5541000000000000000000000000000","ind_status":"AT"},"geometry":{"type":"Polygon","coordinates":[[[-41.8396,-21.0228],[-41.8445,-21.0215],[-41.8396,-21.0227],[-41.8396,-21.0228]]]}},{"type":"Feature","properties":{"cod_tema":"AREA_INFRAESTRUTURA_PUBLICA","cod_imovel":"RJ-3303104-2A229F04A2954DE18CDDCF28676A0A27","num_area":"0.6350000000000000000000000000000","ind_status":"AT"},"geometry":{"type":"Polygon","coordinates":[[[-41.9364,-21.1042],[-41.9293,-21.1035],[-41.9364,-21.1042],[-41.9364,-21.1042]]]}},{"type":"Feature","properties":{"cod_tema":"AREA_SERVIDAO_ADMINISTRATIVA_TOTAL","cod_imovel":"RJ-3303104-2A229F04A2954DE18CDDCF28676A0A27","num_area":"0.6350000000000000000000000000000","ind_status":"AT"},"geometry":{"type":"Polygon","coordinates":[[[-41.9364,-21.1042],[-41.9293,-21.1035],[-41.9364,-21.1042],[-41.9364,-21.1042]]]}},{"type":"Feature","properties":{"cod_tema":"AREA_INFRAESTRUTURA_PUBLICA","cod_imovel":"RJ-3303104-2A373DA8E46C41E6B54E4A697EEBA990","num_area":"3.8651000000000000000000000000000","ind_status":"AT"},"geometry":{"type":"Polygon","coordinates":[[[-41.9081,-21.1266],[-41.9045,-21.1219],[-41.9078,-21.1265],[-41.9081,-21.1266]],[[-41.9124,-21.1269],[-41.9179,-21.1283],[-41.9131,-21.1267],[-41.9124,-21.1269]],[[-41.9114,-21.1274],[-41.9119,-21.1126],[-41.9114,-21.1274],[-41.9114,-21.1274]]]}},{"type":"Feature","properties":{"cod_tema":"AREA_SERVIDAO_ADMINISTRATIVA_TOTAL","cod_imovel":"RJ-3303104-2A373DA8E46C41E6B54E4A697EEBA990","num_area":"3.8651000000000000000000000000000","ind_status":"AT"},"geometry":{"type":"Polygon","coordinates":[[[-41.9081,-21.1266],[-41.9045,-21.1219],[-41.9078,-21.1265],[-41.9081,-21.1266]],[[-41.9124,-21.1269],[-41.9179,-21.1283],[-41.9131,-21.1267],[-41.9124,-21.1269]],[[-41.9114,-21.1274],[-41.9119,-21.1126],[-41.9114,-21.1274],[-41.9114,-21.1274]]]}},{"type":"Feature","properties":{"cod_tema":"AREA_UTILIDADE_PUBLICA","cod_imovel":"RJ-3303104-2DF7C6B7DF024D569CB7A2B08A873256","num_area":"1.6327000000000000000000000000000","ind_status":"AT"},"geometry":{"type":"Polygon","coordinates":[[[-41.8706,-21.037],[-41.8732,-21.0355],[-41.8703,-21.0372],[-41.8706,-21.037]],[[-41.8728,-21.039],[-41.8662,-21.0322],[-41.8709,-21.0382],[-41.8663,-21.0386],[-41.8725,-21.0392],[-41.8728,-21.039]]]}},{"type":"Feature","properties":{"cod_tema":"AREA_SERVIDAO_ADMINISTRATIVA_TOTAL","cod_imovel":"RJ-3303104-2DF7C6B7DF024D569CB7A2B08A873256","num_area":"1.6327000000000000000000000000000","ind_status":"AT"},"geometry":{"type":"Polygon","coordinates":[[[-41.8706,-21.037],[-41.8732,-21.0355],[-41.8703,-21.0372],[-41.8706,-21.037]],[[-41.8728,-21.039],[-41.8662,-21.0322],[-41.8709,-21.0382],[-41.8663,-21.0386],[-41.8725,-21.0392],[-41.8728,-21.039]]]}},{"type":"Feature","properties":{"cod_tema":"AREA_INFRAESTRUTURA_PUBLICA","cod_imovel":"RJ-3303104-358821D8E89643C3A5037703B23401DD","num_area":"0.3379000000000000000000000000000","ind_status":"AT"},"geometry":{"type":"Polygon","coordinates":[[[-41.8901,-21.0922],[-41.8933,-21.0952],[-41.8902,-21.0923],[-41.8901,-21.0922]]]}},{"type":"Feature","properties":{"cod_tema":"AREA_SERVIDAO_ADMINISTRATIVA_TOTAL","cod_imovel":"RJ-3303104-358821D8E89643C3A5037703B23401DD","num_area":"0.3379000000000000000000000000000","ind_status":"AT"},"geometry":{"type":"Polygon","coordinates":[[[-41.8901,-21.0922],[-41.8933,-21.0952],[-41.8902,-21.0923],[-41.8901,-21.0922]]]}},{"type":"Feature","properties":{"cod_tema":"AREA_INFRAESTRUTURA_PUBLICA","cod_imovel":"RJ-3303104-36DBD18B29E344FA98A7C5B09BD2A861","num_area":"0.5344000000000000000000000000000","ind_status":"AT"},"geometry":{"type":"Polygon","coordinates":[[[-42.0138,-21.0987],[-42.0182,-21.0966],[-42.0138,-21.0987],[-42.0138,-21.0987]]]}},{"type":"Feature","properties":{"cod_tema":"AREA_SERVIDAO_ADMINISTRATIVA_TOTAL","cod_imovel":"RJ-3303104-36DBD18B29E344FA98A7C5B09BD2A861","num_area":"0.5344000000000000000000000000000","ind_status":"AT"},"geometry":{"type":"Polygon","coordinates":[[[-42.0138,-21.0987],[-42.0182,-21.0966],[-42.0138,-21.0987],[-42.0138,-21.0987]]]}},{"type":"Feature","properties":{"cod_tema":"AREA_INFRAESTRUTURA_PUBLICA","cod_imovel":"RJ-3303104-3B54CD6A55034C17B93B2539F0CE2385","num_area":"0.7122000000000000000000000000000","ind_status":"AT"},"geometry":{"type":"Polygon","coordinates":[[[-41.9352,-21.0802],[-41.94,-21.0727],[-41.9352,-21.0801],[-41.9352,-21.0802]]]}},{"type":"Feature","properties":{"cod_tema":"AREA_SERVIDAO_ADMINISTRATIVA_TOTAL","cod_imovel":"RJ-3303104-3B54CD6A55034C17B93B2539F0CE2385","num_area":"0.7122000000000000000000000000000","ind_status":"AT"},"geometry":{"type":"Polygon","coordinates":[[[-41.9352,-21.0802],[-41.94,-21.0727],[-41.9352,-21.0801],[-41.9352,-21.0802]]]}},{"type":"Feature","properties":{"cod_tema":"AREA_UTILIDADE_PUBLICA","cod_imovel":"RJ-3303104-410DC5CCD03B4ACC96DFB9E388E109CA","num_area":"0.4178000000000000000000000000000","ind_status":"AT"},"geometry":{"type":"Polygon","coordinates":[[[-41.9543,-20.9763],[-41.9537,-20.9728],[-41.9542,-20.9763],[-41.9543,-20.9763]]]}},{"type":"Feature","properties":{"cod_tema":"AREA_SERVIDAO_ADMINISTRATIVA_TOTAL","cod_imovel":"RJ-3303104-410DC5CCD03B4ACC96DFB9E388E109CA","num_area":"0.4178000000000000000000000000000","ind_status":"AT"},"geometry":{"type":"Polygon","coordinates":[[[-41.9543,-20.9763],[-41.9537,-20.9728],[-41.9542,-20.9763],[-41.9543,-20.9763]]]}},{"type":"Feature","properties":{"cod_tema":"AREA_UTILIDADE_PUBLICA","cod_imovel":"RJ-3303104-46619A4AAF0545DE9A6074ADAE5723B8","num_area":"1.0088000000000000000000000000000","ind_status":"AT"},"geometry":{"type":"Polygon","coordinates":[[[-42.0133,-21.0538],[-42.0121,-21.0483],[-42.0091,-21.0547],[-42.0133,-21.0538],[-42.0133,-21.0538]]]}},{"type":"Feature","properties":{"cod_tema":"AREA_SERVIDAO_ADMINISTRATIVA_TOTAL","cod_imovel":"RJ-3303104-46619A4AAF0545DE9A6074ADAE5723B8","num_area":"1.0088000000000000000000000000000","ind_status":"AT"},"geometry":{"type":"Polygon","coordinates":[[[-42.0133,-21.0538],[-42.0121,-21.0483],[-42.0091,-21.0547],[-42.0133,-21.0538],[-42.0133,-21.0538]]]}},{"type":"Feature","properties":{"cod_tema":"AREA_INFRAESTRUTURA_PUBLICA","cod_imovel":"RJ-3303104-47E7363AD9ED47E78EDFD677209C4A43","num_area":"0.1008000000000000000000000000000","ind_status":"AT"},"geometry":{"type":"Polygon","coordinates":[[[-41.8938,-21.0337],[-41.8968,-21.0326],[-41.8938,-21.0337],[-41.8938,-21.0337]]]}},{"type":"Feature","properties":{"cod_tema":"AREA_SERVIDAO_ADMINISTRATIVA_TOTAL","cod_imovel":"RJ-3303104-47E7363AD9ED47E78EDFD677209C4A43","num_area":"0.1008000000000000000000000000000","ind_status":"AT"},"geometry":{"type":"Polygon","coordinates":[[[-41.8938,-21.0337],[-41.8968,-21.0326],[-41.8938,-21.0337],[-41.8938,-21.0337]]]}},{"type":"Feature","properties":{"cod_tema":"AREA_INFRAESTRUTURA_PUBLICA","cod_imovel":"RJ-3303104-480FDEDE43D44E8DBFB6B8CA67F922E9","num_area":"0.5002000000000000000000000000000","ind_status":"AT"},"geometry":{"type":"Polygon","coordinates":[[[-41.9621,-21.072],[-41.9657,-21.0697],[-41.9622,-21.0719],[-41.9621,-21.072]],[[-41.9683,-21.0674],[-41.9633,-21.0681],[-41.9676,-21.0676],[-41.9683,-21.0674]]]}},{"type":"Feature","properties":{"cod_tema":"AREA_SERVIDAO_ADMINISTRATIVA_TOTAL","cod_imovel":"RJ-3303104-480FDEDE43D44E8DBFB6B8CA67F922E9","num_area":"0.5002000000000000000000000000000","ind_status":"AT"},"geometry":{"type":"Polygon","coordinates":[[[-41.9621,-21.072],[-41.9657,-21.0697],[-41.9622,-21.0719],[-41.9621,-21.072]],[[-41.9683,-21.0674],[-41.9633,-21.0681],[-41.9676,-21.0676],[-41.9683,-21.0674]]]}},{"type":"Feature","properties":{"cod_tema":"AREA_UTILIDADE_PUBLICA","cod_imovel":"RJ-3303104-487C4156D6284CA496479A7859DCF323","num_area":"0.9716000000000000000000000000000","ind_status":"AT"},"geometry":{"type":"Polygon","coordinates":[[[-41.8746,-21.0651],[-41.865,-21.059],[-41.8668,-21.0554],[-41.865,-21.059],[-41.8748,-21.0657],[-41.8746,-21.0651]]]}},{"type":"Feature","properties":{"cod_tema":"AREA_SERVIDAO_ADMINISTRATIVA_TOTAL","cod_imovel":"RJ-3303104-487C4156D6284CA496479A7859DCF323","num_area":"0.9716000000000000000000000000000","ind_status":"AT"},"geometry":{"type":"Polygon","coordinates":[[[-41.8746,-21.0651],[-41.865,-21.059],[-41.8668,-21.0554],[-41.865,-21.059],[-41.8748,-21.0657],[-41.8746,-21.0651]]]}},{"type":"Feature","properties":{"cod_tema":"AREA_INFRAESTRUTURA_PUBLICA","cod_imovel":"RJ-3303104-4B6521159F7F41788E4F2BF8E7A88171","num_area":"0.3469000000000000000000000000000","ind_status":"AT"},"geometry":{"type":"Polygon","coordinates":[[[-41.8393,-20.996],[-41.8425,-20.9986],[-41.8393,-20.996],[-41.8393,-20.996]]]}},{"type":"Feature","properties":{"cod_tema":"AREA_SERVIDAO_ADMINISTRATIVA_TOTAL","cod_imovel":"RJ-3303104-4B6521159F7F41788E4F2BF8E7A88171","num_area":"0.3469000000000000000000000000000","ind_status":"AT"},"geometry":{"type":"Polygon","coordinates":[[[-41.8393,-20.996],[-41.8425,-20.9986],[-41.8393,-20.996],[-41.8393,-20.996]]]}},{"type":"Feature","properties":{"cod_tema":"AREA_INFRAESTRUTURA_PUBLICA","cod_imovel":"RJ-3303104-551432077AB0416AB75BDB0568563939","num_area":"0.5770000000000000000000000000000","ind_status":"AT"},"geometry":{"type":"Polygon","coordinates":[[[-41.9193,-21.0953],[-41.9104,-21.0963],[-41.9193,-21.0953],[-41.9193,-21.0953]]]}},{"type":"Feature","properties":{"cod_tema":"AREA_SERVIDAO_ADMINISTRATIVA_TOTAL","cod_imovel":"RJ-3303104-551432077AB0416AB75BDB0568563939","num_area":"0.5770000000000000000000000000000","ind_status":"AT"},"geometry":{"type":"Polygon","coordinates":[[[-41.9193,-21.0953],[-41.9104,-21.0963],[-41.9193,-21.0953],[-41.9193,-21.0953]]]}},{"type":"Feature","properties":{"cod_tema":"AREA_UTILIDADE_PUBLICA","cod_imovel":"RJ-3303104-5AF5D5AF3EE847C18087DBECB9F0BF04","num_area":"5.0819000000000000000000000000000","ind_status":"AT"},"geometry":{"type":"Polygon","coordinates":[[[-41.9415,-21.1138],[-41.9406,-21.1171],[-41.9417,-21.1141],[-41.9415,-21.1138]],[[-41.937,-21.1197],[-41.9336,-21.1238],[-41.9371,-21.12],[-41.937,-21.1197]]]}},{"type":"Feature","properties":{"cod_tema":"AREA_SERVIDAO_ADMINISTRATIVA_TOTAL","cod_imovel":"RJ-3303104-5AF5D5AF3EE847C18087DBECB9F0BF04","num_area":"5.0819000000000000000000000000000","ind_status":"AT"},"geometry":{"type":"Polygon","coordinates":[[[-41.9415,-21.1138],[-41.9406,-21.1171],[-41.9417,-21.1141],[-41.9415,-21.1138]],[[-41.937,-21.1197],[-41.9336,-21.1238],[-41.9371,-21.12],[-41.937,-21.1197]]]}},{"type":"Feature","properties":{"cod_tema":"AREA_UTILIDADE_PUBLICA","cod_imovel":"RJ-3303104-675255B5A940454D8DA828BC7A366CD1","num_area":"0.3502000000000000000000000000000","ind_status":"AT"},"geometry":{"type":"Polygon","coordinates":[[[-42.0103,-21.038],[-42.0144,-21.0392],[-42.0107,-21.0382],[-42.0103,-21.038]]]}},{"type":"Feature","properties":{"cod_tema":"AREA_SERVIDAO_ADMINISTRATIVA_TOTAL","cod_imovel":"RJ-3303104-675255B5A940454D8DA828BC7A366CD1","num_area":"0.3502000000000000000000000000000","ind_status":"AT"},"geometry":{"type":"Polygon","coordinates":[[[-42.0103,-21.038],[-42.0144,-21.0392],[-42.0107,-21.0382],[-42.0103,-21.038]]]}},{"type":"Feature","properties":{"cod_tema":"AREA_INFRAESTRUTURA_PUBLICA","cod_imovel":"RJ-3303104-6C1180E1E7974484A160AF41FDDEC9FC","num_area":"0.2122000000000000000000000000000","ind_status":"AT"},"geometry":{"type":"Polygon","coordinates":[[[-41.9113,-21.0508],[-41.9108,-21.0538],[-41.9113,-21.0508],[-41.9113,-21.0508]]]}},{"type":"Feature","properties":{"cod_tema":"AREA_SERVIDAO_ADMINISTRATIVA_TOTAL","cod_imovel":"RJ-3303104-6C1180E1E7974484A160AF41FDDEC9FC","num_area":"0.2122000000000000000000000000000","ind_status":"AT"},"geometry":{"type":"Polygon","coordinates":[[[-41.9113,-21.0508],[-41.9108,-21.0538],[-41.9113,-21.0508],[-41.9113,-21.0508]]]}},{"type":"Feature","properties":{"cod_tema":"AREA_UTILIDADE_PUBLICA","cod_imovel":"RJ-3303104-6C794662912749F5B0F1C361A135AB2E","num_area":"0.5712000000000000000000000000000","ind_status":"AT"},"geometry":{"type":"Polygon","coordinates":[[[-42.0067,-21.0177],[-42.0062,-21.0232],[-42.0067,-21.0177],[-42.0067,-21.0177]]]}},{"type":"Feature","properties":{"cod_tema":"AREA_SERVIDAO_ADMINISTRATIVA_TOTAL","cod_imovel":"RJ-3303104-6C794662912749F5B0F1C361A135AB2E","num_area":"0.5712000000000000000000000000000","ind_status":"AT"},"geometry":{"type":"Polygon","coordinates":[[[-42.0067,-21.0177],[-42.0062,-21.0232],[-42.0067,-21.0177],[-42.0067,-21.0177]]]}},{"type":"Feature","properties":{"cod_tema":"AREA_INFRAESTRUTURA_PUBLICA","cod_imovel":"RJ-3303104-7A84927567A445CC953A70CFB34E9760","num_area":"6.5328000000000000000000000000000","ind_status":"AT"},"geometry":{"type":"Polygon","coordinates":[[[-41.8682,-21.0856],[-41.8735,-21.0867],[-41.8682,-21.0857],[-41.8682,-21.0856]],[[-41.8665,-21.0831],[-41.8807,-21.0814],[-41.8665,-21.0832],[-41.8665,-21.0831]]]}},{"type":"Feature","properties":{"cod_tema":"AREA_SERVIDAO_ADMINISTRATIVA_TOTAL","cod_imovel":"RJ-3303104-7A84927567A445CC953A70CFB34E9760","num_area":"6.5328000000000000000000000000000","ind_status":"AT"},"geometry":{"type":"Polygon","coordinates":[[[-41.8682,-21.0856],[-41.8735,-21.0867],[-41.8682,-21.0857],[-41.8682,-21.0856]],[[-41.8665,-21.0831],[-41.8807,-21.0814],[-41.8665,-21.0832],[-41.8665,-21.0831]]]}},{"type":"Feature","properties":{"cod_tema":"AREA_UTILIDADE_PUBLICA","cod_imovel":"RJ-3303104-7D990FA846AE4DD6BCB11364389B792B","num_area":"0.6277000000000000000000000000000","ind_status":"AT"},"geometry":{"type":"Polygon","coordinates":[[[-41.951,-20.9658],[-41.9562,-20.9553],[-41.951,-20.9657],[-41.951,-20.9658]]]}},{"type":"Feature","properties":{"cod_tema":"AREA_SERVIDAO_ADMINISTRATIVA_TOTAL","cod_imovel":"RJ-3303104-7D990FA846AE4DD6BCB11364389B792B","num_area":"0.6277000000000000000000000000000","ind_status":"AT"},"geometry":{"type":"Polygon","coordinates":[[[-41.951,-20.9658],[-41.9562,-20.9553],[-41.951,-20.9657],[-41.951,-20.9658]]]}},{"type":"Feature","properties":{"cod_tema":"AREA_INFRAESTRUTURA_PUBLICA","cod_imovel":"RJ-3303104-7EDC0ECE40374C208C00DD93E1672A6A","num_area":"0.9762000000000000000000000000000","ind_status":"AT"},"geometry":{"type":"Polygon","coordinates":[[[-41.9488,-21.0227],[-41.9533,-21.0279],[-41.949,-21.0228],[-41.9488,-21.0227]]]}},{"type":"Feature","properties":{"cod_tema":"AREA_SERVIDAO_ADMINISTRATIVA_TOTAL","cod_imovel":"RJ-3303104-7EDC0ECE40374C208C00DD93E1672A6A","num_area":"0.9762000000000000000000000000000","ind_status":"AT"},"geometry":{"type":"Polygon","coordinates":[[[-41.9488,-21.0227],[-41.9533,-21.0279],[-41.949,-21.0228],[-41.9488,-21.0227]]]}},{"type":"Feature","properties":{"cod_tema":"AREA_UTILIDADE_PUBLICA","cod_imovel":"RJ-3303104-7EFBCEDF3D2F450D8B1B6B24D311C8E5","num_area":"0.2132000000000000000000000000000","ind_status":"AT"},"geometry":{"type":"Polygon","coordinates":[[[-41.8206,-20.9908],[-41.8231,-20.9928],[-41.8207,-20.9909],[-41.8206,-20.9908]]]}},{"type":"Feature","properties":{"cod_tema":"AREA_SERVIDAO_ADMINISTRATIVA_TOTAL","cod_imovel":"RJ-3303104-7EFBCEDF3D2F450D8B1B6B24D311C8E5","num_area":"0.2132000000000000000000000000000","ind_status":"AT"},"geometry":{"type":"Polygon","coordinates":[[[-41.8206,-20.9908],[-41.8231,-20.9928],[-41.8207,-20.9909],[-41.8206,-20.9908]]]}},{"type":"Feature","properties":{"cod_tema":"AREA_INFRAESTRUTURA_PUBLICA","cod_imovel":"RJ-3303104-7F91FF09F58345468E2B7847444A8B97","num_area":"0.3879000000000000000000000000000","ind_status":"AT"},"geometry":{"type":"Polygon","coordinates":[[[-41.9265,-21.0043],[-41.9236,-21.0021],[-41.9265,-21.0043],[-41.9265,-21.0043]]]}},{"type":"Feature","properties":{"cod_tema":"AREA_SERVIDAO_ADMINISTRATIVA_TOTAL","cod_imovel":"RJ-3303104-7F91FF09F58345468E2B7847444A8B97","num_area":"0.3879000000000000000000000000000","ind_status":"AT"},"geometry":{"type":"Polygon","coordinates":[[[-41.9265,-21.0043],[-41.9236,-21.0021],[-41.9265,-21.0043],[-41.9265,-21.0043]]]}},{"type":"Feature","properties":{"cod_tema":"AREA_INFRAESTRUTURA_PUBLICA","cod_imovel":"RJ-3303104-80CEA51FC88941749C383B95998008D5","num_area":"1.4393000000000000000000000000000","ind_status":"AT"},"geometry":{"type":"Polygon","coordinates":[[[-41.8963,-21.0894],[-41.9092,-21.0789],[-41.8964,-21.0891],[-41.8963,-21.0894]]]}},{"type":"Feature","properties":{"cod_tema":"AREA_SERVIDAO_ADMINISTRATIVA_TOTAL","cod_imovel":"RJ-3303104-80CEA51FC88941749C383B95998008D5","num_area":"1.4393000000000000000000000000000","ind_status":"AT"},"geometry":{"type":"Polygon","coordinates":[[[-41.8963,-21.0894],[-41.9092,-21.0789],[-41.8964,-21.0891],[-41.8963,-21.0894]]]}},{"type":"Feature","properties":{"cod_tema":"AREA_UTILIDADE_PUBLICA","cod_imovel":"RJ-3303104-89B78B72D0654B24BD83372D93356295","num_area":"2.3861000000000000000000000000000","ind_status":"AT"},"geometry":{"type":"Polygon","coordinates":[[[-41.906,-21.0346],[-41.9,-21.0318],[-41.9087,-21.0371],[-41.906,-21.0346],[-41.906,-21.0346]]]}},{"type":"Feature","properties":{"cod_tema":"AREA_SERVIDAO_ADMINISTRATIVA_TOTAL","cod_imovel":"RJ-3303104-89B78B72D0654B24BD83372D93356295","num_area":"2.3861000000000000000000000000000","ind_status":"AT"},"geometry":{"type":"Polygon","coordinates":[[[-41.906,-21.0346],[-41.9,-21.0318],[-41.9087,-21.0371],[-41.906,-21.0346],[-41.906,-21.0346]]]}},{"type":"Feature","properties":{"cod_tema":"AREA_INFRAESTRUTURA_PUBLICA","cod_imovel":"RJ-3303104-8C3E10E570FB4F94977976B293273789","num_area":"0.6523000000000000000000000000000","ind_status":"AT"},"geometry":{"type":"Polygon","coordinates":[[[-41.9868,-21.0364],[-41.9928,-21.0355],[-41.987,-21.0364],[-41.9868,-21.0364]]]}},{"type":"Feature","properties":{"cod_tema":"AREA_UTILIDADE_PUBLICA","cod_imovel":"RJ-3303104-8C3E10E570FB4F94977976B293273789","num_area":"2.2869000000000000000000000000000","ind_status":"AT"},"geometry":{"type":"Polygon","coordinates":[[[-41.9904,-21.0425],[-41.993,-21.0405],[-41.9904,-21.0425],[-41.9904,-21.0425]]]}},{"type":"Feature","properties":{"cod_tema":"AREA_SERVIDAO_ADMINISTRATIVA_TOTAL","cod_imovel":"RJ-3303104-8C3E10E570FB4F94977976B293273789","num_area":"2.9392000000000000000000000000000","ind_status":"AT"},"geometry":{"type":"Polygon","coordinates":[[[-41.9868,-21.0364],[-41.9928,-21.0355],[-41.987,-21.0364],[-41.9868,-21.0364]],[[-41.9904,-21.0425],[-41.993,-21.0405],[-41.9904,-21.0425],[-41.9904,-21.0425]]]}},{"type":"Feature","properties":{"cod_tema":"AREA_UTILIDADE_PUBLICA","cod_imovel":"RJ-3303104-8E00A9469BC94177B67ACCC5C94AA804","num_area":"0.4749000000000000000000000000000","ind_status":"AT"},"geometry":{"type":"Polygon","coordinates":[[[-41.8223,-21.0201],[-41.8191,-21.016],[-41.822,-21.0199],[-41.8223,-21.0201]],[[-41.8198,-21.0151],[-41.824,-21.0133],[-41.8198,-21.0151],[-41.8198,-21.0151]]]}},{"type":"Feature","properties":{"cod_tema":"AREA_SERVIDAO_ADMINISTRATIVA_TOTAL","cod_imovel":"RJ-3303104-8E00A9469BC94177B67ACCC5C94AA804","num_area":"0.4749000000000000000000000000000","ind_status":"AT"},"geometry":{"type":"Polygon","coordinates":[[[-41.8223,-21.0201],[-41.8191,-21.016],[-41.822,-21.0199],[-41.8223,-21.0201]],[[-41.8198,-21.0151],[-41.824,-21.0133],[-41.8198,-21.0151],[-41.8198,-21.0151]]]}},{"type":"Feature","properties":{"cod_tema":"AREA_INFRAESTRUTURA_PUBLICA","cod_imovel":"RJ-3303104-917677CD8ABD463E9FCD60B4837AA735","num_area":"0.2245000000000000000000000000000","ind_status":"AT"},"geometry":{"type":"Polygon","coordinates":[[[-42.0139,-21.0432],[-42.0146,-21.0473],[-42.014,-21.0433],[-42.0139,-21.0432]]]}},{"type":"Feature","properties":{"cod_tema":"AREA_SERVIDAO_ADMINISTRATIVA_TOTAL","cod_imovel":"RJ-3303104-917677CD8ABD463E9FCD60B4837AA735","num_area":"0.2245000000000000000000000000000","ind_status":"AT"},"geometry":{"type":"Polygon","coordinates":[[[-42.0139,-21.0432],[-42.0146,-21.0473],[-42.014,-21.0433],[-42.0139,-21.0432]]]}},{"type":"Feature","properties":{"cod_tema":"AREA_UTILIDADE_PUBLICA","cod_imovel":"RJ-3303104-9383F914EE00417793836D464FD56193","num_area":"2.5497000000000000000000000000000","ind_status":"AT"},"geometry":{"type":"Polygon","coordinates":[[[-41.8781,-21.0166],[-41.8841,-21.0236],[-41.8783,-21.0171],[-41.8781,-21.0166]]]}},{"type":"Feature","properties":{"cod_tema":"AREA_SERVIDAO_ADMINISTRATIVA_TOTAL","cod_imovel":"RJ-3303104-9383F914EE00417793836D464FD56193","num_area":"2.5497000000000000000000000000000","ind_status":"AT"},"geometry":{"type":"Polygon","coordinates":[[[-41.8781,-21.0166],[-41.8841,-21.0236],[-41.8783,-21.0171],[-41.8781,-21.0166]]]}},{"type":"Feature","properties":{"cod_tema":"AREA_INFRAESTRUTURA_PUBLICA","cod_imovel":"RJ-3303104-951B7D29F47944D28E35CD5727DECB48","num_area":"0.5987000000000000000000000000000","ind_status":"AT"},"geometry":{"type":"Polygon","coordinates":[[[-41.8832,-21.0741],[-41.8763,-21.0733],[-41.8832,-21.0741],[-41.8832,-21.0741]]]}},{"type":"Feature","properties":{"cod_tema":"AREA_SERVIDAO_ADMINISTRATIVA_TOTAL","cod_imovel":"RJ-3303104-951B7D29F47944D28E35CD5727DECB48","num_area":"0.5987000000000000000000000000000","ind_status":"AT"},"geometry":{"type":"Polygon","coordinates":[[[-41.8832,-21.0741],[-41.8763,-21.0733],[-41.8832,-21.0741],[-41.8832,-21.0741]]]}},{"type":"Feature","properties":{"cod_tema":"AREA_INFRAESTRUTURA_PUBLICA","cod_imovel":"RJ-3303104-A738173FA57443E590B1DB6E6A5601FA","num_area":"0.6499000000000000000000000000000","ind_status":"AT"},"geometry":{"type":"Polygon","coordinates":[[[-41.9554,-20.9952],[-41.9483,-20.9988],[-41.9554,-20.9958],[-41.9554,-20.9952]]]}},{"type":"Feature","properties":{"cod_tema":"AREA_SERVIDAO_ADMINISTRATIVA_TOTAL","cod_imovel":"RJ-3303104-A738173FA57443E590B1DB6E6A5601FA","num_area":"0.6499000000000000000000000000000","ind_status":"AT"},"geometry":{"type":"Polygon","coordinates":[[[-41.9554,-20.9952],[-41.9483,-20.9988],[-41.9554,-20.9958],[-41.9554,-20.9952]]]}},{"type":"Feature","properties":{"cod_tema":"AREA_UTILIDADE_PUBLICA","cod_imovel":"RJ-3303104-A9E6D719EFA74AB491E23769E883FAA8","num_area":"0.2052000000000000000000000000000","ind_status":"AT"},"geometry":{"type":"Polygon","coordinates":[[[-41.9175,-20.9982],[-41.9216,-21.0011],[-41.9184,-20.9987],[-41.9175,-20.9982]]]}},{"type":"Feature","properties":{"cod_tema":"AREA_SERVIDAO_ADMINISTRATIVA_TOTAL","cod_imovel":"RJ-3303104-A9E6D719EFA74AB491E23769E883FAA8","num_area":"0.2052000000000000000000000000000","ind_status":"AT"},"geometry":{"type":"Polygon","coordinates":[[[-41.9175,-20.9982],[-41.9216,-21.0011],[-41.9184,-20.9987],[-41.9175,-20.9982]]]}},{"type":"Feature","properties":{"cod_tema":"AREA_UTILIDADE_PUBLICA","cod_imovel":"RJ-3303104-AB04EC0505F74E8F842C3DA328B09477","num_area":"0.9989000000000000000000000000000","ind_status":"AT"},"geometry":{"type":"Polygon","coordinates":[[[-41.8444,-20.9907],[-41.8454,-20.9838],[-41.8443,-20.9906],[-41.8444,-20.9907]],[[-41.8397,-20.9877],[-41.834,-20.9862],[-41.8395,-20.9876],[-41.8397,-20.9877]]]}},{"type":"Feature","properties":{"cod_tema":"AREA_SERVIDAO_ADMINISTRATIVA_TOTAL","cod_imovel":"RJ-3303104-AB04EC0505F74E8F842C3DA328B09477","num_area":"0.9989000000000000000000000000000","ind_status":"AT"},"geometry":{"type":"Polygon","coordinates":[[[-41.8444,-20.9907],[-41.8454,-20.9838],[-41.8443,-20.9906],[-41.8444,-20.9907]],[[-41.8397,-20.9877],[-41.834,-20.9862],[-41.8395,-20.9876],[-41.8397,-20.9877]]]}},{"type":"Feature","properties":{"cod_tema":"AREA_UTILIDADE_PUBLICA","cod_imovel":"RJ-3303104-AC10030AA2644559A39A11CFD250D05D","num_area":"0.1730000000000000000000000000000","ind_status":"AT"},"geometry":{"type":"Polygon","coordinates":[[[-41.9304,-21.0223],[-41.934,-21.0202],[-41.9309,-21.0219],[-41.9304,-21.0223]]]}},{"type":"Feature","properties":{"cod_tema":"AREA_SERVIDAO_ADMINISTRATIVA_TOTAL","cod_imovel":"RJ-3303104-AC10030AA2644559A39A11CFD250D05D","num_area":"0.1730000000000000000000000000000","ind_status":"AT"},"geometry":{"type":"Polygon","coordinates":[[[-41.9304,-21.0223],[-41.934,-21.0202],[-41.9309,-21.0219],[-41.9304,-21.0223]]]}},{"type":"Feature","properties":{"cod_tema":"AREA_INFRAESTRUTURA_PUBLICA","cod_imovel":"RJ-3303104-B8357D2F099A44538B2692767FBC0005","num_area":"0.3969000000000000000000000000000","ind_status":"AT"},"geometry":{"type":"Polygon","coordinates":[[[-41.9339,-21.1416],[-41.9322,-21.1375],[-41.9363,-21.1374],[-41.9322,-21.1374],[-41.9339,-21.1414],[-41.9339,-21.1416]]]}},{"type":"Feature","properties":{"cod_tema":"AREA_SERVIDAO_ADMINISTRATIVA_TOTAL","cod_imovel":"RJ-3303104-B8357D2F099A44538B2692767FBC0005","num_area":"0.3969000000000000000000000000000","ind_status":"AT"},"geometry":{"type":"Polygon","coordinates":[[[-41.9339,-21.1416],[-41.9322,-21.1375],[-41.9363,-21.1374],[-41.9322,-21.1374],[-41.9339,-21.1414],[-41.9339,-21.1416]]]}},{"type":"Feature","properties":{"cod_tema":"AREA_INFRAESTRUTURA_PUBLICA","cod_imovel":"RJ-3303104-BA42BA9079C64DDE9FBDC00A3D5D3876","num_area":"0.3431000000000000000000000000000","ind_status":"AT"},"geometry":{"type":"Polygon","coordinates":[[[-41.9641,-20.9858],[-41.9656,-20.9822],[-41.9641,-20.9856],[-41.9641,-20.9858]]]}},{"type":"Feature","properties":{"cod_tema":"AREA_SERVIDAO_ADMINISTRATIVA_TOTAL","cod_imovel":"RJ-3303104-BA42BA9079C64DDE9FBDC00A3D5D3876","num_area":"0.3431000000000000000000000000000","ind_status":"AT"},"geometry":{"type":"Polygon","coordinates":[[[-41.9641,-20.9858],[-41.9656,-20.9822],[-41.9641,-20.9856],[-41.9641,-20.9858]]]}},{"type":"Feature","properties":{"cod_tema":"AREA_INFRAESTRUTURA_PUBLICA","cod_imovel":"RJ-3303104-BDA156E24E1C47C1A9B1E395F0AF8CD5","num_area":"0.3380000000000000000000000000000","ind_status":"AT"},"geometry":{"type":"Polygon","coordinates":[[[-41.9397,-21.0592],[-41.9358,-21.0564],[-41.9396,-21.0592],[-41.9397,-21.0592]]]}},{"type":"Feature","properties":{"cod_tema":"AREA_SERVIDAO_ADMINISTRATIVA_TOTAL","cod_imovel":"RJ-3303104-BDA156E24E1C47C1A9B1E395F0AF8CD5","num_area":"0.3380000000000000000000000000000","ind_status":"AT"},"geometry":{"type":"Polygon","coordinates":[[[-41.9397,-21.0592],[-41.9358,-21.0564],[-41.9396,-21.0592],[-41.9397,-21.0592]]]}},{"type":"Feature","properties":{"cod_tema":"AREA_INFRAESTRUTURA_PUBLICA","cod_imovel":"RJ-3303104-BE3FC2EDE4214E33B559D90C4A632CBA","num_area":"0.7705000000000000000000000000000","ind_status":"AT"},"geometry":{"type":"Polygon","coordinates":[[[-41.9025,-21.1156],[-41.9016,-21.1088],[-41.9022,-21.1154],[-41.9025,-21.1156]]]}},{"type":"Feature","properties":{"cod_tema":"AREA_SERVIDAO_ADMINISTRATIVA_TOTAL","cod_imovel":"RJ-3303104-BE3FC2EDE4214E33B559D90C4A632CBA","num_area":"0.7705000000000000000000000000000","ind_status":"AT"},"geometry":{"type":"Polygon","coordinates":[[[-41.9025,-21.1156],[-41.9016,-21.1088],[-41.9022,-21.1154],[-41.9025,-21.1156]]]}},{"type":"Feature","properties":{"cod_tema":"AREA_INFRAESTRUTURA_PUBLICA","cod_imovel":"RJ-3303104-BFEB66E51A1C4829A23AFC655169284D","num_area":"1.7873000000000000000000000000000","ind_status":"AT"},"geometry":{"type":"Polygon","coordinates":[[[-41.8567,-21.0267],[-41.8523,-21.019],[-41.8566,-21.0265],[-41.8567,-21.0267]],[[-41.8597,-21.0222],[-41.8627,-21.0096],[-41.8553,-21.0149],[-41.8596,-21.0221],[-41.8597,-21.0222]]]}},{"type":"Feature","properties":{"cod_tema":"AREA_SERVIDAO_ADMINISTRATIVA_TOTAL","cod_imovel":"RJ-3303104-BFEB66E51A1C4829A23AFC655169284D","num_area":"1.7873000000000000000000000000000","ind_status":"AT"},"geometry":{"type":"Polygon","coordinates":[[[-41.8567,-21.0267],[-41.8523,-21.019],[-41.8566,-21.0265],[-41.8567,-21.0267]],[[-41.8597,-21.0222],[-41.8627,-21.0096],[-41.8553,-21.0149],[-41.8596,-21.0221],[-41.8597,-21.0222]]]}},{"type":"Feature","properties":{"cod_tema":"AREA_INFRAESTRUTURA_PUBLICA","cod_imovel":"RJ-3303104-C0B836E37D3D43BBA7B5A6BEFDD65CBD","num_area":"0.4434000000000000000000000000000","ind_status":"AT"},"geometry":{"type":"Polygon","coordinates":[[[-41.8877,-21.0251],[-41.8864,-21.028],[-41.8877,-21.0253],[-41.8877,-21.0251]]]}},{"type":"Feature","properties":{"cod_tema":"AREA_SERVIDAO_ADMINISTRATIVA_TOTAL","cod_imovel":"RJ-3303104-C0B836E37D3D43BBA7B5A6BEFDD65CBD","num_area":"0.4434000000000000000000000000000","ind_status":"AT"},"geometry":{"type":"Polygon","coordinates":[[[-41.8877,-21.0251],[-41.8864,-21.028],[-41.8877,-21.0253],[-41.8877,-21.0251]]]}},{"type":"Feature","properties":{"cod_tema":"AREA_UTILIDADE_PUBLICA","cod_imovel":"RJ-3303104-C1112BD23E51486FB37CD757BB119C8F","num_area":"0.1340000000000000000000000000000","ind_status":"AT"},"geometry":{"type":"Polygon","coordinates":[[[-41.9397,-21.0591],[-41.9409,-21.0621],[-41.9398,-21.0592],[-41.9397,-21.0591]]]}},{"type":"Feature","properties":{"cod_tema":"AREA_SERVIDAO_ADMINISTRATIVA_TOTAL","cod_imovel":"RJ-3303104-C1112BD23E51486FB37CD757BB119C8F","num_area":"0.1340000000000000000000000000000","ind_status":"AT"},"geometry":{"type":"Polygon","coordinates":[[[-41.9397,-21.0591],[-41.9409,-21.0621],[-41.9398,-21.0592],[-41.9397,-21.0591]]]}},{"type":"Feature","properties":{"cod_tema":"AREA_UTILIDADE_PUBLICA","cod_imovel":"RJ-3303104-CA6038C3CEB74FC1A70772FB64A71B30","num_area":"0.1831000000000000000000000000000","ind_status":"AT"},"geometry":{"type":"Polygon","coordinates":[[[-41.9779,-21.0542],[-41.9759,-21.0571],[-41.9778,-21.0544],[-41.9779,-21.0542]]]}},{"type":"Feature","properties":{"cod_tema":"AREA_SERVIDAO_ADMINISTRATIVA_TOTAL","cod_imovel":"RJ-3303104-CA6038C3CEB74FC1A70772FB64A71B30","num_area":"0.1831000000000000000000000000000","ind_status":"AT"},"geometry":{"type":"Polygon","coordinates":[[[-41.9779,-21.0542],[-41.9759,-21.0571],[-41.9778,-21.0544],[-41.9779,-21.0542]]]}},{"type":"Feature","properties":{"cod_tema":"AREA_INFRAESTRUTURA_PUBLICA","cod_imovel":"RJ-3303104-CDED5F3AFC004919AF366FA89B9E41DA","num_area":"0.5519000000000000000000000000000","ind_status":"AT"},"geometry":{"type":"Polygon","coordinates":[[[-42.029,-21.0626],[-42.0328,-21.0658],[-42.0292,-21.0627],[-42.029,-21.0626]]]}},{"type":"Feature","properties":{"cod_tema":"AREA_SERVIDAO_ADMINISTRATIVA_TOTAL","cod_imovel":"RJ-3303104-CDED5F3AFC004919AF366FA89B9E41DA","num_area":"0.5519000000000000000000000000000","ind_status":"AT"},"geometry":{"type":"Polygon","coordinates":[[[-42.029,-21.0626],[-42.0328,-21.0658],[-42.0292,-21.0627],[-42.029,-21.0626]]]}},{"type":"Feature","properties":{"cod_tema":"AREA_UTILIDADE_PUBLICA","cod_imovel":"RJ-3303104-CB086B34444647EE835DEEAF4DBACF56","num_area":"1.5691000000000000000000000000000","ind_status":"AT"},"geometry":{"type":"Polygon","coordinates":[[[-41.9729,-21.0619],[-41.9765,-21.0637],[-41.9731,-21.0617],[-41.976,-21.0571],[-41.9729,-21.0619],[-41.9729,-21.0619]]]}},{"type":"Feature","properties":{"cod_tema":"AREA_SERVIDAO_ADMINISTRATIVA_TOTAL","cod_imovel":"RJ-3303104-CB086B34444647EE835DEEAF4DBACF56","num_area":"1.5691000000000000000000000000000","ind_status":"AT"},"geometry":{"type":"Polygon","coordinates":[[[-41.9729,-21.0619],[-41.9765,-21.0637],[-41.9731,-21.0617],[-41.976,-21.0571],[-41.9729,-21.0619],[-41.9729,-21.0619]]]}},{"type":"Feature","properties":{"cod_tema":"AREA_UTILIDADE_PUBLICA","cod_imovel":"RJ-3303104-F6EA6A7DE35A4750910CA03028A9F0B6","num_area":"0.1823000000000000000000000000000","ind_status":"AT"},"geometry":{"type":"Polygon","coordinates":[[[-41.8178,-21.0082],[-41.8216,-21.0085],[-41.8178,-21.0082],[-41.8178,-21.0082]]]}},{"type":"Feature","properties":{"cod_tema":"AREA_SERVIDAO_ADMINISTRATIVA_TOTAL","cod_imovel":"RJ-3303104-F6EA6A7DE35A4750910CA03028A9F0B6","num_area":"0.1823000000000000000000000000000","ind_status":"AT"},"geometry":{"type":"Polygon","coordinates":[[[-41.8178,-21.0082],[-41.8216,-21.0085],[-41.8178,-21.0082],[-41.8178,-21.0082]]]}},{"type":"Feature","properties":{"cod_tema":"AREA_INFRAESTRUTURA_PUBLICA","cod_imovel":"RJ-3303104-D735B45078C14CAA99EF1C609ABF89C8","num_area":"0.3912000000000000000000000000000","ind_status":"AT"},"geometry":{"type":"Polygon","coordinates":[[[-41.8679,-21.005],[-41.8641,-21.0085],[-41.8678,-21.005],[-41.8679,-21.005]]]}},{"type":"Feature","properties":{"cod_tema":"AREA_SERVIDAO_ADMINISTRATIVA_TOTAL","cod_imovel":"RJ-3303104-D735B45078C14CAA99EF1C609ABF89C8","num_area":"0.3912000000000000000000000000000","ind_status":"AT"},"geometry":{"type":"Polygon","coordinates":[[[-41.8679,-21.005],[-41.8641,-21.0085],[-41.8678,-21.005],[-41.8679,-21.005]]]}},{"type":"Feature","properties":{"cod_tema":"AREA_INFRAESTRUTURA_PUBLICA","cod_imovel":"RJ-3303104-DD185F87533C40799CBFD6C1440F01D5","num_area":"0.2636000000000000000000000000000","ind_status":"AT"},"geometry":{"type":"Polygon","coordinates":[[[-41.8503,-21.0608],[-41.8516,-21.0635],[-41.8501,-21.0603],[-41.8503,-21.0608]]]}},{"type":"Feature","properties":{"cod_tema":"AREA_SERVIDAO_ADMINISTRATIVA_TOTAL","cod_imovel":"RJ-3303104-DD185F87533C40799CBFD6C1440F01D5","num_area":"0.2636000000000000000000000000000","ind_status":"AT"},"geometry":{"type":"Polygon","coordinates":[[[-41.8503,-21.0608],[-41.8516,-21.0635],[-41.8501,-21.0603],[-41.8503,-21.0608]]]}},{"type":"Feature","properties":{"cod_tema":"AREA_INFRAESTRUTURA_PUBLICA","cod_imovel":"RJ-3303104-E0DAC25562AA4A3A81D0A7008EA9CCBD","num_area":"0.6740000000000000000000000000000","ind_status":"AT"},"geometry":{"type":"Polygon","coordinates":[[[-41.9996,-21.0302],[-42.0062,-21.0272],[-42.0013,-21.0296],[-41.9996,-21.0302]]]}},{"type":"Feature","properties":{"cod_tema":"AREA_UTILIDADE_PUBLICA","cod_imovel":"RJ-3303104-E0DAC25562AA4A3A81D0A7008EA9CCBD","num_area":"1.6669000000000000000000000000000","ind_status":"AT"},"geometry":{"type":"Polygon","coordinates":[[[-42.0054,-21.0325],[-42.0063,-21.0273],[-42.0055,-21.0323],[-42.0054,-21.0325]]]}},{"type":"Feature","properties":{"cod_tema":"AREA_SERVIDAO_ADMINISTRATIVA_TOTAL","cod_imovel":"RJ-3303104-E0DAC25562AA4A3A81D0A7008EA9CCBD","num_area":"2.3410000000000000000000000000000","ind_status":"AT"},"geometry":{"type":"Polygon","coordinates":[[[-42.0054,-21.0325],[-42.0063,-21.0273],[-42.0055,-21.0323],[-42.0054,-21.0325]],[[-41.9996,-21.0302],[-42.0062,-21.0272],[-42.0013,-21.0296],[-41.9996,-21.0302]]]}},{"type":"Feature","properties":{"cod_tema":"AREA_INFRAESTRUTURA_PUBLICA","cod_imovel":"RJ-3303104-EAF13A083D7F49888AFD5E5405ECE88A","num_area":"0.7691000000000000000000000000000","ind_status":"AT"},"geometry":{"type":"Polygon","coordinates":[[[-41.9193,-21.0204],[-41.926,-21.0225],[-41.9198,-21.0208],[-41.9193,-21.0204]]]}},{"type":"Feature","properties":{"cod_tema":"AREA_SERVIDAO_ADMINISTRATIVA_TOTAL","cod_imovel":"RJ-3303104-EAF13A083D7F49888AFD5E5405ECE88A","num_area":"0.7691000000000000000000000000000","ind_status":"AT"},"geometry":{"type":"Polygon","coordinates":[[[-41.9193,-21.0204],[-41.926,-21.0225],[-41.9198,-21.0208],[-41.9193,-21.0204]]]}},{"type":"Feature","properties":{"cod_tema":"AREA_UTILIDADE_PUBLICA","cod_imovel":"RJ-3303104-F50C45FB1C9B48D5B1542404477CCCC6","num_area":"0.3791000000000000000000000000000","ind_status":"AT"},"geometry":{"type":"Polygon","coordinates":[[[-42.012,-21.1091],[-42.0163,-21.1033],[-42.0128,-21.1087],[-42.012,-21.1091]],[[-42.0117,-21.1091],[-42.005,-21.1076],[-42.0092,-21.1086],[-42.0117,-21.1091]]]}},{"type":"Feature","properties":{"cod_tema":"AREA_SERVIDAO_ADMINISTRATIVA_TOTAL","cod_imovel":"RJ-3303104-F50C45FB1C9B48D5B1542404477CCCC6","num_area":"0.3791000000000000000000000000000","ind_status":"AT"},"geometry":{"type":"Polygon","coordinates":[[[-42.012,-21.1091],[-42.0163,-21.1033],[-42.0128,-21.1087],[-42.012,-21.1091]],[[-42.0117,-21.1091],[-42.005,-21.1076],[-42.0092,-21.1086],[-42.0117,-21.1091]]]}},{"type":"Feature","properties":{"cod_tema":"AREA_INFRAESTRUTURA_PUBLICA","cod_imovel":"RJ-3303104-F9E38997CEA94D5484C22DBF91D5C4A7","num_area":"0.3530000000000000000000000000000","ind_status":"AT"},"geometry":{"type":"Polygon","coordinates":[[[-42.016,-21.1029],[-42.0157,-21.0998],[-42.016,-21.1029],[-42.016,-21.1029]]]}},{"type":"Feature","properties":{"cod_tema":"AREA_SERVIDAO_ADMINISTRATIVA_TOTAL","cod_imovel":"RJ-3303104-F9E38997CEA94D5484C22DBF91D5C4A7","num_area":"0.3530000000000000000000000000000","ind_status":"AT"},"geometry":{"type":"Polygon","coordinates":[[[-42.016,-21.1029],[-42.0157,-21.0998],[-42.016,-21.1029],[-42.016,-21.1029]]]}},{"type":"Feature","properties":{"cod_tema":"AREA_INFRAESTRUTURA_PUBLICA","cod_imovel":"RJ-3303104-FD848C00EBF647AEA4ADF4C0CF1EC847","num_area":"2.6965000000000000000000000000000","ind_status":"CA"},"geometry":{"type":"Polygon","coordinates":[[[-41.9342,-21.0803],[-41.9307,-21.0828],[-41.9351,-21.0801],[-41.9342,-21.0803]],[[-41.9223,-21.0765],[-41.9021,-21.0815],[-41.8963,-21.0894],[-41.9022,-21.0815],[-41.9221,-21.0768],[-41.9223,-21.0765]]]}},{"type":"Feature","properties":{"cod_tema":"AREA_SERVIDAO_ADMINISTRATIVA_TOTAL","cod_imovel":"RJ-3303104-FD848C00EBF647AEA4ADF4C0CF1EC847","num_area":"2.6965000000000000000000000000000","ind_status":"CA"},"geometry":{"type":"Polygon","coordinates":[[[-41.9342,-21.0803],[-41.9307,-21.0828],[-41.9351,-21.0801],[-41.9342,-21.0803]],[[-41.9223,-21.0765],[-41.9021,-21.0815],[-41.8963,-21.0894],[-41.9022,-21.0815],[-41.9221,-21.0768],[-41.9223,-21.0765]]]}},{"type":"Feature","properties":{"cod_tema":"AREA_INFRAESTRUTURA_PUBLICA","cod_imovel":"RJ-3303104-DDBB23E271D34C00BB066A998CDB7F12","num_area":"0.3610000000000000000000000000000","ind_status":"CA"},"geometry":{"type":"Polygon","coordinates":[[[-41.846,-20.9737],[-41.8493,-20.9783],[-41.8462,-20.9739],[-41.846,-20.9737]],[[-41.846,-20.9738],[-41.8492,-20.9785],[-41.846,-20.9738],[-41.846,-20.9738]]]}},{"type":"Feature","properties":{"cod_tema":"AREA_SERVIDAO_ADMINISTRATIVA_TOTAL","cod_imovel":"RJ-3303104-DDBB23E271D34C00BB066A998CDB7F12","num_area":"0.3610000000000000000000000000000","ind_status":"CA"},"geometry":{"type":"Polygon","coordinates":[[[-41.846,-20.9737],[-41.8493,-20.9783],[-41.8462,-20.9739],[-41.846,-20.9737]],[[-41.846,-20.9738],[-41.8492,-20.9785],[-41.846,-20.9738],[-41.846,-20.9738]]]}},{"type":"Feature","properties":{"cod_tema":"AREA_INFRAESTRUTURA_PUBLICA","cod_imovel":"RJ-3303104-0673D611261C4427B452CC44594BFE9E","num_area":"0.6275000000000000000000000000000","ind_status":"AT"},"geometry":{"type":"Polygon","coordinates":[[[-41.9777,-20.9633],[-41.9807,-20.9712],[-41.9813,-20.9641],[-41.9778,-20.9636],[-41.9777,-20.9633]]]}},{"type":"Feature","properties":{"cod_tema":"AREA_SERVIDAO_ADMINISTRATIVA_TOTAL","cod_imovel":"RJ-3303104-0673D611261C4427B452CC44594BFE9E","num_area":"0.6275000000000000000000000000000","ind_status":"AT"},"geometry":{"type":"Polygon","coordinates":[[[-41.9777,-20.9633],[-41.9807,-20.9712],[-41.9813,-20.9641],[-41.9778,-20.9636],[-41.9777,-20.9633]]]}},{"type":"Feature","properties":{"cod_tema":"AREA_UTILIDADE_PUBLICA","cod_imovel":"RJ-3303104-44FC9B64AB954D6180D4F00D6822D6F9","num_area":"3.3495000000000000000000000000000","ind_status":"AT"},"geometry":{"type":"Polygon","coordinates":[[[-42.08,-21.0336],[-42.0672,-21.0319],[-42.0627,-21.0224],[-42.0663,-21.0294],[-42.0574,-21.0333],[-42.0665,-21.029],[-42.0773,-21.0332],[-42.0639,-21.0424],[-42.0799,-21.0337],[-42.08,-21.0336]]]}},{"type":"Feature","properties":{"cod_tema":"AREA_SERVIDAO_ADMINISTRATIVA_TOTAL","cod_imovel":"RJ-3303104-44FC9B64AB954D6180D4F00D6822D6F9","num_area":"3.3495000000000000000000000000000","ind_status":"AT"},"geometry":{"type":"Polygon","coordinates":[[[-42.08,-21.0336],[-42.0672,-21.0319],[-42.0627,-21.0224],[-42.0663,-21.0294],[-42.0574,-21.0333],[-42.0665,-21.029],[-42.0773,-21.0332],[-42.0639,-21.0424],[-42.0799,-21.0337],[-42.08,-21.0336]]]}},{"type":"Feature","properties":{"cod_tema":"AREA_INFRAESTRUTURA_PUBLICA","cod_imovel":"RJ-3303104-C3E1B204935041BD9D9B705B0181CEB7","num_area":"0.5383000000000000000000000000000","ind_status":"AT"},"geometry":{"type":"Polygon","coordinates":[[[-41.8521,-21.0036],[-41.8475,-21.0049],[-41.8521,-21.0036],[-41.8521,-21.0036]]]}},{"type":"Feature","properties":{"cod_tema":"AREA_SERVIDAO_ADMINISTRATIVA_TOTAL","cod_imovel":"RJ-3303104-C3E1B204935041BD9D9B705B0181CEB7","num_area":"0.5383000000000000000000000000000","ind_status":"AT"},"geometry":{"type":"Polygon","coordinates":[[[-41.8521,-21.0036],[-41.8475,-21.0049],[-41.8521,-21.0036],[-41.8521,-21.0036]]]}},{"type":"Feature","properties":{"cod_tema":"AREA_UTILIDADE_PUBLICA","cod_imovel":"RJ-3303104-E33A532C426142E98F14C64AE31555C6","num_area":"2.4418000000000000000000000000000","ind_status":"CA"},"geometry":{"type":"Polygon","coordinates":[[[-41.853,-20.9931],[-41.8483,-20.9941],[-41.8517,-21.0041],[-41.8448,-21.0033],[-41.8523,-21.0082],[-41.853,-20.9931],[-41.853,-20.9931]]]}},{"type":"Feature","properties":{"cod_tema":"AREA_SERVIDAO_ADMINISTRATIVA_TOTAL","cod_imovel":"RJ-3303104-E33A532C426142E98F14C64AE31555C6","num_area":"2.4418000000000000000000000000000","ind_status":"CA"},"geometry":{"type":"Polygon","coordinates":[[[-41.853,-20.9931],[-41.8483,-20.9941],[-41.8517,-21.0041],[-41.8448,-21.0033],[-41.8523,-21.0082],[-41.853,-20.9931],[-41.853,-20.9931]]]}},{"type":"Feature","properties":{"cod_tema":"AREA_INFRAESTRUTURA_PUBLICA","cod_imovel":"RJ-3303104-CC5C8389BEA549D5A3BCD05683C6E001","num_area":"0.3818000000000000000000000000000","ind_status":"AT"},"geometry":{"type":"Polygon","coordinates":[[[-41.9071,-21.1032],[-41.9028,-21.0994],[-41.9071,-21.1032],[-41.9071,-21.1032]]]}},{"type":"Feature","properties":{"cod_tema":"AREA_SERVIDAO_ADMINISTRATIVA_TOTAL","cod_imovel":"RJ-3303104-CC5C8389BEA549D5A3BCD05683C6E001","num_area":"0.3818000000000000000000000000000","ind_status":"AT"},"geometry":{"type":"Polygon","coordinates":[[[-41.9071,-21.1032],[-41.9028,-21.0994],[-41.9071,-21.1032],[-41.9071,-21.1032]]]}},{"type":"Feature","properties":{"cod_tema":"AREA_INFRAESTRUTURA_PUBLICA","cod_imovel":"RJ-3303104-35C5DE3E7C8D4A2E8D86E4C4162639DE","num_area":"0.4573000000000000000000000000000","ind_status":"AT"},"geometry":{"type":"Polygon","coordinates":[[[-41.8952,-21.1106],[-41.9018,-21.1057],[-41.8954,-21.1104],[-41.8952,-21.1106]]]}},{"type":"Feature","properties":{"cod_tema":"AREA_SERVIDAO_ADMINISTRATIVA_TOTAL","cod_imovel":"RJ-3303104-35C5DE3E7C8D4A2E8D86E4C4162639DE","num_area":"0.4573000000000000000000000000000","ind_status":"AT"},"geometry":{"type":"Polygon","coordinates":[[[-41.8952,-21.1106],[-41.9018,-21.1057],[-41.8954,-21.1104],[-41.8952,-21.1106]]]}},{"type":"Feature","properties":{"cod_tema":"AREA_INFRAESTRUTURA_PUBLICA","cod_imovel":"RJ-3303104-989BCCF92B09496DB88C77E9E119BDA5","num_area":"1.8245000000000000000000000000000","ind_status":"AT"},"geometry":{"type":"Polygon","coordinates":[[[-41.9246,-21.1429],[-41.9235,-21.1361],[-41.9244,-21.143],[-41.9246,-21.1429]]]}},{"type":"Feature","properties":{"cod_tema":"AREA_UTILIDADE_PUBLICA","cod_imovel":"RJ-3303104-989BCCF92B09496DB88C77E9E119BDA5","num_area":"3.0854000000000000000000000000000","ind_status":"AT"},"geometry":{"type":"Polygon","coordinates":[[[-41.9317,-21.1294],[-41.925,-21.1357],[-41.9315,-21.1301],[-41.9317,-21.1294]]]}},{"type":"Feature","properties":{"cod_tema":"AREA_SERVIDAO_ADMINISTRATIVA_TOTAL","cod_imovel":"RJ-3303104-989BCCF92B09496DB88C77E9E119BDA5","num_area":"4.9075000000000000000000000000000","ind_status":"AT"},"geometry":{"type":"Polygon","coordinates":[[[-41.9246,-21.1429],[-41.9235,-21.136],[-41.9244,-21.143],[-41.9246,-21.1429]],[[-41.9317,-21.1294],[-41.925,-21.1357],[-41.9315,-21.1301],[-41.9317,-21.1294]]]}},{"type":"Feature","properties":{"cod_tema":"AREA_UTILIDADE_PUBLICA","cod_imovel":"RJ-3303104-8F94E2FB4CBE43A1A2A471E3D6E46F0A","num_area":"1.9267000000000000000000000000000","ind_status":"PE"},"geometry":{"type":"Polygon","coordinates":[[[-41.9469,-21.1061],[-41.9443,-21.11],[-41.9469,-21.1061],[-41.9469,-21.1061]]]}},{"type":"Feature","properties":{"cod_tema":"AREA_SERVIDAO_ADMINISTRATIVA_TOTAL","cod_imovel":"RJ-3303104-8F94E2FB4CBE43A1A2A471E3D6E46F0A","num_area":"1.9267000000000000000000000000000","ind_status":"PE"},"geometry":{"type":"Polygon","coordinates":[[[-41.9469,-21.1061],[-41.9443,-21.11],[-41.9469,-21.1061],[-41.9469,-21.1061]]]}},{"type":"Feature","properties":{"cod_tema":"AREA_INFRAESTRUTURA_PUBLICA","cod_imovel":"RJ-3303104-8EACAB0AB584403CBF7450ECB13C391C","num_area":"0.4812000000000000000000000000000","ind_status":"AT"},"geometry":{"type":"Polygon","coordinates":[[[-41.8459,-21.0679],[-41.8526,-21.0692],[-41.8462,-21.068],[-41.8459,-21.0679]]]}},{"type":"Feature","properties":{"cod_tema":"AREA_SERVIDAO_ADMINISTRATIVA_TOTAL","cod_imovel":"RJ-3303104-8EACAB0AB584403CBF7450ECB13C391C","num_area":"0.4812000000000000000000000000000","ind_status":"AT"},"geometry":{"type":"Polygon","coordinates":[[[-41.8459,-21.0679],[-41.8526,-21.0692],[-41.8462,-21.068],[-41.8459,-21.0679]]]}},{"type":"Feature","properties":{"cod_tema":"AREA_UTILIDADE_PUBLICA","cod_imovel":"RJ-3303104-B30587EFF86F42F8B984F1AA203D3D59","num_area":"0.2170000000000000000000000000000","ind_status":"AT"},"geometry":{"type":"Polygon","coordinates":[[[-42.0292,-21.0448],[-42.0266,-21.0478],[-42.032,-21.0428],[-42.0288,-21.0453],[-42.0292,-21.0448]]]}},{"type":"Feature","properties":{"cod_tema":"AREA_SERVIDAO_ADMINISTRATIVA_TOTAL","cod_imovel":"RJ-3303104-B30587EFF86F42F8B984F1AA203D3D59","num_area":"0.2170000000000000000000000000000","ind_status":"AT"},"geometry":{"type":"Polygon","coordinates":[[[-42.0292,-21.0448],[-42.0266,-21.0478],[-42.032,-21.0428],[-42.0288,-21.0453],[-42.0292,-21.0448]]]}},{"type":"Feature","properties":{"cod_tema":"AREA_UTILIDADE_PUBLICA","cod_imovel":"RJ-3303104-349130E123E24F999250F1BC4F256AD0","num_area":"0.3113000000000000000000000000000","ind_status":"AT"},"geometry":{"type":"Polygon","coordinates":[[[-42.0191,-21.07],[-42.0148,-21.0715],[-42.0202,-21.0693],[-42.0191,-21.07]]]}},{"type":"Feature","properties":{"cod_tema":"AREA_SERVIDAO_ADMINISTRATIVA_TOTAL","cod_imovel":"RJ-3303104-349130E123E24F999250F1BC4F256AD0","num_area":"0.3113000000000000000000000000000","ind_status":"AT"},"geometry":{"type":"Polygon","coordinates":[[[-42.0191,-21.07],[-42.0148,-21.0715],[-42.0202,-21.0693],[-42.0191,-21.07]]]}},{"type":"Feature","properties":{"cod_tema":"AREA_INFRAESTRUTURA_PUBLICA","cod_imovel":"RJ-3303104-EC96CD7C7514493FBE66E1405382D00A","num_area":"0.4961000000000000000000000000000","ind_status":"PE"},"geometry":{"type":"Polygon","coordinates":[[[-41.9916,-21.0917],[-41.9964,-21.0846],[-41.9914,-21.092],[-41.9916,-21.0917]]]}},{"type":"Feature","properties":{"cod_tema":"AREA_SERVIDAO_ADMINISTRATIVA_TOTAL","cod_imovel":"RJ-3303104-EC96CD7C7514493FBE66E1405382D00A","num_area":"0.4961000000000000000000000000000","ind_status":"PE"},"geometry":{"type":"Polygon","coordinates":[[[-41.9916,-21.0917],[-41.9964,-21.0846],[-41.9914,-21.092],[-41.9916,-21.0917]]]}},{"type":"Feature","properties":{"cod_tema":"AREA_INFRAESTRUTURA_PUBLICA","cod_imovel":"RJ-3303104-B509D1AD02CF47C5AEA18C380CD305CE","num_area":"0.5815000000000000000000000000000","ind_status":"AT"},"geometry":{"type":"Polygon","coordinates":[[[-41.9075,-21.0478],[-41.904,-21.0459],[-41.9074,-21.0476],[-41.9075,-21.0478]]]}},{"type":"Feature","properties":{"cod_tema":"AREA_SERVIDAO_ADMINISTRATIVA_TOTAL","cod_imovel":"RJ-3303104-B509D1AD02CF47C5AEA18C380CD305CE","num_area":"0.5815000000000000000000000000000","ind_status":"AT"},"geometry":{"type":"Polygon","coordinates":[[[-41.9075,-21.0478],[-41.904,-21.0459],[-41.9074,-21.0476],[-41.9075,-21.0478]]]}},{"type":"Feature","properties":{"cod_tema":"AREA_UTILIDADE_PUBLICA","cod_imovel":"RJ-3303104-0D42E8D4351A4294B6FD548FF0919BE9","num_area":"2.7355000000000000000000000000000","ind_status":"AT"},"geometry":{"type":"Polygon","coordinates":[[[-41.9762,-21.0958],[-41.9722,-21.0942],[-41.9787,-21.0898],[-41.9714,-21.0953],[-41.9685,-21.0927],[-41.9762,-21.0958],[-41.9762,-21.0958]],[[-41.9749,-21.0928],[-41.9722,-21.0943],[-41.9749,-21.0928],[-41.9749,-21.0928]]]}},{"type":"Feature","properties":{"cod_tema":"AREA_SERVIDAO_ADMINISTRATIVA_TOTAL","cod_imovel":"RJ-3303104-0D42E8D4351A4294B6FD548FF0919BE9","num_area":"2.7355000000000000000000000000000","ind_status":"AT"},"geometry":{"type":"Polygon","coordinates":[[[-41.9762,-21.0958],[-41.9722,-21.0942],[-41.9787,-21.0898],[-41.9714,-21.0953],[-41.9685,-21.0927],[-41.9762,-21.0958],[-41.9762,-21.0958]],[[-41.9749,-21.0928],[-41.9722,-21.0943],[-41.9749,-21.0928],[-41.9749,-21.0928]]]}},{"type":"Feature","properties":{"cod_tema":"AREA_INFRAESTRUTURA_PUBLICA","cod_imovel":"RJ-3303104-007DAF5C4DAF436EB3F1B315865FA5A3","num_area":"0.5303000000000000000000000000000","ind_status":"AT"},"geometry":{"type":"Polygon","coordinates":[[[-41.8483,-20.9942],[-41.8526,-20.9987],[-41.853,-20.9932],[-41.8483,-20.9942],[-41.8483,-20.9942]]]}},{"type":"Feature","properties":{"cod_tema":"AREA_SERVIDAO_ADMINISTRATIVA_TOTAL","cod_imovel":"RJ-3303104-007DAF5C4DAF436EB3F1B315865FA5A3","num_area":"0.5303000000000000000000000000000","ind_status":"AT"},"geometry":{"type":"Polygon","coordinates":[[[-41.8483,-20.9942],[-41.8526,-20.9987],[-41.853,-20.9932],[-41.8483,-20.9942],[-41.8483,-20.9942]]]}},{"type":"Feature","properties":{"cod_tema":"AREA_UTILIDADE_PUBLICA","cod_imovel":"RJ-3303104-9BBE54438EC1452C8F7F8998202821AC","num_area":"0.3392000000000000000000000000000","ind_status":"AT"},"geometry":{"type":"Polygon","coordinates":[[[-41.8631,-20.986],[-41.8676,-20.9906],[-41.8631,-20.986],[-41.8631,-20.986]]]}},{"type":"Feature","properties":{"cod_tema":"AREA_SERVIDAO_ADMINISTRATIVA_TOTAL","cod_imovel":"RJ-3303104-9BBE54438EC1452C8F7F8998202821AC","num_area":"0.3392000000000000000000000000000","ind_status":"AT"},"geometry":{"type":"Polygon","coordinates":[[[-41.8631,-20.986],[-41.8676,-20.9906],[-41.8631,-20.986],[-41.8631,-20.986]]]}},{"type":"Feature","properties":{"cod_tema":"AREA_INFRAESTRUTURA_PUBLICA","cod_imovel":"RJ-3303104-50847A41BD5A48C6BC450CCDCBAC6DDA","num_area":"0.7839000000000000000000000000000","ind_status":"AT"},"geometry":{"type":"Polygon","coordinates":[[[-42.0043,-21.1076],[-42.0014,-21.1064],[-42.0042,-21.1076],[-42.0043,-21.1076]],[[-42.0013,-21.1063],[-42.0013,-21.1134],[-42.0013,-21.1063],[-42.0013,-21.1063]]]}},{"type":"Feature","properties":{"cod_tema":"AREA_SERVIDAO_ADMINISTRATIVA_TOTAL","cod_imovel":"RJ-3303104-50847A41BD5A48C6BC450CCDCBAC6DDA","num_area":"0.7839000000000000000000000000000","ind_status":"AT"},"geometry":{"type":"Polygon","coordinates":[[[-42.0043,-21.1076],[-42.0014,-21.1064],[-42.0042,-21.1076],[-42.0043,-21.1076]],[[-42.0013,-21.1063],[-42.0013,-21.1134],[-42.0013,-21.1063],[-42.0013,-21.1063]]]}},{"type":"Feature","properties":{"cod_tema":"AREA_UTILIDADE_PUBLICA","cod_imovel":"RJ-3303104-D49F5002572B4005B2685AE27B3CA7D3","num_area":"0.1961000000000000000000000000000","ind_status":"AT"},"geometry":{"type":"Polygon","coordinates":[[[-41.9939,-21.0222],[-41.99,-21.0197],[-41.9937,-21.022],[-41.9939,-21.0222]]]}},{"type":"Feature","properties":{"cod_tema":"AREA_SERVIDAO_ADMINISTRATIVA_TOTAL","cod_imovel":"RJ-3303104-D49F5002572B4005B2685AE27B3CA7D3","num_area":"0.1961000000000000000000000000000","ind_status":"AT"},"geometry":{"type":"Polygon","coordinates":[[[-41.9939,-21.0222],[-41.99,-21.0197],[-41.9937,-21.022],[-41.9939,-21.0222]]]}},{"type":"Feature","properties":{"cod_tema":"AREA_UTILIDADE_PUBLICA","cod_imovel":"RJ-3303104-DAF010D6DD9D40F883A1C5ABECD2B170","num_area":"0.1838000000000000000000000000000","ind_status":"AT"},"geometry":{"type":"Polygon","coordinates":[[[-41.9245,-21.0737],[-41.9224,-21.0765],[-41.9245,-21.074],[-41.9245,-21.0737]]]}},{"type":"Feature","properties":{"cod_tema":"AREA_SERVIDAO_ADMINISTRATIVA_TOTAL","cod_imovel":"RJ-3303104-DAF010D6DD9D40F883A1C5ABECD2B170","num_area":"0.1838000000000000000000000000000","ind_status":"AT"},"geometry":{"type":"Polygon","coordinates":[[[-41.9245,-21.0737],[-41.9224,-21.0765],[-41.9245,-21.074],[-41.9245,-21.0737]]]}},{"type":"Feature","properties":{"cod_tema":"AREA_INFRAESTRUTURA_PUBLICA","cod_imovel":"RJ-3303104-5B68E52CE642446E8A9C532717ACE91F","num_area":"0.2266000000000000000000000000000","ind_status":"AT"},"geometry":{"type":"Polygon","coordinates":[[[-41.9688,-20.9642],[-41.9716,-20.9617],[-41.9688,-20.9641],[-41.9688,-20.9642]]]}},{"type":"Feature","properties":{"cod_tema":"AREA_SERVIDAO_ADMINISTRATIVA_TOTAL","cod_imovel":"RJ-3303104-5B68E52CE642446E8A9C532717ACE91F","num_area":"0.2266000000000000000000000000000","ind_status":"AT"},"geometry":{"type":"Polygon","coordinates":[[[-41.9688,-20.9642],[-41.9716,-20.9617],[-41.9688,-20.9641],[-41.9688,-20.9642]]]}},{"type":"Feature","properties":{"cod_tema":"AREA_UTILIDADE_PUBLICA","cod_imovel":"RJ-3303104-F7CAEDDA182D4CD986B5551CFB57EA71","num_area":"0.7265000000000000000000000000000","ind_status":"AT"},"geometry":{"type":"Polygon","coordinates":[[[-42.065,-21.0301],[-42.0627,-21.0225],[-42.0651,-21.0301],[-42.065,-21.0301]]]}},{"type":"Feature","properties":{"cod_tema":"AREA_SERVIDAO_ADMINISTRATIVA_TOTAL","cod_imovel":"RJ-3303104-F7CAEDDA182D4CD986B5551CFB57EA71","num_area":"0.8019000000000000000000000000000","ind_status":"AT"},"geometry":{"type":"Polygon","coordinates":[[[-42.0664,-21.0301],[-42.0627,-21.0225],[-42.0664,-21.0299],[-42.0664,-21.0301]]]}},{"type":"Feature","properties":{"cod_tema":"AREA_INFRAESTRUTURA_PUBLICA","cod_imovel":"RJ-3303104-23585257461F4B4BB7CDEC5DF23E297C","num_area":"1.6696000000000000000000000000000","ind_status":"AT"},"geometry":{"type":"Polygon","coordinates":[[[-42.0574,-21.0332],[-42.0652,-21.0301],[-42.0581,-21.0335],[-42.0574,-21.0332]],[[-42.08,-21.0337],[-42.0664,-21.0301],[-42.0767,-21.0328],[-42.0736,-21.0373],[-42.0797,-21.0339],[-42.08,-21.0337]]]}},{"type":"Feature","properties":{"cod_tema":"AREA_SERVIDAO_ADMINISTRATIVA_TOTAL","cod_imovel":"RJ-3303104-23585257461F4B4BB7CDEC5DF23E297C","num_area":"1.6696000000000000000000000000000","ind_status":"AT"},"geometry":{"type":"Polygon","coordinates":[[[-42.0574,-21.0332],[-42.0652,-21.0301],[-42.0581,-21.0335],[-42.0574,-21.0332]],[[-42.08,-21.0337],[-42.0664,-21.0301],[-42.0767,-21.0328],[-42.0736,-21.0373],[-42.0797,-21.0339],[-42.08,-21.0337]]]}},{"type":"Feature","properties":{"cod_tema":"AREA_UTILIDADE_PUBLICA","cod_imovel":"RJ-3303104-F1C57470302A42F8AABA5599CB61AB54","num_area":"0.3353000000000000000000000000000","ind_status":"AT"},"geometry":{"type":"Polygon","coordinates":[[[-42.0168,-21.0417],[-42.0178,-21.0357],[-42.0167,-21.0416],[-42.0168,-21.0417]]]}},{"type":"Feature","properties":{"cod_tema":"AREA_SERVIDAO_ADMINISTRATIVA_TOTAL","cod_imovel":"RJ-3303104-F1C57470302A42F8AABA5599CB61AB54","num_area":"0.3353000000000000000000000000000","ind_status":"AT"},"geometry":{"type":"Polygon","coordinates":[[[-42.0168,-21.0417],[-42.0178,-21.0357],[-42.0167,-21.0416],[-42.0168,-21.0417]]]}},{"type":"Feature","properties":{"cod_tema":"AREA_INFRAESTRUTURA_PUBLICA","cod_imovel":"RJ-3303104-11C57B7523354A54AFC04DC48B318062","num_area":"1.2770000000000000000000000000000","ind_status":"AT"},"geometry":{"type":"Polygon","coordinates":[[[-42.0322,-21.0524],[-42.0289,-21.0542],[-42.0263,-21.0491],[-42.0342,-21.0597],[-42.031,-21.0524],[-42.0322,-21.0524]]]}},{"type":"Feature","properties":{"cod_tema":"AREA_SERVIDAO_ADMINISTRATIVA_TOTAL","cod_imovel":"RJ-3303104-11C57B7523354A54AFC04DC48B318062","num_area":"1.2770000000000000000000000000000","ind_status":"AT"},"geometry":{"type":"Polygon","coordinates":[[[-42.0322,-21.0524],[-42.0289,-21.0542],[-42.0263,-21.0491],[-42.0342,-21.0597],[-42.031,-21.0524],[-42.0322,-21.0524]]]}},{"type":"Feature","properties":{"cod_tema":"AREA_INFRAESTRUTURA_PUBLICA","cod_imovel":"RJ-3303104-99A4077E6A244742886C5192F9E34190","num_area":"0.2704000000000000000000000000000","ind_status":"AT"},"geometry":{"type":"Polygon","coordinates":[[[-41.9189,-21.0195],[-41.9162,-21.0172],[-41.9191,-21.02],[-41.9189,-21.0195]]]}},{"type":"Feature","properties":{"cod_tema":"AREA_SERVIDAO_ADMINISTRATIVA_TOTAL","cod_imovel":"RJ-3303104-99A4077E6A244742886C5192F9E34190","num_area":"0.2704000000000000000000000000000","ind_status":"AT"},"geometry":{"type":"Polygon","coordinates":[[[-41.9189,-21.0195],[-41.9162,-21.0172],[-41.9191,-21.02],[-41.9189,-21.0195]]]}},{"type":"Feature","properties":{"cod_tema":"AREA_UTILIDADE_PUBLICA","cod_imovel":"RJ-3303104-4ACB8C2740C549668DE3AF7390898F71","num_area":"0.9859000000000000000000000000000","ind_status":"AT"},"geometry":{"type":"Polygon","coordinates":[[[-42.0471,-21.0511],[-42.0393,-21.0526],[-42.0465,-21.0562],[-42.0462,-21.0519],[-42.0471,-21.0511]]]}},{"type":"Feature","properties":{"cod_tema":"AREA_SERVIDAO_ADMINISTRATIVA_TOTAL","cod_imovel":"RJ-3303104-4ACB8C2740C549668DE3AF7390898F71","num_area":"0.9859000000000000000000000000000","ind_status":"AT"},"geometry":{"type":"Polygon","coordinates":[[[-42.0471,-21.0511],[-42.0393,-21.0526],[-42.0465,-21.0562],[-42.0462,-21.0519],[-42.0471,-21.0511]]]}},{"type":"Feature","properties":{"cod_tema":"AREA_UTILIDADE_PUBLICA","cod_imovel":"RJ-3303104-1BDBFF2FA8F1419ABBD9F0E73A0EF5EE","num_area":"0.6896000000000000000000000000000","ind_status":"CA"},"geometry":{"type":"Polygon","coordinates":[[[-42.0461,-21.0252],[-42.0491,-21.0218],[-42.046,-21.0251],[-42.0461,-21.0252]],[[-42.045,-21.0277],[-42.0538,-21.0267],[-42.0445,-21.0274],[-42.045,-21.0277]]]}},{"type":"Feature","properties":{"cod_tema":"AREA_SERVIDAO_ADMINISTRATIVA_TOTAL","cod_imovel":"RJ-3303104-1BDBFF2FA8F1419ABBD9F0E73A0EF5EE","num_area":"0.6896000000000000000000000000000","ind_status":"CA"},"geometry":{"type":"Polygon","coordinates":[[[-42.0461,-21.0252],[-42.0491,-21.0218],[-42.046,-21.0251],[-42.0461,-21.0252]],[[-42.045,-21.0277],[-42.0538,-21.0267],[-42.0445,-21.0274],[-42.045,-21.0277]]]}},{"type":"Feature","properties":{"cod_tema":"AREA_INFRAESTRUTURA_PUBLICA","cod_imovel":"RJ-3303104-4067B620ABC6435E9BA7D46AF1806DB3","num_area":"1.7560000000000000000000000000000","ind_status":"AT"},"geometry":{"type":"Polygon","coordinates":[[[-42.013,-21.058],[-42.0156,-21.0651],[-42.013,-21.059],[-42.013,-21.058]]]}},{"type":"Feature","properties":{"cod_tema":"AREA_SERVIDAO_ADMINISTRATIVA_TOTAL","cod_imovel":"RJ-3303104-4067B620ABC6435E9BA7D46AF1806DB3","num_area":"1.7560000000000000000000000000000","ind_status":"AT"},"geometry":{"type":"Polygon","coordinates":[[[-42.013,-21.058],[-42.0156,-21.0651],[-42.013,-21.059],[-42.013,-21.058]]]}},{"type":"Feature","properties":{"cod_tema":"AREA_INFRAESTRUTURA_PUBLICA","cod_imovel":"RJ-3303104-A70D7596F3144FBDBAE03E98B0D6AF3B","num_area":"2.2000000000000000000000000000000","ind_status":"AT"},"geometry":{"type":"Polygon","coordinates":[[[-41.9989,-21.0265],[-41.9998,-21.0226],[-41.9988,-21.0264],[-41.9989,-21.0265]]]}},{"type":"Feature","properties":{"cod_tema":"AREA_SERVIDAO_ADMINISTRATIVA_TOTAL","cod_imovel":"RJ-3303104-A70D7596F3144FBDBAE03E98B0D6AF3B","num_area":"2.2000000000000000000000000000000","ind_status":"AT"},"geometry":{"type":"Polygon","coordinates":[[[-41.9989,-21.0265],[-41.9998,-21.0226],[-41.9988,-21.0264],[-41.9989,-21.0265]]]}},{"type":"Feature","properties":{"cod_tema":"AREA_UTILIDADE_PUBLICA","cod_imovel":"RJ-3303104-1D0977D9BE6F4AAEA5EC23C0770621C6","num_area":"0.1855000000000000000000000000000","ind_status":"AT"},"geometry":{"type":"Polygon","coordinates":[[[-41.9851,-21.0323],[-41.9874,-21.0283],[-41.9855,-21.0316],[-41.9851,-21.0323]]]}},{"type":"Feature","properties":{"cod_tema":"AREA_SERVIDAO_ADMINISTRATIVA_TOTAL","cod_imovel":"RJ-3303104-1D0977D9BE6F4AAEA5EC23C0770621C6","num_area":"0.1855000000000000000000000000000","ind_status":"AT"},"geometry":{"type":"Polygon","coordinates":[[[-41.9851,-21.0323],[-41.9874,-21.0283],[-41.9855,-21.0316],[-41.9851,-21.0323]]]}},{"type":"Feature","properties":{"cod_tema":"AREA_INFRAESTRUTURA_PUBLICA","cod_imovel":"RJ-3303104-21AB44AE9F704C69A6D4D70570D52651","num_area":"0.9767000000000000000000000000000","ind_status":"AT"},"geometry":{"type":"Polygon","coordinates":[[[-41.9458,-20.9612],[-41.9481,-20.9653],[-41.946,-20.9613],[-41.9458,-20.9612]],[[-41.9452,-20.9676],[-41.9485,-20.966],[-41.9455,-20.9675],[-41.9452,-20.9676]],[[-41.9503,-20.9669],[-41.9462,-20.9605],[-41.95,-20.9663],[-41.9503,-20.9669]]]}},{"type":"Feature","properties":{"cod_tema":"AREA_SERVIDAO_ADMINISTRATIVA_TOTAL","cod_imovel":"RJ-3303104-21AB44AE9F704C69A6D4D70570D52651","num_area":"0.9767000000000000000000000000000","ind_status":"AT"},"geometry":{"type":"Polygon","coordinates":[[[-41.9458,-20.9612],[-41.9481,-20.9653],[-41.946,-20.9613],[-41.9458,-20.9612]],[[-41.9452,-20.9676],[-41.9485,-20.966],[-41.9455,-20.9675],[-41.9452,-20.9676]],[[-41.9503,-20.9669],[-41.9462,-20.9605],[-41.95,-20.9663],[-41.9503,-20.9669]]]}},{"type":"Feature","properties":{"cod_tema":"AREA_INFRAESTRUTURA_PUBLICA","cod_imovel":"RJ-3303104-49810C3BFB7D4313986EF7B2DE5D8A42","num_area":"0.4712000000000000000000000000000","ind_status":"AT"},"geometry":{"type":"Polygon","coordinates":[[[-41.9894,-20.9923],[-41.9895,-20.9965],[-41.9897,-20.9929],[-41.9894,-20.9923]]]}},{"type":"Feature","properties":{"cod_tema":"AREA_SERVIDAO_ADMINISTRATIVA_TOTAL","cod_imovel":"RJ-3303104-49810C3BFB7D4313986EF7B2DE5D8A42","num_area":"0.4712000000000000000000000000000","ind_status":"AT"},"geometry":{"type":"Polygon","coordinates":[[[-41.9894,-20.9923],[-41.9895,-20.9965],[-41.9897,-20.9929],[-41.9894,-20.9923]]]}},{"type":"Feature","properties":{"cod_tema":"AREA_UTILIDADE_PUBLICA","cod_imovel":"RJ-3303104-E13417B0840542738D1ADFA214B26ADF","num_area":"0.2880000000000000000000000000000","ind_status":"AT"},"geometry":{"type":"Polygon","coordinates":[[[-41.9672,-21.0151],[-41.9721,-21.0147],[-41.9683,-21.0151],[-41.9672,-21.0151]]]}},{"type":"Feature","properties":{"cod_tema":"AREA_SERVIDAO_ADMINISTRATIVA_TOTAL","cod_imovel":"RJ-3303104-E13417B0840542738D1ADFA214B26ADF","num_area":"0.2880000000000000000000000000000","ind_status":"AT"},"geometry":{"type":"Polygon","coordinates":[[[-41.9672,-21.0151],[-41.9721,-21.0147],[-41.9683,-21.0151],[-41.9672,-21.0151]]]}},{"type":"Feature","properties":{"cod_tema":"AREA_INFRAESTRUTURA_PUBLICA","cod_imovel":"RJ-3303104-EDFA4B00FA95485489DA5D5F43D10D2B","num_area":"0.3482000000000000000000000000000","ind_status":"AT"},"geometry":{"type":"Polygon","coordinates":[[[-42.0216,-21.0952],[-42.0177,-21.096],[-42.0212,-21.0953],[-42.0216,-21.0952]]]}},{"type":"Feature","properties":{"cod_tema":"AREA_SERVIDAO_ADMINISTRATIVA_TOTAL","cod_imovel":"RJ-3303104-EDFA4B00FA95485489DA5D5F43D10D2B","num_area":"0.3482000000000000000000000000000","ind_status":"AT"},"geometry":{"type":"Polygon","coordinates":[[[-42.0216,-21.0952],[-42.0177,-21.096],[-42.0212,-21.0953],[-42.0216,-21.0952]]]}},{"type":"Feature","properties":{"cod_tema":"AREA_INFRAESTRUTURA_PUBLICA","cod_imovel":"RJ-3303104-1D56497B95974137920C5F13279FC101","num_area":"1.4728000000000000000000000000000","ind_status":"AT"},"geometry":{"type":"Polygon","coordinates":[[[-41.9165,-20.9968],[-41.9082,-20.9884],[-41.9165,-20.9967],[-41.9165,-20.9968]]]}},{"type":"Feature","properties":{"cod_tema":"AREA_SERVIDAO_ADMINISTRATIVA_TOTAL","cod_imovel":"RJ-3303104-1D56497B95974137920C5F13279FC101","num_area":"1.4728000000000000000000000000000","ind_status":"AT"},"geometry":{"type":"Polygon","coordinates":[[[-41.9165,-20.9968],[-41.9082,-20.9884],[-41.9165,-20.9967],[-41.9165,-20.9968]]]}},{"type":"Feature","properties":{"cod_tema":"AREA_INFRAESTRUTURA_PUBLICA","cod_imovel":"RJ-3303104-2F43EE1F4FF44827AB27766663572B92","num_area":"0.4706000000000000000000000000000","ind_status":"AT"},"geometry":{"type":"Polygon","coordinates":[[[-41.9387,-20.9605],[-41.9464,-20.9613],[-41.9393,-20.9606],[-41.9387,-20.9605]]]}},{"type":"Feature","properties":{"cod_tema":"AREA_SERVIDAO_ADMINISTRATIVA_TOTAL","cod_imovel":"RJ-3303104-2F43EE1F4FF44827AB27766663572B92","num_area":"0.4706000000000000000000000000000","ind_status":"AT"},"geometry":{"type":"Polygon","coordinates":[[[-41.9387,-20.9605],[-41.9464,-20.9613],[-41.9393,-20.9606],[-41.9387,-20.9605]]]}},{"type":"Feature","properties":{"cod_tema":"AREA_INFRAESTRUTURA_PUBLICA","cod_imovel":"RJ-3303104-785A1E3FC1904660A004E7F52E636C6D","num_area":"0.6647000000000000000000000000000","ind_status":"CA"},"geometry":{"type":"Polygon","coordinates":[[[-41.9599,-21.0776],[-41.9625,-21.0716],[-41.9599,-21.0775],[-41.9599,-21.0776]]]}},{"type":"Feature","properties":{"cod_tema":"AREA_UTILIDADE_PUBLICA","cod_imovel":"RJ-3303104-785A1E3FC1904660A004E7F52E636C6D","num_area":"5.3171000000000000000000000000000","ind_status":"CA"},"geometry":{"type":"Polygon","coordinates":[[[-41.9615,-21.0731],[-41.9618,-21.0696],[-41.9612,-21.0728],[-41.9615,-21.0731]],[[-41.9628,-21.0718],[-41.9605,-21.0777],[-41.9624,-21.0721],[-41.9628,-21.0718]],[[-41.9699,-21.0766],[-41.9732,-21.0749],[-41.9705,-21.0764],[-41.9699,-21.0766]],[[-41.9618,-21.0735],[-41.9688,-21.0769],[-41.962,-21.0733],[-41.9618,-21.0735]]]}},{"type":"Feature","properties":{"cod_tema":"AREA_SERVIDAO_ADMINISTRATIVA_TOTAL","cod_imovel":"RJ-3303104-785A1E3FC1904660A004E7F52E636C6D","num_area":"5.9798000000000000000000000000000","ind_status":"CA"},"geometry":{"type":"Polygon","coordinates":[[[-41.9599,-21.0776],[-41.9625,-21.0716],[-41.9599,-21.0775],[-41.9599,-21.0776]],[[-41.9617,-21.0732],[-41.9605,-21.0777],[-41.9622,-21.072],[-41.9617,-21.0732]],[[-41.9615,-21.0731],[-41.9618,-21.0696],[-41.9612,-21.0728],[-41.9615,-21.0731]],[[-41.9699,-21.0766],[-41.9732,-21.0749],[-41.9705,-21.0764],[-41.9699,-21.0766]],[[-41.9618,-21.0735],[-41.9688,-21.0769],[-41.962,-21.0733],[-41.9618,-21.0735]]]}},{"type":"Feature","properties":{"cod_tema":"AREA_INFRAESTRUTURA_PUBLICA","cod_imovel":"RJ-3303104-1F88D154A31B47D98BFDD2BF11535A01","num_area":"0.9612000000000000000000000000000","ind_status":"AT"},"geometry":{"type":"Polygon","coordinates":[[[-41.9698,-21.0176],[-41.9604,-21.0192],[-41.9696,-21.0176],[-41.9698,-21.0176]]]}},{"type":"Feature","properties":{"cod_tema":"AREA_SERVIDAO_ADMINISTRATIVA_TOTAL","cod_imovel":"RJ-3303104-1F88D154A31B47D98BFDD2BF11535A01","num_area":"0.9612000000000000000000000000000","ind_status":"AT"},"geometry":{"type":"Polygon","coordinates":[[[-41.9698,-21.0176],[-41.9604,-21.0192],[-41.9696,-21.0176],[-41.9698,-21.0176]]]}},{"type":"Feature","properties":{"cod_tema":"AREA_UTILIDADE_PUBLICA","cod_imovel":"RJ-3303104-B58F225FBA3141119611D9DA959B4EC1","num_area":"0.2257000000000000000000000000000","ind_status":"AT"},"geometry":{"type":"Polygon","coordinates":[[[-41.9781,-20.977],[-41.9758,-20.9813],[-41.9781,-20.9774],[-41.9781,-20.977]]]}},{"type":"Feature","properties":{"cod_tema":"AREA_SERVIDAO_ADMINISTRATIVA_TOTAL","cod_imovel":"RJ-3303104-B58F225FBA3141119611D9DA959B4EC1","num_area":"0.2257000000000000000000000000000","ind_status":"AT"},"geometry":{"type":"Polygon","coordinates":[[[-41.9781,-20.977],[-41.9758,-20.9813],[-41.9781,-20.9774],[-41.9781,-20.977]]]}},{"type":"Feature","properties":{"cod_tema":"AREA_INFRAESTRUTURA_PUBLICA","cod_imovel":"RJ-3303104-28E34C5A527C4508BD26715815314E4D","num_area":"1.5512000000000000000000000000000","ind_status":"AT"},"geometry":{"type":"Polygon","coordinates":[[[-42.0116,-21.0132],[-42.0058,-21.0221],[-42.0115,-21.0133],[-42.0116,-21.0132]]]}},{"type":"Feature","properties":{"cod_tema":"AREA_SERVIDAO_ADMINISTRATIVA_TOTAL","cod_imovel":"RJ-3303104-28E34C5A527C4508BD26715815314E4D","num_area":"1.5512000000000000000000000000000","ind_status":"AT"},"geometry":{"type":"Polygon","coordinates":[[[-42.0116,-21.0132],[-42.0058,-21.0221],[-42.0115,-21.0133],[-42.0116,-21.0132]]]}},{"type":"Feature","properties":{"cod_tema":"AREA_UTILIDADE_PUBLICA","cod_imovel":"RJ-3303104-A8AD2F33055A412C9FD635D49D4A54A6","num_area":"0.1743000000000000000000000000000","ind_status":"AT"},"geometry":{"type":"Polygon","coordinates":[[[-41.9797,-21.0206],[-41.9777,-21.0174],[-41.9795,-21.0202],[-41.9797,-21.0206]]]}},{"type":"Feature","properties":{"cod_tema":"AREA_SERVIDAO_ADMINISTRATIVA_TOTAL","cod_imovel":"RJ-3303104-A8AD2F33055A412C9FD635D49D4A54A6","num_area":"0.1743000000000000000000000000000","ind_status":"AT"},"geometry":{"type":"Polygon","coordinates":[[[-41.9797,-21.0206],[-41.9777,-21.0174],[-41.9795,-21.0202],[-41.9797,-21.0206]]]}},{"type":"Feature","properties":{"cod_tema":"AREA_UTILIDADE_PUBLICA","cod_imovel":"RJ-3303104-C54D904BBE8548948A6E68975460A6CA","num_area":"0.7529000000000000000000000000000","ind_status":"AT"},"geometry":{"type":"Polygon","coordinates":[[[-41.9882,-20.9871],[-41.9915,-20.9832],[-41.9882,-20.9871],[-41.9882,-20.9871]],[[-41.9784,-20.983],[-41.983,-20.9835],[-41.9785,-20.983],[-41.9784,-20.983]]]}},{"type":"Feature","properties":{"cod_tema":"AREA_SERVIDAO_ADMINISTRATIVA_TOTAL","cod_imovel":"RJ-3303104-C54D904BBE8548948A6E68975460A6CA","num_area":"0.7529000000000000000000000000000","ind_status":"AT"},"geometry":{"type":"Polygon","coordinates":[[[-41.9882,-20.9871],[-41.9915,-20.9832],[-41.9882,-20.9871],[-41.9882,-20.9871]],[[-41.9784,-20.983],[-41.983,-20.9835],[-41.9785,-20.983],[-41.9784,-20.983]]]}},{"type":"Feature","properties":{"cod_tema":"AREA_INFRAESTRUTURA_PUBLICA","cod_imovel":"RJ-3303104-599DBFE5A8D54B06A79B2B7F4D7B898A","num_area":"0.6225000000000000000000000000000","ind_status":"AT"},"geometry":{"type":"Polygon","coordinates":[[[-41.8566,-21.0335],[-41.8568,-21.0267],[-41.8568,-21.033],[-41.8566,-21.0335]]]}},{"type":"Feature","properties":{"cod_tema":"AREA_SERVIDAO_ADMINISTRATIVA_TOTAL","cod_imovel":"RJ-3303104-599DBFE5A8D54B06A79B2B7F4D7B898A","num_area":"0.6225000000000000000000000000000","ind_status":"AT"},"geometry":{"type":"Polygon","coordinates":[[[-41.8566,-21.0335],[-41.8568,-21.0267],[-41.8568,-21.033],[-41.8566,-21.0335]]]}},{"type":"Feature","properties":{"cod_tema":"AREA_INFRAESTRUTURA_PUBLICA","cod_imovel":"RJ-3303104-EBAD28C5CD9048C9B253DD048EDF4659","num_area":"0.9739000000000000000000000000000","ind_status":"AT"},"geometry":{"type":"Polygon","coordinates":[[[-41.8715,-21.048],[-41.8617,-21.0459],[-41.872,-21.0481],[-41.8715,-21.048]]]}},{"type":"Feature","properties":{"cod_tema":"AREA_SERVIDAO_ADMINISTRATIVA_TOTAL","cod_imovel":"RJ-3303104-EBAD28C5CD9048C9B253DD048EDF4659","num_area":"0.9739000000000000000000000000000","ind_status":"AT"},"geometry":{"type":"Polygon","coordinates":[[[-41.8715,-21.048],[-41.8617,-21.0459],[-41.872,-21.0481],[-41.8715,-21.048]]]}},{"type":"Feature","properties":{"cod_tema":"AREA_INFRAESTRUTURA_PUBLICA","cod_imovel":"RJ-3303104-2A5AD7BB48CB4F6584C754D29A253497","num_area":"0.8545000000000000000000000000000","ind_status":"AT"},"geometry":{"type":"Polygon","coordinates":[[[-42.0235,-21.1203],[-42.0151,-21.1153],[-42.0235,-21.1203],[-42.0235,-21.1203]]]}},{"type":"Feature","properties":{"cod_tema":"AREA_SERVIDAO_ADMINISTRATIVA_TOTAL","cod_imovel":"RJ-3303104-2A5AD7BB48CB4F6584C754D29A253497","num_area":"0.8545000000000000000000000000000","ind_status":"AT"},"geometry":{"type":"Polygon","coordinates":[[[-42.0235,-21.1203],[-42.0151,-21.1153],[-42.0235,-21.1203],[-42.0235,-21.1203]]]}},{"type":"Feature","properties":{"cod_tema":"AREA_INFRAESTRUTURA_PUBLICA","cod_imovel":"RJ-3303104-EA1DEE295E704D1BAA5A184FE76D193C","num_area":"0.5095000000000000000000000000000","ind_status":"AT"},"geometry":{"type":"Polygon","coordinates":[[[-41.8674,-20.9909],[-41.8693,-20.9841],[-41.8674,-20.9909],[-41.8674,-20.9909]]]}},{"type":"Feature","properties":{"cod_tema":"AREA_SERVIDAO_ADMINISTRATIVA_TOTAL","cod_imovel":"RJ-3303104-EA1DEE295E704D1BAA5A184FE76D193C","num_area":"0.5095000000000000000000000000000","ind_status":"AT"},"geometry":{"type":"Polygon","coordinates":[[[-41.8674,-20.9909],[-41.8693,-20.9841],[-41.8674,-20.9909],[-41.8674,-20.9909]]]}},{"type":"Feature","properties":{"cod_tema":"AREA_INFRAESTRUTURA_PUBLICA","cod_imovel":"RJ-3303104-41ABFBE82B90444FAB06E5412256E565","num_area":"0.7846000000000000000000000000000","ind_status":"AT"},"geometry":{"type":"Polygon","coordinates":[[[-41.841,-20.9665],[-41.8429,-20.9617],[-41.841,-20.9665],[-41.841,-20.9665]]]}},{"type":"Feature","properties":{"cod_tema":"AREA_SERVIDAO_ADMINISTRATIVA_TOTAL","cod_imovel":"RJ-3303104-41ABFBE82B90444FAB06E5412256E565","num_area":"0.7846000000000000000000000000000","ind_status":"AT"},"geometry":{"type":"Polygon","coordinates":[[[-41.841,-20.9665],[-41.8429,-20.9617],[-41.841,-20.9665],[-41.841,-20.9665]]]}},{"type":"Feature","properties":{"cod_tema":"AREA_INFRAESTRUTURA_PUBLICA","cod_imovel":"RJ-3306156-716755F1D75E4191863E81F1F47619B4","num_area":"4.2379000000000000000000000000000","ind_status":"AT"},"geometry":{"type":"Polygon","coordinates":[[[-41.8927,-20.964],[-41.8908,-20.9672],[-41.8858,-20.962],[-41.8977,-20.9731],[-41.8985,-20.986],[-41.9043,-20.9878],[-41.8986,-20.986],[-41.8926,-20.9641],[-41.8927,-20.964]]]}},{"type":"Feature","properties":{"cod_tema":"AREA_SERVIDAO_ADMINISTRATIVA_TOTAL","cod_imovel":"RJ-3306156-716755F1D75E4191863E81F1F47619B4","num_area":"4.2379000000000000000000000000000","ind_status":"AT"},"geometry":{"type":"Polygon","coordinates":[[[-41.8927,-20.964],[-41.8908,-20.9672],[-41.8858,-20.962],[-41.8977,-20.9731],[-41.8985,-20.986],[-41.9043,-20.9878],[-41.8986,-20.986],[-41.8926,-20.9641],[-41.8927,-20.964]]]}},{"type":"Feature","properties":{"cod_tema":"AREA_INFRAESTRUTURA_PUBLICA","cod_imovel":"RJ-3303104-69DBC75D333B40AE8808295AD51EEE34","num_area":"1.1725000000000000000000000000000","ind_status":"AT"},"geometry":{"type":"Polygon","coordinates":[[[-41.9308,-21.0829],[-41.9351,-21.0802],[-41.9308,-21.0829],[-41.9308,-21.0829]],[[-41.9092,-21.0788],[-41.9222,-21.0765],[-41.9101,-21.0791],[-41.9092,-21.0788]]]}},{"type":"Feature","properties":{"cod_tema":"AREA_SERVIDAO_ADMINISTRATIVA_TOTAL","cod_imovel":"RJ-3303104-69DBC75D333B40AE8808295AD51EEE34","num_area":"1.1725000000000000000000000000000","ind_status":"AT"},"geometry":{"type":"Polygon","coordinates":[[[-41.9308,-21.0829],[-41.9351,-21.0802],[-41.9308,-21.0829],[-41.9308,-21.0829]],[[-41.9092,-21.0788],[-41.9222,-21.0765],[-41.9101,-21.0791],[-41.9092,-21.0788]]]}},{"type":"Feature","properties":{"cod_tema":"AREA_INFRAESTRUTURA_PUBLICA","cod_imovel":"RJ-3303104-77353C677E914803A9FED8F6EB09B992","num_area":"0.4543000000000000000000000000000","ind_status":"AT"},"geometry":{"type":"Polygon","coordinates":[[[-41.8651,-21.0248],[-41.8663,-21.0323],[-41.8651,-21.0248],[-41.8651,-21.0248]]]}},{"type":"Feature","properties":{"cod_tema":"AREA_SERVIDAO_ADMINISTRATIVA_TOTAL","cod_imovel":"RJ-3303104-77353C677E914803A9FED8F6EB09B992","num_area":"0.4543000000000000000000000000000","ind_status":"AT"},"geometry":{"type":"Polygon","coordinates":[[[-41.8651,-21.0248],[-41.8663,-21.0323],[-41.8651,-21.0248],[-41.8651,-21.0248]]]}},{"type":"Feature","properties":{"cod_tema":"AREA_INFRAESTRUTURA_PUBLICA","cod_imovel":"RJ-3303104-FD1733920E804F0680DB50A4E2E4A34E","num_area":"0.7088000000000000000000000000000","ind_status":"AT"},"geometry":{"type":"Polygon","coordinates":[[[-41.9199,-21.1311],[-41.9219,-21.137],[-41.9199,-21.1311],[-41.9199,-21.1311]]]}},{"type":"Feature","properties":{"cod_tema":"AREA_SERVIDAO_ADMINISTRATIVA_TOTAL","cod_imovel":"RJ-3303104-FD1733920E804F0680DB50A4E2E4A34E","num_area":"0.7088000000000000000000000000000","ind_status":"AT"},"geometry":{"type":"Polygon","coordinates":[[[-41.9199,-21.1311],[-41.9219,-21.137],[-41.9199,-21.1311],[-41.9199,-21.1311]]]}},{"type":"Feature","properties":{"cod_tema":"AREA_INFRAESTRUTURA_PUBLICA","cod_imovel":"RJ-3303104-4CEE4F13E06E4A199451B0C47168D648","num_area":"4.0567000000000000000000000000000","ind_status":"PE"},"geometry":{"type":"Polygon","coordinates":[[[-41.9276,-21.0482],[-41.9263,-21.0447],[-41.9273,-21.0479],[-41.9276,-21.0482]],[[-41.9407,-21.0549],[-41.9352,-21.0543],[-41.9407,-21.0549],[-41.9407,-21.0549]],[[-41.9228,-21.0494],[-41.9153,-21.05],[-41.9225,-21.0494],[-41.9228,-21.0494]]]}},{"type":"Feature","properties":{"cod_tema":"AREA_SERVIDAO_ADMINISTRATIVA_TOTAL","cod_imovel":"RJ-3303104-4CEE4F13E06E4A199451B0C47168D648","num_area":"4.0567000000000000000000000000000","ind_status":"PE"},"geometry":{"type":"Polygon","coordinates":[[[-41.9276,-21.0482],[-41.9263,-21.0447],[-41.9273,-21.0479],[-41.9276,-21.0482]],[[-41.9407,-21.0549],[-41.9352,-21.0543],[-41.9407,-21.0549],[-41.9407,-21.0549]],[[-41.9228,-21.0494],[-41.9153,-21.05],[-41.9225,-21.0494],[-41.9228,-21.0494]]]}}]}