{"type":"FeatureCollection","features":[{"type":"Feature","properties":{"cod_tema":"AREA_UTILIDADE_PUBLICA","cod_imovel":"RJ-3303500-19B2555D589143DB986991A25ABA6ED7","num_area":"0.8773000000000000000000000000000","ind_status":"AT"},"geometry":{"type":"Polygon","coordinates":[[[-43.6187,-22.7814],[-43.6228,-22.7823],[-43.6187,-22.7812],[-43.6187,-22.7814]]]}},{"type":"Feature","properties":{"cod_tema":"RESERVATORIO_ENERGIA","cod_imovel":"RJ-3303500-19B2555D589143DB986991A25ABA6ED7","num_area":"27.539300000000000000000000000000","ind_status":"AT"},"geometry":{"type":"Polygon","coordinates":[[[-43.6231,-22.8027],[-43.6258,-22.7924],[-43.623,-22.8026],[-43.6231,-22.8027]]]}},{"type":"Feature","properties":{"cod_tema":"AREA_ENTORNO_RESERVATORIO_ENERGIA","cod_imovel":"RJ-3303500-19B2555D589143DB986991A25ABA6ED7","num_area":"22.411900000000000000000000000000","ind_status":"AT"},"geometry":{"type":"Polygon","coordinates":[[[-43.6218,-22.8028],[-43.6257,-22.7916],[-43.6219,-22.8027],[-43.6218,-22.8028]],[[-43.6264,-22.8004],[-43.6274,-22.7975],[-43.6264,-22.8003],[-43.6264,-22.8004]]]}},{"type":"Feature","properties":{"cod_tema":"AREA_SERVIDAO_ADMINISTRATIVA_TOTAL","cod_imovel":"RJ-3303500-19B2555D589143DB986991A25ABA6ED7","num_area":"50.828600000000000000000000000000","ind_status":"AT"},"geometry":{"type":"Polygon","coordinates":[[[-43.6187,-22.7814],[-43.6228,-22.7823],[-43.6187,-22.7812],[-43.6187,-22.7814]],[[-43.6246,-22.8028],[-43.6257,-22.7916],[-43.6205,-22.7995],[-43.6231,-22.8027],[-43.6246,-22.8028]]]}},{"type":"Feature","properties":{"cod_tema":"RESERVATORIO_ENERGIA","cod_imovel":"RJ-3303500-2AB91342A8A94E268759EDBD6E457B52","num_area":"2.2441000000000000000000000000000","ind_status":"AT"},"geometry":{"type":"Polygon","coordinates":[[[-43.4633,-22.6645],[-43.4677,-22.6645],[-43.4633,-22.6646],[-43.4633,-22.6645]]]}},{"type":"Feature","properties":{"cod_tema":"AREA_ENTORNO_RESERVATORIO_ENERGIA","cod_imovel":"RJ-3303500-2AB91342A8A94E268759EDBD6E457B52","num_area":"2.6551000000000000000000000000000","ind_status":"AT"},"geometry":{"type":"Polygon","coordinates":[[[-43.4669,-22.6649],[-43.4632,-22.6643],[-43.4667,-22.6649],[-43.4669,-22.6649]]]}},{"type":"Feature","properties":{"cod_tema":"AREA_ENTORNO_RESERVATORIO_ENERGIA","cod_imovel":"RJ-3303500-2AB91342A8A94E268759EDBD6E457B52","num_area":"1.7101000000000000000000000000000","ind_status":"AT"},"geometry":{"type":"Polygon","coordinates":[[[-43.467,-22.6625],[-43.4626,-22.6623],[-43.4669,-22.6625],[-43.467,-22.6625]]]}},{"type":"Feature","properties":{"cod_tema":"AREA_SERVIDAO_ADMINISTRATIVA_TOTAL","cod_imovel":"RJ-3303500-2AB91342A8A94E268759EDBD6E457B52","num_area":"6.6092000000000000000000000000000","ind_status":"AT"},"geometry":{"type":"Polygon","coordinates":[[[-43.4668,-22.6621],[-43.4626,-22.6623],[-43.467,-22.6625],[-43.4668,-22.6621]],[[-43.4677,-22.6645],[-43.4632,-22.6643],[-43.4678,-22.6647],[-43.4677,-22.6645]]]}},{"type":"Feature","properties":{"cod_tema":"AREA_UTILIDADE_PUBLICA","cod_imovel":"RJ-3303500-AB88BC2AA1D5481FAE4D8F45CD24C319","num_area":"0.3946000000000000000000000000000","ind_status":"AT"},"geometry":{"type":"Polygon","coordinates":[[[-43.4566,-22.6053],[-43.451,-22.6016],[-43.4563,-22.6052],[-43.4566,-22.6053]]]}},{"type":"Feature","properties":{"cod_tema":"AREA_SERVIDAO_ADMINISTRATIVA_TOTAL","cod_imovel":"RJ-3303500-AB88BC2AA1D5481FAE4D8F45CD24C319","num_area":"0.3946000000000000000000000000000","ind_status":"AT"},"geometry":{"type":"Polygon","coordinates":[[[-43.4566,-22.6053],[-43.451,-22.6016],[-43.4563,-22.6052],[-43.4566,-22.6053]]]}},{"type":"Feature","properties":{"cod_tema":"AREA_UTILIDADE_PUBLICA","cod_imovel":"RJ-3303500-D1E0C687C00441EABE4C2A13663FFA91","num_area":"4.4144000000000000000000000000000","ind_status":"AT"},"geometry":{"type":"Polygon","coordinates":[[[-43.513,-22.6875],[-43.5174,-22.688],[-43.5129,-22.6873],[-43.513,-22.6875]]]}},{"type":"Feature","properties":{"cod_tema":"AREA_SERVIDAO_ADMINISTRATIVA_TOTAL","cod_imovel":"RJ-3303500-D1E0C687C00441EABE4C2A13663FFA91","num_area":"4.4144000000000000000000000000000","ind_status":"AT"},"geometry":{"type":"Polygon","coordinates":[[[-43.513,-22.6875],[-43.5174,-22.688],[-43.5129,-22.6873],[-43.513,-22.6875]]]}},{"type":"Feature","properties":{"cod_tema":"AREA_INFRAESTRUTURA_PUBLICA","cod_imovel":"RJ-3303500-F8D7EE1286D348F28328FBCE67D8C050","num_area":"2.9218000000000000000000000000000","ind_status":"AT"},"geometry":{"type":"Polygon","coordinates":[[[-43.5087,-22.644],[-43.5123,-22.6433],[-43.5087,-22.644],[-43.5087,-22.644]]]}},{"type":"Feature","properties":{"cod_tema":"AREA_SERVIDAO_ADMINISTRATIVA_TOTAL","cod_imovel":"RJ-3303500-F8D7EE1286D348F28328FBCE67D8C050","num_area":"2.9218000000000000000000000000000","ind_status":"AT"},"geometry":{"type":"Polygon","coordinates":[[[-43.5087,-22.644],[-43.5123,-22.6433],[-43.5087,-22.644],[-43.5087,-22.644]]]}},{"type":"Feature","properties":{"cod_tema":"AREA_INFRAESTRUTURA_PUBLICA","cod_imovel":"RJ-3303500-1A7FFA524CC74A61A4CD60657B180435","num_area":"6.5294000000000000000000000000000","ind_status":"AT"},"geometry":{"type":"Polygon","coordinates":[[[-43.5015,-22.6462],[-43.505,-22.6444],[-43.5012,-22.6454],[-43.5015,-22.6462]]]}},{"type":"Feature","properties":{"cod_tema":"AREA_SERVIDAO_ADMINISTRATIVA_TOTAL","cod_imovel":"RJ-3303500-1A7FFA524CC74A61A4CD60657B180435","num_area":"6.5764000000000000000000000000000","ind_status":"AT"},"geometry":{"type":"Polygon","coordinates":[[[-43.5015,-22.6462],[-43.505,-22.6444],[-43.5012,-22.6454],[-43.5015,-22.6462]]]}},{"type":"Feature","properties":{"cod_tema":"AREA_UTILIDADE_PUBLICA","cod_imovel":"RJ-3303500-8B80D57F553142F381D1D897C221EE4A","num_area":"1.9279000000000000000000000000000","ind_status":"AT"},"geometry":{"type":"Polygon","coordinates":[[[-43.5044,-22.6555],[-43.5182,-22.662],[-43.5049,-22.6557],[-43.5044,-22.6555]]]}},{"type":"Feature","properties":{"cod_tema":"AREA_SERVIDAO_ADMINISTRATIVA_TOTAL","cod_imovel":"RJ-3303500-8B80D57F553142F381D1D897C221EE4A","num_area":"1.9279000000000000000000000000000","ind_status":"AT"},"geometry":{"type":"Polygon","coordinates":[[[-43.5044,-22.6555],[-43.5182,-22.662],[-43.5049,-22.6557],[-43.5044,-22.6555]]]}},{"type":"Feature","properties":{"cod_tema":"AREA_INFRAESTRUTURA_PUBLICA","cod_imovel":"RJ-3303500-5D03FF79EBB04C20B611D4BCDB935C6E","num_area":"7.3949000000000000000000000000000","ind_status":"AT"},"geometry":{"type":"Polygon","coordinates":[[[-43.5154,-22.6432],[-43.5199,-22.6421],[-43.5154,-22.6432],[-43.5154,-22.6432]]]}},{"type":"Feature","properties":{"cod_tema":"AREA_SERVIDAO_ADMINISTRATIVA_TOTAL","cod_imovel":"RJ-3303500-5D03FF79EBB04C20B611D4BCDB935C6E","num_area":"7.3949000000000000000000000000000","ind_status":"AT"},"geometry":{"type":"Polygon","coordinates":[[[-43.5154,-22.6432],[-43.5199,-22.6421],[-43.5154,-22.6432],[-43.5154,-22.6432]]]}},{"type":"Feature","properties":{"cod_tema":"AREA_INFRAESTRUTURA_PUBLICA","cod_imovel":"RJ-3303500-4F1490EA549B4EA2997E5CED1A2F236C","num_area":"6.4204000000000000000000000000000","ind_status":"AT"},"geometry":{"type":"Polygon","coordinates":[[[-43.4129,-22.6631],[-43.4078,-22.664],[-43.4108,-22.6628],[-43.4129,-22.6631]]]}},{"type":"Feature","properties":{"cod_tema":"AREA_SERVIDAO_ADMINISTRATIVA_TOTAL","cod_imovel":"RJ-3303500-4F1490EA549B4EA2997E5CED1A2F236C","num_area":"6.4204000000000000000000000000000","ind_status":"AT"},"geometry":{"type":"Polygon","coordinates":[[[-43.4129,-22.6631],[-43.4078,-22.664],[-43.4108,-22.6628],[-43.4129,-22.6631]]]}},{"type":"Feature","properties":{"cod_tema":"AREA_UTILIDADE_PUBLICA","cod_imovel":"RJ-3303500-32AFCABF2F214EE0BB337F312AB8A2D3","num_area":"19.598700000000000000000000000000","ind_status":"AT"},"geometry":{"type":"Polygon","coordinates":[[[-43.537,-22.7521],[-43.5408,-22.7574],[-43.5443,-22.7541],[-43.5372,-22.7522],[-43.537,-22.7521]]]}},{"type":"Feature","properties":{"cod_tema":"AREA_SERVIDAO_ADMINISTRATIVA_TOTAL","cod_imovel":"RJ-3303500-32AFCABF2F214EE0BB337F312AB8A2D3","num_area":"19.598700000000000000000000000000","ind_status":"AT"},"geometry":{"type":"Polygon","coordinates":[[[-43.537,-22.7521],[-43.5408,-22.7574],[-43.5443,-22.7541],[-43.5372,-22.7522],[-43.537,-22.7521]]]}},{"type":"Feature","properties":{"cod_tema":"AREA_INFRAESTRUTURA_PUBLICA","cod_imovel":"RJ-3303500-3CC7DBBA4F9A419CA16EEABF5A3BDF11","num_area":"0.5107000000000000000000000000000","ind_status":"AT"},"geometry":{"type":"Polygon","coordinates":[[[-43.4206,-22.6044],[-43.4246,-22.6073],[-43.4206,-22.6044],[-43.4206,-22.6044]]]}},{"type":"Feature","properties":{"cod_tema":"AREA_SERVIDAO_ADMINISTRATIVA_TOTAL","cod_imovel":"RJ-3303500-3CC7DBBA4F9A419CA16EEABF5A3BDF11","num_area":"0.5107000000000000000000000000000","ind_status":"AT"},"geometry":{"type":"Polygon","coordinates":[[[-43.4206,-22.6044],[-43.4246,-22.6073],[-43.4206,-22.6044],[-43.4206,-22.6044]]]}}]}