{"type":"FeatureCollection","features":[{"type":"Feature","properties":{"cod_tema":"AREA_INFRAESTRUTURA_PUBLICA","cod_imovel":"RJ-3303807-40840A66E24747FAA6E16059DD528700","num_area":"0.6304000000000000000000000000000","ind_status":"AT"},"geometry":{"type":"Polygon","coordinates":[[[-44.7522,-23.3477],[-44.7484,-23.3443],[-44.7522,-23.3477],[-44.7522,-23.3477]]]}},{"type":"Feature","properties":{"cod_tema":"AREA_SERVIDAO_ADMINISTRATIVA_TOTAL","cod_imovel":"RJ-3303807-40840A66E24747FAA6E16059DD528700","num_area":"0.6304000000000000000000000000000","ind_status":"AT"},"geometry":{"type":"Polygon","coordinates":[[[-44.7522,-23.3477],[-44.7484,-23.3443],[-44.7522,-23.3477],[-44.7522,-23.3477]]]}},{"type":"Feature","properties":{"cod_tema":"AREA_UTILIDADE_PUBLICA","cod_imovel":"RJ-3303807-1957CB54799E453897F4A3DE89DECA2D","num_area":"0.1427000000000000000000000000000","ind_status":"AT"},"geometry":{"type":"Polygon","coordinates":[[[-44.7429,-23.2044],[-44.7389,-23.2051],[-44.7427,-23.2045],[-44.7429,-23.2044]]]}},{"type":"Feature","properties":{"cod_tema":"AREA_SERVIDAO_ADMINISTRATIVA_TOTAL","cod_imovel":"RJ-3303807-1957CB54799E453897F4A3DE89DECA2D","num_area":"0.1427000000000000000000000000000","ind_status":"AT"},"geometry":{"type":"Polygon","coordinates":[[[-44.7429,-23.2044],[-44.7389,-23.2051],[-44.7427,-23.2045],[-44.7429,-23.2044]]]}},{"type":"Feature","properties":{"cod_tema":"AREA_INFRAESTRUTURA_PUBLICA","cod_imovel":"RJ-3303807-3372B1EC6A2940E7A6A0F4CC98BCB5F6","num_area":"0.5922000000000000000000000000000","ind_status":"AT"},"geometry":{"type":"Polygon","coordinates":[[[-44.5761,-23.0442],[-44.5811,-23.041],[-44.5765,-23.0442],[-44.5761,-23.0442]]]}},{"type":"Feature","properties":{"cod_tema":"AREA_SERVIDAO_ADMINISTRATIVA_TOTAL","cod_imovel":"RJ-3303807-3372B1EC6A2940E7A6A0F4CC98BCB5F6","num_area":"0.5922000000000000000000000000000","ind_status":"AT"},"geometry":{"type":"Polygon","coordinates":[[[-44.5761,-23.0442],[-44.5811,-23.041],[-44.5765,-23.0442],[-44.5761,-23.0442]]]}},{"type":"Feature","properties":{"cod_tema":"AREA_INFRAESTRUTURA_PUBLICA","cod_imovel":"RJ-3303807-3B586916B60C4424A6A15C5158A41D6B","num_area":"0.2919000000000000000000000000000","ind_status":"AT"},"geometry":{"type":"Polygon","coordinates":[[[-44.7633,-23.2385],[-44.7601,-23.2369],[-44.7632,-23.2384],[-44.7633,-23.2385]]]}},{"type":"Feature","properties":{"cod_tema":"AREA_SERVIDAO_ADMINISTRATIVA_TOTAL","cod_imovel":"RJ-3303807-3B586916B60C4424A6A15C5158A41D6B","num_area":"0.2919000000000000000000000000000","ind_status":"AT"},"geometry":{"type":"Polygon","coordinates":[[[-44.7633,-23.2385],[-44.7601,-23.2369],[-44.7632,-23.2384],[-44.7633,-23.2385]]]}},{"type":"Feature","properties":{"cod_tema":"AREA_INFRAESTRUTURA_PUBLICA","cod_imovel":"RJ-3303807-741975534E0B4DBCB517AE4AB9733ED8","num_area":"0.3095000000000000000000000000000","ind_status":"AT"},"geometry":{"type":"Polygon","coordinates":[[[-44.8332,-23.1745],[-44.837,-23.1749],[-44.8332,-23.1745],[-44.8332,-23.1745]]]}},{"type":"Feature","properties":{"cod_tema":"AREA_SERVIDAO_ADMINISTRATIVA_TOTAL","cod_imovel":"RJ-3303807-741975534E0B4DBCB517AE4AB9733ED8","num_area":"0.3095000000000000000000000000000","ind_status":"AT"},"geometry":{"type":"Polygon","coordinates":[[[-44.8332,-23.1745],[-44.837,-23.1749],[-44.8332,-23.1745],[-44.8332,-23.1745]]]}},{"type":"Feature","properties":{"cod_tema":"AREA_UTILIDADE_PUBLICA","cod_imovel":"RJ-3303807-79FB61970B9440B29A52171F862F71F5","num_area":"0.1692000000000000000000000000000","ind_status":"AT"},"geometry":{"type":"Polygon","coordinates":[[[-44.6851,-23.0558],[-44.6821,-23.0575],[-44.6851,-23.0562],[-44.6851,-23.0558]]]}},{"type":"Feature","properties":{"cod_tema":"AREA_SERVIDAO_ADMINISTRATIVA_TOTAL","cod_imovel":"RJ-3303807-79FB61970B9440B29A52171F862F71F5","num_area":"0.1692000000000000000000000000000","ind_status":"AT"},"geometry":{"type":"Polygon","coordinates":[[[-44.6851,-23.0558],[-44.6821,-23.0575],[-44.6851,-23.0562],[-44.6851,-23.0558]]]}},{"type":"Feature","properties":{"cod_tema":"AREA_INFRAESTRUTURA_PUBLICA","cod_imovel":"RJ-3303807-7BA8448AC6B04330B916FF53461B9912","num_area":"2.1187000000000000000000000000000","ind_status":"AT"},"geometry":{"type":"Polygon","coordinates":[[[-44.6961,-23.2863],[-44.6975,-23.2903],[-44.6961,-23.2864],[-44.6961,-23.2863]]]}},{"type":"Feature","properties":{"cod_tema":"AREA_SERVIDAO_ADMINISTRATIVA_TOTAL","cod_imovel":"RJ-3303807-7BA8448AC6B04330B916FF53461B9912","num_area":"2.1187000000000000000000000000000","ind_status":"AT"},"geometry":{"type":"Polygon","coordinates":[[[-44.6961,-23.2863],[-44.6975,-23.2903],[-44.6961,-23.2864],[-44.6961,-23.2863]]]}},{"type":"Feature","properties":{"cod_tema":"AREA_INFRAESTRUTURA_PUBLICA","cod_imovel":"RJ-3303807-F990AB6FFF0E482DA8F934950505CD56","num_area":"0.1170000000000000000000000000000","ind_status":"AT"},"geometry":{"type":"Polygon","coordinates":[[[-44.7346,-23.1826],[-44.7319,-23.1847],[-44.7346,-23.1826],[-44.7346,-23.1826]]]}},{"type":"Feature","properties":{"cod_tema":"AREA_SERVIDAO_ADMINISTRATIVA_TOTAL","cod_imovel":"RJ-3303807-F990AB6FFF0E482DA8F934950505CD56","num_area":"0.1170000000000000000000000000000","ind_status":"AT"},"geometry":{"type":"Polygon","coordinates":[[[-44.7346,-23.1826],[-44.7319,-23.1847],[-44.7346,-23.1826],[-44.7346,-23.1826]]]}},{"type":"Feature","properties":{"cod_tema":"AREA_INFRAESTRUTURA_PUBLICA","cod_imovel":"RJ-3303807-5CCE244D1A4041719D66A9BA59B2F16F","num_area":"1.0864000000000000000000000000000","ind_status":"AT"},"geometry":{"type":"Polygon","coordinates":[[[-44.5765,-23.0466],[-44.5786,-23.0522],[-44.5774,-23.0477],[-44.5765,-23.0466]]]}},{"type":"Feature","properties":{"cod_tema":"AREA_SERVIDAO_ADMINISTRATIVA_TOTAL","cod_imovel":"RJ-3303807-5CCE244D1A4041719D66A9BA59B2F16F","num_area":"1.0864000000000000000000000000000","ind_status":"AT"},"geometry":{"type":"Polygon","coordinates":[[[-44.5765,-23.0466],[-44.5786,-23.0522],[-44.5774,-23.0477],[-44.5765,-23.0466]]]}},{"type":"Feature","properties":{"cod_tema":"AREA_UTILIDADE_PUBLICA","cod_imovel":"RJ-3303807-58DF6976C1B5460B806E22D094558948","num_area":"1.8272000000000000000000000000000","ind_status":"AT"},"geometry":{"type":"Polygon","coordinates":[[[-44.7037,-23.1761],[-44.6997,-23.1748],[-44.7037,-23.1761],[-44.7037,-23.1761]]]}},{"type":"Feature","properties":{"cod_tema":"AREA_SERVIDAO_ADMINISTRATIVA_TOTAL","cod_imovel":"RJ-3303807-58DF6976C1B5460B806E22D094558948","num_area":"1.8272000000000000000000000000000","ind_status":"AT"},"geometry":{"type":"Polygon","coordinates":[[[-44.7037,-23.1761],[-44.6997,-23.1748],[-44.7037,-23.1761],[-44.7037,-23.1761]]]}},{"type":"Feature","properties":{"cod_tema":"AREA_UTILIDADE_PUBLICA","cod_imovel":"RJ-3303807-854DDF04AFE9421A9CB79D1669E00B1A","num_area":"2.1666000000000000000000000000000","ind_status":"AT"},"geometry":{"type":"Polygon","coordinates":[[[-44.7474,-23.3178],[-44.7434,-23.3159],[-44.7464,-23.3173],[-44.7474,-23.3178]]]}},{"type":"Feature","properties":{"cod_tema":"AREA_SERVIDAO_ADMINISTRATIVA_TOTAL","cod_imovel":"RJ-3303807-854DDF04AFE9421A9CB79D1669E00B1A","num_area":"2.1666000000000000000000000000000","ind_status":"AT"},"geometry":{"type":"Polygon","coordinates":[[[-44.7474,-23.3178],[-44.7434,-23.3159],[-44.7464,-23.3173],[-44.7474,-23.3178]]]}},{"type":"Feature","properties":{"cod_tema":"AREA_INFRAESTRUTURA_PUBLICA","cod_imovel":"RJ-3303807-B7A0BB2536344FD891428129853ABCF3","num_area":"3.8590000000000000000000000000000","ind_status":"AT"},"geometry":{"type":"Polygon","coordinates":[[[-44.6882,-23.0664],[-44.6955,-23.0694],[-44.6979,-23.0788],[-44.6956,-23.0693],[-44.6882,-23.0664],[-44.6882,-23.0664]]]}},{"type":"Feature","properties":{"cod_tema":"AREA_UTILIDADE_PUBLICA","cod_imovel":"RJ-3303807-B7A0BB2536344FD891428129853ABCF3","num_area":"678.34800000000000000000000000000","ind_status":"AT"},"geometry":{"type":"Polygon","coordinates":[[[-44.6979,-23.0788],[-44.7191,-23.0788],[-44.7331,-23.0704],[-44.707,-23.0552],[-44.6882,-23.0664],[-44.6956,-23.0693],[-44.6979,-23.0788],[-44.6979,-23.0788]]]}},{"type":"Feature","properties":{"cod_tema":"AREA_SERVIDAO_ADMINISTRATIVA_TOTAL","cod_imovel":"RJ-3303807-B7A0BB2536344FD891428129853ABCF3","num_area":"682.20700000000000000000000000000","ind_status":"AT"},"geometry":{"type":"Polygon","coordinates":[[[-44.6882,-23.0664],[-44.6955,-23.0694],[-44.6978,-23.0788],[-44.7191,-23.0788],[-44.7331,-23.0704],[-44.7071,-23.0551],[-44.6882,-23.0664],[-44.6882,-23.0664]]]}},{"type":"Feature","properties":{"cod_tema":"AREA_UTILIDADE_PUBLICA","cod_imovel":"RJ-3303807-537C406AAD9F4D23AD32D968A6931D9C","num_area":"1.3314000000000000000000000000000","ind_status":"AT"},"geometry":{"type":"Polygon","coordinates":[[[-44.5389,-22.9988],[-44.5397,-22.9885],[-44.5389,-22.9991],[-44.5389,-22.9988]]]}},{"type":"Feature","properties":{"cod_tema":"AREA_SERVIDAO_ADMINISTRATIVA_TOTAL","cod_imovel":"RJ-3303807-537C406AAD9F4D23AD32D968A6931D9C","num_area":"1.3314000000000000000000000000000","ind_status":"AT"},"geometry":{"type":"Polygon","coordinates":[[[-44.5389,-22.9988],[-44.5397,-22.9885],[-44.5389,-22.9991],[-44.5389,-22.9988]]]}},{"type":"Feature","properties":{"cod_tema":"AREA_UTILIDADE_PUBLICA","cod_imovel":"RJ-3303807-C3561701020046E9888D26A063AD0ABA","num_area":"0.1880000000000000000000000000000","ind_status":"AT"},"geometry":{"type":"Polygon","coordinates":[[[-44.7052,-23.0802],[-44.7086,-23.0816],[-44.7052,-23.0802],[-44.7052,-23.0802]]]}},{"type":"Feature","properties":{"cod_tema":"AREA_SERVIDAO_ADMINISTRATIVA_TOTAL","cod_imovel":"RJ-3303807-C3561701020046E9888D26A063AD0ABA","num_area":"0.1880000000000000000000000000000","ind_status":"AT"},"geometry":{"type":"Polygon","coordinates":[[[-44.7052,-23.0802],[-44.7086,-23.0816],[-44.7052,-23.0802],[-44.7052,-23.0802]]]}},{"type":"Feature","properties":{"cod_tema":"AREA_INFRAESTRUTURA_PUBLICA","cod_imovel":"RJ-3303807-7057553EE0B54F149068CF5F255CF5A2","num_area":"29.418600000000000000000000000000","ind_status":"PE"},"geometry":{"type":"Polygon","coordinates":[[[-44.6983,-23.0797],[-44.6935,-23.0902],[-44.7071,-23.1014],[-44.7092,-23.1161],[-44.7076,-23.1012],[-44.6941,-23.0901],[-44.6984,-23.0804],[-44.6983,-23.0797]]]}},{"type":"Feature","properties":{"cod_tema":"AREA_UTILIDADE_PUBLICA","cod_imovel":"RJ-3303807-7057553EE0B54F149068CF5F255CF5A2","num_area":"467.72330000000000000000000000000","ind_status":"PE"},"geometry":{"type":"Polygon","coordinates":[[[-44.6949,-23.0979],[-44.6965,-23.1092],[-44.6935,-23.094],[-44.6876,-23.0907],[-44.6922,-23.0833],[-44.6849,-23.079],[-44.6919,-23.0833],[-44.6873,-23.0908],[-44.6948,-23.0975],[-44.6949,-23.0979]],[[-44.7084,-23.0882],[-44.7082,-23.0845],[-44.6941,-23.0899],[-44.7049,-23.0984],[-44.7084,-23.0882],[-44.7084,-23.0882]],[[-44.7205,-23.0941],[-44.7161,-23.0954],[-44.7195,-23.099],[-44.7154,-23.096],[-44.72,-23.1012],[-44.7132,-23.098],[-44.7159,-23.1029],[-44.7125,-23.0982],[-44.7062,-23.0974],[-44.709,-23.1025],[-44.7056,-23.0989],[-44.7083,-23.1031],[-44.7248,-23.1037],[-44.7266,-23.0988],[-44.7247,-23.1014],[-44.7205,-23.0941],[-44.7205,-23.0941]],[[-44.7164,-23.0854],[-44.7066,-23.0968],[-44.7126,-23.0961],[-44.7114,-23.0919],[-44.7106,-23.0984],[-44.7156,-23.095],[-44.7164,-23.0854],[-44.7164,-23.0854]],[[-44.713,-23.0842],[-44.7079,-23.0941],[-44.7131,-23.0841],[-44.713,-23.0842]],[[-44.7096,-23.084],[-44.7091,-23.088],[-44.7111,-23.0834],[-44.7096,-23.084]],[[-44.7215,-23.0904],[-44.7166,-23.0941],[-44.7217,-23.0903],[-44.7215,-23.0904]],[[-44.7199,-23.0904],[-44.7169,-23.0926],[-44.72,-23.0904],[-44.7199,-23.0904]],[[-44.7182,-23.0858],[-44.7193,-23.0899],[-44.719,-23.0851],[-44.7182,-23.0858]],[[-44.7195,-23.0846],[-44.7202,-23.0897],[-44.7213,-23.0828],[-44.7195,-23.0846]],[[-44.7271,-23.0889],[-44.7209,-23.0935],[-44.7274,-23.0966],[-44.7275,-23.0889],[-44.7271,-23.0889]],[[-44.7276,-23.0833],[-44.7224,-23.0885],[-44.7304,-23.0888],[-44.7321,-23.0843],[-44.7276,-23.0833],[-44.7276,-23.0833]],[[-44.7249,-23.0832],[-44.7236,-23.0876],[-44.725,-23.083],[-44.7249,-23.0832]]]}},{"type":"Feature","properties":{"cod_tema":"AREA_SERVIDAO_ADMINISTRATIVA_TOTAL","cod_imovel":"RJ-3303807-7057553EE0B54F149068CF5F255CF5A2","num_area":"497.14190000000000000000000000000","ind_status":"PE"},"geometry":{"type":"Polygon","coordinates":[[[-44.6983,-23.0797],[-44.6935,-23.0902],[-44.7071,-23.1014],[-44.7092,-23.1161],[-44.7083,-23.1031],[-44.7248,-23.1037],[-44.7266,-23.0988],[-44.7248,-23.1015],[-44.7249,-23.0962],[-44.7224,-23.0994],[-44.7213,-23.0947],[-44.7165,-23.0948],[-44.7201,-23.1011],[-44.7145,-23.0964],[-44.7159,-23.1029],[-44.7062,-23.0974],[-44.7083,-23.103],[-44.6992,-23.0931],[-44.7049,-23.0984],[-44.7082,-23.0845],[-44.6941,-23.0898],[-44.6984,-23.0804],[-44.6983,-23.0797]],[[-44.6992,-23.0931],[-44.6941,-23.0901],[-44.6991,-23.0929],[-44.6992,-23.0931]],[[-44.6949,-23.0979],[-44.6965,-23.1092],[-44.6935,-23.094],[-44.6876,-23.0907],[-44.6922,-23.0833],[-44.6849,-23.079],[-44.6919,-23.0833],[-44.6873,-23.0908],[-44.6948,-23.0975],[-44.6949,-23.0979]],[[-44.7164,-23.0854],[-44.7066,-23.0968],[-44.7126,-23.0961],[-44.7114,-23.0919],[-44.7106,-23.0984],[-44.7156,-23.095],[-44.7164,-23.0854],[-44.7164,-23.0854]],[[-44.713,-23.0842],[-44.7079,-23.0941],[-44.7131,-23.0841],[-44.713,-23.0842]],[[-44.7096,-23.084],[-44.7091,-23.088],[-44.7111,-23.0834],[-44.7096,-23.084]],[[-44.7215,-23.0904],[-44.7166,-23.0941],[-44.7217,-23.0903],[-44.7215,-23.0904]],[[-44.7199,-23.0904],[-44.7169,-23.0926],[-44.72,-23.0904],[-44.7199,-23.0904]],[[-44.7182,-23.0858],[-44.7193,-23.0899],[-44.719,-23.0851],[-44.7182,-23.0858]],[[-44.7195,-23.0846],[-44.7202,-23.0897],[-44.7213,-23.0828],[-44.7195,-23.0846]],[[-44.7271,-23.0889],[-44.7209,-23.0935],[-44.7274,-23.0966],[-44.7275,-23.0889],[-44.7271,-23.0889]],[[-44.7276,-23.0833],[-44.7224,-23.0885],[-44.7304,-23.0888],[-44.7321,-23.0843],[-44.7276,-23.0833],[-44.7276,-23.0833]],[[-44.7249,-23.0832],[-44.7236,-23.0876],[-44.725,-23.083],[-44.7249,-23.0832]]]}},{"type":"Feature","properties":{"cod_tema":"AREA_UTILIDADE_PUBLICA","cod_imovel":"RJ-3303807-6BA68BEDB7EE4210AE9713D8D6784CD9","num_area":"0.3458000000000000000000000000000","ind_status":"CA"},"geometry":{"type":"Polygon","coordinates":[[[-44.7652,-23.3163],[-44.7597,-23.3187],[-44.7649,-23.3164],[-44.7652,-23.3163]]]}},{"type":"Feature","properties":{"cod_tema":"AREA_SERVIDAO_ADMINISTRATIVA_TOTAL","cod_imovel":"RJ-3303807-6BA68BEDB7EE4210AE9713D8D6784CD9","num_area":"0.3458000000000000000000000000000","ind_status":"CA"},"geometry":{"type":"Polygon","coordinates":[[[-44.7652,-23.3163],[-44.7597,-23.3187],[-44.7649,-23.3164],[-44.7652,-23.3163]]]}},{"type":"Feature","properties":{"cod_tema":"AREA_INFRAESTRUTURA_PUBLICA","cod_imovel":"RJ-3303807-D55104A23E114D159EB7B320B3EA3A0A","num_area":"1.7111000000000000000000000000000","ind_status":"AT"},"geometry":{"type":"Polygon","coordinates":[[[-44.6631,-23.0452],[-44.6604,-23.0413],[-44.6556,-23.0438],[-44.6631,-23.0452],[-44.6631,-23.0452]],[[-44.6601,-23.0475],[-44.657,-23.0523],[-44.6601,-23.0475],[-44.6601,-23.0475]]]}},{"type":"Feature","properties":{"cod_tema":"AREA_SERVIDAO_ADMINISTRATIVA_TOTAL","cod_imovel":"RJ-3303807-D55104A23E114D159EB7B320B3EA3A0A","num_area":"1.7111000000000000000000000000000","ind_status":"AT"},"geometry":{"type":"Polygon","coordinates":[[[-44.6631,-23.0452],[-44.6604,-23.0413],[-44.6556,-23.0438],[-44.6631,-23.0452],[-44.6631,-23.0452]],[[-44.6601,-23.0475],[-44.657,-23.0523],[-44.6601,-23.0475],[-44.6601,-23.0475]]]}},{"type":"Feature","properties":{"cod_tema":"AREA_UTILIDADE_PUBLICA","cod_imovel":"RJ-3303807-3F9CE4C1C2134D0DA419A72EEB7722B3","num_area":"9394.1350000000000000000000000000","ind_status":"PE"},"geometry":{"type":"Polygon","coordinates":[[[-44.675,-22.9206],[-44.6734,-22.9178],[-44.6249,-22.9733],[-44.6308,-23.0006],[-44.6115,-23.0152],[-44.636,-23.0128],[-44.6308,-23.0256],[-44.6339,-23.0295],[-44.6447,-23.0271],[-44.6507,-23.0309],[-44.6553,-23.0254],[-44.6529,-23.0311],[-44.6636,-23.028],[-44.6674,-23.0334],[-44.7062,-23.0018],[-44.7484,-22.9536],[-44.7128,-22.9294],[-44.7034,-22.9354],[-44.6954,-22.9319],[-44.6877,-22.9365],[-44.6756,-22.9213],[-44.675,-22.9206]]]}},{"type":"Feature","properties":{"cod_tema":"AREA_SERVIDAO_ADMINISTRATIVA_TOTAL","cod_imovel":"RJ-3303807-3F9CE4C1C2134D0DA419A72EEB7722B3","num_area":"9394.1350000000000000000000000000","ind_status":"PE"},"geometry":{"type":"Polygon","coordinates":[[[-44.675,-22.9206],[-44.6734,-22.9178],[-44.6249,-22.9733],[-44.6308,-23.0006],[-44.6115,-23.0152],[-44.636,-23.0128],[-44.6308,-23.0256],[-44.6339,-23.0295],[-44.6447,-23.0271],[-44.6507,-23.0309],[-44.6553,-23.0254],[-44.6529,-23.0311],[-44.6636,-23.028],[-44.6674,-23.0334],[-44.7062,-23.0018],[-44.7484,-22.9536],[-44.7128,-22.9294],[-44.7034,-22.9354],[-44.6954,-22.9319],[-44.6877,-22.9365],[-44.6756,-22.9213],[-44.675,-22.9206]]]}},{"type":"Feature","properties":{"cod_tema":"AREA_INFRAESTRUTURA_PUBLICA","cod_imovel":"RJ-3303807-D30FD447B36149C5A7399F768E569972","num_area":"3.3141000000000000000000000000000","ind_status":"PE"},"geometry":{"type":"Polygon","coordinates":[[[-44.5514,-23.0009],[-44.5485,-22.9949],[-44.5504,-23.0001],[-44.5514,-23.0009]],[[-44.5558,-22.9922],[-44.5635,-22.9878],[-44.5559,-22.9922],[-44.5558,-22.9922]],[[-44.5776,-22.9828],[-44.5731,-22.9977],[-44.5775,-22.9829],[-44.5776,-22.9828]]]}},{"type":"Feature","properties":{"cod_tema":"AREA_SERVIDAO_ADMINISTRATIVA_TOTAL","cod_imovel":"RJ-3303807-D30FD447B36149C5A7399F768E569972","num_area":"3.3141000000000000000000000000000","ind_status":"PE"},"geometry":{"type":"Polygon","coordinates":[[[-44.5514,-23.0009],[-44.5485,-22.9949],[-44.5504,-23.0001],[-44.5514,-23.0009]],[[-44.5558,-22.9922],[-44.5635,-22.9878],[-44.5559,-22.9922],[-44.5558,-22.9922]],[[-44.5776,-22.9828],[-44.5731,-22.9977],[-44.5775,-22.9829],[-44.5776,-22.9828]]]}},{"type":"Feature","properties":{"cod_tema":"AREA_INFRAESTRUTURA_PUBLICA","cod_imovel":"RJ-3303807-AB4E67A1C2684E44BCDFF72A51156DF8","num_area":"0.4162000000000000000000000000000","ind_status":"AT"},"geometry":{"type":"Polygon","coordinates":[[[-44.7052,-23.2516],[-44.7086,-23.2533],[-44.7053,-23.2517],[-44.7052,-23.2516]]]}},{"type":"Feature","properties":{"cod_tema":"AREA_SERVIDAO_ADMINISTRATIVA_TOTAL","cod_imovel":"RJ-3303807-AB4E67A1C2684E44BCDFF72A51156DF8","num_area":"0.4162000000000000000000000000000","ind_status":"AT"},"geometry":{"type":"Polygon","coordinates":[[[-44.7052,-23.2516],[-44.7086,-23.2533],[-44.7053,-23.2517],[-44.7052,-23.2516]]]}},{"type":"Feature","properties":{"cod_tema":"AREA_INFRAESTRUTURA_PUBLICA","cod_imovel":"RJ-3303807-38BED62E8938476BA78A868F148D3B23","num_area":"0.1116000000000000000000000000000","ind_status":"AT"},"geometry":{"type":"Polygon","coordinates":[[[-44.7206,-23.3473],[-44.7181,-23.3452],[-44.7205,-23.3472],[-44.7206,-23.3473]]]}},{"type":"Feature","properties":{"cod_tema":"AREA_SERVIDAO_ADMINISTRATIVA_TOTAL","cod_imovel":"RJ-3303807-38BED62E8938476BA78A868F148D3B23","num_area":"0.1116000000000000000000000000000","ind_status":"AT"},"geometry":{"type":"Polygon","coordinates":[[[-44.7206,-23.3473],[-44.7181,-23.3452],[-44.7205,-23.3472],[-44.7206,-23.3473]]]}},{"type":"Feature","properties":{"cod_tema":"AREA_INFRAESTRUTURA_PUBLICA","cod_imovel":"RJ-3303807-E584E54B72024254878DEA4B3CA7F824","num_area":"0.8749000000000000000000000000000","ind_status":"AT"},"geometry":{"type":"Polygon","coordinates":[[[-44.5698,-23.042],[-44.5657,-23.0399],[-44.5698,-23.0421],[-44.5698,-23.042]]]}},{"type":"Feature","properties":{"cod_tema":"AREA_SERVIDAO_ADMINISTRATIVA_TOTAL","cod_imovel":"RJ-3303807-E584E54B72024254878DEA4B3CA7F824","num_area":"0.8749000000000000000000000000000","ind_status":"AT"},"geometry":{"type":"Polygon","coordinates":[[[-44.5698,-23.042],[-44.5657,-23.0399],[-44.5698,-23.0421],[-44.5698,-23.042]]]}},{"type":"Feature","properties":{"cod_tema":"AREA_INFRAESTRUTURA_PUBLICA","cod_imovel":"RJ-3303807-D73E25D7F14346C4A18E3FF3933354BF","num_area":"6.1102000000000000000000000000000","ind_status":"AT"},"geometry":{"type":"Polygon","coordinates":[[[-44.6845,-23.2662],[-44.682,-23.2692],[-44.6865,-23.2736],[-44.6831,-23.268],[-44.6845,-23.2662]]]}},{"type":"Feature","properties":{"cod_tema":"AREA_SERVIDAO_ADMINISTRATIVA_TOTAL","cod_imovel":"RJ-3303807-D73E25D7F14346C4A18E3FF3933354BF","num_area":"6.1102000000000000000000000000000","ind_status":"AT"},"geometry":{"type":"Polygon","coordinates":[[[-44.6845,-23.2662],[-44.682,-23.2692],[-44.6865,-23.2736],[-44.6831,-23.268],[-44.6845,-23.2662]]]}},{"type":"Feature","properties":{"cod_tema":"AREA_INFRAESTRUTURA_PUBLICA","cod_imovel":"RJ-3303807-93F9D17DB29D40DFB9176D39FBD97CCA","num_area":"15.924700000000000000000000000000","ind_status":"SU"},"geometry":{"type":"Polygon","coordinates":[[[-44.6853,-23.0658],[-44.6768,-23.0525],[-44.6676,-23.0482],[-44.6851,-23.0657],[-44.6853,-23.0658]]]}},{"type":"Feature","properties":{"cod_tema":"AREA_UTILIDADE_PUBLICA","cod_imovel":"RJ-3303807-93F9D17DB29D40DFB9176D39FBD97CCA","num_area":"923.03050000000000000000000000000","ind_status":"SU"},"geometry":{"type":"Polygon","coordinates":[[[-44.6791,-23.0665],[-44.6691,-23.0542],[-44.6597,-23.0543],[-44.6689,-23.0545],[-44.6791,-23.0664],[-44.6791,-23.0665]],[[-44.7067,-23.0556],[-44.7203,-23.0547],[-44.6904,-23.0337],[-44.6683,-23.0477],[-44.6856,-23.0653],[-44.6929,-23.0597],[-44.7051,-23.06],[-44.7069,-23.0557],[-44.7067,-23.0556]]]}},{"type":"Feature","properties":{"cod_tema":"AREA_SERVIDAO_ADMINISTRATIVA_TOTAL","cod_imovel":"RJ-3303807-93F9D17DB29D40DFB9176D39FBD97CCA","num_area":"938.95520000000000000000000000000","ind_status":"SU"},"geometry":{"type":"Polygon","coordinates":[[[-44.6853,-23.0658],[-44.6768,-23.0525],[-44.6676,-23.0482],[-44.6851,-23.0657],[-44.6853,-23.0658]],[[-44.6791,-23.0665],[-44.6691,-23.0542],[-44.6597,-23.0543],[-44.6689,-23.0545],[-44.6791,-23.0664],[-44.6791,-23.0665]],[[-44.7067,-23.0556],[-44.7203,-23.0547],[-44.6904,-23.0337],[-44.6683,-23.0477],[-44.6856,-23.0653],[-44.6929,-23.0597],[-44.7051,-23.06],[-44.7069,-23.0557],[-44.7067,-23.0556]]]}},{"type":"Feature","properties":{"cod_tema":"AREA_UTILIDADE_PUBLICA","cod_imovel":"RJ-3303807-34C25002C25546FFAA7DA2DDF413F710","num_area":"0.2743000000000000000000000000000","ind_status":"AT"},"geometry":{"type":"Polygon","coordinates":[[[-44.6696,-23.2684],[-44.6667,-23.2673],[-44.6696,-23.2684],[-44.6696,-23.2684]]]}},{"type":"Feature","properties":{"cod_tema":"AREA_SERVIDAO_ADMINISTRATIVA_TOTAL","cod_imovel":"RJ-3303807-34C25002C25546FFAA7DA2DDF413F710","num_area":"0.2743000000000000000000000000000","ind_status":"AT"},"geometry":{"type":"Polygon","coordinates":[[[-44.6696,-23.2684],[-44.6667,-23.2673],[-44.6696,-23.2684],[-44.6696,-23.2684]]]}},{"type":"Feature","properties":{"cod_tema":"AREA_INFRAESTRUTURA_PUBLICA","cod_imovel":"RJ-3303807-F3D9DB61EC5142209CF483A44A5FC690","num_area":"1.2453000000000000000000000000000","ind_status":"AT"},"geometry":{"type":"Polygon","coordinates":[[[-44.7291,-23.2011],[-44.7275,-23.1926],[-44.7285,-23.1999],[-44.7291,-23.2011]]]}},{"type":"Feature","properties":{"cod_tema":"AREA_SERVIDAO_ADMINISTRATIVA_TOTAL","cod_imovel":"RJ-3303807-F3D9DB61EC5142209CF483A44A5FC690","num_area":"1.2453000000000000000000000000000","ind_status":"AT"},"geometry":{"type":"Polygon","coordinates":[[[-44.7291,-23.2011],[-44.7275,-23.1926],[-44.7285,-23.1999],[-44.7291,-23.2011]]]}},{"type":"Feature","properties":{"cod_tema":"AREA_INFRAESTRUTURA_PUBLICA","cod_imovel":"RJ-3303807-B515C1B8EFEB43C9AD9B2F1659805581","num_area":"3.7464000000000000000000000000000","ind_status":"AT"},"geometry":{"type":"Polygon","coordinates":[[[-44.7024,-23.2526],[-44.7,-23.2502],[-44.699,-23.2549],[-44.7024,-23.2526],[-44.7024,-23.2526]]]}},{"type":"Feature","properties":{"cod_tema":"AREA_SERVIDAO_ADMINISTRATIVA_TOTAL","cod_imovel":"RJ-3303807-B515C1B8EFEB43C9AD9B2F1659805581","num_area":"3.7464000000000000000000000000000","ind_status":"AT"},"geometry":{"type":"Polygon","coordinates":[[[-44.7024,-23.2526],[-44.7,-23.2502],[-44.699,-23.2549],[-44.7024,-23.2526],[-44.7024,-23.2526]]]}},{"type":"Feature","properties":{"cod_tema":"AREA_INFRAESTRUTURA_PUBLICA","cod_imovel":"RJ-3303807-9FD55B89329B4E89A537482CCBE9AD68","num_area":"5.1406000000000000000000000000000","ind_status":"AT"},"geometry":{"type":"Polygon","coordinates":[[[-44.6005,-23.0475],[-44.5985,-23.0421],[-44.6004,-23.0475],[-44.6005,-23.0475]]]}},{"type":"Feature","properties":{"cod_tema":"AREA_UTILIDADE_PUBLICA","cod_imovel":"RJ-3303807-9FD55B89329B4E89A537482CCBE9AD68","num_area":"4.5523000000000000000000000000000","ind_status":"AT"},"geometry":{"type":"Polygon","coordinates":[[[-44.5987,-23.0418],[-44.601,-23.0469],[-44.5991,-23.042],[-44.5987,-23.0418]]]}},{"type":"Feature","properties":{"cod_tema":"AREA_SERVIDAO_ADMINISTRATIVA_TOTAL","cod_imovel":"RJ-3303807-9FD55B89329B4E89A537482CCBE9AD68","num_area":"8.8224000000000000000000000000000","ind_status":"AT"},"geometry":{"type":"Polygon","coordinates":[[[-44.6005,-23.0475],[-44.5987,-23.0418],[-44.6004,-23.0475],[-44.6005,-23.0475]]]}},{"type":"Feature","properties":{"cod_tema":"AREA_UTILIDADE_PUBLICA","cod_imovel":"RJ-3303807-99BFFF0DD7944A9FBE18880FBDEE6A05","num_area":"0.3804000000000000000000000000000","ind_status":"AT"},"geometry":{"type":"Polygon","coordinates":[[[-44.7145,-23.3169],[-44.7187,-23.3135],[-44.7145,-23.3169],[-44.7145,-23.3169]]]}},{"type":"Feature","properties":{"cod_tema":"AREA_SERVIDAO_ADMINISTRATIVA_TOTAL","cod_imovel":"RJ-3303807-99BFFF0DD7944A9FBE18880FBDEE6A05","num_area":"0.3804000000000000000000000000000","ind_status":"AT"},"geometry":{"type":"Polygon","coordinates":[[[-44.7145,-23.3169],[-44.7187,-23.3135],[-44.7145,-23.3169],[-44.7145,-23.3169]]]}},{"type":"Feature","properties":{"cod_tema":"AREA_UTILIDADE_PUBLICA","cod_imovel":"RJ-3303807-824328D5663E4C3B908A15D41E51F005","num_area":"0.5669000000000000000000000000000","ind_status":"AT"},"geometry":{"type":"Polygon","coordinates":[[[-44.6604,-23.2596],[-44.6662,-23.2651],[-44.6596,-23.2593],[-44.6604,-23.2596]]]}},{"type":"Feature","properties":{"cod_tema":"AREA_SERVIDAO_ADMINISTRATIVA_TOTAL","cod_imovel":"RJ-3303807-824328D5663E4C3B908A15D41E51F005","num_area":"0.5669000000000000000000000000000","ind_status":"AT"},"geometry":{"type":"Polygon","coordinates":[[[-44.6604,-23.2596],[-44.6662,-23.2651],[-44.6596,-23.2593],[-44.6604,-23.2596]]]}},{"type":"Feature","properties":{"cod_tema":"AREA_UTILIDADE_PUBLICA","cod_imovel":"RJ-3303807-C9A8AA177E4D4B5C8A15E443F2022827","num_area":"1.2276000000000000000000000000000","ind_status":"AT"},"geometry":{"type":"Polygon","coordinates":[[[-44.5849,-23.2648],[-44.5943,-23.2566],[-44.585,-23.2646],[-44.5849,-23.2648]],[[-44.5928,-23.277],[-44.5801,-23.2712],[-44.5928,-23.2771],[-44.5928,-23.277]],[[-44.5899,-23.2748],[-44.593,-23.2769],[-44.5899,-23.2748],[-44.5899,-23.2748]]]}},{"type":"Feature","properties":{"cod_tema":"AREA_SERVIDAO_ADMINISTRATIVA_TOTAL","cod_imovel":"RJ-3303807-C9A8AA177E4D4B5C8A15E443F2022827","num_area":"1.2276000000000000000000000000000","ind_status":"AT"},"geometry":{"type":"Polygon","coordinates":[[[-44.5849,-23.2648],[-44.5943,-23.2566],[-44.585,-23.2646],[-44.5849,-23.2648]],[[-44.5928,-23.277],[-44.5801,-23.2712],[-44.5928,-23.2771],[-44.5928,-23.277]],[[-44.5899,-23.2748],[-44.593,-23.2769],[-44.5899,-23.2748],[-44.5899,-23.2748]]]}},{"type":"Feature","properties":{"cod_tema":"AREA_UTILIDADE_PUBLICA","cod_imovel":"RJ-3303807-DDECD0A7FE424351A88A8B047CBF1D85","num_area":"3.2278000000000000000000000000000","ind_status":"AT"},"geometry":{"type":"Polygon","coordinates":[[[-44.702,-23.2407],[-44.7008,-23.2456],[-44.7021,-23.241],[-44.702,-23.2407]]]}},{"type":"Feature","properties":{"cod_tema":"AREA_SERVIDAO_ADMINISTRATIVA_TOTAL","cod_imovel":"RJ-3303807-DDECD0A7FE424351A88A8B047CBF1D85","num_area":"3.2278000000000000000000000000000","ind_status":"AT"},"geometry":{"type":"Polygon","coordinates":[[[-44.702,-23.2407],[-44.7008,-23.2456],[-44.7021,-23.241],[-44.702,-23.2407]]]}},{"type":"Feature","properties":{"cod_tema":"AREA_UTILIDADE_PUBLICA","cod_imovel":"RJ-3303807-6D90E55C24DB4811816CC0CE1561CA2D","num_area":"0.3214000000000000000000000000000","ind_status":"AT"},"geometry":{"type":"Polygon","coordinates":[[[-44.7428,-23.3145],[-44.7365,-23.3135],[-44.7428,-23.3145],[-44.7428,-23.3145]]]}},{"type":"Feature","properties":{"cod_tema":"AREA_SERVIDAO_ADMINISTRATIVA_TOTAL","cod_imovel":"RJ-3303807-6D90E55C24DB4811816CC0CE1561CA2D","num_area":"0.3214000000000000000000000000000","ind_status":"AT"},"geometry":{"type":"Polygon","coordinates":[[[-44.7428,-23.3145],[-44.7365,-23.3135],[-44.7428,-23.3145],[-44.7428,-23.3145]]]}},{"type":"Feature","properties":{"cod_tema":"AREA_INFRAESTRUTURA_PUBLICA","cod_imovel":"RJ-3303807-1477A231F58C40FC87A5F8109F87C50E","num_area":"0.2740000000000000000000000000000","ind_status":"AT"},"geometry":{"type":"Polygon","coordinates":[[[-44.6982,-23.2597],[-44.7033,-23.2635],[-44.6983,-23.2597],[-44.6982,-23.2597]]]}},{"type":"Feature","properties":{"cod_tema":"AREA_SERVIDAO_ADMINISTRATIVA_TOTAL","cod_imovel":"RJ-3303807-1477A231F58C40FC87A5F8109F87C50E","num_area":"0.2740000000000000000000000000000","ind_status":"AT"},"geometry":{"type":"Polygon","coordinates":[[[-44.6982,-23.2597],[-44.7033,-23.2635],[-44.6983,-23.2597],[-44.6982,-23.2597]]]}},{"type":"Feature","properties":{"cod_tema":"AREA_UTILIDADE_PUBLICA","cod_imovel":"RJ-3303807-A67EE537B11B4247981D573C1585FB20","num_area":"0.2869000000000000000000000000000","ind_status":"AT"},"geometry":{"type":"Polygon","coordinates":[[[-44.8021,-23.2026],[-44.7982,-23.2071],[-44.8021,-23.2026],[-44.8021,-23.2026]]]}},{"type":"Feature","properties":{"cod_tema":"AREA_SERVIDAO_ADMINISTRATIVA_TOTAL","cod_imovel":"RJ-3303807-A67EE537B11B4247981D573C1585FB20","num_area":"0.2869000000000000000000000000000","ind_status":"AT"},"geometry":{"type":"Polygon","coordinates":[[[-44.8021,-23.2026],[-44.7982,-23.2071],[-44.8021,-23.2026],[-44.8021,-23.2026]]]}},{"type":"Feature","properties":{"cod_tema":"AREA_INFRAESTRUTURA_PUBLICA","cod_imovel":"RJ-3303807-1AC79BC8EFC5405AA2739A540F22F434","num_area":"0.4342000000000000000000000000000","ind_status":"AT"},"geometry":{"type":"Polygon","coordinates":[[[-44.7249,-23.3191],[-44.7282,-23.3156],[-44.7224,-23.3166],[-44.7248,-23.3186],[-44.7249,-23.3191]]]}},{"type":"Feature","properties":{"cod_tema":"AREA_SERVIDAO_ADMINISTRATIVA_TOTAL","cod_imovel":"RJ-3303807-1AC79BC8EFC5405AA2739A540F22F434","num_area":"0.4342000000000000000000000000000","ind_status":"AT"},"geometry":{"type":"Polygon","coordinates":[[[-44.7249,-23.3191],[-44.7282,-23.3156],[-44.7224,-23.3166],[-44.7248,-23.3186],[-44.7249,-23.3191]]]}},{"type":"Feature","properties":{"cod_tema":"AREA_UTILIDADE_PUBLICA","cod_imovel":"RJ-3303807-3EACC6EA112E434B900A42EF91FCDEB7","num_area":"0.2173000000000000000000000000000","ind_status":"AT"},"geometry":{"type":"Polygon","coordinates":[[[-44.7219,-23.2609],[-44.7248,-23.2595],[-44.7219,-23.2609],[-44.7219,-23.2609]]]}},{"type":"Feature","properties":{"cod_tema":"AREA_SERVIDAO_ADMINISTRATIVA_TOTAL","cod_imovel":"RJ-3303807-3EACC6EA112E434B900A42EF91FCDEB7","num_area":"0.2173000000000000000000000000000","ind_status":"AT"},"geometry":{"type":"Polygon","coordinates":[[[-44.7219,-23.2609],[-44.7248,-23.2595],[-44.7219,-23.2609],[-44.7219,-23.2609]]]}},{"type":"Feature","properties":{"cod_tema":"AREA_INFRAESTRUTURA_PUBLICA","cod_imovel":"RJ-3303807-B0076D6040B94E1EBCA75C3F1D9BA07A","num_area":"0.3941000000000000000000000000000","ind_status":"AT"},"geometry":{"type":"Polygon","coordinates":[[[-44.7326,-23.3127],[-44.7266,-23.3123],[-44.7326,-23.3127],[-44.7326,-23.3127]]]}},{"type":"Feature","properties":{"cod_tema":"AREA_SERVIDAO_ADMINISTRATIVA_TOTAL","cod_imovel":"RJ-3303807-B0076D6040B94E1EBCA75C3F1D9BA07A","num_area":"0.3941000000000000000000000000000","ind_status":"AT"},"geometry":{"type":"Polygon","coordinates":[[[-44.7326,-23.3127],[-44.7266,-23.3123],[-44.7326,-23.3127],[-44.7326,-23.3127]]]}}]}