{"type":"FeatureCollection","features":[{"type":"Feature","properties":{"cod_tema":"AREA_UTILIDADE_PUBLICA","cod_imovel":"RJ-3303856-04DBC8CD6BF14D5DA70519B0C2D40AB4","num_area":"0.4101000000000000000000000000000","ind_status":"AT"},"geometry":{"type":"Polygon","coordinates":[[[-43.3765,-22.4528],[-43.3722,-22.452],[-43.3765,-22.4528],[-43.3765,-22.4528]]]}},{"type":"Feature","properties":{"cod_tema":"AREA_SERVIDAO_ADMINISTRATIVA_TOTAL","cod_imovel":"RJ-3303856-04DBC8CD6BF14D5DA70519B0C2D40AB4","num_area":"0.4101000000000000000000000000000","ind_status":"AT"},"geometry":{"type":"Polygon","coordinates":[[[-43.3765,-22.4528],[-43.3722,-22.452],[-43.3765,-22.4528],[-43.3765,-22.4528]]]}},{"type":"Feature","properties":{"cod_tema":"AREA_UTILIDADE_PUBLICA","cod_imovel":"RJ-3303856-2C3C335464FF4B0390CBDA8E7EA7BDB4","num_area":"0.2272000000000000000000000000000","ind_status":"AT"},"geometry":{"type":"Polygon","coordinates":[[[-43.3795,-22.3866],[-43.3754,-22.388],[-43.3795,-22.3866],[-43.3795,-22.3866]]]}},{"type":"Feature","properties":{"cod_tema":"AREA_SERVIDAO_ADMINISTRATIVA_TOTAL","cod_imovel":"RJ-3303856-2C3C335464FF4B0390CBDA8E7EA7BDB4","num_area":"0.2272000000000000000000000000000","ind_status":"AT"},"geometry":{"type":"Polygon","coordinates":[[[-43.3795,-22.3866],[-43.3754,-22.388],[-43.3795,-22.3866],[-43.3795,-22.3866]]]}},{"type":"Feature","properties":{"cod_tema":"AREA_UTILIDADE_PUBLICA","cod_imovel":"RJ-3303856-FA3D52C064FB46A0BBEE3C3EE71D85E0","num_area":"0.6806000000000000000000000000000","ind_status":"AT"},"geometry":{"type":"Polygon","coordinates":[[[-43.4132,-22.3705],[-43.4177,-22.3689],[-43.4189,-22.3746],[-43.4177,-22.3689],[-43.414,-22.3702],[-43.4132,-22.3705]]]}},{"type":"Feature","properties":{"cod_tema":"AREA_SERVIDAO_ADMINISTRATIVA_TOTAL","cod_imovel":"RJ-3303856-FA3D52C064FB46A0BBEE3C3EE71D85E0","num_area":"0.6806000000000000000000000000000","ind_status":"AT"},"geometry":{"type":"Polygon","coordinates":[[[-43.4132,-22.3705],[-43.4177,-22.3689],[-43.4189,-22.3746],[-43.4177,-22.3689],[-43.414,-22.3702],[-43.4132,-22.3705]]]}},{"type":"Feature","properties":{"cod_tema":"AREA_UTILIDADE_PUBLICA","cod_imovel":"RJ-3303856-AE3FCCBDC23E40BB9E1BEA75B1CFD8BF","num_area":"1.1135000000000000000000000000000","ind_status":"AT"},"geometry":{"type":"Polygon","coordinates":[[[-43.4742,-22.382],[-43.4668,-22.3855],[-43.4741,-22.3825],[-43.4742,-22.382]]]}},{"type":"Feature","properties":{"cod_tema":"AREA_SERVIDAO_ADMINISTRATIVA_TOTAL","cod_imovel":"RJ-3303856-AE3FCCBDC23E40BB9E1BEA75B1CFD8BF","num_area":"1.1135000000000000000000000000000","ind_status":"AT"},"geometry":{"type":"Polygon","coordinates":[[[-43.4742,-22.382],[-43.4668,-22.3855],[-43.4741,-22.3825],[-43.4742,-22.382]]]}},{"type":"Feature","properties":{"cod_tema":"AREA_INFRAESTRUTURA_PUBLICA","cod_imovel":"RJ-3303856-0F11D402E90741F2B98391D9A2E456C9","num_area":"0.8393000000000000000000000000000","ind_status":"AT"},"geometry":{"type":"Polygon","coordinates":[[[-43.3179,-22.3327],[-43.3241,-22.3299],[-43.3179,-22.3327],[-43.3179,-22.3327]]]}},{"type":"Feature","properties":{"cod_tema":"AREA_SERVIDAO_ADMINISTRATIVA_TOTAL","cod_imovel":"RJ-3303856-0F11D402E90741F2B98391D9A2E456C9","num_area":"0.8393000000000000000000000000000","ind_status":"AT"},"geometry":{"type":"Polygon","coordinates":[[[-43.3179,-22.3327],[-43.3241,-22.3299],[-43.3179,-22.3327],[-43.3179,-22.3327]]]}},{"type":"Feature","properties":{"cod_tema":"AREA_INFRAESTRUTURA_PUBLICA","cod_imovel":"RJ-3303856-17F3B86877EE4B638E2B9D08D3A8878C","num_area":"3.1085000000000000000000000000000","ind_status":"AT"},"geometry":{"type":"Polygon","coordinates":[[[-43.4994,-22.3218],[-43.4943,-22.3141],[-43.4995,-22.322],[-43.4947,-22.3201],[-43.5032,-22.3253],[-43.4995,-22.3219],[-43.4994,-22.3218]],[[-43.5019,-22.33],[-43.4947,-22.326],[-43.5014,-22.3294],[-43.5019,-22.33]]]}},{"type":"Feature","properties":{"cod_tema":"AREA_SERVIDAO_ADMINISTRATIVA_TOTAL","cod_imovel":"RJ-3303856-17F3B86877EE4B638E2B9D08D3A8878C","num_area":"3.1085000000000000000000000000000","ind_status":"AT"},"geometry":{"type":"Polygon","coordinates":[[[-43.4994,-22.3218],[-43.4943,-22.3141],[-43.4995,-22.322],[-43.4947,-22.3201],[-43.5032,-22.3253],[-43.4995,-22.3219],[-43.4994,-22.3218]],[[-43.5019,-22.33],[-43.4947,-22.326],[-43.5014,-22.3294],[-43.5019,-22.33]]]}},{"type":"Feature","properties":{"cod_tema":"AREA_UTILIDADE_PUBLICA","cod_imovel":"RJ-3303856-1D8D7C8B6A744B489614BE456E5E19D4","num_area":"0.9423000000000000000000000000000","ind_status":"AT"},"geometry":{"type":"Polygon","coordinates":[[[-43.4289,-22.2928],[-43.4185,-22.2954],[-43.4262,-22.2985],[-43.4186,-22.2951],[-43.4289,-22.2928],[-43.4289,-22.2928]]]}},{"type":"Feature","properties":{"cod_tema":"AREA_SERVIDAO_ADMINISTRATIVA_TOTAL","cod_imovel":"RJ-3303856-1D8D7C8B6A744B489614BE456E5E19D4","num_area":"0.9423000000000000000000000000000","ind_status":"AT"},"geometry":{"type":"Polygon","coordinates":[[[-43.4289,-22.2928],[-43.4185,-22.2954],[-43.4262,-22.2985],[-43.4186,-22.2951],[-43.4289,-22.2928],[-43.4289,-22.2928]]]}},{"type":"Feature","properties":{"cod_tema":"AREA_INFRAESTRUTURA_PUBLICA","cod_imovel":"RJ-3303856-2F40039801D34688B082598797373B49","num_area":"0.5228000000000000000000000000000","ind_status":"AT"},"geometry":{"type":"Polygon","coordinates":[[[-43.3568,-22.3133],[-43.362,-22.3199],[-43.3568,-22.3133],[-43.3568,-22.3133]]]}},{"type":"Feature","properties":{"cod_tema":"AREA_SERVIDAO_ADMINISTRATIVA_TOTAL","cod_imovel":"RJ-3303856-2F40039801D34688B082598797373B49","num_area":"0.5228000000000000000000000000000","ind_status":"AT"},"geometry":{"type":"Polygon","coordinates":[[[-43.3568,-22.3133],[-43.362,-22.3199],[-43.3568,-22.3133],[-43.3568,-22.3133]]]}},{"type":"Feature","properties":{"cod_tema":"AREA_UTILIDADE_PUBLICA","cod_imovel":"RJ-3303856-30A122930D114953AAE9EDC991FD80D6","num_area":"0.4610000000000000000000000000000","ind_status":"AT"},"geometry":{"type":"Polygon","coordinates":[[[-43.2955,-22.3788],[-43.2925,-22.376],[-43.2955,-22.3786],[-43.2955,-22.3788]]]}},{"type":"Feature","properties":{"cod_tema":"AREA_SERVIDAO_ADMINISTRATIVA_TOTAL","cod_imovel":"RJ-3303856-30A122930D114953AAE9EDC991FD80D6","num_area":"0.4610000000000000000000000000000","ind_status":"AT"},"geometry":{"type":"Polygon","coordinates":[[[-43.2955,-22.3788],[-43.2925,-22.376],[-43.2955,-22.3786],[-43.2955,-22.3788]]]}},{"type":"Feature","properties":{"cod_tema":"AREA_INFRAESTRUTURA_PUBLICA","cod_imovel":"RJ-3303856-373C36C6DFCA48F193CC5ED2FDB0F940","num_area":"0.3373000000000000000000000000000","ind_status":"AT"},"geometry":{"type":"Polygon","coordinates":[[[-43.4528,-22.3012],[-43.4557,-22.2983],[-43.4528,-22.301],[-43.4528,-22.3012]]]}},{"type":"Feature","properties":{"cod_tema":"AREA_SERVIDAO_ADMINISTRATIVA_TOTAL","cod_imovel":"RJ-3303856-373C36C6DFCA48F193CC5ED2FDB0F940","num_area":"0.3373000000000000000000000000000","ind_status":"AT"},"geometry":{"type":"Polygon","coordinates":[[[-43.4528,-22.3012],[-43.4557,-22.2983],[-43.4528,-22.301],[-43.4528,-22.3012]]]}},{"type":"Feature","properties":{"cod_tema":"AREA_UTILIDADE_PUBLICA","cod_imovel":"RJ-3303856-46B0F7F1E0D744F5A5D40845816B03E2","num_area":"18.058100000000000000000000000000","ind_status":"AT"},"geometry":{"type":"Polygon","coordinates":[[[-43.3932,-22.3122],[-43.4005,-22.3194],[-43.3982,-22.3126],[-43.3933,-22.3124],[-43.3932,-22.3122]],[[-43.4004,-22.2982],[-43.3984,-22.3144],[-43.4029,-22.3189],[-43.3978,-22.3055],[-43.4007,-22.2979],[-43.4004,-22.2982]]]}},{"type":"Feature","properties":{"cod_tema":"AREA_SERVIDAO_ADMINISTRATIVA_TOTAL","cod_imovel":"RJ-3303856-46B0F7F1E0D744F5A5D40845816B03E2","num_area":"18.058100000000000000000000000000","ind_status":"AT"},"geometry":{"type":"Polygon","coordinates":[[[-43.3932,-22.3122],[-43.4005,-22.3194],[-43.3982,-22.3126],[-43.3933,-22.3124],[-43.3932,-22.3122]],[[-43.4004,-22.2982],[-43.3984,-22.3144],[-43.4029,-22.3189],[-43.3978,-22.3055],[-43.4007,-22.2979],[-43.4004,-22.2982]]]}},{"type":"Feature","properties":{"cod_tema":"AREA_UTILIDADE_PUBLICA","cod_imovel":"RJ-3303856-51A03CA767414BE89E98EAB74C6FAF2B","num_area":"0.3216000000000000000000000000000","ind_status":"AT"},"geometry":{"type":"Polygon","coordinates":[[[-43.3908,-22.4411],[-43.3884,-22.4359],[-43.3906,-22.441],[-43.3908,-22.4411]]]}},{"type":"Feature","properties":{"cod_tema":"AREA_SERVIDAO_ADMINISTRATIVA_TOTAL","cod_imovel":"RJ-3303856-51A03CA767414BE89E98EAB74C6FAF2B","num_area":"0.3216000000000000000000000000000","ind_status":"AT"},"geometry":{"type":"Polygon","coordinates":[[[-43.3908,-22.4411],[-43.3884,-22.4359],[-43.3906,-22.441],[-43.3908,-22.4411]]]}},{"type":"Feature","properties":{"cod_tema":"AREA_INFRAESTRUTURA_PUBLICA","cod_imovel":"RJ-3303856-4D5988D80FE542488289995950C901EE","num_area":"0.8114000000000000000000000000000","ind_status":"AT"},"geometry":{"type":"Polygon","coordinates":[[[-43.326,-22.3979],[-43.33,-22.394],[-43.3258,-22.3979],[-43.326,-22.3979]]]}},{"type":"Feature","properties":{"cod_tema":"AREA_SERVIDAO_ADMINISTRATIVA_TOTAL","cod_imovel":"RJ-3303856-4D5988D80FE542488289995950C901EE","num_area":"0.8114000000000000000000000000000","ind_status":"AT"},"geometry":{"type":"Polygon","coordinates":[[[-43.326,-22.3979],[-43.33,-22.394],[-43.3258,-22.3979],[-43.326,-22.3979]]]}},{"type":"Feature","properties":{"cod_tema":"AREA_UTILIDADE_PUBLICA","cod_imovel":"RJ-3303856-542A480875CD4D218C02996065DB7637","num_area":"0.6434000000000000000000000000000","ind_status":"AT"},"geometry":{"type":"Polygon","coordinates":[[[-43.4155,-22.3102],[-43.4215,-22.3157],[-43.4161,-22.3107],[-43.4155,-22.3102]]]}},{"type":"Feature","properties":{"cod_tema":"AREA_SERVIDAO_ADMINISTRATIVA_TOTAL","cod_imovel":"RJ-3303856-542A480875CD4D218C02996065DB7637","num_area":"0.6434000000000000000000000000000","ind_status":"AT"},"geometry":{"type":"Polygon","coordinates":[[[-43.4155,-22.3102],[-43.4215,-22.3157],[-43.4161,-22.3107],[-43.4155,-22.3102]]]}},{"type":"Feature","properties":{"cod_tema":"AREA_UTILIDADE_PUBLICA","cod_imovel":"RJ-3303856-5857342B2B454774912C38E68EE91946","num_area":"0.4089000000000000000000000000000","ind_status":"AT"},"geometry":{"type":"Polygon","coordinates":[[[-43.3659,-22.3813],[-43.3721,-22.3854],[-43.3661,-22.3814],[-43.3659,-22.3813]]]}},{"type":"Feature","properties":{"cod_tema":"AREA_SERVIDAO_ADMINISTRATIVA_TOTAL","cod_imovel":"RJ-3303856-5857342B2B454774912C38E68EE91946","num_area":"0.4089000000000000000000000000000","ind_status":"AT"},"geometry":{"type":"Polygon","coordinates":[[[-43.3659,-22.3813],[-43.3721,-22.3854],[-43.3661,-22.3814],[-43.3659,-22.3813]]]}},{"type":"Feature","properties":{"cod_tema":"AREA_UTILIDADE_PUBLICA","cod_imovel":"RJ-3303856-61E5E84AFF5045BFA80A4FCBC4B21E08","num_area":"1.6332000000000000000000000000000","ind_status":"AT"},"geometry":{"type":"Polygon","coordinates":[[[-43.4521,-22.3614],[-43.4572,-22.3695],[-43.4524,-22.3617],[-43.4521,-22.3614]]]}},{"type":"Feature","properties":{"cod_tema":"AREA_SERVIDAO_ADMINISTRATIVA_TOTAL","cod_imovel":"RJ-3303856-61E5E84AFF5045BFA80A4FCBC4B21E08","num_area":"1.6332000000000000000000000000000","ind_status":"AT"},"geometry":{"type":"Polygon","coordinates":[[[-43.4521,-22.3614],[-43.4572,-22.3695],[-43.4524,-22.3617],[-43.4521,-22.3614]]]}},{"type":"Feature","properties":{"cod_tema":"AREA_INFRAESTRUTURA_PUBLICA","cod_imovel":"RJ-3303856-78A51E309A8745D682A0E90256C7D59C","num_area":"0.5680000000000000000000000000000","ind_status":"AT"},"geometry":{"type":"Polygon","coordinates":[[[-43.3401,-22.2974],[-43.3389,-22.2927],[-43.3401,-22.2973],[-43.3401,-22.2974]]]}},{"type":"Feature","properties":{"cod_tema":"AREA_SERVIDAO_ADMINISTRATIVA_TOTAL","cod_imovel":"RJ-3303856-78A51E309A8745D682A0E90256C7D59C","num_area":"0.5680000000000000000000000000000","ind_status":"AT"},"geometry":{"type":"Polygon","coordinates":[[[-43.3401,-22.2974],[-43.3389,-22.2927],[-43.3401,-22.2973],[-43.3401,-22.2974]]]}},{"type":"Feature","properties":{"cod_tema":"AREA_UTILIDADE_PUBLICA","cod_imovel":"RJ-3303856-787C8E257F69444E95514EB4A5422E60","num_area":"4.2412000000000000000000000000000","ind_status":"AT"},"geometry":{"type":"Polygon","coordinates":[[[-43.4485,-22.3245],[-43.4493,-22.3357],[-43.4536,-22.3315],[-43.4503,-22.3336],[-43.4485,-22.3245],[-43.4485,-22.3245]]]}},{"type":"Feature","properties":{"cod_tema":"AREA_SERVIDAO_ADMINISTRATIVA_TOTAL","cod_imovel":"RJ-3303856-787C8E257F69444E95514EB4A5422E60","num_area":"4.2412000000000000000000000000000","ind_status":"AT"},"geometry":{"type":"Polygon","coordinates":[[[-43.4485,-22.3245],[-43.4493,-22.3357],[-43.4536,-22.3315],[-43.4503,-22.3336],[-43.4485,-22.3245],[-43.4485,-22.3245]]]}},{"type":"Feature","properties":{"cod_tema":"AREA_UTILIDADE_PUBLICA","cod_imovel":"RJ-3303856-7DB1B623AA1A4AA895949246D1D4AE13","num_area":"0.4187000000000000000000000000000","ind_status":"AT"},"geometry":{"type":"Polygon","coordinates":[[[-43.4849,-22.3965],[-43.4857,-22.3929],[-43.4849,-22.3964],[-43.4849,-22.3965]]]}},{"type":"Feature","properties":{"cod_tema":"AREA_SERVIDAO_ADMINISTRATIVA_TOTAL","cod_imovel":"RJ-3303856-7DB1B623AA1A4AA895949246D1D4AE13","num_area":"0.4187000000000000000000000000000","ind_status":"AT"},"geometry":{"type":"Polygon","coordinates":[[[-43.4849,-22.3965],[-43.4857,-22.3929],[-43.4849,-22.3964],[-43.4849,-22.3965]]]}},{"type":"Feature","properties":{"cod_tema":"AREA_UTILIDADE_PUBLICA","cod_imovel":"RJ-3303856-954B8B1DCD63417CBB326BF7EE3793B6","num_area":"0.7039000000000000000000000000000","ind_status":"AT"},"geometry":{"type":"Polygon","coordinates":[[[-43.4008,-22.4426],[-43.3945,-22.4415],[-43.4008,-22.4426],[-43.4008,-22.4426]]]}},{"type":"Feature","properties":{"cod_tema":"AREA_SERVIDAO_ADMINISTRATIVA_TOTAL","cod_imovel":"RJ-3303856-954B8B1DCD63417CBB326BF7EE3793B6","num_area":"0.7039000000000000000000000000000","ind_status":"AT"},"geometry":{"type":"Polygon","coordinates":[[[-43.4008,-22.4426],[-43.3945,-22.4415],[-43.4008,-22.4426],[-43.4008,-22.4426]]]}},{"type":"Feature","properties":{"cod_tema":"AREA_INFRAESTRUTURA_PUBLICA","cod_imovel":"RJ-3303856-99FB536FFB64437EB24053503E00587B","num_area":"0.2529000000000000000000000000000","ind_status":"AT"},"geometry":{"type":"Polygon","coordinates":[[[-43.4603,-22.3207],[-43.464,-22.3196],[-43.4604,-22.3207],[-43.4603,-22.3207]]]}},{"type":"Feature","properties":{"cod_tema":"AREA_SERVIDAO_ADMINISTRATIVA_TOTAL","cod_imovel":"RJ-3303856-99FB536FFB64437EB24053503E00587B","num_area":"0.2529000000000000000000000000000","ind_status":"AT"},"geometry":{"type":"Polygon","coordinates":[[[-43.4603,-22.3207],[-43.464,-22.3196],[-43.4604,-22.3207],[-43.4603,-22.3207]]]}},{"type":"Feature","properties":{"cod_tema":"AREA_INFRAESTRUTURA_PUBLICA","cod_imovel":"RJ-3303856-9FF0D680279447D794CEDE8AB604DD18","num_area":"4.1369000000000000000000000000000","ind_status":"AT"},"geometry":{"type":"Polygon","coordinates":[[[-43.4539,-22.3925],[-43.4477,-22.3884],[-43.4506,-22.3947],[-43.4539,-22.3925],[-43.4539,-22.3925]],[[-43.452,-22.3937],[-43.4481,-22.3899],[-43.452,-22.3937],[-43.452,-22.3937]],[[-43.4574,-22.3871],[-43.4586,-22.3843],[-43.4496,-22.3853],[-43.4574,-22.3871],[-43.4574,-22.3871]]]}},{"type":"Feature","properties":{"cod_tema":"AREA_SERVIDAO_ADMINISTRATIVA_TOTAL","cod_imovel":"RJ-3303856-9FF0D680279447D794CEDE8AB604DD18","num_area":"4.1369000000000000000000000000000","ind_status":"AT"},"geometry":{"type":"Polygon","coordinates":[[[-43.4539,-22.3925],[-43.4477,-22.3884],[-43.4506,-22.3947],[-43.4539,-22.3925],[-43.4539,-22.3925]],[[-43.452,-22.3937],[-43.4481,-22.3899],[-43.452,-22.3937],[-43.452,-22.3937]],[[-43.4574,-22.3871],[-43.4586,-22.3843],[-43.4496,-22.3853],[-43.4574,-22.3871],[-43.4574,-22.3871]]]}},{"type":"Feature","properties":{"cod_tema":"AREA_INFRAESTRUTURA_PUBLICA","cod_imovel":"RJ-3303856-A5C4983CDBF44EA782BFAFC1454729D9","num_area":"0.6793000000000000000000000000000","ind_status":"AT"},"geometry":{"type":"Polygon","coordinates":[[[-43.4118,-22.3377],[-43.4145,-22.3324],[-43.4122,-22.337],[-43.4118,-22.3377]]]}},{"type":"Feature","properties":{"cod_tema":"AREA_SERVIDAO_ADMINISTRATIVA_TOTAL","cod_imovel":"RJ-3303856-A5C4983CDBF44EA782BFAFC1454729D9","num_area":"0.6793000000000000000000000000000","ind_status":"AT"},"geometry":{"type":"Polygon","coordinates":[[[-43.4118,-22.3377],[-43.4145,-22.3324],[-43.4122,-22.337],[-43.4118,-22.3377]]]}},{"type":"Feature","properties":{"cod_tema":"AREA_INFRAESTRUTURA_PUBLICA","cod_imovel":"RJ-3303856-A7440398C3724FDDBBE3B5A2E52E278B","num_area":"1.2725000000000000000000000000000","ind_status":"AT"},"geometry":{"type":"Polygon","coordinates":[[[-43.4166,-22.3439],[-43.422,-22.3486],[-43.4168,-22.3442],[-43.4166,-22.3439]]]}},{"type":"Feature","properties":{"cod_tema":"AREA_SERVIDAO_ADMINISTRATIVA_TOTAL","cod_imovel":"RJ-3303856-A7440398C3724FDDBBE3B5A2E52E278B","num_area":"1.2725000000000000000000000000000","ind_status":"AT"},"geometry":{"type":"Polygon","coordinates":[[[-43.4166,-22.3439],[-43.422,-22.3486],[-43.4168,-22.3442],[-43.4166,-22.3439]]]}},{"type":"Feature","properties":{"cod_tema":"AREA_UTILIDADE_PUBLICA","cod_imovel":"RJ-3303856-B5EB822743D7407B9361175BC6E8F0CB","num_area":"2.3856000000000000000000000000000","ind_status":"AT"},"geometry":{"type":"Polygon","coordinates":[[[-43.3422,-22.3527],[-43.3343,-22.3468],[-43.3406,-22.3539],[-43.3329,-22.3527],[-43.3409,-22.3541],[-43.334,-22.3608],[-43.3422,-22.353],[-43.3422,-22.3527]],[[-43.3421,-22.3458],[-43.344,-22.3496],[-43.3423,-22.3464],[-43.3421,-22.3458]]]}},{"type":"Feature","properties":{"cod_tema":"AREA_SERVIDAO_ADMINISTRATIVA_TOTAL","cod_imovel":"RJ-3303856-B5EB822743D7407B9361175BC6E8F0CB","num_area":"2.3856000000000000000000000000000","ind_status":"AT"},"geometry":{"type":"Polygon","coordinates":[[[-43.3422,-22.3527],[-43.3343,-22.3468],[-43.3406,-22.3539],[-43.3329,-22.3527],[-43.3409,-22.3541],[-43.334,-22.3608],[-43.3422,-22.353],[-43.3422,-22.3527]],[[-43.3421,-22.3458],[-43.344,-22.3496],[-43.3423,-22.3464],[-43.3421,-22.3458]]]}},{"type":"Feature","properties":{"cod_tema":"AREA_INFRAESTRUTURA_PUBLICA","cod_imovel":"RJ-3303856-C1AB55FD6B8A457688A16D22B4C21C17","num_area":"1.4223000000000000000000000000000","ind_status":"AT"},"geometry":{"type":"Polygon","coordinates":[[[-43.4543,-22.3101],[-43.4555,-22.3042],[-43.4528,-22.3095],[-43.4487,-22.3083],[-43.4542,-22.3099],[-43.4543,-22.3101]]]}},{"type":"Feature","properties":{"cod_tema":"AREA_SERVIDAO_ADMINISTRATIVA_TOTAL","cod_imovel":"RJ-3303856-C1AB55FD6B8A457688A16D22B4C21C17","num_area":"1.4223000000000000000000000000000","ind_status":"AT"},"geometry":{"type":"Polygon","coordinates":[[[-43.4543,-22.3101],[-43.4555,-22.3042],[-43.4528,-22.3095],[-43.4487,-22.3083],[-43.4542,-22.3099],[-43.4543,-22.3101]]]}},{"type":"Feature","properties":{"cod_tema":"AREA_INFRAESTRUTURA_PUBLICA","cod_imovel":"RJ-3303856-D97538C659534494A4A91CC2E7700315","num_area":"2.2341000000000000000000000000000","ind_status":"AT"},"geometry":{"type":"Polygon","coordinates":[[[-43.4023,-22.318],[-43.3976,-22.3023],[-43.4028,-22.3187],[-43.4023,-22.318]]]}},{"type":"Feature","properties":{"cod_tema":"AREA_SERVIDAO_ADMINISTRATIVA_TOTAL","cod_imovel":"RJ-3303856-D97538C659534494A4A91CC2E7700315","num_area":"2.2341000000000000000000000000000","ind_status":"AT"},"geometry":{"type":"Polygon","coordinates":[[[-43.4023,-22.318],[-43.3976,-22.3023],[-43.4028,-22.3187],[-43.4023,-22.318]]]}},{"type":"Feature","properties":{"cod_tema":"AREA_UTILIDADE_PUBLICA","cod_imovel":"RJ-3303856-F1CCE8735C1049E7887E105320C8E16F","num_area":"0.3280000000000000000000000000000","ind_status":"AT"},"geometry":{"type":"Polygon","coordinates":[[[-43.4746,-22.3323],[-43.4714,-22.3344],[-43.4745,-22.3323],[-43.4746,-22.3323]]]}},{"type":"Feature","properties":{"cod_tema":"AREA_SERVIDAO_ADMINISTRATIVA_TOTAL","cod_imovel":"RJ-3303856-F1CCE8735C1049E7887E105320C8E16F","num_area":"0.3280000000000000000000000000000","ind_status":"AT"},"geometry":{"type":"Polygon","coordinates":[[[-43.4746,-22.3323],[-43.4714,-22.3344],[-43.4745,-22.3323],[-43.4746,-22.3323]]]}},{"type":"Feature","properties":{"cod_tema":"AREA_UTILIDADE_PUBLICA","cod_imovel":"RJ-3303856-F90BB0D2F80B43DD80F5C6F8397F67D3","num_area":"0.8046000000000000000000000000000","ind_status":"AT"},"geometry":{"type":"Polygon","coordinates":[[[-43.4534,-22.4128],[-43.4576,-22.4145],[-43.4497,-22.4075],[-43.4539,-22.4119],[-43.4534,-22.4128]]]}},{"type":"Feature","properties":{"cod_tema":"AREA_SERVIDAO_ADMINISTRATIVA_TOTAL","cod_imovel":"RJ-3303856-F90BB0D2F80B43DD80F5C6F8397F67D3","num_area":"0.8046000000000000000000000000000","ind_status":"AT"},"geometry":{"type":"Polygon","coordinates":[[[-43.4534,-22.4128],[-43.4576,-22.4145],[-43.4497,-22.4075],[-43.4539,-22.4119],[-43.4534,-22.4128]]]}},{"type":"Feature","properties":{"cod_tema":"AREA_INFRAESTRUTURA_PUBLICA","cod_imovel":"RJ-3303856-23FFC6F76F2640729E4C5B55952D6EEE","num_area":"1.1461000000000000000000000000000","ind_status":"AT"},"geometry":{"type":"Polygon","coordinates":[[[-43.3171,-22.3561],[-43.3055,-22.3591],[-43.3171,-22.3564],[-43.3171,-22.3561]]]}},{"type":"Feature","properties":{"cod_tema":"AREA_SERVIDAO_ADMINISTRATIVA_TOTAL","cod_imovel":"RJ-3303856-23FFC6F76F2640729E4C5B55952D6EEE","num_area":"1.1461000000000000000000000000000","ind_status":"AT"},"geometry":{"type":"Polygon","coordinates":[[[-43.3171,-22.3561],[-43.3055,-22.3591],[-43.3171,-22.3564],[-43.3171,-22.3561]]]}},{"type":"Feature","properties":{"cod_tema":"AREA_UTILIDADE_PUBLICA","cod_imovel":"RJ-3303856-1A52C747D99F4360AC8E5D7D34436549","num_area":"0.4359000000000000000000000000000","ind_status":"AT"},"geometry":{"type":"Polygon","coordinates":[[[-43.4499,-22.356],[-43.4546,-22.3527],[-43.4497,-22.356],[-43.4499,-22.356]]]}},{"type":"Feature","properties":{"cod_tema":"AREA_SERVIDAO_ADMINISTRATIVA_TOTAL","cod_imovel":"RJ-3303856-1A52C747D99F4360AC8E5D7D34436549","num_area":"0.4359000000000000000000000000000","ind_status":"AT"},"geometry":{"type":"Polygon","coordinates":[[[-43.4499,-22.356],[-43.4546,-22.3527],[-43.4497,-22.356],[-43.4499,-22.356]]]}},{"type":"Feature","properties":{"cod_tema":"AREA_UTILIDADE_PUBLICA","cod_imovel":"RJ-3303856-81BB45A3CD0B4213960132E39FE0C1C4","num_area":"0.3593000000000000000000000000000","ind_status":"AT"},"geometry":{"type":"Polygon","coordinates":[[[-43.4273,-22.3516],[-43.4227,-22.3497],[-43.4272,-22.3516],[-43.4273,-22.3516]]]}},{"type":"Feature","properties":{"cod_tema":"AREA_SERVIDAO_ADMINISTRATIVA_TOTAL","cod_imovel":"RJ-3303856-81BB45A3CD0B4213960132E39FE0C1C4","num_area":"0.3593000000000000000000000000000","ind_status":"AT"},"geometry":{"type":"Polygon","coordinates":[[[-43.4273,-22.3516],[-43.4227,-22.3497],[-43.4272,-22.3516],[-43.4273,-22.3516]]]}},{"type":"Feature","properties":{"cod_tema":"AREA_UTILIDADE_PUBLICA","cod_imovel":"RJ-3303856-9B1145B18E014E75AA194CB758EE1FDF","num_area":"0.4224000000000000000000000000000","ind_status":"AT"},"geometry":{"type":"Polygon","coordinates":[[[-43.4541,-22.314],[-43.4523,-22.3098],[-43.454,-22.3142],[-43.4541,-22.314]]]}},{"type":"Feature","properties":{"cod_tema":"AREA_SERVIDAO_ADMINISTRATIVA_TOTAL","cod_imovel":"RJ-3303856-9B1145B18E014E75AA194CB758EE1FDF","num_area":"0.4224000000000000000000000000000","ind_status":"AT"},"geometry":{"type":"Polygon","coordinates":[[[-43.4541,-22.314],[-43.4523,-22.3098],[-43.454,-22.3142],[-43.4541,-22.314]]]}},{"type":"Feature","properties":{"cod_tema":"AREA_INFRAESTRUTURA_PUBLICA","cod_imovel":"RJ-3303856-E2681D00B3B9456B86FE9BE4B8CC2B65","num_area":"0.4595000000000000000000000000000","ind_status":"AT"},"geometry":{"type":"Polygon","coordinates":[[[-43.375,-22.2981],[-43.371,-22.2951],[-43.375,-22.2981],[-43.375,-22.2981]]]}},{"type":"Feature","properties":{"cod_tema":"AREA_SERVIDAO_ADMINISTRATIVA_TOTAL","cod_imovel":"RJ-3303856-E2681D00B3B9456B86FE9BE4B8CC2B65","num_area":"0.4595000000000000000000000000000","ind_status":"AT"},"geometry":{"type":"Polygon","coordinates":[[[-43.375,-22.2981],[-43.371,-22.2951],[-43.375,-22.2981],[-43.375,-22.2981]]]}},{"type":"Feature","properties":{"cod_tema":"AREA_INFRAESTRUTURA_PUBLICA","cod_imovel":"RJ-3303856-F78F3F7E59694463AEC056E3EA2A5D75","num_area":"0.5734000000000000000000000000000","ind_status":"AT"},"geometry":{"type":"Polygon","coordinates":[[[-43.3419,-22.3338],[-43.3397,-22.33],[-43.3303,-22.3317],[-43.3397,-22.33],[-43.3419,-22.3338],[-43.3419,-22.3338]]]}},{"type":"Feature","properties":{"cod_tema":"AREA_SERVIDAO_ADMINISTRATIVA_TOTAL","cod_imovel":"RJ-3303856-F78F3F7E59694463AEC056E3EA2A5D75","num_area":"0.5734000000000000000000000000000","ind_status":"AT"},"geometry":{"type":"Polygon","coordinates":[[[-43.3419,-22.3338],[-43.3397,-22.33],[-43.3303,-22.3317],[-43.3397,-22.33],[-43.3419,-22.3338],[-43.3419,-22.3338]]]}},{"type":"Feature","properties":{"cod_tema":"AREA_INFRAESTRUTURA_PUBLICA","cod_imovel":"RJ-3303856-D310001B93BA4971A8E22DE7B2B74A97","num_area":"0.8753000000000000000000000000000","ind_status":"AT"},"geometry":{"type":"Polygon","coordinates":[[[-43.3502,-22.3756],[-43.3531,-22.372],[-43.3507,-22.3761],[-43.3502,-22.3756]]]}},{"type":"Feature","properties":{"cod_tema":"AREA_SERVIDAO_ADMINISTRATIVA_TOTAL","cod_imovel":"RJ-3303856-D310001B93BA4971A8E22DE7B2B74A97","num_area":"0.8753000000000000000000000000000","ind_status":"AT"},"geometry":{"type":"Polygon","coordinates":[[[-43.3502,-22.3756],[-43.3531,-22.372],[-43.3507,-22.3761],[-43.3502,-22.3756]]]}},{"type":"Feature","properties":{"cod_tema":"AREA_UTILIDADE_PUBLICA","cod_imovel":"RJ-3303856-636EDFBA4A244909907A90C60E35D9EE","num_area":"0.1119000000000000000000000000000","ind_status":"AT"},"geometry":{"type":"Polygon","coordinates":[[[-43.3943,-22.4415],[-43.3978,-22.4423],[-43.3947,-22.4416],[-43.3943,-22.4415]]]}},{"type":"Feature","properties":{"cod_tema":"AREA_SERVIDAO_ADMINISTRATIVA_TOTAL","cod_imovel":"RJ-3303856-636EDFBA4A244909907A90C60E35D9EE","num_area":"0.1119000000000000000000000000000","ind_status":"AT"},"geometry":{"type":"Polygon","coordinates":[[[-43.3943,-22.4415],[-43.3978,-22.4423],[-43.3947,-22.4416],[-43.3943,-22.4415]]]}},{"type":"Feature","properties":{"cod_tema":"AREA_INFRAESTRUTURA_PUBLICA","cod_imovel":"RJ-3303856-768C2D6975AE4FF4BB4368CA60C6DDCC","num_area":"1.2704000000000000000000000000000","ind_status":"AT"},"geometry":{"type":"Polygon","coordinates":[[[-43.4474,-22.3415],[-43.4449,-22.3449],[-43.4474,-22.3415],[-43.4474,-22.3415]]]}},{"type":"Feature","properties":{"cod_tema":"AREA_SERVIDAO_ADMINISTRATIVA_TOTAL","cod_imovel":"RJ-3303856-768C2D6975AE4FF4BB4368CA60C6DDCC","num_area":"1.2704000000000000000000000000000","ind_status":"AT"},"geometry":{"type":"Polygon","coordinates":[[[-43.4474,-22.3415],[-43.4449,-22.3449],[-43.4474,-22.3415],[-43.4474,-22.3415]]]}},{"type":"Feature","properties":{"cod_tema":"AREA_INFRAESTRUTURA_PUBLICA","cod_imovel":"RJ-3303856-097A1A769323480FA3238E8A12906DD7","num_area":"0.6767000000000000000000000000000","ind_status":"AT"},"geometry":{"type":"Polygon","coordinates":[[[-43.4203,-22.3737],[-43.4237,-22.3769],[-43.4204,-22.3737],[-43.4203,-22.3737]]]}},{"type":"Feature","properties":{"cod_tema":"AREA_SERVIDAO_ADMINISTRATIVA_TOTAL","cod_imovel":"RJ-3303856-097A1A769323480FA3238E8A12906DD7","num_area":"0.6767000000000000000000000000000","ind_status":"AT"},"geometry":{"type":"Polygon","coordinates":[[[-43.4203,-22.3737],[-43.4237,-22.3769],[-43.4204,-22.3737],[-43.4203,-22.3737]]]}},{"type":"Feature","properties":{"cod_tema":"AREA_UTILIDADE_PUBLICA","cod_imovel":"RJ-3303856-80BA125DFF88473FB16D4573C706D3D1","num_area":"0.2887000000000000000000000000000","ind_status":"AT"},"geometry":{"type":"Polygon","coordinates":[[[-43.4328,-22.3481],[-43.4348,-22.3527],[-43.4328,-22.3486],[-43.4328,-22.3481]]]}},{"type":"Feature","properties":{"cod_tema":"AREA_SERVIDAO_ADMINISTRATIVA_TOTAL","cod_imovel":"RJ-3303856-80BA125DFF88473FB16D4573C706D3D1","num_area":"0.2887000000000000000000000000000","ind_status":"AT"},"geometry":{"type":"Polygon","coordinates":[[[-43.4328,-22.3481],[-43.4348,-22.3527],[-43.4328,-22.3486],[-43.4328,-22.3481]]]}},{"type":"Feature","properties":{"cod_tema":"AREA_UTILIDADE_PUBLICA","cod_imovel":"RJ-3303856-2EC1288E97DB4F42825EEC9A3CF6BC9E","num_area":"0.2049000000000000000000000000000","ind_status":"AT"},"geometry":{"type":"Polygon","coordinates":[[[-43.4087,-22.373],[-43.4121,-22.375],[-43.4094,-22.3732],[-43.4087,-22.373]]]}},{"type":"Feature","properties":{"cod_tema":"AREA_SERVIDAO_ADMINISTRATIVA_TOTAL","cod_imovel":"RJ-3303856-2EC1288E97DB4F42825EEC9A3CF6BC9E","num_area":"0.2049000000000000000000000000000","ind_status":"AT"},"geometry":{"type":"Polygon","coordinates":[[[-43.4087,-22.373],[-43.4121,-22.375],[-43.4094,-22.3732],[-43.4087,-22.373]]]}},{"type":"Feature","properties":{"cod_tema":"AREA_UTILIDADE_PUBLICA","cod_imovel":"RJ-3303856-E7B3E91FA17249938FBA933C0A13DA5E","num_area":"15.636600000000000000000000000000","ind_status":"AT"},"geometry":{"type":"Polygon","coordinates":[[[-43.4003,-22.3192],[-43.3982,-22.3126],[-43.3932,-22.3122],[-43.4003,-22.3192],[-43.4003,-22.3192]],[[-43.4029,-22.3185],[-43.3982,-22.3005],[-43.3984,-22.3144],[-43.4029,-22.3191],[-43.4029,-22.3185]]]}},{"type":"Feature","properties":{"cod_tema":"AREA_SERVIDAO_ADMINISTRATIVA_TOTAL","cod_imovel":"RJ-3303856-E7B3E91FA17249938FBA933C0A13DA5E","num_area":"15.636600000000000000000000000000","ind_status":"AT"},"geometry":{"type":"Polygon","coordinates":[[[-43.4003,-22.3192],[-43.3982,-22.3126],[-43.3932,-22.3122],[-43.4003,-22.3192],[-43.4003,-22.3192]],[[-43.4029,-22.3185],[-43.3982,-22.3005],[-43.3984,-22.3144],[-43.4029,-22.3191],[-43.4029,-22.3185]]]}},{"type":"Feature","properties":{"cod_tema":"AREA_UTILIDADE_PUBLICA","cod_imovel":"RJ-3303856-8ABD15B73BB44563AE1C43F5AAC78DCB","num_area":"0.2312000000000000000000000000000","ind_status":"AT"},"geometry":{"type":"Polygon","coordinates":[[[-43.4203,-22.3903],[-43.4221,-22.3927],[-43.4199,-22.39],[-43.4203,-22.3903]]]}},{"type":"Feature","properties":{"cod_tema":"AREA_SERVIDAO_ADMINISTRATIVA_TOTAL","cod_imovel":"RJ-3303856-8ABD15B73BB44563AE1C43F5AAC78DCB","num_area":"0.2312000000000000000000000000000","ind_status":"AT"},"geometry":{"type":"Polygon","coordinates":[[[-43.4203,-22.3903],[-43.4221,-22.3927],[-43.4199,-22.39],[-43.4203,-22.3903]]]}},{"type":"Feature","properties":{"cod_tema":"AREA_UTILIDADE_PUBLICA","cod_imovel":"RJ-3303856-FEF7D51935144404AEDBCBC35852D85A","num_area":"1.0938000000000000000000000000000","ind_status":"AT"},"geometry":{"type":"Polygon","coordinates":[[[-43.4618,-22.4128],[-43.4623,-22.4061],[-43.4618,-22.4128],[-43.4618,-22.4128]]]}},{"type":"Feature","properties":{"cod_tema":"AREA_SERVIDAO_ADMINISTRATIVA_TOTAL","cod_imovel":"RJ-3303856-FEF7D51935144404AEDBCBC35852D85A","num_area":"1.0938000000000000000000000000000","ind_status":"AT"},"geometry":{"type":"Polygon","coordinates":[[[-43.4618,-22.4128],[-43.4623,-22.4061],[-43.4618,-22.4128],[-43.4618,-22.4128]]]}},{"type":"Feature","properties":{"cod_tema":"AREA_INFRAESTRUTURA_PUBLICA","cod_imovel":"RJ-3303856-DBF5101A1DB8499DB869BABE00689C51","num_area":"1.0374000000000000000000000000000","ind_status":"AT"},"geometry":{"type":"Polygon","coordinates":[[[-43.4014,-22.4188],[-43.3929,-22.414],[-43.4011,-22.4184],[-43.4014,-22.4188]]]}},{"type":"Feature","properties":{"cod_tema":"AREA_SERVIDAO_ADMINISTRATIVA_TOTAL","cod_imovel":"RJ-3303856-DBF5101A1DB8499DB869BABE00689C51","num_area":"1.0374000000000000000000000000000","ind_status":"AT"},"geometry":{"type":"Polygon","coordinates":[[[-43.4014,-22.4188],[-43.3929,-22.414],[-43.4011,-22.4184],[-43.4014,-22.4188]]]}},{"type":"Feature","properties":{"cod_tema":"AREA_INFRAESTRUTURA_PUBLICA","cod_imovel":"RJ-3303856-8AB140FAE6F844D6810515B9492B9413","num_area":"0.3303000000000000000000000000000","ind_status":"AT"},"geometry":{"type":"Polygon","coordinates":[[[-43.3458,-22.3641],[-43.3428,-22.3663],[-43.3458,-22.3641],[-43.3458,-22.3641]]]}},{"type":"Feature","properties":{"cod_tema":"AREA_SERVIDAO_ADMINISTRATIVA_TOTAL","cod_imovel":"RJ-3303856-8AB140FAE6F844D6810515B9492B9413","num_area":"0.3303000000000000000000000000000","ind_status":"AT"},"geometry":{"type":"Polygon","coordinates":[[[-43.3458,-22.3641],[-43.3428,-22.3663],[-43.3458,-22.3641],[-43.3458,-22.3641]]]}},{"type":"Feature","properties":{"cod_tema":"AREA_UTILIDADE_PUBLICA","cod_imovel":"RJ-3303856-533A8B8489F04F708927D35AAFF87B9E","num_area":"1.1344000000000000000000000000000","ind_status":"AT"},"geometry":{"type":"Polygon","coordinates":[[[-43.484,-22.3426],[-43.4787,-22.3401],[-43.4827,-22.3419],[-43.484,-22.3426]]]}},{"type":"Feature","properties":{"cod_tema":"AREA_SERVIDAO_ADMINISTRATIVA_TOTAL","cod_imovel":"RJ-3303856-533A8B8489F04F708927D35AAFF87B9E","num_area":"1.1344000000000000000000000000000","ind_status":"AT"},"geometry":{"type":"Polygon","coordinates":[[[-43.484,-22.3426],[-43.4787,-22.3401],[-43.4827,-22.3419],[-43.484,-22.3426]]]}},{"type":"Feature","properties":{"cod_tema":"AREA_UTILIDADE_PUBLICA","cod_imovel":"RJ-3303856-08F3E1FFE3F644B2836EAAC25F71DCDC","num_area":"0.5116000000000000000000000000000","ind_status":"AT"},"geometry":{"type":"Polygon","coordinates":[[[-43.3505,-22.3324],[-43.3468,-22.3337],[-43.3501,-22.3325],[-43.3505,-22.3324]]]}},{"type":"Feature","properties":{"cod_tema":"AREA_SERVIDAO_ADMINISTRATIVA_TOTAL","cod_imovel":"RJ-3303856-08F3E1FFE3F644B2836EAAC25F71DCDC","num_area":"0.5116000000000000000000000000000","ind_status":"AT"},"geometry":{"type":"Polygon","coordinates":[[[-43.3505,-22.3324],[-43.3468,-22.3337],[-43.3501,-22.3325],[-43.3505,-22.3324]]]}},{"type":"Feature","properties":{"cod_tema":"AREA_INFRAESTRUTURA_PUBLICA","cod_imovel":"RJ-3303856-A0057C868ABC448A8235B21344CDF626","num_area":"0.4653000000000000000000000000000","ind_status":"AT"},"geometry":{"type":"Polygon","coordinates":[[[-43.4151,-22.3887],[-43.4119,-22.391],[-43.415,-22.3888],[-43.4151,-22.3887]]]}},{"type":"Feature","properties":{"cod_tema":"AREA_SERVIDAO_ADMINISTRATIVA_TOTAL","cod_imovel":"RJ-3303856-A0057C868ABC448A8235B21344CDF626","num_area":"0.4653000000000000000000000000000","ind_status":"AT"},"geometry":{"type":"Polygon","coordinates":[[[-43.4151,-22.3887],[-43.4119,-22.391],[-43.415,-22.3888],[-43.4151,-22.3887]]]}},{"type":"Feature","properties":{"cod_tema":"AREA_INFRAESTRUTURA_PUBLICA","cod_imovel":"RJ-3303856-D788AAD67B674C17A8A5B5EE175878F4","num_area":"5.6399000000000000000000000000000","ind_status":"AT"},"geometry":{"type":"Polygon","coordinates":[[[-43.4036,-22.389],[-43.3962,-22.3886],[-43.3922,-22.3822],[-43.3977,-22.3886],[-43.3789,-22.3838],[-43.3932,-22.3909],[-43.4036,-22.389],[-43.4036,-22.389]],[[-43.4001,-22.3884],[-43.3938,-22.3898],[-43.4,-22.3884],[-43.4001,-22.3884]],[[-43.3935,-22.3898],[-43.3888,-22.3888],[-43.3934,-22.3899],[-43.3935,-22.3898]]]}},{"type":"Feature","properties":{"cod_tema":"AREA_SERVIDAO_ADMINISTRATIVA_TOTAL","cod_imovel":"RJ-3303856-D788AAD67B674C17A8A5B5EE175878F4","num_area":"5.6399000000000000000000000000000","ind_status":"AT"},"geometry":{"type":"Polygon","coordinates":[[[-43.4036,-22.389],[-43.3962,-22.3886],[-43.3922,-22.3822],[-43.3977,-22.3886],[-43.3789,-22.3838],[-43.3932,-22.3909],[-43.4036,-22.389],[-43.4036,-22.389]],[[-43.4001,-22.3884],[-43.3938,-22.3898],[-43.4,-22.3884],[-43.4001,-22.3884]],[[-43.3935,-22.3898],[-43.3888,-22.3888],[-43.3934,-22.3899],[-43.3935,-22.3898]]]}},{"type":"Feature","properties":{"cod_tema":"AREA_UTILIDADE_PUBLICA","cod_imovel":"RJ-3303856-5754E9ADAC9E49CFB26E69533BEC7CF3","num_area":"0.3342000000000000000000000000000","ind_status":"AT"},"geometry":{"type":"Polygon","coordinates":[[[-43.3618,-22.4219],[-43.3569,-22.4211],[-43.3612,-22.4213],[-43.3618,-22.4219]]]}},{"type":"Feature","properties":{"cod_tema":"AREA_SERVIDAO_ADMINISTRATIVA_TOTAL","cod_imovel":"RJ-3303856-5754E9ADAC9E49CFB26E69533BEC7CF3","num_area":"0.3342000000000000000000000000000","ind_status":"AT"},"geometry":{"type":"Polygon","coordinates":[[[-43.3618,-22.4219],[-43.3569,-22.4211],[-43.3612,-22.4213],[-43.3618,-22.4219]]]}},{"type":"Feature","properties":{"cod_tema":"AREA_UTILIDADE_PUBLICA","cod_imovel":"RJ-3303856-766BEE6BE9CD4CBFA0EC571442B0B21F","num_area":"0.3069000000000000000000000000000","ind_status":"AT"},"geometry":{"type":"Polygon","coordinates":[[[-43.4747,-22.3321],[-43.4779,-22.3293],[-43.4749,-22.3322],[-43.4747,-22.3321]]]}},{"type":"Feature","properties":{"cod_tema":"AREA_SERVIDAO_ADMINISTRATIVA_TOTAL","cod_imovel":"RJ-3303856-766BEE6BE9CD4CBFA0EC571442B0B21F","num_area":"0.3069000000000000000000000000000","ind_status":"AT"},"geometry":{"type":"Polygon","coordinates":[[[-43.4747,-22.3321],[-43.4779,-22.3293],[-43.4749,-22.3322],[-43.4747,-22.3321]]]}},{"type":"Feature","properties":{"cod_tema":"AREA_UTILIDADE_PUBLICA","cod_imovel":"RJ-3303856-AF9E62BE2E4C4587992C38A72C5A8A5E","num_area":"0.5762000000000000000000000000000","ind_status":"AT"},"geometry":{"type":"Polygon","coordinates":[[[-43.4628,-22.3448],[-43.463,-22.3412],[-43.4628,-22.3448],[-43.4628,-22.3448]]]}},{"type":"Feature","properties":{"cod_tema":"AREA_SERVIDAO_ADMINISTRATIVA_TOTAL","cod_imovel":"RJ-3303856-AF9E62BE2E4C4587992C38A72C5A8A5E","num_area":"0.5762000000000000000000000000000","ind_status":"AT"},"geometry":{"type":"Polygon","coordinates":[[[-43.4628,-22.3448],[-43.463,-22.3412],[-43.4628,-22.3448],[-43.4628,-22.3448]]]}},{"type":"Feature","properties":{"cod_tema":"AREA_UTILIDADE_PUBLICA","cod_imovel":"RJ-3303856-E7D9F3E8E38D4FF093A3549F40FB6905","num_area":"0.6026000000000000000000000000000","ind_status":"AT"},"geometry":{"type":"Polygon","coordinates":[[[-43.3709,-22.4279],[-43.3684,-22.425],[-43.3706,-22.4279],[-43.3709,-22.4279]]]}},{"type":"Feature","properties":{"cod_tema":"AREA_SERVIDAO_ADMINISTRATIVA_TOTAL","cod_imovel":"RJ-3303856-E7D9F3E8E38D4FF093A3549F40FB6905","num_area":"0.6026000000000000000000000000000","ind_status":"AT"},"geometry":{"type":"Polygon","coordinates":[[[-43.3709,-22.4279],[-43.3684,-22.425],[-43.3706,-22.4279],[-43.3709,-22.4279]]]}},{"type":"Feature","properties":{"cod_tema":"AREA_UTILIDADE_PUBLICA","cod_imovel":"RJ-3303856-1034B715C69E41A7B275FFCF5DD285BC","num_area":"0.3338000000000000000000000000000","ind_status":"AT"},"geometry":{"type":"Polygon","coordinates":[[[-43.3933,-22.3709],[-43.3992,-22.3687],[-43.3938,-22.3705],[-43.3933,-22.3709]]]}},{"type":"Feature","properties":{"cod_tema":"AREA_SERVIDAO_ADMINISTRATIVA_TOTAL","cod_imovel":"RJ-3303856-1034B715C69E41A7B275FFCF5DD285BC","num_area":"0.3338000000000000000000000000000","ind_status":"AT"},"geometry":{"type":"Polygon","coordinates":[[[-43.3933,-22.3709],[-43.3992,-22.3687],[-43.3938,-22.3705],[-43.3933,-22.3709]]]}},{"type":"Feature","properties":{"cod_tema":"AREA_INFRAESTRUTURA_PUBLICA","cod_imovel":"RJ-3303856-ABBFE2AF136A41419C3E9C2BD7506122","num_area":"0.3416000000000000000000000000000","ind_status":"AT"},"geometry":{"type":"Polygon","coordinates":[[[-43.468,-22.3203],[-43.464,-22.3196],[-43.4679,-22.3204],[-43.468,-22.3203]]]}},{"type":"Feature","properties":{"cod_tema":"AREA_SERVIDAO_ADMINISTRATIVA_TOTAL","cod_imovel":"RJ-3303856-ABBFE2AF136A41419C3E9C2BD7506122","num_area":"0.3416000000000000000000000000000","ind_status":"AT"},"geometry":{"type":"Polygon","coordinates":[[[-43.468,-22.3203],[-43.464,-22.3196],[-43.4679,-22.3204],[-43.468,-22.3203]]]}},{"type":"Feature","properties":{"cod_tema":"AREA_UTILIDADE_PUBLICA","cod_imovel":"RJ-3303856-53E76CD620744CA6A9691750ECF556CE","num_area":"0.5448000000000000000000000000000","ind_status":"AT"},"geometry":{"type":"Polygon","coordinates":[[[-43.3762,-22.4338],[-43.3774,-22.4306],[-43.3761,-22.4338],[-43.3762,-22.4338]]]}},{"type":"Feature","properties":{"cod_tema":"AREA_SERVIDAO_ADMINISTRATIVA_TOTAL","cod_imovel":"RJ-3303856-53E76CD620744CA6A9691750ECF556CE","num_area":"0.5448000000000000000000000000000","ind_status":"AT"},"geometry":{"type":"Polygon","coordinates":[[[-43.3762,-22.4338],[-43.3774,-22.4306],[-43.3761,-22.4338],[-43.3762,-22.4338]]]}},{"type":"Feature","properties":{"cod_tema":"AREA_UTILIDADE_PUBLICA","cod_imovel":"RJ-3303856-CDA947FC884E4E1DACE30D8D089FB633","num_area":"0.2615000000000000000000000000000","ind_status":"AT"},"geometry":{"type":"Polygon","coordinates":[[[-43.4427,-22.417],[-43.4421,-22.4124],[-43.4428,-22.4166],[-43.4427,-22.417]]]}},{"type":"Feature","properties":{"cod_tema":"AREA_SERVIDAO_ADMINISTRATIVA_TOTAL","cod_imovel":"RJ-3303856-CDA947FC884E4E1DACE30D8D089FB633","num_area":"0.2615000000000000000000000000000","ind_status":"AT"},"geometry":{"type":"Polygon","coordinates":[[[-43.4427,-22.417],[-43.4421,-22.4124],[-43.4428,-22.4166],[-43.4427,-22.417]]]}},{"type":"Feature","properties":{"cod_tema":"AREA_UTILIDADE_PUBLICA","cod_imovel":"RJ-3303856-B1490723C12F46F886D9F99D78A161C7","num_area":"0.4110000000000000000000000000000","ind_status":"AT"},"geometry":{"type":"Polygon","coordinates":[[[-43.3837,-22.4557],[-43.3792,-22.4574],[-43.3836,-22.4558],[-43.3837,-22.4557]]]}},{"type":"Feature","properties":{"cod_tema":"AREA_SERVIDAO_ADMINISTRATIVA_TOTAL","cod_imovel":"RJ-3303856-B1490723C12F46F886D9F99D78A161C7","num_area":"0.4110000000000000000000000000000","ind_status":"AT"},"geometry":{"type":"Polygon","coordinates":[[[-43.3837,-22.4557],[-43.3792,-22.4574],[-43.3836,-22.4558],[-43.3837,-22.4557]]]}},{"type":"Feature","properties":{"cod_tema":"AREA_UTILIDADE_PUBLICA","cod_imovel":"RJ-3303856-7F459C91B8184BA1A0DDA9D99EC6CE51","num_area":"1.2058000000000000000000000000000","ind_status":"AT"},"geometry":{"type":"Polygon","coordinates":[[[-43.4555,-22.3043],[-43.4523,-22.3097],[-43.4488,-22.3081],[-43.4524,-22.3097],[-43.4555,-22.3043],[-43.4555,-22.3043]]]}},{"type":"Feature","properties":{"cod_tema":"AREA_SERVIDAO_ADMINISTRATIVA_TOTAL","cod_imovel":"RJ-3303856-7F459C91B8184BA1A0DDA9D99EC6CE51","num_area":"1.2058000000000000000000000000000","ind_status":"AT"},"geometry":{"type":"Polygon","coordinates":[[[-43.4555,-22.3043],[-43.4523,-22.3097],[-43.4488,-22.3081],[-43.4524,-22.3097],[-43.4555,-22.3043],[-43.4555,-22.3043]]]}},{"type":"Feature","properties":{"cod_tema":"AREA_UTILIDADE_PUBLICA","cod_imovel":"RJ-3303856-04DDC8CC30F747B9A6988821A36360B6","num_area":"0.4708000000000000000000000000000","ind_status":"AT"},"geometry":{"type":"Polygon","coordinates":[[[-43.401,-22.4427],[-43.4053,-22.4474],[-43.4013,-22.4428],[-43.401,-22.4427]]]}},{"type":"Feature","properties":{"cod_tema":"AREA_SERVIDAO_ADMINISTRATIVA_TOTAL","cod_imovel":"RJ-3303856-04DDC8CC30F747B9A6988821A36360B6","num_area":"0.4708000000000000000000000000000","ind_status":"AT"},"geometry":{"type":"Polygon","coordinates":[[[-43.401,-22.4427],[-43.4053,-22.4474],[-43.4013,-22.4428],[-43.401,-22.4427]]]}},{"type":"Feature","properties":{"cod_tema":"AREA_UTILIDADE_PUBLICA","cod_imovel":"RJ-3303856-B5CBCC2EE28E4FB3AE550FD7DC4F62A9","num_area":"0.3385000000000000000000000000000","ind_status":"AT"},"geometry":{"type":"Polygon","coordinates":[[[-43.4596,-22.3478],[-43.4505,-22.3457],[-43.4592,-22.3478],[-43.4596,-22.3478]]]}},{"type":"Feature","properties":{"cod_tema":"AREA_SERVIDAO_ADMINISTRATIVA_TOTAL","cod_imovel":"RJ-3303856-B5CBCC2EE28E4FB3AE550FD7DC4F62A9","num_area":"0.3385000000000000000000000000000","ind_status":"AT"},"geometry":{"type":"Polygon","coordinates":[[[-43.4596,-22.3478],[-43.4505,-22.3457],[-43.4592,-22.3478],[-43.4596,-22.3478]]]}},{"type":"Feature","properties":{"cod_tema":"AREA_UTILIDADE_PUBLICA","cod_imovel":"RJ-3303856-282E4A74D5B345AB88267DC2B549AFDD","num_area":"0.6731000000000000000000000000000","ind_status":"AT"},"geometry":{"type":"Polygon","coordinates":[[[-43.3535,-22.3985],[-43.3499,-22.3942],[-43.3468,-22.398],[-43.349,-22.3949],[-43.3533,-22.3985],[-43.3535,-22.3985]]]}},{"type":"Feature","properties":{"cod_tema":"AREA_SERVIDAO_ADMINISTRATIVA_TOTAL","cod_imovel":"RJ-3303856-282E4A74D5B345AB88267DC2B549AFDD","num_area":"0.6731000000000000000000000000000","ind_status":"AT"},"geometry":{"type":"Polygon","coordinates":[[[-43.3535,-22.3985],[-43.3499,-22.3942],[-43.3468,-22.398],[-43.349,-22.3949],[-43.3533,-22.3985],[-43.3535,-22.3985]]]}},{"type":"Feature","properties":{"cod_tema":"AREA_INFRAESTRUTURA_PUBLICA","cod_imovel":"RJ-3303856-58F4CC03881C4ED184299E534E5A494F","num_area":"0.6333000000000000000000000000000","ind_status":"AT"},"geometry":{"type":"Polygon","coordinates":[[[-43.4133,-22.4133],[-43.4173,-22.4129],[-43.4138,-22.4133],[-43.4133,-22.4133]]]}},{"type":"Feature","properties":{"cod_tema":"AREA_SERVIDAO_ADMINISTRATIVA_TOTAL","cod_imovel":"RJ-3303856-58F4CC03881C4ED184299E534E5A494F","num_area":"0.6333000000000000000000000000000","ind_status":"AT"},"geometry":{"type":"Polygon","coordinates":[[[-43.4133,-22.4133],[-43.4173,-22.4129],[-43.4138,-22.4133],[-43.4133,-22.4133]]]}},{"type":"Feature","properties":{"cod_tema":"AREA_INFRAESTRUTURA_PUBLICA","cod_imovel":"RJ-3303856-8804970E892842848D43FB97BCDDAE81","num_area":"4.3588000000000000000000000000000","ind_status":"AT"},"geometry":{"type":"Polygon","coordinates":[[[-43.3649,-22.3987],[-43.3643,-22.395],[-43.3648,-22.3987],[-43.3649,-22.3987]],[[-43.3646,-22.4116],[-43.3608,-22.4005],[-43.3563,-22.3994],[-43.3602,-22.3948],[-43.3532,-22.4021],[-43.3607,-22.4006],[-43.3646,-22.4116],[-43.3646,-22.4116]]]}},{"type":"Feature","properties":{"cod_tema":"AREA_SERVIDAO_ADMINISTRATIVA_TOTAL","cod_imovel":"RJ-3303856-8804970E892842848D43FB97BCDDAE81","num_area":"4.3588000000000000000000000000000","ind_status":"AT"},"geometry":{"type":"Polygon","coordinates":[[[-43.3649,-22.3987],[-43.3643,-22.395],[-43.3648,-22.3987],[-43.3649,-22.3987]],[[-43.3646,-22.4116],[-43.3608,-22.4005],[-43.3563,-22.3994],[-43.3602,-22.3948],[-43.3532,-22.4021],[-43.3607,-22.4006],[-43.3646,-22.4116],[-43.3646,-22.4116]]]}},{"type":"Feature","properties":{"cod_tema":"AREA_INFRAESTRUTURA_PUBLICA","cod_imovel":"RJ-3303856-DB32D29346D341328ADD8412BFE88216","num_area":"0.7304000000000000000000000000000","ind_status":"AT"},"geometry":{"type":"Polygon","coordinates":[[[-43.4165,-22.3439],[-43.412,-22.3395],[-43.4151,-22.3428],[-43.4165,-22.3439]]]}},{"type":"Feature","properties":{"cod_tema":"AREA_SERVIDAO_ADMINISTRATIVA_TOTAL","cod_imovel":"RJ-3303856-DB32D29346D341328ADD8412BFE88216","num_area":"0.7304000000000000000000000000000","ind_status":"AT"},"geometry":{"type":"Polygon","coordinates":[[[-43.4165,-22.3439],[-43.412,-22.3395],[-43.4151,-22.3428],[-43.4165,-22.3439]]]}},{"type":"Feature","properties":{"cod_tema":"AREA_UTILIDADE_PUBLICA","cod_imovel":"RJ-3303856-C73DDA19319245F280A973E5463C6704","num_area":"0.6091000000000000000000000000000","ind_status":"AT"},"geometry":{"type":"Polygon","coordinates":[[[-43.4192,-22.3385],[-43.4215,-22.3405],[-43.4192,-22.3385],[-43.4192,-22.3385]]]}},{"type":"Feature","properties":{"cod_tema":"AREA_SERVIDAO_ADMINISTRATIVA_TOTAL","cod_imovel":"RJ-3303856-C73DDA19319245F280A973E5463C6704","num_area":"0.6091000000000000000000000000000","ind_status":"AT"},"geometry":{"type":"Polygon","coordinates":[[[-43.4192,-22.3385],[-43.4215,-22.3405],[-43.4192,-22.3385],[-43.4192,-22.3385]]]}},{"type":"Feature","properties":{"cod_tema":"AREA_UTILIDADE_PUBLICA","cod_imovel":"RJ-3303856-1343D04D590145F78072A48A92CA0B18","num_area":"0.7146000000000000000000000000000","ind_status":"AT"},"geometry":{"type":"Polygon","coordinates":[[[-43.4796,-22.3095],[-43.487,-22.3146],[-43.4801,-22.3098],[-43.4796,-22.3095]]]}},{"type":"Feature","properties":{"cod_tema":"AREA_SERVIDAO_ADMINISTRATIVA_TOTAL","cod_imovel":"RJ-3303856-1343D04D590145F78072A48A92CA0B18","num_area":"0.7146000000000000000000000000000","ind_status":"AT"},"geometry":{"type":"Polygon","coordinates":[[[-43.4796,-22.3095],[-43.487,-22.3146],[-43.4801,-22.3098],[-43.4796,-22.3095]]]}},{"type":"Feature","properties":{"cod_tema":"AREA_UTILIDADE_PUBLICA","cod_imovel":"RJ-3303856-C025446C5E8C487E8FD677E814EA488C","num_area":"2.5636000000000000000000000000000","ind_status":"AT"},"geometry":{"type":"Polygon","coordinates":[[[-43.4137,-22.3911],[-43.4153,-22.3954],[-43.4109,-22.3935],[-43.4155,-22.3985],[-43.4136,-22.3914],[-43.4137,-22.3911]]]}},{"type":"Feature","properties":{"cod_tema":"AREA_SERVIDAO_ADMINISTRATIVA_TOTAL","cod_imovel":"RJ-3303856-C025446C5E8C487E8FD677E814EA488C","num_area":"2.5636000000000000000000000000000","ind_status":"AT"},"geometry":{"type":"Polygon","coordinates":[[[-43.4137,-22.3911],[-43.4153,-22.3954],[-43.4109,-22.3935],[-43.4155,-22.3985],[-43.4136,-22.3914],[-43.4137,-22.3911]]]}},{"type":"Feature","properties":{"cod_tema":"AREA_UTILIDADE_PUBLICA","cod_imovel":"RJ-3303856-162A1B9EACB84B718DABD541DB9C332F","num_area":"0.9818000000000000000000000000000","ind_status":"AT"},"geometry":{"type":"Polygon","coordinates":[[[-43.3568,-22.3112],[-43.361,-22.3092],[-43.3564,-22.3114],[-43.3508,-22.3044],[-43.3564,-22.3114],[-43.3568,-22.3112]]]}},{"type":"Feature","properties":{"cod_tema":"AREA_SERVIDAO_ADMINISTRATIVA_TOTAL","cod_imovel":"RJ-3303856-162A1B9EACB84B718DABD541DB9C332F","num_area":"0.9818000000000000000000000000000","ind_status":"AT"},"geometry":{"type":"Polygon","coordinates":[[[-43.3568,-22.3112],[-43.361,-22.3092],[-43.3564,-22.3114],[-43.3508,-22.3044],[-43.3564,-22.3114],[-43.3568,-22.3112]]]}}]}