{"type":"FeatureCollection","features":[{"type":"Feature","properties":{"cod_tema":"AREA_INFRAESTRUTURA_PUBLICA","cod_imovel":"RJ-3304102-F687E6445D1E4AC1824A743F01F3C2BF","num_area":"0.7755000000000000000000000000000","ind_status":"AT"},"geometry":{"type":"Polygon","coordinates":[[[-41.9555,-20.9022],[-41.9575,-20.8994],[-41.9553,-20.9022],[-41.9555,-20.9022]],[[-41.9441,-20.9055],[-41.9479,-20.9059],[-41.9444,-20.9059],[-41.9441,-20.9055]]]}},{"type":"Feature","properties":{"cod_tema":"AREA_SERVIDAO_ADMINISTRATIVA_TOTAL","cod_imovel":"RJ-3304102-F687E6445D1E4AC1824A743F01F3C2BF","num_area":"0.7755000000000000000000000000000","ind_status":"AT"},"geometry":{"type":"Polygon","coordinates":[[[-41.9555,-20.9022],[-41.9575,-20.8994],[-41.9553,-20.9022],[-41.9555,-20.9022]],[[-41.9441,-20.9055],[-41.9479,-20.9059],[-41.9444,-20.9059],[-41.9441,-20.9055]]]}},{"type":"Feature","properties":{"cod_tema":"AREA_INFRAESTRUTURA_PUBLICA","cod_imovel":"RJ-3304102-024CEF148AFC41808DA4BD823EBBFF2F","num_area":"0.2742000000000000000000000000000","ind_status":"AT"},"geometry":{"type":"Polygon","coordinates":[[[-41.9535,-20.9269],[-41.9534,-20.923],[-41.9534,-20.9268],[-41.9535,-20.9269]]]}},{"type":"Feature","properties":{"cod_tema":"AREA_SERVIDAO_ADMINISTRATIVA_TOTAL","cod_imovel":"RJ-3304102-024CEF148AFC41808DA4BD823EBBFF2F","num_area":"0.2742000000000000000000000000000","ind_status":"AT"},"geometry":{"type":"Polygon","coordinates":[[[-41.9535,-20.9269],[-41.9534,-20.923],[-41.9534,-20.9268],[-41.9535,-20.9269]]]}},{"type":"Feature","properties":{"cod_tema":"AREA_INFRAESTRUTURA_PUBLICA","cod_imovel":"RJ-3304102-028BC8491D7345149E8C2955005FB599","num_area":"0.6191000000000000000000000000000","ind_status":"AT"},"geometry":{"type":"Polygon","coordinates":[[[-41.8543,-20.8229],[-41.8617,-20.8256],[-41.8549,-20.8188],[-41.8544,-20.8229],[-41.8543,-20.8229]]]}},{"type":"Feature","properties":{"cod_tema":"AREA_SERVIDAO_ADMINISTRATIVA_TOTAL","cod_imovel":"RJ-3304102-028BC8491D7345149E8C2955005FB599","num_area":"0.6191000000000000000000000000000","ind_status":"AT"},"geometry":{"type":"Polygon","coordinates":[[[-41.8543,-20.8229],[-41.8617,-20.8256],[-41.8549,-20.8188],[-41.8544,-20.8229],[-41.8543,-20.8229]]]}},{"type":"Feature","properties":{"cod_tema":"AREA_INFRAESTRUTURA_PUBLICA","cod_imovel":"RJ-3304102-06557006F82C4015B239D6425E01B8CD","num_area":"0.7509000000000000000000000000000","ind_status":"AT"},"geometry":{"type":"Polygon","coordinates":[[[-42.0186,-21.0078],[-42.0155,-21.0105],[-42.0186,-21.0078],[-42.0186,-21.0078]],[[-42.0234,-21.012],[-42.0177,-21.0092],[-42.024,-21.0123],[-42.0234,-21.012]]]}},{"type":"Feature","properties":{"cod_tema":"AREA_UTILIDADE_PUBLICA","cod_imovel":"RJ-3304102-06557006F82C4015B239D6425E01B8CD","num_area":"0.4817000000000000000000000000000","ind_status":"AT"},"geometry":{"type":"Polygon","coordinates":[[[-42.0152,-21.0109],[-42.0188,-21.008],[-42.0152,-21.0109],[-42.0152,-21.0109]]]}},{"type":"Feature","properties":{"cod_tema":"AREA_SERVIDAO_ADMINISTRATIVA_TOTAL","cod_imovel":"RJ-3304102-06557006F82C4015B239D6425E01B8CD","num_area":"1.2324000000000000000000000000000","ind_status":"AT"},"geometry":{"type":"Polygon","coordinates":[[[-42.0152,-21.0109],[-42.024,-21.0123],[-42.0187,-21.0079],[-42.0152,-21.0109],[-42.0152,-21.0109]],[[-42.0186,-21.0078],[-42.0155,-21.0105],[-42.0186,-21.0078],[-42.0186,-21.0078]]]}},{"type":"Feature","properties":{"cod_tema":"AREA_UTILIDADE_PUBLICA","cod_imovel":"RJ-3304102-0AB938B5BE424DD793458955136E7550","num_area":"0.3846000000000000000000000000000","ind_status":"AT"},"geometry":{"type":"Polygon","coordinates":[[[-41.9009,-20.8488],[-41.8948,-20.8526],[-41.9006,-20.8489],[-41.9009,-20.8488]]]}},{"type":"Feature","properties":{"cod_tema":"AREA_SERVIDAO_ADMINISTRATIVA_TOTAL","cod_imovel":"RJ-3304102-0AB938B5BE424DD793458955136E7550","num_area":"0.3846000000000000000000000000000","ind_status":"AT"},"geometry":{"type":"Polygon","coordinates":[[[-41.9009,-20.8488],[-41.8948,-20.8526],[-41.9006,-20.8489],[-41.9009,-20.8488]]]}},{"type":"Feature","properties":{"cod_tema":"AREA_INFRAESTRUTURA_PUBLICA","cod_imovel":"RJ-3304102-07B83EA78D1246D6A9A6C3125B9F5038","num_area":"0.4130000000000000000000000000000","ind_status":"AT"},"geometry":{"type":"Polygon","coordinates":[[[-41.8532,-20.8069],[-41.8464,-20.8026],[-41.8544,-20.8081],[-41.8532,-20.8069]]]}},{"type":"Feature","properties":{"cod_tema":"AREA_SERVIDAO_ADMINISTRATIVA_TOTAL","cod_imovel":"RJ-3304102-07B83EA78D1246D6A9A6C3125B9F5038","num_area":"0.4130000000000000000000000000000","ind_status":"AT"},"geometry":{"type":"Polygon","coordinates":[[[-41.8532,-20.8069],[-41.8464,-20.8026],[-41.8544,-20.8081],[-41.8532,-20.8069]]]}},{"type":"Feature","properties":{"cod_tema":"AREA_UTILIDADE_PUBLICA","cod_imovel":"RJ-3304102-08375B0B82E3458D9AAC0BD5A6C23739","num_area":"0.2443000000000000000000000000000","ind_status":"AT"},"geometry":{"type":"Polygon","coordinates":[[[-41.8922,-20.7933],[-41.889,-20.7965],[-41.8922,-20.7933],[-41.8922,-20.7933]]]}},{"type":"Feature","properties":{"cod_tema":"AREA_SERVIDAO_ADMINISTRATIVA_TOTAL","cod_imovel":"RJ-3304102-08375B0B82E3458D9AAC0BD5A6C23739","num_area":"0.2443000000000000000000000000000","ind_status":"AT"},"geometry":{"type":"Polygon","coordinates":[[[-41.8922,-20.7933],[-41.889,-20.7965],[-41.8922,-20.7933],[-41.8922,-20.7933]]]}},{"type":"Feature","properties":{"cod_tema":"AREA_UTILIDADE_PUBLICA","cod_imovel":"RJ-3304102-091E5EE386CB48C6A07B3E76476E7B8A","num_area":"0.6985000000000000000000000000000","ind_status":"AT"},"geometry":{"type":"Polygon","coordinates":[[[-41.8261,-20.8288],[-41.8368,-20.8207],[-41.8348,-20.8145],[-41.8368,-20.8207],[-41.8289,-20.8229],[-41.8263,-20.8287],[-41.8261,-20.8288]]]}},{"type":"Feature","properties":{"cod_tema":"AREA_SERVIDAO_ADMINISTRATIVA_TOTAL","cod_imovel":"RJ-3304102-091E5EE386CB48C6A07B3E76476E7B8A","num_area":"0.6985000000000000000000000000000","ind_status":"AT"},"geometry":{"type":"Polygon","coordinates":[[[-41.8261,-20.8288],[-41.8368,-20.8207],[-41.8348,-20.8145],[-41.8368,-20.8207],[-41.8289,-20.8229],[-41.8263,-20.8287],[-41.8261,-20.8288]]]}},{"type":"Feature","properties":{"cod_tema":"AREA_UTILIDADE_PUBLICA","cod_imovel":"RJ-3304102-0C1FF2C48F794E1DBA90A14E5A042EE8","num_area":"0.6894000000000000000000000000000","ind_status":"AT"},"geometry":{"type":"Polygon","coordinates":[[[-41.9326,-20.9366],[-41.9336,-20.9413],[-41.9326,-20.9366],[-41.9326,-20.9366]]]}},{"type":"Feature","properties":{"cod_tema":"AREA_SERVIDAO_ADMINISTRATIVA_TOTAL","cod_imovel":"RJ-3304102-0C1FF2C48F794E1DBA90A14E5A042EE8","num_area":"0.6894000000000000000000000000000","ind_status":"AT"},"geometry":{"type":"Polygon","coordinates":[[[-41.9326,-20.9366],[-41.9336,-20.9413],[-41.9326,-20.9366],[-41.9326,-20.9366]]]}},{"type":"Feature","properties":{"cod_tema":"AREA_INFRAESTRUTURA_PUBLICA","cod_imovel":"RJ-3304102-15131A867E98476FBA9B60ADC5D76645","num_area":"0.3028000000000000000000000000000","ind_status":"AT"},"geometry":{"type":"Polygon","coordinates":[[[-42.0859,-21.0078],[-42.0898,-21.0057],[-42.086,-21.0078],[-42.0859,-21.0078]]]}},{"type":"Feature","properties":{"cod_tema":"AREA_SERVIDAO_ADMINISTRATIVA_TOTAL","cod_imovel":"RJ-3304102-15131A867E98476FBA9B60ADC5D76645","num_area":"0.3028000000000000000000000000000","ind_status":"AT"},"geometry":{"type":"Polygon","coordinates":[[[-42.0859,-21.0078],[-42.0898,-21.0057],[-42.086,-21.0078],[-42.0859,-21.0078]]]}},{"type":"Feature","properties":{"cod_tema":"AREA_INFRAESTRUTURA_PUBLICA","cod_imovel":"RJ-3304102-196AA7A401044EB986D6BB82929B520E","num_area":"0.5836000000000000000000000000000","ind_status":"AT"},"geometry":{"type":"Polygon","coordinates":[[[-41.9247,-20.9309],[-41.9301,-20.9337],[-41.9249,-20.9306],[-41.9247,-20.9309]]]}},{"type":"Feature","properties":{"cod_tema":"AREA_SERVIDAO_ADMINISTRATIVA_TOTAL","cod_imovel":"RJ-3304102-196AA7A401044EB986D6BB82929B520E","num_area":"0.5836000000000000000000000000000","ind_status":"AT"},"geometry":{"type":"Polygon","coordinates":[[[-41.9247,-20.9309],[-41.9301,-20.9337],[-41.9249,-20.9306],[-41.9247,-20.9309]]]}},{"type":"Feature","properties":{"cod_tema":"AREA_INFRAESTRUTURA_PUBLICA","cod_imovel":"RJ-3304102-19D3B68BD87749E08C9F0FC29274F77B","num_area":"0.4728000000000000000000000000000","ind_status":"AT"},"geometry":{"type":"Polygon","coordinates":[[[-41.9117,-20.821],[-41.9158,-20.8206],[-41.9119,-20.821],[-41.9117,-20.821]]]}},{"type":"Feature","properties":{"cod_tema":"AREA_SERVIDAO_ADMINISTRATIVA_TOTAL","cod_imovel":"RJ-3304102-19D3B68BD87749E08C9F0FC29274F77B","num_area":"0.4728000000000000000000000000000","ind_status":"AT"},"geometry":{"type":"Polygon","coordinates":[[[-41.9117,-20.821],[-41.9158,-20.8206],[-41.9119,-20.821],[-41.9117,-20.821]]]}},{"type":"Feature","properties":{"cod_tema":"AREA_UTILIDADE_PUBLICA","cod_imovel":"RJ-3304102-19EA0605BBE24A919201FB824B21469D","num_area":"0.2142000000000000000000000000000","ind_status":"AT"},"geometry":{"type":"Polygon","coordinates":[[[-41.8265,-20.7891],[-41.8286,-20.7935],[-41.8267,-20.7895],[-41.8265,-20.7891]]]}},{"type":"Feature","properties":{"cod_tema":"AREA_SERVIDAO_ADMINISTRATIVA_TOTAL","cod_imovel":"RJ-3304102-19EA0605BBE24A919201FB824B21469D","num_area":"0.2142000000000000000000000000000","ind_status":"AT"},"geometry":{"type":"Polygon","coordinates":[[[-41.8265,-20.7891],[-41.8286,-20.7935],[-41.8267,-20.7895],[-41.8265,-20.7891]]]}},{"type":"Feature","properties":{"cod_tema":"AREA_UTILIDADE_PUBLICA","cod_imovel":"RJ-3304102-1AFC835EE56043E0B5721814B83C8118","num_area":"0.1807000000000000000000000000000","ind_status":"AT"},"geometry":{"type":"Polygon","coordinates":[[[-41.8942,-20.8523],[-41.8901,-20.8527],[-41.8938,-20.852],[-41.8942,-20.8523]]]}},{"type":"Feature","properties":{"cod_tema":"AREA_SERVIDAO_ADMINISTRATIVA_TOTAL","cod_imovel":"RJ-3304102-1AFC835EE56043E0B5721814B83C8118","num_area":"0.1807000000000000000000000000000","ind_status":"AT"},"geometry":{"type":"Polygon","coordinates":[[[-41.8942,-20.8523],[-41.8901,-20.8527],[-41.8938,-20.852],[-41.8942,-20.8523]]]}},{"type":"Feature","properties":{"cod_tema":"AREA_INFRAESTRUTURA_PUBLICA","cod_imovel":"RJ-3304102-1CABB412DBB64E3BB67DB52915C2ADEB","num_area":"0.6207000000000000000000000000000","ind_status":"AT"},"geometry":{"type":"Polygon","coordinates":[[[-41.8821,-20.8673],[-41.8797,-20.8642],[-41.877,-20.8672],[-41.8821,-20.8673],[-41.8821,-20.8673]]]}},{"type":"Feature","properties":{"cod_tema":"AREA_SERVIDAO_ADMINISTRATIVA_TOTAL","cod_imovel":"RJ-3304102-1CABB412DBB64E3BB67DB52915C2ADEB","num_area":"0.6207000000000000000000000000000","ind_status":"AT"},"geometry":{"type":"Polygon","coordinates":[[[-41.8821,-20.8673],[-41.8797,-20.8642],[-41.877,-20.8672],[-41.8821,-20.8673],[-41.8821,-20.8673]]]}},{"type":"Feature","properties":{"cod_tema":"AREA_UTILIDADE_PUBLICA","cod_imovel":"RJ-3304102-2612510874274B818757494DDE47D3D3","num_area":"0.2603000000000000000000000000000","ind_status":"AT"},"geometry":{"type":"Polygon","coordinates":[[[-41.8713,-20.8106],[-41.8766,-20.813],[-41.8713,-20.8106],[-41.8713,-20.8106]]]}},{"type":"Feature","properties":{"cod_tema":"AREA_SERVIDAO_ADMINISTRATIVA_TOTAL","cod_imovel":"RJ-3304102-2612510874274B818757494DDE47D3D3","num_area":"0.2603000000000000000000000000000","ind_status":"AT"},"geometry":{"type":"Polygon","coordinates":[[[-41.8713,-20.8106],[-41.8766,-20.813],[-41.8713,-20.8106],[-41.8713,-20.8106]]]}},{"type":"Feature","properties":{"cod_tema":"AREA_INFRAESTRUTURA_PUBLICA","cod_imovel":"RJ-3304102-273E938896564470B0186438DED5F61E","num_area":"2.5417000000000000000000000000000","ind_status":"AT"},"geometry":{"type":"Polygon","coordinates":[[[-42.0992,-20.9853],[-42.1021,-20.988],[-42.0997,-20.9858],[-42.0992,-20.9853]],[[-42.1033,-20.9907],[-42.1141,-20.9883],[-42.1034,-20.9907],[-42.1033,-20.9907]]]}},{"type":"Feature","properties":{"cod_tema":"AREA_SERVIDAO_ADMINISTRATIVA_TOTAL","cod_imovel":"RJ-3304102-273E938896564470B0186438DED5F61E","num_area":"2.5417000000000000000000000000000","ind_status":"AT"},"geometry":{"type":"Polygon","coordinates":[[[-42.0992,-20.9853],[-42.1021,-20.988],[-42.0997,-20.9858],[-42.0992,-20.9853]],[[-42.1033,-20.9907],[-42.1141,-20.9883],[-42.1034,-20.9907],[-42.1033,-20.9907]]]}},{"type":"Feature","properties":{"cod_tema":"AREA_UTILIDADE_PUBLICA","cod_imovel":"RJ-3304102-27531BCF7EFF488998EBA1992570C92C","num_area":"0.1377000000000000000000000000000","ind_status":"AT"},"geometry":{"type":"Polygon","coordinates":[[[-42.0023,-20.9432],[-41.9984,-20.9426],[-42.0026,-20.9434],[-42.0023,-20.9432]]]}},{"type":"Feature","properties":{"cod_tema":"AREA_SERVIDAO_ADMINISTRATIVA_TOTAL","cod_imovel":"RJ-3304102-27531BCF7EFF488998EBA1992570C92C","num_area":"0.1377000000000000000000000000000","ind_status":"AT"},"geometry":{"type":"Polygon","coordinates":[[[-42.0023,-20.9432],[-41.9984,-20.9426],[-42.0026,-20.9434],[-42.0023,-20.9432]]]}},{"type":"Feature","properties":{"cod_tema":"AREA_UTILIDADE_PUBLICA","cod_imovel":"RJ-3304102-2DD89698AA404494BA460696A4B79D4C","num_area":"0.1909000000000000000000000000000","ind_status":"AT"},"geometry":{"type":"Polygon","coordinates":[[[-41.8254,-20.8292],[-41.8213,-20.8319],[-41.8252,-20.8294],[-41.8254,-20.8292]]]}},{"type":"Feature","properties":{"cod_tema":"AREA_SERVIDAO_ADMINISTRATIVA_TOTAL","cod_imovel":"RJ-3304102-2DD89698AA404494BA460696A4B79D4C","num_area":"0.1909000000000000000000000000000","ind_status":"AT"},"geometry":{"type":"Polygon","coordinates":[[[-41.8254,-20.8292],[-41.8213,-20.8319],[-41.8252,-20.8294],[-41.8254,-20.8292]]]}},{"type":"Feature","properties":{"cod_tema":"AREA_INFRAESTRUTURA_PUBLICA","cod_imovel":"RJ-3304102-2C950574B37B49F1B1D2DF2DA324D97D","num_area":"0.3472000000000000000000000000000","ind_status":"AT"},"geometry":{"type":"Polygon","coordinates":[[[-41.8167,-20.8015],[-41.8128,-20.7993],[-41.8166,-20.8014],[-41.8167,-20.8015]]]}},{"type":"Feature","properties":{"cod_tema":"AREA_SERVIDAO_ADMINISTRATIVA_TOTAL","cod_imovel":"RJ-3304102-2C950574B37B49F1B1D2DF2DA324D97D","num_area":"0.3472000000000000000000000000000","ind_status":"AT"},"geometry":{"type":"Polygon","coordinates":[[[-41.8167,-20.8015],[-41.8128,-20.7993],[-41.8166,-20.8014],[-41.8167,-20.8015]]]}},{"type":"Feature","properties":{"cod_tema":"AREA_UTILIDADE_PUBLICA","cod_imovel":"RJ-3304102-2DA90810BF24425EB264AAB5D294B3C9","num_area":"0.1831000000000000000000000000000","ind_status":"AT"},"geometry":{"type":"Polygon","coordinates":[[[-41.8486,-20.7905],[-41.8522,-20.7916],[-41.8492,-20.7901],[-41.8486,-20.7905]]]}},{"type":"Feature","properties":{"cod_tema":"AREA_SERVIDAO_ADMINISTRATIVA_TOTAL","cod_imovel":"RJ-3304102-2DA90810BF24425EB264AAB5D294B3C9","num_area":"0.1831000000000000000000000000000","ind_status":"AT"},"geometry":{"type":"Polygon","coordinates":[[[-41.8486,-20.7905],[-41.8522,-20.7916],[-41.8492,-20.7901],[-41.8486,-20.7905]]]}},{"type":"Feature","properties":{"cod_tema":"AREA_INFRAESTRUTURA_PUBLICA","cod_imovel":"RJ-3304102-310D7EB7ABC3462B8C4AC56D97716FF8","num_area":"0.8778000000000000000000000000000","ind_status":"AT"},"geometry":{"type":"Polygon","coordinates":[[[-41.8586,-20.8556],[-41.8558,-20.8494],[-41.8585,-20.8554],[-41.8586,-20.8556]]]}},{"type":"Feature","properties":{"cod_tema":"AREA_SERVIDAO_ADMINISTRATIVA_TOTAL","cod_imovel":"RJ-3304102-310D7EB7ABC3462B8C4AC56D97716FF8","num_area":"0.8778000000000000000000000000000","ind_status":"AT"},"geometry":{"type":"Polygon","coordinates":[[[-41.8586,-20.8556],[-41.8558,-20.8494],[-41.8585,-20.8554],[-41.8586,-20.8556]]]}},{"type":"Feature","properties":{"cod_tema":"AREA_INFRAESTRUTURA_PUBLICA","cod_imovel":"RJ-3304102-33B880FA5FDC4BF88EF3E962C47EAFAD","num_area":"0.3316000000000000000000000000000","ind_status":"AT"},"geometry":{"type":"Polygon","coordinates":[[[-42.0317,-20.9701],[-42.0355,-20.9707],[-42.0317,-20.97],[-42.0317,-20.9701]]]}},{"type":"Feature","properties":{"cod_tema":"AREA_SERVIDAO_ADMINISTRATIVA_TOTAL","cod_imovel":"RJ-3304102-33B880FA5FDC4BF88EF3E962C47EAFAD","num_area":"0.5469000000000000000000000000000","ind_status":"AT"},"geometry":{"type":"Polygon","coordinates":[[[-42.0317,-20.9701],[-42.0355,-20.9707],[-42.0317,-20.97],[-42.0317,-20.9701]]]}},{"type":"Feature","properties":{"cod_tema":"AREA_INFRAESTRUTURA_PUBLICA","cod_imovel":"RJ-3304102-3B0F7CCE6D52447BAB81D3C53D8E1F42","num_area":"0.2623000000000000000000000000000","ind_status":"AT"},"geometry":{"type":"Polygon","coordinates":[[[-41.946,-20.9183],[-41.9434,-20.9159],[-41.946,-20.9181],[-41.946,-20.9183]]]}},{"type":"Feature","properties":{"cod_tema":"AREA_SERVIDAO_ADMINISTRATIVA_TOTAL","cod_imovel":"RJ-3304102-3B0F7CCE6D52447BAB81D3C53D8E1F42","num_area":"0.2623000000000000000000000000000","ind_status":"AT"},"geometry":{"type":"Polygon","coordinates":[[[-41.946,-20.9183],[-41.9434,-20.9159],[-41.946,-20.9181],[-41.946,-20.9183]]]}},{"type":"Feature","properties":{"cod_tema":"AREA_UTILIDADE_PUBLICA","cod_imovel":"RJ-3304102-3B43E6D6BBE04BA6A69A4C78DF60F0F3","num_area":"1.2653000000000000000000000000000","ind_status":"AT"},"geometry":{"type":"Polygon","coordinates":[[[-41.9583,-20.8927],[-41.9602,-20.8978],[-41.9583,-20.8927],[-41.9583,-20.8927]]]}},{"type":"Feature","properties":{"cod_tema":"AREA_SERVIDAO_ADMINISTRATIVA_TOTAL","cod_imovel":"RJ-3304102-3B43E6D6BBE04BA6A69A4C78DF60F0F3","num_area":"1.2653000000000000000000000000000","ind_status":"AT"},"geometry":{"type":"Polygon","coordinates":[[[-41.9583,-20.8927],[-41.9602,-20.8978],[-41.9583,-20.8927],[-41.9583,-20.8927]]]}},{"type":"Feature","properties":{"cod_tema":"AREA_UTILIDADE_PUBLICA","cod_imovel":"RJ-3304102-3C3A6244E27D42EDA19B6D4BA4948276","num_area":"0.3593000000000000000000000000000","ind_status":"AT"},"geometry":{"type":"Polygon","coordinates":[[[-41.8316,-20.787],[-41.8264,-20.789],[-41.8316,-20.787],[-41.8316,-20.787]]]}},{"type":"Feature","properties":{"cod_tema":"AREA_SERVIDAO_ADMINISTRATIVA_TOTAL","cod_imovel":"RJ-3304102-3C3A6244E27D42EDA19B6D4BA4948276","num_area":"0.3593000000000000000000000000000","ind_status":"AT"},"geometry":{"type":"Polygon","coordinates":[[[-41.8316,-20.787],[-41.8264,-20.789],[-41.8316,-20.787],[-41.8316,-20.787]]]}},{"type":"Feature","properties":{"cod_tema":"AREA_INFRAESTRUTURA_PUBLICA","cod_imovel":"RJ-3304102-3D14CA43431E4D60A03ED6B40DE69348","num_area":"0.4512000000000000000000000000000","ind_status":"AT"},"geometry":{"type":"Polygon","coordinates":[[[-42.0869,-20.9449],[-42.0836,-20.9514],[-42.0871,-20.945],[-42.0869,-20.9449]]]}},{"type":"Feature","properties":{"cod_tema":"AREA_SERVIDAO_ADMINISTRATIVA_TOTAL","cod_imovel":"RJ-3304102-3D14CA43431E4D60A03ED6B40DE69348","num_area":"0.4512000000000000000000000000000","ind_status":"AT"},"geometry":{"type":"Polygon","coordinates":[[[-42.0869,-20.9449],[-42.0836,-20.9514],[-42.0871,-20.945],[-42.0869,-20.9449]]]}},{"type":"Feature","properties":{"cod_tema":"AREA_UTILIDADE_PUBLICA","cod_imovel":"RJ-3304102-3D70275FB513437CB292A2BB9EBE195E","num_area":"0.4719000000000000000000000000000","ind_status":"AT"},"geometry":{"type":"Polygon","coordinates":[[[-41.8876,-20.7861],[-41.8839,-20.7865],[-41.8877,-20.7856],[-41.8876,-20.7861]]]}},{"type":"Feature","properties":{"cod_tema":"AREA_SERVIDAO_ADMINISTRATIVA_TOTAL","cod_imovel":"RJ-3304102-3D70275FB513437CB292A2BB9EBE195E","num_area":"0.4719000000000000000000000000000","ind_status":"AT"},"geometry":{"type":"Polygon","coordinates":[[[-41.8876,-20.7861],[-41.8839,-20.7865],[-41.8877,-20.7856],[-41.8876,-20.7861]]]}},{"type":"Feature","properties":{"cod_tema":"AREA_INFRAESTRUTURA_PUBLICA","cod_imovel":"RJ-3304102-3D780AE559D0452CACC26DB4E9D60449","num_area":"0.2015000000000000000000000000000","ind_status":"AT"},"geometry":{"type":"Polygon","coordinates":[[[-41.874,-20.8319],[-41.87,-20.8351],[-41.8736,-20.8319],[-41.874,-20.8319]]]}},{"type":"Feature","properties":{"cod_tema":"AREA_SERVIDAO_ADMINISTRATIVA_TOTAL","cod_imovel":"RJ-3304102-3D780AE559D0452CACC26DB4E9D60449","num_area":"0.2015000000000000000000000000000","ind_status":"AT"},"geometry":{"type":"Polygon","coordinates":[[[-41.874,-20.8319],[-41.87,-20.8351],[-41.8736,-20.8319],[-41.874,-20.8319]]]}},{"type":"Feature","properties":{"cod_tema":"AREA_INFRAESTRUTURA_PUBLICA","cod_imovel":"RJ-3304102-48B019C30E8C4CD7A70445A3E00CDF49","num_area":"0.3053000000000000000000000000000","ind_status":"AT"},"geometry":{"type":"Polygon","coordinates":[[[-41.8675,-20.7832],[-41.8717,-20.778],[-41.8675,-20.7832],[-41.8675,-20.7832]]]}},{"type":"Feature","properties":{"cod_tema":"AREA_SERVIDAO_ADMINISTRATIVA_TOTAL","cod_imovel":"RJ-3304102-48B019C30E8C4CD7A70445A3E00CDF49","num_area":"0.3053000000000000000000000000000","ind_status":"AT"},"geometry":{"type":"Polygon","coordinates":[[[-41.8675,-20.7832],[-41.8717,-20.778],[-41.8675,-20.7832],[-41.8675,-20.7832]]]}},{"type":"Feature","properties":{"cod_tema":"AREA_INFRAESTRUTURA_PUBLICA","cod_imovel":"RJ-3304102-48A088411EA14370A527EEA831418680","num_area":"0.1499000000000000000000000000000","ind_status":"AT"},"geometry":{"type":"Polygon","coordinates":[[[-41.9027,-20.867],[-41.905,-20.8643],[-41.9028,-20.8669],[-41.9027,-20.867]]]}},{"type":"Feature","properties":{"cod_tema":"AREA_SERVIDAO_ADMINISTRATIVA_TOTAL","cod_imovel":"RJ-3304102-48A088411EA14370A527EEA831418680","num_area":"0.1499000000000000000000000000000","ind_status":"AT"},"geometry":{"type":"Polygon","coordinates":[[[-41.9027,-20.867],[-41.905,-20.8643],[-41.9028,-20.8669],[-41.9027,-20.867]]]}},{"type":"Feature","properties":{"cod_tema":"AREA_INFRAESTRUTURA_PUBLICA","cod_imovel":"RJ-3304102-592DA64D44754D0FA6C7831211F73556","num_area":"2.9762000000000000000000000000000","ind_status":"AT"},"geometry":{"type":"Polygon","coordinates":[[[-41.9339,-20.9118],[-41.925,-20.9049],[-41.9191,-20.908],[-41.925,-20.9051],[-41.931,-20.915],[-41.9337,-20.9117],[-41.9339,-20.9118]]]}},{"type":"Feature","properties":{"cod_tema":"AREA_SERVIDAO_ADMINISTRATIVA_TOTAL","cod_imovel":"RJ-3304102-592DA64D44754D0FA6C7831211F73556","num_area":"2.9762000000000000000000000000000","ind_status":"AT"},"geometry":{"type":"Polygon","coordinates":[[[-41.9339,-20.9118],[-41.925,-20.9049],[-41.9191,-20.908],[-41.925,-20.9051],[-41.931,-20.915],[-41.9337,-20.9117],[-41.9339,-20.9118]]]}},{"type":"Feature","properties":{"cod_tema":"AREA_UTILIDADE_PUBLICA","cod_imovel":"RJ-3304102-5F4C82ABB08E4679B05D916DE2AF98F0","num_area":"0.1802000000000000000000000000000","ind_status":"AT"},"geometry":{"type":"Polygon","coordinates":[[[-41.8192,-20.8197],[-41.8219,-20.8225],[-41.8193,-20.82],[-41.8192,-20.8197]]]}},{"type":"Feature","properties":{"cod_tema":"AREA_SERVIDAO_ADMINISTRATIVA_TOTAL","cod_imovel":"RJ-3304102-5F4C82ABB08E4679B05D916DE2AF98F0","num_area":"0.1802000000000000000000000000000","ind_status":"AT"},"geometry":{"type":"Polygon","coordinates":[[[-41.8192,-20.8197],[-41.8219,-20.8225],[-41.8193,-20.82],[-41.8192,-20.8197]]]}},{"type":"Feature","properties":{"cod_tema":"AREA_UTILIDADE_PUBLICA","cod_imovel":"RJ-3304102-5F5CFD717F954EC6B82D0569B0EDBEEA","num_area":"0.1878000000000000000000000000000","ind_status":"AT"},"geometry":{"type":"Polygon","coordinates":[[[-41.8398,-20.7987],[-41.8368,-20.7946],[-41.8396,-20.7987],[-41.8398,-20.7987]]]}},{"type":"Feature","properties":{"cod_tema":"AREA_SERVIDAO_ADMINISTRATIVA_TOTAL","cod_imovel":"RJ-3304102-5F5CFD717F954EC6B82D0569B0EDBEEA","num_area":"0.1878000000000000000000000000000","ind_status":"AT"},"geometry":{"type":"Polygon","coordinates":[[[-41.8398,-20.7987],[-41.8368,-20.7946],[-41.8396,-20.7987],[-41.8398,-20.7987]]]}},{"type":"Feature","properties":{"cod_tema":"AREA_UTILIDADE_PUBLICA","cod_imovel":"RJ-3304102-6167019F72504DBDB34EF5DFA37F0FB4","num_area":"0.3589000000000000000000000000000","ind_status":"AT"},"geometry":{"type":"Polygon","coordinates":[[[-41.9167,-20.9058],[-41.9184,-20.9028],[-41.9167,-20.9058],[-41.9167,-20.9058]]]}},{"type":"Feature","properties":{"cod_tema":"AREA_SERVIDAO_ADMINISTRATIVA_TOTAL","cod_imovel":"RJ-3304102-6167019F72504DBDB34EF5DFA37F0FB4","num_area":"0.3589000000000000000000000000000","ind_status":"AT"},"geometry":{"type":"Polygon","coordinates":[[[-41.9167,-20.9058],[-41.9184,-20.9028],[-41.9167,-20.9058],[-41.9167,-20.9058]]]}},{"type":"Feature","properties":{"cod_tema":"AREA_INFRAESTRUTURA_PUBLICA","cod_imovel":"RJ-3304102-622B4BA01C4B4210A113EA3525F7C932","num_area":"0.6394000000000000000000000000000","ind_status":"AT"},"geometry":{"type":"Polygon","coordinates":[[[-41.8168,-20.8016],[-41.8254,-20.7978],[-41.8167,-20.8015],[-41.8168,-20.8016]]]}},{"type":"Feature","properties":{"cod_tema":"AREA_SERVIDAO_ADMINISTRATIVA_TOTAL","cod_imovel":"RJ-3304102-622B4BA01C4B4210A113EA3525F7C932","num_area":"0.6394000000000000000000000000000","ind_status":"AT"},"geometry":{"type":"Polygon","coordinates":[[[-41.8168,-20.8016],[-41.8254,-20.7978],[-41.8167,-20.8015],[-41.8168,-20.8016]]]}},{"type":"Feature","properties":{"cod_tema":"AREA_INFRAESTRUTURA_PUBLICA","cod_imovel":"RJ-3304102-6ABCD5222F79407ABB7E8FED0C74DDE3","num_area":"0.3743000000000000000000000000000","ind_status":"AT"},"geometry":{"type":"Polygon","coordinates":[[[-41.9024,-20.8211],[-41.8962,-20.8194],[-41.9025,-20.8211],[-41.9024,-20.8211]]]}},{"type":"Feature","properties":{"cod_tema":"AREA_SERVIDAO_ADMINISTRATIVA_TOTAL","cod_imovel":"RJ-3304102-6ABCD5222F79407ABB7E8FED0C74DDE3","num_area":"0.3743000000000000000000000000000","ind_status":"AT"},"geometry":{"type":"Polygon","coordinates":[[[-41.9024,-20.8211],[-41.8962,-20.8194],[-41.9025,-20.8211],[-41.9024,-20.8211]]]}},{"type":"Feature","properties":{"cod_tema":"AREA_UTILIDADE_PUBLICA","cod_imovel":"RJ-3304102-6AF092275BAE4745BBFF9A5495BE84F0","num_area":"0.1643000000000000000000000000000","ind_status":"AT"},"geometry":{"type":"Polygon","coordinates":[[[-41.9074,-20.8033],[-41.9048,-20.8058],[-41.907,-20.8036],[-41.9074,-20.8033]]]}},{"type":"Feature","properties":{"cod_tema":"AREA_SERVIDAO_ADMINISTRATIVA_TOTAL","cod_imovel":"RJ-3304102-6AF092275BAE4745BBFF9A5495BE84F0","num_area":"0.1643000000000000000000000000000","ind_status":"AT"},"geometry":{"type":"Polygon","coordinates":[[[-41.9074,-20.8033],[-41.9048,-20.8058],[-41.907,-20.8036],[-41.9074,-20.8033]]]}},{"type":"Feature","properties":{"cod_tema":"AREA_INFRAESTRUTURA_PUBLICA","cod_imovel":"RJ-3304102-6AF2DAFEC04C4BB4BD942CDD10650DE8","num_area":"1.1067000000000000000000000000000","ind_status":"AT"},"geometry":{"type":"Polygon","coordinates":[[[-41.9221,-20.837],[-41.9227,-20.8315],[-41.9221,-20.837],[-41.9221,-20.837]]]}},{"type":"Feature","properties":{"cod_tema":"AREA_SERVIDAO_ADMINISTRATIVA_TOTAL","cod_imovel":"RJ-3304102-6AF2DAFEC04C4BB4BD942CDD10650DE8","num_area":"1.1067000000000000000000000000000","ind_status":"AT"},"geometry":{"type":"Polygon","coordinates":[[[-41.9221,-20.837],[-41.9227,-20.8315],[-41.9221,-20.837],[-41.9221,-20.837]]]}},{"type":"Feature","properties":{"cod_tema":"AREA_INFRAESTRUTURA_PUBLICA","cod_imovel":"RJ-3304102-72A2F26E8B274A3590DD25B7BEEED906","num_area":"0.4859000000000000000000000000000","ind_status":"AT"},"geometry":{"type":"Polygon","coordinates":[[[-41.8542,-20.7646],[-41.8507,-20.7706],[-41.8537,-20.7648],[-41.8542,-20.7646]]]}},{"type":"Feature","properties":{"cod_tema":"AREA_SERVIDAO_ADMINISTRATIVA_TOTAL","cod_imovel":"RJ-3304102-72A2F26E8B274A3590DD25B7BEEED906","num_area":"0.4859000000000000000000000000000","ind_status":"AT"},"geometry":{"type":"Polygon","coordinates":[[[-41.8542,-20.7646],[-41.8507,-20.7706],[-41.8537,-20.7648],[-41.8542,-20.7646]]]}},{"type":"Feature","properties":{"cod_tema":"AREA_UTILIDADE_PUBLICA","cod_imovel":"RJ-3304102-7902B4855C9B4525B35D5911EFDAD992","num_area":"0.2297000000000000000000000000000","ind_status":"AT"},"geometry":{"type":"Polygon","coordinates":[[[-41.8584,-20.8066],[-41.8621,-20.8065],[-41.8588,-20.8065],[-41.8584,-20.8066]]]}},{"type":"Feature","properties":{"cod_tema":"AREA_SERVIDAO_ADMINISTRATIVA_TOTAL","cod_imovel":"RJ-3304102-7902B4855C9B4525B35D5911EFDAD992","num_area":"0.2297000000000000000000000000000","ind_status":"AT"},"geometry":{"type":"Polygon","coordinates":[[[-41.8584,-20.8066],[-41.8621,-20.8065],[-41.8588,-20.8065],[-41.8584,-20.8066]]]}},{"type":"Feature","properties":{"cod_tema":"AREA_INFRAESTRUTURA_PUBLICA","cod_imovel":"RJ-3304102-7A167EC1022F4BA1A514C0F86EB9EEB9","num_area":"1.9315000000000000000000000000000","ind_status":"AT"},"geometry":{"type":"Polygon","coordinates":[[[-41.9617,-20.9378],[-41.9633,-20.9413],[-41.9617,-20.9378],[-41.9617,-20.9378]],[[-41.9557,-20.9434],[-41.9562,-20.9365],[-41.9556,-20.9431],[-41.9557,-20.9434]]]}},{"type":"Feature","properties":{"cod_tema":"AREA_SERVIDAO_ADMINISTRATIVA_TOTAL","cod_imovel":"RJ-3304102-7A167EC1022F4BA1A514C0F86EB9EEB9","num_area":"1.9315000000000000000000000000000","ind_status":"AT"},"geometry":{"type":"Polygon","coordinates":[[[-41.9617,-20.9378],[-41.9633,-20.9413],[-41.9617,-20.9378],[-41.9617,-20.9378]],[[-41.9557,-20.9434],[-41.9562,-20.9365],[-41.9556,-20.9431],[-41.9557,-20.9434]]]}},{"type":"Feature","properties":{"cod_tema":"AREA_INFRAESTRUTURA_PUBLICA","cod_imovel":"RJ-3304102-7A52C2216D1E4B0E9A1486CB11FADF96","num_area":"0.3481000000000000000000000000000","ind_status":"AT"},"geometry":{"type":"Polygon","coordinates":[[[-41.8531,-20.8361],[-41.8528,-20.841],[-41.8531,-20.8361],[-41.8531,-20.8361]]]}},{"type":"Feature","properties":{"cod_tema":"AREA_SERVIDAO_ADMINISTRATIVA_TOTAL","cod_imovel":"RJ-3304102-7A52C2216D1E4B0E9A1486CB11FADF96","num_area":"0.3481000000000000000000000000000","ind_status":"AT"},"geometry":{"type":"Polygon","coordinates":[[[-41.8531,-20.8361],[-41.8528,-20.841],[-41.8531,-20.8361],[-41.8531,-20.8361]]]}},{"type":"Feature","properties":{"cod_tema":"AREA_INFRAESTRUTURA_PUBLICA","cod_imovel":"RJ-3304102-86C2896D605B422BBFB63E53F8582D97","num_area":"0.6895000000000000000000000000000","ind_status":"AT"},"geometry":{"type":"Polygon","coordinates":[[[-42.0073,-20.9421],[-42.0039,-20.9331],[-42.0072,-20.9424],[-42.0073,-20.9421]]]}},{"type":"Feature","properties":{"cod_tema":"AREA_SERVIDAO_ADMINISTRATIVA_TOTAL","cod_imovel":"RJ-3304102-86C2896D605B422BBFB63E53F8582D97","num_area":"0.6895000000000000000000000000000","ind_status":"AT"},"geometry":{"type":"Polygon","coordinates":[[[-42.0073,-20.9421],[-42.0039,-20.9331],[-42.0072,-20.9424],[-42.0073,-20.9421]]]}},{"type":"Feature","properties":{"cod_tema":"AREA_INFRAESTRUTURA_PUBLICA","cod_imovel":"RJ-3304102-893B85E953124FEFB54CB71E0FE86840","num_area":"0.4485000000000000000000000000000","ind_status":"AT"},"geometry":{"type":"Polygon","coordinates":[[[-42.0509,-21.0043],[-42.0474,-21.0041],[-42.0507,-21.0044],[-42.0509,-21.0043]]]}},{"type":"Feature","properties":{"cod_tema":"AREA_SERVIDAO_ADMINISTRATIVA_TOTAL","cod_imovel":"RJ-3304102-893B85E953124FEFB54CB71E0FE86840","num_area":"0.4485000000000000000000000000000","ind_status":"AT"},"geometry":{"type":"Polygon","coordinates":[[[-42.0509,-21.0043],[-42.0474,-21.0041],[-42.0507,-21.0044],[-42.0509,-21.0043]]]}},{"type":"Feature","properties":{"cod_tema":"AREA_INFRAESTRUTURA_PUBLICA","cod_imovel":"RJ-3304102-8D50996EA8DB4DF791071C73672B43E1","num_area":"0.3240000000000000000000000000000","ind_status":"AT"},"geometry":{"type":"Polygon","coordinates":[[[-41.9124,-20.8168],[-41.9084,-20.8163],[-41.9121,-20.8165],[-41.9124,-20.8168]]]}},{"type":"Feature","properties":{"cod_tema":"AREA_SERVIDAO_ADMINISTRATIVA_TOTAL","cod_imovel":"RJ-3304102-8D50996EA8DB4DF791071C73672B43E1","num_area":"0.3240000000000000000000000000000","ind_status":"AT"},"geometry":{"type":"Polygon","coordinates":[[[-41.9124,-20.8168],[-41.9084,-20.8163],[-41.9121,-20.8165],[-41.9124,-20.8168]]]}},{"type":"Feature","properties":{"cod_tema":"AREA_INFRAESTRUTURA_PUBLICA","cod_imovel":"RJ-3304102-8DA7EB8D8187436C82BA5CB09A6761AF","num_area":"0.2486000000000000000000000000000","ind_status":"AT"},"geometry":{"type":"Polygon","coordinates":[[[-41.925,-20.922],[-41.9283,-20.9247],[-41.9252,-20.9219],[-41.925,-20.922]]]}},{"type":"Feature","properties":{"cod_tema":"AREA_SERVIDAO_ADMINISTRATIVA_TOTAL","cod_imovel":"RJ-3304102-8DA7EB8D8187436C82BA5CB09A6761AF","num_area":"0.2486000000000000000000000000000","ind_status":"AT"},"geometry":{"type":"Polygon","coordinates":[[[-41.925,-20.922],[-41.9283,-20.9247],[-41.9252,-20.9219],[-41.925,-20.922]]]}},{"type":"Feature","properties":{"cod_tema":"AREA_INFRAESTRUTURA_PUBLICA","cod_imovel":"RJ-3304102-91E40CC7603D4C31AD817121DD3A79DB","num_area":"4.4386000000000000000000000000000","ind_status":"PE"},"geometry":{"type":"Polygon","coordinates":[[[-42.1268,-20.9831],[-42.1439,-20.9849],[-42.1263,-20.9833],[-42.1477,-20.9687],[-42.1257,-20.9837],[-42.1235,-20.974],[-42.1227,-20.9775],[-42.1185,-20.9757],[-42.1239,-20.9834],[-42.119,-20.9847],[-42.1263,-20.9833],[-42.1268,-20.9831]]]}},{"type":"Feature","properties":{"cod_tema":"AREA_SERVIDAO_ADMINISTRATIVA_TOTAL","cod_imovel":"RJ-3304102-91E40CC7603D4C31AD817121DD3A79DB","num_area":"4.4386000000000000000000000000000","ind_status":"PE"},"geometry":{"type":"Polygon","coordinates":[[[-42.1268,-20.9831],[-42.1439,-20.9849],[-42.1263,-20.9833],[-42.1477,-20.9687],[-42.1257,-20.9837],[-42.1235,-20.974],[-42.1227,-20.9775],[-42.1185,-20.9757],[-42.1239,-20.9834],[-42.119,-20.9847],[-42.1263,-20.9833],[-42.1268,-20.9831]]]}},{"type":"Feature","properties":{"cod_tema":"AREA_UTILIDADE_PUBLICA","cod_imovel":"RJ-3304102-9985FD643B02420CA13950FD05ECB4B0","num_area":"0.2051000000000000000000000000000","ind_status":"AT"},"geometry":{"type":"Polygon","coordinates":[[[-41.8428,-20.8075],[-41.8397,-20.8107],[-41.8428,-20.8075],[-41.8428,-20.8075]]]}},{"type":"Feature","properties":{"cod_tema":"AREA_SERVIDAO_ADMINISTRATIVA_TOTAL","cod_imovel":"RJ-3304102-9985FD643B02420CA13950FD05ECB4B0","num_area":"0.2051000000000000000000000000000","ind_status":"AT"},"geometry":{"type":"Polygon","coordinates":[[[-41.8428,-20.8075],[-41.8397,-20.8107],[-41.8428,-20.8075],[-41.8428,-20.8075]]]}},{"type":"Feature","properties":{"cod_tema":"AREA_INFRAESTRUTURA_PUBLICA","cod_imovel":"RJ-3304102-9B843A3A8C6540C0B4065F00E4077B80","num_area":"1.2292000000000000000000000000000","ind_status":"AT"},"geometry":{"type":"Polygon","coordinates":[[[-41.9331,-20.9441],[-41.9368,-20.9457],[-41.9331,-20.9441],[-41.9331,-20.9441]],[[-41.9419,-20.9363],[-41.9338,-20.9415],[-41.9419,-20.9363],[-41.9419,-20.9363]]]}},{"type":"Feature","properties":{"cod_tema":"AREA_SERVIDAO_ADMINISTRATIVA_TOTAL","cod_imovel":"RJ-3304102-9B843A3A8C6540C0B4065F00E4077B80","num_area":"1.2292000000000000000000000000000","ind_status":"AT"},"geometry":{"type":"Polygon","coordinates":[[[-41.9331,-20.9441],[-41.9368,-20.9457],[-41.9331,-20.9441],[-41.9331,-20.9441]],[[-41.9419,-20.9363],[-41.9338,-20.9415],[-41.9419,-20.9363],[-41.9419,-20.9363]]]}},{"type":"Feature","properties":{"cod_tema":"AREA_UTILIDADE_PUBLICA","cod_imovel":"RJ-3304102-9D96B314A8024F77B2C6F297451A6959","num_area":"0.3034000000000000000000000000000","ind_status":"AT"},"geometry":{"type":"Polygon","coordinates":[[[-41.9113,-20.8579],[-41.9084,-20.8544],[-41.9113,-20.8579],[-41.9113,-20.8579]]]}},{"type":"Feature","properties":{"cod_tema":"AREA_SERVIDAO_ADMINISTRATIVA_TOTAL","cod_imovel":"RJ-3304102-9D96B314A8024F77B2C6F297451A6959","num_area":"0.3034000000000000000000000000000","ind_status":"AT"},"geometry":{"type":"Polygon","coordinates":[[[-41.9113,-20.8579],[-41.9084,-20.8544],[-41.9113,-20.8579],[-41.9113,-20.8579]]]}},{"type":"Feature","properties":{"cod_tema":"AREA_INFRAESTRUTURA_PUBLICA","cod_imovel":"RJ-3304102-9E55B904014B47618263A9561D75FAE8","num_area":"0.2432000000000000000000000000000","ind_status":"AT"},"geometry":{"type":"Polygon","coordinates":[[[-41.9085,-20.8986],[-41.906,-20.8961],[-41.9081,-20.8986],[-41.9085,-20.8986]]]}},{"type":"Feature","properties":{"cod_tema":"AREA_SERVIDAO_ADMINISTRATIVA_TOTAL","cod_imovel":"RJ-3304102-9E55B904014B47618263A9561D75FAE8","num_area":"0.2432000000000000000000000000000","ind_status":"AT"},"geometry":{"type":"Polygon","coordinates":[[[-41.9085,-20.8986],[-41.906,-20.8961],[-41.9081,-20.8986],[-41.9085,-20.8986]]]}},{"type":"Feature","properties":{"cod_tema":"AREA_UTILIDADE_PUBLICA","cod_imovel":"RJ-3304102-9F313D68E55942BA8EEE4334C60D300A","num_area":"1.9103000000000000000000000000000","ind_status":"AT"},"geometry":{"type":"Polygon","coordinates":[[[-41.8759,-20.824],[-41.8825,-20.8203],[-41.8759,-20.824],[-41.8759,-20.824]],[[-41.8962,-20.8194],[-41.8854,-20.8169],[-41.8962,-20.8194],[-41.8962,-20.8194]]]}},{"type":"Feature","properties":{"cod_tema":"AREA_SERVIDAO_ADMINISTRATIVA_TOTAL","cod_imovel":"RJ-3304102-9F313D68E55942BA8EEE4334C60D300A","num_area":"1.9103000000000000000000000000000","ind_status":"AT"},"geometry":{"type":"Polygon","coordinates":[[[-41.8759,-20.824],[-41.8825,-20.8203],[-41.8759,-20.824],[-41.8759,-20.824]],[[-41.8962,-20.8194],[-41.8854,-20.8169],[-41.8962,-20.8194],[-41.8962,-20.8194]]]}},{"type":"Feature","properties":{"cod_tema":"AREA_INFRAESTRUTURA_PUBLICA","cod_imovel":"RJ-3304102-A18FF130B6EE4937A7FFE5B00ECCB7B9","num_area":"0.4087000000000000000000000000000","ind_status":"AT"},"geometry":{"type":"Polygon","coordinates":[[[-42.0557,-21.0053],[-42.0509,-21.0041],[-42.0555,-21.005],[-42.0557,-21.0053]]]}},{"type":"Feature","properties":{"cod_tema":"AREA_SERVIDAO_ADMINISTRATIVA_TOTAL","cod_imovel":"RJ-3304102-A18FF130B6EE4937A7FFE5B00ECCB7B9","num_area":"0.4087000000000000000000000000000","ind_status":"AT"},"geometry":{"type":"Polygon","coordinates":[[[-42.0557,-21.0053],[-42.0509,-21.0041],[-42.0555,-21.005],[-42.0557,-21.0053]]]}},{"type":"Feature","properties":{"cod_tema":"AREA_UTILIDADE_PUBLICA","cod_imovel":"RJ-3304102-A4C087C9F91F4D98A612611FFCC4026B","num_area":"1.0520000000000000000000000000000","ind_status":"AT"},"geometry":{"type":"Polygon","coordinates":[[[-41.921,-20.8178],[-41.928,-20.8091],[-41.9211,-20.8178],[-41.921,-20.8178]]]}},{"type":"Feature","properties":{"cod_tema":"AREA_SERVIDAO_ADMINISTRATIVA_TOTAL","cod_imovel":"RJ-3304102-A4C087C9F91F4D98A612611FFCC4026B","num_area":"1.0520000000000000000000000000000","ind_status":"AT"},"geometry":{"type":"Polygon","coordinates":[[[-41.921,-20.8178],[-41.928,-20.8091],[-41.9211,-20.8178],[-41.921,-20.8178]]]}},{"type":"Feature","properties":{"cod_tema":"AREA_INFRAESTRUTURA_PUBLICA","cod_imovel":"RJ-3304102-A5064B755F4444388F28523D419823CC","num_area":"0.5099000000000000000000000000000","ind_status":"AT"},"geometry":{"type":"Polygon","coordinates":[[[-41.8654,-20.8424],[-41.8619,-20.8434],[-41.8654,-20.8424],[-41.8654,-20.8424]],[[-41.8651,-20.8424],[-41.8619,-20.8433],[-41.8649,-20.8425],[-41.8651,-20.8424]]]}},{"type":"Feature","properties":{"cod_tema":"AREA_SERVIDAO_ADMINISTRATIVA_TOTAL","cod_imovel":"RJ-3304102-A5064B755F4444388F28523D419823CC","num_area":"0.5099000000000000000000000000000","ind_status":"AT"},"geometry":{"type":"Polygon","coordinates":[[[-41.8654,-20.8424],[-41.8619,-20.8434],[-41.8654,-20.8424],[-41.8654,-20.8424]],[[-41.8651,-20.8424],[-41.8619,-20.8433],[-41.8649,-20.8425],[-41.8651,-20.8424]]]}},{"type":"Feature","properties":{"cod_tema":"AREA_INFRAESTRUTURA_PUBLICA","cod_imovel":"RJ-3304102-A9995C61F4594C89ABDD1279D3690CA2","num_area":"0.7103000000000000000000000000000","ind_status":"AT"},"geometry":{"type":"Polygon","coordinates":[[[-41.9561,-20.9169],[-41.9524,-20.9189],[-41.956,-20.9173],[-41.9561,-20.9169]]]}},{"type":"Feature","properties":{"cod_tema":"AREA_SERVIDAO_ADMINISTRATIVA_TOTAL","cod_imovel":"RJ-3304102-A9995C61F4594C89ABDD1279D3690CA2","num_area":"0.7103000000000000000000000000000","ind_status":"AT"},"geometry":{"type":"Polygon","coordinates":[[[-41.9561,-20.9169],[-41.9524,-20.9189],[-41.956,-20.9173],[-41.9561,-20.9169]]]}},{"type":"Feature","properties":{"cod_tema":"AREA_INFRAESTRUTURA_PUBLICA","cod_imovel":"RJ-3304102-B128C855203B4F16882F25CD8B7D466D","num_area":"0.0903000000000000000000000000000","ind_status":"AT"},"geometry":{"type":"Polygon","coordinates":[[[-41.908,-20.8458],[-41.9055,-20.8481],[-41.908,-20.8459],[-41.908,-20.8458]]]}},{"type":"Feature","properties":{"cod_tema":"AREA_SERVIDAO_ADMINISTRATIVA_TOTAL","cod_imovel":"RJ-3304102-B128C855203B4F16882F25CD8B7D466D","num_area":"0.0903000000000000000000000000000","ind_status":"AT"},"geometry":{"type":"Polygon","coordinates":[[[-41.908,-20.8458],[-41.9055,-20.8481],[-41.908,-20.8459],[-41.908,-20.8458]]]}},{"type":"Feature","properties":{"cod_tema":"AREA_INFRAESTRUTURA_PUBLICA","cod_imovel":"RJ-3304102-B2E3CAA553364E76B15FB974F7392A9D","num_area":"0.2914000000000000000000000000000","ind_status":"AT"},"geometry":{"type":"Polygon","coordinates":[[[-42.0855,-20.9951],[-42.0876,-20.9902],[-42.0858,-20.9949],[-42.0855,-20.9951]]]}},{"type":"Feature","properties":{"cod_tema":"AREA_SERVIDAO_ADMINISTRATIVA_TOTAL","cod_imovel":"RJ-3304102-B2E3CAA553364E76B15FB974F7392A9D","num_area":"0.2914000000000000000000000000000","ind_status":"AT"},"geometry":{"type":"Polygon","coordinates":[[[-42.0855,-20.9951],[-42.0876,-20.9902],[-42.0858,-20.9949],[-42.0855,-20.9951]]]}},{"type":"Feature","properties":{"cod_tema":"AREA_INFRAESTRUTURA_PUBLICA","cod_imovel":"RJ-3304102-BCCE5F984F4F41FEB8222E61ED95618E","num_area":"0.3290000000000000000000000000000","ind_status":"AT"},"geometry":{"type":"Polygon","coordinates":[[[-41.9149,-20.8185],[-41.9115,-20.8212],[-41.9149,-20.8185],[-41.9149,-20.8185]]]}},{"type":"Feature","properties":{"cod_tema":"AREA_SERVIDAO_ADMINISTRATIVA_TOTAL","cod_imovel":"RJ-3304102-BCCE5F984F4F41FEB8222E61ED95618E","num_area":"0.3290000000000000000000000000000","ind_status":"AT"},"geometry":{"type":"Polygon","coordinates":[[[-41.9149,-20.8185],[-41.9115,-20.8212],[-41.9149,-20.8185],[-41.9149,-20.8185]]]}},{"type":"Feature","properties":{"cod_tema":"AREA_INFRAESTRUTURA_PUBLICA","cod_imovel":"RJ-3304102-BDE607D23D69448CA1FCF7EBC301EC92","num_area":"1.5032000000000000000000000000000","ind_status":"AT"},"geometry":{"type":"Polygon","coordinates":[[[-42.008,-20.9443],[-42.0038,-20.9333],[-42.0079,-20.9443],[-42.008,-20.9443]],[[-42.0073,-20.9428],[-42.0044,-20.9357],[-42.0072,-20.9428],[-42.0073,-20.9428]]]}},{"type":"Feature","properties":{"cod_tema":"AREA_SERVIDAO_ADMINISTRATIVA_TOTAL","cod_imovel":"RJ-3304102-BDE607D23D69448CA1FCF7EBC301EC92","num_area":"1.5032000000000000000000000000000","ind_status":"AT"},"geometry":{"type":"Polygon","coordinates":[[[-42.008,-20.9443],[-42.0038,-20.9333],[-42.0079,-20.9443],[-42.008,-20.9443]],[[-42.0073,-20.9428],[-42.0044,-20.9357],[-42.0072,-20.9428],[-42.0073,-20.9428]]]}},{"type":"Feature","properties":{"cod_tema":"AREA_INFRAESTRUTURA_PUBLICA","cod_imovel":"RJ-3304102-BD728AA40FE24A2DB76CE0C0E68633C8","num_area":"0.2612000000000000000000000000000","ind_status":"AT"},"geometry":{"type":"Polygon","coordinates":[[[-41.8087,-20.8264],[-41.8052,-20.8241],[-41.8086,-20.826],[-41.8087,-20.8264]]]}},{"type":"Feature","properties":{"cod_tema":"AREA_SERVIDAO_ADMINISTRATIVA_TOTAL","cod_imovel":"RJ-3304102-BD728AA40FE24A2DB76CE0C0E68633C8","num_area":"0.2612000000000000000000000000000","ind_status":"AT"},"geometry":{"type":"Polygon","coordinates":[[[-41.8087,-20.8264],[-41.8052,-20.8241],[-41.8086,-20.826],[-41.8087,-20.8264]]]}},{"type":"Feature","properties":{"cod_tema":"AREA_INFRAESTRUTURA_PUBLICA","cod_imovel":"RJ-3304102-BFC063F048D34739AF7A82F5C703016A","num_area":"0.3280000000000000000000000000000","ind_status":"AT"},"geometry":{"type":"Polygon","coordinates":[[[-42.0853,-20.9392],[-42.0869,-20.9448],[-42.0853,-20.9395],[-42.0853,-20.9392]]]}},{"type":"Feature","properties":{"cod_tema":"AREA_SERVIDAO_ADMINISTRATIVA_TOTAL","cod_imovel":"RJ-3304102-BFC063F048D34739AF7A82F5C703016A","num_area":"0.3280000000000000000000000000000","ind_status":"AT"},"geometry":{"type":"Polygon","coordinates":[[[-42.0853,-20.9392],[-42.0869,-20.9448],[-42.0853,-20.9395],[-42.0853,-20.9392]]]}},{"type":"Feature","properties":{"cod_tema":"AREA_UTILIDADE_PUBLICA","cod_imovel":"RJ-3304102-C038C3153313442FA7600194CF34E0F4","num_area":"0.3250000000000000000000000000000","ind_status":"AT"},"geometry":{"type":"Polygon","coordinates":[[[-41.9045,-20.8518],[-41.9075,-20.8491],[-41.9047,-20.8515],[-41.9045,-20.8518]]]}},{"type":"Feature","properties":{"cod_tema":"AREA_SERVIDAO_ADMINISTRATIVA_TOTAL","cod_imovel":"RJ-3304102-C038C3153313442FA7600194CF34E0F4","num_area":"0.3250000000000000000000000000000","ind_status":"AT"},"geometry":{"type":"Polygon","coordinates":[[[-41.9045,-20.8518],[-41.9075,-20.8491],[-41.9047,-20.8515],[-41.9045,-20.8518]]]}},{"type":"Feature","properties":{"cod_tema":"AREA_INFRAESTRUTURA_PUBLICA","cod_imovel":"RJ-3304102-C2F7AF5E784C415AA2731BFD3F94DEE6","num_area":"0.3054000000000000000000000000000","ind_status":"AT"},"geometry":{"type":"Polygon","coordinates":[[[-41.9027,-20.8399],[-41.9084,-20.8398],[-41.9034,-20.8396],[-41.9027,-20.8399]]]}},{"type":"Feature","properties":{"cod_tema":"AREA_SERVIDAO_ADMINISTRATIVA_TOTAL","cod_imovel":"RJ-3304102-C2F7AF5E784C415AA2731BFD3F94DEE6","num_area":"0.3054000000000000000000000000000","ind_status":"AT"},"geometry":{"type":"Polygon","coordinates":[[[-41.9027,-20.8399],[-41.9084,-20.8398],[-41.9034,-20.8396],[-41.9027,-20.8399]]]}},{"type":"Feature","properties":{"cod_tema":"AREA_INFRAESTRUTURA_PUBLICA","cod_imovel":"RJ-3304102-C5C2D486A7134B78A5E1CB478BC99DC4","num_area":"0.3632000000000000000000000000000","ind_status":"AT"},"geometry":{"type":"Polygon","coordinates":[[[-41.8576,-20.8003],[-41.8597,-20.7975],[-41.8576,-20.8002],[-41.8576,-20.8003]]]}},{"type":"Feature","properties":{"cod_tema":"AREA_SERVIDAO_ADMINISTRATIVA_TOTAL","cod_imovel":"RJ-3304102-C5C2D486A7134B78A5E1CB478BC99DC4","num_area":"0.3632000000000000000000000000000","ind_status":"AT"},"geometry":{"type":"Polygon","coordinates":[[[-41.8576,-20.8003],[-41.8597,-20.7975],[-41.8576,-20.8002],[-41.8576,-20.8003]]]}},{"type":"Feature","properties":{"cod_tema":"AREA_INFRAESTRUTURA_PUBLICA","cod_imovel":"RJ-3304102-C9FD0AE820BD4A7F9490B442AF805670","num_area":"0.2343000000000000000000000000000","ind_status":"AT"},"geometry":{"type":"Polygon","coordinates":[[[-42.0252,-21.0129],[-42.0293,-21.0126],[-42.0252,-21.0129],[-42.0252,-21.0129]]]}},{"type":"Feature","properties":{"cod_tema":"AREA_SERVIDAO_ADMINISTRATIVA_TOTAL","cod_imovel":"RJ-3304102-C9FD0AE820BD4A7F9490B442AF805670","num_area":"0.2343000000000000000000000000000","ind_status":"AT"},"geometry":{"type":"Polygon","coordinates":[[[-42.0252,-21.0129],[-42.0293,-21.0126],[-42.0252,-21.0129],[-42.0252,-21.0129]]]}},{"type":"Feature","properties":{"cod_tema":"AREA_UTILIDADE_PUBLICA","cod_imovel":"RJ-3304102-CF368A2CA5694804B2EBD3334FA1854B","num_area":"0.7351000000000000000000000000000","ind_status":"AT"},"geometry":{"type":"Polygon","coordinates":[[[-41.8251,-20.8159],[-41.8251,-20.8109],[-41.832,-20.8102],[-41.8251,-20.8108],[-41.8252,-20.8158],[-41.8251,-20.8159]]]}},{"type":"Feature","properties":{"cod_tema":"AREA_SERVIDAO_ADMINISTRATIVA_TOTAL","cod_imovel":"RJ-3304102-CF368A2CA5694804B2EBD3334FA1854B","num_area":"0.7351000000000000000000000000000","ind_status":"AT"},"geometry":{"type":"Polygon","coordinates":[[[-41.8251,-20.8159],[-41.8251,-20.8109],[-41.832,-20.8102],[-41.8251,-20.8108],[-41.8252,-20.8158],[-41.8251,-20.8159]]]}},{"type":"Feature","properties":{"cod_tema":"AREA_INFRAESTRUTURA_PUBLICA","cod_imovel":"RJ-3304102-D25F757F88D242C7BD991BE937B05BCC","num_area":"0.1961000000000000000000000000000","ind_status":"AT"},"geometry":{"type":"Polygon","coordinates":[[[-41.8922,-20.7993],[-41.888,-20.7977],[-41.8919,-20.7989],[-41.8922,-20.7993]]]}},{"type":"Feature","properties":{"cod_tema":"AREA_SERVIDAO_ADMINISTRATIVA_TOTAL","cod_imovel":"RJ-3304102-D25F757F88D242C7BD991BE937B05BCC","num_area":"0.1961000000000000000000000000000","ind_status":"AT"},"geometry":{"type":"Polygon","coordinates":[[[-41.8922,-20.7993],[-41.888,-20.7977],[-41.8919,-20.7989],[-41.8922,-20.7993]]]}},{"type":"Feature","properties":{"cod_tema":"AREA_INFRAESTRUTURA_PUBLICA","cod_imovel":"RJ-3304102-D40D6A70070E4EC3AF6C3F60270D4417","num_area":"0.5411000000000000000000000000000","ind_status":"AT"},"geometry":{"type":"Polygon","coordinates":[[[-41.913,-20.8364],[-41.9114,-20.8397],[-41.9164,-20.8404],[-41.913,-20.8365],[-41.913,-20.8364]]]}},{"type":"Feature","properties":{"cod_tema":"AREA_SERVIDAO_ADMINISTRATIVA_TOTAL","cod_imovel":"RJ-3304102-D40D6A70070E4EC3AF6C3F60270D4417","num_area":"0.5411000000000000000000000000000","ind_status":"AT"},"geometry":{"type":"Polygon","coordinates":[[[-41.913,-20.8364],[-41.9114,-20.8397],[-41.9164,-20.8404],[-41.913,-20.8365],[-41.913,-20.8364]]]}},{"type":"Feature","properties":{"cod_tema":"AREA_UTILIDADE_PUBLICA","cod_imovel":"RJ-3304102-D539ABFE68C343D8B70FE3FFD7A735A2","num_area":"0.2672000000000000000000000000000","ind_status":"AT"},"geometry":{"type":"Polygon","coordinates":[[[-41.8734,-20.7922],[-41.8674,-20.7894],[-41.8734,-20.7922],[-41.8734,-20.7922]]]}},{"type":"Feature","properties":{"cod_tema":"AREA_SERVIDAO_ADMINISTRATIVA_TOTAL","cod_imovel":"RJ-3304102-D539ABFE68C343D8B70FE3FFD7A735A2","num_area":"0.2672000000000000000000000000000","ind_status":"AT"},"geometry":{"type":"Polygon","coordinates":[[[-41.8734,-20.7922],[-41.8674,-20.7894],[-41.8734,-20.7922],[-41.8734,-20.7922]]]}},{"type":"Feature","properties":{"cod_tema":"AREA_UTILIDADE_PUBLICA","cod_imovel":"RJ-3304102-D5890DDBE44B44CBAAC55212115E64E7","num_area":"0.1573000000000000000000000000000","ind_status":"AT"},"geometry":{"type":"Polygon","coordinates":[[[-41.9209,-20.8179],[-41.92,-20.8146],[-41.9211,-20.8176],[-41.9209,-20.8179]]]}},{"type":"Feature","properties":{"cod_tema":"AREA_SERVIDAO_ADMINISTRATIVA_TOTAL","cod_imovel":"RJ-3304102-D5890DDBE44B44CBAAC55212115E64E7","num_area":"0.1573000000000000000000000000000","ind_status":"AT"},"geometry":{"type":"Polygon","coordinates":[[[-41.9209,-20.8179],[-41.92,-20.8146],[-41.9211,-20.8176],[-41.9209,-20.8179]]]}},{"type":"Feature","properties":{"cod_tema":"AREA_INFRAESTRUTURA_PUBLICA","cod_imovel":"RJ-3304102-D9F0B568064B4F27B4E22F3ED7D23C99","num_area":"0.2335000000000000000000000000000","ind_status":"AT"},"geometry":{"type":"Polygon","coordinates":[[[-42.0992,-20.9852],[-42.0973,-20.9823],[-42.0992,-20.9848],[-42.0992,-20.9852]]]}},{"type":"Feature","properties":{"cod_tema":"AREA_SERVIDAO_ADMINISTRATIVA_TOTAL","cod_imovel":"RJ-3304102-D9F0B568064B4F27B4E22F3ED7D23C99","num_area":"0.2335000000000000000000000000000","ind_status":"AT"},"geometry":{"type":"Polygon","coordinates":[[[-42.0992,-20.9852],[-42.0973,-20.9823],[-42.0992,-20.9848],[-42.0992,-20.9852]]]}},{"type":"Feature","properties":{"cod_tema":"AREA_INFRAESTRUTURA_PUBLICA","cod_imovel":"RJ-3304102-DC7AFAF7A1E641F49F7A28D357B71ACA","num_area":"0.1721000000000000000000000000000","ind_status":"AT"},"geometry":{"type":"Polygon","coordinates":[[[-41.9381,-20.8781],[-41.9351,-20.8789],[-41.938,-20.8781],[-41.9381,-20.8781]]]}},{"type":"Feature","properties":{"cod_tema":"AREA_SERVIDAO_ADMINISTRATIVA_TOTAL","cod_imovel":"RJ-3304102-DC7AFAF7A1E641F49F7A28D357B71ACA","num_area":"0.1721000000000000000000000000000","ind_status":"AT"},"geometry":{"type":"Polygon","coordinates":[[[-41.9381,-20.8781],[-41.9351,-20.8789],[-41.938,-20.8781],[-41.9381,-20.8781]]]}},{"type":"Feature","properties":{"cod_tema":"AREA_INFRAESTRUTURA_PUBLICA","cod_imovel":"RJ-3304102-DCDC0FDC0B1F472AA433F879205F8D7B","num_area":"0.4311000000000000000000000000000","ind_status":"AT"},"geometry":{"type":"Polygon","coordinates":[[[-41.8815,-20.8437],[-41.8777,-20.8437],[-41.8813,-20.8439],[-41.8815,-20.8437]]]}},{"type":"Feature","properties":{"cod_tema":"AREA_SERVIDAO_ADMINISTRATIVA_TOTAL","cod_imovel":"RJ-3304102-DCDC0FDC0B1F472AA433F879205F8D7B","num_area":"0.4311000000000000000000000000000","ind_status":"AT"},"geometry":{"type":"Polygon","coordinates":[[[-41.8815,-20.8437],[-41.8777,-20.8437],[-41.8813,-20.8439],[-41.8815,-20.8437]]]}},{"type":"Feature","properties":{"cod_tema":"AREA_INFRAESTRUTURA_PUBLICA","cod_imovel":"RJ-3304102-E0EE65A9BC2D4F8E88A3926AB1F1A17C","num_area":"1.6844000000000000000000000000000","ind_status":"AT"},"geometry":{"type":"Polygon","coordinates":[[[-41.9501,-20.9203],[-41.953,-20.9228],[-41.9501,-20.9203],[-41.9501,-20.9203]],[[-41.9408,-20.9239],[-41.9494,-20.9202],[-41.9408,-20.9239],[-41.9408,-20.9239]]]}},{"type":"Feature","properties":{"cod_tema":"AREA_SERVIDAO_ADMINISTRATIVA_TOTAL","cod_imovel":"RJ-3304102-E0EE65A9BC2D4F8E88A3926AB1F1A17C","num_area":"1.6844000000000000000000000000000","ind_status":"AT"},"geometry":{"type":"Polygon","coordinates":[[[-41.9501,-20.9203],[-41.953,-20.9228],[-41.9501,-20.9203],[-41.9501,-20.9203]],[[-41.9408,-20.9239],[-41.9494,-20.9202],[-41.9408,-20.9239],[-41.9408,-20.9239]]]}},{"type":"Feature","properties":{"cod_tema":"AREA_INFRAESTRUTURA_PUBLICA","cod_imovel":"RJ-3304102-E51FBA2D76624CD6ADB10B94A48C4252","num_area":"0.3798000000000000000000000000000","ind_status":"AT"},"geometry":{"type":"Polygon","coordinates":[[[-42.0186,-20.9859],[-42.0224,-20.9814],[-42.0187,-20.9863],[-42.0186,-20.9859]]]}},{"type":"Feature","properties":{"cod_tema":"AREA_SERVIDAO_ADMINISTRATIVA_TOTAL","cod_imovel":"RJ-3304102-E51FBA2D76624CD6ADB10B94A48C4252","num_area":"0.3798000000000000000000000000000","ind_status":"AT"},"geometry":{"type":"Polygon","coordinates":[[[-42.0186,-20.9859],[-42.0224,-20.9814],[-42.0187,-20.9863],[-42.0186,-20.9859]]]}},{"type":"Feature","properties":{"cod_tema":"AREA_INFRAESTRUTURA_PUBLICA","cod_imovel":"RJ-3304102-E806F70875FF49218B8356161F91140D","num_area":"0.4215000000000000000000000000000","ind_status":"AT"},"geometry":{"type":"Polygon","coordinates":[[[-41.9063,-20.8722],[-41.9026,-20.873],[-41.9063,-20.8722],[-41.9063,-20.8722]]]}},{"type":"Feature","properties":{"cod_tema":"AREA_SERVIDAO_ADMINISTRATIVA_TOTAL","cod_imovel":"RJ-3304102-E806F70875FF49218B8356161F91140D","num_area":"0.4215000000000000000000000000000","ind_status":"AT"},"geometry":{"type":"Polygon","coordinates":[[[-41.9063,-20.8722],[-41.9026,-20.873],[-41.9063,-20.8722],[-41.9063,-20.8722]]]}},{"type":"Feature","properties":{"cod_tema":"AREA_INFRAESTRUTURA_PUBLICA","cod_imovel":"RJ-3304102-EA7C216EBFFB4DE596E5628DA183E78E","num_area":"1.2738000000000000000000000000000","ind_status":"AT"},"geometry":{"type":"Polygon","coordinates":[[[-41.8911,-20.8315],[-41.897,-20.8255],[-41.8868,-20.834],[-41.8916,-20.8315],[-41.8911,-20.8315]]]}},{"type":"Feature","properties":{"cod_tema":"AREA_SERVIDAO_ADMINISTRATIVA_TOTAL","cod_imovel":"RJ-3304102-EA7C216EBFFB4DE596E5628DA183E78E","num_area":"1.2738000000000000000000000000000","ind_status":"AT"},"geometry":{"type":"Polygon","coordinates":[[[-41.8911,-20.8315],[-41.897,-20.8255],[-41.8868,-20.834],[-41.8916,-20.8315],[-41.8911,-20.8315]]]}},{"type":"Feature","properties":{"cod_tema":"AREA_INFRAESTRUTURA_PUBLICA","cod_imovel":"RJ-3304102-EDB98B8A3A5940D386B9C3D703810B14","num_area":"0.2963000000000000000000000000000","ind_status":"AT"},"geometry":{"type":"Polygon","coordinates":[[[-41.9165,-20.938],[-41.9135,-20.9394],[-41.9165,-20.938],[-41.9165,-20.938]]]}},{"type":"Feature","properties":{"cod_tema":"AREA_SERVIDAO_ADMINISTRATIVA_TOTAL","cod_imovel":"RJ-3304102-EDB98B8A3A5940D386B9C3D703810B14","num_area":"0.2963000000000000000000000000000","ind_status":"AT"},"geometry":{"type":"Polygon","coordinates":[[[-41.9165,-20.938],[-41.9135,-20.9394],[-41.9165,-20.938],[-41.9165,-20.938]]]}},{"type":"Feature","properties":{"cod_tema":"AREA_INFRAESTRUTURA_PUBLICA","cod_imovel":"RJ-3304102-EE2F01FA20664FC68A569AA3C4E328D0","num_area":"0.2569000000000000000000000000000","ind_status":"AT"},"geometry":{"type":"Polygon","coordinates":[[[-41.9229,-20.8302],[-41.9274,-20.8285],[-41.9231,-20.8302],[-41.9229,-20.8302]]]}},{"type":"Feature","properties":{"cod_tema":"AREA_SERVIDAO_ADMINISTRATIVA_TOTAL","cod_imovel":"RJ-3304102-EE2F01FA20664FC68A569AA3C4E328D0","num_area":"0.2569000000000000000000000000000","ind_status":"AT"},"geometry":{"type":"Polygon","coordinates":[[[-41.9229,-20.8302],[-41.9274,-20.8285],[-41.9231,-20.8302],[-41.9229,-20.8302]]]}},{"type":"Feature","properties":{"cod_tema":"AREA_INFRAESTRUTURA_PUBLICA","cod_imovel":"RJ-3304102-F1143E9D97A04188A354C500E50C0AF2","num_area":"0.8535000000000000000000000000000","ind_status":"AT"},"geometry":{"type":"Polygon","coordinates":[[[-41.8331,-20.844],[-41.8273,-20.8412],[-41.833,-20.8441],[-41.8331,-20.844]]]}},{"type":"Feature","properties":{"cod_tema":"AREA_SERVIDAO_ADMINISTRATIVA_TOTAL","cod_imovel":"RJ-3304102-F1143E9D97A04188A354C500E50C0AF2","num_area":"0.8535000000000000000000000000000","ind_status":"AT"},"geometry":{"type":"Polygon","coordinates":[[[-41.8331,-20.844],[-41.8273,-20.8412],[-41.833,-20.8441],[-41.8331,-20.844]]]}},{"type":"Feature","properties":{"cod_tema":"AREA_INFRAESTRUTURA_PUBLICA","cod_imovel":"RJ-3304102-F1B48DA483784992BF43786E0F458B25","num_area":"0.4373000000000000000000000000000","ind_status":"AT"},"geometry":{"type":"Polygon","coordinates":[[[-41.8216,-20.837],[-41.8212,-20.832],[-41.8217,-20.8371],[-41.8216,-20.837]]]}},{"type":"Feature","properties":{"cod_tema":"AREA_SERVIDAO_ADMINISTRATIVA_TOTAL","cod_imovel":"RJ-3304102-F1B48DA483784992BF43786E0F458B25","num_area":"0.4373000000000000000000000000000","ind_status":"AT"},"geometry":{"type":"Polygon","coordinates":[[[-41.8216,-20.837],[-41.8212,-20.832],[-41.8217,-20.8371],[-41.8216,-20.837]]]}},{"type":"Feature","properties":{"cod_tema":"AREA_UTILIDADE_PUBLICA","cod_imovel":"RJ-3304102-F771DBADB853424AA6C4AE2A1DF2285A","num_area":"0.4680000000000000000000000000000","ind_status":"AT"},"geometry":{"type":"Polygon","coordinates":[[[-41.853,-20.7649],[-41.8584,-20.7672],[-41.8531,-20.7649],[-41.853,-20.7649]]]}},{"type":"Feature","properties":{"cod_tema":"AREA_SERVIDAO_ADMINISTRATIVA_TOTAL","cod_imovel":"RJ-3304102-F771DBADB853424AA6C4AE2A1DF2285A","num_area":"0.4680000000000000000000000000000","ind_status":"AT"},"geometry":{"type":"Polygon","coordinates":[[[-41.853,-20.7649],[-41.8584,-20.7672],[-41.8531,-20.7649],[-41.853,-20.7649]]]}},{"type":"Feature","properties":{"cod_tema":"AREA_UTILIDADE_PUBLICA","cod_imovel":"RJ-3304102-FF25F71EDCCA462DAFCB5AC11719020A","num_area":"0.3235000000000000000000000000000","ind_status":"AT"},"geometry":{"type":"Polygon","coordinates":[[[-41.9398,-20.8751],[-41.9407,-20.8706],[-41.9398,-20.8751],[-41.9398,-20.8751]]]}},{"type":"Feature","properties":{"cod_tema":"AREA_SERVIDAO_ADMINISTRATIVA_TOTAL","cod_imovel":"RJ-3304102-FF25F71EDCCA462DAFCB5AC11719020A","num_area":"0.3235000000000000000000000000000","ind_status":"AT"},"geometry":{"type":"Polygon","coordinates":[[[-41.9398,-20.8751],[-41.9407,-20.8706],[-41.9398,-20.8751],[-41.9398,-20.8751]]]}},{"type":"Feature","properties":{"cod_tema":"AREA_UTILIDADE_PUBLICA","cod_imovel":"RJ-3304102-5DA63DB679F1406D92F9CA4488DE0374","num_area":"0.6644000000000000000000000000000","ind_status":"AT"},"geometry":{"type":"Polygon","coordinates":[[[-42.0404,-20.9841],[-42.0457,-20.9851],[-42.0421,-20.9842],[-42.0404,-20.9841]]]}},{"type":"Feature","properties":{"cod_tema":"AREA_SERVIDAO_ADMINISTRATIVA_TOTAL","cod_imovel":"RJ-3304102-5DA63DB679F1406D92F9CA4488DE0374","num_area":"0.6644000000000000000000000000000","ind_status":"AT"},"geometry":{"type":"Polygon","coordinates":[[[-42.0404,-20.9841],[-42.0457,-20.9851],[-42.0421,-20.9842],[-42.0404,-20.9841]]]}},{"type":"Feature","properties":{"cod_tema":"AREA_INFRAESTRUTURA_PUBLICA","cod_imovel":"RJ-3304102-1DD38714C4EA42DF829C4092B5E83D2C","num_area":"0.5764000000000000000000000000000","ind_status":"AT"},"geometry":{"type":"Polygon","coordinates":[[[-41.878,-20.8527],[-41.8849,-20.8511],[-41.88,-20.8515],[-41.878,-20.8527]]]}},{"type":"Feature","properties":{"cod_tema":"AREA_SERVIDAO_ADMINISTRATIVA_TOTAL","cod_imovel":"RJ-3304102-1DD38714C4EA42DF829C4092B5E83D2C","num_area":"0.5764000000000000000000000000000","ind_status":"AT"},"geometry":{"type":"Polygon","coordinates":[[[-41.878,-20.8527],[-41.8849,-20.8511],[-41.88,-20.8515],[-41.878,-20.8527]]]}},{"type":"Feature","properties":{"cod_tema":"AREA_UTILIDADE_PUBLICA","cod_imovel":"RJ-3304102-648E20AD91764E1C97B3EE3A7D849CAE","num_area":"0.5357000000000000000000000000000","ind_status":"CA"},"geometry":{"type":"Polygon","coordinates":[[[-42.085,-20.9981],[-42.0866,-21.0013],[-42.085,-20.9982],[-42.085,-20.9981]]]}},{"type":"Feature","properties":{"cod_tema":"AREA_SERVIDAO_ADMINISTRATIVA_TOTAL","cod_imovel":"RJ-3304102-648E20AD91764E1C97B3EE3A7D849CAE","num_area":"0.5357000000000000000000000000000","ind_status":"CA"},"geometry":{"type":"Polygon","coordinates":[[[-42.085,-20.9981],[-42.0866,-21.0013],[-42.085,-20.9982],[-42.085,-20.9981]]]}},{"type":"Feature","properties":{"cod_tema":"AREA_INFRAESTRUTURA_PUBLICA","cod_imovel":"RJ-3304102-FF4017F28ADF4990938252397F6B1CEF","num_area":"0.5752000000000000000000000000000","ind_status":"AT"},"geometry":{"type":"Polygon","coordinates":[[[-41.9667,-20.9454],[-41.9698,-20.9468],[-41.9669,-20.9455],[-41.9667,-20.9454]]]}},{"type":"Feature","properties":{"cod_tema":"AREA_SERVIDAO_ADMINISTRATIVA_TOTAL","cod_imovel":"RJ-3304102-FF4017F28ADF4990938252397F6B1CEF","num_area":"0.5752000000000000000000000000000","ind_status":"AT"},"geometry":{"type":"Polygon","coordinates":[[[-41.9667,-20.9454],[-41.9698,-20.9468],[-41.9669,-20.9455],[-41.9667,-20.9454]]]}},{"type":"Feature","properties":{"cod_tema":"AREA_INFRAESTRUTURA_PUBLICA","cod_imovel":"RJ-3304102-F3E983AB440E47D1B29CDEE78EF6AC29","num_area":"0.7383000000000000000000000000000","ind_status":"AT"},"geometry":{"type":"Polygon","coordinates":[[[-42.0505,-20.9516],[-42.0517,-20.9427],[-42.0505,-20.9516],[-42.0505,-20.9516]]]}},{"type":"Feature","properties":{"cod_tema":"AREA_SERVIDAO_ADMINISTRATIVA_TOTAL","cod_imovel":"RJ-3304102-F3E983AB440E47D1B29CDEE78EF6AC29","num_area":"0.7383000000000000000000000000000","ind_status":"AT"},"geometry":{"type":"Polygon","coordinates":[[[-42.0505,-20.9516],[-42.0517,-20.9427],[-42.0505,-20.9516],[-42.0505,-20.9516]]]}},{"type":"Feature","properties":{"cod_tema":"AREA_INFRAESTRUTURA_PUBLICA","cod_imovel":"RJ-3304102-FDBE5897BBB6417F99C34681B550534C","num_area":"0.6314000000000000000000000000000","ind_status":"AT"},"geometry":{"type":"Polygon","coordinates":[[[-42.0978,-20.9528],[-42.0948,-20.949],[-42.0986,-20.9407],[-42.0973,-20.9528],[-42.0978,-20.9528]]]}},{"type":"Feature","properties":{"cod_tema":"AREA_SERVIDAO_ADMINISTRATIVA_TOTAL","cod_imovel":"RJ-3304102-FDBE5897BBB6417F99C34681B550534C","num_area":"0.6314000000000000000000000000000","ind_status":"AT"},"geometry":{"type":"Polygon","coordinates":[[[-42.0978,-20.9528],[-42.0948,-20.949],[-42.0986,-20.9407],[-42.0973,-20.9528],[-42.0978,-20.9528]]]}},{"type":"Feature","properties":{"cod_tema":"AREA_INFRAESTRUTURA_PUBLICA","cod_imovel":"RJ-3304102-0F5BBA74D2D843CC8123D1796CD70EB9","num_area":"0.3504000000000000000000000000000","ind_status":"AT"},"geometry":{"type":"Polygon","coordinates":[[[-41.9333,-20.8948],[-41.9287,-20.8948],[-41.9332,-20.8948],[-41.9333,-20.8948]]]}},{"type":"Feature","properties":{"cod_tema":"AREA_SERVIDAO_ADMINISTRATIVA_TOTAL","cod_imovel":"RJ-3304102-0F5BBA74D2D843CC8123D1796CD70EB9","num_area":"0.3504000000000000000000000000000","ind_status":"AT"},"geometry":{"type":"Polygon","coordinates":[[[-41.9333,-20.8948],[-41.9287,-20.8948],[-41.9332,-20.8948],[-41.9333,-20.8948]]]}},{"type":"Feature","properties":{"cod_tema":"AREA_INFRAESTRUTURA_PUBLICA","cod_imovel":"RJ-3304102-B720E0285881488A965D700EE44A74B5","num_area":"0.8429000000000000000000000000000","ind_status":"PE"},"geometry":{"type":"Polygon","coordinates":[[[-42.0474,-21.0042],[-42.0327,-21.0082],[-42.0474,-21.0042],[-42.0474,-21.0042]]]}},{"type":"Feature","properties":{"cod_tema":"AREA_SERVIDAO_ADMINISTRATIVA_TOTAL","cod_imovel":"RJ-3304102-B720E0285881488A965D700EE44A74B5","num_area":"0.8429000000000000000000000000000","ind_status":"PE"},"geometry":{"type":"Polygon","coordinates":[[[-42.0474,-21.0042],[-42.0327,-21.0082],[-42.0474,-21.0042],[-42.0474,-21.0042]]]}},{"type":"Feature","properties":{"cod_tema":"AREA_INFRAESTRUTURA_PUBLICA","cod_imovel":"RJ-3304102-6DA08BBBDFDB47378B78BE6C60336246","num_area":"0.2770000000000000000000000000000","ind_status":"AT"},"geometry":{"type":"Polygon","coordinates":[[[-41.9391,-20.8748],[-41.9373,-20.8721],[-41.9389,-20.8746],[-41.9391,-20.8748]]]}},{"type":"Feature","properties":{"cod_tema":"AREA_SERVIDAO_ADMINISTRATIVA_TOTAL","cod_imovel":"RJ-3304102-6DA08BBBDFDB47378B78BE6C60336246","num_area":"0.2770000000000000000000000000000","ind_status":"AT"},"geometry":{"type":"Polygon","coordinates":[[[-41.9391,-20.8748],[-41.9373,-20.8721],[-41.9389,-20.8746],[-41.9391,-20.8748]]]}},{"type":"Feature","properties":{"cod_tema":"AREA_INFRAESTRUTURA_PUBLICA","cod_imovel":"RJ-3304102-B02CB5ED37934554BC7DB374C447D83D","num_area":"0.2815000000000000000000000000000","ind_status":"AT"},"geometry":{"type":"Polygon","coordinates":[[[-41.9039,-20.8021],[-41.8986,-20.7987],[-41.9039,-20.8021],[-41.9039,-20.8021]]]}},{"type":"Feature","properties":{"cod_tema":"AREA_SERVIDAO_ADMINISTRATIVA_TOTAL","cod_imovel":"RJ-3304102-B02CB5ED37934554BC7DB374C447D83D","num_area":"0.2815000000000000000000000000000","ind_status":"AT"},"geometry":{"type":"Polygon","coordinates":[[[-41.9039,-20.8021],[-41.8986,-20.7987],[-41.9039,-20.8021],[-41.9039,-20.8021]]]}},{"type":"Feature","properties":{"cod_tema":"AREA_INFRAESTRUTURA_PUBLICA","cod_imovel":"RJ-3304102-BA14EAABA05A4CB2B065E4BEF852DECB","num_area":"0.6438000000000000000000000000000","ind_status":"AT"},"geometry":{"type":"Polygon","coordinates":[[[-41.9641,-20.9013],[-41.9631,-20.8957],[-41.9641,-20.901],[-41.9641,-20.9013]]]}},{"type":"Feature","properties":{"cod_tema":"AREA_SERVIDAO_ADMINISTRATIVA_TOTAL","cod_imovel":"RJ-3304102-BA14EAABA05A4CB2B065E4BEF852DECB","num_area":"0.6438000000000000000000000000000","ind_status":"AT"},"geometry":{"type":"Polygon","coordinates":[[[-41.9641,-20.9013],[-41.9631,-20.8957],[-41.9641,-20.901],[-41.9641,-20.9013]]]}},{"type":"Feature","properties":{"cod_tema":"AREA_INFRAESTRUTURA_PUBLICA","cod_imovel":"RJ-3304102-BB455AF66BE949DC8FBF83C3CAFEBFBA","num_area":"0.7716000000000000000000000000000","ind_status":"AT"},"geometry":{"type":"Polygon","coordinates":[[[-41.8772,-20.8534],[-41.8737,-20.8538],[-41.877,-20.8535],[-41.8772,-20.8534]]]}},{"type":"Feature","properties":{"cod_tema":"AREA_SERVIDAO_ADMINISTRATIVA_TOTAL","cod_imovel":"RJ-3304102-BB455AF66BE949DC8FBF83C3CAFEBFBA","num_area":"0.7716000000000000000000000000000","ind_status":"AT"},"geometry":{"type":"Polygon","coordinates":[[[-41.8772,-20.8534],[-41.8737,-20.8538],[-41.877,-20.8535],[-41.8772,-20.8534]]]}},{"type":"Feature","properties":{"cod_tema":"AREA_INFRAESTRUTURA_PUBLICA","cod_imovel":"RJ-3304102-D2E7447440C54663ACE18F3E7251A542","num_area":"1.2033000000000000000000000000000","ind_status":"AT"},"geometry":{"type":"Polygon","coordinates":[[[-41.9381,-20.8971],[-41.9345,-20.8947],[-41.9393,-20.894],[-41.9335,-20.8942],[-41.9381,-20.8971],[-41.9381,-20.8971]]]}},{"type":"Feature","properties":{"cod_tema":"AREA_SERVIDAO_ADMINISTRATIVA_TOTAL","cod_imovel":"RJ-3304102-D2E7447440C54663ACE18F3E7251A542","num_area":"1.2033000000000000000000000000000","ind_status":"AT"},"geometry":{"type":"Polygon","coordinates":[[[-41.9381,-20.8971],[-41.9345,-20.8947],[-41.9393,-20.894],[-41.9335,-20.8942],[-41.9381,-20.8971],[-41.9381,-20.8971]]]}},{"type":"Feature","properties":{"cod_tema":"AREA_INFRAESTRUTURA_PUBLICA","cod_imovel":"RJ-3304102-3929880843DF400DA25A406D2C2B2745","num_area":"0.7553000000000000000000000000000","ind_status":"AT"},"geometry":{"type":"Polygon","coordinates":[[[-41.9435,-20.9158],[-41.9371,-20.9114],[-41.9435,-20.9159],[-41.9435,-20.9158]]]}},{"type":"Feature","properties":{"cod_tema":"AREA_SERVIDAO_ADMINISTRATIVA_TOTAL","cod_imovel":"RJ-3304102-3929880843DF400DA25A406D2C2B2745","num_area":"0.7553000000000000000000000000000","ind_status":"AT"},"geometry":{"type":"Polygon","coordinates":[[[-41.9435,-20.9158],[-41.9371,-20.9114],[-41.9435,-20.9159],[-41.9435,-20.9158]]]}},{"type":"Feature","properties":{"cod_tema":"AREA_INFRAESTRUTURA_PUBLICA","cod_imovel":"RJ-3303104-C681ECCDE31F400E8773F33B6A7CAE59","num_area":"1.3579000000000000000000000000000","ind_status":"AT"},"geometry":{"type":"Polygon","coordinates":[[[-41.9522,-20.9643],[-41.9574,-20.952],[-41.9522,-20.9642],[-41.9522,-20.9643]]]}},{"type":"Feature","properties":{"cod_tema":"AREA_SERVIDAO_ADMINISTRATIVA_TOTAL","cod_imovel":"RJ-3303104-C681ECCDE31F400E8773F33B6A7CAE59","num_area":"1.3579000000000000000000000000000","ind_status":"AT"},"geometry":{"type":"Polygon","coordinates":[[[-41.9522,-20.9643],[-41.9574,-20.952],[-41.9522,-20.9642],[-41.9522,-20.9643]]]}},{"type":"Feature","properties":{"cod_tema":"AREA_INFRAESTRUTURA_PUBLICA","cod_imovel":"RJ-3304102-7715407C61044AECA9E4C534E84F44A2","num_area":"0.6909000000000000000000000000000","ind_status":"AT"},"geometry":{"type":"Polygon","coordinates":[[[-42.0545,-20.9749],[-42.056,-20.9808],[-42.0548,-20.9759],[-42.0545,-20.9749]]]}},{"type":"Feature","properties":{"cod_tema":"AREA_UTILIDADE_PUBLICA","cod_imovel":"RJ-3304102-7715407C61044AECA9E4C534E84F44A2","num_area":"2.6993000000000000000000000000000","ind_status":"AT"},"geometry":{"type":"Polygon","coordinates":[[[-42.0543,-20.9748],[-42.0542,-20.9828],[-42.0542,-20.975],[-42.0543,-20.9748]]]}},{"type":"Feature","properties":{"cod_tema":"AREA_SERVIDAO_ADMINISTRATIVA_TOTAL","cod_imovel":"RJ-3304102-7715407C61044AECA9E4C534E84F44A2","num_area":"3.3903000000000000000000000000000","ind_status":"AT"},"geometry":{"type":"Polygon","coordinates":[[[-42.0543,-20.9748],[-42.0542,-20.9828],[-42.0542,-20.975],[-42.0543,-20.9748]],[[-42.0545,-20.9749],[-42.056,-20.9808],[-42.0548,-20.9759],[-42.0545,-20.9749]]]}},{"type":"Feature","properties":{"cod_tema":"AREA_INFRAESTRUTURA_PUBLICA","cod_imovel":"RJ-3304102-B70F9B3DF84B438C9078B6CAE82E0AC2","num_area":"2.5775000000000000000000000000000","ind_status":"AT"},"geometry":{"type":"Polygon","coordinates":[[[-42.0843,-20.9847],[-42.0782,-20.9777],[-42.084,-20.9841],[-42.0843,-20.9847]]]}},{"type":"Feature","properties":{"cod_tema":"AREA_SERVIDAO_ADMINISTRATIVA_TOTAL","cod_imovel":"RJ-3304102-B70F9B3DF84B438C9078B6CAE82E0AC2","num_area":"2.5775000000000000000000000000000","ind_status":"AT"},"geometry":{"type":"Polygon","coordinates":[[[-42.0843,-20.9847],[-42.0782,-20.9777],[-42.084,-20.9841],[-42.0843,-20.9847]]]}},{"type":"Feature","properties":{"cod_tema":"AREA_INFRAESTRUTURA_PUBLICA","cod_imovel":"RJ-3304102-9479809335AA493CB6997CD1E9146A01","num_area":"0.9202000000000000000000000000000","ind_status":"AT"},"geometry":{"type":"Polygon","coordinates":[[[-41.9247,-20.9309],[-41.9184,-20.9322],[-41.9166,-20.9379],[-41.9184,-20.9323],[-41.9247,-20.931],[-41.9247,-20.9309]]]}},{"type":"Feature","properties":{"cod_tema":"AREA_SERVIDAO_ADMINISTRATIVA_TOTAL","cod_imovel":"RJ-3304102-9479809335AA493CB6997CD1E9146A01","num_area":"0.9202000000000000000000000000000","ind_status":"AT"},"geometry":{"type":"Polygon","coordinates":[[[-41.9247,-20.9309],[-41.9184,-20.9322],[-41.9166,-20.9379],[-41.9184,-20.9323],[-41.9247,-20.931],[-41.9247,-20.9309]]]}},{"type":"Feature","properties":{"cod_tema":"AREA_UTILIDADE_PUBLICA","cod_imovel":"RJ-3304102-96143166104E45149B33590AFBA69CF8","num_area":"0.3272000000000000000000000000000","ind_status":"AT"},"geometry":{"type":"Polygon","coordinates":[[[-42.0025,-20.9435],[-42.0001,-20.9402],[-42.002,-20.9432],[-42.0025,-20.9435]]]}},{"type":"Feature","properties":{"cod_tema":"AREA_SERVIDAO_ADMINISTRATIVA_TOTAL","cod_imovel":"RJ-3304102-96143166104E45149B33590AFBA69CF8","num_area":"0.3272000000000000000000000000000","ind_status":"AT"},"geometry":{"type":"Polygon","coordinates":[[[-42.0025,-20.9435],[-42.0001,-20.9402],[-42.002,-20.9432],[-42.0025,-20.9435]]]}},{"type":"Feature","properties":{"cod_tema":"AREA_INFRAESTRUTURA_PUBLICA","cod_imovel":"RJ-3304102-BF5AEBC9003C47199F6B8903CC5C6452","num_area":"1.3296000000000000000000000000000","ind_status":"AT"},"geometry":{"type":"Polygon","coordinates":[[[-42.0761,-20.9768],[-42.0674,-20.9743],[-42.076,-20.9769],[-42.0761,-20.9768]]]}},{"type":"Feature","properties":{"cod_tema":"AREA_SERVIDAO_ADMINISTRATIVA_TOTAL","cod_imovel":"RJ-3304102-BF5AEBC9003C47199F6B8903CC5C6452","num_area":"1.3296000000000000000000000000000","ind_status":"AT"},"geometry":{"type":"Polygon","coordinates":[[[-42.0761,-20.9768],[-42.0674,-20.9743],[-42.076,-20.9769],[-42.0761,-20.9768]]]}},{"type":"Feature","properties":{"cod_tema":"AREA_INFRAESTRUTURA_PUBLICA","cod_imovel":"RJ-3304102-AC6701E59D424C7A98F8E2935BCE259A","num_area":"1.0152000000000000000000000000000","ind_status":"AT"},"geometry":{"type":"Polygon","coordinates":[[[-42.0604,-20.9681],[-42.0561,-20.9638],[-42.0601,-20.9678],[-42.0604,-20.9681]]]}},{"type":"Feature","properties":{"cod_tema":"AREA_UTILIDADE_PUBLICA","cod_imovel":"RJ-3304102-AC6701E59D424C7A98F8E2935BCE259A","num_area":"2.1678000000000000000000000000000","ind_status":"AT"},"geometry":{"type":"Polygon","coordinates":[[[-42.0573,-20.9634],[-42.0581,-20.9675],[-42.0573,-20.9638],[-42.0573,-20.9634]]]}},{"type":"Feature","properties":{"cod_tema":"AREA_SERVIDAO_ADMINISTRATIVA_TOTAL","cod_imovel":"RJ-3304102-AC6701E59D424C7A98F8E2935BCE259A","num_area":"3.1830000000000000000000000000000","ind_status":"AT"},"geometry":{"type":"Polygon","coordinates":[[[-42.0573,-20.9634],[-42.0604,-20.9681],[-42.0573,-20.9638],[-42.0573,-20.9634]]]}},{"type":"Feature","properties":{"cod_tema":"AREA_INFRAESTRUTURA_PUBLICA","cod_imovel":"RJ-3304102-CD1398FFA0E74914902AA766CBCC6A8F","num_area":"0.7175000000000000000000000000000","ind_status":"AT"},"geometry":{"type":"Polygon","coordinates":[[[-42.0986,-20.9712],[-42.0974,-20.965],[-42.0987,-20.9717],[-42.0986,-20.9712]]]}},{"type":"Feature","properties":{"cod_tema":"AREA_SERVIDAO_ADMINISTRATIVA_TOTAL","cod_imovel":"RJ-3304102-CD1398FFA0E74914902AA766CBCC6A8F","num_area":"0.7175000000000000000000000000000","ind_status":"AT"},"geometry":{"type":"Polygon","coordinates":[[[-42.0986,-20.9712],[-42.0974,-20.965],[-42.0987,-20.9717],[-42.0986,-20.9712]]]}},{"type":"Feature","properties":{"cod_tema":"AREA_INFRAESTRUTURA_PUBLICA","cod_imovel":"RJ-3304102-F6096452E96A4AF5952E18262BB406A2","num_area":"0.5798000000000000000000000000000","ind_status":"AT"},"geometry":{"type":"Polygon","coordinates":[[[-41.9323,-20.9405],[-41.9331,-20.9441],[-41.9322,-20.9409],[-41.9323,-20.9405]]]}},{"type":"Feature","properties":{"cod_tema":"AREA_SERVIDAO_ADMINISTRATIVA_TOTAL","cod_imovel":"RJ-3304102-F6096452E96A4AF5952E18262BB406A2","num_area":"0.5798000000000000000000000000000","ind_status":"AT"},"geometry":{"type":"Polygon","coordinates":[[[-41.9323,-20.9405],[-41.9331,-20.9441],[-41.9322,-20.9409],[-41.9323,-20.9405]]]}},{"type":"Feature","properties":{"cod_tema":"AREA_UTILIDADE_PUBLICA","cod_imovel":"RJ-3304102-33A15E1E66EB4D3D8DFBEC2B8017CE53","num_area":"0.6688000000000000000000000000000","ind_status":"AT"},"geometry":{"type":"Polygon","coordinates":[[[-42.0934,-20.9751],[-42.0953,-20.9813],[-42.0934,-20.9751],[-42.0934,-20.9751]]]}},{"type":"Feature","properties":{"cod_tema":"AREA_SERVIDAO_ADMINISTRATIVA_TOTAL","cod_imovel":"RJ-3304102-33A15E1E66EB4D3D8DFBEC2B8017CE53","num_area":"0.6688000000000000000000000000000","ind_status":"AT"},"geometry":{"type":"Polygon","coordinates":[[[-42.0934,-20.9751],[-42.0953,-20.9813],[-42.0934,-20.9751],[-42.0934,-20.9751]]]}},{"type":"Feature","properties":{"cod_tema":"AREA_INFRAESTRUTURA_PUBLICA","cod_imovel":"RJ-3304102-59A67089853B4F1A8E82AA806AE63EAB","num_area":"2.3683000000000000000000000000000","ind_status":"AT"},"geometry":{"type":"Polygon","coordinates":[[[-42.038,-20.9896],[-42.0248,-21.0014],[-42.0353,-20.9945],[-42.0256,-21.0019],[-42.0344,-21.004],[-42.0283,-21.0004],[-42.0378,-20.9901],[-42.038,-20.9896]]]}},{"type":"Feature","properties":{"cod_tema":"AREA_SERVIDAO_ADMINISTRATIVA_TOTAL","cod_imovel":"RJ-3304102-59A67089853B4F1A8E82AA806AE63EAB","num_area":"2.3683000000000000000000000000000","ind_status":"AT"},"geometry":{"type":"Polygon","coordinates":[[[-42.038,-20.9896],[-42.0248,-21.0014],[-42.0353,-20.9945],[-42.0256,-21.0019],[-42.0344,-21.004],[-42.0283,-21.0004],[-42.0378,-20.9901],[-42.038,-20.9896]]]}},{"type":"Feature","properties":{"cod_tema":"AREA_INFRAESTRUTURA_PUBLICA","cod_imovel":"RJ-3304102-E7A59F0C1B60424F93E9D3CB6E1CABAE","num_area":"0.9859000000000000000000000000000","ind_status":"AT"},"geometry":{"type":"Polygon","coordinates":[[[-42.0437,-20.9351],[-42.0378,-20.946],[-42.046,-20.94],[-42.0439,-20.9353],[-42.0437,-20.9351]],[[-42.0433,-20.9347],[-42.046,-20.9398],[-42.0378,-20.946],[-42.0433,-20.9348],[-42.0433,-20.9347]]]}},{"type":"Feature","properties":{"cod_tema":"AREA_SERVIDAO_ADMINISTRATIVA_TOTAL","cod_imovel":"RJ-3304102-E7A59F0C1B60424F93E9D3CB6E1CABAE","num_area":"0.9859000000000000000000000000000","ind_status":"AT"},"geometry":{"type":"Polygon","coordinates":[[[-42.0437,-20.9351],[-42.0378,-20.946],[-42.046,-20.94],[-42.0439,-20.9353],[-42.0437,-20.9351]],[[-42.0433,-20.9347],[-42.046,-20.9398],[-42.0378,-20.946],[-42.0433,-20.9348],[-42.0433,-20.9347]]]}},{"type":"Feature","properties":{"cod_tema":"AREA_INFRAESTRUTURA_PUBLICA","cod_imovel":"RJ-3304102-1E1DD690DEA3424F8C06569D1B22F918","num_area":"0.1961000000000000000000000000000","ind_status":"AT"},"geometry":{"type":"Polygon","coordinates":[[[-42.1047,-20.9547],[-42.1073,-20.9517],[-42.1048,-20.9546],[-42.1047,-20.9547]]]}},{"type":"Feature","properties":{"cod_tema":"AREA_SERVIDAO_ADMINISTRATIVA_TOTAL","cod_imovel":"RJ-3304102-1E1DD690DEA3424F8C06569D1B22F918","num_area":"0.1961000000000000000000000000000","ind_status":"AT"},"geometry":{"type":"Polygon","coordinates":[[[-42.1047,-20.9547],[-42.1073,-20.9517],[-42.1048,-20.9546],[-42.1047,-20.9547]]]}},{"type":"Feature","properties":{"cod_tema":"AREA_INFRAESTRUTURA_PUBLICA","cod_imovel":"RJ-3304102-45101FFBF57744DDB12B250AA4582CBC","num_area":"0.3971000000000000000000000000000","ind_status":"AT"},"geometry":{"type":"Polygon","coordinates":[[[-41.9832,-20.9539],[-41.9876,-20.9538],[-41.9831,-20.9539],[-41.9832,-20.9539]]]}},{"type":"Feature","properties":{"cod_tema":"AREA_SERVIDAO_ADMINISTRATIVA_TOTAL","cod_imovel":"RJ-3304102-45101FFBF57744DDB12B250AA4582CBC","num_area":"0.3971000000000000000000000000000","ind_status":"AT"},"geometry":{"type":"Polygon","coordinates":[[[-41.9832,-20.9539],[-41.9876,-20.9538],[-41.9831,-20.9539],[-41.9832,-20.9539]]]}},{"type":"Feature","properties":{"cod_tema":"AREA_UTILIDADE_PUBLICA","cod_imovel":"RJ-3304102-DCBDF5DEB4F74E8DB990A773F702879F","num_area":"0.5029000000000000000000000000000","ind_status":"AT"},"geometry":{"type":"Polygon","coordinates":[[[-42.091,-20.9594],[-42.0977,-20.9614],[-42.091,-20.9596],[-42.091,-20.9594]]]}},{"type":"Feature","properties":{"cod_tema":"AREA_SERVIDAO_ADMINISTRATIVA_TOTAL","cod_imovel":"RJ-3304102-DCBDF5DEB4F74E8DB990A773F702879F","num_area":"0.5029000000000000000000000000000","ind_status":"AT"},"geometry":{"type":"Polygon","coordinates":[[[-42.091,-20.9594],[-42.0977,-20.9614],[-42.091,-20.9596],[-42.091,-20.9594]]]}},{"type":"Feature","properties":{"cod_tema":"AREA_UTILIDADE_PUBLICA","cod_imovel":"RJ-3304102-E6879E9FE6034E70A0A29D60D37155BC","num_area":"1.4846000000000000000000000000000","ind_status":"AT"},"geometry":{"type":"Polygon","coordinates":[[[-42.0583,-20.9452],[-42.0593,-20.9409],[-42.0581,-20.9453],[-42.0583,-20.9452]]]}},{"type":"Feature","properties":{"cod_tema":"AREA_SERVIDAO_ADMINISTRATIVA_TOTAL","cod_imovel":"RJ-3304102-E6879E9FE6034E70A0A29D60D37155BC","num_area":"1.4846000000000000000000000000000","ind_status":"AT"},"geometry":{"type":"Polygon","coordinates":[[[-42.0583,-20.9452],[-42.0593,-20.9409],[-42.0581,-20.9453],[-42.0583,-20.9452]]]}},{"type":"Feature","properties":{"cod_tema":"AREA_UTILIDADE_PUBLICA","cod_imovel":"RJ-3304102-FFB5160D9E034FFCAD37BEB3791B1DF1","num_area":"0.5357000000000000000000000000000","ind_status":"AT"},"geometry":{"type":"Polygon","coordinates":[[[-42.085,-20.9981],[-42.0866,-21.0013],[-42.085,-20.9982],[-42.085,-20.9981]]]}},{"type":"Feature","properties":{"cod_tema":"AREA_SERVIDAO_ADMINISTRATIVA_TOTAL","cod_imovel":"RJ-3304102-FFB5160D9E034FFCAD37BEB3791B1DF1","num_area":"0.5357000000000000000000000000000","ind_status":"AT"},"geometry":{"type":"Polygon","coordinates":[[[-42.085,-20.9981],[-42.0866,-21.0013],[-42.085,-20.9982],[-42.085,-20.9981]]]}},{"type":"Feature","properties":{"cod_tema":"AREA_INFRAESTRUTURA_PUBLICA","cod_imovel":"RJ-3304102-671B79495FA14F06B5AEEF0E6C40602F","num_area":"3.2933000000000000000000000000000","ind_status":"PE"},"geometry":{"type":"Polygon","coordinates":[[[-41.9719,-20.9616],[-41.9764,-20.9616],[-41.9691,-20.9594],[-41.9723,-20.9543],[-41.978,-20.9527],[-41.9734,-20.9546],[-41.9715,-20.9499],[-41.9719,-20.9615],[-41.9719,-20.9616]],[[-41.9763,-20.9532],[-41.9725,-20.9542],[-41.9762,-20.9532],[-41.9763,-20.9532]]]}},{"type":"Feature","properties":{"cod_tema":"AREA_SERVIDAO_ADMINISTRATIVA_TOTAL","cod_imovel":"RJ-3304102-671B79495FA14F06B5AEEF0E6C40602F","num_area":"3.2933000000000000000000000000000","ind_status":"PE"},"geometry":{"type":"Polygon","coordinates":[[[-41.9719,-20.9616],[-41.9764,-20.9616],[-41.9691,-20.9594],[-41.9723,-20.9543],[-41.978,-20.9527],[-41.9734,-20.9546],[-41.9715,-20.9499],[-41.9719,-20.9615],[-41.9719,-20.9616]],[[-41.9763,-20.9532],[-41.9725,-20.9542],[-41.9762,-20.9532],[-41.9763,-20.9532]]]}},{"type":"Feature","properties":{"cod_tema":"AREA_INFRAESTRUTURA_PUBLICA","cod_imovel":"RJ-3304102-0C463B8A47B144DBB3995D09306BEC41","num_area":"0.2330000000000000000000000000000","ind_status":"AT"},"geometry":{"type":"Polygon","coordinates":[[[-42.0544,-20.9842],[-42.0559,-20.9808],[-42.0544,-20.9841],[-42.0544,-20.9842]]]}},{"type":"Feature","properties":{"cod_tema":"AREA_SERVIDAO_ADMINISTRATIVA_TOTAL","cod_imovel":"RJ-3304102-0C463B8A47B144DBB3995D09306BEC41","num_area":"0.2330000000000000000000000000000","ind_status":"AT"},"geometry":{"type":"Polygon","coordinates":[[[-42.0544,-20.9842],[-42.0559,-20.9808],[-42.0544,-20.9841],[-42.0544,-20.9842]]]}},{"type":"Feature","properties":{"cod_tema":"AREA_INFRAESTRUTURA_PUBLICA","cod_imovel":"RJ-3304102-BCAF6EB7432A4662B200F057ECA5E43E","num_area":"0.2063000000000000000000000000000","ind_status":"AT"},"geometry":{"type":"Polygon","coordinates":[[[-42.0849,-20.9854],[-42.0821,-20.988],[-42.0845,-20.9861],[-42.0849,-20.9854]]]}},{"type":"Feature","properties":{"cod_tema":"AREA_SERVIDAO_ADMINISTRATIVA_TOTAL","cod_imovel":"RJ-3304102-BCAF6EB7432A4662B200F057ECA5E43E","num_area":"0.2063000000000000000000000000000","ind_status":"AT"},"geometry":{"type":"Polygon","coordinates":[[[-42.0849,-20.9854],[-42.0821,-20.988],[-42.0845,-20.9861],[-42.0849,-20.9854]]]}},{"type":"Feature","properties":{"cod_tema":"AREA_UTILIDADE_PUBLICA","cod_imovel":"RJ-3304102-4FA48FE503654EA39F4523A8A052723A","num_area":"0.2727000000000000000000000000000","ind_status":"AT"},"geometry":{"type":"Polygon","coordinates":[[[-42.127,-20.9728],[-42.131,-20.9695],[-42.1271,-20.9727],[-42.127,-20.9728]]]}},{"type":"Feature","properties":{"cod_tema":"AREA_SERVIDAO_ADMINISTRATIVA_TOTAL","cod_imovel":"RJ-3304102-4FA48FE503654EA39F4523A8A052723A","num_area":"0.2727000000000000000000000000000","ind_status":"AT"},"geometry":{"type":"Polygon","coordinates":[[[-42.127,-20.9728],[-42.131,-20.9695],[-42.1271,-20.9727],[-42.127,-20.9728]]]}},{"type":"Feature","properties":{"cod_tema":"AREA_UTILIDADE_PUBLICA","cod_imovel":"RJ-3304102-4D14A93D01C84F3980CF85A54F32793F","num_area":"0.3154000000000000000000000000000","ind_status":"AT"},"geometry":{"type":"Polygon","coordinates":[[[-41.9255,-20.8693],[-41.9292,-20.8684],[-41.9256,-20.8691],[-41.9255,-20.8693]]]}},{"type":"Feature","properties":{"cod_tema":"AREA_SERVIDAO_ADMINISTRATIVA_TOTAL","cod_imovel":"RJ-3304102-4D14A93D01C84F3980CF85A54F32793F","num_area":"0.3154000000000000000000000000000","ind_status":"AT"},"geometry":{"type":"Polygon","coordinates":[[[-41.9255,-20.8693],[-41.9292,-20.8684],[-41.9256,-20.8691],[-41.9255,-20.8693]]]}},{"type":"Feature","properties":{"cod_tema":"AREA_UTILIDADE_PUBLICA","cod_imovel":"RJ-3304102-5D88A3B7F1154C15A5254BC5E646812A","num_area":"0.2994000000000000000000000000000","ind_status":"AT"},"geometry":{"type":"Polygon","coordinates":[[[-42.1073,-20.9517],[-42.1093,-20.9478],[-42.1073,-20.9517],[-42.1073,-20.9517]]]}},{"type":"Feature","properties":{"cod_tema":"AREA_SERVIDAO_ADMINISTRATIVA_TOTAL","cod_imovel":"RJ-3304102-5D88A3B7F1154C15A5254BC5E646812A","num_area":"0.2994000000000000000000000000000","ind_status":"AT"},"geometry":{"type":"Polygon","coordinates":[[[-42.1073,-20.9517],[-42.1093,-20.9478],[-42.1073,-20.9517],[-42.1073,-20.9517]]]}},{"type":"Feature","properties":{"cod_tema":"AREA_UTILIDADE_PUBLICA","cod_imovel":"RJ-3304102-4D02105C6F244E3B8BF4C1E8E5D78A49","num_area":"3.5463000000000000000000000000000","ind_status":"AT"},"geometry":{"type":"Polygon","coordinates":[[[-42.0457,-20.9852],[-42.0502,-20.9878],[-42.0542,-20.9828],[-42.05,-20.9875],[-42.0457,-20.9852],[-42.0457,-20.9852]]]}},{"type":"Feature","properties":{"cod_tema":"AREA_SERVIDAO_ADMINISTRATIVA_TOTAL","cod_imovel":"RJ-3304102-4D02105C6F244E3B8BF4C1E8E5D78A49","num_area":"3.5463000000000000000000000000000","ind_status":"AT"},"geometry":{"type":"Polygon","coordinates":[[[-42.0457,-20.9852],[-42.0502,-20.9878],[-42.0542,-20.9828],[-42.05,-20.9875],[-42.0457,-20.9852],[-42.0457,-20.9852]]]}},{"type":"Feature","properties":{"cod_tema":"AREA_INFRAESTRUTURA_PUBLICA","cod_imovel":"RJ-3304102-93912E7001A34889ADD3673D9C57242C","num_area":"2.7934000000000000000000000000000","ind_status":"AT"},"geometry":{"type":"Polygon","coordinates":[[[-42.0581,-20.9451],[-42.0596,-20.9532],[-42.0583,-20.9447],[-42.0581,-20.9451]]]}},{"type":"Feature","properties":{"cod_tema":"AREA_UTILIDADE_PUBLICA","cod_imovel":"RJ-3304102-93912E7001A34889ADD3673D9C57242C","num_area":"1.0250000000000000000000000000000","ind_status":"AT"},"geometry":{"type":"Polygon","coordinates":[[[-42.0505,-20.9515],[-42.0511,-20.9606],[-42.0564,-20.945],[-42.0505,-20.9515],[-42.0505,-20.9515]]]}},{"type":"Feature","properties":{"cod_tema":"AREA_SERVIDAO_ADMINISTRATIVA_TOTAL","cod_imovel":"RJ-3304102-93912E7001A34889ADD3673D9C57242C","num_area":"3.8184000000000000000000000000000","ind_status":"AT"},"geometry":{"type":"Polygon","coordinates":[[[-42.0581,-20.9451],[-42.0596,-20.9532],[-42.0583,-20.9447],[-42.0581,-20.9451]],[[-42.0505,-20.9515],[-42.0511,-20.9606],[-42.0564,-20.945],[-42.0505,-20.9515],[-42.0505,-20.9515]]]}},{"type":"Feature","properties":{"cod_tema":"AREA_INFRAESTRUTURA_PUBLICA","cod_imovel":"RJ-3304102-37D0E4AD2EE94A0987A1BDD6B59AEDD8","num_area":"0.4705000000000000000000000000000","ind_status":"AT"},"geometry":{"type":"Polygon","coordinates":[[[-41.9322,-20.9197],[-41.928,-20.9207],[-41.9321,-20.9197],[-41.9322,-20.9197]]]}},{"type":"Feature","properties":{"cod_tema":"AREA_SERVIDAO_ADMINISTRATIVA_TOTAL","cod_imovel":"RJ-3304102-37D0E4AD2EE94A0987A1BDD6B59AEDD8","num_area":"0.4705000000000000000000000000000","ind_status":"AT"},"geometry":{"type":"Polygon","coordinates":[[[-41.9322,-20.9197],[-41.928,-20.9207],[-41.9321,-20.9197],[-41.9322,-20.9197]]]}},{"type":"Feature","properties":{"cod_tema":"AREA_INFRAESTRUTURA_PUBLICA","cod_imovel":"RJ-3304102-9B29B9765B82409E8FD58EB2BC852207","num_area":"0.7808000000000000000000000000000","ind_status":"PE"},"geometry":{"type":"Polygon","coordinates":[[[-42.1309,-20.9694],[-42.1394,-20.9637],[-42.1311,-20.9692],[-42.1309,-20.9694]]]}},{"type":"Feature","properties":{"cod_tema":"AREA_SERVIDAO_ADMINISTRATIVA_TOTAL","cod_imovel":"RJ-3304102-9B29B9765B82409E8FD58EB2BC852207","num_area":"0.7808000000000000000000000000000","ind_status":"PE"},"geometry":{"type":"Polygon","coordinates":[[[-42.1309,-20.9694],[-42.1394,-20.9637],[-42.1311,-20.9692],[-42.1309,-20.9694]]]}},{"type":"Feature","properties":{"cod_tema":"AREA_INFRAESTRUTURA_PUBLICA","cod_imovel":"RJ-3304102-6764A812C8084A239B4481125DA441A3","num_area":"3.3973000000000000000000000000000","ind_status":"PE"},"geometry":{"type":"Polygon","coordinates":[[[-42.0067,-21.0019],[-42.0129,-20.9903],[-42.0207,-20.9878],[-42.0128,-20.9902],[-42.007,-21.0015],[-42.0067,-21.0019]]]}},{"type":"Feature","properties":{"cod_tema":"AREA_SERVIDAO_ADMINISTRATIVA_TOTAL","cod_imovel":"RJ-3304102-6764A812C8084A239B4481125DA441A3","num_area":"3.3973000000000000000000000000000","ind_status":"PE"},"geometry":{"type":"Polygon","coordinates":[[[-42.0067,-21.0019],[-42.0129,-20.9903],[-42.0207,-20.9878],[-42.0128,-20.9902],[-42.007,-21.0015],[-42.0067,-21.0019]]]}},{"type":"Feature","properties":{"cod_tema":"AREA_INFRAESTRUTURA_PUBLICA","cod_imovel":"RJ-3304102-F6AA3C26349D48E28430B0563DAFB909","num_area":"0.3990000000000000000000000000000","ind_status":"AT"},"geometry":{"type":"Polygon","coordinates":[[[-41.8651,-20.8301],[-41.8703,-20.8294],[-41.8657,-20.8299],[-41.8651,-20.8301]]]}},{"type":"Feature","properties":{"cod_tema":"AREA_SERVIDAO_ADMINISTRATIVA_TOTAL","cod_imovel":"RJ-3304102-F6AA3C26349D48E28430B0563DAFB909","num_area":"0.3990000000000000000000000000000","ind_status":"AT"},"geometry":{"type":"Polygon","coordinates":[[[-41.8651,-20.8301],[-41.8703,-20.8294],[-41.8657,-20.8299],[-41.8651,-20.8301]]]}}]}