{"type":"FeatureCollection","features":[{"type":"Feature","properties":{"cod_tema":"AREA_UTILIDADE_PUBLICA","cod_imovel":"RJ-3304110-4637C37771D44E6BA87A28BCEF732E19","num_area":"0.6054000000000000000000000000000","ind_status":"AT"},"geometry":{"type":"Polygon","coordinates":[[[-44.3543,-22.4875],[-44.3586,-22.4783],[-44.3543,-22.4875],[-44.3543,-22.4875]]]}},{"type":"Feature","properties":{"cod_tema":"AREA_SERVIDAO_ADMINISTRATIVA_TOTAL","cod_imovel":"RJ-3304110-4637C37771D44E6BA87A28BCEF732E19","num_area":"0.6054000000000000000000000000000","ind_status":"AT"},"geometry":{"type":"Polygon","coordinates":[[[-44.3543,-22.4875],[-44.3586,-22.4783],[-44.3543,-22.4875],[-44.3543,-22.4875]]]}},{"type":"Feature","properties":{"cod_tema":"AREA_INFRAESTRUTURA_PUBLICA","cod_imovel":"RJ-3304110-AA09AFA8E09D430A89FBA21B5AED3E21","num_area":"4.4221000000000000000000000000000","ind_status":"AT"},"geometry":{"type":"Polygon","coordinates":[[[-44.3514,-22.4396],[-44.343,-22.4387],[-44.3456,-22.4351],[-44.3415,-22.4389],[-44.3482,-22.4394],[-44.3514,-22.4396]]]}},{"type":"Feature","properties":{"cod_tema":"AREA_SERVIDAO_ADMINISTRATIVA_TOTAL","cod_imovel":"RJ-3304110-AA09AFA8E09D430A89FBA21B5AED3E21","num_area":"4.4221000000000000000000000000000","ind_status":"AT"},"geometry":{"type":"Polygon","coordinates":[[[-44.3514,-22.4396],[-44.343,-22.4387],[-44.3456,-22.4351],[-44.3415,-22.4389],[-44.3482,-22.4394],[-44.3514,-22.4396]]]}},{"type":"Feature","properties":{"cod_tema":"AREA_INFRAESTRUTURA_PUBLICA","cod_imovel":"RJ-3304110-4D158DE78BE74FA7A60431EB019BFD77","num_area":"1.1162000000000000000000000000000","ind_status":"AT"},"geometry":{"type":"Polygon","coordinates":[[[-44.3012,-22.4433],[-44.2937,-22.4328],[-44.3006,-22.4421],[-44.3012,-22.4433]]]}},{"type":"Feature","properties":{"cod_tema":"AREA_SERVIDAO_ADMINISTRATIVA_TOTAL","cod_imovel":"RJ-3304110-4D158DE78BE74FA7A60431EB019BFD77","num_area":"1.1162000000000000000000000000000","ind_status":"AT"},"geometry":{"type":"Polygon","coordinates":[[[-44.3012,-22.4433],[-44.2937,-22.4328],[-44.3006,-22.4421],[-44.3012,-22.4433]]]}},{"type":"Feature","properties":{"cod_tema":"AREA_UTILIDADE_PUBLICA","cod_imovel":"RJ-3304110-7F9990EE710143C597925A828DDAEBEB","num_area":"0.3929000000000000000000000000000","ind_status":"AT"},"geometry":{"type":"Polygon","coordinates":[[[-44.3129,-22.4457],[-44.3115,-22.4485],[-44.3129,-22.4457],[-44.3129,-22.4457]]]}},{"type":"Feature","properties":{"cod_tema":"AREA_SERVIDAO_ADMINISTRATIVA_TOTAL","cod_imovel":"RJ-3304110-7F9990EE710143C597925A828DDAEBEB","num_area":"0.3929000000000000000000000000000","ind_status":"AT"},"geometry":{"type":"Polygon","coordinates":[[[-44.3129,-22.4457],[-44.3115,-22.4485],[-44.3129,-22.4457],[-44.3129,-22.4457]]]}},{"type":"Feature","properties":{"cod_tema":"AREA_INFRAESTRUTURA_PUBLICA","cod_imovel":"RJ-3304110-C6904DF297244DFA95AFCD9104956A6A","num_area":"1.8104000000000000000000000000000","ind_status":"PE"},"geometry":{"type":"Polygon","coordinates":[[[-44.3666,-22.466],[-44.3617,-22.4654],[-44.3653,-22.4657],[-44.3666,-22.466]],[[-44.3584,-22.4785],[-44.3603,-22.4709],[-44.3584,-22.4784],[-44.3584,-22.4785]]]}},{"type":"Feature","properties":{"cod_tema":"AREA_SERVIDAO_ADMINISTRATIVA_TOTAL","cod_imovel":"RJ-3304110-C6904DF297244DFA95AFCD9104956A6A","num_area":"1.8104000000000000000000000000000","ind_status":"PE"},"geometry":{"type":"Polygon","coordinates":[[[-44.3666,-22.466],[-44.3617,-22.4654],[-44.3653,-22.4657],[-44.3666,-22.466]],[[-44.3584,-22.4785],[-44.3603,-22.4709],[-44.3584,-22.4784],[-44.3584,-22.4785]]]}},{"type":"Feature","properties":{"cod_tema":"AREA_INFRAESTRUTURA_PUBLICA","cod_imovel":"RJ-3304110-0FFC22FBF2694571A84B36DAB28C8C84","num_area":"2.1177000000000000000000000000000","ind_status":"AT"},"geometry":{"type":"Polygon","coordinates":[[[-44.3383,-22.4452],[-44.3316,-22.4463],[-44.3356,-22.4442],[-44.3383,-22.4452]]]}},{"type":"Feature","properties":{"cod_tema":"AREA_SERVIDAO_ADMINISTRATIVA_TOTAL","cod_imovel":"RJ-3304110-0FFC22FBF2694571A84B36DAB28C8C84","num_area":"2.1177000000000000000000000000000","ind_status":"AT"},"geometry":{"type":"Polygon","coordinates":[[[-44.3383,-22.4452],[-44.3316,-22.4463],[-44.3356,-22.4442],[-44.3383,-22.4452]]]}},{"type":"Feature","properties":{"cod_tema":"AREA_UTILIDADE_PUBLICA","cod_imovel":"RJ-3304110-456FCAF3C27242CC848013DF306C2464","num_area":"0.2771000000000000000000000000000","ind_status":"AT"},"geometry":{"type":"Polygon","coordinates":[[[-44.2778,-22.4074],[-44.2754,-22.4101],[-44.2777,-22.4074],[-44.2778,-22.4074]]]}},{"type":"Feature","properties":{"cod_tema":"AREA_SERVIDAO_ADMINISTRATIVA_TOTAL","cod_imovel":"RJ-3304110-456FCAF3C27242CC848013DF306C2464","num_area":"0.2771000000000000000000000000000","ind_status":"AT"},"geometry":{"type":"Polygon","coordinates":[[[-44.2778,-22.4074],[-44.2754,-22.4101],[-44.2777,-22.4074],[-44.2778,-22.4074]]]}}]}