{"type":"FeatureCollection","features":[{"type":"Feature","properties":{"cod_tema":"AREA_INFRAESTRUTURA_PUBLICA","cod_imovel":"RJ-3304557-31B41E5E24A7476DA86DAB7EC74E147C","num_area":"1.1485000000000000000000000000000","ind_status":"AT"},"geometry":{"type":"Polygon","coordinates":[[[-43.696,-22.8847],[-43.6916,-22.8874],[-43.6954,-22.8851],[-43.696,-22.8847]]]}},{"type":"Feature","properties":{"cod_tema":"AREA_SERVIDAO_ADMINISTRATIVA_TOTAL","cod_imovel":"RJ-3304557-31B41E5E24A7476DA86DAB7EC74E147C","num_area":"1.1485000000000000000000000000000","ind_status":"AT"},"geometry":{"type":"Polygon","coordinates":[[[-43.696,-22.8847],[-43.6916,-22.8874],[-43.6954,-22.8851],[-43.696,-22.8847]]]}},{"type":"Feature","properties":{"cod_tema":"AREA_UTILIDADE_PUBLICA","cod_imovel":"RJ-3304557-1D3498A1A08E4F2F9D223D042AE59C4F","num_area":"1.6116000000000000000000000000000","ind_status":"AT"},"geometry":{"type":"Polygon","coordinates":[[[-43.4442,-22.9241],[-43.4403,-22.9238],[-43.4442,-22.9244],[-43.4442,-22.9241]]]}},{"type":"Feature","properties":{"cod_tema":"AREA_SERVIDAO_ADMINISTRATIVA_TOTAL","cod_imovel":"RJ-3304557-1D3498A1A08E4F2F9D223D042AE59C4F","num_area":"1.6116000000000000000000000000000","ind_status":"AT"},"geometry":{"type":"Polygon","coordinates":[[[-43.4442,-22.9241],[-43.4403,-22.9238],[-43.4442,-22.9244],[-43.4442,-22.9241]]]}},{"type":"Feature","properties":{"cod_tema":"AREA_INFRAESTRUTURA_PUBLICA","cod_imovel":"RJ-3304557-56C13EAD7F154A089323BFCB1EF00972","num_area":"2.7439000000000000000000000000000","ind_status":"AT"},"geometry":{"type":"Polygon","coordinates":[[[-43.7124,-22.8863],[-43.7167,-22.8847],[-43.7121,-22.8859],[-43.7124,-22.8863]]]}},{"type":"Feature","properties":{"cod_tema":"AREA_SERVIDAO_ADMINISTRATIVA_TOTAL","cod_imovel":"RJ-3304557-56C13EAD7F154A089323BFCB1EF00972","num_area":"2.7439000000000000000000000000000","ind_status":"AT"},"geometry":{"type":"Polygon","coordinates":[[[-43.7124,-22.8863],[-43.7167,-22.8847],[-43.7121,-22.8859],[-43.7124,-22.8863]]]}},{"type":"Feature","properties":{"cod_tema":"AREA_INFRAESTRUTURA_PUBLICA","cod_imovel":"RJ-3304557-86BBD5B8E6B44682ACE64859921E740E","num_area":"10.875400000000000000000000000000","ind_status":"AT"},"geometry":{"type":"Polygon","coordinates":[[[-43.5966,-22.9943],[-43.5691,-23.0026],[-43.5964,-22.9944],[-43.5966,-22.9943]]]}},{"type":"Feature","properties":{"cod_tema":"AREA_SERVIDAO_ADMINISTRATIVA_TOTAL","cod_imovel":"RJ-3304557-86BBD5B8E6B44682ACE64859921E740E","num_area":"10.875400000000000000000000000000","ind_status":"AT"},"geometry":{"type":"Polygon","coordinates":[[[-43.5966,-22.9943],[-43.5691,-23.0026],[-43.5964,-22.9944],[-43.5966,-22.9943]]]}},{"type":"Feature","properties":{"cod_tema":"AREA_INFRAESTRUTURA_PUBLICA","cod_imovel":"RJ-3304557-52BFA1946D4741669DB508E3377F0E5C","num_area":"13.335300000000000000000000000000","ind_status":"PE"},"geometry":{"type":"Polygon","coordinates":[[[-43.5855,-22.9068],[-43.5972,-22.9098],[-43.592,-22.9081],[-43.5855,-22.9068]]]}},{"type":"Feature","properties":{"cod_tema":"AREA_SERVIDAO_ADMINISTRATIVA_TOTAL","cod_imovel":"RJ-3304557-52BFA1946D4741669DB508E3377F0E5C","num_area":"13.335300000000000000000000000000","ind_status":"PE"},"geometry":{"type":"Polygon","coordinates":[[[-43.5855,-22.9068],[-43.5972,-22.9098],[-43.592,-22.9081],[-43.5855,-22.9068]]]}}]}