{"type":"FeatureCollection","features":[{"type":"Feature","properties":{"cod_tema":"AREA_UTILIDADE_PUBLICA","cod_imovel":"RJ-3305158-050B6BA473D342CDA155B10FF7D80BCC","num_area":"0.3541000000000000000000000000000","ind_status":"AT"},"geometry":{"type":"Polygon","coordinates":[[[-42.9678,-22.2054],[-42.9617,-22.2068],[-42.9678,-22.2055],[-42.9678,-22.2054]]]}},{"type":"Feature","properties":{"cod_tema":"AREA_SERVIDAO_ADMINISTRATIVA_TOTAL","cod_imovel":"RJ-3305158-050B6BA473D342CDA155B10FF7D80BCC","num_area":"0.3541000000000000000000000000000","ind_status":"AT"},"geometry":{"type":"Polygon","coordinates":[[[-42.9678,-22.2054],[-42.9617,-22.2068],[-42.9678,-22.2055],[-42.9678,-22.2054]]]}},{"type":"Feature","properties":{"cod_tema":"AREA_UTILIDADE_PUBLICA","cod_imovel":"RJ-3305158-B9B0B48350714DD88818C781365B5E0A","num_area":"0.2349000000000000000000000000000","ind_status":"AT"},"geometry":{"type":"Polygon","coordinates":[[[-42.9738,-22.1675],[-42.9703,-22.1686],[-42.9737,-22.1675],[-42.9738,-22.1675]]]}},{"type":"Feature","properties":{"cod_tema":"AREA_SERVIDAO_ADMINISTRATIVA_TOTAL","cod_imovel":"RJ-3305158-B9B0B48350714DD88818C781365B5E0A","num_area":"0.2349000000000000000000000000000","ind_status":"AT"},"geometry":{"type":"Polygon","coordinates":[[[-42.9738,-22.1675],[-42.9703,-22.1686],[-42.9737,-22.1675],[-42.9738,-22.1675]]]}},{"type":"Feature","properties":{"cod_tema":"AREA_INFRAESTRUTURA_PUBLICA","cod_imovel":"RJ-3305158-1E0279055D65427CA7FFCE47B30C431E","num_area":"0.0746000000000000000000000000000","ind_status":"AT"},"geometry":{"type":"Polygon","coordinates":[[[-42.915,-22.1472],[-42.9086,-22.1488],[-42.9145,-22.1472],[-42.915,-22.1472]]]}},{"type":"Feature","properties":{"cod_tema":"AREA_UTILIDADE_PUBLICA","cod_imovel":"RJ-3305158-1E0279055D65427CA7FFCE47B30C431E","num_area":"0.4536000000000000000000000000000","ind_status":"AT"},"geometry":{"type":"Polygon","coordinates":[[[-42.915,-22.1472],[-42.9085,-22.1488],[-42.9145,-22.1472],[-42.915,-22.1472]]]}},{"type":"Feature","properties":{"cod_tema":"AREA_SERVIDAO_ADMINISTRATIVA_TOTAL","cod_imovel":"RJ-3305158-1E0279055D65427CA7FFCE47B30C431E","num_area":"0.4677000000000000000000000000000","ind_status":"AT"},"geometry":{"type":"Polygon","coordinates":[[[-42.915,-22.1472],[-42.9085,-22.1488],[-42.9145,-22.1472],[-42.915,-22.1472]]]}},{"type":"Feature","properties":{"cod_tema":"AREA_UTILIDADE_PUBLICA","cod_imovel":"RJ-3305158-812FBF7DBB2A4CE396AF07293591F1EF","num_area":"0.3873000000000000000000000000000","ind_status":"AT"},"geometry":{"type":"Polygon","coordinates":[[[-42.9094,-22.2009],[-42.9147,-22.2],[-42.9097,-22.2006],[-42.9094,-22.2009]]]}},{"type":"Feature","properties":{"cod_tema":"AREA_SERVIDAO_ADMINISTRATIVA_TOTAL","cod_imovel":"RJ-3305158-812FBF7DBB2A4CE396AF07293591F1EF","num_area":"0.3900000000000000000000000000000","ind_status":"AT"},"geometry":{"type":"Polygon","coordinates":[[[-42.9094,-22.2009],[-42.9147,-22.2],[-42.9097,-22.2006],[-42.9094,-22.2009]]]}},{"type":"Feature","properties":{"cod_tema":"AREA_UTILIDADE_PUBLICA","cod_imovel":"RJ-3305158-10CC8891CE644F058D1C6023759993AC","num_area":"0.2504000000000000000000000000000","ind_status":"AT"},"geometry":{"type":"Polygon","coordinates":[[[-42.9697,-22.1022],[-42.9668,-22.1049],[-42.9697,-22.1022],[-42.9697,-22.1022]]]}},{"type":"Feature","properties":{"cod_tema":"AREA_SERVIDAO_ADMINISTRATIVA_TOTAL","cod_imovel":"RJ-3305158-10CC8891CE644F058D1C6023759993AC","num_area":"0.2504000000000000000000000000000","ind_status":"AT"},"geometry":{"type":"Polygon","coordinates":[[[-42.9697,-22.1022],[-42.9668,-22.1049],[-42.9697,-22.1022],[-42.9697,-22.1022]]]}},{"type":"Feature","properties":{"cod_tema":"AREA_UTILIDADE_PUBLICA","cod_imovel":"RJ-3305158-1F8F44540559458B87CF80FC87DD9E8F","num_area":"0.5984000000000000000000000000000","ind_status":"AT"},"geometry":{"type":"Polygon","coordinates":[[[-42.9504,-22.1688],[-42.9487,-22.1642],[-42.9502,-22.1687],[-42.9504,-22.1688]]]}},{"type":"Feature","properties":{"cod_tema":"AREA_SERVIDAO_ADMINISTRATIVA_TOTAL","cod_imovel":"RJ-3305158-1F8F44540559458B87CF80FC87DD9E8F","num_area":"0.5984000000000000000000000000000","ind_status":"AT"},"geometry":{"type":"Polygon","coordinates":[[[-42.9504,-22.1688],[-42.9487,-22.1642],[-42.9502,-22.1687],[-42.9504,-22.1688]]]}},{"type":"Feature","properties":{"cod_tema":"AREA_INFRAESTRUTURA_PUBLICA","cod_imovel":"RJ-3305158-45EF06F8EED449128134130C50B37AC1","num_area":"0.1854000000000000000000000000000","ind_status":"AT"},"geometry":{"type":"Polygon","coordinates":[[[-42.9266,-22.1759],[-42.9274,-22.1723],[-42.9268,-22.1753],[-42.9266,-22.1759]]]}},{"type":"Feature","properties":{"cod_tema":"AREA_SERVIDAO_ADMINISTRATIVA_TOTAL","cod_imovel":"RJ-3305158-45EF06F8EED449128134130C50B37AC1","num_area":"0.1854000000000000000000000000000","ind_status":"AT"},"geometry":{"type":"Polygon","coordinates":[[[-42.9266,-22.1759],[-42.9274,-22.1723],[-42.9268,-22.1753],[-42.9266,-22.1759]]]}},{"type":"Feature","properties":{"cod_tema":"AREA_INFRAESTRUTURA_PUBLICA","cod_imovel":"RJ-3305158-4BF6478DFC804F359105F9CF1494A7F8","num_area":"0.3855000000000000000000000000000","ind_status":"AT"},"geometry":{"type":"Polygon","coordinates":[[[-42.973,-22.0982],[-42.9705,-22.0915],[-42.9733,-22.0972],[-42.973,-22.0982]]]}},{"type":"Feature","properties":{"cod_tema":"AREA_SERVIDAO_ADMINISTRATIVA_TOTAL","cod_imovel":"RJ-3305158-4BF6478DFC804F359105F9CF1494A7F8","num_area":"0.3855000000000000000000000000000","ind_status":"AT"},"geometry":{"type":"Polygon","coordinates":[[[-42.973,-22.0982],[-42.9705,-22.0915],[-42.9733,-22.0972],[-42.973,-22.0982]]]}},{"type":"Feature","properties":{"cod_tema":"AREA_UTILIDADE_PUBLICA","cod_imovel":"RJ-3305158-4E9ACA01FB944DF1AD90299143ABC148","num_area":"1.1250000000000000000000000000000","ind_status":"AT"},"geometry":{"type":"Polygon","coordinates":[[[-42.9435,-22.1386],[-42.9505,-22.1331],[-42.9445,-22.1385],[-42.9435,-22.1386]]]}},{"type":"Feature","properties":{"cod_tema":"AREA_SERVIDAO_ADMINISTRATIVA_TOTAL","cod_imovel":"RJ-3305158-4E9ACA01FB944DF1AD90299143ABC148","num_area":"1.1250000000000000000000000000000","ind_status":"AT"},"geometry":{"type":"Polygon","coordinates":[[[-42.9435,-22.1386],[-42.9505,-22.1331],[-42.9445,-22.1385],[-42.9435,-22.1386]]]}},{"type":"Feature","properties":{"cod_tema":"AREA_UTILIDADE_PUBLICA","cod_imovel":"RJ-3305158-6627C76101574D4D855CB11C4E0589C8","num_area":"0.3411000000000000000000000000000","ind_status":"AT"},"geometry":{"type":"Polygon","coordinates":[[[-42.9879,-22.1658],[-42.9837,-22.1657],[-42.9878,-22.1657],[-42.9879,-22.1658]]]}},{"type":"Feature","properties":{"cod_tema":"AREA_SERVIDAO_ADMINISTRATIVA_TOTAL","cod_imovel":"RJ-3305158-6627C76101574D4D855CB11C4E0589C8","num_area":"0.3411000000000000000000000000000","ind_status":"AT"},"geometry":{"type":"Polygon","coordinates":[[[-42.9879,-22.1658],[-42.9837,-22.1657],[-42.9878,-22.1657],[-42.9879,-22.1658]]]}},{"type":"Feature","properties":{"cod_tema":"AREA_UTILIDADE_PUBLICA","cod_imovel":"RJ-3305158-851C649EDEBB45D0866523E58EBEA589","num_area":"0.4800000000000000000000000000000","ind_status":"AT"},"geometry":{"type":"Polygon","coordinates":[[[-42.9188,-22.2016],[-42.9222,-22.2083],[-42.9188,-22.2017],[-42.9188,-22.2016]]]}},{"type":"Feature","properties":{"cod_tema":"AREA_SERVIDAO_ADMINISTRATIVA_TOTAL","cod_imovel":"RJ-3305158-851C649EDEBB45D0866523E58EBEA589","num_area":"0.4800000000000000000000000000000","ind_status":"AT"},"geometry":{"type":"Polygon","coordinates":[[[-42.9188,-22.2016],[-42.9222,-22.2083],[-42.9188,-22.2017],[-42.9188,-22.2016]]]}},{"type":"Feature","properties":{"cod_tema":"AREA_INFRAESTRUTURA_PUBLICA","cod_imovel":"RJ-3305158-7D3A9A6ECE954EBA9C1CD55031C896D0","num_area":"1.8789000000000000000000000000000","ind_status":"AT"},"geometry":{"type":"Polygon","coordinates":[[[-42.9025,-22.1233],[-42.9087,-22.1121],[-42.9024,-22.123],[-42.9025,-22.1233]],[[-42.9158,-22.1026],[-42.9066,-22.1119],[-42.9154,-22.103],[-42.9158,-22.1026]]]}},{"type":"Feature","properties":{"cod_tema":"AREA_SERVIDAO_ADMINISTRATIVA_TOTAL","cod_imovel":"RJ-3305158-7D3A9A6ECE954EBA9C1CD55031C896D0","num_area":"1.8789000000000000000000000000000","ind_status":"AT"},"geometry":{"type":"Polygon","coordinates":[[[-42.9025,-22.1233],[-42.9087,-22.1121],[-42.9024,-22.123],[-42.9025,-22.1233]],[[-42.9158,-22.1026],[-42.9066,-22.1119],[-42.9154,-22.103],[-42.9158,-22.1026]]]}},{"type":"Feature","properties":{"cod_tema":"AREA_UTILIDADE_PUBLICA","cod_imovel":"RJ-3305158-896B8CE6433D4DCFAF6653338CE2831C","num_area":"0.3436000000000000000000000000000","ind_status":"AT"},"geometry":{"type":"Polygon","coordinates":[[[-42.8784,-22.1431],[-42.8753,-22.1432],[-42.8784,-22.1431],[-42.8784,-22.1431]]]}},{"type":"Feature","properties":{"cod_tema":"AREA_SERVIDAO_ADMINISTRATIVA_TOTAL","cod_imovel":"RJ-3305158-896B8CE6433D4DCFAF6653338CE2831C","num_area":"0.3436000000000000000000000000000","ind_status":"AT"},"geometry":{"type":"Polygon","coordinates":[[[-42.8784,-22.1431],[-42.8753,-22.1432],[-42.8784,-22.1431],[-42.8784,-22.1431]]]}},{"type":"Feature","properties":{"cod_tema":"AREA_UTILIDADE_PUBLICA","cod_imovel":"RJ-3305158-91561D36618641B3AA0AC2212AB006F9","num_area":"0.3691000000000000000000000000000","ind_status":"AT"},"geometry":{"type":"Polygon","coordinates":[[[-42.9539,-22.0995],[-42.9514,-22.0957],[-42.9539,-22.0995],[-42.9539,-22.0995]]]}},{"type":"Feature","properties":{"cod_tema":"AREA_SERVIDAO_ADMINISTRATIVA_TOTAL","cod_imovel":"RJ-3305158-91561D36618641B3AA0AC2212AB006F9","num_area":"0.3691000000000000000000000000000","ind_status":"AT"},"geometry":{"type":"Polygon","coordinates":[[[-42.9539,-22.0995],[-42.9514,-22.0957],[-42.9539,-22.0995],[-42.9539,-22.0995]]]}},{"type":"Feature","properties":{"cod_tema":"AREA_INFRAESTRUTURA_PUBLICA","cod_imovel":"RJ-3305158-9FE8E7CEAB4A4A5788AA9A1DA99AF6E8","num_area":"0.6900000000000000000000000000000","ind_status":"AT"},"geometry":{"type":"Polygon","coordinates":[[[-42.8921,-22.133],[-42.8968,-22.1284],[-42.8926,-22.1326],[-42.8921,-22.133]]]}},{"type":"Feature","properties":{"cod_tema":"AREA_UTILIDADE_PUBLICA","cod_imovel":"RJ-3305158-9FE8E7CEAB4A4A5788AA9A1DA99AF6E8","num_area":"0.1055000000000000000000000000000","ind_status":"AT"},"geometry":{"type":"Polygon","coordinates":[[[-42.892,-22.1329],[-42.8967,-22.1283],[-42.8957,-22.1331],[-42.892,-22.1329]]]}},{"type":"Feature","properties":{"cod_tema":"AREA_SERVIDAO_ADMINISTRATIVA_TOTAL","cod_imovel":"RJ-3305158-9FE8E7CEAB4A4A5788AA9A1DA99AF6E8","num_area":"0.7296000000000000000000000000000","ind_status":"AT"},"geometry":{"type":"Polygon","coordinates":[[[-42.892,-22.1329],[-42.8968,-22.1284],[-42.8921,-22.1329],[-42.892,-22.1329]]]}},{"type":"Feature","properties":{"cod_tema":"AREA_UTILIDADE_PUBLICA","cod_imovel":"RJ-3305158-AA45C3AF360745AEBFE4137989E7E21C","num_area":"0.2150000000000000000000000000000","ind_status":"AT"},"geometry":{"type":"Polygon","coordinates":[[[-42.9524,-22.1722],[-42.9525,-22.1753],[-42.9524,-22.1722],[-42.9524,-22.1722]]]}},{"type":"Feature","properties":{"cod_tema":"AREA_SERVIDAO_ADMINISTRATIVA_TOTAL","cod_imovel":"RJ-3305158-AA45C3AF360745AEBFE4137989E7E21C","num_area":"0.2150000000000000000000000000000","ind_status":"AT"},"geometry":{"type":"Polygon","coordinates":[[[-42.9524,-22.1722],[-42.9525,-22.1753],[-42.9524,-22.1722],[-42.9524,-22.1722]]]}},{"type":"Feature","properties":{"cod_tema":"AREA_INFRAESTRUTURA_PUBLICA","cod_imovel":"RJ-3305158-C73EC81A9BD542B18269EA7C0177E443","num_area":"0.3243000000000000000000000000000","ind_status":"AT"},"geometry":{"type":"Polygon","coordinates":[[[-42.9415,-22.142],[-42.9435,-22.1384],[-42.9413,-22.1416],[-42.9415,-22.142]]]}},{"type":"Feature","properties":{"cod_tema":"AREA_UTILIDADE_PUBLICA","cod_imovel":"RJ-3305158-C73EC81A9BD542B18269EA7C0177E443","num_area":"0.0537000000000000000000000000000","ind_status":"AT"},"geometry":{"type":"Polygon","coordinates":[[[-42.9435,-22.1384],[-42.9415,-22.142],[-42.9427,-22.1385],[-42.9435,-22.1384]]]}},{"type":"Feature","properties":{"cod_tema":"AREA_SERVIDAO_ADMINISTRATIVA_TOTAL","cod_imovel":"RJ-3305158-C73EC81A9BD542B18269EA7C0177E443","num_area":"0.3395000000000000000000000000000","ind_status":"AT"},"geometry":{"type":"Polygon","coordinates":[[[-42.9415,-22.142],[-42.9435,-22.1384],[-42.9413,-22.1416],[-42.9415,-22.142]]]}},{"type":"Feature","properties":{"cod_tema":"AREA_UTILIDADE_PUBLICA","cod_imovel":"RJ-3305158-CD148459280743428B67B8FBB3DB53F9","num_area":"0.2000000000000000000000000000000","ind_status":"AT"},"geometry":{"type":"Polygon","coordinates":[[[-42.8846,-22.1473],[-42.8817,-22.1483],[-42.8846,-22.1474],[-42.8846,-22.1473]]]}},{"type":"Feature","properties":{"cod_tema":"AREA_SERVIDAO_ADMINISTRATIVA_TOTAL","cod_imovel":"RJ-3305158-CD148459280743428B67B8FBB3DB53F9","num_area":"0.2000000000000000000000000000000","ind_status":"AT"},"geometry":{"type":"Polygon","coordinates":[[[-42.8846,-22.1473],[-42.8817,-22.1483],[-42.8846,-22.1474],[-42.8846,-22.1473]]]}},{"type":"Feature","properties":{"cod_tema":"AREA_INFRAESTRUTURA_PUBLICA","cod_imovel":"RJ-3305158-D81D1708D2184FA59AE7F3FF26AAF134","num_area":"0.8324000000000000000000000000000","ind_status":"AT"},"geometry":{"type":"Polygon","coordinates":[[[-42.954,-22.2246],[-42.9469,-22.2233],[-42.9503,-22.2246],[-42.9466,-22.2275],[-42.954,-22.2247],[-42.954,-22.2246]]]}},{"type":"Feature","properties":{"cod_tema":"AREA_SERVIDAO_ADMINISTRATIVA_TOTAL","cod_imovel":"RJ-3305158-D81D1708D2184FA59AE7F3FF26AAF134","num_area":"0.8324000000000000000000000000000","ind_status":"AT"},"geometry":{"type":"Polygon","coordinates":[[[-42.954,-22.2246],[-42.9469,-22.2233],[-42.9503,-22.2246],[-42.9466,-22.2275],[-42.954,-22.2247],[-42.954,-22.2246]]]}},{"type":"Feature","properties":{"cod_tema":"AREA_UTILIDADE_PUBLICA","cod_imovel":"RJ-3305158-E7BA6828B20745EE854EA594E4ECDB85","num_area":"0.7484000000000000000000000000000","ind_status":"AT"},"geometry":{"type":"Polygon","coordinates":[[[-42.948,-22.1625],[-42.939,-22.1657],[-42.9479,-22.1626],[-42.948,-22.1625]]]}},{"type":"Feature","properties":{"cod_tema":"AREA_SERVIDAO_ADMINISTRATIVA_TOTAL","cod_imovel":"RJ-3305158-E7BA6828B20745EE854EA594E4ECDB85","num_area":"0.7484000000000000000000000000000","ind_status":"AT"},"geometry":{"type":"Polygon","coordinates":[[[-42.948,-22.1625],[-42.939,-22.1657],[-42.9479,-22.1626],[-42.948,-22.1625]]]}},{"type":"Feature","properties":{"cod_tema":"AREA_INFRAESTRUTURA_PUBLICA","cod_imovel":"RJ-3305158-E816B49354164065B37481F1EF228DF9","num_area":"0.8081000000000000000000000000000","ind_status":"AT"},"geometry":{"type":"Polygon","coordinates":[[[-42.8683,-22.1115],[-42.8669,-22.1142],[-42.8685,-22.1115],[-42.8683,-22.1115]]]}},{"type":"Feature","properties":{"cod_tema":"AREA_UTILIDADE_PUBLICA","cod_imovel":"RJ-3305158-E816B49354164065B37481F1EF228DF9","num_area":"1.9408000000000000000000000000000","ind_status":"AT"},"geometry":{"type":"Polygon","coordinates":[[[-42.881,-22.1238],[-42.8864,-22.1277],[-42.8813,-22.1242],[-42.881,-22.1238]],[[-42.8669,-22.1339],[-42.8777,-22.1328],[-42.8733,-22.121],[-42.8777,-22.1325],[-42.8722,-22.1336],[-42.874,-22.1209],[-42.8751,-22.1331],[-42.8666,-22.1337],[-42.8669,-22.1339]]]}},{"type":"Feature","properties":{"cod_tema":"AREA_SERVIDAO_ADMINISTRATIVA_TOTAL","cod_imovel":"RJ-3305158-E816B49354164065B37481F1EF228DF9","num_area":"2.7489000000000000000000000000000","ind_status":"AT"},"geometry":{"type":"Polygon","coordinates":[[[-42.8683,-22.1115],[-42.8669,-22.1142],[-42.8685,-22.1115],[-42.8683,-22.1115]],[[-42.881,-22.1238],[-42.8864,-22.1277],[-42.8813,-22.1242],[-42.881,-22.1238]],[[-42.8669,-22.1339],[-42.8777,-22.1328],[-42.8733,-22.121],[-42.8777,-22.1325],[-42.8722,-22.1336],[-42.874,-22.1209],[-42.8751,-22.1331],[-42.8666,-22.1337],[-42.8669,-22.1339]]]}},{"type":"Feature","properties":{"cod_tema":"AREA_UTILIDADE_PUBLICA","cod_imovel":"RJ-3305158-F163DD303DB64CEA9C0931EDE5D5A149","num_area":"2.6365000000000000000000000000000","ind_status":"AT"},"geometry":{"type":"Polygon","coordinates":[[[-42.9259,-22.1464],[-42.9378,-22.1481],[-42.9264,-22.1461],[-42.9279,-22.143],[-42.926,-22.1462],[-42.9259,-22.1464]]]}},{"type":"Feature","properties":{"cod_tema":"AREA_SERVIDAO_ADMINISTRATIVA_TOTAL","cod_imovel":"RJ-3305158-F163DD303DB64CEA9C0931EDE5D5A149","num_area":"2.6365000000000000000000000000000","ind_status":"AT"},"geometry":{"type":"Polygon","coordinates":[[[-42.9259,-22.1464],[-42.9378,-22.1481],[-42.9264,-22.1461],[-42.9279,-22.143],[-42.926,-22.1462],[-42.9259,-22.1464]]]}},{"type":"Feature","properties":{"cod_tema":"AREA_UTILIDADE_PUBLICA","cod_imovel":"RJ-3305158-F4F6EF9737DF41CC92155EA1F0EFF4B8","num_area":"0.3613000000000000000000000000000","ind_status":"AT"},"geometry":{"type":"Polygon","coordinates":[[[-42.9206,-22.1971],[-42.9234,-22.1954],[-42.9206,-22.1971],[-42.9206,-22.1971]]]}},{"type":"Feature","properties":{"cod_tema":"AREA_SERVIDAO_ADMINISTRATIVA_TOTAL","cod_imovel":"RJ-3305158-F4F6EF9737DF41CC92155EA1F0EFF4B8","num_area":"0.3613000000000000000000000000000","ind_status":"AT"},"geometry":{"type":"Polygon","coordinates":[[[-42.9206,-22.1971],[-42.9234,-22.1954],[-42.9206,-22.1971],[-42.9206,-22.1971]]]}},{"type":"Feature","properties":{"cod_tema":"AREA_UTILIDADE_PUBLICA","cod_imovel":"RJ-3305158-FE7DF0C1ADAE427EAE3AC150F038A37E","num_area":"0.4479000000000000000000000000000","ind_status":"AT"},"geometry":{"type":"Polygon","coordinates":[[[-42.995,-22.1875],[-42.9935,-22.182],[-42.9951,-22.1874],[-42.995,-22.1875]]]}},{"type":"Feature","properties":{"cod_tema":"AREA_SERVIDAO_ADMINISTRATIVA_TOTAL","cod_imovel":"RJ-3305158-FE7DF0C1ADAE427EAE3AC150F038A37E","num_area":"0.4479000000000000000000000000000","ind_status":"AT"},"geometry":{"type":"Polygon","coordinates":[[[-42.995,-22.1875],[-42.9935,-22.182],[-42.9951,-22.1874],[-42.995,-22.1875]]]}},{"type":"Feature","properties":{"cod_tema":"AREA_UTILIDADE_PUBLICA","cod_imovel":"RJ-3305158-FF3E10DBB6044820A93111C1E38AD31E","num_area":"0.2028000000000000000000000000000","ind_status":"AT"},"geometry":{"type":"Polygon","coordinates":[[[-42.9896,-22.2397],[-42.9866,-22.2368],[-42.9895,-22.2398],[-42.9896,-22.2397]]]}},{"type":"Feature","properties":{"cod_tema":"AREA_SERVIDAO_ADMINISTRATIVA_TOTAL","cod_imovel":"RJ-3305158-FF3E10DBB6044820A93111C1E38AD31E","num_area":"0.2028000000000000000000000000000","ind_status":"AT"},"geometry":{"type":"Polygon","coordinates":[[[-42.9896,-22.2397],[-42.9866,-22.2368],[-42.9895,-22.2398],[-42.9896,-22.2397]]]}},{"type":"Feature","properties":{"cod_tema":"AREA_UTILIDADE_PUBLICA","cod_imovel":"RJ-3305158-FF71509657454DA08922A8339D98909F","num_area":"0.2917000000000000000000000000000","ind_status":"AT"},"geometry":{"type":"Polygon","coordinates":[[[-42.9194,-22.199],[-42.9188,-22.2022],[-42.9194,-22.1992],[-42.9194,-22.199]]]}},{"type":"Feature","properties":{"cod_tema":"AREA_SERVIDAO_ADMINISTRATIVA_TOTAL","cod_imovel":"RJ-3305158-FF71509657454DA08922A8339D98909F","num_area":"0.2917000000000000000000000000000","ind_status":"AT"},"geometry":{"type":"Polygon","coordinates":[[[-42.9194,-22.199],[-42.9188,-22.2022],[-42.9194,-22.1992],[-42.9194,-22.199]]]}},{"type":"Feature","properties":{"cod_tema":"AREA_UTILIDADE_PUBLICA","cod_imovel":"RJ-3305158-68CF41DE62204B3B83C7611DE83B7A4A","num_area":"0.6950000000000000000000000000000","ind_status":"AT"},"geometry":{"type":"Polygon","coordinates":[[[-42.9232,-22.1493],[-42.9259,-22.1464],[-42.9231,-22.1493],[-42.9232,-22.1493]]]}},{"type":"Feature","properties":{"cod_tema":"AREA_SERVIDAO_ADMINISTRATIVA_TOTAL","cod_imovel":"RJ-3305158-68CF41DE62204B3B83C7611DE83B7A4A","num_area":"0.6950000000000000000000000000000","ind_status":"AT"},"geometry":{"type":"Polygon","coordinates":[[[-42.9232,-22.1493],[-42.9259,-22.1464],[-42.9231,-22.1493],[-42.9232,-22.1493]]]}},{"type":"Feature","properties":{"cod_tema":"AREA_UTILIDADE_PUBLICA","cod_imovel":"RJ-3305158-E5EF4E0AB61245F6A91BEF12D29215D0","num_area":"0.2941000000000000000000000000000","ind_status":"AT"},"geometry":{"type":"Polygon","coordinates":[[[-43.0381,-22.1956],[-43.043,-22.1967],[-43.0382,-22.1956],[-43.0381,-22.1956]]]}},{"type":"Feature","properties":{"cod_tema":"AREA_SERVIDAO_ADMINISTRATIVA_TOTAL","cod_imovel":"RJ-3305158-E5EF4E0AB61245F6A91BEF12D29215D0","num_area":"0.2941000000000000000000000000000","ind_status":"AT"},"geometry":{"type":"Polygon","coordinates":[[[-43.0381,-22.1956],[-43.043,-22.1967],[-43.0382,-22.1956],[-43.0381,-22.1956]]]}},{"type":"Feature","properties":{"cod_tema":"AREA_UTILIDADE_PUBLICA","cod_imovel":"RJ-3305158-BF3A70A5BEF04481BD506D6FB92895B4","num_area":"0.2068000000000000000000000000000","ind_status":"AT"},"geometry":{"type":"Polygon","coordinates":[[[-42.9415,-22.1758],[-42.9391,-22.1787],[-42.9415,-22.1758],[-42.9415,-22.1758]]]}},{"type":"Feature","properties":{"cod_tema":"AREA_SERVIDAO_ADMINISTRATIVA_TOTAL","cod_imovel":"RJ-3305158-BF3A70A5BEF04481BD506D6FB92895B4","num_area":"0.2068000000000000000000000000000","ind_status":"AT"},"geometry":{"type":"Polygon","coordinates":[[[-42.9415,-22.1758],[-42.9391,-22.1787],[-42.9415,-22.1758],[-42.9415,-22.1758]]]}},{"type":"Feature","properties":{"cod_tema":"AREA_UTILIDADE_PUBLICA","cod_imovel":"RJ-3305158-9028BF9A3D0E41628A9AE023994ADC37","num_area":"0.2214000000000000000000000000000","ind_status":"AT"},"geometry":{"type":"Polygon","coordinates":[[[-42.9028,-22.126],[-42.9045,-22.1294],[-42.903,-22.1261],[-42.9028,-22.126]]]}},{"type":"Feature","properties":{"cod_tema":"AREA_SERVIDAO_ADMINISTRATIVA_TOTAL","cod_imovel":"RJ-3305158-9028BF9A3D0E41628A9AE023994ADC37","num_area":"0.2214000000000000000000000000000","ind_status":"AT"},"geometry":{"type":"Polygon","coordinates":[[[-42.9028,-22.126],[-42.9045,-22.1294],[-42.903,-22.1261],[-42.9028,-22.126]]]}},{"type":"Feature","properties":{"cod_tema":"AREA_UTILIDADE_PUBLICA","cod_imovel":"RJ-3305158-DEB060403B38404FB58CCA60E2A3F0F4","num_area":"0.3579000000000000000000000000000","ind_status":"AT"},"geometry":{"type":"Polygon","coordinates":[[[-42.7807,-22.1289],[-42.7794,-22.1333],[-42.7806,-22.1289],[-42.7807,-22.1289]]]}},{"type":"Feature","properties":{"cod_tema":"AREA_SERVIDAO_ADMINISTRATIVA_TOTAL","cod_imovel":"RJ-3305158-DEB060403B38404FB58CCA60E2A3F0F4","num_area":"0.3579000000000000000000000000000","ind_status":"AT"},"geometry":{"type":"Polygon","coordinates":[[[-42.7807,-22.1289],[-42.7794,-22.1333],[-42.7806,-22.1289],[-42.7807,-22.1289]]]}},{"type":"Feature","properties":{"cod_tema":"AREA_INFRAESTRUTURA_PUBLICA","cod_imovel":"RJ-3305158-FB24884475224E9DA5910708BBF6BD7B","num_area":"0.2112000000000000000000000000000","ind_status":"AT"},"geometry":{"type":"Polygon","coordinates":[[[-42.9301,-22.1212],[-42.931,-22.1248],[-42.9301,-22.1213],[-42.9301,-22.1212]]]}},{"type":"Feature","properties":{"cod_tema":"AREA_SERVIDAO_ADMINISTRATIVA_TOTAL","cod_imovel":"RJ-3305158-FB24884475224E9DA5910708BBF6BD7B","num_area":"0.2112000000000000000000000000000","ind_status":"AT"},"geometry":{"type":"Polygon","coordinates":[[[-42.9301,-22.1212],[-42.931,-22.1248],[-42.9301,-22.1213],[-42.9301,-22.1212]]]}},{"type":"Feature","properties":{"cod_tema":"AREA_UTILIDADE_PUBLICA","cod_imovel":"RJ-3305158-3708D5AFABAE41E4B5CDF2C20A59F34D","num_area":"0.3132000000000000000000000000000","ind_status":"PE"},"geometry":{"type":"Polygon","coordinates":[[[-42.9378,-22.1275],[-42.9336,-22.1295],[-42.9375,-22.1277],[-42.9378,-22.1275]]]}},{"type":"Feature","properties":{"cod_tema":"AREA_SERVIDAO_ADMINISTRATIVA_TOTAL","cod_imovel":"RJ-3305158-3708D5AFABAE41E4B5CDF2C20A59F34D","num_area":"0.3132000000000000000000000000000","ind_status":"PE"},"geometry":{"type":"Polygon","coordinates":[[[-42.9378,-22.1275],[-42.9336,-22.1295],[-42.9375,-22.1277],[-42.9378,-22.1275]]]}},{"type":"Feature","properties":{"cod_tema":"AREA_INFRAESTRUTURA_PUBLICA","cod_imovel":"RJ-3305158-173AD63EC5E1494BA47F23384D2EA27E","num_area":"13.203100000000000000000000000000","ind_status":"PE"},"geometry":{"type":"Polygon","coordinates":[[[-42.9943,-22.2371],[-42.9979,-22.2303],[-42.9933,-22.2359],[-42.9814,-22.2282],[-42.9933,-22.2367],[-42.9943,-22.2371]]]}},{"type":"Feature","properties":{"cod_tema":"AREA_SERVIDAO_ADMINISTRATIVA_TOTAL","cod_imovel":"RJ-3305158-173AD63EC5E1494BA47F23384D2EA27E","num_area":"13.203100000000000000000000000000","ind_status":"PE"},"geometry":{"type":"Polygon","coordinates":[[[-42.9943,-22.2371],[-42.9979,-22.2303],[-42.9933,-22.2359],[-42.9814,-22.2282],[-42.9933,-22.2367],[-42.9943,-22.2371]]]}},{"type":"Feature","properties":{"cod_tema":"AREA_UTILIDADE_PUBLICA","cod_imovel":"RJ-3305158-FA72DAACC8E140ECBEF2FED9B2B163E8","num_area":"0.2375000000000000000000000000000","ind_status":"AT"},"geometry":{"type":"Polygon","coordinates":[[[-42.9734,-22.174],[-42.9684,-22.1712],[-42.9712,-22.1731],[-42.9734,-22.174]]]}},{"type":"Feature","properties":{"cod_tema":"AREA_SERVIDAO_ADMINISTRATIVA_TOTAL","cod_imovel":"RJ-3305158-FA72DAACC8E140ECBEF2FED9B2B163E8","num_area":"0.2375000000000000000000000000000","ind_status":"AT"},"geometry":{"type":"Polygon","coordinates":[[[-42.9734,-22.174],[-42.9684,-22.1712],[-42.9712,-22.1731],[-42.9734,-22.174]]]}},{"type":"Feature","properties":{"cod_tema":"AREA_INFRAESTRUTURA_PUBLICA","cod_imovel":"RJ-3305158-D1FD05698B8D4EFBA481628561F9F237","num_area":"0.4711000000000000000000000000000","ind_status":"AT"},"geometry":{"type":"Polygon","coordinates":[[[-43.0211,-22.2149],[-43.0118,-22.2265],[-43.0208,-22.2151],[-43.0211,-22.2149]]]}},{"type":"Feature","properties":{"cod_tema":"AREA_SERVIDAO_ADMINISTRATIVA_TOTAL","cod_imovel":"RJ-3305158-D1FD05698B8D4EFBA481628561F9F237","num_area":"0.4711000000000000000000000000000","ind_status":"AT"},"geometry":{"type":"Polygon","coordinates":[[[-43.0211,-22.2149],[-43.0118,-22.2265],[-43.0208,-22.2151],[-43.0211,-22.2149]]]}},{"type":"Feature","properties":{"cod_tema":"AREA_INFRAESTRUTURA_PUBLICA","cod_imovel":"RJ-3305158-72E69378620E491CA953B86DE676BE3F","num_area":"0.4479000000000000000000000000000","ind_status":"AT"},"geometry":{"type":"Polygon","coordinates":[[[-42.96,-22.2374],[-42.9659,-22.2368],[-42.9603,-22.2376],[-42.96,-22.2374]]]}},{"type":"Feature","properties":{"cod_tema":"AREA_SERVIDAO_ADMINISTRATIVA_TOTAL","cod_imovel":"RJ-3305158-72E69378620E491CA953B86DE676BE3F","num_area":"0.4479000000000000000000000000000","ind_status":"AT"},"geometry":{"type":"Polygon","coordinates":[[[-42.96,-22.2374],[-42.9659,-22.2368],[-42.9603,-22.2376],[-42.96,-22.2374]]]}},{"type":"Feature","properties":{"cod_tema":"AREA_UTILIDADE_PUBLICA","cod_imovel":"RJ-3305158-358C231D949A4324B5A4CD9FBE80DED4","num_area":"1.1455000000000000000000000000000","ind_status":"AT"},"geometry":{"type":"Polygon","coordinates":[[[-42.9486,-22.1696],[-42.9432,-22.1685],[-42.9485,-22.1695],[-42.9411,-22.1761],[-42.9486,-22.1695],[-42.9486,-22.1696]]]}},{"type":"Feature","properties":{"cod_tema":"AREA_SERVIDAO_ADMINISTRATIVA_TOTAL","cod_imovel":"RJ-3305158-358C231D949A4324B5A4CD9FBE80DED4","num_area":"1.1455000000000000000000000000000","ind_status":"AT"},"geometry":{"type":"Polygon","coordinates":[[[-42.9486,-22.1696],[-42.9432,-22.1685],[-42.9485,-22.1695],[-42.9411,-22.1761],[-42.9486,-22.1695],[-42.9486,-22.1696]]]}},{"type":"Feature","properties":{"cod_tema":"AREA_UTILIDADE_PUBLICA","cod_imovel":"RJ-3305158-736D942B52ED42AD8D0B946577BAF43D","num_area":"0.7328000000000000000000000000000","ind_status":"AT"},"geometry":{"type":"Polygon","coordinates":[[[-42.9891,-22.1777],[-42.9808,-22.1777],[-42.9891,-22.1777],[-42.9891,-22.1777]]]}},{"type":"Feature","properties":{"cod_tema":"AREA_SERVIDAO_ADMINISTRATIVA_TOTAL","cod_imovel":"RJ-3305158-736D942B52ED42AD8D0B946577BAF43D","num_area":"0.7328000000000000000000000000000","ind_status":"AT"},"geometry":{"type":"Polygon","coordinates":[[[-42.9891,-22.1777],[-42.9808,-22.1777],[-42.9891,-22.1777],[-42.9891,-22.1777]]]}},{"type":"Feature","properties":{"cod_tema":"AREA_INFRAESTRUTURA_PUBLICA","cod_imovel":"RJ-3305158-027D14E85E1640EE88EC1B411AB26DF5","num_area":"0.3560000000000000000000000000000","ind_status":"AT"},"geometry":{"type":"Polygon","coordinates":[[[-42.9223,-22.208],[-42.9272,-22.2128],[-42.9228,-22.2085],[-42.9223,-22.208]]]}},{"type":"Feature","properties":{"cod_tema":"AREA_SERVIDAO_ADMINISTRATIVA_TOTAL","cod_imovel":"RJ-3305158-027D14E85E1640EE88EC1B411AB26DF5","num_area":"0.3560000000000000000000000000000","ind_status":"AT"},"geometry":{"type":"Polygon","coordinates":[[[-42.9223,-22.208],[-42.9272,-22.2128],[-42.9228,-22.2085],[-42.9223,-22.208]]]}},{"type":"Feature","properties":{"cod_tema":"AREA_UTILIDADE_PUBLICA","cod_imovel":"RJ-3305158-DB7E9A628A4B45F7A504B83C3CB79375","num_area":"2.4772000000000000000000000000000","ind_status":"AT"},"geometry":{"type":"Polygon","coordinates":[[[-42.8804,-22.0995],[-42.902,-22.1113],[-42.8805,-22.0996],[-42.8804,-22.0995]]]}},{"type":"Feature","properties":{"cod_tema":"AREA_SERVIDAO_ADMINISTRATIVA_TOTAL","cod_imovel":"RJ-3305158-DB7E9A628A4B45F7A504B83C3CB79375","num_area":"2.4772000000000000000000000000000","ind_status":"AT"},"geometry":{"type":"Polygon","coordinates":[[[-42.8804,-22.0995],[-42.902,-22.1113],[-42.8805,-22.0996],[-42.8804,-22.0995]]]}},{"type":"Feature","properties":{"cod_tema":"AREA_INFRAESTRUTURA_PUBLICA","cod_imovel":"RJ-3305158-0D7C1C4BDEE844F8ADB57A7688A8EDDD","num_area":"0.3104000000000000000000000000000","ind_status":"AT"},"geometry":{"type":"Polygon","coordinates":[[[-43.0236,-22.2093],[-43.0213,-22.2141],[-43.0235,-22.2094],[-43.0236,-22.2093]]]}},{"type":"Feature","properties":{"cod_tema":"AREA_SERVIDAO_ADMINISTRATIVA_TOTAL","cod_imovel":"RJ-3305158-0D7C1C4BDEE844F8ADB57A7688A8EDDD","num_area":"0.3104000000000000000000000000000","ind_status":"AT"},"geometry":{"type":"Polygon","coordinates":[[[-43.0236,-22.2093],[-43.0213,-22.2141],[-43.0235,-22.2094],[-43.0236,-22.2093]]]}},{"type":"Feature","properties":{"cod_tema":"AREA_UTILIDADE_PUBLICA","cod_imovel":"RJ-3305158-633CF680FE9648398EB3AA70CDF1E4DD","num_area":"0.2313000000000000000000000000000","ind_status":"AT"},"geometry":{"type":"Polygon","coordinates":[[[-42.9704,-22.093],[-42.9698,-22.0889],[-42.9701,-22.0924],[-42.9704,-22.093]]]}},{"type":"Feature","properties":{"cod_tema":"AREA_SERVIDAO_ADMINISTRATIVA_TOTAL","cod_imovel":"RJ-3305158-633CF680FE9648398EB3AA70CDF1E4DD","num_area":"0.2313000000000000000000000000000","ind_status":"AT"},"geometry":{"type":"Polygon","coordinates":[[[-42.9704,-22.093],[-42.9698,-22.0889],[-42.9701,-22.0924],[-42.9704,-22.093]]]}},{"type":"Feature","properties":{"cod_tema":"AREA_UTILIDADE_PUBLICA","cod_imovel":"RJ-3305158-734B1EE4EA7343C29080A64B7CE5674C","num_area":"0.2329000000000000000000000000000","ind_status":"AT"},"geometry":{"type":"Polygon","coordinates":[[[-42.8794,-22.1443],[-42.8813,-22.1475],[-42.8794,-22.1444],[-42.8794,-22.1443]]]}},{"type":"Feature","properties":{"cod_tema":"AREA_SERVIDAO_ADMINISTRATIVA_TOTAL","cod_imovel":"RJ-3305158-734B1EE4EA7343C29080A64B7CE5674C","num_area":"0.2329000000000000000000000000000","ind_status":"AT"},"geometry":{"type":"Polygon","coordinates":[[[-42.8794,-22.1443],[-42.8813,-22.1475],[-42.8794,-22.1444],[-42.8794,-22.1443]]]}},{"type":"Feature","properties":{"cod_tema":"AREA_UTILIDADE_PUBLICA","cod_imovel":"RJ-3305158-D1ED13B60B8A423E9C0E02CA2231BA35","num_area":"0.2039000000000000000000000000000","ind_status":"AT"},"geometry":{"type":"Polygon","coordinates":[[[-42.9788,-22.1628],[-42.9783,-22.1595],[-42.9787,-22.1628],[-42.9788,-22.1628]]]}},{"type":"Feature","properties":{"cod_tema":"AREA_SERVIDAO_ADMINISTRATIVA_TOTAL","cod_imovel":"RJ-3305158-D1ED13B60B8A423E9C0E02CA2231BA35","num_area":"0.2039000000000000000000000000000","ind_status":"AT"},"geometry":{"type":"Polygon","coordinates":[[[-42.9788,-22.1628],[-42.9783,-22.1595],[-42.9787,-22.1628],[-42.9788,-22.1628]]]}},{"type":"Feature","properties":{"cod_tema":"AREA_INFRAESTRUTURA_PUBLICA","cod_imovel":"RJ-3305158-3F124554E73C48978EDF5F47CA0D447D","num_area":"2.2004000000000000000000000000000","ind_status":"AT"},"geometry":{"type":"Polygon","coordinates":[[[-42.961,-22.1319],[-42.9552,-22.1383],[-42.9668,-22.1313],[-42.9612,-22.1318],[-42.961,-22.1319]],[[-42.9662,-22.1166],[-42.9612,-22.1318],[-42.9663,-22.117],[-42.9662,-22.1166]]]}},{"type":"Feature","properties":{"cod_tema":"AREA_SERVIDAO_ADMINISTRATIVA_TOTAL","cod_imovel":"RJ-3305158-3F124554E73C48978EDF5F47CA0D447D","num_area":"2.2004000000000000000000000000000","ind_status":"AT"},"geometry":{"type":"Polygon","coordinates":[[[-42.961,-22.1319],[-42.9552,-22.1383],[-42.9668,-22.1313],[-42.9612,-22.1318],[-42.961,-22.1319]],[[-42.9662,-22.1166],[-42.9612,-22.1318],[-42.9663,-22.117],[-42.9662,-22.1166]]]}},{"type":"Feature","properties":{"cod_tema":"AREA_INFRAESTRUTURA_PUBLICA","cod_imovel":"RJ-3305158-B908B74915FE4D9FAF238CB2A8EDF08D","num_area":"1.7642000000000000000000000000000","ind_status":"AT"},"geometry":{"type":"Polygon","coordinates":[[[-42.9573,-22.1513],[-42.9525,-22.1537],[-42.953,-22.1606],[-42.9492,-22.1577],[-42.9534,-22.1666],[-42.9572,-22.1515],[-42.9573,-22.1513]],[[-42.968,-22.1593],[-42.9685,-22.1666],[-42.9678,-22.1598],[-42.968,-22.1593]]]}},{"type":"Feature","properties":{"cod_tema":"AREA_SERVIDAO_ADMINISTRATIVA_TOTAL","cod_imovel":"RJ-3305158-B908B74915FE4D9FAF238CB2A8EDF08D","num_area":"1.7642000000000000000000000000000","ind_status":"AT"},"geometry":{"type":"Polygon","coordinates":[[[-42.9573,-22.1513],[-42.9525,-22.1537],[-42.953,-22.1606],[-42.9492,-22.1577],[-42.9534,-22.1666],[-42.9572,-22.1515],[-42.9573,-22.1513]],[[-42.968,-22.1593],[-42.9685,-22.1666],[-42.9678,-22.1598],[-42.968,-22.1593]]]}},{"type":"Feature","properties":{"cod_tema":"AREA_INFRAESTRUTURA_PUBLICA","cod_imovel":"RJ-3305158-79CBD1D522364A3F9D0823F89FAAD859","num_area":"1.2750000000000000000000000000000","ind_status":"AT"},"geometry":{"type":"Polygon","coordinates":[[[-42.9571,-22.2118],[-42.9629,-22.2075],[-42.9573,-22.2115],[-42.9571,-22.2118]],[[-42.9573,-22.2091],[-42.962,-22.2068],[-42.9573,-22.2091],[-42.9573,-22.2091]]]}},{"type":"Feature","properties":{"cod_tema":"AREA_SERVIDAO_ADMINISTRATIVA_TOTAL","cod_imovel":"RJ-3305158-79CBD1D522364A3F9D0823F89FAAD859","num_area":"1.2750000000000000000000000000000","ind_status":"AT"},"geometry":{"type":"Polygon","coordinates":[[[-42.9571,-22.2118],[-42.9629,-22.2075],[-42.9573,-22.2115],[-42.9571,-22.2118]],[[-42.9573,-22.2091],[-42.962,-22.2068],[-42.9573,-22.2091],[-42.9573,-22.2091]]]}},{"type":"Feature","properties":{"cod_tema":"AREA_UTILIDADE_PUBLICA","cod_imovel":"RJ-3305158-FC7AEA0C31084AF5A06BE541923CF3B5","num_area":"4.9770000000000000000000000000000","ind_status":"AT"},"geometry":{"type":"Polygon","coordinates":[[[-42.9003,-22.1472],[-42.8958,-22.1473],[-42.9003,-22.1472],[-42.9003,-22.1472]]]}},{"type":"Feature","properties":{"cod_tema":"AREA_SERVIDAO_ADMINISTRATIVA_TOTAL","cod_imovel":"RJ-3305158-FC7AEA0C31084AF5A06BE541923CF3B5","num_area":"4.9770000000000000000000000000000","ind_status":"AT"},"geometry":{"type":"Polygon","coordinates":[[[-42.9003,-22.1472],[-42.8958,-22.1473],[-42.9003,-22.1472],[-42.9003,-22.1472]]]}},{"type":"Feature","properties":{"cod_tema":"AREA_INFRAESTRUTURA_PUBLICA","cod_imovel":"RJ-3305158-C7191896C25D448CABA5728928D32EB5","num_area":"0.3679000000000000000000000000000","ind_status":"AT"},"geometry":{"type":"Polygon","coordinates":[[[-43.0358,-22.1851],[-43.0389,-22.1881],[-43.0361,-22.1853],[-43.0358,-22.1851]]]}},{"type":"Feature","properties":{"cod_tema":"AREA_SERVIDAO_ADMINISTRATIVA_TOTAL","cod_imovel":"RJ-3305158-C7191896C25D448CABA5728928D32EB5","num_area":"0.3679000000000000000000000000000","ind_status":"AT"},"geometry":{"type":"Polygon","coordinates":[[[-43.0358,-22.1851],[-43.0389,-22.1881],[-43.0361,-22.1853],[-43.0358,-22.1851]]]}},{"type":"Feature","properties":{"cod_tema":"AREA_INFRAESTRUTURA_PUBLICA","cod_imovel":"RJ-3305158-B4CD8987798D4D1B9783580A4CC8640E","num_area":"0.3584000000000000000000000000000","ind_status":"AT"},"geometry":{"type":"Polygon","coordinates":[[[-43.032,-22.1784],[-43.0345,-22.1828],[-43.0322,-22.1791],[-43.032,-22.1784]]]}},{"type":"Feature","properties":{"cod_tema":"AREA_SERVIDAO_ADMINISTRATIVA_TOTAL","cod_imovel":"RJ-3305158-B4CD8987798D4D1B9783580A4CC8640E","num_area":"0.3584000000000000000000000000000","ind_status":"AT"},"geometry":{"type":"Polygon","coordinates":[[[-43.032,-22.1784],[-43.0345,-22.1828],[-43.0322,-22.1791],[-43.032,-22.1784]]]}},{"type":"Feature","properties":{"cod_tema":"AREA_UTILIDADE_PUBLICA","cod_imovel":"RJ-3305158-A3F1583747A340D3B071EF82FDB5883F","num_area":"0.2274000000000000000000000000000","ind_status":"AT"},"geometry":{"type":"Polygon","coordinates":[[[-42.9587,-22.2289],[-42.9552,-22.2324],[-42.9587,-22.229],[-42.9587,-22.2289]]]}},{"type":"Feature","properties":{"cod_tema":"AREA_SERVIDAO_ADMINISTRATIVA_TOTAL","cod_imovel":"RJ-3305158-A3F1583747A340D3B071EF82FDB5883F","num_area":"0.2274000000000000000000000000000","ind_status":"AT"},"geometry":{"type":"Polygon","coordinates":[[[-42.9587,-22.2289],[-42.9552,-22.2324],[-42.9587,-22.229],[-42.9587,-22.2289]]]}},{"type":"Feature","properties":{"cod_tema":"AREA_UTILIDADE_PUBLICA","cod_imovel":"RJ-3305158-6C98F151E14D4E39A536B8231FFA1F52","num_area":"0.3414000000000000000000000000000","ind_status":"AT"},"geometry":{"type":"Polygon","coordinates":[[[-42.9654,-22.1156],[-42.9699,-22.1146],[-42.9656,-22.1152],[-42.9654,-22.1156]]]}},{"type":"Feature","properties":{"cod_tema":"AREA_SERVIDAO_ADMINISTRATIVA_TOTAL","cod_imovel":"RJ-3305158-6C98F151E14D4E39A536B8231FFA1F52","num_area":"0.3414000000000000000000000000000","ind_status":"AT"},"geometry":{"type":"Polygon","coordinates":[[[-42.9654,-22.1156],[-42.9699,-22.1146],[-42.9656,-22.1152],[-42.9654,-22.1156]]]}}]}