{"type":"FeatureCollection","features":[{"type":"Feature","properties":{"cod_tema":"AREA_INFRAESTRUTURA_PUBLICA","cod_imovel":"RJ-3305307-E8AC2A5004194E96962AD5405BA686D4","num_area":"0.3460000000000000000000000000000","ind_status":"AT"},"geometry":{"type":"Polygon","coordinates":[[[-42.1816,-21.8841],[-42.1861,-21.8844],[-42.1817,-21.8841],[-42.1816,-21.8841]]]}},{"type":"Feature","properties":{"cod_tema":"AREA_SERVIDAO_ADMINISTRATIVA_TOTAL","cod_imovel":"RJ-3305307-E8AC2A5004194E96962AD5405BA686D4","num_area":"0.3460000000000000000000000000000","ind_status":"AT"},"geometry":{"type":"Polygon","coordinates":[[[-42.1816,-21.8841],[-42.1861,-21.8844],[-42.1817,-21.8841],[-42.1816,-21.8841]]]}},{"type":"Feature","properties":{"cod_tema":"AREA_INFRAESTRUTURA_PUBLICA","cod_imovel":"RJ-3305307-01F78D17D1734442B6612A4E172D255D","num_area":"0.7771000000000000000000000000000","ind_status":"AT"},"geometry":{"type":"Polygon","coordinates":[[[-42.1116,-21.8734],[-42.1087,-21.8683],[-42.1113,-21.873],[-42.1116,-21.8734]]]}},{"type":"Feature","properties":{"cod_tema":"AREA_SERVIDAO_ADMINISTRATIVA_TOTAL","cod_imovel":"RJ-3305307-01F78D17D1734442B6612A4E172D255D","num_area":"0.7771000000000000000000000000000","ind_status":"AT"},"geometry":{"type":"Polygon","coordinates":[[[-42.1116,-21.8734],[-42.1087,-21.8683],[-42.1113,-21.873],[-42.1116,-21.8734]]]}},{"type":"Feature","properties":{"cod_tema":"AREA_UTILIDADE_PUBLICA","cod_imovel":"RJ-3305307-05E171C31C504CCFBA280374FBA26B4A","num_area":"0.2066000000000000000000000000000","ind_status":"AT"},"geometry":{"type":"Polygon","coordinates":[[[-42.213,-22.0105],[-42.216,-22.0079],[-42.213,-22.0105],[-42.213,-22.0105]]]}},{"type":"Feature","properties":{"cod_tema":"AREA_SERVIDAO_ADMINISTRATIVA_TOTAL","cod_imovel":"RJ-3305307-05E171C31C504CCFBA280374FBA26B4A","num_area":"0.2066000000000000000000000000000","ind_status":"AT"},"geometry":{"type":"Polygon","coordinates":[[[-42.213,-22.0105],[-42.216,-22.0079],[-42.213,-22.0105],[-42.213,-22.0105]]]}},{"type":"Feature","properties":{"cod_tema":"AREA_INFRAESTRUTURA_PUBLICA","cod_imovel":"RJ-3305307-0213144805324CACB0F1E463FDEAD4D7","num_area":"1.4301000000000000000000000000000","ind_status":"AT"},"geometry":{"type":"Polygon","coordinates":[[[-42.1948,-21.91],[-42.2012,-21.9119],[-42.2112,-21.9069],[-42.1951,-21.9103],[-42.1948,-21.91]]]}},{"type":"Feature","properties":{"cod_tema":"AREA_SERVIDAO_ADMINISTRATIVA_TOTAL","cod_imovel":"RJ-3305307-0213144805324CACB0F1E463FDEAD4D7","num_area":"1.4301000000000000000000000000000","ind_status":"AT"},"geometry":{"type":"Polygon","coordinates":[[[-42.1948,-21.91],[-42.2012,-21.9119],[-42.2112,-21.9069],[-42.1951,-21.9103],[-42.1948,-21.91]]]}},{"type":"Feature","properties":{"cod_tema":"AREA_INFRAESTRUTURA_PUBLICA","cod_imovel":"RJ-3305307-0482E9F627DF40F4AD8ED4E8252DC46C","num_area":"0.9270000000000000000000000000000","ind_status":"AT"},"geometry":{"type":"Polygon","coordinates":[[[-42.1354,-21.8482],[-42.138,-21.8544],[-42.1354,-21.8482],[-42.1354,-21.8482]],[[-42.124,-21.8494],[-42.1328,-21.8456],[-42.124,-21.8494],[-42.124,-21.8494]]]}},{"type":"Feature","properties":{"cod_tema":"AREA_SERVIDAO_ADMINISTRATIVA_TOTAL","cod_imovel":"RJ-3305307-0482E9F627DF40F4AD8ED4E8252DC46C","num_area":"0.9270000000000000000000000000000","ind_status":"AT"},"geometry":{"type":"Polygon","coordinates":[[[-42.1354,-21.8482],[-42.138,-21.8544],[-42.1354,-21.8482],[-42.1354,-21.8482]],[[-42.124,-21.8494],[-42.1328,-21.8456],[-42.124,-21.8494],[-42.124,-21.8494]]]}},{"type":"Feature","properties":{"cod_tema":"AREA_INFRAESTRUTURA_PUBLICA","cod_imovel":"RJ-3305307-0B0B6B1DF2634849894710E0B80D0E5A","num_area":"0.8531000000000000000000000000000","ind_status":"AT"},"geometry":{"type":"Polygon","coordinates":[[[-42.0748,-21.9088],[-42.0618,-21.9083],[-42.0744,-21.9087],[-42.0748,-21.9088]]]}},{"type":"Feature","properties":{"cod_tema":"AREA_SERVIDAO_ADMINISTRATIVA_TOTAL","cod_imovel":"RJ-3305307-0B0B6B1DF2634849894710E0B80D0E5A","num_area":"0.8531000000000000000000000000000","ind_status":"AT"},"geometry":{"type":"Polygon","coordinates":[[[-42.0748,-21.9088],[-42.0618,-21.9083],[-42.0744,-21.9087],[-42.0748,-21.9088]]]}},{"type":"Feature","properties":{"cod_tema":"AREA_INFRAESTRUTURA_PUBLICA","cod_imovel":"RJ-3305307-18B3D6B516DA424AA5A7F03458120759","num_area":"0.4288000000000000000000000000000","ind_status":"AT"},"geometry":{"type":"Polygon","coordinates":[[[-41.987,-21.7633],[-41.9932,-21.7612],[-41.9875,-21.7635],[-41.987,-21.7633]]]}},{"type":"Feature","properties":{"cod_tema":"AREA_SERVIDAO_ADMINISTRATIVA_TOTAL","cod_imovel":"RJ-3305307-18B3D6B516DA424AA5A7F03458120759","num_area":"0.4288000000000000000000000000000","ind_status":"AT"},"geometry":{"type":"Polygon","coordinates":[[[-41.987,-21.7633],[-41.9932,-21.7612],[-41.9875,-21.7635],[-41.987,-21.7633]]]}},{"type":"Feature","properties":{"cod_tema":"AREA_INFRAESTRUTURA_PUBLICA","cod_imovel":"RJ-3305307-1B6243A2D692403CAF5068C35DD17D5E","num_area":"0.9656000000000000000000000000000","ind_status":"AT"},"geometry":{"type":"Polygon","coordinates":[[[-42.172,-21.8687],[-42.1764,-21.8667],[-42.1825,-21.874],[-42.1765,-21.8667],[-42.1722,-21.8687],[-42.172,-21.8687]]]}},{"type":"Feature","properties":{"cod_tema":"AREA_SERVIDAO_ADMINISTRATIVA_TOTAL","cod_imovel":"RJ-3305307-1B6243A2D692403CAF5068C35DD17D5E","num_area":"0.9656000000000000000000000000000","ind_status":"AT"},"geometry":{"type":"Polygon","coordinates":[[[-42.172,-21.8687],[-42.1764,-21.8667],[-42.1825,-21.874],[-42.1765,-21.8667],[-42.1722,-21.8687],[-42.172,-21.8687]]]}},{"type":"Feature","properties":{"cod_tema":"AREA_INFRAESTRUTURA_PUBLICA","cod_imovel":"RJ-3305307-1CDB3E4293C34704BCDAF03CC32BAE8F","num_area":"0.6196000000000000000000000000000","ind_status":"AT"},"geometry":{"type":"Polygon","coordinates":[[[-42.1553,-21.8956],[-42.158,-21.9085],[-42.1554,-21.8958],[-42.1553,-21.8956]]]}},{"type":"Feature","properties":{"cod_tema":"AREA_SERVIDAO_ADMINISTRATIVA_TOTAL","cod_imovel":"RJ-3305307-1CDB3E4293C34704BCDAF03CC32BAE8F","num_area":"0.6196000000000000000000000000000","ind_status":"AT"},"geometry":{"type":"Polygon","coordinates":[[[-42.1553,-21.8956],[-42.158,-21.9085],[-42.1554,-21.8958],[-42.1553,-21.8956]]]}},{"type":"Feature","properties":{"cod_tema":"AREA_INFRAESTRUTURA_PUBLICA","cod_imovel":"RJ-3305307-1E0D72955510429199BB35DE75A20CEE","num_area":"1.4332000000000000000000000000000","ind_status":"AT"},"geometry":{"type":"Polygon","coordinates":[[[-42.2006,-21.9755],[-42.1933,-21.9743],[-42.1966,-21.9827],[-42.1934,-21.9743],[-42.2016,-21.9759],[-42.2006,-21.9755]]]}},{"type":"Feature","properties":{"cod_tema":"AREA_SERVIDAO_ADMINISTRATIVA_TOTAL","cod_imovel":"RJ-3305307-1E0D72955510429199BB35DE75A20CEE","num_area":"1.4332000000000000000000000000000","ind_status":"AT"},"geometry":{"type":"Polygon","coordinates":[[[-42.2006,-21.9755],[-42.1933,-21.9743],[-42.1966,-21.9827],[-42.1934,-21.9743],[-42.2016,-21.9759],[-42.2006,-21.9755]]]}},{"type":"Feature","properties":{"cod_tema":"AREA_UTILIDADE_PUBLICA","cod_imovel":"RJ-3305307-28864C7C0981487F92DAB3F6FAE56456","num_area":"0.1260000000000000000000000000000","ind_status":"AT"},"geometry":{"type":"Polygon","coordinates":[[[-42.0284,-21.8456],[-42.031,-21.8471],[-42.0284,-21.8456],[-42.0284,-21.8456]]]}},{"type":"Feature","properties":{"cod_tema":"AREA_SERVIDAO_ADMINISTRATIVA_TOTAL","cod_imovel":"RJ-3305307-28864C7C0981487F92DAB3F6FAE56456","num_area":"0.1260000000000000000000000000000","ind_status":"AT"},"geometry":{"type":"Polygon","coordinates":[[[-42.0284,-21.8456],[-42.031,-21.8471],[-42.0284,-21.8456],[-42.0284,-21.8456]]]}},{"type":"Feature","properties":{"cod_tema":"AREA_UTILIDADE_PUBLICA","cod_imovel":"RJ-3305307-33237E2E7D50447CA3D4B731FDA04797","num_area":"0.2810000000000000000000000000000","ind_status":"AT"},"geometry":{"type":"Polygon","coordinates":[[[-42.1249,-21.874],[-42.1166,-21.8768],[-42.1242,-21.8737],[-42.1249,-21.874]]]}},{"type":"Feature","properties":{"cod_tema":"AREA_SERVIDAO_ADMINISTRATIVA_TOTAL","cod_imovel":"RJ-3305307-33237E2E7D50447CA3D4B731FDA04797","num_area":"0.2810000000000000000000000000000","ind_status":"AT"},"geometry":{"type":"Polygon","coordinates":[[[-42.1249,-21.874],[-42.1166,-21.8768],[-42.1242,-21.8737],[-42.1249,-21.874]]]}},{"type":"Feature","properties":{"cod_tema":"AREA_UTILIDADE_PUBLICA","cod_imovel":"RJ-3305307-3A39B67FCE894EE7906A392383F73725","num_area":"0.1859000000000000000000000000000","ind_status":"AT"},"geometry":{"type":"Polygon","coordinates":[[[-42.213,-21.9434],[-42.2095,-21.9455],[-42.213,-21.9434],[-42.213,-21.9434]]]}},{"type":"Feature","properties":{"cod_tema":"AREA_SERVIDAO_ADMINISTRATIVA_TOTAL","cod_imovel":"RJ-3305307-3A39B67FCE894EE7906A392383F73725","num_area":"0.1859000000000000000000000000000","ind_status":"AT"},"geometry":{"type":"Polygon","coordinates":[[[-42.213,-21.9434],[-42.2095,-21.9455],[-42.213,-21.9434],[-42.213,-21.9434]]]}},{"type":"Feature","properties":{"cod_tema":"AREA_UTILIDADE_PUBLICA","cod_imovel":"RJ-3305307-3B930E87D2FD4BBCA0A90248CB90060A","num_area":"0.1835000000000000000000000000000","ind_status":"AT"},"geometry":{"type":"Polygon","coordinates":[[[-41.9944,-21.7848],[-41.9946,-21.7797],[-41.9948,-21.7854],[-41.9944,-21.7848]]]}},{"type":"Feature","properties":{"cod_tema":"AREA_SERVIDAO_ADMINISTRATIVA_TOTAL","cod_imovel":"RJ-3305307-3B930E87D2FD4BBCA0A90248CB90060A","num_area":"0.1835000000000000000000000000000","ind_status":"AT"},"geometry":{"type":"Polygon","coordinates":[[[-41.9944,-21.7848],[-41.9946,-21.7797],[-41.9948,-21.7854],[-41.9944,-21.7848]]]}},{"type":"Feature","properties":{"cod_tema":"AREA_UTILIDADE_PUBLICA","cod_imovel":"RJ-3305307-3D320ED8164548B0A438C759D39BFB10","num_area":"0.1359000000000000000000000000000","ind_status":"AT"},"geometry":{"type":"Polygon","coordinates":[[[-42.059,-21.8755],[-42.0626,-21.8747],[-42.0589,-21.8753],[-42.059,-21.8755]]]}},{"type":"Feature","properties":{"cod_tema":"AREA_SERVIDAO_ADMINISTRATIVA_TOTAL","cod_imovel":"RJ-3305307-3D320ED8164548B0A438C759D39BFB10","num_area":"0.1359000000000000000000000000000","ind_status":"AT"},"geometry":{"type":"Polygon","coordinates":[[[-42.059,-21.8755],[-42.0626,-21.8747],[-42.0589,-21.8753],[-42.059,-21.8755]]]}},{"type":"Feature","properties":{"cod_tema":"AREA_INFRAESTRUTURA_PUBLICA","cod_imovel":"RJ-3305307-42E18BA74B104424AC9C35A6DF8165C0","num_area":"1.3652000000000000000000000000000","ind_status":"AT"},"geometry":{"type":"Polygon","coordinates":[[[-42.2017,-21.9539],[-42.2098,-21.9472],[-42.2014,-21.9534],[-42.2017,-21.9539]]]}},{"type":"Feature","properties":{"cod_tema":"AREA_SERVIDAO_ADMINISTRATIVA_TOTAL","cod_imovel":"RJ-3305307-42E18BA74B104424AC9C35A6DF8165C0","num_area":"1.3652000000000000000000000000000","ind_status":"AT"},"geometry":{"type":"Polygon","coordinates":[[[-42.2017,-21.9539],[-42.2098,-21.9472],[-42.2014,-21.9534],[-42.2017,-21.9539]]]}},{"type":"Feature","properties":{"cod_tema":"AREA_UTILIDADE_PUBLICA","cod_imovel":"RJ-3305307-4696723694D54F86BA9B9982BDC9D4EF","num_area":"0.7963000000000000000000000000000","ind_status":"AT"},"geometry":{"type":"Polygon","coordinates":[[[-42.1285,-21.9487],[-42.1305,-21.9443],[-42.1287,-21.948],[-42.1285,-21.9487]]]}},{"type":"Feature","properties":{"cod_tema":"AREA_SERVIDAO_ADMINISTRATIVA_TOTAL","cod_imovel":"RJ-3305307-4696723694D54F86BA9B9982BDC9D4EF","num_area":"0.7963000000000000000000000000000","ind_status":"AT"},"geometry":{"type":"Polygon","coordinates":[[[-42.1285,-21.9487],[-42.1305,-21.9443],[-42.1287,-21.948],[-42.1285,-21.9487]]]}},{"type":"Feature","properties":{"cod_tema":"AREA_INFRAESTRUTURA_PUBLICA","cod_imovel":"RJ-3305307-498FFC7C69A74B57867E69FA8092F321","num_area":"0.2311000000000000000000000000000","ind_status":"AT"},"geometry":{"type":"Polygon","coordinates":[[[-42.1521,-21.8925],[-42.1501,-21.8901],[-42.1521,-21.8925],[-42.1521,-21.8925]]]}},{"type":"Feature","properties":{"cod_tema":"AREA_SERVIDAO_ADMINISTRATIVA_TOTAL","cod_imovel":"RJ-3305307-498FFC7C69A74B57867E69FA8092F321","num_area":"0.2311000000000000000000000000000","ind_status":"AT"},"geometry":{"type":"Polygon","coordinates":[[[-42.1521,-21.8925],[-42.1501,-21.8901],[-42.1521,-21.8925],[-42.1521,-21.8925]]]}},{"type":"Feature","properties":{"cod_tema":"AREA_UTILIDADE_PUBLICA","cod_imovel":"RJ-3305307-4CDB07D2D4DF4745AB6274FEFC5FB1CD","num_area":"0.3373000000000000000000000000000","ind_status":"AT"},"geometry":{"type":"Polygon","coordinates":[[[-42.0875,-21.9569],[-42.0948,-21.9536],[-42.0869,-21.9569],[-42.0875,-21.9569]]]}},{"type":"Feature","properties":{"cod_tema":"AREA_SERVIDAO_ADMINISTRATIVA_TOTAL","cod_imovel":"RJ-3305307-4CDB07D2D4DF4745AB6274FEFC5FB1CD","num_area":"0.3373000000000000000000000000000","ind_status":"AT"},"geometry":{"type":"Polygon","coordinates":[[[-42.0875,-21.9569],[-42.0948,-21.9536],[-42.0869,-21.9569],[-42.0875,-21.9569]]]}},{"type":"Feature","properties":{"cod_tema":"AREA_INFRAESTRUTURA_PUBLICA","cod_imovel":"RJ-3305307-526BD43712BC4D9092B17BC091F547F0","num_area":"0.1299000000000000000000000000000","ind_status":"AT"},"geometry":{"type":"Polygon","coordinates":[[[-42.0417,-21.8189],[-42.0448,-21.821],[-42.0417,-21.8186],[-42.0417,-21.8189]]]}},{"type":"Feature","properties":{"cod_tema":"AREA_SERVIDAO_ADMINISTRATIVA_TOTAL","cod_imovel":"RJ-3305307-526BD43712BC4D9092B17BC091F547F0","num_area":"0.1299000000000000000000000000000","ind_status":"AT"},"geometry":{"type":"Polygon","coordinates":[[[-42.0417,-21.8189],[-42.0448,-21.821],[-42.0417,-21.8186],[-42.0417,-21.8189]]]}},{"type":"Feature","properties":{"cod_tema":"AREA_UTILIDADE_PUBLICA","cod_imovel":"RJ-3305307-506D913DF68E461D9E263CC8E0779395","num_area":"0.3094000000000000000000000000000","ind_status":"AT"},"geometry":{"type":"Polygon","coordinates":[[[-42.1753,-21.9478],[-42.1759,-21.9512],[-42.1751,-21.9476],[-42.1753,-21.9478]]]}},{"type":"Feature","properties":{"cod_tema":"AREA_SERVIDAO_ADMINISTRATIVA_TOTAL","cod_imovel":"RJ-3305307-506D913DF68E461D9E263CC8E0779395","num_area":"0.3094000000000000000000000000000","ind_status":"AT"},"geometry":{"type":"Polygon","coordinates":[[[-42.1753,-21.9478],[-42.1759,-21.9512],[-42.1751,-21.9476],[-42.1753,-21.9478]]]}},{"type":"Feature","properties":{"cod_tema":"AREA_UTILIDADE_PUBLICA","cod_imovel":"RJ-3305307-5451434CE0EF48409E2B1850C198AC7E","num_area":"0.6387000000000000000000000000000","ind_status":"AT"},"geometry":{"type":"Polygon","coordinates":[[[-42.0465,-21.8958],[-42.0435,-21.8895],[-42.0469,-21.8968],[-42.0465,-21.8958]]]}},{"type":"Feature","properties":{"cod_tema":"AREA_SERVIDAO_ADMINISTRATIVA_TOTAL","cod_imovel":"RJ-3305307-5451434CE0EF48409E2B1850C198AC7E","num_area":"0.6387000000000000000000000000000","ind_status":"AT"},"geometry":{"type":"Polygon","coordinates":[[[-42.0465,-21.8958],[-42.0435,-21.8895],[-42.0469,-21.8968],[-42.0465,-21.8958]]]}},{"type":"Feature","properties":{"cod_tema":"AREA_INFRAESTRUTURA_PUBLICA","cod_imovel":"RJ-3305307-57B62D0704B6460B8B03262A0432BD8F","num_area":"0.5451000000000000000000000000000","ind_status":"AT"},"geometry":{"type":"Polygon","coordinates":[[[-41.9376,-21.7419],[-41.942,-21.7409],[-41.9382,-21.742],[-41.9376,-21.7419]]]}},{"type":"Feature","properties":{"cod_tema":"AREA_SERVIDAO_ADMINISTRATIVA_TOTAL","cod_imovel":"RJ-3305307-57B62D0704B6460B8B03262A0432BD8F","num_area":"0.5451000000000000000000000000000","ind_status":"AT"},"geometry":{"type":"Polygon","coordinates":[[[-41.9376,-21.7419],[-41.942,-21.7409],[-41.9382,-21.742],[-41.9376,-21.7419]]]}},{"type":"Feature","properties":{"cod_tema":"AREA_UTILIDADE_PUBLICA","cod_imovel":"RJ-3305307-5A3FBA03ECBE4453BD41A3A3E8BC9131","num_area":"0.1148000000000000000000000000000","ind_status":"AT"},"geometry":{"type":"Polygon","coordinates":[[[-42.1875,-21.9801],[-42.1921,-21.9783],[-42.188,-21.9801],[-42.1875,-21.9801]]]}},{"type":"Feature","properties":{"cod_tema":"AREA_SERVIDAO_ADMINISTRATIVA_TOTAL","cod_imovel":"RJ-3305307-5A3FBA03ECBE4453BD41A3A3E8BC9131","num_area":"0.1148000000000000000000000000000","ind_status":"AT"},"geometry":{"type":"Polygon","coordinates":[[[-42.1875,-21.9801],[-42.1921,-21.9783],[-42.188,-21.9801],[-42.1875,-21.9801]]]}},{"type":"Feature","properties":{"cod_tema":"AREA_UTILIDADE_PUBLICA","cod_imovel":"RJ-3305307-5AFDEA7061FD4796A4E793C17CAFF235","num_area":"0.3022000000000000000000000000000","ind_status":"AT"},"geometry":{"type":"Polygon","coordinates":[[[-42.1136,-21.9675],[-42.1116,-21.9719],[-42.1132,-21.9681],[-42.1136,-21.9675]]]}},{"type":"Feature","properties":{"cod_tema":"AREA_SERVIDAO_ADMINISTRATIVA_TOTAL","cod_imovel":"RJ-3305307-5AFDEA7061FD4796A4E793C17CAFF235","num_area":"0.3022000000000000000000000000000","ind_status":"AT"},"geometry":{"type":"Polygon","coordinates":[[[-42.1136,-21.9675],[-42.1116,-21.9719],[-42.1132,-21.9681],[-42.1136,-21.9675]]]}},{"type":"Feature","properties":{"cod_tema":"AREA_INFRAESTRUTURA_PUBLICA","cod_imovel":"RJ-3305307-5C0B9A95E4BA4E2391390C29141FB436","num_area":"0.7826000000000000000000000000000","ind_status":"AT"},"geometry":{"type":"Polygon","coordinates":[[[-42.0368,-21.8194],[-42.0418,-21.8187],[-42.0408,-21.811],[-42.0368,-21.8194],[-42.0368,-21.8194]]]}},{"type":"Feature","properties":{"cod_tema":"AREA_SERVIDAO_ADMINISTRATIVA_TOTAL","cod_imovel":"RJ-3305307-5C0B9A95E4BA4E2391390C29141FB436","num_area":"0.7826000000000000000000000000000","ind_status":"AT"},"geometry":{"type":"Polygon","coordinates":[[[-42.0368,-21.8194],[-42.0418,-21.8187],[-42.0408,-21.811],[-42.0368,-21.8194],[-42.0368,-21.8194]]]}},{"type":"Feature","properties":{"cod_tema":"AREA_INFRAESTRUTURA_PUBLICA","cod_imovel":"RJ-3305307-5F96E56DC34041A5A1B11BE1BC5E38B4","num_area":"2.2828000000000000000000000000000","ind_status":"AT"},"geometry":{"type":"Polygon","coordinates":[[[-41.9656,-21.7425],[-41.9672,-21.7342],[-41.9744,-21.7359],[-41.974,-21.7395],[-41.9745,-21.7359],[-41.9634,-21.7342],[-41.9689,-21.7376],[-41.9662,-21.7421],[-41.9656,-21.7425]]]}},{"type":"Feature","properties":{"cod_tema":"AREA_SERVIDAO_ADMINISTRATIVA_TOTAL","cod_imovel":"RJ-3305307-5F96E56DC34041A5A1B11BE1BC5E38B4","num_area":"2.2828000000000000000000000000000","ind_status":"AT"},"geometry":{"type":"Polygon","coordinates":[[[-41.9656,-21.7425],[-41.9672,-21.7342],[-41.9744,-21.7359],[-41.974,-21.7395],[-41.9745,-21.7359],[-41.9634,-21.7342],[-41.9689,-21.7376],[-41.9662,-21.7421],[-41.9656,-21.7425]]]}},{"type":"Feature","properties":{"cod_tema":"AREA_UTILIDADE_PUBLICA","cod_imovel":"RJ-3305307-62725BEC8C734B028B30229F641D7D60","num_area":"0.1663000000000000000000000000000","ind_status":"AT"},"geometry":{"type":"Polygon","coordinates":[[[-42.1461,-21.8653],[-42.1488,-21.8698],[-42.1461,-21.8653],[-42.1461,-21.8653]]]}},{"type":"Feature","properties":{"cod_tema":"AREA_SERVIDAO_ADMINISTRATIVA_TOTAL","cod_imovel":"RJ-3305307-62725BEC8C734B028B30229F641D7D60","num_area":"0.1663000000000000000000000000000","ind_status":"AT"},"geometry":{"type":"Polygon","coordinates":[[[-42.1461,-21.8653],[-42.1488,-21.8698],[-42.1461,-21.8653],[-42.1461,-21.8653]]]}},{"type":"Feature","properties":{"cod_tema":"AREA_INFRAESTRUTURA_PUBLICA","cod_imovel":"RJ-3305307-62A0964AA4AB4D5BB1C5250A124F77F9","num_area":"0.7655000000000000000000000000000","ind_status":"AT"},"geometry":{"type":"Polygon","coordinates":[[[-42.1384,-21.9109],[-42.1441,-21.9129],[-42.1389,-21.911],[-42.1384,-21.9109]]]}},{"type":"Feature","properties":{"cod_tema":"AREA_SERVIDAO_ADMINISTRATIVA_TOTAL","cod_imovel":"RJ-3305307-62A0964AA4AB4D5BB1C5250A124F77F9","num_area":"0.7655000000000000000000000000000","ind_status":"AT"},"geometry":{"type":"Polygon","coordinates":[[[-42.1384,-21.9109],[-42.1441,-21.9129],[-42.1389,-21.911],[-42.1384,-21.9109]]]}},{"type":"Feature","properties":{"cod_tema":"AREA_INFRAESTRUTURA_PUBLICA","cod_imovel":"RJ-3305307-659A374DA1EF473C9395CBDD73CF1D8C","num_area":"0.3216000000000000000000000000000","ind_status":"AT"},"geometry":{"type":"Polygon","coordinates":[[[-42.0769,-21.9361],[-42.0783,-21.9313],[-42.0769,-21.936],[-42.0769,-21.9361]]]}},{"type":"Feature","properties":{"cod_tema":"AREA_SERVIDAO_ADMINISTRATIVA_TOTAL","cod_imovel":"RJ-3305307-659A374DA1EF473C9395CBDD73CF1D8C","num_area":"0.3216000000000000000000000000000","ind_status":"AT"},"geometry":{"type":"Polygon","coordinates":[[[-42.0769,-21.9361],[-42.0783,-21.9313],[-42.0769,-21.936],[-42.0769,-21.9361]]]}},{"type":"Feature","properties":{"cod_tema":"AREA_INFRAESTRUTURA_PUBLICA","cod_imovel":"RJ-3305307-67B3971F253A4D6D831A833DC376EDF5","num_area":"0.2291000000000000000000000000000","ind_status":"AT"},"geometry":{"type":"Polygon","coordinates":[[[-42.1549,-21.8787],[-42.1563,-21.8824],[-42.1549,-21.8788],[-42.1549,-21.8787]]]}},{"type":"Feature","properties":{"cod_tema":"AREA_SERVIDAO_ADMINISTRATIVA_TOTAL","cod_imovel":"RJ-3305307-67B3971F253A4D6D831A833DC376EDF5","num_area":"0.2291000000000000000000000000000","ind_status":"AT"},"geometry":{"type":"Polygon","coordinates":[[[-42.1549,-21.8787],[-42.1563,-21.8824],[-42.1549,-21.8788],[-42.1549,-21.8787]]]}},{"type":"Feature","properties":{"cod_tema":"AREA_UTILIDADE_PUBLICA","cod_imovel":"RJ-3305307-6ACB3CCB918D408CB7CC381ADAA9E7A6","num_area":"0.1217000000000000000000000000000","ind_status":"AT"},"geometry":{"type":"Polygon","coordinates":[[[-42.0129,-21.8305],[-42.0157,-21.8289],[-42.013,-21.8303],[-42.0129,-21.8305]]]}},{"type":"Feature","properties":{"cod_tema":"AREA_SERVIDAO_ADMINISTRATIVA_TOTAL","cod_imovel":"RJ-3305307-6ACB3CCB918D408CB7CC381ADAA9E7A6","num_area":"0.1217000000000000000000000000000","ind_status":"AT"},"geometry":{"type":"Polygon","coordinates":[[[-42.0129,-21.8305],[-42.0157,-21.8289],[-42.013,-21.8303],[-42.0129,-21.8305]]]}},{"type":"Feature","properties":{"cod_tema":"AREA_UTILIDADE_PUBLICA","cod_imovel":"RJ-3305307-6C22DA2AA277431EAA39BA78DD21B826","num_area":"0.1068000000000000000000000000000","ind_status":"AT"},"geometry":{"type":"Polygon","coordinates":[[[-42.0959,-21.9029],[-42.0992,-21.906],[-42.0956,-21.9026],[-42.0959,-21.9029]]]}},{"type":"Feature","properties":{"cod_tema":"AREA_SERVIDAO_ADMINISTRATIVA_TOTAL","cod_imovel":"RJ-3305307-6C22DA2AA277431EAA39BA78DD21B826","num_area":"0.1068000000000000000000000000000","ind_status":"AT"},"geometry":{"type":"Polygon","coordinates":[[[-42.0959,-21.9029],[-42.0992,-21.906],[-42.0956,-21.9026],[-42.0959,-21.9029]]]}},{"type":"Feature","properties":{"cod_tema":"AREA_UTILIDADE_PUBLICA","cod_imovel":"RJ-3305307-6FEB14FC22FE42C496DBE06A43FAD418","num_area":"0.2452000000000000000000000000000","ind_status":"AT"},"geometry":{"type":"Polygon","coordinates":[[[-42.1861,-21.875],[-42.1904,-21.8766],[-42.1862,-21.875],[-42.1861,-21.875]]]}},{"type":"Feature","properties":{"cod_tema":"AREA_SERVIDAO_ADMINISTRATIVA_TOTAL","cod_imovel":"RJ-3305307-6FEB14FC22FE42C496DBE06A43FAD418","num_area":"0.2452000000000000000000000000000","ind_status":"AT"},"geometry":{"type":"Polygon","coordinates":[[[-42.1861,-21.875],[-42.1904,-21.8766],[-42.1862,-21.875],[-42.1861,-21.875]]]}},{"type":"Feature","properties":{"cod_tema":"AREA_INFRAESTRUTURA_PUBLICA","cod_imovel":"RJ-3305307-701C295302294729B7706379DCA94ABC","num_area":"0.3205000000000000000000000000000","ind_status":"AT"},"geometry":{"type":"Polygon","coordinates":[[[-42.0529,-21.8755],[-42.0577,-21.8745],[-42.0529,-21.8755],[-42.0529,-21.8755]]]}},{"type":"Feature","properties":{"cod_tema":"AREA_SERVIDAO_ADMINISTRATIVA_TOTAL","cod_imovel":"RJ-3305307-701C295302294729B7706379DCA94ABC","num_area":"0.3205000000000000000000000000000","ind_status":"AT"},"geometry":{"type":"Polygon","coordinates":[[[-42.0529,-21.8755],[-42.0577,-21.8745],[-42.0529,-21.8755],[-42.0529,-21.8755]]]}},{"type":"Feature","properties":{"cod_tema":"AREA_UTILIDADE_PUBLICA","cod_imovel":"RJ-3305307-73142B6F038046D6B144F38C7DB33B14","num_area":"0.0871000000000000000000000000000","ind_status":"AT"},"geometry":{"type":"Polygon","coordinates":[[[-42.1265,-21.975],[-42.1237,-21.9766],[-42.1268,-21.9744],[-42.1265,-21.975]]]}},{"type":"Feature","properties":{"cod_tema":"AREA_SERVIDAO_ADMINISTRATIVA_TOTAL","cod_imovel":"RJ-3305307-73142B6F038046D6B144F38C7DB33B14","num_area":"0.0871000000000000000000000000000","ind_status":"AT"},"geometry":{"type":"Polygon","coordinates":[[[-42.1265,-21.975],[-42.1237,-21.9766],[-42.1268,-21.9744],[-42.1265,-21.975]]]}},{"type":"Feature","properties":{"cod_tema":"AREA_UTILIDADE_PUBLICA","cod_imovel":"RJ-3305307-8176CFFFC7714CBD9189A30B613DEF84","num_area":"0.3435000000000000000000000000000","ind_status":"AT"},"geometry":{"type":"Polygon","coordinates":[[[-41.991,-21.7743],[-41.9904,-21.7707],[-41.991,-21.7743],[-41.991,-21.7743]]]}},{"type":"Feature","properties":{"cod_tema":"AREA_SERVIDAO_ADMINISTRATIVA_TOTAL","cod_imovel":"RJ-3305307-8176CFFFC7714CBD9189A30B613DEF84","num_area":"0.3435000000000000000000000000000","ind_status":"AT"},"geometry":{"type":"Polygon","coordinates":[[[-41.991,-21.7743],[-41.9904,-21.7707],[-41.991,-21.7743],[-41.991,-21.7743]]]}},{"type":"Feature","properties":{"cod_tema":"AREA_UTILIDADE_PUBLICA","cod_imovel":"RJ-3305307-82353F587B294A2EA9080E4105A45D89","num_area":"0.4074000000000000000000000000000","ind_status":"AT"},"geometry":{"type":"Polygon","coordinates":[[[-42.15,-21.8611],[-42.1429,-21.8673],[-42.1479,-21.8612],[-42.15,-21.8611]]]}},{"type":"Feature","properties":{"cod_tema":"AREA_SERVIDAO_ADMINISTRATIVA_TOTAL","cod_imovel":"RJ-3305307-82353F587B294A2EA9080E4105A45D89","num_area":"0.4074000000000000000000000000000","ind_status":"AT"},"geometry":{"type":"Polygon","coordinates":[[[-42.15,-21.8611],[-42.1429,-21.8673],[-42.1479,-21.8612],[-42.15,-21.8611]]]}},{"type":"Feature","properties":{"cod_tema":"AREA_UTILIDADE_PUBLICA","cod_imovel":"RJ-3305307-82C8984FAC614CF7978022955EA314A5","num_area":"0.1372000000000000000000000000000","ind_status":"AT"},"geometry":{"type":"Polygon","coordinates":[[[-42.1171,-21.8441],[-42.1161,-21.8406],[-42.1171,-21.8444],[-42.1171,-21.8441]]]}},{"type":"Feature","properties":{"cod_tema":"AREA_SERVIDAO_ADMINISTRATIVA_TOTAL","cod_imovel":"RJ-3305307-82C8984FAC614CF7978022955EA314A5","num_area":"0.1372000000000000000000000000000","ind_status":"AT"},"geometry":{"type":"Polygon","coordinates":[[[-42.1171,-21.8441],[-42.1161,-21.8406],[-42.1171,-21.8444],[-42.1171,-21.8441]]]}},{"type":"Feature","properties":{"cod_tema":"AREA_INFRAESTRUTURA_PUBLICA","cod_imovel":"RJ-3305307-838CB848D6AF4E16844A58F8E81C4C5E","num_area":"0.7064000000000000000000000000000","ind_status":"AT"},"geometry":{"type":"Polygon","coordinates":[[[-42.2239,-21.9447],[-42.223,-21.9356],[-42.224,-21.9437],[-42.2239,-21.9447]]]}},{"type":"Feature","properties":{"cod_tema":"AREA_SERVIDAO_ADMINISTRATIVA_TOTAL","cod_imovel":"RJ-3305307-838CB848D6AF4E16844A58F8E81C4C5E","num_area":"0.7064000000000000000000000000000","ind_status":"AT"},"geometry":{"type":"Polygon","coordinates":[[[-42.2239,-21.9447],[-42.223,-21.9356],[-42.224,-21.9437],[-42.2239,-21.9447]]]}},{"type":"Feature","properties":{"cod_tema":"AREA_UTILIDADE_PUBLICA","cod_imovel":"RJ-3305307-84B26CD64F874544994F04C510EA25AE","num_area":"0.3188000000000000000000000000000","ind_status":"AT"},"geometry":{"type":"Polygon","coordinates":[[[-42.1703,-21.9472],[-42.1736,-21.9468],[-42.1706,-21.9473],[-42.1703,-21.9472]]]}},{"type":"Feature","properties":{"cod_tema":"AREA_SERVIDAO_ADMINISTRATIVA_TOTAL","cod_imovel":"RJ-3305307-84B26CD64F874544994F04C510EA25AE","num_area":"0.3188000000000000000000000000000","ind_status":"AT"},"geometry":{"type":"Polygon","coordinates":[[[-42.1703,-21.9472],[-42.1736,-21.9468],[-42.1706,-21.9473],[-42.1703,-21.9472]]]}},{"type":"Feature","properties":{"cod_tema":"AREA_UTILIDADE_PUBLICA","cod_imovel":"RJ-3305307-8D7C8DAB133C4DFFBAFBA17C88CFFB69","num_area":"0.1021000000000000000000000000000","ind_status":"AT"},"geometry":{"type":"Polygon","coordinates":[[[-42.1389,-21.9537],[-42.1418,-21.9525],[-42.1389,-21.9537],[-42.1389,-21.9537]]]}},{"type":"Feature","properties":{"cod_tema":"AREA_SERVIDAO_ADMINISTRATIVA_TOTAL","cod_imovel":"RJ-3305307-8D7C8DAB133C4DFFBAFBA17C88CFFB69","num_area":"0.1021000000000000000000000000000","ind_status":"AT"},"geometry":{"type":"Polygon","coordinates":[[[-42.1389,-21.9537],[-42.1418,-21.9525],[-42.1389,-21.9537],[-42.1389,-21.9537]]]}},{"type":"Feature","properties":{"cod_tema":"AREA_INFRAESTRUTURA_PUBLICA","cod_imovel":"RJ-3305307-8DB2D61B41AC439F85BC234C59917A0C","num_area":"0.3254000000000000000000000000000","ind_status":"AT"},"geometry":{"type":"Polygon","coordinates":[[[-42.2229,-21.9257],[-42.2199,-21.9299],[-42.223,-21.9257],[-42.2229,-21.9257]]]}},{"type":"Feature","properties":{"cod_tema":"AREA_SERVIDAO_ADMINISTRATIVA_TOTAL","cod_imovel":"RJ-3305307-8DB2D61B41AC439F85BC234C59917A0C","num_area":"0.3254000000000000000000000000000","ind_status":"AT"},"geometry":{"type":"Polygon","coordinates":[[[-42.2229,-21.9257],[-42.2199,-21.9299],[-42.223,-21.9257],[-42.2229,-21.9257]]]}},{"type":"Feature","properties":{"cod_tema":"AREA_UTILIDADE_PUBLICA","cod_imovel":"RJ-3305307-909D0B160B704486BF18844A719AD6B9","num_area":"0.6522000000000000000000000000000","ind_status":"AT"},"geometry":{"type":"Polygon","coordinates":[[[-42.1009,-21.8183],[-42.0944,-21.8197],[-42.1003,-21.8184],[-42.1009,-21.8183]]]}},{"type":"Feature","properties":{"cod_tema":"AREA_SERVIDAO_ADMINISTRATIVA_TOTAL","cod_imovel":"RJ-3305307-909D0B160B704486BF18844A719AD6B9","num_area":"0.6522000000000000000000000000000","ind_status":"AT"},"geometry":{"type":"Polygon","coordinates":[[[-42.1009,-21.8183],[-42.0944,-21.8197],[-42.1003,-21.8184],[-42.1009,-21.8183]]]}},{"type":"Feature","properties":{"cod_tema":"AREA_UTILIDADE_PUBLICA","cod_imovel":"RJ-3305307-94047B458937401690D115DD8569EE26","num_area":"0.2136000000000000000000000000000","ind_status":"AT"},"geometry":{"type":"Polygon","coordinates":[[[-42.1884,-21.9727],[-42.1882,-21.9662],[-42.1883,-21.9724],[-42.1884,-21.9727]]]}},{"type":"Feature","properties":{"cod_tema":"AREA_SERVIDAO_ADMINISTRATIVA_TOTAL","cod_imovel":"RJ-3305307-94047B458937401690D115DD8569EE26","num_area":"0.2136000000000000000000000000000","ind_status":"AT"},"geometry":{"type":"Polygon","coordinates":[[[-42.1884,-21.9727],[-42.1882,-21.9662],[-42.1883,-21.9724],[-42.1884,-21.9727]]]}},{"type":"Feature","properties":{"cod_tema":"AREA_UTILIDADE_PUBLICA","cod_imovel":"RJ-3305307-962DAFB4FDB64C6587C014F123E2E5CA","num_area":"0.1675000000000000000000000000000","ind_status":"AT"},"geometry":{"type":"Polygon","coordinates":[[[-42.1404,-21.8791],[-42.1445,-21.8824],[-42.1407,-21.8796],[-42.1404,-21.8791]]]}},{"type":"Feature","properties":{"cod_tema":"AREA_SERVIDAO_ADMINISTRATIVA_TOTAL","cod_imovel":"RJ-3305307-962DAFB4FDB64C6587C014F123E2E5CA","num_area":"0.1675000000000000000000000000000","ind_status":"AT"},"geometry":{"type":"Polygon","coordinates":[[[-42.1404,-21.8791],[-42.1445,-21.8824],[-42.1407,-21.8796],[-42.1404,-21.8791]]]}},{"type":"Feature","properties":{"cod_tema":"AREA_INFRAESTRUTURA_PUBLICA","cod_imovel":"RJ-3305307-97F07E7FB69F4C0EBD1315C1B471FE48","num_area":"0.7000000000000000000000000000000","ind_status":"AT"},"geometry":{"type":"Polygon","coordinates":[[[-42.1458,-21.9658],[-42.1547,-21.976],[-42.1458,-21.9651],[-42.1458,-21.9658]]]}},{"type":"Feature","properties":{"cod_tema":"AREA_SERVIDAO_ADMINISTRATIVA_TOTAL","cod_imovel":"RJ-3305307-97F07E7FB69F4C0EBD1315C1B471FE48","num_area":"0.7000000000000000000000000000000","ind_status":"AT"},"geometry":{"type":"Polygon","coordinates":[[[-42.1458,-21.9658],[-42.1547,-21.976],[-42.1458,-21.9651],[-42.1458,-21.9658]]]}},{"type":"Feature","properties":{"cod_tema":"AREA_INFRAESTRUTURA_PUBLICA","cod_imovel":"RJ-3305307-9875FF0DBC5B4A779434A2A8DAB3D7C7","num_area":"1.8151000000000000000000000000000","ind_status":"AT"},"geometry":{"type":"Polygon","coordinates":[[[-42.196,-21.9002],[-42.1798,-21.9166],[-42.1946,-21.9009],[-42.196,-21.9002]]]}},{"type":"Feature","properties":{"cod_tema":"AREA_SERVIDAO_ADMINISTRATIVA_TOTAL","cod_imovel":"RJ-3305307-9875FF0DBC5B4A779434A2A8DAB3D7C7","num_area":"1.8151000000000000000000000000000","ind_status":"AT"},"geometry":{"type":"Polygon","coordinates":[[[-42.196,-21.9002],[-42.1798,-21.9166],[-42.1946,-21.9009],[-42.196,-21.9002]]]}},{"type":"Feature","properties":{"cod_tema":"AREA_INFRAESTRUTURA_PUBLICA","cod_imovel":"RJ-3305307-9AAC046A54034D2BA882964D00C04579","num_area":"0.6141000000000000000000000000000","ind_status":"AT"},"geometry":{"type":"Polygon","coordinates":[[[-42.0611,-21.8729],[-42.0674,-21.8691],[-42.0611,-21.8729],[-42.0611,-21.8729]]]}},{"type":"Feature","properties":{"cod_tema":"AREA_SERVIDAO_ADMINISTRATIVA_TOTAL","cod_imovel":"RJ-3305307-9AAC046A54034D2BA882964D00C04579","num_area":"0.6141000000000000000000000000000","ind_status":"AT"},"geometry":{"type":"Polygon","coordinates":[[[-42.0611,-21.8729],[-42.0674,-21.8691],[-42.0611,-21.8729],[-42.0611,-21.8729]]]}},{"type":"Feature","properties":{"cod_tema":"AREA_UTILIDADE_PUBLICA","cod_imovel":"RJ-3305307-9ABD51AA04074CD2A1125ACADD93C144","num_area":"0.4008000000000000000000000000000","ind_status":"AT"},"geometry":{"type":"Polygon","coordinates":[[[-42.1877,-21.9339],[-42.1936,-21.9317],[-42.1832,-21.9341],[-42.1876,-21.934],[-42.1877,-21.9339]]]}},{"type":"Feature","properties":{"cod_tema":"AREA_SERVIDAO_ADMINISTRATIVA_TOTAL","cod_imovel":"RJ-3305307-9ABD51AA04074CD2A1125ACADD93C144","num_area":"0.4008000000000000000000000000000","ind_status":"AT"},"geometry":{"type":"Polygon","coordinates":[[[-42.1877,-21.9339],[-42.1936,-21.9317],[-42.1832,-21.9341],[-42.1876,-21.934],[-42.1877,-21.9339]]]}},{"type":"Feature","properties":{"cod_tema":"AREA_INFRAESTRUTURA_PUBLICA","cod_imovel":"RJ-3305307-A2059FA388C94C0BB4B69039349C5D12","num_area":"1.4952000000000000000000000000000","ind_status":"AT"},"geometry":{"type":"Polygon","coordinates":[[[-42.074,-21.8658],[-42.0777,-21.8608],[-42.074,-21.8657],[-42.074,-21.8658]],[[-42.088,-21.8616],[-42.0814,-21.8649],[-42.0878,-21.8616],[-42.088,-21.8616]]]}},{"type":"Feature","properties":{"cod_tema":"AREA_SERVIDAO_ADMINISTRATIVA_TOTAL","cod_imovel":"RJ-3305307-A2059FA388C94C0BB4B69039349C5D12","num_area":"1.4952000000000000000000000000000","ind_status":"AT"},"geometry":{"type":"Polygon","coordinates":[[[-42.074,-21.8658],[-42.0777,-21.8608],[-42.074,-21.8657],[-42.074,-21.8658]],[[-42.088,-21.8616],[-42.0814,-21.8649],[-42.0878,-21.8616],[-42.088,-21.8616]]]}},{"type":"Feature","properties":{"cod_tema":"AREA_INFRAESTRUTURA_PUBLICA","cod_imovel":"RJ-3305307-A2B5CD2E65F14FF9844393915A6B726A","num_area":"0.5360000000000000000000000000000","ind_status":"AT"},"geometry":{"type":"Polygon","coordinates":[[[-42.143,-21.8674],[-42.1386,-21.8614],[-42.143,-21.8674],[-42.143,-21.8674]]]}},{"type":"Feature","properties":{"cod_tema":"AREA_SERVIDAO_ADMINISTRATIVA_TOTAL","cod_imovel":"RJ-3305307-A2B5CD2E65F14FF9844393915A6B726A","num_area":"0.5360000000000000000000000000000","ind_status":"AT"},"geometry":{"type":"Polygon","coordinates":[[[-42.143,-21.8674],[-42.1386,-21.8614],[-42.143,-21.8674],[-42.143,-21.8674]]]}},{"type":"Feature","properties":{"cod_tema":"AREA_UTILIDADE_PUBLICA","cod_imovel":"RJ-3305307-A3345870340F49CCAD1C68416095C032","num_area":"0.2008000000000000000000000000000","ind_status":"AT"},"geometry":{"type":"Polygon","coordinates":[[[-42.2126,-21.8925],[-42.2125,-21.8962],[-42.2126,-21.8925],[-42.2126,-21.8925]]]}},{"type":"Feature","properties":{"cod_tema":"AREA_SERVIDAO_ADMINISTRATIVA_TOTAL","cod_imovel":"RJ-3305307-A3345870340F49CCAD1C68416095C032","num_area":"0.2008000000000000000000000000000","ind_status":"AT"},"geometry":{"type":"Polygon","coordinates":[[[-42.2126,-21.8925],[-42.2125,-21.8962],[-42.2126,-21.8925],[-42.2126,-21.8925]]]}},{"type":"Feature","properties":{"cod_tema":"AREA_INFRAESTRUTURA_PUBLICA","cod_imovel":"RJ-3305307-A3CD0D5DEDF440B7AD8FAB45B8FF3FA1","num_area":"0.9040000000000000000000000000000","ind_status":"AT"},"geometry":{"type":"Polygon","coordinates":[[[-42.1997,-21.9537],[-42.196,-21.9496],[-42.1996,-21.9548],[-42.1997,-21.9537]]]}},{"type":"Feature","properties":{"cod_tema":"AREA_SERVIDAO_ADMINISTRATIVA_TOTAL","cod_imovel":"RJ-3305307-A3CD0D5DEDF440B7AD8FAB45B8FF3FA1","num_area":"0.9040000000000000000000000000000","ind_status":"AT"},"geometry":{"type":"Polygon","coordinates":[[[-42.1997,-21.9537],[-42.196,-21.9496],[-42.1996,-21.9548],[-42.1997,-21.9537]]]}},{"type":"Feature","properties":{"cod_tema":"AREA_UTILIDADE_PUBLICA","cod_imovel":"RJ-3305307-ACAB6E1A63B34706910C7CC859D44268","num_area":"0.1987000000000000000000000000000","ind_status":"AT"},"geometry":{"type":"Polygon","coordinates":[[[-42.2052,-21.8836],[-42.2015,-21.8825],[-42.2044,-21.8834],[-42.2052,-21.8836]]]}},{"type":"Feature","properties":{"cod_tema":"AREA_SERVIDAO_ADMINISTRATIVA_TOTAL","cod_imovel":"RJ-3305307-ACAB6E1A63B34706910C7CC859D44268","num_area":"0.1987000000000000000000000000000","ind_status":"AT"},"geometry":{"type":"Polygon","coordinates":[[[-42.2052,-21.8836],[-42.2015,-21.8825],[-42.2044,-21.8834],[-42.2052,-21.8836]]]}},{"type":"Feature","properties":{"cod_tema":"AREA_INFRAESTRUTURA_PUBLICA","cod_imovel":"RJ-3305307-B1D2FADBED3C4E8F8E49957D73626606","num_area":"0.2482000000000000000000000000000","ind_status":"AT"},"geometry":{"type":"Polygon","coordinates":[[[-42.1586,-21.9517],[-42.154,-21.9557],[-42.1585,-21.952],[-42.1586,-21.9517]]]}},{"type":"Feature","properties":{"cod_tema":"AREA_SERVIDAO_ADMINISTRATIVA_TOTAL","cod_imovel":"RJ-3305307-B1D2FADBED3C4E8F8E49957D73626606","num_area":"0.2482000000000000000000000000000","ind_status":"AT"},"geometry":{"type":"Polygon","coordinates":[[[-42.1586,-21.9517],[-42.154,-21.9557],[-42.1585,-21.952],[-42.1586,-21.9517]]]}},{"type":"Feature","properties":{"cod_tema":"AREA_UTILIDADE_PUBLICA","cod_imovel":"RJ-3305307-B299F17FC2EC401DA639A974AC74C920","num_area":"0.3213000000000000000000000000000","ind_status":"AT"},"geometry":{"type":"Polygon","coordinates":[[[-42.0887,-21.9039],[-42.0855,-21.9061],[-42.0911,-21.9094],[-42.0885,-21.9041],[-42.0887,-21.9039]]]}},{"type":"Feature","properties":{"cod_tema":"AREA_SERVIDAO_ADMINISTRATIVA_TOTAL","cod_imovel":"RJ-3305307-B299F17FC2EC401DA639A974AC74C920","num_area":"0.3213000000000000000000000000000","ind_status":"AT"},"geometry":{"type":"Polygon","coordinates":[[[-42.0887,-21.9039],[-42.0855,-21.9061],[-42.0911,-21.9094],[-42.0885,-21.9041],[-42.0887,-21.9039]]]}},{"type":"Feature","properties":{"cod_tema":"AREA_UTILIDADE_PUBLICA","cod_imovel":"RJ-3305307-B3FDDE91E20B42AAB9D093F712F136BF","num_area":"0.2280000000000000000000000000000","ind_status":"AT"},"geometry":{"type":"Polygon","coordinates":[[[-42.0892,-21.9039],[-42.0954,-21.9027],[-42.0887,-21.904],[-42.0892,-21.9039]]]}},{"type":"Feature","properties":{"cod_tema":"AREA_SERVIDAO_ADMINISTRATIVA_TOTAL","cod_imovel":"RJ-3305307-B3FDDE91E20B42AAB9D093F712F136BF","num_area":"0.2280000000000000000000000000000","ind_status":"AT"},"geometry":{"type":"Polygon","coordinates":[[[-42.0892,-21.9039],[-42.0954,-21.9027],[-42.0887,-21.904],[-42.0892,-21.9039]]]}},{"type":"Feature","properties":{"cod_tema":"AREA_UTILIDADE_PUBLICA","cod_imovel":"RJ-3305307-B61EE46CDB654A23ABBAEE3B595E91C1","num_area":"0.2216000000000000000000000000000","ind_status":"AT"},"geometry":{"type":"Polygon","coordinates":[[[-42.0994,-21.9354],[-42.1046,-21.9313],[-42.0994,-21.9353],[-42.0994,-21.9354]]]}},{"type":"Feature","properties":{"cod_tema":"AREA_SERVIDAO_ADMINISTRATIVA_TOTAL","cod_imovel":"RJ-3305307-B61EE46CDB654A23ABBAEE3B595E91C1","num_area":"0.2216000000000000000000000000000","ind_status":"AT"},"geometry":{"type":"Polygon","coordinates":[[[-42.0994,-21.9354],[-42.1046,-21.9313],[-42.0994,-21.9353],[-42.0994,-21.9354]]]}},{"type":"Feature","properties":{"cod_tema":"AREA_UTILIDADE_PUBLICA","cod_imovel":"RJ-3305307-B780BFFF8FD84CD7A20CA5757A0F7412","num_area":"0.6761000000000000000000000000000","ind_status":"AT"},"geometry":{"type":"Polygon","coordinates":[[[-42.2093,-21.8878],[-42.2103,-21.892],[-42.2093,-21.8879],[-42.2093,-21.8878]],[[-42.1963,-21.8997],[-42.1951,-21.8924],[-42.1963,-21.8995],[-42.1963,-21.8997]]]}},{"type":"Feature","properties":{"cod_tema":"AREA_SERVIDAO_ADMINISTRATIVA_TOTAL","cod_imovel":"RJ-3305307-B780BFFF8FD84CD7A20CA5757A0F7412","num_area":"0.6761000000000000000000000000000","ind_status":"AT"},"geometry":{"type":"Polygon","coordinates":[[[-42.2093,-21.8878],[-42.2103,-21.892],[-42.2093,-21.8879],[-42.2093,-21.8878]],[[-42.1963,-21.8997],[-42.1951,-21.8924],[-42.1963,-21.8995],[-42.1963,-21.8997]]]}},{"type":"Feature","properties":{"cod_tema":"AREA_INFRAESTRUTURA_PUBLICA","cod_imovel":"RJ-3305307-B9734AB3B53D4371AA65A944B9AFAB28","num_area":"0.5921000000000000000000000000000","ind_status":"AT"},"geometry":{"type":"Polygon","coordinates":[[[-42.134,-22.0127],[-42.1395,-22.0134],[-42.1342,-22.0125],[-42.134,-22.0127]]]}},{"type":"Feature","properties":{"cod_tema":"AREA_SERVIDAO_ADMINISTRATIVA_TOTAL","cod_imovel":"RJ-3305307-B9734AB3B53D4371AA65A944B9AFAB28","num_area":"0.5921000000000000000000000000000","ind_status":"AT"},"geometry":{"type":"Polygon","coordinates":[[[-42.134,-22.0127],[-42.1395,-22.0134],[-42.1342,-22.0125],[-42.134,-22.0127]]]}},{"type":"Feature","properties":{"cod_tema":"AREA_UTILIDADE_PUBLICA","cod_imovel":"RJ-3305307-BD99650DDEBF4387ABB98919ECBB4990","num_area":"0.4048000000000000000000000000000","ind_status":"AT"},"geometry":{"type":"Polygon","coordinates":[[[-42.1799,-21.955],[-42.1862,-21.9639],[-42.1798,-21.9545],[-42.1799,-21.955]]]}},{"type":"Feature","properties":{"cod_tema":"AREA_SERVIDAO_ADMINISTRATIVA_TOTAL","cod_imovel":"RJ-3305307-BD99650DDEBF4387ABB98919ECBB4990","num_area":"0.4048000000000000000000000000000","ind_status":"AT"},"geometry":{"type":"Polygon","coordinates":[[[-42.1799,-21.955],[-42.1862,-21.9639],[-42.1798,-21.9545],[-42.1799,-21.955]]]}},{"type":"Feature","properties":{"cod_tema":"AREA_INFRAESTRUTURA_PUBLICA","cod_imovel":"RJ-3305307-C2E2A02237104527B4F75E042FA5DDD3","num_area":"0.5660000000000000000000000000000","ind_status":"AT"},"geometry":{"type":"Polygon","coordinates":[[[-42.1207,-21.9888],[-42.1163,-21.9815],[-42.1207,-21.9888],[-42.1207,-21.9888]]]}},{"type":"Feature","properties":{"cod_tema":"AREA_SERVIDAO_ADMINISTRATIVA_TOTAL","cod_imovel":"RJ-3305307-C2E2A02237104527B4F75E042FA5DDD3","num_area":"0.5660000000000000000000000000000","ind_status":"AT"},"geometry":{"type":"Polygon","coordinates":[[[-42.1207,-21.9888],[-42.1163,-21.9815],[-42.1207,-21.9888],[-42.1207,-21.9888]]]}},{"type":"Feature","properties":{"cod_tema":"AREA_UTILIDADE_PUBLICA","cod_imovel":"RJ-3305307-C2F84D6C343C4AE386B4CE3C2283011B","num_area":"0.4368000000000000000000000000000","ind_status":"AT"},"geometry":{"type":"Polygon","coordinates":[[[-41.9742,-21.7397],[-41.9792,-21.7398],[-41.9748,-21.74],[-41.9742,-21.7397]]]}},{"type":"Feature","properties":{"cod_tema":"AREA_SERVIDAO_ADMINISTRATIVA_TOTAL","cod_imovel":"RJ-3305307-C2F84D6C343C4AE386B4CE3C2283011B","num_area":"0.4368000000000000000000000000000","ind_status":"AT"},"geometry":{"type":"Polygon","coordinates":[[[-41.9742,-21.7397],[-41.9792,-21.7398],[-41.9748,-21.74],[-41.9742,-21.7397]]]}},{"type":"Feature","properties":{"cod_tema":"AREA_INFRAESTRUTURA_PUBLICA","cod_imovel":"RJ-3305307-C4EBAB8497A549EE94AB25A50C5C9490","num_area":"0.3277000000000000000000000000000","ind_status":"AT"},"geometry":{"type":"Polygon","coordinates":[[[-42.2503,-21.9568],[-42.2519,-21.9611],[-42.2503,-21.9568],[-42.2503,-21.9568]]]}},{"type":"Feature","properties":{"cod_tema":"AREA_SERVIDAO_ADMINISTRATIVA_TOTAL","cod_imovel":"RJ-3305307-C4EBAB8497A549EE94AB25A50C5C9490","num_area":"0.3277000000000000000000000000000","ind_status":"AT"},"geometry":{"type":"Polygon","coordinates":[[[-42.2503,-21.9568],[-42.2519,-21.9611],[-42.2503,-21.9568],[-42.2503,-21.9568]]]}},{"type":"Feature","properties":{"cod_tema":"AREA_INFRAESTRUTURA_PUBLICA","cod_imovel":"RJ-3305307-D6D53A7F120641E381BE19197B199FCE","num_area":"1.0090000000000000000000000000000","ind_status":"AT"},"geometry":{"type":"Polygon","coordinates":[[[-41.9419,-21.7437],[-41.9478,-21.7336],[-41.9353,-21.7424],[-41.942,-21.7434],[-41.9419,-21.7437]]]}},{"type":"Feature","properties":{"cod_tema":"AREA_SERVIDAO_ADMINISTRATIVA_TOTAL","cod_imovel":"RJ-3305307-D6D53A7F120641E381BE19197B199FCE","num_area":"1.0090000000000000000000000000000","ind_status":"AT"},"geometry":{"type":"Polygon","coordinates":[[[-41.9419,-21.7437],[-41.9478,-21.7336],[-41.9353,-21.7424],[-41.942,-21.7434],[-41.9419,-21.7437]]]}},{"type":"Feature","properties":{"cod_tema":"AREA_UTILIDADE_PUBLICA","cod_imovel":"RJ-3305307-D7D84AF068BA4CDCA2E1FFA1E6C5E951","num_area":"1.3038000000000000000000000000000","ind_status":"AT"},"geometry":{"type":"Polygon","coordinates":[[[-42.114,-21.9646],[-42.1099,-21.9601],[-42.1135,-21.9642],[-42.114,-21.9646]],[[-42.1016,-21.9549],[-42.1162,-21.9633],[-42.132,-21.961],[-42.1162,-21.9633],[-42.102,-21.9551],[-42.1016,-21.9549]]]}},{"type":"Feature","properties":{"cod_tema":"AREA_SERVIDAO_ADMINISTRATIVA_TOTAL","cod_imovel":"RJ-3305307-D7D84AF068BA4CDCA2E1FFA1E6C5E951","num_area":"1.3038000000000000000000000000000","ind_status":"AT"},"geometry":{"type":"Polygon","coordinates":[[[-42.114,-21.9646],[-42.1099,-21.9601],[-42.1135,-21.9642],[-42.114,-21.9646]],[[-42.1016,-21.9549],[-42.1162,-21.9633],[-42.132,-21.961],[-42.1162,-21.9633],[-42.102,-21.9551],[-42.1016,-21.9549]]]}},{"type":"Feature","properties":{"cod_tema":"AREA_INFRAESTRUTURA_PUBLICA","cod_imovel":"RJ-3305307-D807018650FF449698D72750EFC778C6","num_area":"0.6208000000000000000000000000000","ind_status":"AT"},"geometry":{"type":"Polygon","coordinates":[[[-42.1501,-21.8901],[-42.1441,-21.8822],[-42.1501,-21.8901],[-42.1501,-21.8901]]]}},{"type":"Feature","properties":{"cod_tema":"AREA_SERVIDAO_ADMINISTRATIVA_TOTAL","cod_imovel":"RJ-3305307-D807018650FF449698D72750EFC778C6","num_area":"0.6208000000000000000000000000000","ind_status":"AT"},"geometry":{"type":"Polygon","coordinates":[[[-42.1501,-21.8901],[-42.1441,-21.8822],[-42.1501,-21.8901],[-42.1501,-21.8901]]]}},{"type":"Feature","properties":{"cod_tema":"AREA_UTILIDADE_PUBLICA","cod_imovel":"RJ-3305307-DDFF9B5F29D04BB4B5C52B377638D52F","num_area":"0.3105000000000000000000000000000","ind_status":"AT"},"geometry":{"type":"Polygon","coordinates":[[[-42.0113,-21.7527],[-42.0056,-21.7564],[-42.011,-21.7531],[-42.0113,-21.7527]]]}},{"type":"Feature","properties":{"cod_tema":"AREA_SERVIDAO_ADMINISTRATIVA_TOTAL","cod_imovel":"RJ-3305307-DDFF9B5F29D04BB4B5C52B377638D52F","num_area":"0.3105000000000000000000000000000","ind_status":"AT"},"geometry":{"type":"Polygon","coordinates":[[[-42.0113,-21.7527],[-42.0056,-21.7564],[-42.011,-21.7531],[-42.0113,-21.7527]]]}},{"type":"Feature","properties":{"cod_tema":"AREA_INFRAESTRUTURA_PUBLICA","cod_imovel":"RJ-3305307-E0F559F1BE7A49BF8CAC6F36CDE92437","num_area":"0.3219000000000000000000000000000","ind_status":"AT"},"geometry":{"type":"Polygon","coordinates":[[[-42.2223,-21.9209],[-42.223,-21.9256],[-42.2223,-21.921],[-42.2223,-21.9209]]]}},{"type":"Feature","properties":{"cod_tema":"AREA_SERVIDAO_ADMINISTRATIVA_TOTAL","cod_imovel":"RJ-3305307-E0F559F1BE7A49BF8CAC6F36CDE92437","num_area":"0.3219000000000000000000000000000","ind_status":"AT"},"geometry":{"type":"Polygon","coordinates":[[[-42.2223,-21.9209],[-42.223,-21.9256],[-42.2223,-21.921],[-42.2223,-21.9209]]]}},{"type":"Feature","properties":{"cod_tema":"AREA_UTILIDADE_PUBLICA","cod_imovel":"RJ-3305307-E541B5A2C0294E6E889BA3B7A1F18AF6","num_area":"0.3593000000000000000000000000000","ind_status":"AT"},"geometry":{"type":"Polygon","coordinates":[[[-41.9962,-21.806],[-41.997,-21.8096],[-41.9906,-21.8081],[-41.9971,-21.8096],[-41.9958,-21.8064],[-41.9962,-21.806]]]}},{"type":"Feature","properties":{"cod_tema":"AREA_SERVIDAO_ADMINISTRATIVA_TOTAL","cod_imovel":"RJ-3305307-E541B5A2C0294E6E889BA3B7A1F18AF6","num_area":"0.3593000000000000000000000000000","ind_status":"AT"},"geometry":{"type":"Polygon","coordinates":[[[-41.9962,-21.806],[-41.997,-21.8096],[-41.9906,-21.8081],[-41.9971,-21.8096],[-41.9958,-21.8064],[-41.9962,-21.806]]]}},{"type":"Feature","properties":{"cod_tema":"AREA_UTILIDADE_PUBLICA","cod_imovel":"RJ-3305307-E7DE45A565954081A03411071C0A0502","num_area":"0.3098000000000000000000000000000","ind_status":"AT"},"geometry":{"type":"Polygon","coordinates":[[[-42.0995,-21.9539],[-42.1023,-21.9497],[-42.0997,-21.9542],[-42.0995,-21.9539]]]}},{"type":"Feature","properties":{"cod_tema":"AREA_SERVIDAO_ADMINISTRATIVA_TOTAL","cod_imovel":"RJ-3305307-E7DE45A565954081A03411071C0A0502","num_area":"0.3098000000000000000000000000000","ind_status":"AT"},"geometry":{"type":"Polygon","coordinates":[[[-42.0995,-21.9539],[-42.1023,-21.9497],[-42.0997,-21.9542],[-42.0995,-21.9539]]]}},{"type":"Feature","properties":{"cod_tema":"AREA_INFRAESTRUTURA_PUBLICA","cod_imovel":"RJ-3305307-E9502EBBD4044D28A0A69C81584237F9","num_area":"0.7748000000000000000000000000000","ind_status":"AT"},"geometry":{"type":"Polygon","coordinates":[[[-42.07,-21.8678],[-42.0729,-21.8655],[-42.0679,-21.8617],[-42.0695,-21.8682],[-42.07,-21.8678]]]}},{"type":"Feature","properties":{"cod_tema":"AREA_SERVIDAO_ADMINISTRATIVA_TOTAL","cod_imovel":"RJ-3305307-E9502EBBD4044D28A0A69C81584237F9","num_area":"0.7748000000000000000000000000000","ind_status":"AT"},"geometry":{"type":"Polygon","coordinates":[[[-42.07,-21.8678],[-42.0729,-21.8655],[-42.0679,-21.8617],[-42.0695,-21.8682],[-42.07,-21.8678]]]}},{"type":"Feature","properties":{"cod_tema":"AREA_INFRAESTRUTURA_PUBLICA","cod_imovel":"RJ-3305307-E8BAB5BA299D4D2F9680A33A8EFD3E7C","num_area":"1.9877000000000000000000000000000","ind_status":"AT"},"geometry":{"type":"Polygon","coordinates":[[[-42.1001,-21.9197],[-42.1042,-21.9247],[-42.1001,-21.9198],[-42.1001,-21.9197]],[[-42.0976,-21.9349],[-42.1016,-21.9271],[-42.0961,-21.9233],[-42.0808,-21.9362],[-42.0961,-21.9234],[-42.1016,-21.9271],[-42.0974,-21.9349],[-42.0976,-21.9349]]]}},{"type":"Feature","properties":{"cod_tema":"AREA_SERVIDAO_ADMINISTRATIVA_TOTAL","cod_imovel":"RJ-3305307-E8BAB5BA299D4D2F9680A33A8EFD3E7C","num_area":"1.9877000000000000000000000000000","ind_status":"AT"},"geometry":{"type":"Polygon","coordinates":[[[-42.1001,-21.9197],[-42.1042,-21.9247],[-42.1001,-21.9198],[-42.1001,-21.9197]],[[-42.0976,-21.9349],[-42.1016,-21.9271],[-42.0961,-21.9233],[-42.0808,-21.9362],[-42.0961,-21.9234],[-42.1016,-21.9271],[-42.0974,-21.9349],[-42.0976,-21.9349]]]}},{"type":"Feature","properties":{"cod_tema":"AREA_UTILIDADE_PUBLICA","cod_imovel":"RJ-3305307-E911E4CF787342C0A5A53AC42798835D","num_area":"0.1044000000000000000000000000000","ind_status":"AT"},"geometry":{"type":"Polygon","coordinates":[[[-42.1421,-21.9811],[-42.1469,-21.981],[-42.1429,-21.981],[-42.1421,-21.9811]]]}},{"type":"Feature","properties":{"cod_tema":"AREA_SERVIDAO_ADMINISTRATIVA_TOTAL","cod_imovel":"RJ-3305307-E911E4CF787342C0A5A53AC42798835D","num_area":"0.1044000000000000000000000000000","ind_status":"AT"},"geometry":{"type":"Polygon","coordinates":[[[-42.1421,-21.9811],[-42.1469,-21.981],[-42.1429,-21.981],[-42.1421,-21.9811]]]}},{"type":"Feature","properties":{"cod_tema":"AREA_UTILIDADE_PUBLICA","cod_imovel":"RJ-3305307-EDFD525C07674D8C98C72F250A0F34C6","num_area":"0.1958000000000000000000000000000","ind_status":"AT"},"geometry":{"type":"Polygon","coordinates":[[[-42.0997,-21.9516],[-42.0949,-21.9537],[-42.0996,-21.9516],[-42.0997,-21.9516]]]}},{"type":"Feature","properties":{"cod_tema":"AREA_SERVIDAO_ADMINISTRATIVA_TOTAL","cod_imovel":"RJ-3305307-EDFD525C07674D8C98C72F250A0F34C6","num_area":"0.1958000000000000000000000000000","ind_status":"AT"},"geometry":{"type":"Polygon","coordinates":[[[-42.0997,-21.9516],[-42.0949,-21.9537],[-42.0996,-21.9516],[-42.0997,-21.9516]]]}},{"type":"Feature","properties":{"cod_tema":"AREA_UTILIDADE_PUBLICA","cod_imovel":"RJ-3305307-FB20E9416A294890A5522324AF4B695A","num_area":"0.3536000000000000000000000000000","ind_status":"AT"},"geometry":{"type":"Polygon","coordinates":[[[-42.1759,-21.939],[-42.1758,-21.9441],[-42.1759,-21.9396],[-42.1759,-21.939]]]}},{"type":"Feature","properties":{"cod_tema":"AREA_SERVIDAO_ADMINISTRATIVA_TOTAL","cod_imovel":"RJ-3305307-FB20E9416A294890A5522324AF4B695A","num_area":"0.3536000000000000000000000000000","ind_status":"AT"},"geometry":{"type":"Polygon","coordinates":[[[-42.1759,-21.939],[-42.1758,-21.9441],[-42.1759,-21.9396],[-42.1759,-21.939]]]}},{"type":"Feature","properties":{"cod_tema":"AREA_INFRAESTRUTURA_PUBLICA","cod_imovel":"RJ-3305307-F94CE28AEF7748FC91E3CF6F04DA0EE6","num_area":"0.4968000000000000000000000000000","ind_status":"AT"},"geometry":{"type":"Polygon","coordinates":[[[-41.9876,-21.8183],[-41.9938,-21.8144],[-41.9876,-21.8183],[-41.9876,-21.8183]]]}},{"type":"Feature","properties":{"cod_tema":"AREA_SERVIDAO_ADMINISTRATIVA_TOTAL","cod_imovel":"RJ-3305307-F94CE28AEF7748FC91E3CF6F04DA0EE6","num_area":"0.4968000000000000000000000000000","ind_status":"AT"},"geometry":{"type":"Polygon","coordinates":[[[-41.9876,-21.8183],[-41.9938,-21.8144],[-41.9876,-21.8183],[-41.9876,-21.8183]]]}},{"type":"Feature","properties":{"cod_tema":"AREA_UTILIDADE_PUBLICA","cod_imovel":"RJ-3305307-FC3FCAEB74E84399815C8DE36563719E","num_area":"1.6960000000000000000000000000000","ind_status":"AT"},"geometry":{"type":"Polygon","coordinates":[[[-42.0712,-21.8174],[-42.0765,-21.8184],[-42.0712,-21.8174],[-42.0712,-21.8174]]]}},{"type":"Feature","properties":{"cod_tema":"AREA_SERVIDAO_ADMINISTRATIVA_TOTAL","cod_imovel":"RJ-3305307-FC3FCAEB74E84399815C8DE36563719E","num_area":"1.6960000000000000000000000000000","ind_status":"AT"},"geometry":{"type":"Polygon","coordinates":[[[-42.0712,-21.8174],[-42.0765,-21.8184],[-42.0712,-21.8174],[-42.0712,-21.8174]]]}},{"type":"Feature","properties":{"cod_tema":"AREA_UTILIDADE_PUBLICA","cod_imovel":"RJ-3305307-FED32621F27C44838C103F438DAB34BD","num_area":"0.2764000000000000000000000000000","ind_status":"AT"},"geometry":{"type":"Polygon","coordinates":[[[-42.1936,-21.8798],[-42.1933,-21.8875],[-42.1937,-21.8799],[-42.1936,-21.8798]]]}},{"type":"Feature","properties":{"cod_tema":"AREA_SERVIDAO_ADMINISTRATIVA_TOTAL","cod_imovel":"RJ-3305307-FED32621F27C44838C103F438DAB34BD","num_area":"0.2764000000000000000000000000000","ind_status":"AT"},"geometry":{"type":"Polygon","coordinates":[[[-42.1936,-21.8798],[-42.1933,-21.8875],[-42.1937,-21.8799],[-42.1936,-21.8798]]]}},{"type":"Feature","properties":{"cod_tema":"AREA_UTILIDADE_PUBLICA","cod_imovel":"RJ-3305307-FF55F8BAC8564644BE158CED02CCA41B","num_area":"0.1495000000000000000000000000000","ind_status":"AT"},"geometry":{"type":"Polygon","coordinates":[[[-42.1905,-21.8766],[-42.1936,-21.8799],[-42.1912,-21.8767],[-42.1905,-21.8766]]]}},{"type":"Feature","properties":{"cod_tema":"AREA_SERVIDAO_ADMINISTRATIVA_TOTAL","cod_imovel":"RJ-3305307-FF55F8BAC8564644BE158CED02CCA41B","num_area":"0.1495000000000000000000000000000","ind_status":"AT"},"geometry":{"type":"Polygon","coordinates":[[[-42.1905,-21.8766],[-42.1936,-21.8799],[-42.1912,-21.8767],[-42.1905,-21.8766]]]}},{"type":"Feature","properties":{"cod_tema":"AREA_UTILIDADE_PUBLICA","cod_imovel":"RJ-3305307-0463486C5B7D46618E74AB023E19331A","num_area":"0.1330000000000000000000000000000","ind_status":"AT"},"geometry":{"type":"Polygon","coordinates":[[[-42.1961,-21.8822],[-42.1999,-21.8831],[-42.1961,-21.8822],[-42.1961,-21.8822]]]}},{"type":"Feature","properties":{"cod_tema":"AREA_SERVIDAO_ADMINISTRATIVA_TOTAL","cod_imovel":"RJ-3305307-0463486C5B7D46618E74AB023E19331A","num_area":"0.1330000000000000000000000000000","ind_status":"AT"},"geometry":{"type":"Polygon","coordinates":[[[-42.1961,-21.8822],[-42.1999,-21.8831],[-42.1961,-21.8822],[-42.1961,-21.8822]]]}},{"type":"Feature","properties":{"cod_tema":"AREA_INFRAESTRUTURA_PUBLICA","cod_imovel":"RJ-3305307-427D767E42584E07BD96CE2D8D36222E","num_area":"0.2596000000000000000000000000000","ind_status":"AT"},"geometry":{"type":"Polygon","coordinates":[[[-42.2075,-21.9712],[-42.2108,-21.9736],[-42.2079,-21.9718],[-42.2075,-21.9712]]]}},{"type":"Feature","properties":{"cod_tema":"AREA_UTILIDADE_PUBLICA","cod_imovel":"RJ-3305307-427D767E42584E07BD96CE2D8D36222E","num_area":"0.2541000000000000000000000000000","ind_status":"AT"},"geometry":{"type":"Polygon","coordinates":[[[-42.2022,-21.9763],[-42.2082,-21.9721],[-42.2024,-21.9764],[-42.2022,-21.9763]]]}},{"type":"Feature","properties":{"cod_tema":"AREA_SERVIDAO_ADMINISTRATIVA_TOTAL","cod_imovel":"RJ-3305307-427D767E42584E07BD96CE2D8D36222E","num_area":"0.5123000000000000000000000000000","ind_status":"AT"},"geometry":{"type":"Polygon","coordinates":[[[-42.2075,-21.9712],[-42.2023,-21.9764],[-42.2108,-21.9736],[-42.2079,-21.9718],[-42.2075,-21.9712]]]}},{"type":"Feature","properties":{"cod_tema":"AREA_UTILIDADE_PUBLICA","cod_imovel":"RJ-3305307-6749C198BCF54F4CAF7F88E06BE32C2C","num_area":"0.9285000000000000000000000000000","ind_status":"AT"},"geometry":{"type":"Polygon","coordinates":[[[-42.0057,-21.7804],[-41.9979,-21.7728],[-42.0049,-21.7802],[-42.0057,-21.7804]]]}},{"type":"Feature","properties":{"cod_tema":"AREA_SERVIDAO_ADMINISTRATIVA_TOTAL","cod_imovel":"RJ-3305307-6749C198BCF54F4CAF7F88E06BE32C2C","num_area":"0.9285000000000000000000000000000","ind_status":"AT"},"geometry":{"type":"Polygon","coordinates":[[[-42.0057,-21.7804],[-41.9979,-21.7728],[-42.0049,-21.7802],[-42.0057,-21.7804]]]}},{"type":"Feature","properties":{"cod_tema":"AREA_INFRAESTRUTURA_PUBLICA","cod_imovel":"RJ-3305307-1FD3C5AA446F42DCB24C0CFC5414E05E","num_area":"1.2584000000000000000000000000000","ind_status":"AT"},"geometry":{"type":"Polygon","coordinates":[[[-42.1309,-21.9336],[-42.1418,-21.93],[-42.1309,-21.9336],[-42.1309,-21.9336]]]}},{"type":"Feature","properties":{"cod_tema":"AREA_SERVIDAO_ADMINISTRATIVA_TOTAL","cod_imovel":"RJ-3305307-1FD3C5AA446F42DCB24C0CFC5414E05E","num_area":"1.2584000000000000000000000000000","ind_status":"AT"},"geometry":{"type":"Polygon","coordinates":[[[-42.1309,-21.9336],[-42.1418,-21.93],[-42.1309,-21.9336],[-42.1309,-21.9336]]]}},{"type":"Feature","properties":{"cod_tema":"AREA_UTILIDADE_PUBLICA","cod_imovel":"RJ-3305307-5F922990FB954A3C9B21A6FEF7F51660","num_area":"0.5909000000000000000000000000000","ind_status":"AT"},"geometry":{"type":"Polygon","coordinates":[[[-42.0515,-21.8005],[-42.0527,-21.8052],[-42.0515,-21.8005],[-42.0515,-21.8005]]]}},{"type":"Feature","properties":{"cod_tema":"AREA_SERVIDAO_ADMINISTRATIVA_TOTAL","cod_imovel":"RJ-3305307-5F922990FB954A3C9B21A6FEF7F51660","num_area":"0.5909000000000000000000000000000","ind_status":"AT"},"geometry":{"type":"Polygon","coordinates":[[[-42.0515,-21.8005],[-42.0527,-21.8052],[-42.0515,-21.8005],[-42.0515,-21.8005]]]}},{"type":"Feature","properties":{"cod_tema":"AREA_INFRAESTRUTURA_PUBLICA","cod_imovel":"RJ-3305307-6B7909E201A44E399470DF99A04618B7","num_area":"0.2197000000000000000000000000000","ind_status":"AT"},"geometry":{"type":"Polygon","coordinates":[[[-42.1547,-21.8608],[-42.1511,-21.8611],[-42.1547,-21.8609],[-42.1547,-21.8608]]]}},{"type":"Feature","properties":{"cod_tema":"AREA_SERVIDAO_ADMINISTRATIVA_TOTAL","cod_imovel":"RJ-3305307-6B7909E201A44E399470DF99A04618B7","num_area":"0.2197000000000000000000000000000","ind_status":"AT"},"geometry":{"type":"Polygon","coordinates":[[[-42.1547,-21.8608],[-42.1511,-21.8611],[-42.1547,-21.8609],[-42.1547,-21.8608]]]}},{"type":"Feature","properties":{"cod_tema":"AREA_UTILIDADE_PUBLICA","cod_imovel":"RJ-3305307-74E8E95C433142279E88DCEA1AC09943","num_area":"0.9413000000000000000000000000000","ind_status":"AT"},"geometry":{"type":"Polygon","coordinates":[[[-42.0914,-21.9095],[-42.0971,-21.9185],[-42.0914,-21.9096],[-42.0914,-21.9095]]]}},{"type":"Feature","properties":{"cod_tema":"AREA_SERVIDAO_ADMINISTRATIVA_TOTAL","cod_imovel":"RJ-3305307-74E8E95C433142279E88DCEA1AC09943","num_area":"0.9413000000000000000000000000000","ind_status":"AT"},"geometry":{"type":"Polygon","coordinates":[[[-42.0914,-21.9095],[-42.0971,-21.9185],[-42.0914,-21.9096],[-42.0914,-21.9095]]]}},{"type":"Feature","properties":{"cod_tema":"AREA_INFRAESTRUTURA_PUBLICA","cod_imovel":"RJ-3305307-615EE6E5FC75477A98C2F78E8C7C4713","num_area":"0.6038000000000000000000000000000","ind_status":"AT"},"geometry":{"type":"Polygon","coordinates":[[[-42.1728,-22.0039],[-42.1707,-21.9981],[-42.1728,-22.0039],[-42.1728,-22.0039]]]}},{"type":"Feature","properties":{"cod_tema":"AREA_SERVIDAO_ADMINISTRATIVA_TOTAL","cod_imovel":"RJ-3305307-615EE6E5FC75477A98C2F78E8C7C4713","num_area":"0.6038000000000000000000000000000","ind_status":"AT"},"geometry":{"type":"Polygon","coordinates":[[[-42.1728,-22.0039],[-42.1707,-21.9981],[-42.1728,-22.0039],[-42.1728,-22.0039]]]}},{"type":"Feature","properties":{"cod_tema":"AREA_UTILIDADE_PUBLICA","cod_imovel":"RJ-3305307-04932C9AB2EC41689B0D64D34D2C2684","num_area":"0.4237000000000000000000000000000","ind_status":"AT"},"geometry":{"type":"Polygon","coordinates":[[[-42.2186,-21.9428],[-42.213,-21.9433],[-42.2184,-21.9428],[-42.2186,-21.9428]]]}},{"type":"Feature","properties":{"cod_tema":"AREA_SERVIDAO_ADMINISTRATIVA_TOTAL","cod_imovel":"RJ-3305307-04932C9AB2EC41689B0D64D34D2C2684","num_area":"0.4237000000000000000000000000000","ind_status":"AT"},"geometry":{"type":"Polygon","coordinates":[[[-42.2186,-21.9428],[-42.213,-21.9433],[-42.2184,-21.9428],[-42.2186,-21.9428]]]}},{"type":"Feature","properties":{"cod_tema":"AREA_INFRAESTRUTURA_PUBLICA","cod_imovel":"RJ-3305307-3CB2A0C2BA94492C826A75C92FF25DE2","num_area":"0.3471000000000000000000000000000","ind_status":"AT"},"geometry":{"type":"Polygon","coordinates":[[[-42.122,-22.0011],[-42.1237,-21.9964],[-42.1221,-22.0009],[-42.122,-22.0011]]]}},{"type":"Feature","properties":{"cod_tema":"AREA_SERVIDAO_ADMINISTRATIVA_TOTAL","cod_imovel":"RJ-3305307-3CB2A0C2BA94492C826A75C92FF25DE2","num_area":"0.3471000000000000000000000000000","ind_status":"AT"},"geometry":{"type":"Polygon","coordinates":[[[-42.122,-22.0011],[-42.1237,-21.9964],[-42.1221,-22.0009],[-42.122,-22.0011]]]}},{"type":"Feature","properties":{"cod_tema":"AREA_UTILIDADE_PUBLICA","cod_imovel":"RJ-3305307-8E6152B4C8F84469BF9DBBC305C010FF","num_area":"0.1188000000000000000000000000000","ind_status":"AT"},"geometry":{"type":"Polygon","coordinates":[[[-42.2111,-21.9341],[-42.2074,-21.9332],[-42.2105,-21.9338],[-42.2111,-21.9341]]]}},{"type":"Feature","properties":{"cod_tema":"AREA_SERVIDAO_ADMINISTRATIVA_TOTAL","cod_imovel":"RJ-3305307-8E6152B4C8F84469BF9DBBC305C010FF","num_area":"0.1188000000000000000000000000000","ind_status":"AT"},"geometry":{"type":"Polygon","coordinates":[[[-42.2111,-21.9341],[-42.2074,-21.9332],[-42.2105,-21.9338],[-42.2111,-21.9341]]]}},{"type":"Feature","properties":{"cod_tema":"AREA_UTILIDADE_PUBLICA","cod_imovel":"RJ-3305307-145AC46D91BE491AA1FC9DF52B61809C","num_area":"0.7928000000000000000000000000000","ind_status":"AT"},"geometry":{"type":"Polygon","coordinates":[[[-42.1343,-22.0126],[-42.1325,-22.0072],[-42.1324,-22.0185],[-42.1335,-22.0129],[-42.1343,-22.0126]]]}},{"type":"Feature","properties":{"cod_tema":"AREA_SERVIDAO_ADMINISTRATIVA_TOTAL","cod_imovel":"RJ-3305307-145AC46D91BE491AA1FC9DF52B61809C","num_area":"0.7928000000000000000000000000000","ind_status":"AT"},"geometry":{"type":"Polygon","coordinates":[[[-42.1343,-22.0126],[-42.1325,-22.0072],[-42.1324,-22.0185],[-42.1335,-22.0129],[-42.1343,-22.0126]]]}},{"type":"Feature","properties":{"cod_tema":"AREA_UTILIDADE_PUBLICA","cod_imovel":"RJ-3305307-FC49755FF1354CCBB627002F936F57E8","num_area":"0.5237000000000000000000000000000","ind_status":"AT"},"geometry":{"type":"Polygon","coordinates":[[[-42.0319,-21.8031],[-42.0278,-21.8],[-42.0314,-21.806],[-42.0327,-21.8026],[-42.0319,-21.8031]]]}},{"type":"Feature","properties":{"cod_tema":"AREA_SERVIDAO_ADMINISTRATIVA_TOTAL","cod_imovel":"RJ-3305307-FC49755FF1354CCBB627002F936F57E8","num_area":"0.5237000000000000000000000000000","ind_status":"AT"},"geometry":{"type":"Polygon","coordinates":[[[-42.0319,-21.8031],[-42.0278,-21.8],[-42.0314,-21.806],[-42.0327,-21.8026],[-42.0319,-21.8031]]]}},{"type":"Feature","properties":{"cod_tema":"AREA_UTILIDADE_PUBLICA","cod_imovel":"RJ-3305307-3788BCBBB2C048CBA13237CB52A705C1","num_area":"0.1447000000000000000000000000000","ind_status":"AT"},"geometry":{"type":"Polygon","coordinates":[[[-42.0359,-21.8065],[-42.0372,-21.8031],[-42.0359,-21.8064],[-42.0359,-21.8065]]]}},{"type":"Feature","properties":{"cod_tema":"AREA_SERVIDAO_ADMINISTRATIVA_TOTAL","cod_imovel":"RJ-3305307-3788BCBBB2C048CBA13237CB52A705C1","num_area":"0.1447000000000000000000000000000","ind_status":"AT"},"geometry":{"type":"Polygon","coordinates":[[[-42.0359,-21.8065],[-42.0372,-21.8031],[-42.0359,-21.8064],[-42.0359,-21.8065]]]}},{"type":"Feature","properties":{"cod_tema":"AREA_INFRAESTRUTURA_PUBLICA","cod_imovel":"RJ-3305307-317069EA5AC6468A93D9749B96ECC850","num_area":"0.5166000000000000000000000000000","ind_status":"AT"},"geometry":{"type":"Polygon","coordinates":[[[-42.071,-21.7997],[-42.0639,-21.8028],[-42.0706,-21.7996],[-42.071,-21.7997]]]}},{"type":"Feature","properties":{"cod_tema":"AREA_SERVIDAO_ADMINISTRATIVA_TOTAL","cod_imovel":"RJ-3305307-317069EA5AC6468A93D9749B96ECC850","num_area":"0.5166000000000000000000000000000","ind_status":"AT"},"geometry":{"type":"Polygon","coordinates":[[[-42.071,-21.7997],[-42.0639,-21.8028],[-42.0706,-21.7996],[-42.071,-21.7997]]]}},{"type":"Feature","properties":{"cod_tema":"AREA_INFRAESTRUTURA_PUBLICA","cod_imovel":"RJ-3305307-928445B3EF4A45BA821011069E69EBA9","num_area":"3.9978000000000000000000000000000","ind_status":"AT"},"geometry":{"type":"Polygon","coordinates":[[[-42.0529,-21.8757],[-42.0392,-21.8669],[-42.0487,-21.8753],[-42.0388,-21.8781],[-42.0428,-21.8791],[-42.0397,-21.8846],[-42.0433,-21.8777],[-42.0528,-21.8759],[-42.0529,-21.8757]]]}},{"type":"Feature","properties":{"cod_tema":"AREA_SERVIDAO_ADMINISTRATIVA_TOTAL","cod_imovel":"RJ-3305307-928445B3EF4A45BA821011069E69EBA9","num_area":"3.9978000000000000000000000000000","ind_status":"AT"},"geometry":{"type":"Polygon","coordinates":[[[-42.0529,-21.8757],[-42.0392,-21.8669],[-42.0487,-21.8753],[-42.0388,-21.8781],[-42.0428,-21.8791],[-42.0397,-21.8846],[-42.0433,-21.8777],[-42.0528,-21.8759],[-42.0529,-21.8757]]]}},{"type":"Feature","properties":{"cod_tema":"AREA_UTILIDADE_PUBLICA","cod_imovel":"RJ-3305307-BF56D2915B0346B3AB5C00E2FC299ABC","num_area":"0.1835000000000000000000000000000","ind_status":"AT"},"geometry":{"type":"Polygon","coordinates":[[[-41.9786,-21.8041],[-41.9832,-21.8062],[-41.9783,-21.8037],[-41.9786,-21.8041]]]}},{"type":"Feature","properties":{"cod_tema":"AREA_SERVIDAO_ADMINISTRATIVA_TOTAL","cod_imovel":"RJ-3305307-BF56D2915B0346B3AB5C00E2FC299ABC","num_area":"0.1835000000000000000000000000000","ind_status":"AT"},"geometry":{"type":"Polygon","coordinates":[[[-41.9786,-21.8041],[-41.9832,-21.8062],[-41.9783,-21.8037],[-41.9786,-21.8041]]]}},{"type":"Feature","properties":{"cod_tema":"AREA_INFRAESTRUTURA_PUBLICA","cod_imovel":"RJ-3305307-438927876F89493A8F71A3C860C0CE72","num_area":"0.3834000000000000000000000000000","ind_status":"AT"},"geometry":{"type":"Polygon","coordinates":[[[-42.1252,-21.9409],[-42.1239,-21.9439],[-42.1268,-21.9402],[-42.1252,-21.9409]]]}},{"type":"Feature","properties":{"cod_tema":"AREA_SERVIDAO_ADMINISTRATIVA_TOTAL","cod_imovel":"RJ-3305307-438927876F89493A8F71A3C860C0CE72","num_area":"0.3834000000000000000000000000000","ind_status":"AT"},"geometry":{"type":"Polygon","coordinates":[[[-42.1252,-21.9409],[-42.1239,-21.9439],[-42.1268,-21.9402],[-42.1252,-21.9409]]]}},{"type":"Feature","properties":{"cod_tema":"AREA_INFRAESTRUTURA_PUBLICA","cod_imovel":"RJ-3305307-DDB829F6637C45FBA45369562C80C29E","num_area":"0.2853000000000000000000000000000","ind_status":"AT"},"geometry":{"type":"Polygon","coordinates":[[[-42.1776,-21.882],[-42.1807,-21.8841],[-42.1778,-21.8823],[-42.1776,-21.882]]]}},{"type":"Feature","properties":{"cod_tema":"AREA_SERVIDAO_ADMINISTRATIVA_TOTAL","cod_imovel":"RJ-3305307-DDB829F6637C45FBA45369562C80C29E","num_area":"0.2853000000000000000000000000000","ind_status":"AT"},"geometry":{"type":"Polygon","coordinates":[[[-42.1776,-21.882],[-42.1807,-21.8841],[-42.1778,-21.8823],[-42.1776,-21.882]]]}},{"type":"Feature","properties":{"cod_tema":"AREA_UTILIDADE_PUBLICA","cod_imovel":"RJ-3305307-6F770FA39E5E41B3907F1CDE1ADE5578","num_area":"0.2451000000000000000000000000000","ind_status":"AT"},"geometry":{"type":"Polygon","coordinates":[[[-41.9393,-21.7696],[-41.9443,-21.7714],[-41.9401,-21.7696],[-41.9393,-21.7696]]]}},{"type":"Feature","properties":{"cod_tema":"AREA_SERVIDAO_ADMINISTRATIVA_TOTAL","cod_imovel":"RJ-3305307-6F770FA39E5E41B3907F1CDE1ADE5578","num_area":"0.2451000000000000000000000000000","ind_status":"AT"},"geometry":{"type":"Polygon","coordinates":[[[-41.9393,-21.7696],[-41.9443,-21.7714],[-41.9401,-21.7696],[-41.9393,-21.7696]]]}},{"type":"Feature","properties":{"cod_tema":"AREA_UTILIDADE_PUBLICA","cod_imovel":"RJ-3305307-7F588A1E42534C1988CAFE22E8747500","num_area":"0.1334000000000000000000000000000","ind_status":"AT"},"geometry":{"type":"Polygon","coordinates":[[[-42.198,-21.9351],[-42.1938,-21.9316],[-42.1975,-21.9344],[-42.198,-21.9351]]]}},{"type":"Feature","properties":{"cod_tema":"AREA_SERVIDAO_ADMINISTRATIVA_TOTAL","cod_imovel":"RJ-3305307-7F588A1E42534C1988CAFE22E8747500","num_area":"0.1334000000000000000000000000000","ind_status":"AT"},"geometry":{"type":"Polygon","coordinates":[[[-42.198,-21.9351],[-42.1938,-21.9316],[-42.1975,-21.9344],[-42.198,-21.9351]]]}},{"type":"Feature","properties":{"cod_tema":"AREA_INFRAESTRUTURA_PUBLICA","cod_imovel":"RJ-3305307-B633DA94519C49AB8572CF9CC142DEDA","num_area":"0.2133000000000000000000000000000","ind_status":"AT"},"geometry":{"type":"Polygon","coordinates":[[[-42.1905,-21.8766],[-42.1859,-21.875],[-42.1899,-21.8763],[-42.1905,-21.8766]]]}},{"type":"Feature","properties":{"cod_tema":"AREA_SERVIDAO_ADMINISTRATIVA_TOTAL","cod_imovel":"RJ-3305307-B633DA94519C49AB8572CF9CC142DEDA","num_area":"0.2133000000000000000000000000000","ind_status":"AT"},"geometry":{"type":"Polygon","coordinates":[[[-42.1905,-21.8766],[-42.1859,-21.875],[-42.1899,-21.8763],[-42.1905,-21.8766]]]}},{"type":"Feature","properties":{"cod_tema":"AREA_UTILIDADE_PUBLICA","cod_imovel":"RJ-3305307-44CCF946862C46CD8E32654BA35A04E0","num_area":"0.1957000000000000000000000000000","ind_status":"AT"},"geometry":{"type":"Polygon","coordinates":[[[-41.9906,-21.8144],[-41.9938,-21.8145],[-41.9906,-21.8143],[-41.9906,-21.8144]]]}},{"type":"Feature","properties":{"cod_tema":"AREA_SERVIDAO_ADMINISTRATIVA_TOTAL","cod_imovel":"RJ-3305307-44CCF946862C46CD8E32654BA35A04E0","num_area":"0.1957000000000000000000000000000","ind_status":"AT"},"geometry":{"type":"Polygon","coordinates":[[[-41.9906,-21.8144],[-41.9938,-21.8145],[-41.9906,-21.8143],[-41.9906,-21.8144]]]}},{"type":"Feature","properties":{"cod_tema":"AREA_INFRAESTRUTURA_PUBLICA","cod_imovel":"RJ-3305307-1519165088214A13AF7AC29E170C39AE","num_area":"0.6736000000000000000000000000000","ind_status":"AT"},"geometry":{"type":"Polygon","coordinates":[[[-42.1566,-21.8972],[-42.1631,-21.894],[-42.1562,-21.8824],[-42.1631,-21.894],[-42.1574,-21.8972],[-42.1566,-21.8972]]]}},{"type":"Feature","properties":{"cod_tema":"AREA_SERVIDAO_ADMINISTRATIVA_TOTAL","cod_imovel":"RJ-3305307-1519165088214A13AF7AC29E170C39AE","num_area":"0.6736000000000000000000000000000","ind_status":"AT"},"geometry":{"type":"Polygon","coordinates":[[[-42.1566,-21.8972],[-42.1631,-21.894],[-42.1562,-21.8824],[-42.1631,-21.894],[-42.1574,-21.8972],[-42.1566,-21.8972]]]}},{"type":"Feature","properties":{"cod_tema":"AREA_UTILIDADE_PUBLICA","cod_imovel":"RJ-3305307-8D56A9ED2AED4F4E89AF42D4C7CE650C","num_area":"0.6014000000000000000000000000000","ind_status":"AT"},"geometry":{"type":"Polygon","coordinates":[[[-42.0449,-21.8918],[-42.0393,-21.8847],[-42.045,-21.8923],[-42.0449,-21.8918]]]}},{"type":"Feature","properties":{"cod_tema":"AREA_SERVIDAO_ADMINISTRATIVA_TOTAL","cod_imovel":"RJ-3305307-8D56A9ED2AED4F4E89AF42D4C7CE650C","num_area":"0.6014000000000000000000000000000","ind_status":"AT"},"geometry":{"type":"Polygon","coordinates":[[[-42.0449,-21.8918],[-42.0393,-21.8847],[-42.045,-21.8923],[-42.0449,-21.8918]]]}},{"type":"Feature","properties":{"cod_tema":"AREA_UTILIDADE_PUBLICA","cod_imovel":"RJ-3305307-4FAAECE17DED45B29ED8367F7002F480","num_area":"3.9101000000000000000000000000000","ind_status":"AT"},"geometry":{"type":"Polygon","coordinates":[[[-42.1121,-21.835],[-42.1155,-21.8397],[-42.1106,-21.8316],[-42.1113,-21.8346],[-42.1121,-21.835]]]}},{"type":"Feature","properties":{"cod_tema":"AREA_SERVIDAO_ADMINISTRATIVA_TOTAL","cod_imovel":"RJ-3305307-4FAAECE17DED45B29ED8367F7002F480","num_area":"3.9101000000000000000000000000000","ind_status":"AT"},"geometry":{"type":"Polygon","coordinates":[[[-42.1121,-21.835],[-42.1155,-21.8397],[-42.1106,-21.8316],[-42.1113,-21.8346],[-42.1121,-21.835]]]}},{"type":"Feature","properties":{"cod_tema":"AREA_INFRAESTRUTURA_PUBLICA","cod_imovel":"RJ-3305307-A2A142AEE9D64B009182B831474C4CCE","num_area":"1.2291000000000000000000000000000","ind_status":"AT"},"geometry":{"type":"Polygon","coordinates":[[[-42.1833,-21.934],[-42.187,-21.9344],[-42.1832,-21.9341],[-42.1833,-21.934]],[[-42.182,-21.9322],[-42.1768,-21.9294],[-42.182,-21.9322],[-42.182,-21.9322]]]}},{"type":"Feature","properties":{"cod_tema":"AREA_SERVIDAO_ADMINISTRATIVA_TOTAL","cod_imovel":"RJ-3305307-A2A142AEE9D64B009182B831474C4CCE","num_area":"1.2291000000000000000000000000000","ind_status":"AT"},"geometry":{"type":"Polygon","coordinates":[[[-42.1833,-21.934],[-42.187,-21.9344],[-42.1832,-21.9341],[-42.1833,-21.934]],[[-42.182,-21.9322],[-42.1768,-21.9294],[-42.182,-21.9322],[-42.182,-21.9322]]]}}]}