{"type":"FeatureCollection","features":[{"type":"Feature","properties":{"cod_tema":"AREA_UTILIDADE_PUBLICA","cod_imovel":"RJ-3305000-6530F8F4CF534C1A97BD4FE5165B3CE5","num_area":"0.2584000000000000000000000000000","ind_status":"AT"},"geometry":{"type":"Polygon","coordinates":[[[-41.1235,-21.8453],[-41.1186,-21.8418],[-41.1229,-21.845],[-41.1235,-21.8453]]]}},{"type":"Feature","properties":{"cod_tema":"AREA_SERVIDAO_ADMINISTRATIVA_TOTAL","cod_imovel":"RJ-3305000-6530F8F4CF534C1A97BD4FE5165B3CE5","num_area":"0.2584000000000000000000000000000","ind_status":"AT"},"geometry":{"type":"Polygon","coordinates":[[[-41.1235,-21.8453],[-41.1186,-21.8418],[-41.1229,-21.845],[-41.1235,-21.8453]]]}},{"type":"Feature","properties":{"cod_tema":"AREA_INFRAESTRUTURA_PUBLICA","cod_imovel":"RJ-3305000-67EBC2648D9643ACAFEB2789FD92DEEB","num_area":"1.8794000000000000000000000000000","ind_status":"AT"},"geometry":{"type":"Polygon","coordinates":[[[-41.1452,-21.8445],[-41.1397,-21.8444],[-41.1446,-21.8445],[-41.1452,-21.8445]]]}},{"type":"Feature","properties":{"cod_tema":"AREA_SERVIDAO_ADMINISTRATIVA_TOTAL","cod_imovel":"RJ-3305000-67EBC2648D9643ACAFEB2789FD92DEEB","num_area":"1.8794000000000000000000000000000","ind_status":"AT"},"geometry":{"type":"Polygon","coordinates":[[[-41.1452,-21.8445],[-41.1397,-21.8444],[-41.1446,-21.8445],[-41.1452,-21.8445]]]}},{"type":"Feature","properties":{"cod_tema":"AREA_INFRAESTRUTURA_PUBLICA","cod_imovel":"RJ-3305000-8BCF5AF5D2B241B6999AF431E36F6E4B","num_area":"5.1762000000000000000000000000000","ind_status":"PE"},"geometry":{"type":"Polygon","coordinates":[[[-41.1324,-21.7136],[-41.1109,-21.7188],[-41.1317,-21.7142],[-41.1324,-21.7136]]]}},{"type":"Feature","properties":{"cod_tema":"AREA_SERVIDAO_ADMINISTRATIVA_TOTAL","cod_imovel":"RJ-3305000-8BCF5AF5D2B241B6999AF431E36F6E4B","num_area":"5.1762000000000000000000000000000","ind_status":"PE"},"geometry":{"type":"Polygon","coordinates":[[[-41.1324,-21.7136],[-41.1109,-21.7188],[-41.1317,-21.7142],[-41.1324,-21.7136]]]}},{"type":"Feature","properties":{"cod_tema":"AREA_UTILIDADE_PUBLICA","cod_imovel":"RJ-3305000-70C4F862738C4C6ABFF7AAE86E9BD875","num_area":"0.1260000000000000000000000000000","ind_status":"AT"},"geometry":{"type":"Polygon","coordinates":[[[-41.0609,-21.7209],[-41.0646,-21.7227],[-41.0613,-21.7211],[-41.0609,-21.7209]]]}},{"type":"Feature","properties":{"cod_tema":"AREA_SERVIDAO_ADMINISTRATIVA_TOTAL","cod_imovel":"RJ-3305000-70C4F862738C4C6ABFF7AAE86E9BD875","num_area":"0.1260000000000000000000000000000","ind_status":"AT"},"geometry":{"type":"Polygon","coordinates":[[[-41.0609,-21.7209],[-41.0646,-21.7227],[-41.0613,-21.7211],[-41.0609,-21.7209]]]}},{"type":"Feature","properties":{"cod_tema":"AREA_UTILIDADE_PUBLICA","cod_imovel":"RJ-3305000-282EC619E50D4F78A5B62AF887096A3D","num_area":"21.318200000000000000000000000000","ind_status":"AT"},"geometry":{"type":"Polygon","coordinates":[[[-41.159,-21.7639],[-41.1651,-21.7796],[-41.1519,-21.7878],[-41.1765,-21.7777],[-41.1654,-21.7796],[-41.159,-21.7639],[-41.159,-21.7639]]]}},{"type":"Feature","properties":{"cod_tema":"AREA_SERVIDAO_ADMINISTRATIVA_TOTAL","cod_imovel":"RJ-3305000-282EC619E50D4F78A5B62AF887096A3D","num_area":"21.318200000000000000000000000000","ind_status":"AT"},"geometry":{"type":"Polygon","coordinates":[[[-41.159,-21.7639],[-41.1651,-21.7796],[-41.1519,-21.7878],[-41.1765,-21.7777],[-41.1654,-21.7796],[-41.159,-21.7639],[-41.159,-21.7639]]]}},{"type":"Feature","properties":{"cod_tema":"AREA_UTILIDADE_PUBLICA","cod_imovel":"RJ-3305000-F619CA9C0A4745A38A1134F0FC6993D8","num_area":"7.8610000000000000000000000000000","ind_status":"PE"},"geometry":{"type":"Polygon","coordinates":[[[-41.0945,-21.8452],[-41.104,-21.8238],[-41.0944,-21.845],[-41.0945,-21.8452]]]}},{"type":"Feature","properties":{"cod_tema":"AREA_SERVIDAO_ADMINISTRATIVA_TOTAL","cod_imovel":"RJ-3305000-F619CA9C0A4745A38A1134F0FC6993D8","num_area":"7.8610000000000000000000000000000","ind_status":"PE"},"geometry":{"type":"Polygon","coordinates":[[[-41.0945,-21.8452],[-41.104,-21.8238],[-41.0944,-21.845],[-41.0945,-21.8452]]]}},{"type":"Feature","properties":{"cod_tema":"AREA_INFRAESTRUTURA_PUBLICA","cod_imovel":"RJ-3305000-532CDE3457B14F399A1919D3546270A4","num_area":"0.4617000000000000000000000000000","ind_status":"AT"},"geometry":{"type":"Polygon","coordinates":[[[-41.0423,-21.6351],[-41.041,-21.6319],[-41.0423,-21.6351],[-41.0423,-21.6351]]]}},{"type":"Feature","properties":{"cod_tema":"AREA_SERVIDAO_ADMINISTRATIVA_TOTAL","cod_imovel":"RJ-3305000-532CDE3457B14F399A1919D3546270A4","num_area":"0.4617000000000000000000000000000","ind_status":"AT"},"geometry":{"type":"Polygon","coordinates":[[[-41.0423,-21.6351],[-41.041,-21.6319],[-41.0423,-21.6351],[-41.0423,-21.6351]]]}},{"type":"Feature","properties":{"cod_tema":"AREA_INFRAESTRUTURA_PUBLICA","cod_imovel":"RJ-3305000-AD4AAE19CF2245509B09B625FE385127","num_area":"27.528600000000000000000000000000","ind_status":"AT"},"geometry":{"type":"Polygon","coordinates":[[[-41.0385,-21.8461],[-41.0331,-21.8451],[-41.0418,-21.8354],[-41.0367,-21.8448],[-41.0316,-21.8451],[-41.0348,-21.8498],[-41.0266,-21.8595],[-41.0366,-21.8473],[-41.0385,-21.8461]]]}},{"type":"Feature","properties":{"cod_tema":"AREA_SERVIDAO_ADMINISTRATIVA_TOTAL","cod_imovel":"RJ-3305000-AD4AAE19CF2245509B09B625FE385127","num_area":"27.528600000000000000000000000000","ind_status":"AT"},"geometry":{"type":"Polygon","coordinates":[[[-41.0385,-21.8461],[-41.0331,-21.8451],[-41.0418,-21.8354],[-41.0367,-21.8448],[-41.0316,-21.8451],[-41.0348,-21.8498],[-41.0266,-21.8595],[-41.0366,-21.8473],[-41.0385,-21.8461]]]}}]}