{"type":"FeatureCollection","features":[{"type":"Feature","properties":{"cod_tema":"AREA_INFRAESTRUTURA_PUBLICA","cod_imovel":"RJ-3305752-09DE14B8E5D74853ADE587F58BE6AB43","num_area":"3.9887000000000000000000000000000","ind_status":"AT"},"geometry":{"type":"Polygon","coordinates":[[[-42.6989,-22.7803],[-42.6879,-22.7846],[-42.6991,-22.7804],[-42.6989,-22.7803]]]}},{"type":"Feature","properties":{"cod_tema":"AREA_SERVIDAO_ADMINISTRATIVA_TOTAL","cod_imovel":"RJ-3305752-09DE14B8E5D74853ADE587F58BE6AB43","num_area":"3.9887000000000000000000000000000","ind_status":"AT"},"geometry":{"type":"Polygon","coordinates":[[[-42.6989,-22.7803],[-42.6879,-22.7846],[-42.6991,-22.7804],[-42.6989,-22.7803]]]}},{"type":"Feature","properties":{"cod_tema":"AREA_UTILIDADE_PUBLICA","cod_imovel":"RJ-3305752-0F889321DE924D42841809582865613C","num_area":"3.3177000000000000000000000000000","ind_status":"AT"},"geometry":{"type":"Polygon","coordinates":[[[-42.6724,-22.7973],[-42.6544,-22.7999],[-42.6721,-22.7973],[-42.6724,-22.7973]]]}},{"type":"Feature","properties":{"cod_tema":"AREA_SERVIDAO_ADMINISTRATIVA_TOTAL","cod_imovel":"RJ-3305752-0F889321DE924D42841809582865613C","num_area":"3.3177000000000000000000000000000","ind_status":"AT"},"geometry":{"type":"Polygon","coordinates":[[[-42.6724,-22.7973],[-42.6544,-22.7999],[-42.6721,-22.7973],[-42.6724,-22.7973]]]}},{"type":"Feature","properties":{"cod_tema":"AREA_UTILIDADE_PUBLICA","cod_imovel":"RJ-3305752-1CB35960EF4D4F0581E963D2DCE7B71A","num_area":"0.9063000000000000000000000000000","ind_status":"AT"},"geometry":{"type":"Polygon","coordinates":[[[-42.7124,-22.7704],[-42.7157,-22.7642],[-42.7124,-22.7704],[-42.7124,-22.7704]]]}},{"type":"Feature","properties":{"cod_tema":"AREA_SERVIDAO_ADMINISTRATIVA_TOTAL","cod_imovel":"RJ-3305752-1CB35960EF4D4F0581E963D2DCE7B71A","num_area":"0.9063000000000000000000000000000","ind_status":"AT"},"geometry":{"type":"Polygon","coordinates":[[[-42.7124,-22.7704],[-42.7157,-22.7642],[-42.7124,-22.7704],[-42.7124,-22.7704]]]}},{"type":"Feature","properties":{"cod_tema":"AREA_UTILIDADE_PUBLICA","cod_imovel":"RJ-3305752-2344BBBAFD114CB3BD8480524646E034","num_area":"1.0947000000000000000000000000000","ind_status":"AT"},"geometry":{"type":"Polygon","coordinates":[[[-42.7199,-22.7883],[-42.734,-22.7822],[-42.7199,-22.7883],[-42.7199,-22.7883]]]}},{"type":"Feature","properties":{"cod_tema":"AREA_SERVIDAO_ADMINISTRATIVA_TOTAL","cod_imovel":"RJ-3305752-2344BBBAFD114CB3BD8480524646E034","num_area":"1.0947000000000000000000000000000","ind_status":"AT"},"geometry":{"type":"Polygon","coordinates":[[[-42.7199,-22.7883],[-42.734,-22.7822],[-42.7199,-22.7883],[-42.7199,-22.7883]]]}},{"type":"Feature","properties":{"cod_tema":"AREA_INFRAESTRUTURA_PUBLICA","cod_imovel":"RJ-3305752-30B8B72DFA8142E6A3FAA01262DED16E","num_area":"0.5312000000000000000000000000000","ind_status":"AT"},"geometry":{"type":"Polygon","coordinates":[[[-42.7459,-22.8203],[-42.7483,-22.8225],[-42.746,-22.8202],[-42.7459,-22.8203]]]}},{"type":"Feature","properties":{"cod_tema":"AREA_SERVIDAO_ADMINISTRATIVA_TOTAL","cod_imovel":"RJ-3305752-30B8B72DFA8142E6A3FAA01262DED16E","num_area":"0.5312000000000000000000000000000","ind_status":"AT"},"geometry":{"type":"Polygon","coordinates":[[[-42.7459,-22.8203],[-42.7483,-22.8225],[-42.746,-22.8202],[-42.7459,-22.8203]]]}},{"type":"Feature","properties":{"cod_tema":"AREA_INFRAESTRUTURA_PUBLICA","cod_imovel":"RJ-3305752-4C996086AE66423E8063FD85AA9D8644","num_area":"1.5515000000000000000000000000000","ind_status":"AT"},"geometry":{"type":"Polygon","coordinates":[[[-42.7124,-22.8073],[-42.715,-22.8042],[-42.7124,-22.8073],[-42.7124,-22.8073]]]}},{"type":"Feature","properties":{"cod_tema":"AREA_SERVIDAO_ADMINISTRATIVA_TOTAL","cod_imovel":"RJ-3305752-4C996086AE66423E8063FD85AA9D8644","num_area":"1.5515000000000000000000000000000","ind_status":"AT"},"geometry":{"type":"Polygon","coordinates":[[[-42.7124,-22.8073],[-42.715,-22.8042],[-42.7124,-22.8073],[-42.7124,-22.8073]]]}},{"type":"Feature","properties":{"cod_tema":"AREA_INFRAESTRUTURA_PUBLICA","cod_imovel":"RJ-3305752-5CD097CBE8C84FEB9D4101BDEDF35357","num_area":"0.4524000000000000000000000000000","ind_status":"AT"},"geometry":{"type":"Polygon","coordinates":[[[-42.7022,-22.7569],[-42.7068,-22.7567],[-42.7023,-22.7568],[-42.7022,-22.7569]]]}},{"type":"Feature","properties":{"cod_tema":"AREA_SERVIDAO_ADMINISTRATIVA_TOTAL","cod_imovel":"RJ-3305752-5CD097CBE8C84FEB9D4101BDEDF35357","num_area":"0.4524000000000000000000000000000","ind_status":"AT"},"geometry":{"type":"Polygon","coordinates":[[[-42.7022,-22.7569],[-42.7068,-22.7567],[-42.7023,-22.7568],[-42.7022,-22.7569]]]}},{"type":"Feature","properties":{"cod_tema":"AREA_UTILIDADE_PUBLICA","cod_imovel":"RJ-3305752-69D39576A7BE4159A2AC3B9BD5A413FD","num_area":"0.3642000000000000000000000000000","ind_status":"AT"},"geometry":{"type":"Polygon","coordinates":[[[-42.7093,-22.7903],[-42.7135,-22.7875],[-42.7098,-22.7899],[-42.7093,-22.7903]]]}},{"type":"Feature","properties":{"cod_tema":"AREA_SERVIDAO_ADMINISTRATIVA_TOTAL","cod_imovel":"RJ-3305752-69D39576A7BE4159A2AC3B9BD5A413FD","num_area":"0.3642000000000000000000000000000","ind_status":"AT"},"geometry":{"type":"Polygon","coordinates":[[[-42.7093,-22.7903],[-42.7135,-22.7875],[-42.7098,-22.7899],[-42.7093,-22.7903]]]}},{"type":"Feature","properties":{"cod_tema":"AREA_INFRAESTRUTURA_PUBLICA","cod_imovel":"RJ-3305752-7B2B4413628844E5ADD9207625D1E51D","num_area":"0.8160000000000000000000000000000","ind_status":"AT"},"geometry":{"type":"Polygon","coordinates":[[[-42.7165,-22.8011],[-42.7148,-22.8041],[-42.7166,-22.8013],[-42.7165,-22.8011]]]}},{"type":"Feature","properties":{"cod_tema":"AREA_SERVIDAO_ADMINISTRATIVA_TOTAL","cod_imovel":"RJ-3305752-7B2B4413628844E5ADD9207625D1E51D","num_area":"0.8160000000000000000000000000000","ind_status":"AT"},"geometry":{"type":"Polygon","coordinates":[[[-42.7165,-22.8011],[-42.7148,-22.8041],[-42.7166,-22.8013],[-42.7165,-22.8011]]]}},{"type":"Feature","properties":{"cod_tema":"AREA_INFRAESTRUTURA_PUBLICA","cod_imovel":"RJ-3305752-8E0312B27EA44512A774254A6CDCAE48","num_area":"0.2701000000000000000000000000000","ind_status":"AT"},"geometry":{"type":"Polygon","coordinates":[[[-42.7255,-22.8001],[-42.7223,-22.7992],[-42.7253,-22.8],[-42.7255,-22.8001]]]}},{"type":"Feature","properties":{"cod_tema":"AREA_SERVIDAO_ADMINISTRATIVA_TOTAL","cod_imovel":"RJ-3305752-8E0312B27EA44512A774254A6CDCAE48","num_area":"0.4885000000000000000000000000000","ind_status":"AT"},"geometry":{"type":"Polygon","coordinates":[[[-42.7255,-22.8001],[-42.7223,-22.7993],[-42.7253,-22.8],[-42.7255,-22.8001]]]}},{"type":"Feature","properties":{"cod_tema":"AREA_INFRAESTRUTURA_PUBLICA","cod_imovel":"RJ-3305752-9D5F9C8938E14ACDB624DE154B21769C","num_area":"0.6102000000000000000000000000000","ind_status":"AT"},"geometry":{"type":"Polygon","coordinates":[[[-42.7101,-22.8148],[-42.7101,-22.811],[-42.7102,-22.8145],[-42.7101,-22.8148]]]}},{"type":"Feature","properties":{"cod_tema":"AREA_SERVIDAO_ADMINISTRATIVA_TOTAL","cod_imovel":"RJ-3305752-9D5F9C8938E14ACDB624DE154B21769C","num_area":"0.6102000000000000000000000000000","ind_status":"AT"},"geometry":{"type":"Polygon","coordinates":[[[-42.7101,-22.8148],[-42.7101,-22.811],[-42.7102,-22.8145],[-42.7101,-22.8148]]]}},{"type":"Feature","properties":{"cod_tema":"AREA_INFRAESTRUTURA_PUBLICA","cod_imovel":"RJ-3305752-A5F55EB319574604979D521E67AC293F","num_area":"1.9101000000000000000000000000000","ind_status":"AT"},"geometry":{"type":"Polygon","coordinates":[[[-42.7101,-22.8146],[-42.7113,-22.8182],[-42.7102,-22.8143],[-42.7101,-22.8146]],[[-42.7115,-22.8122],[-42.7117,-22.8177],[-42.7116,-22.8132],[-42.7115,-22.8122]]]}},{"type":"Feature","properties":{"cod_tema":"AREA_SERVIDAO_ADMINISTRATIVA_TOTAL","cod_imovel":"RJ-3305752-A5F55EB319574604979D521E67AC293F","num_area":"1.9101000000000000000000000000000","ind_status":"AT"},"geometry":{"type":"Polygon","coordinates":[[[-42.7101,-22.8146],[-42.7113,-22.8182],[-42.7102,-22.8143],[-42.7101,-22.8146]],[[-42.7115,-22.8122],[-42.7117,-22.8177],[-42.7116,-22.8132],[-42.7115,-22.8122]]]}},{"type":"Feature","properties":{"cod_tema":"AREA_INFRAESTRUTURA_PUBLICA","cod_imovel":"RJ-3305752-A6B9129DF32A4738BB1D8AEE463654A2","num_area":"0.4212000000000000000000000000000","ind_status":"AT"},"geometry":{"type":"Polygon","coordinates":[[[-42.7423,-22.7668],[-42.745,-22.7647],[-42.7424,-22.7667],[-42.7423,-22.7668]]]}},{"type":"Feature","properties":{"cod_tema":"AREA_SERVIDAO_ADMINISTRATIVA_TOTAL","cod_imovel":"RJ-3305752-A6B9129DF32A4738BB1D8AEE463654A2","num_area":"0.4212000000000000000000000000000","ind_status":"AT"},"geometry":{"type":"Polygon","coordinates":[[[-42.7423,-22.7668],[-42.745,-22.7647],[-42.7424,-22.7667],[-42.7423,-22.7668]]]}},{"type":"Feature","properties":{"cod_tema":"AREA_INFRAESTRUTURA_PUBLICA","cod_imovel":"RJ-3305752-DD84310A34A34F7FA3B7FCF815F45D53","num_area":"0.8887000000000000000000000000000","ind_status":"AT"},"geometry":{"type":"Polygon","coordinates":[[[-42.7405,-22.7715],[-42.7371,-22.7676],[-42.7401,-22.7752],[-42.7399,-22.7717],[-42.7405,-22.7715]]]}},{"type":"Feature","properties":{"cod_tema":"AREA_SERVIDAO_ADMINISTRATIVA_TOTAL","cod_imovel":"RJ-3305752-DD84310A34A34F7FA3B7FCF815F45D53","num_area":"0.8887000000000000000000000000000","ind_status":"AT"},"geometry":{"type":"Polygon","coordinates":[[[-42.7405,-22.7715],[-42.7371,-22.7676],[-42.7401,-22.7752],[-42.7399,-22.7717],[-42.7405,-22.7715]]]}},{"type":"Feature","properties":{"cod_tema":"AREA_UTILIDADE_PUBLICA","cod_imovel":"RJ-3305752-E040AB088DE54C4297B04B7D29B6DB1A","num_area":"0.9553000000000000000000000000000","ind_status":"AT"},"geometry":{"type":"Polygon","coordinates":[[[-42.7632,-22.7598],[-42.7596,-22.7596],[-42.7627,-22.76],[-42.7632,-22.7598]]]}},{"type":"Feature","properties":{"cod_tema":"AREA_SERVIDAO_ADMINISTRATIVA_TOTAL","cod_imovel":"RJ-3305752-E040AB088DE54C4297B04B7D29B6DB1A","num_area":"0.9553000000000000000000000000000","ind_status":"AT"},"geometry":{"type":"Polygon","coordinates":[[[-42.7632,-22.7598],[-42.7596,-22.7596],[-42.7627,-22.76],[-42.7632,-22.7598]]]}},{"type":"Feature","properties":{"cod_tema":"AREA_INFRAESTRUTURA_PUBLICA","cod_imovel":"RJ-3305752-E0D35167F56F4822BF936F1F5BE1A7C0","num_area":"1.0953000000000000000000000000000","ind_status":"AT"},"geometry":{"type":"Polygon","coordinates":[[[-42.72,-22.7511],[-42.7178,-22.7477],[-42.72,-22.7511],[-42.72,-22.7511]]]}},{"type":"Feature","properties":{"cod_tema":"AREA_SERVIDAO_ADMINISTRATIVA_TOTAL","cod_imovel":"RJ-3305752-E0D35167F56F4822BF936F1F5BE1A7C0","num_area":"1.0953000000000000000000000000000","ind_status":"AT"},"geometry":{"type":"Polygon","coordinates":[[[-42.72,-22.7511],[-42.7178,-22.7477],[-42.72,-22.7511],[-42.72,-22.7511]]]}},{"type":"Feature","properties":{"cod_tema":"AREA_INFRAESTRUTURA_PUBLICA","cod_imovel":"RJ-3305752-EDFA7734D1624C49AA1EF4BD10431DDA","num_area":"0.4711000000000000000000000000000","ind_status":"AT"},"geometry":{"type":"Polygon","coordinates":[[[-42.7382,-22.7893],[-42.733,-22.7916],[-42.737,-22.7897],[-42.7382,-22.7893]]]}},{"type":"Feature","properties":{"cod_tema":"AREA_SERVIDAO_ADMINISTRATIVA_TOTAL","cod_imovel":"RJ-3305752-EDFA7734D1624C49AA1EF4BD10431DDA","num_area":"0.4711000000000000000000000000000","ind_status":"AT"},"geometry":{"type":"Polygon","coordinates":[[[-42.7382,-22.7893],[-42.733,-22.7916],[-42.737,-22.7897],[-42.7382,-22.7893]]]}},{"type":"Feature","properties":{"cod_tema":"AREA_INFRAESTRUTURA_PUBLICA","cod_imovel":"RJ-3305752-FC0953A474014AE0ADA325B76BE7CDAB","num_area":"4.0292000000000000000000000000000","ind_status":"AT"},"geometry":{"type":"Polygon","coordinates":[[[-42.7737,-22.8044],[-42.7758,-22.8005],[-42.7816,-22.8027],[-42.7658,-22.7992],[-42.7794,-22.8121],[-42.7735,-22.8059],[-42.7737,-22.8044]],[[-42.7736,-22.801],[-42.7735,-22.8058],[-42.7679,-22.8],[-42.7731,-22.8009],[-42.7736,-22.801]],[[-42.7918,-22.8003],[-42.7831,-22.8035],[-42.7901,-22.8009],[-42.7918,-22.8003]]]}},{"type":"Feature","properties":{"cod_tema":"AREA_SERVIDAO_ADMINISTRATIVA_TOTAL","cod_imovel":"RJ-3305752-FC0953A474014AE0ADA325B76BE7CDAB","num_area":"4.0292000000000000000000000000000","ind_status":"AT"},"geometry":{"type":"Polygon","coordinates":[[[-42.7737,-22.8044],[-42.7758,-22.8005],[-42.7816,-22.8027],[-42.7658,-22.7992],[-42.7794,-22.8121],[-42.7735,-22.8059],[-42.7737,-22.8044]],[[-42.7736,-22.801],[-42.7735,-22.8058],[-42.7679,-22.8],[-42.7731,-22.8009],[-42.7736,-22.801]],[[-42.7918,-22.8003],[-42.7831,-22.8035],[-42.7901,-22.8009],[-42.7918,-22.8003]]]}},{"type":"Feature","properties":{"cod_tema":"AREA_INFRAESTRUTURA_PUBLICA","cod_imovel":"RJ-3305752-E64DBD7A4EDA452BBE23F9FA0823B581","num_area":"0.2035000000000000000000000000000","ind_status":"AT"},"geometry":{"type":"Polygon","coordinates":[[[-42.7481,-22.7795],[-42.75,-22.7771],[-42.7481,-22.7795],[-42.7481,-22.7795]]]}},{"type":"Feature","properties":{"cod_tema":"AREA_SERVIDAO_ADMINISTRATIVA_TOTAL","cod_imovel":"RJ-3305752-E64DBD7A4EDA452BBE23F9FA0823B581","num_area":"0.2035000000000000000000000000000","ind_status":"AT"},"geometry":{"type":"Polygon","coordinates":[[[-42.7481,-22.7795],[-42.75,-22.7771],[-42.7481,-22.7795],[-42.7481,-22.7795]]]}},{"type":"Feature","properties":{"cod_tema":"AREA_INFRAESTRUTURA_PUBLICA","cod_imovel":"RJ-3305752-E1BD0F549B204D63AF75051A5564F836","num_area":"0.5356000000000000000000000000000","ind_status":"AT"},"geometry":{"type":"Polygon","coordinates":[[[-42.7441,-22.7826],[-42.7483,-22.7828],[-42.7441,-22.7826],[-42.7441,-22.7826]]]}},{"type":"Feature","properties":{"cod_tema":"AREA_SERVIDAO_ADMINISTRATIVA_TOTAL","cod_imovel":"RJ-3305752-E1BD0F549B204D63AF75051A5564F836","num_area":"0.5356000000000000000000000000000","ind_status":"AT"},"geometry":{"type":"Polygon","coordinates":[[[-42.7441,-22.7826],[-42.7483,-22.7828],[-42.7441,-22.7826],[-42.7441,-22.7826]]]}},{"type":"Feature","properties":{"cod_tema":"AREA_INFRAESTRUTURA_PUBLICA","cod_imovel":"RJ-3305752-D1282873CEDD4606999E3BDA385A9DB9","num_area":"0.8167000000000000000000000000000","ind_status":"AT"},"geometry":{"type":"Polygon","coordinates":[[[-42.6943,-22.7949],[-42.6887,-22.7952],[-42.6939,-22.7949],[-42.6943,-22.7949]]]}},{"type":"Feature","properties":{"cod_tema":"AREA_SERVIDAO_ADMINISTRATIVA_TOTAL","cod_imovel":"RJ-3305752-D1282873CEDD4606999E3BDA385A9DB9","num_area":"0.8167000000000000000000000000000","ind_status":"AT"},"geometry":{"type":"Polygon","coordinates":[[[-42.6943,-22.7949],[-42.6887,-22.7952],[-42.6939,-22.7949],[-42.6943,-22.7949]]]}},{"type":"Feature","properties":{"cod_tema":"AREA_INFRAESTRUTURA_PUBLICA","cod_imovel":"RJ-3305752-7C5B6AA016A344A0A8CF98ECEB24E0A8","num_area":"2.7585000000000000000000000000000","ind_status":"AT"},"geometry":{"type":"Polygon","coordinates":[[[-42.7648,-22.7773],[-42.7697,-22.7743],[-42.7651,-22.7769],[-42.7648,-22.7773]],[[-42.7591,-22.7939],[-42.7603,-22.7879],[-42.7591,-22.7937],[-42.7591,-22.7939]],[[-42.79,-22.7874],[-42.7834,-22.7789],[-42.7898,-22.7873],[-42.79,-22.7874]]]}},{"type":"Feature","properties":{"cod_tema":"AREA_SERVIDAO_ADMINISTRATIVA_TOTAL","cod_imovel":"RJ-3305752-7C5B6AA016A344A0A8CF98ECEB24E0A8","num_area":"2.7585000000000000000000000000000","ind_status":"AT"},"geometry":{"type":"Polygon","coordinates":[[[-42.7648,-22.7773],[-42.7697,-22.7743],[-42.7651,-22.7769],[-42.7648,-22.7773]],[[-42.7591,-22.7939],[-42.7603,-22.7879],[-42.7591,-22.7937],[-42.7591,-22.7939]],[[-42.79,-22.7874],[-42.7834,-22.7789],[-42.7898,-22.7873],[-42.79,-22.7874]]]}},{"type":"Feature","properties":{"cod_tema":"AREA_INFRAESTRUTURA_PUBLICA","cod_imovel":"RJ-3305752-6070CCBAB84C4A97961F1ACC7E3A538E","num_area":"0.2985000000000000000000000000000","ind_status":"AT"},"geometry":{"type":"Polygon","coordinates":[[[-42.748,-22.8016],[-42.7472,-22.7984],[-42.7481,-22.8013],[-42.748,-22.8016]]]}},{"type":"Feature","properties":{"cod_tema":"AREA_SERVIDAO_ADMINISTRATIVA_TOTAL","cod_imovel":"RJ-3305752-6070CCBAB84C4A97961F1ACC7E3A538E","num_area":"0.2985000000000000000000000000000","ind_status":"AT"},"geometry":{"type":"Polygon","coordinates":[[[-42.748,-22.8016],[-42.7472,-22.7984],[-42.7481,-22.8013],[-42.748,-22.8016]]]}},{"type":"Feature","properties":{"cod_tema":"AREA_UTILIDADE_PUBLICA","cod_imovel":"RJ-3305752-F260CEDAE0244D03810400087CEB6758","num_area":"0.3500000000000000000000000000000","ind_status":"AT"},"geometry":{"type":"Polygon","coordinates":[[[-42.6943,-22.7949],[-42.6985,-22.7954],[-42.6943,-22.7949],[-42.6943,-22.7949]]]}},{"type":"Feature","properties":{"cod_tema":"AREA_SERVIDAO_ADMINISTRATIVA_TOTAL","cod_imovel":"RJ-3305752-F260CEDAE0244D03810400087CEB6758","num_area":"0.3500000000000000000000000000000","ind_status":"AT"},"geometry":{"type":"Polygon","coordinates":[[[-42.6943,-22.7949],[-42.6985,-22.7954],[-42.6943,-22.7949],[-42.6943,-22.7949]]]}},{"type":"Feature","properties":{"cod_tema":"AREA_UTILIDADE_PUBLICA","cod_imovel":"RJ-3305752-4C2FA5F12939448D83F79F625BFCB8AA","num_area":"0.4971000000000000000000000000000","ind_status":"AT"},"geometry":{"type":"Polygon","coordinates":[[[-42.7466,-22.7573],[-42.7483,-22.7607],[-42.7468,-22.7576],[-42.7466,-22.7573]]]}},{"type":"Feature","properties":{"cod_tema":"AREA_SERVIDAO_ADMINISTRATIVA_TOTAL","cod_imovel":"RJ-3305752-4C2FA5F12939448D83F79F625BFCB8AA","num_area":"0.4971000000000000000000000000000","ind_status":"AT"},"geometry":{"type":"Polygon","coordinates":[[[-42.7466,-22.7573],[-42.7483,-22.7607],[-42.7468,-22.7576],[-42.7466,-22.7573]]]}}]}