{"type":"FeatureCollection","features":[{"type":"Feature","properties":{"cod_tema":"AREA_USO_RESTRITO_DECLIVIDADE_25_A_45","cod_imovel":"RJ-3300159-12BADFAA43B64FCCB994B4CB8A7C5C91","num_area":"11.083700000000000000000000000000","ind_status":"AT"},"geometry":{"type":"Polygon","coordinates":[[[-42.125,-21.6608],[-42.1229,-21.66],[-42.1246,-21.6611],[-42.125,-21.6608]]]}},{"type":"Feature","properties":{"cod_tema":"AREA_USO_RESTRITO_DECLIVIDADE_25_A_45","cod_imovel":"RJ-3300159-890181423FB846389F6193D94424A544","num_area":"6.8721000000000000000000000000000","ind_status":"AT"},"geometry":{"type":"Polygon","coordinates":[[[-42.167,-21.6517],[-42.1638,-21.6504],[-42.1669,-21.6518],[-42.167,-21.6517]]]}},{"type":"Feature","properties":{"cod_tema":"AREA_USO_RESTRITO_DECLIVIDADE_25_A_45","cod_imovel":"RJ-3300159-D3BB20A3966A4238820817DAAA8D5499","num_area":"4.8859000000000000000000000000000","ind_status":"AT"},"geometry":{"type":"Polygon","coordinates":[[[-42.1272,-21.6953],[-42.1262,-21.6907],[-42.1266,-21.6949],[-42.1272,-21.6953]]]}},{"type":"Feature","properties":{"cod_tema":"AREA_USO_RESTRITO_DECLIVIDADE_25_A_45","cod_imovel":"RJ-3300159-5B8311BCA3004DF198DA3966B2A95A8B","num_area":"3.4930000000000000000000000000000","ind_status":"PE"},"geometry":{"type":"Polygon","coordinates":[[[-42.1008,-21.6313],[-42.0992,-21.6326],[-42.1009,-21.6315],[-42.1008,-21.6313]],[[-42.0983,-21.6359],[-42.0968,-21.6342],[-42.0983,-21.6359],[-42.0983,-21.6359]]]}},{"type":"Feature","properties":{"cod_tema":"AREA_USO_RESTRITO_DECLIVIDADE_25_A_45","cod_imovel":"RJ-3300159-22189C48538E4E84B236533687A41F07","num_area":"8.8103000000000000000000000000000","ind_status":"AT"},"geometry":{"type":"Polygon","coordinates":[[[-42.1593,-21.6407],[-42.1559,-21.6409],[-42.1593,-21.6415],[-42.1593,-21.6407]]]}},{"type":"Feature","properties":{"cod_tema":"AREA_USO_RESTRITO_DECLIVIDADE_25_A_45","cod_imovel":"RJ-3300159-9F8A3200C36F4563A1DE4ABC9657294A","num_area":"9.7076000000000000000000000000000","ind_status":"AT"},"geometry":{"type":"Polygon","coordinates":[[[-42.1442,-21.6542],[-42.1422,-21.6501],[-42.1406,-21.6534],[-42.1437,-21.6551],[-42.1442,-21.6542]]]}},{"type":"Feature","properties":{"cod_tema":"AREA_USO_RESTRITO_DECLIVIDADE_25_A_45","cod_imovel":"RJ-3300159-CD1839544E8B406D844F6C2F324788D2","num_area":"3.7282000000000000000000000000000","ind_status":"AT"},"geometry":{"type":"Polygon","coordinates":[[[-42.1865,-21.661],[-42.1846,-21.6616],[-42.1872,-21.6614],[-42.1865,-21.661]]]}}]}