{"type":"FeatureCollection","features":[{"type":"Feature","properties":{"cod_tema":"AREA_USO_RESTRITO_DECLIVIDADE_25_A_45","cod_imovel":"RJ-3300308-B953C0943C7C4D1194F43FC23D6E7468","num_area":"38.669800000000000000000000000000","ind_status":"AT"},"geometry":{"type":"Polygon","coordinates":[[[-43.9139,-22.4628],[-43.9105,-22.4651],[-43.9142,-22.463],[-43.9139,-22.4628]],[[-43.912,-22.4613],[-43.9097,-22.4624],[-43.9119,-22.4614],[-43.912,-22.4613]],[[-43.9027,-22.4719],[-43.9042,-22.4669],[-43.903,-22.4716],[-43.9027,-22.4719]],[[-43.9081,-22.4641],[-43.9096,-22.4624],[-43.9078,-22.4642],[-43.9081,-22.4641]],[[-43.9059,-22.4665],[-43.9091,-22.4642],[-43.9059,-22.4665],[-43.9059,-22.4665]],[[-43.9092,-22.4585],[-43.9075,-22.4605],[-43.9098,-22.4592],[-43.9092,-22.4585]],[[-43.9118,-22.4628],[-43.9101,-22.4649],[-43.9122,-22.4626],[-43.9118,-22.4628]],[[-43.9099,-22.4691],[-43.9138,-22.4641],[-43.9097,-22.4685],[-43.9099,-22.4691]],[[-43.9066,-22.4723],[-43.9092,-22.47],[-43.9063,-22.4719],[-43.9066,-22.4723]],[[-43.9045,-22.4729],[-43.9078,-22.4696],[-43.905,-22.4693],[-43.904,-22.4729],[-43.9045,-22.4729]],[[-43.9053,-22.4631],[-43.9039,-22.4653],[-43.9069,-22.466],[-43.9041,-22.4653],[-43.9096,-22.462],[-43.9054,-22.463],[-43.9053,-22.4631]]]}},{"type":"Feature","properties":{"cod_tema":"AREA_USO_RESTRITO_DECLIVIDADE_25_A_45","cod_imovel":"RJ-3300308-10937DFF830E42729C489DF18604FCC9","num_area":"11.678600000000000000000000000000","ind_status":"AT"},"geometry":{"type":"Polygon","coordinates":[[[-43.8646,-22.3985],[-43.8667,-22.3982],[-43.8647,-22.3984],[-43.8646,-22.3985]],[[-43.8625,-22.3979],[-43.8651,-22.3955],[-43.8629,-22.3972],[-43.8625,-22.3979]],[[-43.8622,-22.3917],[-43.8622,-22.3976],[-43.8646,-22.3946],[-43.8623,-22.3918],[-43.8622,-22.3917]]]}},{"type":"Feature","properties":{"cod_tema":"AREA_USO_RESTRITO_DECLIVIDADE_25_A_45","cod_imovel":"RJ-3300308-4E79B4674D3D49049C7F7E8939F200A2","num_area":"8.3253000000000000000000000000000","ind_status":"AT"},"geometry":{"type":"Polygon","coordinates":[[[-44.0451,-22.4711],[-44.0468,-22.4691],[-44.0453,-22.4707],[-44.0451,-22.4711]],[[-44.0454,-22.4691],[-44.0424,-22.4693],[-44.0449,-22.4686],[-44.0439,-22.4721],[-44.0455,-22.4691],[-44.0454,-22.4691]]]}},{"type":"Feature","properties":{"cod_tema":"AREA_USO_RESTRITO_DECLIVIDADE_25_A_45","cod_imovel":"RJ-3300308-2016C115FB6D48BAB07D5F4900DC0109","num_area":"5.1632000000000000000000000000000","ind_status":"AT"},"geometry":{"type":"Polygon","coordinates":[[[-44.0523,-22.4628],[-44.0485,-22.4637],[-44.0511,-22.4638],[-44.0523,-22.4628]]]}},{"type":"Feature","properties":{"cod_tema":"AREA_USO_RESTRITO_DECLIVIDADE_25_A_45","cod_imovel":"RJ-3300308-18F8C510FC74465CBA6282746278A17E","num_area":"38.684900000000000000000000000000","ind_status":"AT"},"geometry":{"type":"Polygon","coordinates":[[[-43.9358,-22.4304],[-43.9358,-22.4325],[-43.936,-22.4305],[-43.9358,-22.4304]],[[-43.9435,-22.4289],[-43.9399,-22.4296],[-43.9432,-22.4294],[-43.9435,-22.4289]],[[-43.9375,-22.4317],[-43.9362,-22.4364],[-43.9373,-22.4324],[-43.9375,-22.4317]],[[-43.9411,-22.4304],[-43.938,-22.4317],[-43.9396,-22.4351],[-43.941,-22.4309],[-43.9411,-22.4304]],[[-43.9429,-22.4319],[-43.9399,-22.4341],[-43.9428,-22.4318],[-43.9429,-22.4319]],[[-43.9336,-22.4335],[-43.9281,-22.4326],[-43.9333,-22.4339],[-43.9336,-22.4335]],[[-43.9272,-22.4291],[-43.9275,-22.4326],[-43.9344,-22.4321],[-43.9273,-22.4287],[-43.9272,-22.4291]]]}},{"type":"Feature","properties":{"cod_tema":"AREA_USO_RESTRITO_DECLIVIDADE_25_A_45","cod_imovel":"RJ-3300308-AB657ABB968C4F5D8B247C563BF8F958","num_area":"48.134600000000000000000000000000","ind_status":"AT"},"geometry":{"type":"Polygon","coordinates":[[[-43.8905,-22.4908],[-43.8894,-22.4928],[-43.8905,-22.4909],[-43.8905,-22.4908]],[[-43.8839,-22.4905],[-43.8856,-22.4891],[-43.8839,-22.4904],[-43.8839,-22.4905]],[[-43.8833,-22.4959],[-43.8836,-22.4937],[-43.8832,-22.4959],[-43.8833,-22.4959]],[[-43.8887,-22.4974],[-43.8889,-22.4944],[-43.8887,-22.4973],[-43.8887,-22.4974]],[[-43.8902,-22.4985],[-43.891,-22.495],[-43.8902,-22.4985],[-43.8902,-22.4985]],[[-43.8912,-22.488],[-43.8918,-22.4851],[-43.8911,-22.488],[-43.8912,-22.488]],[[-43.8822,-22.492],[-43.8821,-22.494],[-43.8848,-22.4913],[-43.8824,-22.4919],[-43.8822,-22.492]],[[-43.8862,-22.4926],[-43.8876,-22.4871],[-43.8855,-22.4923],[-43.8862,-22.4926]],[[-43.887,-22.4981],[-43.8896,-22.4906],[-43.8866,-22.4975],[-43.887,-22.4981]],[[-43.8899,-22.4823],[-43.8896,-22.486],[-43.8904,-22.483],[-43.8899,-22.4823]],[[-43.89,-22.4856],[-43.8888,-22.4827],[-43.8901,-22.4856],[-43.89,-22.4856]],[[-43.8933,-22.5018],[-43.8913,-22.495],[-43.8905,-22.501],[-43.8932,-22.5018],[-43.8933,-22.5018]]]}},{"type":"Feature","properties":{"cod_tema":"AREA_USO_RESTRITO_DECLIVIDADE_25_A_45","cod_imovel":"RJ-3300308-A54F8DA8B5FC4899A3F53D193599A891","num_area":"37.551200000000000000000000000000","ind_status":"AT"},"geometry":{"type":"Polygon","coordinates":[[[-44.0781,-22.3389],[-44.0796,-22.3405],[-44.0781,-22.3388],[-44.0781,-22.3389]],[[-44.0612,-22.3469],[-44.0643,-22.3475],[-44.0612,-22.3469],[-44.0612,-22.3469]],[[-44.0635,-22.331],[-44.0647,-22.3292],[-44.0635,-22.331],[-44.0635,-22.331]],[[-44.0647,-22.3372],[-44.0667,-22.3406],[-44.0647,-22.3371],[-44.0647,-22.3372]],[[-44.0645,-22.3482],[-44.0654,-22.3451],[-44.0646,-22.3481],[-44.0645,-22.3482]],[[-44.0587,-22.3321],[-44.0642,-22.3403],[-44.0587,-22.3321],[-44.0587,-22.3321]],[[-44.0747,-22.3414],[-44.0719,-22.344],[-44.0757,-22.3458],[-44.0727,-22.3439],[-44.0746,-22.3415],[-44.0747,-22.3414]]]}},{"type":"Feature","properties":{"cod_tema":"AREA_USO_RESTRITO_DECLIVIDADE_25_A_45","cod_imovel":"RJ-3300308-D43F11DCE7AB4B9299649931F340DCFA","num_area":"38.916600000000000000000000000000","ind_status":"AT"},"geometry":{"type":"Polygon","coordinates":[[[-43.9733,-22.4919],[-43.9757,-22.4908],[-43.9731,-22.4916],[-43.9733,-22.4919]],[[-43.9715,-22.4917],[-43.9722,-22.4894],[-43.9721,-22.4916],[-43.9715,-22.4917]],[[-43.9633,-22.4746],[-43.958,-22.4751],[-43.9626,-22.474],[-43.9633,-22.4746]],[[-43.9701,-22.4696],[-43.9676,-22.4698],[-43.9701,-22.4697],[-43.9701,-22.4696]],[[-43.9648,-22.4722],[-43.964,-22.4751],[-43.965,-22.4719],[-43.9648,-22.4722]],[[-43.958,-22.484],[-43.956,-22.4901],[-43.9581,-22.4841],[-43.958,-22.484]],[[-43.9516,-22.4726],[-43.95,-22.4748],[-43.9526,-22.4726],[-43.9516,-22.4726]]]}},{"type":"Feature","properties":{"cod_tema":"AREA_USO_RESTRITO_DECLIVIDADE_25_A_45","cod_imovel":"RJ-3300308-D05278FB50FA40B89EF25FAD9250BCE1","num_area":"4.3052000000000000000000000000000","ind_status":"AT"},"geometry":{"type":"Polygon","coordinates":[[[-43.8843,-22.4654],[-43.8854,-22.4688],[-43.8846,-22.466],[-43.8843,-22.4654]]]}},{"type":"Feature","properties":{"cod_tema":"AREA_USO_RESTRITO_DECLIVIDADE_25_A_45","cod_imovel":"RJ-3300308-044147DB566F4F4A966B9D89B4377453","num_area":"52.537100000000000000000000000000","ind_status":"AT"},"geometry":{"type":"Polygon","coordinates":[[[-43.7595,-22.4168],[-43.7619,-22.4169],[-43.7599,-22.4165],[-43.7595,-22.4168]],[[-43.7653,-22.4108],[-43.7632,-22.4109],[-43.7656,-22.411],[-43.7653,-22.4108]],[[-43.7598,-22.4152],[-43.7606,-22.413],[-43.7597,-22.4148],[-43.7598,-22.4152]],[[-43.758,-22.4061],[-43.7569,-22.4079],[-43.758,-22.4061],[-43.758,-22.4061]],[[-43.7603,-22.409],[-43.7622,-22.4104],[-43.7603,-22.4087],[-43.7603,-22.409]],[[-43.7656,-22.4175],[-43.7618,-22.4163],[-43.7652,-22.4173],[-43.7656,-22.4175]],[[-43.765,-22.409],[-43.7632,-22.4103],[-43.7653,-22.4092],[-43.765,-22.409]],[[-43.7617,-22.4061],[-43.7608,-22.4083],[-43.762,-22.4061],[-43.7617,-22.4061]],[[-43.7627,-22.4233],[-43.7641,-22.4206],[-43.7626,-22.4233],[-43.7627,-22.4233]],[[-43.7636,-22.4234],[-43.7665,-22.4225],[-43.7641,-22.423],[-43.7636,-22.4234]],[[-43.7569,-22.4151],[-43.761,-22.4201],[-43.7569,-22.415],[-43.7569,-22.4151]],[[-43.7587,-22.4074],[-43.7584,-22.4098],[-43.7589,-22.4075],[-43.7587,-22.4074]]]}},{"type":"Feature","properties":{"cod_tema":"AREA_USO_RESTRITO_DECLIVIDADE_25_A_45","cod_imovel":"RJ-3306206-18791223C1744417B0DFB3DAAED145A5","num_area":"88.669300000000000000000000000000","ind_status":"AT"},"geometry":{"type":"Polygon","coordinates":[[[-43.7857,-22.4478],[-43.7787,-22.4445],[-43.7765,-22.4464],[-43.7781,-22.4438],[-43.7751,-22.4419],[-43.7717,-22.4435],[-43.7838,-22.4533],[-43.7785,-22.4466],[-43.7831,-22.4495],[-43.7857,-22.4478],[-43.7857,-22.4478]],[[-43.7771,-22.4444],[-43.7724,-22.4434],[-43.7769,-22.444],[-43.7771,-22.4444]],[[-43.774,-22.4516],[-43.7723,-22.4559],[-43.7741,-22.4515],[-43.774,-22.4516]],[[-43.7745,-22.4528],[-43.7748,-22.4557],[-43.7752,-22.4528],[-43.7745,-22.4528]],[[-43.7746,-22.458],[-43.778,-22.4561],[-43.7741,-22.4575],[-43.7746,-22.458]],[[-43.7761,-22.4489],[-43.778,-22.4554],[-43.7796,-22.4536],[-43.7761,-22.4489],[-43.7761,-22.4489]],[[-43.7794,-22.4553],[-43.7778,-22.459],[-43.7837,-22.4536],[-43.7779,-22.4585],[-43.7794,-22.4564],[-43.7794,-22.4553]],[[-43.7794,-22.4553],[-43.7823,-22.4521],[-43.7769,-22.4487],[-43.782,-22.4525],[-43.7794,-22.4549],[-43.7794,-22.4553]]]}},{"type":"Feature","properties":{"cod_tema":"AREA_USO_RESTRITO_DECLIVIDADE_25_A_45","cod_imovel":"RJ-3300308-477310FA387A40339CD0F8B936E3F355","num_area":"99.278100000000000000000000000000","ind_status":"AT"},"geometry":{"type":"Polygon","coordinates":[[[-43.7857,-22.4478],[-43.7727,-22.4431],[-43.7769,-22.444],[-43.773,-22.4439],[-43.7838,-22.4531],[-43.7785,-22.4466],[-43.7831,-22.4495],[-43.7857,-22.4478],[-43.7857,-22.4478]],[[-43.7812,-22.4573],[-43.7779,-22.4585],[-43.779,-22.4552],[-43.7728,-22.4609],[-43.7777,-22.4583],[-43.7776,-22.4618],[-43.7812,-22.458],[-43.7812,-22.4573]],[[-43.7744,-22.459],[-43.7768,-22.4549],[-43.7735,-22.4589],[-43.7744,-22.459]],[[-43.7794,-22.4553],[-43.7823,-22.4521],[-43.7769,-22.4487],[-43.782,-22.4525],[-43.7794,-22.4549],[-43.7794,-22.4553]],[[-43.7732,-22.4404],[-43.7757,-22.4403],[-43.7733,-22.4404],[-43.7732,-22.4404]],[[-43.7752,-22.4531],[-43.7748,-22.4557],[-43.7755,-22.4531],[-43.7752,-22.4531]],[[-43.7755,-22.4506],[-43.778,-22.4554],[-43.7796,-22.4536],[-43.7758,-22.4505],[-43.7755,-22.4506]],[[-43.7792,-22.4608],[-43.7812,-22.4583],[-43.7792,-22.4608],[-43.7792,-22.4608]],[[-43.7817,-22.4564],[-43.7835,-22.4536],[-43.7816,-22.4563],[-43.7817,-22.4564]]]}},{"type":"Feature","properties":{"cod_tema":"AREA_USO_RESTRITO_DECLIVIDADE_25_A_45","cod_imovel":"RJ-3300308-CE7349C4AB3643B8B761C985668C92D3","num_area":"54.977100000000000000000000000000","ind_status":"AT"},"geometry":{"type":"Polygon","coordinates":[[[-43.9148,-22.5045],[-43.9127,-22.5014],[-43.9111,-22.5078],[-43.9148,-22.505],[-43.9148,-22.5045]],[[-43.9121,-22.5038],[-43.9128,-22.5064],[-43.9122,-22.504],[-43.9121,-22.5038]],[[-43.9124,-22.4957],[-43.9135,-22.4979],[-43.9124,-22.4953],[-43.9124,-22.4957]],[[-43.9191,-22.5045],[-43.9175,-22.5069],[-43.9191,-22.5045],[-43.9191,-22.5045]],[[-43.9176,-22.5056],[-43.9166,-22.5036],[-43.9148,-22.5086],[-43.9176,-22.5056],[-43.9176,-22.5056]],[[-43.9167,-22.5042],[-43.9145,-22.5008],[-43.9166,-22.5042],[-43.9167,-22.5042]],[[-43.9169,-22.5081],[-43.9154,-22.5108],[-43.9167,-22.5085],[-43.9169,-22.5081]],[[-43.9181,-22.5083],[-43.9162,-22.5116],[-43.9181,-22.5085],[-43.9181,-22.5083]],[[-43.9183,-22.512],[-43.9185,-22.5088],[-43.9183,-22.5117],[-43.9183,-22.512]],[[-43.9194,-22.5083],[-43.9194,-22.5122],[-43.9194,-22.5085],[-43.9194,-22.5083]],[[-43.9213,-22.5109],[-43.9192,-22.5073],[-43.9212,-22.5109],[-43.9213,-22.5109]],[[-43.9212,-22.5053],[-43.9211,-22.5076],[-43.9213,-22.5052],[-43.9212,-22.5053]],[[-43.9252,-22.5076],[-43.921,-22.5094],[-43.9252,-22.5079],[-43.9252,-22.5076]],[[-43.9243,-22.5068],[-43.9234,-22.5043],[-43.9221,-22.5076],[-43.9242,-22.5068],[-43.9243,-22.5068]],[[-43.9229,-22.5036],[-43.9235,-22.5061],[-43.923,-22.5035],[-43.9229,-22.5036]]]}},{"type":"Feature","properties":{"cod_tema":"AREA_USO_RESTRITO_DECLIVIDADE_25_A_45","cod_imovel":"RJ-3300308-23EC3B53DE1D4B1CB2FD5A55E5689FC1","num_area":"4.0780000000000000000000000000000","ind_status":"AT"},"geometry":{"type":"Polygon","coordinates":[[[-44.0432,-22.4745],[-44.0456,-22.4742],[-44.0428,-22.4737],[-44.0435,-22.4712],[-44.043,-22.4743],[-44.0432,-22.4745]]]}},{"type":"Feature","properties":{"cod_tema":"AREA_USO_RESTRITO_DECLIVIDADE_25_A_45","cod_imovel":"RJ-3300308-86672A86E63C4E7C8A07B7D0F6E8AE90","num_area":"223.42930000000000000000000000000","ind_status":"AT"},"geometry":{"type":"Polygon","coordinates":[[[-44.0283,-22.316],[-44.032,-22.3169],[-44.0289,-22.3165],[-44.0314,-22.3138],[-44.0285,-22.3159],[-44.0283,-22.316]],[[-44.026,-22.3374],[-44.0356,-22.3328],[-44.026,-22.3372],[-44.026,-22.3374]],[[-44.0303,-22.3076],[-44.031,-22.3103],[-44.0304,-22.3079],[-44.0303,-22.3076]],[[-44.0357,-22.3102],[-44.0361,-22.3064],[-44.0352,-22.3098],[-44.0357,-22.3102]],[[-44.0338,-22.3172],[-44.035,-22.3144],[-44.0319,-22.3138],[-44.0338,-22.3171],[-44.0338,-22.3172]],[[-44.0257,-22.32],[-44.0307,-22.3166],[-44.0258,-22.32],[-44.0257,-22.32]],[[-44.0358,-22.3065],[-44.0315,-22.3075],[-44.0349,-22.3113],[-44.033,-22.3086],[-44.0352,-22.3072],[-44.0358,-22.3065]],[[-44.0356,-22.3325],[-44.0378,-22.3299],[-44.0343,-22.3292],[-44.0355,-22.3325],[-44.0356,-22.3325]],[[-44.038,-22.328],[-44.0402,-22.3239],[-44.0364,-22.3246],[-44.0351,-22.3211],[-44.0352,-22.3268],[-44.0372,-22.3263],[-44.035,-22.3283],[-44.038,-22.3281],[-44.038,-22.328]],[[-44.0257,-22.3208],[-44.0323,-22.32],[-44.0257,-22.3212],[-44.0252,-22.3269],[-44.028,-22.3231],[-44.0256,-22.3219],[-44.0296,-22.3226],[-44.0328,-22.3173],[-44.0258,-22.3208],[-44.0257,-22.3208]],[[-44.0352,-22.3142],[-44.0274,-22.3083],[-44.0256,-22.3195],[-44.0277,-22.3127],[-44.0315,-22.3132],[-44.0274,-22.3112],[-44.0349,-22.3142],[-44.0352,-22.3142]],[[-44.0239,-22.3359],[-44.0244,-22.3293],[-44.0267,-22.3347],[-44.0297,-22.3325],[-44.028,-22.3294],[-44.0305,-22.3306],[-44.0265,-22.3267],[-44.0289,-22.3282],[-44.0293,-22.3253],[-44.031,-22.3308],[-44.0347,-22.3281],[-44.0314,-22.3229],[-44.0336,-22.3196],[-44.026,-22.3259],[-44.0275,-22.3342],[-44.0238,-22.3287],[-44.0238,-22.3357],[-44.0239,-22.3359]],[[-44.031,-22.3235],[-44.0329,-22.327],[-44.0311,-22.3239],[-44.031,-22.3235]],[[-44.0323,-22.3278],[-44.0314,-22.33],[-44.0324,-22.3274],[-44.0323,-22.3278]]]}},{"type":"Feature","properties":{"cod_tema":"AREA_USO_RESTRITO_DECLIVIDADE_25_A_45","cod_imovel":"RJ-3300308-92898FEB488C4D29AB8DB81987FB79AF","num_area":"42.137100000000000000000000000000","ind_status":"AT"},"geometry":{"type":"Polygon","coordinates":[[[-44.0044,-22.4832],[-44.0023,-22.4823],[-44.0051,-22.4864],[-44.0065,-22.4811],[-44.0046,-22.483],[-44.0044,-22.4832]],[[-44.0094,-22.4841],[-44.0101,-22.4821],[-44.0089,-22.4846],[-44.0094,-22.4841]],[[-44.0063,-22.4948],[-44.0086,-22.4928],[-44.0066,-22.4939],[-44.0063,-22.4948]],[[-44.0084,-22.4816],[-44.0077,-22.4846],[-44.0083,-22.4818],[-44.0084,-22.4816]],[[-44.0017,-22.4777],[-44.0037,-22.4772],[-44.0017,-22.4775],[-44.0017,-22.4777]],[[-44.009,-22.4914],[-44.0098,-22.4894],[-44.0086,-22.491],[-44.009,-22.4914]],[[-44.0053,-22.4936],[-44.0031,-22.4909],[-44.0049,-22.4936],[-44.0053,-22.4936]],[[-44.0053,-22.4936],[-44.0063,-22.4957],[-44.0055,-22.4936],[-44.0053,-22.4936]],[[-44.0108,-22.4862],[-44.0065,-22.486],[-44.0107,-22.4863],[-44.0108,-22.4862]],[[-43.9995,-22.4805],[-43.9983,-22.4823],[-44.0018,-22.4831],[-44.0,-22.4811],[-44.0027,-22.4807],[-43.9997,-22.4801],[-43.9995,-22.4805]]]}},{"type":"Feature","properties":{"cod_tema":"AREA_USO_RESTRITO_DECLIVIDADE_25_A_45","cod_imovel":"RJ-3300308-78394ED3ED2549EBB237D71137940572","num_area":"23.226100000000000000000000000000","ind_status":"AT"},"geometry":{"type":"Polygon","coordinates":[[[-44.0595,-22.3603],[-44.0617,-22.3601],[-44.0595,-22.3603],[-44.0595,-22.3603]],[[-44.0854,-22.3594],[-44.0814,-22.3596],[-44.0852,-22.3594],[-44.0854,-22.3594]],[[-44.0812,-22.3564],[-44.0837,-22.3568],[-44.0812,-22.3564],[-44.0812,-22.3564]],[[-44.0701,-22.358],[-44.0725,-22.3575],[-44.0702,-22.3579],[-44.0701,-22.358]],[[-44.0779,-22.3571],[-44.0814,-22.3573],[-44.078,-22.357],[-44.0779,-22.3571]],[[-44.0607,-22.3493],[-44.0635,-22.3483],[-44.0608,-22.3492],[-44.0607,-22.3493]],[[-44.0661,-22.3569],[-44.0705,-22.3562],[-44.0662,-22.3568],[-44.0661,-22.3569]],[[-44.0582,-22.3559],[-44.0612,-22.3555],[-44.0582,-22.3559],[-44.0582,-22.3559]]]}},{"type":"Feature","properties":{"cod_tema":"AREA_USO_RESTRITO_DECLIVIDADE_25_A_45","cod_imovel":"RJ-3300308-EC170ABC7A5C49EC82FB0E2EEA1C4F26","num_area":"27.175500000000000000000000000000","ind_status":"AT"},"geometry":{"type":"Polygon","coordinates":[[[-43.892,-22.4064],[-43.8946,-22.4031],[-43.891,-22.3998],[-43.8874,-22.4036],[-43.892,-22.4064]]]}},{"type":"Feature","properties":{"cod_tema":"AREA_USO_RESTRITO_DECLIVIDADE_25_A_45","cod_imovel":"RJ-3300308-C2FBB249A1BE4E5BA73D3C3E02BC0273","num_area":"9.0236000000000000000000000000000","ind_status":"AT"},"geometry":{"type":"Polygon","coordinates":[[[-44.0286,-22.3664],[-44.0251,-22.3688],[-44.0287,-22.3664],[-44.0286,-22.3664]],[[-44.0261,-22.3714],[-44.0295,-22.367],[-44.026,-22.3713],[-44.0261,-22.3714]],[[-44.0267,-22.3704],[-44.0288,-22.3673],[-44.0269,-22.3704],[-44.0267,-22.3704]]]}},{"type":"Feature","properties":{"cod_tema":"AREA_USO_RESTRITO_DECLIVIDADE_25_A_45","cod_imovel":"RJ-3300308-C03B381615FC4722B7489B2D98B3F56B","num_area":"14.282100000000000000000000000000","ind_status":"AT"},"geometry":{"type":"Polygon","coordinates":[[[-44.0438,-22.4479],[-44.0428,-22.4507],[-44.0436,-22.4485],[-44.0438,-22.4479]],[[-44.0372,-22.4528],[-44.0383,-22.4508],[-44.0367,-22.4528],[-44.0372,-22.4528]],[[-44.0382,-22.4538],[-44.0397,-22.4507],[-44.0383,-22.453],[-44.0382,-22.4538]],[[-44.044,-22.4462],[-44.039,-22.4501],[-44.0418,-22.4505],[-44.0442,-22.446],[-44.044,-22.4462]]]}},{"type":"Feature","properties":{"cod_tema":"AREA_USO_RESTRITO_DECLIVIDADE_25_A_45","cod_imovel":"RJ-3300308-5388636C51674307B326F4DF6C3C1547","num_area":"17.155600000000000000000000000000","ind_status":"PE"},"geometry":{"type":"Polygon","coordinates":[[[-43.9305,-22.4226],[-43.9282,-22.4219],[-43.9305,-22.4227],[-43.9305,-22.4226]],[[-43.9323,-22.4273],[-43.9336,-22.4238],[-43.9321,-22.4269],[-43.9323,-22.4273]],[[-43.9276,-22.4236],[-43.9301,-22.4247],[-43.9278,-22.4233],[-43.9276,-22.4236]],[[-43.9327,-22.4232],[-43.9317,-22.4278],[-43.9323,-22.4234],[-43.9327,-22.4232]]]}},{"type":"Feature","properties":{"cod_tema":"AREA_USO_RESTRITO_DECLIVIDADE_25_A_45","cod_imovel":"RJ-3300308-011C807014234881B4ABB6600C303FB6","num_area":"186.13080000000000000000000000000","ind_status":"AT"},"geometry":{"type":"Polygon","coordinates":[[[-43.7912,-22.3812],[-43.7953,-22.3816],[-43.7908,-22.3809],[-43.7912,-22.3812]],[[-43.7762,-22.3686],[-43.792,-22.3779],[-43.7856,-22.3712],[-43.7916,-22.3667],[-43.7999,-22.3772],[-43.7943,-22.372],[-43.7938,-22.364],[-43.7827,-22.3598],[-43.7762,-22.3686]]]}},{"type":"Feature","properties":{"cod_tema":"AREA_USO_RESTRITO_DECLIVIDADE_25_A_45","cod_imovel":"RJ-3300308-4BB282E0AAA94FD7AB89ABC5DBB155E3","num_area":"29.444700000000000000000000000000","ind_status":"AT"},"geometry":{"type":"Polygon","coordinates":[[[-43.9744,-22.4087],[-43.9803,-22.4067],[-43.9744,-22.4086],[-43.9744,-22.4087]],[[-43.9795,-22.4104],[-43.9809,-22.4134],[-43.9795,-22.4104],[-43.9795,-22.4104]],[[-43.9822,-22.4097],[-43.9802,-22.4077],[-43.9822,-22.4097],[-43.9822,-22.4097]],[[-43.9835,-22.4132],[-43.9818,-22.412],[-43.9835,-22.4132],[-43.9835,-22.4132]],[[-43.9824,-22.4082],[-43.9827,-22.4059],[-43.9824,-22.4082],[-43.9824,-22.4082]],[[-43.9913,-22.4048],[-43.9869,-22.4025],[-43.9911,-22.4048],[-43.9913,-22.4048]],[[-43.9904,-22.4067],[-43.9875,-22.4058],[-43.9904,-22.4067],[-43.9904,-22.4067]]]}},{"type":"Feature","properties":{"cod_tema":"AREA_USO_RESTRITO_DECLIVIDADE_25_A_45","cod_imovel":"RJ-3300308-ED9BB8BC37D449E7A9C2A1E8E363103C","num_area":"138.52620000000000000000000000000","ind_status":"AT"},"geometry":{"type":"Polygon","coordinates":[[[-43.8633,-22.4973],[-43.8643,-22.4946],[-43.8622,-22.4973],[-43.8602,-22.4946],[-43.8636,-22.4973],[-43.8633,-22.4973]],[[-43.8639,-22.4914],[-43.8607,-22.4938],[-43.8638,-22.4916],[-43.8639,-22.4914]],[[-43.8617,-22.4946],[-43.865,-22.4916],[-43.8613,-22.4944],[-43.8617,-22.4946]],[[-43.8642,-22.489],[-43.8625,-22.4909],[-43.8642,-22.489],[-43.8642,-22.489]],[[-43.8663,-22.4967],[-43.8697,-22.4955],[-43.8659,-22.4962],[-43.8663,-22.4967]],[[-43.8675,-22.4867],[-43.8655,-22.4882],[-43.8675,-22.4867],[-43.8675,-22.4867]],[[-43.8664,-22.4939],[-43.8703,-22.4945],[-43.8686,-22.4924],[-43.8663,-22.4945],[-43.8664,-22.4939]],[[-43.8681,-22.4875],[-43.8666,-22.4891],[-43.8686,-22.4877],[-43.8681,-22.4875]],[[-43.8748,-22.4883],[-43.8733,-22.4898],[-43.8725,-22.487],[-43.8731,-22.4902],[-43.8745,-22.4886],[-43.8748,-22.4883]],[[-43.8731,-22.4881],[-43.8679,-22.4916],[-43.8684,-22.4886],[-43.8671,-22.4917],[-43.8728,-22.4881],[-43.8731,-22.4881]],[[-43.8707,-22.5008],[-43.8717,-22.4986],[-43.8709,-22.5006],[-43.8707,-22.5008]],[[-43.8702,-22.5131],[-43.874,-22.5128],[-43.8713,-22.5131],[-43.8702,-22.5131]],[[-43.8705,-22.4919],[-43.8721,-22.4884],[-43.8711,-22.4916],[-43.8705,-22.4919]],[[-43.8727,-22.5033],[-43.871,-22.5076],[-43.8748,-22.505],[-43.8732,-22.5032],[-43.8727,-22.5033]],[[-43.8725,-22.4914],[-43.8707,-22.4939],[-43.8728,-22.4917],[-43.8725,-22.4914]],[[-43.8711,-22.5114],[-43.8738,-22.5127],[-43.8714,-22.511],[-43.8711,-22.5114]],[[-43.8721,-22.5023],[-43.8724,-22.4993],[-43.8719,-22.5022],[-43.8721,-22.5023]],[[-43.874,-22.4994],[-43.8728,-22.5018],[-43.8736,-22.4985],[-43.874,-22.4994]],[[-43.8744,-22.5089],[-43.8764,-22.5067],[-43.8746,-22.5088],[-43.8744,-22.5089]],[[-43.877,-22.5014],[-43.8741,-22.5023],[-43.8772,-22.5018],[-43.8757,-22.504],[-43.8774,-22.5015],[-43.877,-22.5014]],[[-43.8783,-22.5022],[-43.8749,-22.5059],[-43.8785,-22.5025],[-43.8794,-22.5046],[-43.8788,-22.5023],[-43.8783,-22.5022]],[[-43.8768,-22.5076],[-43.8769,-22.511],[-43.877,-22.5075],[-43.8768,-22.5076]],[[-43.8772,-22.4937],[-43.8764,-22.4915],[-43.8771,-22.4937],[-43.8772,-22.4937]],[[-43.8785,-22.4942],[-43.88,-22.496],[-43.8784,-22.4943],[-43.8785,-22.4942]],[[-43.8802,-22.4981],[-43.8771,-22.4977],[-43.88,-22.4973],[-43.8802,-22.4981]],[[-43.8803,-22.5129],[-43.8823,-22.511],[-43.8779,-22.5138],[-43.88,-22.5128],[-43.8803,-22.5129]],[[-43.878,-22.5014],[-43.8805,-22.5014],[-43.8782,-22.5011],[-43.878,-22.5014]],[[-43.8803,-22.5084],[-43.8818,-22.5057],[-43.8804,-22.5083],[-43.8803,-22.5084]]]}},{"type":"Feature","properties":{"cod_tema":"AREA_USO_RESTRITO_DECLIVIDADE_25_A_45","cod_imovel":"RJ-3300308-C9C9CF4609D24F5F9296E3FC184E0645","num_area":"8.1817000000000000000000000000000","ind_status":"AT"},"geometry":{"type":"Polygon","coordinates":[[[-43.8543,-22.4578],[-43.8566,-22.4565],[-43.8538,-22.4581],[-43.8543,-22.4578]],[[-43.8511,-22.4557],[-43.853,-22.4576],[-43.851,-22.4559],[-43.8511,-22.4557]]]}},{"type":"Feature","properties":{"cod_tema":"AREA_USO_RESTRITO_DECLIVIDADE_25_A_45","cod_imovel":"RJ-3300308-1733EFD0CCAE4F16A5EC63A5845A49B1","num_area":"5.8478000000000000000000000000000","ind_status":"AT"},"geometry":{"type":"Polygon","coordinates":[[[-43.8778,-22.361],[-43.8753,-22.361],[-43.8777,-22.3611],[-43.8778,-22.361]],[[-43.8785,-22.3603],[-43.8774,-22.3573],[-43.8782,-22.3606],[-43.8785,-22.3603]]]}},{"type":"Feature","properties":{"cod_tema":"AREA_USO_RESTRITO_DECLIVIDADE_25_A_45","cod_imovel":"RJ-3300308-CB7E75AFDE2D4C2F9C3E70668F184A36","num_area":"46.804600000000000000000000000000","ind_status":"AT"},"geometry":{"type":"Polygon","coordinates":[[[-43.8739,-22.4209],[-43.8718,-22.4204],[-43.874,-22.421],[-43.8739,-22.4209]],[[-43.878,-22.4255],[-43.8811,-22.4261],[-43.8782,-22.4252],[-43.878,-22.4255]],[[-43.8821,-22.43],[-43.8835,-22.4271],[-43.8818,-22.4302],[-43.8821,-22.43]],[[-43.878,-22.4243],[-43.8756,-22.4226],[-43.8783,-22.4243],[-43.878,-22.4243]],[[-43.8689,-22.4257],[-43.8669,-22.4229],[-43.8705,-22.4229],[-43.8666,-22.4223],[-43.8657,-22.4249],[-43.8687,-22.4259],[-43.8689,-22.4257]],[[-43.8637,-22.4239],[-43.865,-22.4281],[-43.8629,-22.4262],[-43.8657,-22.4203],[-43.8639,-22.4233],[-43.8637,-22.4239]],[[-43.8697,-22.422],[-43.8794,-22.4269],[-43.8664,-22.4196],[-43.8692,-22.4216],[-43.8697,-22.422]]]}},{"type":"Feature","properties":{"cod_tema":"AREA_USO_RESTRITO_DECLIVIDADE_25_A_45","cod_imovel":"RJ-3300308-DEF7243B07424249A82C3E3F8462046B","num_area":"16.724200000000000000000000000000","ind_status":"AT"},"geometry":{"type":"Polygon","coordinates":[[[-43.864,-22.4087],[-43.8633,-22.4114],[-43.8641,-22.4086],[-43.864,-22.4087]],[[-43.8635,-22.4121],[-43.8675,-22.4105],[-43.8636,-22.4119],[-43.8635,-22.4121]],[[-43.8678,-22.4066],[-43.8647,-22.4096],[-43.8679,-22.4078],[-43.8678,-22.4066]],[[-43.8612,-22.4097],[-43.8628,-22.4113],[-43.8615,-22.4095],[-43.8612,-22.4097]],[[-43.8642,-22.4124],[-43.8686,-22.4115],[-43.8642,-22.4124],[-43.8642,-22.4124]]]}},{"type":"Feature","properties":{"cod_tema":"AREA_USO_RESTRITO_DECLIVIDADE_25_A_45","cod_imovel":"RJ-3300308-619C8D95EB7A48FAA0C934964D2D54F4","num_area":"12.732100000000000000000000000000","ind_status":"AT"},"geometry":{"type":"Polygon","coordinates":[[[-43.8432,-22.4527],[-43.8464,-22.4528],[-43.8434,-22.4526],[-43.8432,-22.4527]],[[-43.8381,-22.4491],[-43.8471,-22.452],[-43.8408,-22.4478],[-43.8381,-22.4491],[-43.8381,-22.4491]]]}},{"type":"Feature","properties":{"cod_tema":"AREA_USO_RESTRITO_DECLIVIDADE_25_A_45","cod_imovel":"RJ-3300308-C57F88A79066448B9F859DCC5883D9C1","num_area":"3.9323000000000000000000000000000","ind_status":"AT"},"geometry":{"type":"Polygon","coordinates":[[[-43.8091,-22.4362],[-43.808,-22.4384],[-43.8095,-22.4364],[-43.8091,-22.4362]],[[-43.8102,-22.4396],[-43.8101,-22.4375],[-43.8098,-22.4396],[-43.8102,-22.4396]]]}},{"type":"Feature","properties":{"cod_tema":"AREA_USO_RESTRITO_DECLIVIDADE_25_A_45","cod_imovel":"RJ-3300308-BB01531E478442DD95228DEA75003600","num_area":"20.062800000000000000000000000000","ind_status":"AT"},"geometry":{"type":"Polygon","coordinates":[[[-43.8406,-22.3894],[-43.8381,-22.388],[-43.8404,-22.3894],[-43.8406,-22.3894]],[[-43.8394,-22.3898],[-43.8412,-22.3908],[-43.8391,-22.3895],[-43.8394,-22.3898]],[[-43.8451,-22.397],[-43.8419,-22.3937],[-43.8451,-22.397],[-43.8451,-22.397]],[[-43.8363,-22.393],[-43.8405,-22.3959],[-43.8364,-22.393],[-43.8363,-22.393]],[[-43.8347,-22.392],[-43.8369,-22.3896],[-43.8348,-22.3918],[-43.8347,-22.392]],[[-43.8419,-22.3936],[-43.8455,-22.3937],[-43.8416,-22.3908],[-43.8419,-22.3931],[-43.8419,-22.3936]]]}},{"type":"Feature","properties":{"cod_tema":"AREA_USO_RESTRITO_DECLIVIDADE_25_A_45","cod_imovel":"RJ-3300308-229CDC7A6F044CA18B048D7DE76A0E3F","num_area":"16.702600000000000000000000000000","ind_status":"AT"},"geometry":{"type":"Polygon","coordinates":[[[-43.8307,-22.4364],[-43.8332,-22.4381],[-43.8306,-22.4359],[-43.8307,-22.4364]],[[-43.8338,-22.4366],[-43.8356,-22.4334],[-43.8333,-22.4365],[-43.8338,-22.4366]],[[-43.8369,-22.438],[-43.8369,-22.4345],[-43.8364,-22.4377],[-43.8369,-22.438]],[[-43.8336,-22.4329],[-43.8313,-22.4348],[-43.8344,-22.4332],[-43.8336,-22.4329]]]}},{"type":"Feature","properties":{"cod_tema":"AREA_USO_RESTRITO_DECLIVIDADE_25_A_45","cod_imovel":"RJ-3300308-25BFD3603B5748549EE16C2FCF8F0346","num_area":"31.146800000000000000000000000000","ind_status":"AT"},"geometry":{"type":"Polygon","coordinates":[[[-43.8939,-22.3475],[-43.8979,-22.3474],[-43.8939,-22.3478],[-43.8939,-22.3475]],[[-43.8929,-22.3504],[-43.8899,-22.3514],[-43.8929,-22.3504],[-43.8929,-22.3504]],[[-43.8882,-22.356],[-43.8923,-22.3555],[-43.8884,-22.356],[-43.8882,-22.356]],[[-43.8959,-22.3432],[-43.8925,-22.3432],[-43.8947,-22.3439],[-43.8959,-22.3432]],[[-43.8897,-22.3516],[-43.89,-22.3542],[-43.8923,-22.3529],[-43.8897,-22.3517],[-43.8897,-22.3516]]]}},{"type":"Feature","properties":{"cod_tema":"AREA_USO_RESTRITO_DECLIVIDADE_25_A_45","cod_imovel":"RJ-3300308-08102AA048B347249A6935A842268E1C","num_area":"14.194900000000000000000000000000","ind_status":"AT"},"geometry":{"type":"Polygon","coordinates":[[[-43.8826,-22.5127],[-43.8848,-22.5123],[-43.8829,-22.513],[-43.8826,-22.5127]],[[-43.8873,-22.5133],[-43.8879,-22.5113],[-43.8873,-22.5133],[-43.8873,-22.5133]],[[-43.885,-22.5135],[-43.8879,-22.511],[-43.8847,-22.5132],[-43.885,-22.5135]]]}},{"type":"Feature","properties":{"cod_tema":"AREA_USO_RESTRITO_DECLIVIDADE_25_A_45","cod_imovel":"RJ-3300308-0E41B9292FE94530B8A4D4411AFBC811","num_area":"1.5674000000000000000000000000000","ind_status":"AT"},"geometry":{"type":"Polygon","coordinates":[[[-43.9924,-22.4281],[-43.9926,-22.4304],[-43.9925,-22.4282],[-43.9924,-22.4281]]]}},{"type":"Feature","properties":{"cod_tema":"AREA_USO_RESTRITO_DECLIVIDADE_25_A_45","cod_imovel":"RJ-3300308-27477D8459034AA4AFD73D02C972935B","num_area":"52.612200000000000000000000000000","ind_status":"AT"},"geometry":{"type":"Polygon","coordinates":[[[-43.7969,-22.4731],[-43.7978,-22.4704],[-43.7968,-22.4729],[-43.7969,-22.4731]],[[-43.7994,-22.4726],[-43.7952,-22.4754],[-43.7984,-22.473],[-43.7994,-22.4726]],[[-43.7981,-22.4761],[-43.8003,-22.4717],[-43.798,-22.476],[-43.7981,-22.4761]],[[-43.8024,-22.4729],[-43.8001,-22.4748],[-43.8027,-22.4731],[-43.8024,-22.4729]],[[-43.8006,-22.471],[-43.8033,-22.4719],[-43.8008,-22.4703],[-43.8006,-22.471]],[[-43.8049,-22.4673],[-43.8021,-22.4686],[-43.8057,-22.4678],[-43.8039,-22.4707],[-43.8057,-22.4673],[-43.8049,-22.4673]],[[-43.8068,-22.4658],[-43.8041,-22.4665],[-43.8068,-22.4659],[-43.8068,-22.4658]],[[-43.8057,-22.4723],[-43.8082,-22.4712],[-43.8044,-22.4698],[-43.8053,-22.4721],[-43.8057,-22.4723]],[[-43.8085,-22.4675],[-43.8047,-22.4697],[-43.8083,-22.4679],[-43.8085,-22.4675]],[[-43.8084,-22.4693],[-43.8059,-22.4706],[-43.8108,-22.4678],[-43.809,-22.4692],[-43.8084,-22.4693]],[[-43.807,-22.4743],[-43.8086,-22.4717],[-43.8073,-22.474],[-43.807,-22.4743]],[[-43.8097,-22.4657],[-43.8075,-22.4663],[-43.8096,-22.4658],[-43.8097,-22.4657]],[[-43.81,-22.4728],[-43.8118,-22.4689],[-43.8099,-22.4725],[-43.81,-22.4728]]]}},{"type":"Feature","properties":{"cod_tema":"AREA_USO_RESTRITO_DECLIVIDADE_25_A_45","cod_imovel":"RJ-3300308-2AA0676F69BF4238AB05043B0378ABDA","num_area":"4.5058000000000000000000000000000","ind_status":"AT"},"geometry":{"type":"Polygon","coordinates":[[[-43.8429,-22.3885],[-43.8394,-22.3867],[-43.8428,-22.3886],[-43.8429,-22.3885]],[[-43.8447,-22.3871],[-43.8425,-22.3861],[-43.8446,-22.3871],[-43.8447,-22.3871]]]}},{"type":"Feature","properties":{"cod_tema":"AREA_USO_RESTRITO_DECLIVIDADE_25_A_45","cod_imovel":"RJ-3300308-4082D65DC067450AB6D1617924EFAD32","num_area":"13.313600000000000000000000000000","ind_status":"AT"},"geometry":{"type":"Polygon","coordinates":[[[-43.879,-22.3813],[-43.8769,-22.3816],[-43.8798,-22.3814],[-43.879,-22.3813]],[[-43.8804,-22.3827],[-43.8788,-22.3857],[-43.8813,-22.3856],[-43.8805,-22.3828],[-43.8804,-22.3827]]]}},{"type":"Feature","properties":{"cod_tema":"AREA_USO_RESTRITO_DECLIVIDADE_25_A_45","cod_imovel":"RJ-3300308-41264A4E1C8C44E2A78CAF6B8C7EE8AC","num_area":"2.5049000000000000000000000000000","ind_status":"AT"},"geometry":{"type":"Polygon","coordinates":[[[-44.0532,-22.4588],[-44.0538,-22.4566],[-44.0532,-22.4588],[-44.0532,-22.4588]],[[-44.0532,-22.4587],[-44.0537,-22.4566],[-44.0528,-22.4585],[-44.0532,-22.4587]]]}},{"type":"Feature","properties":{"cod_tema":"AREA_USO_RESTRITO_DECLIVIDADE_25_A_45","cod_imovel":"RJ-3300308-484A0EAF85F543BB9D2C027A86B6D633","num_area":"58.612500000000000000000000000000","ind_status":"AT"},"geometry":{"type":"Polygon","coordinates":[[[-43.7592,-22.4514],[-43.7621,-22.4538],[-43.7598,-22.4518],[-43.7592,-22.4514]],[[-43.7647,-22.4506],[-43.7615,-22.4501],[-43.7649,-22.4508],[-43.7647,-22.4506]],[[-43.7619,-22.4543],[-43.7635,-22.4556],[-43.7622,-22.454],[-43.7619,-22.4543]],[[-43.766,-22.4514],[-43.7622,-22.4523],[-43.7659,-22.4517],[-43.766,-22.4514]],[[-43.7685,-22.4529],[-43.7638,-22.4562],[-43.7672,-22.4543],[-43.7669,-22.457],[-43.7683,-22.4533],[-43.7685,-22.4529]],[[-43.7656,-22.4576],[-43.7626,-22.4564],[-43.7656,-22.4579],[-43.7656,-22.4576]],[[-43.7669,-22.452],[-43.7633,-22.4537],[-43.7669,-22.4523],[-43.7669,-22.452]],[[-43.7747,-22.4524],[-43.7681,-22.4587],[-43.7721,-22.4571],[-43.7703,-22.4597],[-43.7725,-22.4605],[-43.7725,-22.4564],[-43.7683,-22.4582],[-43.7747,-22.4525],[-43.7747,-22.4524]],[[-43.7692,-22.456],[-43.7713,-22.4545],[-43.7667,-22.4577],[-43.7691,-22.4561],[-43.7692,-22.456]],[[-43.7726,-22.4619],[-43.7706,-22.4607],[-43.7725,-22.4619],[-43.7726,-22.4619]]]}},{"type":"Feature","properties":{"cod_tema":"AREA_USO_RESTRITO_DECLIVIDADE_25_A_45","cod_imovel":"RJ-3300308-4984E6338C8C48668678B3A331EA456C","num_area":"25.116000000000000000000000000000","ind_status":"AT"},"geometry":{"type":"Polygon","coordinates":[[[-43.9787,-22.3402],[-43.9693,-22.3411],[-43.9773,-22.344],[-43.9787,-22.3402]]]}},{"type":"Feature","properties":{"cod_tema":"AREA_USO_RESTRITO_DECLIVIDADE_25_A_45","cod_imovel":"RJ-3300308-4C6E86CE3F8D4107B58B88A238412729","num_area":"10.009900000000000000000000000000","ind_status":"AT"},"geometry":{"type":"Polygon","coordinates":[[[-43.8779,-22.4708],[-43.8748,-22.471],[-43.8764,-22.4676],[-43.8741,-22.4719],[-43.8771,-22.4709],[-43.8779,-22.4708]]]}},{"type":"Feature","properties":{"cod_tema":"AREA_USO_RESTRITO_DECLIVIDADE_25_A_45","cod_imovel":"RJ-3300308-4CEE461F31174BC685DC822C4BB8B9A3","num_area":"61.154500000000000000000000000000","ind_status":"PE"},"geometry":{"type":"Polygon","coordinates":[[[-43.8144,-22.4026],[-43.8101,-22.4038],[-43.814,-22.4024],[-43.8144,-22.4026]],[[-43.7926,-22.4147],[-43.7948,-22.4156],[-43.793,-22.4146],[-43.7926,-22.4147]],[[-43.7855,-22.4106],[-43.7886,-22.4103],[-43.7855,-22.4105],[-43.7855,-22.4106]],[[-43.7912,-22.4072],[-43.7906,-22.4048],[-43.7909,-22.4071],[-43.7912,-22.4072]],[[-43.8044,-22.4068],[-43.8024,-22.4054],[-43.8041,-22.4067],[-43.8044,-22.4068]],[[-43.7909,-22.41],[-43.7949,-22.41],[-43.7919,-22.4099],[-43.7909,-22.41]],[[-43.7997,-22.4043],[-43.7972,-22.406],[-43.8004,-22.4038],[-43.7997,-22.4043]],[[-43.7971,-22.4168],[-43.797,-22.4144],[-43.7971,-22.4166],[-43.7971,-22.4168]],[[-43.7957,-22.4118],[-43.7916,-22.4115],[-43.7962,-22.4113],[-43.7957,-22.4118]],[[-43.8156,-22.4048],[-43.81,-22.4042],[-43.8146,-22.4049],[-43.8156,-22.4048]],[[-43.7986,-22.4162],[-43.7995,-22.4121],[-43.7969,-22.4128],[-43.7987,-22.4157],[-43.7986,-22.4162]],[[-43.806,-22.4099],[-43.8146,-22.4071],[-43.8074,-22.4067],[-43.8065,-22.4097],[-43.806,-22.4099]]]}},{"type":"Feature","properties":{"cod_tema":"AREA_USO_RESTRITO_DECLIVIDADE_25_A_45","cod_imovel":"RJ-3300308-67C168B0C7A6419BA3D848985FFD4F68","num_area":"41.764100000000000000000000000000","ind_status":"AT"},"geometry":{"type":"Polygon","coordinates":[[[-44.0233,-22.2998],[-44.0232,-22.3046],[-44.0255,-22.2984],[-44.0232,-22.295],[-44.0215,-22.3013],[-44.0196,-22.2994],[-44.018,-22.3024],[-44.0228,-22.3047],[-44.0235,-22.3003],[-44.0233,-22.2998]],[[-44.0218,-22.304],[-44.019,-22.3011],[-44.0217,-22.3039],[-44.0218,-22.304]]]}},{"type":"Feature","properties":{"cod_tema":"AREA_USO_RESTRITO_DECLIVIDADE_25_A_45","cod_imovel":"RJ-3300308-63A68A60F7DF4991AB16DE4E34DE829A","num_area":"88.726500000000000000000000000000","ind_status":"PE"},"geometry":{"type":"Polygon","coordinates":[[[-43.9426,-22.3935],[-43.9275,-22.3895],[-43.9228,-22.3893],[-43.9208,-22.3926],[-43.9412,-22.3973],[-43.9426,-22.3935]]]}},{"type":"Feature","properties":{"cod_tema":"AREA_USO_RESTRITO_DECLIVIDADE_25_A_45","cod_imovel":"RJ-3300308-6593BBBBD9BF48AD96ADD31A7D8C2431","num_area":"4.2310000000000000000000000000000","ind_status":"AT"},"geometry":{"type":"Polygon","coordinates":[[[-43.8819,-22.3597],[-43.8847,-22.3598],[-43.8821,-22.3595],[-43.8819,-22.3597]]]}},{"type":"Feature","properties":{"cod_tema":"AREA_USO_RESTRITO_DECLIVIDADE_25_A_45","cod_imovel":"RJ-3300308-6C7A16FB523147A2B7F106B1101484F1","num_area":"32.479000000000000000000000000000","ind_status":"AT"},"geometry":{"type":"Polygon","coordinates":[[[-43.7994,-22.3707],[-43.7954,-22.3658],[-43.7944,-22.3715],[-43.798,-22.374],[-43.8027,-22.374],[-43.8012,-22.3708],[-43.8049,-22.3722],[-43.7997,-22.3708],[-43.7994,-22.3707]],[[-43.7994,-22.3707],[-43.7961,-22.3702],[-43.7994,-22.3707],[-43.7994,-22.3707]]]}},{"type":"Feature","properties":{"cod_tema":"AREA_USO_RESTRITO_DECLIVIDADE_25_A_45","cod_imovel":"RJ-3300308-74DD99B72D7B4B6D9948779FB3E85CBD","num_area":"11.626900000000000000000000000000","ind_status":"AT"},"geometry":{"type":"Polygon","coordinates":[[[-44.0349,-22.4707],[-44.0322,-22.4708],[-44.0349,-22.4712],[-44.0349,-22.4707]],[[-44.032,-22.4715],[-44.0348,-22.4729],[-44.032,-22.4712],[-44.032,-22.4715]],[[-44.0339,-22.4743],[-44.0303,-22.4747],[-44.0339,-22.4741],[-44.0339,-22.4743]],[[-44.0317,-22.4708],[-44.0299,-22.4734],[-44.0318,-22.4708],[-44.0317,-22.4708]],[[-44.03,-22.4744],[-44.0316,-22.4708],[-44.0299,-22.4744],[-44.03,-22.4744]]]}},{"type":"Feature","properties":{"cod_tema":"AREA_USO_RESTRITO_DECLIVIDADE_25_A_45","cod_imovel":"RJ-3300308-97C21DFB8D9E4A45A9D01E2EAADB9875","num_area":"39.799600000000000000000000000000","ind_status":"AT"},"geometry":{"type":"Polygon","coordinates":[[[-43.9339,-22.5187],[-43.9313,-22.5194],[-43.9338,-22.5185],[-43.9339,-22.5187]],[[-43.9331,-22.5133],[-43.9288,-22.5171],[-43.9328,-22.5135],[-43.9331,-22.5133]],[[-43.937,-22.5137],[-43.9292,-22.5187],[-43.9363,-22.5144],[-43.937,-22.5137]],[[-43.9268,-22.5211],[-43.9341,-22.5246],[-43.936,-22.5219],[-43.9266,-22.5209],[-43.9268,-22.5211]],[[-43.9379,-22.5177],[-43.9363,-22.515],[-43.9327,-22.5199],[-43.9364,-22.5212],[-43.935,-22.5189],[-43.9378,-22.518],[-43.9379,-22.5177]]]}},{"type":"Feature","properties":{"cod_tema":"AREA_USO_RESTRITO_DECLIVIDADE_25_A_45","cod_imovel":"RJ-3300308-A03CEB10E4D94CE7999C6B6931A4A9C4","num_area":"19.804000000000000000000000000000","ind_status":"AT"},"geometry":{"type":"Polygon","coordinates":[[[-43.8276,-22.4306],[-43.8321,-22.4318],[-43.8274,-22.4297],[-43.8276,-22.4306]],[[-43.8353,-22.4323],[-43.8275,-22.4284],[-43.8353,-22.4322],[-43.8353,-22.4323]]]}},{"type":"Feature","properties":{"cod_tema":"AREA_USO_RESTRITO_DECLIVIDADE_25_A_45","cod_imovel":"RJ-3300308-A22EEF785D0D42BEB33749235BA8D452","num_area":"41.948900000000000000000000000000","ind_status":"AT"},"geometry":{"type":"Polygon","coordinates":[[[-43.7871,-22.4799],[-43.79,-22.4753],[-43.7872,-22.4797],[-43.7871,-22.4799]],[[-43.7953,-22.4836],[-43.7878,-22.4802],[-43.7922,-22.4822],[-43.7953,-22.4836]],[[-43.7982,-22.4785],[-43.793,-22.4761],[-43.791,-22.4782],[-43.7917,-22.4757],[-43.7897,-22.4788],[-43.7979,-22.4785],[-43.7982,-22.4785]],[[-43.7948,-22.4709],[-43.7917,-22.4731],[-43.7948,-22.4711],[-43.7948,-22.4709]],[[-43.7962,-22.4717],[-43.7937,-22.4725],[-43.7961,-22.4719],[-43.7962,-22.4717]],[[-43.7969,-22.4809],[-43.7948,-22.48],[-43.7969,-22.4808],[-43.7969,-22.4809]],[[-43.795,-22.476],[-43.7983,-22.4774],[-43.7949,-22.4758],[-43.795,-22.476]]]}},{"type":"Feature","properties":{"cod_tema":"AREA_USO_RESTRITO_DECLIVIDADE_25_A_45","cod_imovel":"RJ-3300308-AA12150D6C3C411AAA27DD3CC6BE4A17","num_area":"6.2164000000000000000000000000000","ind_status":"AT"},"geometry":{"type":"Polygon","coordinates":[[[-43.8329,-22.41],[-43.8357,-22.4104],[-43.832,-22.4095],[-43.8317,-22.4123],[-43.8328,-22.41],[-43.8329,-22.41]]]}},{"type":"Feature","properties":{"cod_tema":"AREA_USO_RESTRITO_DECLIVIDADE_25_A_45","cod_imovel":"RJ-3300308-AEA277D3B8E0462094D79A154F097D38","num_area":"16.654200000000000000000000000000","ind_status":"AT"},"geometry":{"type":"Polygon","coordinates":[[[-43.8112,-22.4888],[-43.8066,-22.4886],[-43.814,-22.4899],[-43.8111,-22.4903],[-43.8132,-22.4919],[-43.815,-22.4901],[-43.8117,-22.4885],[-43.8112,-22.4888]]]}},{"type":"Feature","properties":{"cod_tema":"AREA_USO_RESTRITO_DECLIVIDADE_25_A_45","cod_imovel":"RJ-3300308-CB88CB32A24B46D2A4E6BCCBA65B6C5F","num_area":"4.9449000000000000000000000000000","ind_status":"AT"},"geometry":{"type":"Polygon","coordinates":[[[-43.8269,-22.4395],[-43.8281,-22.4375],[-43.8268,-22.4394],[-43.8269,-22.4395]]]}},{"type":"Feature","properties":{"cod_tema":"AREA_USO_RESTRITO_DECLIVIDADE_25_A_45","cod_imovel":"RJ-3300308-D9320640239E4783AD6919DA7B33BB91","num_area":"41.623300000000000000000000000000","ind_status":"AT"},"geometry":{"type":"Polygon","coordinates":[[[-44.0058,-22.4113],[-44.0101,-22.4156],[-44.0061,-22.4118],[-44.0058,-22.4113]],[[-44.0173,-22.4136],[-44.0179,-22.411],[-44.0127,-22.4129],[-44.017,-22.4107],[-44.011,-22.4115],[-44.0121,-22.4081],[-44.0103,-22.4103],[-44.0079,-22.4077],[-44.0098,-22.4133],[-44.0121,-22.4112],[-44.0124,-22.4143],[-44.0172,-22.4137],[-44.0173,-22.4136]]]}},{"type":"Feature","properties":{"cod_tema":"AREA_USO_RESTRITO_DECLIVIDADE_25_A_45","cod_imovel":"RJ-3300308-F8D505A7EB3041C5BB46A31931FB0941","num_area":"3.7444000000000000000000000000000","ind_status":"AT"},"geometry":{"type":"Polygon","coordinates":[[[-43.8466,-22.3446],[-43.8483,-22.3418],[-43.8471,-22.3442],[-43.8466,-22.3446]]]}},{"type":"Feature","properties":{"cod_tema":"AREA_USO_RESTRITO_DECLIVIDADE_25_A_45","cod_imovel":"RJ-3300308-FA552E5658114827B1F3994C9B57AB8B","num_area":"3.6047000000000000000000000000000","ind_status":"AT"},"geometry":{"type":"Polygon","coordinates":[[[-43.8006,-22.4813],[-43.7981,-22.4789],[-43.8005,-22.4813],[-43.8006,-22.4813]]]}}]}