{"type":"FeatureCollection","features":[{"type":"Feature","properties":{"cod_tema":"AREA_USO_RESTRITO_PANTANEIRA","cod_imovel":"RJ-3300407-D4CC4C9166824D0584DBF83AE40D9F3F","num_area":"1.3554000000000000000000000000000","ind_status":"AT"},"geometry":{"type":"Polygon","coordinates":[[[-44.051,-22.4035],[-44.053,-22.4019],[-44.0507,-22.4031],[-44.051,-22.4035]]]}},{"type":"Feature","properties":{"cod_tema":"AREA_USO_RESTRITO_DECLIVIDADE_25_A_45","cod_imovel":"RJ-3300407-F85D0C518D714A17877DA7ECB9350EDE","num_area":"38.129900000000000000000000000000","ind_status":"AT"},"geometry":{"type":"Polygon","coordinates":[[[-44.1743,-22.3693],[-44.1723,-22.3718],[-44.1792,-22.3736],[-44.1763,-22.3755],[-44.1781,-22.3774],[-44.1799,-22.3724],[-44.1739,-22.372],[-44.1743,-22.3699],[-44.1743,-22.3693]],[[-44.1731,-22.3715],[-44.1734,-22.3693],[-44.1731,-22.3716],[-44.1731,-22.3715]],[[-44.175,-22.3764],[-44.1727,-22.3782],[-44.1748,-22.3765],[-44.175,-22.3764]],[[-44.1712,-22.3718],[-44.173,-22.3743],[-44.1712,-22.3719],[-44.1712,-22.3718]]]}},{"type":"Feature","properties":{"cod_tema":"AREA_USO_RESTRITO_DECLIVIDADE_25_A_45","cod_imovel":"RJ-3300407-01E7CAC002E74ABD9B82C594518B6847","num_area":"15.634800000000000000000000000000","ind_status":"AT"},"geometry":{"type":"Polygon","coordinates":[[[-44.2471,-22.5761],[-44.2469,-22.5732],[-44.2448,-22.5762],[-44.2451,-22.572],[-44.2446,-22.5766],[-44.2469,-22.5762],[-44.2471,-22.5761]],[[-44.2528,-22.5676],[-44.2564,-22.5648],[-44.2529,-22.5674],[-44.2528,-22.5676]]]}},{"type":"Feature","properties":{"cod_tema":"AREA_USO_RESTRITO_DECLIVIDADE_25_A_45","cod_imovel":"RJ-3300407-E734F181C6CF43338385266BEB423D58","num_area":"7.6053000000000000000000000000000","ind_status":"AT"},"geometry":{"type":"Polygon","coordinates":[[[-44.101,-22.5851],[-44.1044,-22.5885],[-44.1013,-22.5852],[-44.101,-22.5851]]]}},{"type":"Feature","properties":{"cod_tema":"AREA_USO_RESTRITO_DECLIVIDADE_25_A_45","cod_imovel":"RJ-3300407-5BF6289A20B246108D2A4DA827C4630F","num_area":"44.291500000000000000000000000000","ind_status":"AT"},"geometry":{"type":"Polygon","coordinates":[[[-44.1257,-22.3443],[-44.1227,-22.3387],[-44.1162,-22.345],[-44.1221,-22.3415],[-44.1241,-22.3434],[-44.1202,-22.3449],[-44.1234,-22.3462],[-44.1186,-22.3464],[-44.1234,-22.3486],[-44.1251,-22.345],[-44.1257,-22.3443]],[[-44.1188,-22.3425],[-44.117,-22.345],[-44.1185,-22.3425],[-44.1188,-22.3425]]]}},{"type":"Feature","properties":{"cod_tema":"AREA_USO_RESTRITO_DECLIVIDADE_25_A_45","cod_imovel":"RJ-3300407-76E341DE3274474F8C95B7CF0773A0C1","num_area":"4.4108000000000000000000000000000","ind_status":"AT"},"geometry":{"type":"Polygon","coordinates":[[[-44.0804,-22.3332],[-44.0781,-22.3335],[-44.0807,-22.3332],[-44.0804,-22.3332]],[[-44.0764,-22.3357],[-44.0782,-22.3341],[-44.0754,-22.3356],[-44.0764,-22.3357]]]}},{"type":"Feature","properties":{"cod_tema":"AREA_USO_RESTRITO_DECLIVIDADE_25_A_45","cod_imovel":"RJ-3300407-3267DC08CEF04084B2D1A92CA2B71C93","num_area":"27.905000000000000000000000000000","ind_status":"AT"},"geometry":{"type":"Polygon","coordinates":[[[-44.1303,-22.3402],[-44.1328,-22.3379],[-44.1343,-22.3412],[-44.1352,-22.3372],[-44.1264,-22.3389],[-44.1279,-22.3435],[-44.1327,-22.3411],[-44.1304,-22.3403],[-44.1303,-22.3402]],[[-44.1293,-22.3431],[-44.1272,-22.3421],[-44.1293,-22.343],[-44.1293,-22.3431]]]}},{"type":"Feature","properties":{"cod_tema":"AREA_USO_RESTRITO_DECLIVIDADE_25_A_45","cod_imovel":"RJ-3300407-B542AA72B0394D4BB4836A5E837C584B","num_area":"12.912400000000000000000000000000","ind_status":"AT"},"geometry":{"type":"Polygon","coordinates":[[[-44.1362,-22.639],[-44.1381,-22.6397],[-44.1362,-22.639],[-44.1362,-22.639]],[[-44.1325,-22.6436],[-44.1352,-22.644],[-44.1323,-22.6433],[-44.1325,-22.6436]],[[-44.1321,-22.6394],[-44.1372,-22.6421],[-44.1322,-22.6382],[-44.1321,-22.6394]]]}},{"type":"Feature","properties":{"cod_tema":"AREA_USO_RESTRITO_DECLIVIDADE_25_A_45","cod_imovel":"RJ-3300407-300A307C2EEF4BBE81FAF3FC00EE1B61","num_area":"7.0417000000000000000000000000000","ind_status":"AT"},"geometry":{"type":"Polygon","coordinates":[[[-44.1681,-22.4129],[-44.1678,-22.4097],[-44.168,-22.4119],[-44.1681,-22.4129]],[[-44.1647,-22.4089],[-44.1676,-22.4089],[-44.1654,-22.4097],[-44.1647,-22.4089]]]}},{"type":"Feature","properties":{"cod_tema":"AREA_USO_RESTRITO_DECLIVIDADE_25_A_45","cod_imovel":"RJ-3300407-66BD38799A934BCC8594D0D2B50BA5C6","num_area":"6.5645000000000000000000000000000","ind_status":"AT"},"geometry":{"type":"Polygon","coordinates":[[[-44.1643,-22.4141],[-44.1663,-22.4147],[-44.1642,-22.4137],[-44.1643,-22.4141]],[[-44.1665,-22.4131],[-44.1647,-22.4112],[-44.1664,-22.413],[-44.1665,-22.4131]],[[-44.168,-22.4139],[-44.1642,-22.4123],[-44.1679,-22.4141],[-44.168,-22.4139]]]}},{"type":"Feature","properties":{"cod_tema":"AREA_USO_RESTRITO_DECLIVIDADE_25_A_45","cod_imovel":"RJ-3300407-FCC22E4833D140ED95823B113DB5AE01","num_area":"30.741300000000000000000000000000","ind_status":"AT"},"geometry":{"type":"Polygon","coordinates":[[[-44.2186,-22.5023],[-44.2203,-22.4999],[-44.2184,-22.5021],[-44.2186,-22.5023]],[[-44.2169,-22.504],[-44.2176,-22.4982],[-44.2139,-22.4952],[-44.2153,-22.502],[-44.2169,-22.504]]]}},{"type":"Feature","properties":{"cod_tema":"AREA_USO_RESTRITO_DECLIVIDADE_25_A_45","cod_imovel":"RJ-3300407-66F4A4984ED346F8955084832B59AC75","num_area":"40.724400000000000000000000000000","ind_status":"AT"},"geometry":{"type":"Polygon","coordinates":[[[-44.1403,-22.4285],[-44.1415,-22.4307],[-44.1405,-22.4289],[-44.1403,-22.4285]],[[-44.1383,-22.4307],[-44.1398,-22.4341],[-44.1411,-22.431],[-44.1384,-22.43],[-44.1383,-22.4307]],[[-44.1422,-22.4373],[-44.1443,-22.4309],[-44.1423,-22.4364],[-44.1422,-22.4373]],[[-44.1488,-22.433],[-44.1458,-22.4342],[-44.1447,-22.4288],[-44.1418,-22.4304],[-44.1458,-22.4305],[-44.1456,-22.4345],[-44.1491,-22.4332],[-44.1488,-22.433]]]}},{"type":"Feature","properties":{"cod_tema":"AREA_USO_RESTRITO_DECLIVIDADE_25_A_45","cod_imovel":"RJ-3300407-1518C78D5FDA4DA9A98FF3C2B37C289F","num_area":"28.907300000000000000000000000000","ind_status":"AT"},"geometry":{"type":"Polygon","coordinates":[[[-44.2944,-22.5558],[-44.2964,-22.5594],[-44.2945,-22.5558],[-44.2944,-22.5558]],[[-44.2975,-22.5616],[-44.2959,-22.5566],[-44.2969,-22.5612],[-44.2975,-22.5616]],[[-44.2936,-22.5586],[-44.2935,-22.5616],[-44.2938,-22.5592],[-44.2936,-22.5586]],[[-44.2962,-22.5614],[-44.2943,-22.5598],[-44.296,-22.561],[-44.2962,-22.5614]],[[-44.2971,-22.5496],[-44.2958,-22.5546],[-44.297,-22.5498],[-44.2971,-22.5496]],[[-44.3006,-22.5509],[-44.3019,-22.5466],[-44.2969,-22.5544],[-44.2995,-22.5488],[-44.3003,-22.5508],[-44.3006,-22.5509]]]}},{"type":"Feature","properties":{"cod_tema":"AREA_USO_RESTRITO_DECLIVIDADE_25_A_45","cod_imovel":"RJ-3300407-B70CA15F2CDF4ED2A290008985A7754D","num_area":"4.2484000000000000000000000000000","ind_status":"AT"},"geometry":{"type":"Polygon","coordinates":[[[-44.2039,-22.569],[-44.2016,-22.5698],[-44.2039,-22.5692],[-44.2039,-22.569]],[[-44.1995,-22.5721],[-44.2014,-22.5709],[-44.1996,-22.572],[-44.1995,-22.5721]]]}},{"type":"Feature","properties":{"cod_tema":"AREA_USO_RESTRITO_DECLIVIDADE_25_A_45","cod_imovel":"RJ-3300407-AE5E9D1957FB4D4C840DA2A2E84B8DE7","num_area":"7.5498000000000000000000000000000","ind_status":"AT"},"geometry":{"type":"Polygon","coordinates":[[[-44.1009,-22.3756],[-44.1014,-22.3777],[-44.1027,-22.3754],[-44.1005,-22.3757],[-44.1009,-22.3756]],[[-44.0973,-22.3758],[-44.0989,-22.3779],[-44.0976,-22.3762],[-44.0973,-22.3758]],[[-44.099,-22.3757],[-44.1001,-22.3778],[-44.0993,-22.3758],[-44.099,-22.3757]]]}},{"type":"Feature","properties":{"cod_tema":"AREA_USO_RESTRITO_DECLIVIDADE_25_A_45","cod_imovel":"RJ-3300407-31F0CA9B529842DDA842FB79A21B913E","num_area":"21.636000000000000000000000000000","ind_status":"AT"},"geometry":{"type":"Polygon","coordinates":[[[-44.2091,-22.4746],[-44.2113,-22.4736],[-44.2091,-22.4739],[-44.2091,-22.4746]],[[-44.214,-22.48],[-44.2163,-22.4746],[-44.2129,-22.4799],[-44.214,-22.48]],[[-44.2144,-22.4738],[-44.2142,-22.4772],[-44.2142,-22.4742],[-44.2144,-22.4738]],[[-44.212,-22.4799],[-44.2119,-22.4749],[-44.209,-22.4773],[-44.2122,-22.4756],[-44.2115,-22.4799],[-44.212,-22.4799]]]}},{"type":"Feature","properties":{"cod_tema":"AREA_USO_RESTRITO_DECLIVIDADE_25_A_45","cod_imovel":"RJ-3300407-941C339646F54C8FAFAA5B7A114EB607","num_area":"2.0716000000000000000000000000000","ind_status":"AT"},"geometry":{"type":"Polygon","coordinates":[[[-44.1836,-22.5708],[-44.1803,-22.5715],[-44.1838,-22.5712],[-44.1836,-22.5708]]]}},{"type":"Feature","properties":{"cod_tema":"AREA_USO_RESTRITO_DECLIVIDADE_25_A_45","cod_imovel":"RJ-3300407-1D73ED7E553E4678BB58AD00521C7B0A","num_area":"34.813900000000000000000000000000","ind_status":"AT"},"geometry":{"type":"Polygon","coordinates":[[[-44.266,-22.5472],[-44.2577,-22.5522],[-44.2611,-22.5533],[-44.2658,-22.5477],[-44.266,-22.5472]],[[-44.26,-22.5444],[-44.2633,-22.5448],[-44.2621,-22.5418],[-44.2626,-22.5451],[-44.2606,-22.5459],[-44.2614,-22.5419],[-44.2602,-22.5437],[-44.26,-22.5444]],[[-44.2645,-22.545],[-44.2613,-22.5477],[-44.2644,-22.5452],[-44.2645,-22.545]],[[-44.2662,-22.5494],[-44.2613,-22.5535],[-44.266,-22.5499],[-44.2662,-22.5494]],[[-44.2621,-22.5545],[-44.2649,-22.5522],[-44.2621,-22.5545],[-44.2621,-22.5545]],[[-44.2634,-22.5464],[-44.262,-22.5478],[-44.2638,-22.5463],[-44.2634,-22.5464]]]}},{"type":"Feature","properties":{"cod_tema":"AREA_USO_RESTRITO_DECLIVIDADE_25_A_45","cod_imovel":"RJ-3300407-B2B133F67BDC420496D561C8A0CA3D84","num_area":"19.631300000000000000000000000000","ind_status":"AT"},"geometry":{"type":"Polygon","coordinates":[[[-44.2739,-22.549],[-44.2724,-22.5526],[-44.2738,-22.5495],[-44.2739,-22.549]],[[-44.2711,-22.553],[-44.2721,-22.5552],[-44.2715,-22.5529],[-44.2711,-22.553]],[[-44.2724,-22.5609],[-44.2707,-22.5626],[-44.2723,-22.561],[-44.2724,-22.5609]],[[-44.2725,-22.5602],[-44.2724,-22.5567],[-44.2725,-22.5603],[-44.2725,-22.5602]],[[-44.2715,-22.5573],[-44.271,-22.5534],[-44.271,-22.5575],[-44.2715,-22.5573]],[[-44.2704,-22.563],[-44.2688,-22.5582],[-44.2703,-22.563],[-44.2704,-22.563]]]}},{"type":"Feature","properties":{"cod_tema":"AREA_USO_RESTRITO_DECLIVIDADE_25_A_45","cod_imovel":"RJ-3300407-A2BCF0133F5D4914A41672B2624A3CDC","num_area":"9.3337000000000000000000000000000","ind_status":"AT"},"geometry":{"type":"Polygon","coordinates":[[[-44.2648,-22.5622],[-44.2625,-22.559],[-44.2647,-22.5621],[-44.2648,-22.5622]],[[-44.2639,-22.5639],[-44.2616,-22.5588],[-44.2639,-22.5638],[-44.2639,-22.5639]],[[-44.2631,-22.5639],[-44.2601,-22.5631],[-44.2631,-22.5639],[-44.2631,-22.5639]]]}},{"type":"Feature","properties":{"cod_tema":"AREA_USO_RESTRITO_DECLIVIDADE_25_A_45","cod_imovel":"RJ-3300407-34009F21E7714C55AEE4B18B6DD1BE4F","num_area":"17.078500000000000000000000000000","ind_status":"AT"},"geometry":{"type":"Polygon","coordinates":[[[-44.0983,-22.6409],[-44.1009,-22.6417],[-44.0984,-22.641],[-44.0983,-22.6409]],[[-44.0936,-22.6362],[-44.0956,-22.6384],[-44.0941,-22.6365],[-44.0936,-22.6362]],[[-44.0962,-22.6372],[-44.0975,-22.6404],[-44.097,-22.6374],[-44.0962,-22.6372]],[[-44.0985,-22.6417],[-44.1009,-22.6421],[-44.0988,-22.642],[-44.0985,-22.6417]],[[-44.095,-22.6404],[-44.0907,-22.6383],[-44.0947,-22.6401],[-44.095,-22.6404]]]}},{"type":"Feature","properties":{"cod_tema":"AREA_USO_RESTRITO_DECLIVIDADE_25_A_45","cod_imovel":"RJ-3300407-74F29BAF5AFF4B6BB427FC877D03C990","num_area":"14.614200000000000000000000000000","ind_status":"AT"},"geometry":{"type":"Polygon","coordinates":[[[-44.1584,-22.6153],[-44.1554,-22.618],[-44.1584,-22.6154],[-44.1584,-22.6153]],[[-44.1589,-22.6197],[-44.1543,-22.6187],[-44.1586,-22.6196],[-44.1589,-22.6197]],[[-44.1602,-22.6177],[-44.1576,-22.616],[-44.16,-22.6179],[-44.1602,-22.6177]],[[-44.1596,-22.6187],[-44.1579,-22.6164],[-44.1595,-22.6184],[-44.1596,-22.6187]]]}},{"type":"Feature","properties":{"cod_tema":"AREA_USO_RESTRITO_DECLIVIDADE_25_A_45","cod_imovel":"RJ-3300407-39E212EF1E8D4EA6B43F77EDF370EF85","num_area":"6.5389000000000000000000000000000","ind_status":"AT"},"geometry":{"type":"Polygon","coordinates":[[[-44.1558,-22.5954],[-44.1572,-22.5936],[-44.1558,-22.5952],[-44.1558,-22.5954]]]}},{"type":"Feature","properties":{"cod_tema":"AREA_USO_RESTRITO_DECLIVIDADE_25_A_45","cod_imovel":"RJ-3300407-1C916CA4A57E412FA24F3D12F0DA531B","num_area":"5.2110000000000000000000000000000","ind_status":"AT"},"geometry":{"type":"Polygon","coordinates":[[[-44.1319,-22.3674],[-44.1337,-22.3635],[-44.132,-22.3672],[-44.1319,-22.3674]]]}},{"type":"Feature","properties":{"cod_tema":"AREA_USO_RESTRITO_DECLIVIDADE_25_A_45","cod_imovel":"RJ-3300407-B42648BBC3FA4DE9816AC46CF1747136","num_area":"3.3317000000000000000000000000000","ind_status":"AT"},"geometry":{"type":"Polygon","coordinates":[[[-44.171,-22.4834],[-44.1733,-22.4819],[-44.1707,-22.483],[-44.171,-22.4834]],[[-44.1747,-22.4827],[-44.1725,-22.4839],[-44.1746,-22.4828],[-44.1747,-22.4827]]]}},{"type":"Feature","properties":{"cod_tema":"AREA_USO_RESTRITO_DECLIVIDADE_25_A_45","cod_imovel":"RJ-3300407-4985E7B568A84602898BA887B3A0ABB2","num_area":"11.389600000000000000000000000000","ind_status":"AT"},"geometry":{"type":"Polygon","coordinates":[[[-44.1063,-22.3502],[-44.1007,-22.3502],[-44.1066,-22.3505],[-44.1063,-22.3502]]]}},{"type":"Feature","properties":{"cod_tema":"AREA_USO_RESTRITO_DECLIVIDADE_25_A_45","cod_imovel":"RJ-3300407-D2D68E6E25A643FD94D3FE86C5583F5A","num_area":"1.8621000000000000000000000000000","ind_status":"AT"},"geometry":{"type":"Polygon","coordinates":[[[-44.1865,-22.5351],[-44.188,-22.5334],[-44.1865,-22.535],[-44.1865,-22.5351]]]}},{"type":"Feature","properties":{"cod_tema":"AREA_USO_RESTRITO_DECLIVIDADE_25_A_45","cod_imovel":"RJ-3300407-38EF46DC23764378B0D00D1CE33273E2","num_area":"17.876300000000000000000000000000","ind_status":"AT"},"geometry":{"type":"Polygon","coordinates":[[[-44.1719,-22.5003],[-44.1677,-22.4998],[-44.1711,-22.5003],[-44.1719,-22.5003]],[[-44.1645,-22.5003],[-44.167,-22.4984],[-44.1647,-22.5],[-44.1645,-22.5003]],[[-44.1637,-22.4992],[-44.1685,-22.4962],[-44.1643,-22.499],[-44.1637,-22.4992]],[[-44.1696,-22.4975],[-44.1671,-22.4984],[-44.1699,-22.4977],[-44.1696,-22.4975]]]}},{"type":"Feature","properties":{"cod_tema":"AREA_USO_RESTRITO_DECLIVIDADE_25_A_45","cod_imovel":"RJ-3300407-180357B983CB4D848FC4D9C1AD7FFA4E","num_area":"10.482300000000000000000000000000","ind_status":"AT"},"geometry":{"type":"Polygon","coordinates":[[[-44.3086,-22.5228],[-44.3107,-22.5234],[-44.3087,-22.523],[-44.3086,-22.5228]],[[-44.3033,-22.5212],[-44.3026,-22.5192],[-44.3034,-22.5212],[-44.3033,-22.5212]],[[-44.3001,-22.5175],[-44.3007,-22.5143],[-44.2998,-22.5176],[-44.3001,-22.5175]]]}},{"type":"Feature","properties":{"cod_tema":"AREA_USO_RESTRITO_DECLIVIDADE_25_A_45","cod_imovel":"RJ-3300407-C60D4E3800BB4DC787340FFC6EFC874D","num_area":"1.9804000000000000000000000000000","ind_status":"AT"},"geometry":{"type":"Polygon","coordinates":[[[-44.1934,-22.5608],[-44.1912,-22.5621],[-44.1927,-22.5607],[-44.1934,-22.5608]]]}},{"type":"Feature","properties":{"cod_tema":"AREA_USO_RESTRITO_DECLIVIDADE_25_A_45","cod_imovel":"RJ-3300407-E151D7F87B7F42E89D60A08ED090BD3F","num_area":"6.8695000000000000000000000000000","ind_status":"AT"},"geometry":{"type":"Polygon","coordinates":[[[-44.1284,-22.5819],[-44.1238,-22.5819],[-44.1284,-22.583],[-44.1284,-22.5819]],[[-44.1264,-22.5848],[-44.1239,-22.5826],[-44.1265,-22.5846],[-44.1264,-22.5848]]]}},{"type":"Feature","properties":{"cod_tema":"AREA_USO_RESTRITO_DECLIVIDADE_25_A_45","cod_imovel":"RJ-3300407-03A887D3B57C4E779C2445031566F662","num_area":"18.269200000000000000000000000000","ind_status":"AT"},"geometry":{"type":"Polygon","coordinates":[[[-44.1469,-22.6034],[-44.1478,-22.6057],[-44.1499,-22.6037],[-44.1472,-22.6035],[-44.1469,-22.6034]],[[-44.1456,-22.6072],[-44.1439,-22.6085],[-44.1459,-22.6073],[-44.1456,-22.6072]],[[-44.1496,-22.6061],[-44.1497,-22.604],[-44.1496,-22.606],[-44.1496,-22.6061]],[[-44.1478,-22.6079],[-44.1427,-22.6079],[-44.148,-22.6081],[-44.1478,-22.6079]]]}},{"type":"Feature","properties":{"cod_tema":"AREA_USO_RESTRITO_DECLIVIDADE_25_A_45","cod_imovel":"RJ-3300407-DC78354060AF45068A751B201B4D3E39","num_area":"3.0143000000000000000000000000000","ind_status":"AT"},"geometry":{"type":"Polygon","coordinates":[[[-44.1333,-22.3706],[-44.1347,-22.3689],[-44.1326,-22.3713],[-44.1333,-22.3706]]]}},{"type":"Feature","properties":{"cod_tema":"AREA_USO_RESTRITO_DECLIVIDADE_25_A_45","cod_imovel":"RJ-3300407-E3D2E60720F2421B975F43665F22B261","num_area":"9.2167000000000000000000000000000","ind_status":"AT"},"geometry":{"type":"Polygon","coordinates":[[[-44.1353,-22.3691],[-44.133,-22.3721],[-44.1355,-22.3694],[-44.1353,-22.3691]]]}},{"type":"Feature","properties":{"cod_tema":"AREA_USO_RESTRITO_DECLIVIDADE_25_A_45","cod_imovel":"RJ-3300407-1B7E65347C61482EBBC9474CE2B8C0B5","num_area":"33.894900000000000000000000000000","ind_status":"AT"},"geometry":{"type":"Polygon","coordinates":[[[-44.1677,-22.6076],[-44.1683,-22.6055],[-44.1671,-22.6077],[-44.1677,-22.6076]],[[-44.1668,-22.6075],[-44.1669,-22.6053],[-44.1629,-22.6068],[-44.1685,-22.6024],[-44.1647,-22.6032],[-44.1657,-22.6001],[-44.1625,-22.6057],[-44.1659,-22.6046],[-44.1613,-22.6086],[-44.1648,-22.6105],[-44.1637,-22.6082],[-44.1669,-22.6073],[-44.1668,-22.6075]]]}},{"type":"Feature","properties":{"cod_tema":"AREA_USO_RESTRITO_DECLIVIDADE_25_A_45","cod_imovel":"RJ-3300407-AE0DFEAB48E44859962C7B4C39135D81","num_area":"3.0459000000000000000000000000000","ind_status":"AT"},"geometry":{"type":"Polygon","coordinates":[[[-44.1183,-22.3707],[-44.1188,-22.3678],[-44.1183,-22.3701],[-44.1183,-22.3707]]]}},{"type":"Feature","properties":{"cod_tema":"AREA_USO_RESTRITO_DECLIVIDADE_25_A_45","cod_imovel":"RJ-3300407-0AB891E3806A4C11987E71085ED1DDC6","num_area":"45.975700000000000000000000000000","ind_status":"AT"},"geometry":{"type":"Polygon","coordinates":[[[-44.2582,-22.5505],[-44.2603,-22.5491],[-44.2584,-22.5466],[-44.255,-22.5488],[-44.2572,-22.5453],[-44.2528,-22.5481],[-44.2551,-22.5431],[-44.2517,-22.5471],[-44.2527,-22.5411],[-44.2509,-22.5456],[-44.2481,-22.5454],[-44.2553,-22.5495],[-44.2578,-22.5474],[-44.2581,-22.5502],[-44.2582,-22.5505]],[[-44.2526,-22.5472],[-44.2545,-22.5452],[-44.2528,-22.5471],[-44.2526,-22.5472]],[[-44.2538,-22.542],[-44.2519,-22.5444],[-44.2537,-22.5423],[-44.2538,-22.542]],[[-44.2458,-22.5454],[-44.2486,-22.5465],[-44.2514,-22.5403],[-44.2459,-22.5441],[-44.2458,-22.5454]]]}},{"type":"Feature","properties":{"cod_tema":"AREA_USO_RESTRITO_DECLIVIDADE_25_A_45","cod_imovel":"RJ-3300407-A9171CA7CACA4B26AD895B9C699033CC","num_area":"7.6018000000000000000000000000000","ind_status":"AT"},"geometry":{"type":"Polygon","coordinates":[[[-44.2055,-22.5156],[-44.2074,-22.5128],[-44.206,-22.5151],[-44.2055,-22.5156]]]}},{"type":"Feature","properties":{"cod_tema":"AREA_USO_RESTRITO_DECLIVIDADE_25_A_45","cod_imovel":"RJ-3300407-FA65AED0A9844A48ABAECF9B56A74277","num_area":"12.306600000000000000000000000000","ind_status":"AT"},"geometry":{"type":"Polygon","coordinates":[[[-44.1664,-22.4276],[-44.1632,-22.4237],[-44.1608,-22.4249],[-44.1659,-22.4273],[-44.1664,-22.4276]],[[-44.1622,-22.4236],[-44.1601,-22.425],[-44.1619,-22.4238],[-44.1622,-22.4236]]]}},{"type":"Feature","properties":{"cod_tema":"AREA_USO_RESTRITO_DECLIVIDADE_25_A_45","cod_imovel":"RJ-3300407-F14569D6B58A4E0399A48C6902C0B172","num_area":"14.506600000000000000000000000000","ind_status":"AT"},"geometry":{"type":"Polygon","coordinates":[[[-44.1362,-22.3539],[-44.1374,-22.35],[-44.1359,-22.3536],[-44.1362,-22.3539]],[[-44.1393,-22.3529],[-44.1391,-22.3477],[-44.1394,-22.3529],[-44.1393,-22.3529]]]}},{"type":"Feature","properties":{"cod_tema":"AREA_USO_RESTRITO_DECLIVIDADE_25_A_45","cod_imovel":"RJ-3300407-13689ECD998849F8BA8A9487B7CE95FC","num_area":"4.7606000000000000000000000000000","ind_status":"AT"},"geometry":{"type":"Polygon","coordinates":[[[-44.2384,-22.5285],[-44.2397,-22.526],[-44.2383,-22.5285],[-44.2384,-22.5285]],[[-44.2364,-22.5279],[-44.238,-22.526],[-44.2366,-22.5277],[-44.2364,-22.5279]]]}},{"type":"Feature","properties":{"cod_tema":"AREA_USO_RESTRITO_DECLIVIDADE_25_A_45","cod_imovel":"RJ-3300407-E7A972930F3A464FB33D60C275CE7934","num_area":"12.022100000000000000000000000000","ind_status":"AT"},"geometry":{"type":"Polygon","coordinates":[[[-44.1414,-22.346],[-44.1436,-22.3535],[-44.1452,-22.3509],[-44.1415,-22.346],[-44.1414,-22.346]]]}},{"type":"Feature","properties":{"cod_tema":"AREA_USO_RESTRITO_DECLIVIDADE_25_A_45","cod_imovel":"RJ-3300407-770387F587C6419D8EA227EABFCF9295","num_area":"25.763900000000000000000000000000","ind_status":"AT"},"geometry":{"type":"Polygon","coordinates":[[[-44.1101,-22.3775],[-44.1076,-22.377],[-44.1102,-22.3775],[-44.1101,-22.3775]],[[-44.107,-22.378],[-44.1056,-22.3733],[-44.1098,-22.3757],[-44.1052,-22.371],[-44.107,-22.3775],[-44.107,-22.378]],[[-44.1083,-22.3712],[-44.1066,-22.3683],[-44.1098,-22.3752],[-44.1081,-22.3714],[-44.1083,-22.3712]]]}},{"type":"Feature","properties":{"cod_tema":"AREA_USO_RESTRITO_DECLIVIDADE_25_A_45","cod_imovel":"RJ-3300407-C9D7EE0F50F848D4B2B43C96A46855D2","num_area":"8.9214000000000000000000000000000","ind_status":"AT"},"geometry":{"type":"Polygon","coordinates":[[[-44.1438,-22.3798],[-44.1426,-22.3771],[-44.1438,-22.3797],[-44.1438,-22.3798]],[[-44.1396,-22.3747],[-44.1419,-22.3747],[-44.1406,-22.3784],[-44.1423,-22.3748],[-44.1397,-22.3748],[-44.1396,-22.3747]]]}},{"type":"Feature","properties":{"cod_tema":"AREA_USO_RESTRITO_DECLIVIDADE_25_A_45","cod_imovel":"RJ-3300407-3A5CD1656BC2464CBA1C71255E53E782","num_area":"7.8886000000000000000000000000000","ind_status":"AT"},"geometry":{"type":"Polygon","coordinates":[[[-44.3206,-22.5633],[-44.3236,-22.5626],[-44.3207,-22.5632],[-44.3206,-22.5633]],[[-44.3207,-22.5615],[-44.324,-22.5616],[-44.3186,-22.5609],[-44.3209,-22.5618],[-44.3207,-22.5615]]]}},{"type":"Feature","properties":{"cod_tema":"AREA_USO_RESTRITO_DECLIVIDADE_25_A_45","cod_imovel":"RJ-3300407-2D6EDAB48BF140A197EC167BC08247FE","num_area":"2.5789000000000000000000000000000","ind_status":"AT"},"geometry":{"type":"Polygon","coordinates":[[[-44.319,-22.5613],[-44.317,-22.5621],[-44.3189,-22.5613],[-44.319,-22.5613]]]}},{"type":"Feature","properties":{"cod_tema":"AREA_USO_RESTRITO_DECLIVIDADE_25_A_45","cod_imovel":"RJ-3300407-DBB33340FAE14DCAA8D07F2230C73594","num_area":"12.443400000000000000000000000000","ind_status":"AT"},"geometry":{"type":"Polygon","coordinates":[[[-44.1609,-22.6165],[-44.1609,-22.6196],[-44.1614,-22.6165],[-44.1609,-22.6165]],[[-44.1621,-22.6143],[-44.1609,-22.6163],[-44.1622,-22.6145],[-44.1621,-22.6143]],[[-44.1648,-22.6226],[-44.1677,-22.6213],[-44.1651,-22.6227],[-44.1648,-22.6226]],[[-44.1662,-22.6188],[-44.1614,-22.6198],[-44.166,-22.6187],[-44.1662,-22.6188]]]}},{"type":"Feature","properties":{"cod_tema":"AREA_USO_RESTRITO_DECLIVIDADE_25_A_45","cod_imovel":"RJ-3300407-B23C1D1E3DAE48D499217F2FE73E0FD4","num_area":"14.095300000000000000000000000000","ind_status":"AT"},"geometry":{"type":"Polygon","coordinates":[[[-44.2972,-22.5831],[-44.2943,-22.5824],[-44.2968,-22.583],[-44.2972,-22.5831]],[[-44.2925,-22.5799],[-44.2969,-22.58],[-44.2893,-22.5788],[-44.2924,-22.58],[-44.2925,-22.5799]]]}},{"type":"Feature","properties":{"cod_tema":"AREA_USO_RESTRITO_DECLIVIDADE_25_A_45","cod_imovel":"RJ-3300407-5984A9F6F61E4D4DB6DC0C6A079E98A9","num_area":"5.4292000000000000000000000000000","ind_status":"AT"},"geometry":{"type":"Polygon","coordinates":[[[-44.1492,-22.3333],[-44.1512,-22.3314],[-44.1487,-22.3333],[-44.1492,-22.3333]]]}},{"type":"Feature","properties":{"cod_tema":"AREA_USO_RESTRITO_DECLIVIDADE_25_A_45","cod_imovel":"RJ-3300407-9102E01793FC47D4801A09C19784AA0E","num_area":"9.3661000000000000000000000000000","ind_status":"AT"},"geometry":{"type":"Polygon","coordinates":[[[-44.3036,-22.5228],[-44.3036,-22.5257],[-44.3041,-22.523],[-44.3036,-22.5228]],[[-44.3023,-22.5223],[-44.3004,-22.524],[-44.3026,-22.5231],[-44.3023,-22.5223]]]}},{"type":"Feature","properties":{"cod_tema":"AREA_USO_RESTRITO_DECLIVIDADE_25_A_45","cod_imovel":"RJ-3300407-28E1718F96DD43DB86187DAD2AB4D06E","num_area":"11.356800000000000000000000000000","ind_status":"AT"},"geometry":{"type":"Polygon","coordinates":[[[-44.1114,-22.3882],[-44.1136,-22.391],[-44.1114,-22.3881],[-44.1114,-22.3882]],[[-44.1125,-22.3861],[-44.1156,-22.3886],[-44.1125,-22.3861],[-44.1125,-22.3861]]]}},{"type":"Feature","properties":{"cod_tema":"AREA_USO_RESTRITO_DECLIVIDADE_25_A_45","cod_imovel":"RJ-3300407-016D9B7779D54C74805C41F39D0B004F","num_area":"12.277400000000000000000000000000","ind_status":"AT"},"geometry":{"type":"Polygon","coordinates":[[[-44.1014,-22.3725],[-44.0985,-22.3751],[-44.1027,-22.3754],[-44.0989,-22.3748],[-44.1014,-22.3729],[-44.1014,-22.3725]]]}},{"type":"Feature","properties":{"cod_tema":"AREA_USO_RESTRITO_DECLIVIDADE_25_A_45","cod_imovel":"RJ-3300407-25B07F980F574AB895F151351BB7B6DB","num_area":"35.909300000000000000000000000000","ind_status":"AT"},"geometry":{"type":"Polygon","coordinates":[[[-44.1678,-22.3786],[-44.1686,-22.3765],[-44.1679,-22.3785],[-44.1678,-22.3786]],[[-44.1726,-22.3686],[-44.1698,-22.3665],[-44.1725,-22.3687],[-44.1726,-22.3686]],[[-44.1685,-22.3776],[-44.1709,-22.3776],[-44.1685,-22.3774],[-44.1685,-22.3776]],[[-44.1692,-22.3669],[-44.1706,-22.3712],[-44.1695,-22.3665],[-44.1692,-22.3669]],[[-44.1692,-22.3662],[-44.1665,-22.3696],[-44.1688,-22.3723],[-44.1692,-22.3665],[-44.1692,-22.3662]],[[-44.1713,-22.3742],[-44.1717,-22.3704],[-44.1695,-22.374],[-44.1649,-22.3715],[-44.1649,-22.3743],[-44.1711,-22.3745],[-44.1713,-22.3742]],[[-44.1653,-22.3689],[-44.1649,-22.3712],[-44.1668,-22.3651],[-44.1664,-22.367],[-44.1653,-22.3689]]]}},{"type":"Feature","properties":{"cod_tema":"AREA_USO_RESTRITO_DECLIVIDADE_25_A_45","cod_imovel":"RJ-3300407-0012FB3D32B4472DB5D510D344A66E14","num_area":"10.690200000000000000000000000000","ind_status":"AT"},"geometry":{"type":"Polygon","coordinates":[[[-44.2385,-22.5319],[-44.2353,-22.532],[-44.2347,-22.5361],[-44.2378,-22.5313],[-44.2385,-22.5319]]]}},{"type":"Feature","properties":{"cod_tema":"AREA_USO_RESTRITO_DECLIVIDADE_25_A_45","cod_imovel":"RJ-3300407-70AE7EB0C13E4BFDA2E99A3FA7644F41","num_area":"17.510900000000000000000000000000","ind_status":"AT"},"geometry":{"type":"Polygon","coordinates":[[[-44.1172,-22.5752],[-44.1212,-22.5762],[-44.1177,-22.5746],[-44.1172,-22.5752]],[[-44.121,-22.5725],[-44.1223,-22.5709],[-44.1207,-22.5727],[-44.121,-22.5725]],[[-44.1162,-22.573],[-44.12,-22.5738],[-44.1159,-22.5728],[-44.1162,-22.573]],[[-44.1204,-22.5695],[-44.1176,-22.5705],[-44.1202,-22.5696],[-44.1204,-22.5695]],[[-44.118,-22.5788],[-44.1186,-22.5763],[-44.1178,-22.5786],[-44.118,-22.5788]],[[-44.1171,-22.5709],[-44.1202,-22.5722],[-44.1178,-22.5709],[-44.1171,-22.5709]]]}},{"type":"Feature","properties":{"cod_tema":"AREA_USO_RESTRITO_DECLIVIDADE_25_A_45","cod_imovel":"RJ-3300407-E6ADAA967D1347138517603C7C77D784","num_area":"17.874500000000000000000000000000","ind_status":"AT"},"geometry":{"type":"Polygon","coordinates":[[[-44.1404,-22.3828],[-44.1382,-22.3834],[-44.1397,-22.3857],[-44.1406,-22.3832],[-44.1404,-22.3828]],[[-44.1358,-22.3883],[-44.1358,-22.386],[-44.1359,-22.3883],[-44.1358,-22.3883]],[[-44.1388,-22.3867],[-44.1364,-22.389],[-44.1386,-22.3866],[-44.1388,-22.3867]],[[-44.1322,-22.3818],[-44.1375,-22.3858],[-44.133,-22.3815],[-44.1322,-22.3818]]]}},{"type":"Feature","properties":{"cod_tema":"AREA_USO_RESTRITO_DECLIVIDADE_25_A_45","cod_imovel":"RJ-3300407-A839C7339DF74A0A91F3C103619CAC45","num_area":"6.5289000000000000000000000000000","ind_status":"AT"},"geometry":{"type":"Polygon","coordinates":[[[-44.1182,-22.4124],[-44.1179,-22.4145],[-44.1182,-22.4123],[-44.1182,-22.4124]]]}},{"type":"Feature","properties":{"cod_tema":"AREA_USO_RESTRITO_DECLIVIDADE_25_A_45","cod_imovel":"RJ-3300407-1ABD3D4432B64C48A4DFF9D30BBF0D86","num_area":"8.6322000000000000000000000000000","ind_status":"AT"},"geometry":{"type":"Polygon","coordinates":[[[-44.1437,-22.3521],[-44.1425,-22.3463],[-44.1438,-22.352],[-44.1437,-22.3521]]]}},{"type":"Feature","properties":{"cod_tema":"AREA_USO_RESTRITO_DECLIVIDADE_25_A_45","cod_imovel":"RJ-3300407-314998A75E2E4D8696CC41FDCFEEE082","num_area":"20.805600000000000000000000000000","ind_status":"AT"},"geometry":{"type":"Polygon","coordinates":[[[-44.2014,-22.5486],[-44.2023,-22.5448],[-44.2012,-22.5481],[-44.2014,-22.5486]],[[-44.1995,-22.5523],[-44.1989,-22.5486],[-44.1998,-22.5521],[-44.1995,-22.5523]],[[-44.197,-22.552],[-44.1984,-22.5484],[-44.1971,-22.5515],[-44.197,-22.552]],[[-44.197,-22.5559],[-44.2015,-22.5529],[-44.1977,-22.555],[-44.197,-22.5559]],[[-44.1949,-22.5474],[-44.1978,-22.5468],[-44.1949,-22.5473],[-44.1949,-22.5474]],[[-44.1998,-22.5449],[-44.1985,-22.5467],[-44.2011,-22.547],[-44.2002,-22.5447],[-44.1998,-22.5449]]]}},{"type":"Feature","properties":{"cod_tema":"AREA_USO_RESTRITO_DECLIVIDADE_25_A_45","cod_imovel":"RJ-3300407-5EDD890655FE48ED936F29853B13DA19","num_area":"12.126300000000000000000000000000","ind_status":"AT"},"geometry":{"type":"Polygon","coordinates":[[[-44.199,-22.5729],[-44.1974,-22.5756],[-44.2008,-22.5753],[-44.1981,-22.5753],[-44.199,-22.5733],[-44.199,-22.5729]],[[-44.2019,-22.5767],[-44.2045,-22.5745],[-44.1988,-22.5765],[-44.2019,-22.5767],[-44.2019,-22.5767]]]}},{"type":"Feature","properties":{"cod_tema":"AREA_USO_RESTRITO_DECLIVIDADE_25_A_45","cod_imovel":"RJ-3300407-570E389F6D0D4FAC952CC84C30792688","num_area":"16.683300000000000000000000000000","ind_status":"AT"},"geometry":{"type":"Polygon","coordinates":[[[-44.3111,-22.5166],[-44.3084,-22.5181],[-44.3105,-22.5169],[-44.3111,-22.5166]],[[-44.3102,-22.5125],[-44.3062,-22.5161],[-44.3103,-22.5131],[-44.3102,-22.5125]],[[-44.307,-22.5197],[-44.3097,-22.5181],[-44.3068,-22.5195],[-44.307,-22.5197]]]}},{"type":"Feature","properties":{"cod_tema":"AREA_USO_RESTRITO_DECLIVIDADE_25_A_45","cod_imovel":"RJ-3300407-374598E67D3546358EABD705D3D73300","num_area":"17.932100000000000000000000000000","ind_status":"AT"},"geometry":{"type":"Polygon","coordinates":[[[-44.1279,-22.6492],[-44.1247,-22.6469],[-44.1275,-22.6493],[-44.1279,-22.6492]],[[-44.1247,-22.6458],[-44.1278,-22.6474],[-44.1249,-22.6456],[-44.1247,-22.6458]],[[-44.1268,-22.6417],[-44.1251,-22.644],[-44.1266,-22.6425],[-44.1268,-22.6417]],[[-44.1275,-22.6424],[-44.1256,-22.6442],[-44.1276,-22.6426],[-44.1275,-22.6424]]]}},{"type":"Feature","properties":{"cod_tema":"AREA_USO_RESTRITO_DECLIVIDADE_25_A_45","cod_imovel":"RJ-3300407-FE4704BA9C8E4E46A2ED80A64DB51F3C","num_area":"9.9009000000000000000000000000000","ind_status":"AT"},"geometry":{"type":"Polygon","coordinates":[[[-44.2535,-22.5534],[-44.2525,-22.5511],[-44.2531,-22.5535],[-44.2535,-22.5534]],[[-44.251,-22.5544],[-44.2518,-22.551],[-44.2507,-22.5544],[-44.251,-22.5544]],[[-44.2511,-22.5593],[-44.2501,-22.5559],[-44.2511,-22.5593],[-44.2511,-22.5593]]]}},{"type":"Feature","properties":{"cod_tema":"AREA_USO_RESTRITO_DECLIVIDADE_25_A_45","cod_imovel":"RJ-3300407-6A1E37F9345548F7871144B5C46032F2","num_area":"25.797400000000000000000000000000","ind_status":"PE"},"geometry":{"type":"Polygon","coordinates":[[[-44.1696,-22.6043],[-44.1693,-22.6067],[-44.1698,-22.6043],[-44.1696,-22.6043]],[[-44.1736,-22.6123],[-44.1745,-22.6073],[-44.1739,-22.612],[-44.1736,-22.6123]],[[-44.1763,-22.6077],[-44.1749,-22.6112],[-44.176,-22.6078],[-44.1763,-22.6077]],[[-44.1713,-22.6102],[-44.1738,-22.6083],[-44.1711,-22.6097],[-44.1713,-22.6102]],[[-44.1701,-22.609],[-44.1726,-22.6073],[-44.171,-22.6042],[-44.1701,-22.6088],[-44.1701,-22.609]]]}},{"type":"Feature","properties":{"cod_tema":"AREA_USO_RESTRITO_DECLIVIDADE_25_A_45","cod_imovel":"RJ-3300407-D16E27D957884B2FAF93A15849C0D747","num_area":"4.7899000000000000000000000000000","ind_status":"AT"},"geometry":{"type":"Polygon","coordinates":[[[-44.2822,-22.5707],[-44.281,-22.5727],[-44.2823,-22.5708],[-44.2822,-22.5707]]]}},{"type":"Feature","properties":{"cod_tema":"AREA_USO_RESTRITO_DECLIVIDADE_25_A_45","cod_imovel":"RJ-3300407-7CC36051F1DC4BA1BB45DDD7D82B235D","num_area":"30.920800000000000000000000000000","ind_status":"AT"},"geometry":{"type":"Polygon","coordinates":[[[-44.2105,-22.5233],[-44.2086,-22.5252],[-44.2102,-22.5236],[-44.2105,-22.5233]],[[-44.2098,-22.5257],[-44.2114,-22.5233],[-44.2101,-22.5255],[-44.2098,-22.5257]],[[-44.2114,-22.5247],[-44.214,-22.525],[-44.2117,-22.5245],[-44.2114,-22.5247]],[[-44.2157,-22.5232],[-44.2147,-22.5254],[-44.2158,-22.523],[-44.2157,-22.5232]],[[-44.2209,-22.5191],[-44.2165,-22.5218],[-44.2209,-22.5191],[-44.2209,-22.5191]],[[-44.2237,-22.5182],[-44.2211,-22.5235],[-44.2237,-22.5183],[-44.2237,-22.5182]],[[-44.222,-22.5205],[-44.2228,-22.5182],[-44.2181,-22.5235],[-44.22,-22.5246],[-44.2219,-22.5205],[-44.222,-22.5205]]]}},{"type":"Feature","properties":{"cod_tema":"AREA_USO_RESTRITO_DECLIVIDADE_25_A_45","cod_imovel":"RJ-3300407-104BF221E71F406EB1FDD3F38510169B","num_area":"29.454400000000000000000000000000","ind_status":"AT"},"geometry":{"type":"Polygon","coordinates":[[[-44.288,-22.5418],[-44.2829,-22.5414],[-44.2846,-22.5498],[-44.2879,-22.5428],[-44.288,-22.5418]]]}},{"type":"Feature","properties":{"cod_tema":"AREA_USO_RESTRITO_DECLIVIDADE_25_A_45","cod_imovel":"RJ-3300407-E8E93A0C75CA44E385C6D2F985ED47CE","num_area":"2.0986000000000000000000000000000","ind_status":"AT"},"geometry":{"type":"Polygon","coordinates":[[[-44.2744,-22.5429],[-44.2722,-22.5439],[-44.2744,-22.5432],[-44.2744,-22.5429]]]}},{"type":"Feature","properties":{"cod_tema":"AREA_USO_RESTRITO_DECLIVIDADE_25_A_45","cod_imovel":"RJ-3300407-B5DF2B5133644AE68B5CCBB4678C5EF9","num_area":"3.3938000000000000000000000000000","ind_status":"CA"},"geometry":{"type":"Polygon","coordinates":[[[-44.2717,-22.5747],[-44.2724,-22.5717],[-44.2708,-22.5742],[-44.2717,-22.5747]]]}},{"type":"Feature","properties":{"cod_tema":"AREA_USO_RESTRITO_DECLIVIDADE_25_A_45","cod_imovel":"RJ-3300407-CDCC4ED1CB5B44E8931063202C689FEE","num_area":"11.263600000000000000000000000000","ind_status":"AT"},"geometry":{"type":"Polygon","coordinates":[[[-44.2743,-22.5532],[-44.2741,-22.5509],[-44.2738,-22.5532],[-44.2743,-22.5532]],[[-44.2759,-22.5585],[-44.2778,-22.5574],[-44.2743,-22.5545],[-44.2751,-22.5585],[-44.2759,-22.5585]]]}},{"type":"Feature","properties":{"cod_tema":"AREA_USO_RESTRITO_DECLIVIDADE_25_A_45","cod_imovel":"RJ-3300407-A45F79A66DB440FCAC31AD704A28BF42","num_area":"2.9751000000000000000000000000000","ind_status":"AT"},"geometry":{"type":"Polygon","coordinates":[[[-44.2336,-22.5371],[-44.2323,-22.5335],[-44.2331,-22.5363],[-44.2336,-22.5371]]]}},{"type":"Feature","properties":{"cod_tema":"AREA_USO_RESTRITO_DECLIVIDADE_25_A_45","cod_imovel":"RJ-3300407-EA6545A2254D4B85B3EBF76E8FEE7FAC","num_area":"12.761900000000000000000000000000","ind_status":"AT"},"geometry":{"type":"Polygon","coordinates":[[[-44.1527,-22.5011],[-44.1535,-22.4988],[-44.1526,-22.5011],[-44.1527,-22.5011]],[[-44.1463,-22.4984],[-44.1493,-22.497],[-44.1465,-22.4981],[-44.1463,-22.4984]],[[-44.1464,-22.495],[-44.1445,-22.4959],[-44.1465,-22.495],[-44.1464,-22.495]],[[-44.1486,-22.4955],[-44.1469,-22.4967],[-44.1494,-22.4957],[-44.1486,-22.4955]],[[-44.15,-22.4978],[-44.1527,-22.4981],[-44.15,-22.4978],[-44.15,-22.4978]]]}},{"type":"Feature","properties":{"cod_tema":"AREA_USO_RESTRITO_DECLIVIDADE_25_A_45","cod_imovel":"RJ-3300407-EB4FFEDC379B46038034B5E6A83EEBFA","num_area":"14.126000000000000000000000000000","ind_status":"AT"},"geometry":{"type":"Polygon","coordinates":[[[-44.198,-22.5812],[-44.2,-22.5829],[-44.198,-22.5814],[-44.198,-22.5812]],[[-44.1981,-22.5859],[-44.1956,-22.5837],[-44.1977,-22.5856],[-44.1981,-22.5859]],[[-44.2027,-22.5841],[-44.2008,-22.5804],[-44.2002,-22.5844],[-44.2027,-22.5843],[-44.2027,-22.5841]]]}},{"type":"Feature","properties":{"cod_tema":"AREA_USO_RESTRITO_DECLIVIDADE_25_A_45","cod_imovel":"RJ-3300407-0AC60DDC33DA4069B4863C069FB4C62D","num_area":"15.514800000000000000000000000000","ind_status":"AT"},"geometry":{"type":"Polygon","coordinates":[[[-44.1985,-22.5812],[-44.2021,-22.5797],[-44.1985,-22.5812],[-44.1985,-22.5812]],[[-44.1948,-22.5737],[-44.1947,-22.5793],[-44.1953,-22.5737],[-44.1948,-22.5737]],[[-44.2005,-22.5766],[-44.1973,-22.576],[-44.1957,-22.5793],[-44.2004,-22.5767],[-44.2005,-22.5766]]]}},{"type":"Feature","properties":{"cod_tema":"AREA_USO_RESTRITO_DECLIVIDADE_25_A_45","cod_imovel":"RJ-3300407-BE1F5FD550844CF0BA12C73C4B590BF0","num_area":"14.692100000000000000000000000000","ind_status":"AT"},"geometry":{"type":"Polygon","coordinates":[[[-44.1894,-22.5522],[-44.1866,-22.5543],[-44.1908,-22.5545],[-44.1877,-22.5541],[-44.1898,-22.5522],[-44.1894,-22.5522]],[[-44.1911,-22.56],[-44.1897,-22.5558],[-44.1911,-22.56],[-44.1911,-22.56]]]}},{"type":"Feature","properties":{"cod_tema":"AREA_USO_RESTRITO_DECLIVIDADE_25_A_45","cod_imovel":"RJ-3300407-7B798DAC8E01412CB8B9E4C59698AC39","num_area":"2.6004000000000000000000000000000","ind_status":"AT"},"geometry":{"type":"Polygon","coordinates":[[[-44.1696,-22.491],[-44.1677,-22.493],[-44.1698,-22.4912],[-44.1696,-22.491]]]}},{"type":"Feature","properties":{"cod_tema":"AREA_USO_RESTRITO_DECLIVIDADE_25_A_45","cod_imovel":"RJ-3300407-7FD0F9B7B7AA4117B165BBBFAE80CD7D","num_area":"10.999700000000000000000000000000","ind_status":"AT"},"geometry":{"type":"Polygon","coordinates":[[[-44.2756,-22.5727],[-44.2746,-22.5745],[-44.2758,-22.5727],[-44.2756,-22.5727]],[[-44.2763,-22.5711],[-44.2783,-22.5672],[-44.2766,-22.5712],[-44.2763,-22.5711]],[[-44.2731,-22.5728],[-44.2732,-22.5764],[-44.2733,-22.5725],[-44.2731,-22.5728]]]}},{"type":"Feature","properties":{"cod_tema":"AREA_USO_RESTRITO_DECLIVIDADE_25_A_45","cod_imovel":"RJ-3300407-6F758905BE2C49A38900F5D4EF5FCA98","num_area":"8.8830000000000000000000000000000","ind_status":"AT"},"geometry":{"type":"Polygon","coordinates":[[[-44.2856,-22.5674],[-44.2835,-22.5681],[-44.2856,-22.5674],[-44.2856,-22.5674]],[[-44.2837,-22.5661],[-44.287,-22.5639],[-44.2839,-22.5658],[-44.2837,-22.5661]],[[-44.2885,-22.5651],[-44.2852,-22.5665],[-44.2886,-22.5648],[-44.2885,-22.5651]]]}},{"type":"Feature","properties":{"cod_tema":"AREA_USO_RESTRITO_DECLIVIDADE_25_A_45","cod_imovel":"RJ-3300407-908214A2A2E2465D920A27E474CF1168","num_area":"2.2472000000000000000000000000000","ind_status":"AT"},"geometry":{"type":"Polygon","coordinates":[[[-44.1715,-22.4928],[-44.1696,-22.4948],[-44.1716,-22.4929],[-44.1715,-22.4928]]]}},{"type":"Feature","properties":{"cod_tema":"AREA_USO_RESTRITO_DECLIVIDADE_25_A_45","cod_imovel":"RJ-3300407-8D99B026D59F47C296A8682A277EFAD0","num_area":"24.812600000000000000000000000000","ind_status":"AT"},"geometry":{"type":"Polygon","coordinates":[[[-44.2103,-22.5584],[-44.2087,-22.5608],[-44.2103,-22.5585],[-44.2103,-22.5584]],[[-44.2156,-22.565],[-44.2131,-22.5646],[-44.2157,-22.5646],[-44.2156,-22.565]],[[-44.2168,-22.5645],[-44.2162,-22.5615],[-44.2168,-22.5645],[-44.2168,-22.5645]],[[-44.2119,-22.5587],[-44.2086,-22.5634],[-44.2116,-22.559],[-44.2119,-22.5587]],[[-44.2123,-22.559],[-44.2102,-22.5636],[-44.2124,-22.5645],[-44.2151,-22.5606],[-44.2107,-22.5635],[-44.2122,-22.5593],[-44.2149,-22.5601],[-44.2126,-22.5588],[-44.2123,-22.559]]]}},{"type":"Feature","properties":{"cod_tema":"AREA_USO_RESTRITO_DECLIVIDADE_25_A_45","cod_imovel":"RJ-3300407-0979E7534D4D4F919084C7BC1E763051","num_area":"32.015000000000000000000000000000","ind_status":"AT"},"geometry":{"type":"Polygon","coordinates":[[[-44.3055,-22.4976],[-44.306,-22.5029],[-44.3057,-22.4975],[-44.3055,-22.4976]],[[-44.3072,-22.5013],[-44.3071,-22.4982],[-44.307,-22.5013],[-44.3072,-22.5013]],[[-44.304,-22.5025],[-44.3033,-22.4985],[-44.3003,-22.5029],[-44.2996,-22.4988],[-44.2997,-22.5032],[-44.3023,-22.5008],[-44.3037,-22.5059],[-44.304,-22.5036],[-44.304,-22.5025]]]}},{"type":"Feature","properties":{"cod_tema":"AREA_USO_RESTRITO_DECLIVIDADE_25_A_45","cod_imovel":"RJ-3300407-6617F89E69CD44D7A102C22BFD9A43A7","num_area":"36.533200000000000000000000000000","ind_status":"AT"},"geometry":{"type":"Polygon","coordinates":[[[-44.1521,-22.5903],[-44.1486,-22.592],[-44.1523,-22.5904],[-44.1521,-22.5903]],[[-44.1484,-22.5957],[-44.1444,-22.595],[-44.1474,-22.5971],[-44.1484,-22.5957]],[[-44.1446,-22.5905],[-44.1448,-22.5929],[-44.1459,-22.5905],[-44.1446,-22.5905]],[[-44.1414,-22.5952],[-44.1456,-22.5945],[-44.1413,-22.5952],[-44.1414,-22.5952]],[[-44.1499,-22.5903],[-44.1462,-22.5955],[-44.1498,-22.5904],[-44.1499,-22.5903]],[[-44.1387,-22.5934],[-44.1435,-22.5918],[-44.1388,-22.5934],[-44.1387,-22.5934]]]}},{"type":"Feature","properties":{"cod_tema":"AREA_USO_RESTRITO_DECLIVIDADE_25_A_45","cod_imovel":"RJ-3300407-F95B26B248624602939A4F056E4C2732","num_area":"15.092400000000000000000000000000","ind_status":"AT"},"geometry":{"type":"Polygon","coordinates":[[[-44.1617,-22.3996],[-44.1642,-22.4],[-44.162,-22.3994],[-44.1617,-22.3996]],[[-44.1628,-22.4021],[-44.1683,-22.3991],[-44.1635,-22.4021],[-44.1668,-22.3996],[-44.1654,-22.3977],[-44.1627,-22.4019],[-44.1628,-22.4021]],[[-44.1641,-22.3993],[-44.1658,-22.396],[-44.1638,-22.3989],[-44.1641,-22.3993]]]}},{"type":"Feature","properties":{"cod_tema":"AREA_USO_RESTRITO_DECLIVIDADE_25_A_45","cod_imovel":"RJ-3300407-53ED31BA06B34A17A007D884FCD26122","num_area":"11.413700000000000000000000000000","ind_status":"AT"},"geometry":{"type":"Polygon","coordinates":[[[-44.2229,-22.5134],[-44.2183,-22.514],[-44.2227,-22.5136],[-44.2229,-22.5134]],[[-44.2204,-22.5115],[-44.2196,-22.5092],[-44.2168,-22.5122],[-44.2204,-22.5116],[-44.2204,-22.5115]]]}},{"type":"Feature","properties":{"cod_tema":"AREA_USO_RESTRITO_DECLIVIDADE_25_A_45","cod_imovel":"RJ-3300407-8F6202F3E5E64B5889D89CAC89A7CD50","num_area":"22.059000000000000000000000000000","ind_status":"AT"},"geometry":{"type":"Polygon","coordinates":[[[-44.1423,-22.3871],[-44.1377,-22.3884],[-44.1421,-22.3874],[-44.1423,-22.3871]],[[-44.1423,-22.3871],[-44.1421,-22.3833],[-44.1447,-22.384],[-44.1416,-22.3819],[-44.1445,-22.3843],[-44.1417,-22.3831],[-44.1422,-22.387],[-44.1423,-22.3871]],[[-44.1438,-22.378],[-44.1442,-22.3807],[-44.1436,-22.3784],[-44.1438,-22.378]]]}},{"type":"Feature","properties":{"cod_tema":"AREA_USO_RESTRITO_DECLIVIDADE_25_A_45","cod_imovel":"RJ-3300407-9232B08884FA416BAC235B848FD94007","num_area":"31.954100000000000000000000000000","ind_status":"AT"},"geometry":{"type":"Polygon","coordinates":[[[-44.2249,-22.4913],[-44.2302,-22.4939],[-44.2248,-22.4908],[-44.2249,-22.4913]],[[-44.2254,-22.494],[-44.2287,-22.4951],[-44.2255,-22.4938],[-44.2254,-22.494]],[[-44.2304,-22.4913],[-44.226,-22.489],[-44.2303,-22.4913],[-44.2304,-22.4913]],[[-44.2319,-22.49],[-44.2269,-22.4886],[-44.2313,-22.4895],[-44.2307,-22.4932],[-44.2319,-22.4902],[-44.2319,-22.49]],[[-44.2327,-22.4917],[-44.2314,-22.4939],[-44.2327,-22.4917],[-44.2327,-22.4917]],[[-44.2364,-22.4942],[-44.2338,-22.4941],[-44.2362,-22.4943],[-44.2364,-22.4942]],[[-44.2343,-22.4937],[-44.2332,-22.4903],[-44.2317,-22.4925],[-44.234,-22.4936],[-44.2343,-22.4937]]]}},{"type":"Feature","properties":{"cod_tema":"AREA_USO_RESTRITO_DECLIVIDADE_25_A_45","cod_imovel":"RJ-3300407-5504FD28D85C4F86A849B3715203573F","num_area":"3.1605000000000000000000000000000","ind_status":"AT"},"geometry":{"type":"Polygon","coordinates":[[[-44.1559,-22.6217],[-44.1603,-22.6201],[-44.1558,-22.6213],[-44.1559,-22.6217]]]}},{"type":"Feature","properties":{"cod_tema":"AREA_USO_RESTRITO_DECLIVIDADE_25_A_45","cod_imovel":"RJ-3300407-7B691B6D24FC431AB9085495FF8CCC3E","num_area":"12.782200000000000000000000000000","ind_status":"AT"},"geometry":{"type":"Polygon","coordinates":[[[-44.1664,-22.5144],[-44.1683,-22.51],[-44.1662,-22.5151],[-44.1664,-22.5144]],[[-44.1681,-22.5099],[-44.1617,-22.514],[-44.1675,-22.5109],[-44.1681,-22.5099]]]}},{"type":"Feature","properties":{"cod_tema":"AREA_USO_RESTRITO_DECLIVIDADE_25_A_45","cod_imovel":"RJ-3300407-8B383416375842E1AEF8058B011D8486","num_area":"7.1549000000000000000000000000000","ind_status":"AT"},"geometry":{"type":"Polygon","coordinates":[[[-44.1054,-22.5623],[-44.1099,-22.5608],[-44.1056,-22.562],[-44.1054,-22.5623]]]}},{"type":"Feature","properties":{"cod_tema":"AREA_USO_RESTRITO_DECLIVIDADE_25_A_45","cod_imovel":"RJ-3300407-5F9B928E128E4F9899E719D155A36E2C","num_area":"3.9726000000000000000000000000000","ind_status":"AT"},"geometry":{"type":"Polygon","coordinates":[[[-44.2897,-22.5764],[-44.2876,-22.576],[-44.2896,-22.5767],[-44.2897,-22.5764]]]}},{"type":"Feature","properties":{"cod_tema":"AREA_USO_RESTRITO_DECLIVIDADE_25_A_45","cod_imovel":"RJ-3300407-CFB3A9DA1C6845D59393EBA5693186B3","num_area":"2.2341000000000000000000000000000","ind_status":"AT"},"geometry":{"type":"Polygon","coordinates":[[[-44.196,-22.5445],[-44.1937,-22.5453],[-44.1961,-22.5447],[-44.196,-22.5445]]]}},{"type":"Feature","properties":{"cod_tema":"AREA_USO_RESTRITO_DECLIVIDADE_25_A_45","cod_imovel":"RJ-3300407-EB85B98584A84CEEA396F8F0AA3B7FB2","num_area":"15.300300000000000000000000000000","ind_status":"AT"},"geometry":{"type":"Polygon","coordinates":[[[-44.1291,-22.3577],[-44.1317,-22.3605],[-44.1331,-22.3581],[-44.1306,-22.3587],[-44.1329,-22.3568],[-44.1294,-22.3542],[-44.1287,-22.3571],[-44.1291,-22.3577]]]}},{"type":"Feature","properties":{"cod_tema":"AREA_USO_RESTRITO_DECLIVIDADE_25_A_45","cod_imovel":"RJ-3300407-B93B0A1112AC482293F46B0EC0127253","num_area":"31.221100000000000000000000000000","ind_status":"AT"},"geometry":{"type":"Polygon","coordinates":[[[-44.2165,-22.5036],[-44.215,-22.5016],[-44.2118,-22.5062],[-44.2161,-22.5036],[-44.2165,-22.5036]],[[-44.2126,-22.4985],[-44.2085,-22.5049],[-44.2129,-22.4989],[-44.2126,-22.4985]],[[-44.2145,-22.501],[-44.2071,-22.5071],[-44.2122,-22.5035],[-44.2091,-22.5085],[-44.2146,-22.5012],[-44.2145,-22.501]]]}}]}