{"type":"FeatureCollection","features":[{"type":"Feature","properties":{"cod_tema":"AREA_USO_RESTRITO_DECLIVIDADE_25_A_45","cod_imovel":"RJ-3300902-ED934E3DB27F43FDB469ACC23F590B96","num_area":"7.3379000000000000000000000000000","ind_status":"PE"},"geometry":{"type":"Polygon","coordinates":[[[-41.8622,-21.4007],[-41.8578,-21.3964],[-41.8602,-21.4028],[-41.8624,-21.4009],[-41.8622,-21.4007]]]}},{"type":"Feature","properties":{"cod_tema":"AREA_USO_RESTRITO_DECLIVIDADE_25_A_45","cod_imovel":"RJ-3300902-5429ED70B66843C9A9C0D0E13DE2E640","num_area":"18.684300000000000000000000000000","ind_status":"AT"},"geometry":{"type":"Polygon","coordinates":[[[-41.8166,-21.3616],[-41.8185,-21.3595],[-41.8138,-21.3618],[-41.816,-21.3619],[-41.8166,-21.3616]],[[-41.814,-21.3575],[-41.8132,-21.3618],[-41.8186,-21.3592],[-41.8138,-21.3578],[-41.814,-21.3575]]]}},{"type":"Feature","properties":{"cod_tema":"AREA_USO_RESTRITO_DECLIVIDADE_25_A_45","cod_imovel":"RJ-3300902-CE4C03CF9C9E46B192834A6E2FC84A43","num_area":"137.12250000000000000000000000000","ind_status":"AT"},"geometry":{"type":"Polygon","coordinates":[[[-41.8729,-21.5042],[-41.8756,-21.5043],[-41.8731,-21.5017],[-41.8728,-21.5041],[-41.8729,-21.5042]],[[-41.8858,-21.5045],[-41.8801,-21.4986],[-41.875,-21.4994],[-41.8737,-21.4952],[-41.8731,-21.4994],[-41.8797,-21.5059],[-41.8853,-21.5058],[-41.8754,-21.5001],[-41.879,-21.5012],[-41.8785,-21.4985],[-41.8805,-21.5029],[-41.8859,-21.5049],[-41.8858,-21.5045]],[[-41.8768,-21.5082],[-41.8747,-21.506],[-41.8765,-21.5078],[-41.8768,-21.5082]],[[-41.8903,-21.4926],[-41.8817,-21.4873],[-41.8826,-21.4915],[-41.8788,-21.4896],[-41.8748,-21.4936],[-41.8792,-21.4975],[-41.8833,-21.4938],[-41.8881,-21.497],[-41.8867,-21.4954],[-41.8896,-21.494],[-41.8903,-21.4926]],[[-41.8835,-21.4926],[-41.8811,-21.4924],[-41.8833,-21.4922],[-41.8835,-21.4926]],[[-41.8886,-21.4949],[-41.8847,-21.494],[-41.888,-21.4947],[-41.8886,-21.4949]],[[-41.8777,-21.5062],[-41.877,-21.503],[-41.8777,-21.5056],[-41.8777,-21.5062]],[[-41.8855,-21.5024],[-41.8833,-21.5009],[-41.8868,-21.5043],[-41.8854,-21.5023],[-41.8855,-21.5024]]]}},{"type":"Feature","properties":{"cod_tema":"AREA_USO_RESTRITO_DECLIVIDADE_25_A_45","cod_imovel":"RJ-3300902-7994CEFBECDD46A7B235A3A60EDDAD6B","num_area":"10.506200000000000000000000000000","ind_status":"AT"},"geometry":{"type":"Polygon","coordinates":[[[-41.922,-21.4311],[-41.913,-21.4281],[-41.9212,-21.4319],[-41.922,-21.4311]]]}},{"type":"Feature","properties":{"cod_tema":"AREA_USO_RESTRITO_DECLIVIDADE_25_A_45","cod_imovel":"RJ-3300902-9932FF6413984386AAC30E9617B400F6","num_area":"2.1246000000000000000000000000000","ind_status":"AT"},"geometry":{"type":"Polygon","coordinates":[[[-41.9237,-21.5403],[-41.9218,-21.539],[-41.9235,-21.5404],[-41.9237,-21.5403]]]}},{"type":"Feature","properties":{"cod_tema":"AREA_USO_RESTRITO_DECLIVIDADE_25_A_45","cod_imovel":"RJ-3300902-5C854CFCC90140E8B7134D5F9F94D550","num_area":"17.761300000000000000000000000000","ind_status":"AT"},"geometry":{"type":"Polygon","coordinates":[[[-41.8043,-21.3653],[-41.8016,-21.3606],[-41.7968,-21.3608],[-41.803,-21.3654],[-41.8043,-21.3653]],[[-41.8015,-21.3611],[-41.7989,-21.3608],[-41.8012,-21.3611],[-41.8015,-21.3611]]]}},{"type":"Feature","properties":{"cod_tema":"AREA_USO_RESTRITO_DECLIVIDADE_25_A_45","cod_imovel":"RJ-3300902-96FBB48FD461444EB74DCE02C83046E1","num_area":"5.7556000000000000000000000000000","ind_status":"PE"},"geometry":{"type":"Polygon","coordinates":[[[-41.8576,-21.4658],[-41.8601,-21.467],[-41.8566,-21.4631],[-41.8576,-21.4658]]]}},{"type":"Feature","properties":{"cod_tema":"AREA_USO_RESTRITO_DECLIVIDADE_25_A_45","cod_imovel":"RJ-3300902-2BA5E45F4AED44439ECDA16227032A02","num_area":"39.848600000000000000000000000000","ind_status":"PE"},"geometry":{"type":"Polygon","coordinates":[[[-41.8183,-21.3509],[-41.8128,-21.3524],[-41.8146,-21.3548],[-41.8184,-21.3509],[-41.8183,-21.3509]],[[-41.8127,-21.359],[-41.8104,-21.3523],[-41.8081,-21.3586],[-41.8125,-21.359],[-41.8127,-21.359]]]}},{"type":"Feature","properties":{"cod_tema":"AREA_USO_RESTRITO_DECLIVIDADE_25_A_45","cod_imovel":"RJ-3300902-D8F0D97ED67C4E97A65C12B559B9F9AA","num_area":"292.19560000000000000000000000000","ind_status":"PE"},"geometry":{"type":"Polygon","coordinates":[[[-41.8402,-21.4251],[-41.837,-21.4222],[-41.8393,-21.4251],[-41.8402,-21.4251]],[[-41.8333,-21.4281],[-41.827,-21.4373],[-41.8418,-21.4524],[-41.845,-21.4488],[-41.8413,-21.4464],[-41.8454,-21.448],[-41.8488,-21.4355],[-41.8344,-21.4288],[-41.8333,-21.4281]],[[-41.8294,-21.4326],[-41.8394,-21.4338],[-41.8414,-21.4383],[-41.8376,-21.4426],[-41.8306,-21.4337],[-41.8294,-21.4326]]]}},{"type":"Feature","properties":{"cod_tema":"AREA_USO_RESTRITO_DECLIVIDADE_25_A_45","cod_imovel":"RJ-3300902-A3AF871BA4084F34AF16B1539D88A44B","num_area":"23.352900000000000000000000000000","ind_status":"PE"},"geometry":{"type":"Polygon","coordinates":[[[-42.0017,-21.5719],[-42.0048,-21.5779],[-42.0055,-21.5717],[-42.0018,-21.572],[-42.0017,-21.5719]]]}},{"type":"Feature","properties":{"cod_tema":"AREA_USO_RESTRITO_DECLIVIDADE_25_A_45","cod_imovel":"RJ-3300902-7F5ED28880C146CFA1E4913B78E7532E","num_area":"57.169600000000000000000000000000","ind_status":"AT"},"geometry":{"type":"Polygon","coordinates":[[[-41.8537,-21.4595],[-41.841,-21.4478],[-41.8371,-21.4476],[-41.8453,-21.4582],[-41.8528,-21.4615],[-41.8537,-21.4595]]]}},{"type":"Feature","properties":{"cod_tema":"AREA_USO_RESTRITO_DECLIVIDADE_25_A_45","cod_imovel":"RJ-3300902-0AECD78833C5413F97BB7F4B3CC6FEEE","num_area":"72.974400000000000000000000000000","ind_status":"AT"},"geometry":{"type":"Polygon","coordinates":[[[-41.9044,-21.4832],[-41.9021,-21.4813],[-41.899,-21.4888],[-41.904,-21.4941],[-41.9081,-21.4875],[-41.9046,-21.4872],[-41.9044,-21.4833],[-41.9044,-21.4832]]]}},{"type":"Feature","properties":{"cod_tema":"AREA_USO_RESTRITO_DECLIVIDADE_25_A_45","cod_imovel":"RJ-3300902-CDCF2992C052464DA2E8C39148EFEA11","num_area":"19.336000000000000000000000000000","ind_status":"PE"},"geometry":{"type":"Polygon","coordinates":[[[-42.0198,-21.5092],[-42.0187,-21.507],[-42.016,-21.5089],[-42.0158,-21.5132],[-42.0204,-21.5111],[-42.0198,-21.5092]]]}},{"type":"Feature","properties":{"cod_tema":"AREA_USO_RESTRITO_DECLIVIDADE_25_A_45","cod_imovel":"RJ-3300902-71935A11DEE14970AA4FBB39A5AB476D","num_area":"10.000800000000000000000000000000","ind_status":"PE"},"geometry":{"type":"Polygon","coordinates":[[[-41.7826,-21.4484],[-41.7804,-21.45],[-41.7836,-21.4491],[-41.7826,-21.4484]],[[-41.7783,-21.4473],[-41.7853,-21.4423],[-41.7789,-21.4472],[-41.7783,-21.4473]]]}},{"type":"Feature","properties":{"cod_tema":"AREA_USO_RESTRITO_DECLIVIDADE_25_A_45","cod_imovel":"RJ-3300902-994F2F68EB744C8682F0FAB4A360F685","num_area":"14.505800000000000000000000000000","ind_status":"AT"},"geometry":{"type":"Polygon","coordinates":[[[-41.8682,-21.5],[-41.8674,-21.5054],[-41.8714,-21.5029],[-41.8684,-21.5001],[-41.8682,-21.5]]]}},{"type":"Feature","properties":{"cod_tema":"AREA_USO_RESTRITO_DECLIVIDADE_25_A_45","cod_imovel":"RJ-3300902-DBE188BA29A74B0FA2B58A5169273EBF","num_area":"6.5628000000000000000000000000000","ind_status":"AT"},"geometry":{"type":"Polygon","coordinates":[[[-41.8594,-21.4989],[-41.8585,-21.4969],[-41.8594,-21.499],[-41.8594,-21.4989]]]}},{"type":"Feature","properties":{"cod_tema":"AREA_USO_RESTRITO_DECLIVIDADE_25_A_45","cod_imovel":"RJ-3300902-5BC8B4DEBEE545E4A991F192EF4A395C","num_area":"3.3051000000000000000000000000000","ind_status":"AT"},"geometry":{"type":"Polygon","coordinates":[[[-41.9549,-21.515],[-41.9539,-21.5176],[-41.9558,-21.5156],[-41.9549,-21.515]]]}},{"type":"Feature","properties":{"cod_tema":"AREA_USO_RESTRITO_DECLIVIDADE_25_A_45","cod_imovel":"RJ-3300902-E551E2972B604BD59A9E2C31EE370450","num_area":"14.446400000000000000000000000000","ind_status":"AT"},"geometry":{"type":"Polygon","coordinates":[[[-41.8532,-21.504],[-41.8555,-21.5054],[-41.8544,-21.5021],[-41.8578,-21.5002],[-41.8532,-21.5017],[-41.8532,-21.504]],[[-41.8627,-21.5036],[-41.8596,-21.503],[-41.8627,-21.5036],[-41.8627,-21.5036]]]}},{"type":"Feature","properties":{"cod_tema":"AREA_USO_RESTRITO_DECLIVIDADE_25_A_45","cod_imovel":"RJ-3300902-B7754A6C6BEF4852888093B4ABD46647","num_area":"4.5643000000000000000000000000000","ind_status":"AT"},"geometry":{"type":"Polygon","coordinates":[[[-41.8755,-21.5098],[-41.8723,-21.5087],[-41.8748,-21.5099],[-41.8755,-21.5098]]]}},{"type":"Feature","properties":{"cod_tema":"AREA_USO_RESTRITO_DECLIVIDADE_25_A_45","cod_imovel":"RJ-3300902-7878B8C4A8BD494BA571C27BBFA91CD3","num_area":"18.961500000000000000000000000000","ind_status":"PE"},"geometry":{"type":"Polygon","coordinates":[[[-41.8911,-21.3932],[-41.8972,-21.3926],[-41.8958,-21.3892],[-41.8913,-21.3905],[-41.8911,-21.3932]]]}},{"type":"Feature","properties":{"cod_tema":"AREA_USO_RESTRITO_DECLIVIDADE_25_A_45","cod_imovel":"RJ-3300902-33CAB71CAFC04E71B9953D5CD96891CC","num_area":"104.34200000000000000000000000000","ind_status":"PE"},"geometry":{"type":"Polygon","coordinates":[[[-41.7906,-21.4308],[-41.7919,-21.4293],[-41.7905,-21.4307],[-41.7906,-21.4308]],[[-41.8189,-21.4333],[-41.8161,-21.4326],[-41.8199,-21.4336],[-41.8189,-21.4333]],[[-41.7814,-21.4293],[-41.7831,-21.4279],[-41.7814,-21.4291],[-41.7814,-21.4293]],[[-41.7971,-21.4382],[-41.7979,-21.4361],[-41.797,-21.4381],[-41.7971,-21.4382]],[[-41.7991,-21.4402],[-41.7998,-21.4379],[-41.799,-21.4398],[-41.7991,-21.4402]],[[-41.814,-21.4354],[-41.8164,-21.4334],[-41.8146,-21.4344],[-41.814,-21.4354]],[[-41.8039,-21.4279],[-41.8037,-21.4254],[-41.8018,-21.4269],[-41.8039,-21.4279],[-41.8039,-21.4279]],[[-41.8182,-21.4359],[-41.8221,-21.4363],[-41.8183,-21.4359],[-41.8182,-21.4359]],[[-41.8037,-21.4291],[-41.802,-21.4273],[-41.802,-21.4308],[-41.8033,-21.429],[-41.8037,-21.4291]],[[-41.8059,-21.4264],[-41.7998,-21.4343],[-41.8061,-21.4267],[-41.8059,-21.4264]],[[-41.7909,-21.4219],[-41.7861,-21.4202],[-41.7896,-21.4237],[-41.7911,-21.422],[-41.7909,-21.4219]],[[-41.8043,-21.4357],[-41.8068,-21.4344],[-41.8032,-21.4317],[-41.8042,-21.4353],[-41.8043,-21.4357]],[[-41.799,-21.4276],[-41.8031,-21.4256],[-41.7989,-21.4244],[-41.7989,-21.4273],[-41.799,-21.4276]],[[-41.7978,-21.424],[-41.7938,-21.4257],[-41.7966,-21.4296],[-41.7951,-21.4254],[-41.7976,-21.4248],[-41.7978,-21.424]],[[-41.8064,-21.426],[-41.8072,-21.4298],[-41.8094,-21.428],[-41.8058,-21.4328],[-41.8103,-21.4315],[-41.8079,-21.4352],[-41.8118,-21.4346],[-41.8122,-21.4299],[-41.8067,-21.4262],[-41.8064,-21.426]]]}},{"type":"Feature","properties":{"cod_tema":"AREA_USO_RESTRITO_DECLIVIDADE_25_A_45","cod_imovel":"RJ-3300902-D0E5610B629F4CEDBC5286BEFCB788B3","num_area":"21.395500000000000000000000000000","ind_status":"AT"},"geometry":{"type":"Polygon","coordinates":[[[-41.9207,-21.4551],[-41.9182,-21.4529],[-41.9205,-21.4549],[-41.9207,-21.4551]],[[-41.916,-21.4501],[-41.9188,-21.4491],[-41.916,-21.4497],[-41.916,-21.4501]],[[-41.923,-21.453],[-41.9206,-21.4516],[-41.9229,-21.4531],[-41.923,-21.453]],[[-41.9211,-21.4484],[-41.9194,-21.4453],[-41.9211,-21.4477],[-41.9211,-21.4484]]]}},{"type":"Feature","properties":{"cod_tema":"AREA_USO_RESTRITO_DECLIVIDADE_25_A_45","cod_imovel":"RJ-3300902-211093398BAD45B7B8E8245FAF35D0D0","num_area":"11.759500000000000000000000000000","ind_status":"AT"},"geometry":{"type":"Polygon","coordinates":[[[-41.9406,-21.4663],[-41.9431,-21.4678],[-41.9457,-21.4648],[-41.9413,-21.4656],[-41.9406,-21.4663]]]}},{"type":"Feature","properties":{"cod_tema":"AREA_USO_RESTRITO_DECLIVIDADE_25_A_45","cod_imovel":"RJ-3300902-938126BA3F2E47DA88379D224BF8A779","num_area":"81.632400000000000000000000000000","ind_status":"AT"},"geometry":{"type":"Polygon","coordinates":[[[-41.8158,-21.3544],[-41.82,-21.3534],[-41.8158,-21.3544],[-41.8158,-21.3544]],[[-41.8184,-21.3574],[-41.8209,-21.3585],[-41.8227,-21.3555],[-41.818,-21.3573],[-41.8184,-21.3574]],[[-41.8172,-21.3558],[-41.8212,-21.3545],[-41.8174,-21.3555],[-41.8172,-21.3558]],[[-41.8201,-21.3528],[-41.8202,-21.3485],[-41.82,-21.3527],[-41.8201,-21.3528]],[[-41.8259,-21.347],[-41.824,-21.3441],[-41.8193,-21.3473],[-41.8257,-21.347],[-41.8259,-21.347]],[[-41.8212,-21.3522],[-41.8209,-21.3493],[-41.8212,-21.3517],[-41.8212,-21.3522]],[[-41.8228,-21.3503],[-41.8245,-21.3491],[-41.8226,-21.3497],[-41.8228,-21.3503]],[[-41.8376,-21.3398],[-41.8295,-21.3381],[-41.8243,-21.3437],[-41.8373,-21.3401],[-41.8376,-21.3398]],[[-41.8308,-21.3478],[-41.8278,-21.347],[-41.83,-21.3488],[-41.8308,-21.3478]],[[-41.8347,-21.343],[-41.8322,-21.3416],[-41.8315,-21.3461],[-41.8336,-21.3443],[-41.8347,-21.343]]]}},{"type":"Feature","properties":{"cod_tema":"AREA_USO_RESTRITO_DECLIVIDADE_25_A_45","cod_imovel":"RJ-3300902-B42D849A053A48EABD7E468F9655EED0","num_area":"138.41080000000000000000000000000","ind_status":"AT"},"geometry":{"type":"Polygon","coordinates":[[[-41.7746,-21.4072],[-41.7768,-21.4106],[-41.7749,-21.4071],[-41.7746,-21.4072]],[[-41.777,-21.3992],[-41.7746,-21.3986],[-41.7777,-21.3996],[-41.777,-21.3992]],[[-41.7835,-21.41],[-41.7797,-21.4111],[-41.7833,-21.4103],[-41.7835,-21.41]],[[-41.7816,-21.4087],[-41.7785,-21.4091],[-41.7811,-21.4093],[-41.7816,-21.4087]],[[-41.7723,-21.4003],[-41.7753,-21.4029],[-41.7722,-21.4001],[-41.7723,-21.4003]],[[-41.7801,-21.4034],[-41.7761,-21.4025],[-41.7751,-21.407],[-41.7784,-21.4086],[-41.7801,-21.4039],[-41.7801,-21.4034]],[[-41.7869,-21.4104],[-41.7839,-21.4053],[-41.784,-21.4098],[-41.7868,-21.4106],[-41.7869,-21.4104]],[[-41.7757,-21.4156],[-41.7751,-21.4183],[-41.7782,-21.417],[-41.7762,-21.4158],[-41.7757,-21.4156]],[[-41.7856,-21.4168],[-41.7849,-21.4104],[-41.782,-21.4138],[-41.7853,-21.417],[-41.7856,-21.4168]],[[-41.7769,-21.4126],[-41.7777,-21.416],[-41.7795,-21.4111],[-41.7769,-21.4126]],[[-41.7788,-21.4172],[-41.7818,-21.4205],[-41.785,-21.4173],[-41.7815,-21.4171],[-41.7812,-21.4137],[-41.7786,-21.417],[-41.7788,-21.4172]]]}},{"type":"Feature","properties":{"cod_tema":"AREA_USO_RESTRITO_DECLIVIDADE_25_A_45","cod_imovel":"RJ-3300902-6781F5AFCA6F451F9558286523F00B74","num_area":"25.394400000000000000000000000000","ind_status":"PE"},"geometry":{"type":"Polygon","coordinates":[[[-41.8632,-21.4771],[-41.8652,-21.4763],[-41.8633,-21.4772],[-41.8632,-21.4771]],[[-41.8614,-21.4773],[-41.8628,-21.4733],[-41.8658,-21.4768],[-41.8675,-21.4727],[-41.8638,-21.4699],[-41.8611,-21.4771],[-41.8614,-21.4773]]]}},{"type":"Feature","properties":{"cod_tema":"AREA_USO_RESTRITO_DECLIVIDADE_25_A_45","cod_imovel":"RJ-3300902-111AB59C8D424E75A69E5AC32E4F2BDF","num_area":"9.7944000000000000000000000000000","ind_status":"AT"},"geometry":{"type":"Polygon","coordinates":[[[-41.8527,-21.4238],[-41.8505,-21.4227],[-41.8529,-21.4241],[-41.8527,-21.4238]],[[-41.8501,-21.4233],[-41.8504,-21.4265],[-41.8505,-21.4236],[-41.8501,-21.4233]],[[-41.8533,-21.4274],[-41.8516,-21.4248],[-41.8533,-21.4275],[-41.8533,-21.4274]]]}},{"type":"Feature","properties":{"cod_tema":"AREA_USO_RESTRITO_DECLIVIDADE_25_A_45","cod_imovel":"RJ-3300902-97D19E8EEBDA4DA08554EE64F2C0AE51","num_area":"6.0059000000000000000000000000000","ind_status":"AT"},"geometry":{"type":"Polygon","coordinates":[[[-41.8448,-21.4266],[-41.8459,-21.4241],[-41.8447,-21.4265],[-41.8448,-21.4266]]]}},{"type":"Feature","properties":{"cod_tema":"AREA_USO_RESTRITO_DECLIVIDADE_25_A_45","cod_imovel":"RJ-3300902-E82EE290B300467891C03F32BB6BA0A6","num_area":"6.0852000000000000000000000000000","ind_status":"AT"},"geometry":{"type":"Polygon","coordinates":[[[-41.8526,-21.3644],[-41.8555,-21.3666],[-41.8528,-21.3644],[-41.8526,-21.3644]]]}},{"type":"Feature","properties":{"cod_tema":"AREA_USO_RESTRITO_DECLIVIDADE_25_A_45","cod_imovel":"RJ-3300902-18512B2C5B3744C2956E40262D2476AD","num_area":"23.549100000000000000000000000000","ind_status":"AT"},"geometry":{"type":"Polygon","coordinates":[[[-42.0192,-21.54],[-42.0237,-21.545],[-42.0242,-21.5398],[-42.0196,-21.5401],[-42.0192,-21.54]]]}},{"type":"Feature","properties":{"cod_tema":"AREA_USO_RESTRITO_DECLIVIDADE_25_A_45","cod_imovel":"RJ-3300902-80ED2473A0A74F1B98788CBC20AED174","num_area":"168.00060000000000000000000000000","ind_status":"AT"},"geometry":{"type":"Polygon","coordinates":[[[-41.9773,-21.4855],[-41.9822,-21.4798],[-41.9698,-21.4699],[-41.9657,-21.4727],[-41.9632,-21.4771],[-41.977,-21.4858],[-41.9773,-21.4855]]]}},{"type":"Feature","properties":{"cod_tema":"AREA_USO_RESTRITO_DECLIVIDADE_25_A_45","cod_imovel":"RJ-3300902-E963730937D6487BBDDBBA14184B985C","num_area":"2.3541000000000000000000000000000","ind_status":"AT"},"geometry":{"type":"Polygon","coordinates":[[[-41.8532,-21.353],[-41.8549,-21.3508],[-41.8533,-21.3527],[-41.8532,-21.353]]]}},{"type":"Feature","properties":{"cod_tema":"AREA_USO_RESTRITO_DECLIVIDADE_25_A_45","cod_imovel":"RJ-3300902-AC406096D9274AB099448F234C72F42C","num_area":"9.5170000000000000000000000000000","ind_status":"AT"},"geometry":{"type":"Polygon","coordinates":[[[-41.8704,-21.3813],[-41.8707,-21.3849],[-41.8746,-21.384],[-41.8708,-21.3811],[-41.8704,-21.3813]]]}},{"type":"Feature","properties":{"cod_tema":"AREA_USO_RESTRITO_DECLIVIDADE_25_A_45","cod_imovel":"RJ-3300902-EE07472911924F9D8A416D0F7E594DE2","num_area":"6.7136000000000000000000000000000","ind_status":"AT"},"geometry":{"type":"Polygon","coordinates":[[[-41.8531,-21.4189],[-41.8536,-21.416],[-41.8526,-21.4188],[-41.8531,-21.4189]],[[-41.8539,-21.4154],[-41.8565,-21.4115],[-41.854,-21.4152],[-41.8539,-21.4154]]]}},{"type":"Feature","properties":{"cod_tema":"AREA_USO_RESTRITO_DECLIVIDADE_25_A_45","cod_imovel":"RJ-3300902-DEF8F1B984B6402295287C6AE1363270","num_area":"5.5705000000000000000000000000000","ind_status":"AT"},"geometry":{"type":"Polygon","coordinates":[[[-41.9304,-21.5012],[-41.9333,-21.5039],[-41.9324,-21.501],[-41.9304,-21.5012]]]}},{"type":"Feature","properties":{"cod_tema":"AREA_USO_RESTRITO_DECLIVIDADE_25_A_45","cod_imovel":"RJ-3300902-3FC23735653F4601B04D81B9969E7982","num_area":"4.4946000000000000000000000000000","ind_status":"AT"},"geometry":{"type":"Polygon","coordinates":[[[-41.8194,-21.3983],[-41.8216,-21.3993],[-41.8197,-21.3985],[-41.8194,-21.3983]]]}},{"type":"Feature","properties":{"cod_tema":"AREA_USO_RESTRITO_DECLIVIDADE_25_A_45","cod_imovel":"RJ-3300902-A6A8A83D48D04F7A89541F79B98BD2B9","num_area":"26.712700000000000000000000000000","ind_status":"AT"},"geometry":{"type":"Polygon","coordinates":[[[-41.9299,-21.5181],[-41.9309,-21.5208],[-41.9311,-21.5173],[-41.9351,-21.52],[-41.937,-21.5164],[-41.9282,-21.5157],[-41.93,-21.5178],[-41.9299,-21.5181]]]}},{"type":"Feature","properties":{"cod_tema":"AREA_USO_RESTRITO_DECLIVIDADE_25_A_45","cod_imovel":"RJ-3300902-DC7CBBCCE543444FB6F36B6829142D24","num_area":"1.0544000000000000000000000000000","ind_status":"AT"},"geometry":{"type":"Polygon","coordinates":[[[-41.8458,-21.3668],[-41.8433,-21.3664],[-41.8454,-21.3668],[-41.8458,-21.3668]]]}},{"type":"Feature","properties":{"cod_tema":"AREA_USO_RESTRITO_DECLIVIDADE_25_A_45","cod_imovel":"RJ-3300902-51C55A3C120A4F4DB5D72926B9E3D1C7","num_area":"65.522200000000000000000000000000","ind_status":"AT"},"geometry":{"type":"Polygon","coordinates":[[[-41.8573,-21.4444],[-41.8548,-21.4428],[-41.8551,-21.4507],[-41.8509,-21.4483],[-41.8512,-21.4437],[-41.847,-21.4457],[-41.8557,-21.4534],[-41.8551,-21.4438],[-41.8573,-21.4444],[-41.8573,-21.4444]],[[-41.855,-21.4411],[-41.8503,-21.4429],[-41.855,-21.4411],[-41.855,-21.4411]]]}},{"type":"Feature","properties":{"cod_tema":"AREA_USO_RESTRITO_DECLIVIDADE_25_A_45","cod_imovel":"RJ-3300902-D87F6B8606DE46B0825FE26CC08C72B8","num_area":"1.9229000000000000000000000000000","ind_status":"AT"},"geometry":{"type":"Polygon","coordinates":[[[-41.8512,-21.3672],[-41.8527,-21.3692],[-41.851,-21.367],[-41.8512,-21.3672]]]}},{"type":"Feature","properties":{"cod_tema":"AREA_USO_RESTRITO_DECLIVIDADE_25_A_45","cod_imovel":"RJ-3300902-67DF4952830D4B27B9A4F4A2F45107FF","num_area":"19.856100000000000000000000000000","ind_status":"AT"},"geometry":{"type":"Polygon","coordinates":[[[-42.0484,-21.5611],[-42.0477,-21.5631],[-42.0487,-21.5612],[-42.0484,-21.5611]],[[-42.047,-21.5626],[-42.0474,-21.5649],[-42.0503,-21.5637],[-42.0471,-21.5629],[-42.047,-21.5626]],[[-42.059,-21.5514],[-42.0551,-21.5481],[-42.0551,-21.551],[-42.059,-21.5514],[-42.059,-21.5514]]]}},{"type":"Feature","properties":{"cod_tema":"AREA_USO_RESTRITO_DECLIVIDADE_25_A_45","cod_imovel":"RJ-3300902-F1F6EB10CA714069A36F0A305B794D8D","num_area":"64.956600000000000000000000000000","ind_status":"AT"},"geometry":{"type":"Polygon","coordinates":[[[-41.9456,-21.5856],[-41.9429,-21.5886],[-41.9453,-21.588],[-41.9456,-21.5856]],[[-41.9398,-21.5885],[-41.9357,-21.5891],[-41.9395,-21.5888],[-41.9398,-21.5885]],[[-41.9395,-21.5804],[-41.9379,-21.5847],[-41.9453,-21.5844],[-41.9395,-21.5823],[-41.9395,-21.5804]],[[-41.9375,-21.5797],[-41.9315,-21.5777],[-41.9302,-21.5806],[-41.937,-21.5798],[-41.9375,-21.5797]],[[-41.932,-21.5777],[-41.9395,-21.5804],[-41.9346,-21.5775],[-41.9402,-21.5781],[-41.9387,-21.5753],[-41.9325,-21.5777],[-41.932,-21.5777]]]}},{"type":"Feature","properties":{"cod_tema":"AREA_USO_RESTRITO_DECLIVIDADE_25_A_45","cod_imovel":"RJ-3300902-56A64E19436B4417AF87DDA6643C1F15","num_area":"2.3076000000000000000000000000000","ind_status":"AT"},"geometry":{"type":"Polygon","coordinates":[[[-41.9094,-21.4175],[-41.9096,-21.4155],[-41.9094,-21.4176],[-41.9094,-21.4175]]]}},{"type":"Feature","properties":{"cod_tema":"AREA_USO_RESTRITO_DECLIVIDADE_25_A_45","cod_imovel":"RJ-3300902-6412FF9550994598BB59558F1784DAE5","num_area":"30.922600000000000000000000000000","ind_status":"AT"},"geometry":{"type":"Polygon","coordinates":[[[-41.8561,-21.3592],[-41.8601,-21.3578],[-41.8609,-21.3612],[-41.8643,-21.3584],[-41.858,-21.3551],[-41.8559,-21.359],[-41.8561,-21.3592]]]}},{"type":"Feature","properties":{"cod_tema":"AREA_USO_RESTRITO_DECLIVIDADE_25_A_45","cod_imovel":"RJ-3300902-6B8D0C6CEB094A3BAB33AF823F65AE9D","num_area":"8.0325000000000000000000000000000","ind_status":"AT"},"geometry":{"type":"Polygon","coordinates":[[[-41.813,-21.4753],[-41.8104,-21.473],[-41.807,-21.4755],[-41.8125,-21.4753],[-41.813,-21.4753]]]}},{"type":"Feature","properties":{"cod_tema":"AREA_USO_RESTRITO_DECLIVIDADE_25_A_45","cod_imovel":"RJ-3300902-E83DEBEE1A0744A597D5DD38DA782CC1","num_area":"2.4957000000000000000000000000000","ind_status":"AT"},"geometry":{"type":"Polygon","coordinates":[[[-41.8721,-21.367],[-41.8736,-21.3685],[-41.8721,-21.367],[-41.8721,-21.367]]]}},{"type":"Feature","properties":{"cod_tema":"AREA_USO_RESTRITO_DECLIVIDADE_25_A_45","cod_imovel":"RJ-3300902-0082B4D15377491AA657DB7D1645AAE0","num_area":"9.0514000000000000000000000000000","ind_status":"AT"},"geometry":{"type":"Polygon","coordinates":[[[-41.8535,-21.4313],[-41.8533,-21.4283],[-41.8532,-21.4311],[-41.8535,-21.4313]],[[-41.8558,-21.4283],[-41.8533,-21.4279],[-41.8556,-21.4281],[-41.8558,-21.4283]]]}},{"type":"Feature","properties":{"cod_tema":"AREA_USO_RESTRITO_DECLIVIDADE_25_A_45","cod_imovel":"RJ-3300902-C87DD6E97C5F4C358B7AAC5E02A746F1","num_area":"168.19060000000000000000000000000","ind_status":"AT"},"geometry":{"type":"Polygon","coordinates":[[[-41.9598,-21.4879],[-41.9554,-21.4913],[-41.9574,-21.4932],[-41.9564,-21.4906],[-41.9598,-21.4878],[-41.9598,-21.4879]],[[-41.9603,-21.4952],[-41.9646,-21.4897],[-41.9591,-21.4926],[-41.9603,-21.4951],[-41.9603,-21.4952]],[[-41.9605,-21.4949],[-41.9614,-21.4929],[-41.9609,-21.4948],[-41.9605,-21.4949]],[[-41.9611,-21.4921],[-41.9637,-21.4889],[-41.9614,-21.4915],[-41.9611,-21.4921]],[[-41.9683,-21.4921],[-41.9651,-21.4924],[-41.9668,-21.49],[-41.9615,-21.496],[-41.9652,-21.4979],[-41.9683,-21.4925],[-41.9683,-21.4921]],[[-41.9636,-21.4935],[-41.9619,-21.4962],[-41.9642,-21.493],[-41.9636,-21.4935]],[[-41.9655,-21.4924],[-41.9627,-21.4949],[-41.9651,-21.4926],[-41.9655,-21.4924]],[[-41.9658,-21.4943],[-41.9634,-21.4961],[-41.9655,-21.4941],[-41.9658,-21.4943]],[[-41.9656,-21.4754],[-41.9629,-21.478],[-41.9656,-21.4754],[-41.9656,-21.4754]],[[-41.982,-21.4801],[-41.9694,-21.47],[-41.9647,-21.4744],[-41.9684,-21.4759],[-41.9669,-21.4779],[-41.9703,-21.4774],[-41.9659,-21.4817],[-41.97,-21.4812],[-41.9682,-21.4835],[-41.9703,-21.4853],[-41.9729,-21.4811],[-41.9774,-21.4808],[-41.9771,-21.4837],[-41.982,-21.4801],[-41.982,-21.4801]],[[-41.9687,-21.473],[-41.9662,-21.4736],[-41.9685,-21.4729],[-41.9687,-21.473]],[[-41.9734,-21.4743],[-41.9695,-21.4723],[-41.9733,-21.4736],[-41.9734,-21.4743]],[[-41.9774,-21.4793],[-41.9752,-21.4811],[-41.9721,-21.478],[-41.9769,-21.4784],[-41.9774,-21.4793]],[[-41.9724,-21.4723],[-41.9698,-21.4699],[-41.9724,-21.4723],[-41.9724,-21.4723]],[[-41.9734,-21.4838],[-41.9713,-21.4864],[-41.9762,-21.4856],[-41.9736,-21.484],[-41.9734,-21.4838]]]}},{"type":"Feature","properties":{"cod_tema":"AREA_USO_RESTRITO_DECLIVIDADE_25_A_45","cod_imovel":"RJ-3300902-A92C6A929744435FB5BB63C31BD55500","num_area":"12.395900000000000000000000000000","ind_status":"AT"},"geometry":{"type":"Polygon","coordinates":[[[-41.8784,-21.4838],[-41.8737,-21.489],[-41.8796,-21.4851],[-41.8784,-21.4838]]]}},{"type":"Feature","properties":{"cod_tema":"AREA_USO_RESTRITO_DECLIVIDADE_25_A_45","cod_imovel":"RJ-3300902-1CA03F1DD3E14BD487557AD4B6D32346","num_area":"7.1959000000000000000000000000000","ind_status":"AT"},"geometry":{"type":"Polygon","coordinates":[[[-41.9098,-21.4169],[-41.9119,-21.4165],[-41.9082,-21.4139],[-41.9098,-21.4169],[-41.9098,-21.4169]]]}},{"type":"Feature","properties":{"cod_tema":"AREA_USO_RESTRITO_DECLIVIDADE_25_A_45","cod_imovel":"RJ-3300902-D23B47E0FFE94BFBB2AA1F42C9FA46FA","num_area":"9.2825000000000000000000000000000","ind_status":"AT"},"geometry":{"type":"Polygon","coordinates":[[[-41.8699,-21.368],[-41.871,-21.3663],[-41.8669,-21.3666],[-41.8685,-21.369],[-41.8699,-21.368]]]}},{"type":"Feature","properties":{"cod_tema":"AREA_USO_RESTRITO_DECLIVIDADE_25_A_45","cod_imovel":"RJ-3300902-0A729653703C4928869D0EBCEA543FBC","num_area":"178.57180000000000000000000000000","ind_status":"PE"},"geometry":{"type":"Polygon","coordinates":[[[-41.8755,-21.4754],[-41.8752,-21.4782],[-41.876,-21.4761],[-41.8755,-21.4754]],[[-41.8854,-21.4845],[-41.887,-21.481],[-41.8842,-21.4839],[-41.883,-21.4818],[-41.8852,-21.4784],[-41.8828,-21.4815],[-41.8797,-21.4785],[-41.8842,-21.4787],[-41.8801,-21.4772],[-41.881,-21.4748],[-41.876,-21.4748],[-41.8794,-21.4775],[-41.8786,-21.4805],[-41.8854,-21.4845],[-41.8854,-21.4845]],[[-41.8761,-21.4792],[-41.8763,-21.4763],[-41.8757,-21.4785],[-41.8761,-21.4792]],[[-41.8761,-21.4808],[-41.8875,-21.4904],[-41.8762,-21.4808],[-41.8761,-21.4808]],[[-41.8845,-21.4764],[-41.8869,-21.4754],[-41.8845,-21.4762],[-41.8845,-21.4764]],[[-41.9004,-21.4869],[-41.8984,-21.4818],[-41.8932,-21.4806],[-41.8896,-21.4755],[-41.8997,-21.486],[-41.8914,-21.4807],[-41.8896,-21.4822],[-41.8906,-21.4793],[-41.8888,-21.4856],[-41.8887,-21.4824],[-41.886,-21.4846],[-41.888,-21.4892],[-41.8934,-21.4907],[-41.8947,-21.4952],[-41.8959,-21.4909],[-41.8924,-21.4859],[-41.8907,-21.4885],[-41.8899,-21.483],[-41.8979,-21.4876],[-41.8947,-21.4857],[-41.8967,-21.4909],[-41.9004,-21.4869],[-41.9004,-21.4869]],[[-41.8901,-21.4858],[-41.8888,-21.4836],[-41.8899,-21.4855],[-41.8901,-21.4858]],[[-41.8883,-21.4911],[-41.8911,-21.4904],[-41.8882,-21.491],[-41.8883,-21.4911]],[[-41.8902,-21.479],[-41.8892,-21.4766],[-41.8901,-21.4789],[-41.8902,-21.479]],[[-41.8916,-21.4756],[-41.8933,-21.4773],[-41.8918,-21.4759],[-41.8916,-21.4756]],[[-41.8991,-21.4795],[-41.8972,-21.4745],[-41.8974,-21.4804],[-41.8937,-21.476],[-41.899,-21.4806],[-41.8991,-21.4795]],[[-41.9022,-21.4812],[-41.8989,-21.4814],[-41.9005,-21.4853],[-41.9022,-21.4812],[-41.9022,-21.4812]]]}},{"type":"Feature","properties":{"cod_tema":"AREA_USO_RESTRITO_DECLIVIDADE_25_A_45","cod_imovel":"RJ-3300902-24C1055F731B4A61BE62C072737428FE","num_area":"22.516500000000000000000000000000","ind_status":"AT"},"geometry":{"type":"Polygon","coordinates":[[[-41.8214,-21.4259],[-41.817,-21.425],[-41.8206,-21.4324],[-41.8216,-21.4265],[-41.8214,-21.4259]]]}},{"type":"Feature","properties":{"cod_tema":"AREA_USO_RESTRITO_DECLIVIDADE_25_A_45","cod_imovel":"RJ-3300902-2A5F244C70AA473A8C1AB5770AA5B257","num_area":"3.9510000000000000000000000000000","ind_status":"AT"},"geometry":{"type":"Polygon","coordinates":[[[-41.8721,-21.5453],[-41.8742,-21.5465],[-41.8721,-21.5453],[-41.8721,-21.5453]],[[-41.8742,-21.552],[-41.8727,-21.5505],[-41.8742,-21.552],[-41.8742,-21.552]]]}},{"type":"Feature","properties":{"cod_tema":"AREA_USO_RESTRITO_DECLIVIDADE_25_A_45","cod_imovel":"RJ-3300902-2EC25942B8524F9D90B6B1A64C50EFAC","num_area":"21.138300000000000000000000000000","ind_status":"AT"},"geometry":{"type":"Polygon","coordinates":[[[-41.9337,-21.522],[-41.9292,-21.5293],[-41.9325,-21.5282],[-41.9342,-21.5221],[-41.9337,-21.522]]]}},{"type":"Feature","properties":{"cod_tema":"AREA_USO_RESTRITO_DECLIVIDADE_25_A_45","cod_imovel":"RJ-3300902-3304C3D805FC406CB76FB142B6EA2C79","num_area":"19.467400000000000000000000000000","ind_status":"AT"},"geometry":{"type":"Polygon","coordinates":[[[-41.8575,-21.3601],[-41.8557,-21.3588],[-41.8556,-21.3626],[-41.8577,-21.3604],[-41.8575,-21.3601]],[[-41.8635,-21.3637],[-41.8639,-21.3616],[-41.8611,-21.3623],[-41.8601,-21.3652],[-41.8634,-21.3634],[-41.8635,-21.3637]]]}},{"type":"Feature","properties":{"cod_tema":"AREA_USO_RESTRITO_DECLIVIDADE_25_A_45","cod_imovel":"RJ-3300902-34C3D4121BEB4ECD98D04DE1FEE39501","num_area":"19.658600000000000000000000000000","ind_status":"AT"},"geometry":{"type":"Polygon","coordinates":[[[-41.8033,-21.4477],[-41.811,-21.4511],[-41.8043,-21.4464],[-41.8033,-21.4477]]]}},{"type":"Feature","properties":{"cod_tema":"AREA_USO_RESTRITO_DECLIVIDADE_25_A_45","cod_imovel":"RJ-3300902-354161A850BC48F891EDABCE0AEF0088","num_area":"2.4536000000000000000000000000000","ind_status":"AT"},"geometry":{"type":"Polygon","coordinates":[[[-41.8539,-21.3592],[-41.851,-21.3601],[-41.8535,-21.3595],[-41.8539,-21.3592]]]}},{"type":"Feature","properties":{"cod_tema":"AREA_USO_RESTRITO_DECLIVIDADE_25_A_45","cod_imovel":"RJ-3300902-3BF7FCF441F34DF7A7A7373607775E01","num_area":"34.969000000000000000000000000000","ind_status":"AT"},"geometry":{"type":"Polygon","coordinates":[[[-41.8345,-21.5102],[-41.83,-21.5088],[-41.8307,-21.5123],[-41.8385,-21.5105],[-41.834,-21.5151],[-41.8347,-21.5184],[-41.8406,-21.5111],[-41.8348,-21.5101],[-41.8345,-21.5102]]]}},{"type":"Feature","properties":{"cod_tema":"AREA_USO_RESTRITO_DECLIVIDADE_25_A_45","cod_imovel":"RJ-3300902-464E5978586A498882364822B6C39C30","num_area":"1.6211000000000000000000000000000","ind_status":"AT"},"geometry":{"type":"Polygon","coordinates":[[[-41.8425,-21.3762],[-41.8442,-21.3774],[-41.8425,-21.3762],[-41.8425,-21.3762]]]}},{"type":"Feature","properties":{"cod_tema":"AREA_USO_RESTRITO_DECLIVIDADE_25_A_45","cod_imovel":"RJ-3300902-4DEA984F1924432586658301794A13D3","num_area":"4.5492000000000000000000000000000","ind_status":"AT"},"geometry":{"type":"Polygon","coordinates":[[[-42.0603,-21.6316],[-42.0578,-21.6325],[-42.0601,-21.6332],[-42.0603,-21.6316]]]}},{"type":"Feature","properties":{"cod_tema":"AREA_USO_RESTRITO_DECLIVIDADE_25_A_45","cod_imovel":"RJ-3300902-5AE169D4C68141DC8F0EFBED25E9F999","num_area":"25.354600000000000000000000000000","ind_status":"AT"},"geometry":{"type":"Polygon","coordinates":[[[-41.868,-21.5084],[-41.8653,-21.5112],[-41.868,-21.5084],[-41.868,-21.5084]],[[-41.8682,-21.5159],[-41.873,-21.5148],[-41.8685,-21.5115],[-41.8683,-21.5156],[-41.8682,-21.5159]]]}},{"type":"Feature","properties":{"cod_tema":"AREA_USO_RESTRITO_DECLIVIDADE_25_A_45","cod_imovel":"RJ-3300902-54E086AA511E4511BF1D4119F934BA69","num_area":"5.4189000000000000000000000000000","ind_status":"AT"},"geometry":{"type":"Polygon","coordinates":[[[-41.8623,-21.406],[-41.8597,-21.4072],[-41.8623,-21.406],[-41.8623,-21.406]]]}},{"type":"Feature","properties":{"cod_tema":"AREA_USO_RESTRITO_DECLIVIDADE_25_A_45","cod_imovel":"RJ-3300902-584E50A5DF2B4CCBAA500C50397FA228","num_area":"14.668700000000000000000000000000","ind_status":"AT"},"geometry":{"type":"Polygon","coordinates":[[[-41.8099,-21.4354],[-41.8057,-21.4362],[-41.8129,-21.4408],[-41.809,-21.4389],[-41.8106,-21.4365],[-41.8099,-21.4354]]]}},{"type":"Feature","properties":{"cod_tema":"AREA_USO_RESTRITO_DECLIVIDADE_25_A_45","cod_imovel":"RJ-3300902-62235DD3386D4295A8BE624F9D25586E","num_area":"66.423900000000000000000000000000","ind_status":"PE"},"geometry":{"type":"Polygon","coordinates":[[[-41.9768,-21.5503],[-41.976,-21.5473],[-41.9692,-21.5554],[-41.9768,-21.5509],[-41.9768,-21.5503]],[[-41.9736,-21.5537],[-41.9682,-21.5556],[-41.973,-21.5578],[-41.9739,-21.5538],[-41.9736,-21.5537]],[[-41.9745,-21.5455],[-41.9748,-21.5486],[-41.9746,-21.5453],[-41.9745,-21.5455]],[[-41.9763,-21.5536],[-41.9776,-21.552],[-41.9762,-21.5535],[-41.9763,-21.5536]],[[-41.9765,-21.5455],[-41.9764,-21.5492],[-41.9765,-21.5455],[-41.9765,-21.5455]],[[-41.9767,-21.5419],[-41.9796,-21.5419],[-41.9787,-21.5383],[-41.9769,-21.5418],[-41.9767,-21.5419]],[[-41.9796,-21.554],[-41.9772,-21.5587],[-41.9796,-21.554],[-41.9796,-21.554]],[[-41.9798,-21.5429],[-41.9787,-21.5455],[-41.9836,-21.5503],[-41.9803,-21.5429],[-41.9798,-21.5429]]]}},{"type":"Feature","properties":{"cod_tema":"AREA_USO_RESTRITO_DECLIVIDADE_25_A_45","cod_imovel":"RJ-3300902-6C9B120425B54D64850996078A4D01B5","num_area":"46.353700000000000000000000000000","ind_status":"AT"},"geometry":{"type":"Polygon","coordinates":[[[-41.8363,-21.4491],[-41.8308,-21.4421],[-41.8284,-21.4456],[-41.8301,-21.4499],[-41.8363,-21.4491]]]}},{"type":"Feature","properties":{"cod_tema":"AREA_USO_RESTRITO_DECLIVIDADE_25_A_45","cod_imovel":"RJ-3300902-65DFA464F4224B6CA8DA4B7E3281C200","num_area":"1.2494000000000000000000000000000","ind_status":"AT"},"geometry":{"type":"Polygon","coordinates":[[[-41.9126,-21.4284],[-41.9104,-21.4282],[-41.9126,-21.4284],[-41.9126,-21.4284]]]}},{"type":"Feature","properties":{"cod_tema":"AREA_USO_RESTRITO_DECLIVIDADE_25_A_45","cod_imovel":"RJ-3300902-6C31A95D4E2C4C69857B6EE1BFD4DDD6","num_area":"3.9585000000000000000000000000000","ind_status":"AT"},"geometry":{"type":"Polygon","coordinates":[[[-41.8054,-21.4762],[-41.8039,-21.4791],[-41.8055,-21.4762],[-41.8054,-21.4762]]]}},{"type":"Feature","properties":{"cod_tema":"AREA_USO_RESTRITO_DECLIVIDADE_25_A_45","cod_imovel":"RJ-3300902-6DEA037ADB164FCC9F4745DEB51079AE","num_area":"28.364600000000000000000000000000","ind_status":"AT"},"geometry":{"type":"Polygon","coordinates":[[[-41.9551,-21.4545],[-41.9573,-21.4586],[-41.9618,-21.4546],[-41.9608,-21.4521],[-41.9563,-21.4541],[-41.9551,-21.4545]]]}},{"type":"Feature","properties":{"cod_tema":"AREA_USO_RESTRITO_DECLIVIDADE_25_A_45","cod_imovel":"RJ-3300902-6F22DBB02D2F46E59EC01F7C9E100191","num_area":"22.423500000000000000000000000000","ind_status":"AT"},"geometry":{"type":"Polygon","coordinates":[[[-41.926,-21.4347],[-41.922,-21.4313],[-41.9196,-21.4332],[-41.9242,-21.4372],[-41.9261,-21.4349],[-41.926,-21.4347]]]}},{"type":"Feature","properties":{"cod_tema":"AREA_USO_RESTRITO_DECLIVIDADE_25_A_45","cod_imovel":"RJ-3300902-732E0B91389F452CB40DF6346BDFEE84","num_area":"3.4970000000000000000000000000000","ind_status":"AT"},"geometry":{"type":"Polygon","coordinates":[[[-42.0637,-21.5831],[-42.0636,-21.5803],[-42.0636,-21.5824],[-42.0637,-21.5831]]]}},{"type":"Feature","properties":{"cod_tema":"AREA_USO_RESTRITO_DECLIVIDADE_25_A_45","cod_imovel":"RJ-3300902-7EB990293EA7441B8DFBADF57FCB40DA","num_area":"22.596600000000000000000000000000","ind_status":"AT"},"geometry":{"type":"Polygon","coordinates":[[[-42.0656,-21.6196],[-42.0676,-21.6204],[-42.0664,-21.6181],[-42.0656,-21.6196]],[[-42.0676,-21.6259],[-42.0654,-21.6251],[-42.067,-21.627],[-42.0676,-21.6259]],[[-42.0665,-21.6159],[-42.0648,-21.6181],[-42.0672,-21.6157],[-42.0665,-21.6159]],[[-42.0642,-21.6246],[-42.0617,-21.6204],[-42.0634,-21.623],[-42.0642,-21.6246]]]}},{"type":"Feature","properties":{"cod_tema":"AREA_USO_RESTRITO_DECLIVIDADE_25_A_45","cod_imovel":"RJ-3300902-8872898D66914955BA3F926EA7C3DED5","num_area":"20.575500000000000000000000000000","ind_status":"AT"},"geometry":{"type":"Polygon","coordinates":[[[-41.7871,-21.4826],[-41.7911,-21.4833],[-41.787,-21.4825],[-41.7871,-21.4826]],[[-41.7873,-21.4736],[-41.7847,-21.4773],[-41.7875,-21.4782],[-41.7876,-21.4735],[-41.7873,-21.4736]]]}},{"type":"Feature","properties":{"cod_tema":"AREA_USO_RESTRITO_DECLIVIDADE_25_A_45","cod_imovel":"RJ-3300902-8C2EC512502648CA9DC585491226558A","num_area":"16.562700000000000000000000000000","ind_status":"AT"},"geometry":{"type":"Polygon","coordinates":[[[-41.8408,-21.4708],[-41.8433,-21.4664],[-41.8409,-21.4706],[-41.8408,-21.4708]],[[-41.8411,-21.4723],[-41.8438,-21.467],[-41.8413,-21.472],[-41.8411,-21.4723]],[[-41.8421,-21.4728],[-41.8457,-21.4714],[-41.8447,-21.4679],[-41.843,-21.4725],[-41.8421,-21.4728]]]}},{"type":"Feature","properties":{"cod_tema":"AREA_USO_RESTRITO_DECLIVIDADE_25_A_45","cod_imovel":"RJ-3300902-9645A7FFAF0B40089F9A27979375A679","num_area":"21.516800000000000000000000000000","ind_status":"AT"},"geometry":{"type":"Polygon","coordinates":[[[-42.0612,-21.6244],[-42.0576,-21.6248],[-42.0607,-21.6271],[-42.0612,-21.6244]],[[-42.0633,-21.6288],[-42.0627,-21.6258],[-42.0617,-21.6295],[-42.0633,-21.6288]]]}},{"type":"Feature","properties":{"cod_tema":"AREA_USO_RESTRITO_DECLIVIDADE_25_A_45","cod_imovel":"RJ-3300902-A3A9CAAE4D7F49189177E7892C6DD0AE","num_area":"14.534600000000000000000000000000","ind_status":"AT"},"geometry":{"type":"Polygon","coordinates":[[[-41.9947,-21.5084],[-41.9918,-21.5121],[-41.9962,-21.5098],[-41.9947,-21.5084]]]}},{"type":"Feature","properties":{"cod_tema":"AREA_USO_RESTRITO_DECLIVIDADE_25_A_45","cod_imovel":"RJ-3300902-AA307F81FB5447ED8DE08C1DDB5EC703","num_area":"45.269200000000000000000000000000","ind_status":"AT"},"geometry":{"type":"Polygon","coordinates":[[[-41.822,-21.4808],[-41.818,-21.4881],[-41.8239,-21.482],[-41.822,-21.4808]],[[-41.8257,-21.4825],[-41.819,-21.4891],[-41.8287,-21.4851],[-41.8259,-21.4827],[-41.8257,-21.4825]]]}},{"type":"Feature","properties":{"cod_tema":"AREA_USO_RESTRITO_DECLIVIDADE_25_A_45","cod_imovel":"RJ-3300902-AA7AA0F45D374A74A2AFC0C1D3E969BE","num_area":"9.6087000000000000000000000000000","ind_status":"PE"},"geometry":{"type":"Polygon","coordinates":[[[-42.0121,-21.5086],[-42.0173,-21.5059],[-42.0128,-21.5079],[-42.0121,-21.5086]]]}},{"type":"Feature","properties":{"cod_tema":"AREA_USO_RESTRITO_DECLIVIDADE_25_A_45","cod_imovel":"RJ-3300902-ABD563A8080D4A2AB55A8B290F770A36","num_area":"5.7684000000000000000000000000000","ind_status":"AT"},"geometry":{"type":"Polygon","coordinates":[[[-41.8012,-21.4723],[-41.7983,-21.4734],[-41.8024,-21.4741],[-41.8012,-21.4723]]]}},{"type":"Feature","properties":{"cod_tema":"AREA_USO_RESTRITO_DECLIVIDADE_25_A_45","cod_imovel":"RJ-3300902-AFE5A387EDC8447EA58AFD692C89E750","num_area":"29.640700000000000000000000000000","ind_status":"AT"},"geometry":{"type":"Polygon","coordinates":[[[-41.7718,-21.4539],[-41.7759,-21.4535],[-41.7747,-21.4511],[-41.7719,-21.4528],[-41.7718,-21.4539]],[[-41.7739,-21.4604],[-41.7755,-21.4623],[-41.7737,-21.4595],[-41.7739,-21.4604]],[[-41.7828,-21.4489],[-41.7792,-21.4533],[-41.7831,-21.4487],[-41.7828,-21.4489]],[[-41.7734,-21.4481],[-41.7696,-21.4496],[-41.7729,-21.4495],[-41.7734,-21.4481]]]}},{"type":"Feature","properties":{"cod_tema":"AREA_USO_RESTRITO_DECLIVIDADE_25_A_45","cod_imovel":"RJ-3300902-B5ABC68F8B854C588379DB1111097D77","num_area":"7.7590000000000000000000000000000","ind_status":"AT"},"geometry":{"type":"Polygon","coordinates":[[[-42.0048,-21.5238],[-42.0084,-21.5206],[-42.0052,-21.5232],[-42.0048,-21.5238]]]}},{"type":"Feature","properties":{"cod_tema":"AREA_USO_RESTRITO_DECLIVIDADE_25_A_45","cod_imovel":"RJ-3300902-B6C9C37406E24529AE367672801E8F34","num_area":"134.00700000000000000000000000000","ind_status":"AT"},"geometry":{"type":"Polygon","coordinates":[[[-41.8162,-21.4247],[-41.8214,-21.4259],[-41.8206,-21.4324],[-41.8152,-21.4263],[-41.8137,-21.4325],[-41.8266,-21.4367],[-41.8304,-21.4302],[-41.817,-21.4232],[-41.8162,-21.4247]]]}},{"type":"Feature","properties":{"cod_tema":"AREA_USO_RESTRITO_DECLIVIDADE_25_A_45","cod_imovel":"RJ-3300902-BCA2E907146243158A761C28E9D0E5CF","num_area":"16.706400000000000000000000000000","ind_status":"AT"},"geometry":{"type":"Polygon","coordinates":[[[-41.9064,-21.4428],[-41.9029,-21.4406],[-41.905,-21.4454],[-41.9064,-21.4428]]]}},{"type":"Feature","properties":{"cod_tema":"AREA_USO_RESTRITO_DECLIVIDADE_25_A_45","cod_imovel":"RJ-3300902-D4562B1B19734AF4830252FD708A3694","num_area":"22.170900000000000000000000000000","ind_status":"PE"},"geometry":{"type":"Polygon","coordinates":[[[-41.8568,-21.4191],[-41.8608,-21.4221],[-41.8572,-21.4182],[-41.8568,-21.4191]],[[-41.8634,-21.4082],[-41.8678,-21.411],[-41.8642,-21.4072],[-41.8634,-21.4082]]]}},{"type":"Feature","properties":{"cod_tema":"AREA_USO_RESTRITO_DECLIVIDADE_25_A_45","cod_imovel":"RJ-3300902-D57E18EACF144899A73E1D3C660B1182","num_area":"14.305200000000000000000000000000","ind_status":"AT"},"geometry":{"type":"Polygon","coordinates":[[[-41.8807,-21.4096],[-41.8792,-21.4122],[-41.8842,-21.4136],[-41.8807,-21.4096]]]}},{"type":"Feature","properties":{"cod_tema":"AREA_USO_RESTRITO_DECLIVIDADE_25_A_45","cod_imovel":"RJ-3300902-DDC41740A3F6461683572AFDB694E535","num_area":"9.0024000000000000000000000000000","ind_status":"AT"},"geometry":{"type":"Polygon","coordinates":[[[-41.8209,-21.4794],[-41.8161,-21.4836],[-41.821,-21.4794],[-41.8209,-21.4794]]]}},{"type":"Feature","properties":{"cod_tema":"AREA_USO_RESTRITO_DECLIVIDADE_25_A_45","cod_imovel":"RJ-3300902-E12E1F56F26F4600A3AF4F860338B8E3","num_area":"109.27590000000000000000000000000","ind_status":"AT"},"geometry":{"type":"Polygon","coordinates":[[[-41.8375,-21.4965],[-41.8408,-21.4954],[-41.8397,-21.4907],[-41.8288,-21.4847],[-41.8269,-21.4925],[-41.8318,-21.4908],[-41.8303,-21.4954],[-41.8333,-21.4976],[-41.8375,-21.4965]]]}},{"type":"Feature","properties":{"cod_tema":"AREA_USO_RESTRITO_DECLIVIDADE_25_A_45","cod_imovel":"RJ-3300902-F05312E76C5044D3B4C907A641188D4F","num_area":"184.65580000000000000000000000000","ind_status":"CA"},"geometry":{"type":"Polygon","coordinates":[[[-41.9722,-21.4721],[-41.9699,-21.4699],[-41.9724,-21.4723],[-41.9722,-21.4721]],[[-41.9634,-21.4895],[-41.9612,-21.4921],[-41.9635,-21.4901],[-41.9634,-21.4895]],[[-41.9645,-21.4747],[-41.963,-21.478],[-41.9646,-21.4748],[-41.9645,-21.4747]],[[-41.9764,-21.484],[-41.9712,-21.4861],[-41.9766,-21.4846],[-41.9764,-21.484]],[[-41.9571,-21.493],[-41.9601,-21.4867],[-41.9554,-21.4913],[-41.9569,-21.4927],[-41.9571,-21.493]],[[-41.9671,-21.4962],[-41.9681,-21.4919],[-41.9627,-21.4949],[-41.9671,-21.49],[-41.9614,-21.4953],[-41.9651,-21.4919],[-41.962,-21.4957],[-41.9655,-21.4941],[-41.9634,-21.4961],[-41.9657,-21.4974],[-41.9671,-21.4962]],[[-41.9749,-21.4749],[-41.9694,-21.47],[-41.9657,-21.4726],[-41.9669,-21.4779],[-41.9704,-21.4774],[-41.9662,-21.4821],[-41.9696,-21.4802],[-41.9676,-21.4821],[-41.9701,-21.4812],[-41.9682,-21.4835],[-41.9704,-21.4853],[-41.9729,-21.4811],[-41.9774,-21.4808],[-41.9772,-21.4837],[-41.9781,-21.4806],[-41.9809,-21.4813],[-41.9756,-21.4755],[-41.9749,-21.4749]]]}},{"type":"Feature","properties":{"cod_tema":"AREA_USO_RESTRITO_DECLIVIDADE_25_A_45","cod_imovel":"RJ-3300902-FCE567C33F8D4380870D0D5E0ED51C15","num_area":"4.1242000000000000000000000000000","ind_status":"AT"},"geometry":{"type":"Polygon","coordinates":[[[-42.0001,-21.5528],[-42.0004,-21.5553],[-42.0005,-21.5527],[-42.0001,-21.5528]]]}}]}