{"type":"FeatureCollection","features":[{"type":"Feature","properties":{"cod_tema":"AREA_USO_RESTRITO_DECLIVIDADE_25_A_45","cod_imovel":"RJ-3301405-789D68CE9F734BAC9F7A37FC50A6E3B1","num_area":"19.361000000000000000000000000000","ind_status":"AT"},"geometry":{"type":"Polygon","coordinates":[[[-41.8282,-22.11],[-41.8312,-22.1121],[-41.8284,-22.1105],[-41.8282,-22.11]],[[-41.8391,-22.1193],[-41.8352,-22.1132],[-41.839,-22.1192],[-41.8391,-22.1193]]]}},{"type":"Feature","properties":{"cod_tema":"AREA_USO_RESTRITO_DECLIVIDADE_25_A_45","cod_imovel":"RJ-3301405-0A7DE3CC29DD4591A076C2A3189DDA4B","num_area":"14.511700000000000000000000000000","ind_status":"AT"},"geometry":{"type":"Polygon","coordinates":[[[-41.8592,-22.1448],[-41.8567,-22.1432],[-41.8554,-22.1495],[-41.8596,-22.1454],[-41.8592,-22.1448]]]}},{"type":"Feature","properties":{"cod_tema":"AREA_USO_RESTRITO_DECLIVIDADE_25_A_45","cod_imovel":"RJ-3301405-44C91FBBC4CA44FCB359E6F190B3099C","num_area":"6.8733000000000000000000000000000","ind_status":"AT"},"geometry":{"type":"Polygon","coordinates":[[[-41.8171,-22.131],[-41.8157,-22.133],[-41.8186,-22.1333],[-41.8172,-22.1309],[-41.8171,-22.131]]]}},{"type":"Feature","properties":{"cod_tema":"AREA_USO_RESTRITO_DECLIVIDADE_25_A_45","cod_imovel":"RJ-3301405-163D4727301B40E3840CF378123AF086","num_area":"0.6502000000000000000000000000000","ind_status":"AT"},"geometry":{"type":"Polygon","coordinates":[[[-41.7916,-22.1074],[-41.794,-22.1053],[-41.7919,-22.107],[-41.7916,-22.1074]]]}},{"type":"Feature","properties":{"cod_tema":"AREA_USO_RESTRITO_DECLIVIDADE_25_A_45","cod_imovel":"RJ-3301405-D3BDC02D7259436BBFF689EA593EB41F","num_area":"18.423900000000000000000000000000","ind_status":"AT"},"geometry":{"type":"Polygon","coordinates":[[[-41.8807,-22.1444],[-41.8782,-22.1466],[-41.8804,-22.1482],[-41.8826,-22.1457],[-41.8807,-22.1444]],[[-41.8859,-22.1439],[-41.8819,-22.1433],[-41.8852,-22.1436],[-41.8859,-22.1439]],[[-41.8771,-22.1498],[-41.8809,-22.1482],[-41.8764,-22.1518],[-41.877,-22.1498],[-41.8771,-22.1498]]]}},{"type":"Feature","properties":{"cod_tema":"AREA_USO_RESTRITO_DECLIVIDADE_25_A_45","cod_imovel":"RJ-3301405-8EE9FF35FF144D8CBB33602145C86D22","num_area":"4.7614000000000000000000000000000","ind_status":"AT"},"geometry":{"type":"Polygon","coordinates":[[[-41.8109,-22.1322],[-41.8087,-22.1325],[-41.8124,-22.1344],[-41.811,-22.1322],[-41.8109,-22.1322]]]}},{"type":"Feature","properties":{"cod_tema":"AREA_USO_RESTRITO_DECLIVIDADE_25_A_45","cod_imovel":"RJ-3301405-9EC4E3E7FF5147AF8B943F76E3F9E410","num_area":"33.645400000000000000000000000000","ind_status":"AT"},"geometry":{"type":"Polygon","coordinates":[[[-41.8529,-22.1556],[-41.8518,-22.1589],[-41.8604,-22.1561],[-41.8539,-22.1554],[-41.8529,-22.1556]],[[-41.86,-22.1636],[-41.8627,-22.1643],[-41.8651,-22.1588],[-41.8599,-22.1634],[-41.855,-22.1609],[-41.86,-22.1636],[-41.86,-22.1636]]]}},{"type":"Feature","properties":{"cod_tema":"AREA_USO_RESTRITO_DECLIVIDADE_25_A_45","cod_imovel":"RJ-3301405-A5A1DFA766294B8C8629D780051566F7","num_area":"21.335100000000000000000000000000","ind_status":"AT"},"geometry":{"type":"Polygon","coordinates":[[[-41.8252,-22.103],[-41.8242,-22.1075],[-41.8221,-22.1049],[-41.8235,-22.1082],[-41.8261,-22.1031],[-41.8252,-22.103]],[[-41.8273,-22.1104],[-41.8263,-22.1068],[-41.8272,-22.1091],[-41.8273,-22.1104]]]}},{"type":"Feature","properties":{"cod_tema":"AREA_USO_RESTRITO_DECLIVIDADE_25_A_45","cod_imovel":"RJ-3301405-A63F8BDC4703402A8B774D7B0DE4C9A5","num_area":"8.5088000000000000000000000000000","ind_status":"AT"},"geometry":{"type":"Polygon","coordinates":[[[-41.8138,-22.1431],[-41.8167,-22.1443],[-41.8127,-22.1415],[-41.8144,-22.1431],[-41.8138,-22.1431]],[[-41.8115,-22.1381],[-41.8109,-22.141],[-41.8114,-22.1388],[-41.8115,-22.1381]],[[-41.8098,-22.1384],[-41.8108,-22.1415],[-41.8098,-22.1383],[-41.8098,-22.1384]]]}},{"type":"Feature","properties":{"cod_tema":"AREA_USO_RESTRITO_DECLIVIDADE_25_A_45","cod_imovel":"RJ-3301405-EB11FCB0FD394CBDAB58C75A2C9FCFB7","num_area":"10.339900000000000000000000000000","ind_status":"AT"},"geometry":{"type":"Polygon","coordinates":[[[-41.8459,-22.1257],[-41.8449,-22.1238],[-41.8459,-22.1257],[-41.8459,-22.1257]],[[-41.8534,-22.12],[-41.8547,-22.1182],[-41.8503,-22.1195],[-41.8531,-22.12],[-41.8534,-22.12]]]}},{"type":"Feature","properties":{"cod_tema":"AREA_USO_RESTRITO_DECLIVIDADE_25_A_45","cod_imovel":"RJ-3301405-3D8137AEC8C7447CB9709842BAAFA1F9","num_area":"28.266300000000000000000000000000","ind_status":"AT"},"geometry":{"type":"Polygon","coordinates":[[[-41.8381,-22.1863],[-41.8357,-22.1864],[-41.8378,-22.1871],[-41.8381,-22.1863]],[[-41.8412,-22.1862],[-41.8395,-22.1848],[-41.8409,-22.1862],[-41.8412,-22.1862]],[[-41.8391,-22.1797],[-41.8374,-22.1826],[-41.8424,-22.1831],[-41.8428,-22.1779],[-41.8406,-22.1811],[-41.8388,-22.1797],[-41.8391,-22.1797]]]}},{"type":"Feature","properties":{"cod_tema":"AREA_USO_RESTRITO_DECLIVIDADE_25_A_45","cod_imovel":"RJ-3301405-F2C1058EF16C43C7982D83A0CA82713F","num_area":"43.380700000000000000000000000000","ind_status":"AT"},"geometry":{"type":"Polygon","coordinates":[[[-41.9032,-22.1195],[-41.9012,-22.1226],[-41.905,-22.1214],[-41.9033,-22.1194],[-41.9032,-22.1195]],[[-41.9073,-22.1164],[-41.9063,-22.1194],[-41.9045,-22.1156],[-41.9054,-22.1212],[-41.9098,-22.1189],[-41.9078,-22.1168],[-41.9073,-22.1164]],[[-41.9124,-22.1131],[-41.9101,-22.1182],[-41.9127,-22.1139],[-41.9117,-22.1183],[-41.9157,-22.1197],[-41.913,-22.1134],[-41.9124,-22.1131]]]}},{"type":"Feature","properties":{"cod_tema":"AREA_USO_RESTRITO_DECLIVIDADE_25_A_45","cod_imovel":"RJ-3301405-29DA61780DDF49F986888E68AF68DB07","num_area":"18.343500000000000000000000000000","ind_status":"AT"},"geometry":{"type":"Polygon","coordinates":[[[-41.8371,-22.0909],[-41.8394,-22.0898],[-41.8374,-22.0906],[-41.8371,-22.0909]],[[-41.8323,-22.0891],[-41.8373,-22.0886],[-41.8332,-22.0885],[-41.8323,-22.0891]],[[-41.841,-22.0846],[-41.8433,-22.082],[-41.8425,-22.0844],[-41.841,-22.0846]],[[-41.8357,-22.0953],[-41.8378,-22.0939],[-41.8358,-22.0952],[-41.8357,-22.0953]],[[-41.8355,-22.0955],[-41.8379,-22.0939],[-41.8355,-22.0954],[-41.8355,-22.0955]]]}},{"type":"Feature","properties":{"cod_tema":"AREA_USO_RESTRITO_DECLIVIDADE_25_A_45","cod_imovel":"RJ-3301405-781CDFD3E27B48FAA098789906282F33","num_area":"24.697800000000000000000000000000","ind_status":"AT"},"geometry":{"type":"Polygon","coordinates":[[[-41.9455,-22.1056],[-41.9437,-22.1017],[-41.9452,-22.1055],[-41.9455,-22.1056]],[[-41.9433,-22.1052],[-41.9414,-22.1026],[-41.9425,-22.1046],[-41.9433,-22.1052]],[[-41.9397,-22.0962],[-41.9426,-22.1015],[-41.9401,-22.0967],[-41.9397,-22.0962]],[[-41.9393,-22.1024],[-41.9381,-22.0981],[-41.9367,-22.1015],[-41.9378,-22.0975],[-41.9355,-22.099],[-41.9388,-22.1025],[-41.9393,-22.1024]]]}},{"type":"Feature","properties":{"cod_tema":"AREA_USO_RESTRITO_DECLIVIDADE_25_A_45","cod_imovel":"RJ-3301405-671382797B3D4EE7A38E5C9C18963429","num_area":"14.509800000000000000000000000000","ind_status":"AT"},"geometry":{"type":"Polygon","coordinates":[[[-41.8322,-22.0959],[-41.8385,-22.0914],[-41.832,-22.0955],[-41.8322,-22.0959]],[[-41.8278,-22.096],[-41.8308,-22.0961],[-41.8273,-22.0962],[-41.8278,-22.096]]]}},{"type":"Feature","properties":{"cod_tema":"AREA_USO_RESTRITO_DECLIVIDADE_25_A_45","cod_imovel":"RJ-3301405-5BB83DA22B3E4B238AE971792CBC0B25","num_area":"24.743800000000000000000000000000","ind_status":"AT"},"geometry":{"type":"Polygon","coordinates":[[[-41.8599,-22.0954],[-41.8626,-22.0975],[-41.8604,-22.0959],[-41.8599,-22.0954]],[[-41.8612,-22.098],[-41.8576,-22.0986],[-41.8616,-22.0981],[-41.8612,-22.098]],[[-41.8633,-22.0999],[-41.8581,-22.1021],[-41.8642,-22.1],[-41.8633,-22.0999]]]}},{"type":"Feature","properties":{"cod_tema":"AREA_USO_RESTRITO_DECLIVIDADE_25_A_45","cod_imovel":"RJ-3301405-8045CC5FBF9D41EA98232009182860F1","num_area":"7.7033000000000000000000000000000","ind_status":"AT"},"geometry":{"type":"Polygon","coordinates":[[[-41.8594,-22.0891],[-41.8578,-22.091],[-41.8602,-22.0892],[-41.8594,-22.0891]],[[-41.8595,-22.0924],[-41.8617,-22.0941],[-41.859,-22.0919],[-41.8595,-22.0924]]]}},{"type":"Feature","properties":{"cod_tema":"AREA_USO_RESTRITO_DECLIVIDADE_25_A_45","cod_imovel":"RJ-3301405-75F8C1C04BF448A3A7DDAA5EB066FB2A","num_area":"548.64050000000000000000000000000","ind_status":"PE"},"geometry":{"type":"Polygon","coordinates":[[[-41.866,-22.1376],[-41.8641,-22.1297],[-41.8638,-22.1356],[-41.8603,-22.1365],[-41.8633,-22.1297],[-41.863,-22.1325],[-41.8601,-22.1318],[-41.8566,-22.1257],[-41.8544,-22.1263],[-41.8579,-22.132],[-41.8517,-22.1311],[-41.8524,-22.1285],[-41.8491,-22.1291],[-41.8511,-22.1268],[-41.8467,-22.1289],[-41.8586,-22.1326],[-41.8597,-22.1377],[-41.8659,-22.1377],[-41.866,-22.1376]],[[-41.8626,-22.1332],[-41.86,-22.1344],[-41.8625,-22.1332],[-41.8626,-22.1332]],[[-41.8474,-22.1303],[-41.8521,-22.1325],[-41.8474,-22.1303],[-41.8474,-22.1303]],[[-41.8516,-22.1244],[-41.85,-22.1263],[-41.8517,-22.1244],[-41.8516,-22.1244]],[[-41.8638,-22.1242],[-41.8632,-22.1214],[-41.8625,-22.127],[-41.8586,-22.1249],[-41.8619,-22.1281],[-41.8638,-22.1242],[-41.8638,-22.1242]],[[-41.8635,-22.1194],[-41.8609,-22.1194],[-41.8635,-22.1194],[-41.8635,-22.1194]],[[-41.8632,-22.1135],[-41.8646,-22.1115],[-41.8631,-22.1136],[-41.8632,-22.1135]],[[-41.8684,-22.129],[-41.8651,-22.1278],[-41.868,-22.129],[-41.8684,-22.129]],[[-41.865,-22.1236],[-41.8672,-22.1261],[-41.8651,-22.1236],[-41.865,-22.1236]],[[-41.8769,-22.1233],[-41.8726,-22.1173],[-41.8694,-22.1218],[-41.8649,-22.1198],[-41.8703,-22.1221],[-41.87,-22.1191],[-41.8725,-22.1234],[-41.8768,-22.1233],[-41.8769,-22.1233]],[[-41.868,-22.136],[-41.8657,-22.132],[-41.8657,-22.1363],[-41.8683,-22.136],[-41.868,-22.136]],[[-41.8785,-22.114],[-41.8666,-22.1101],[-41.8704,-22.1148],[-41.8657,-22.1147],[-41.8738,-22.1157],[-41.8773,-22.1226],[-41.8752,-22.1171],[-41.8783,-22.1141],[-41.8785,-22.114]],[[-41.8769,-22.1142],[-41.8719,-22.1136],[-41.8767,-22.1141],[-41.8769,-22.1142]],[[-41.8699,-22.1122],[-41.8684,-22.1091],[-41.8658,-22.1105],[-41.8699,-22.1122],[-41.8699,-22.1122]],[[-41.8758,-22.1283],[-41.8722,-22.1329],[-41.8716,-22.129],[-41.87,-22.1323],[-41.868,-22.131],[-41.8686,-22.1364],[-41.8713,-22.1341],[-41.8728,-22.1366],[-41.8757,-22.1284],[-41.8758,-22.1283]],[[-41.8677,-22.1142],[-41.87,-22.115],[-41.8676,-22.1142],[-41.8677,-22.1142]],[[-41.8716,-22.1253],[-41.8676,-22.1239],[-41.8715,-22.1252],[-41.8716,-22.1253]],[[-41.873,-22.1283],[-41.8691,-22.1275],[-41.873,-22.1284],[-41.873,-22.1283]],[[-41.8968,-22.1391],[-41.8929,-22.1356],[-41.8941,-22.1333],[-41.8909,-22.1349],[-41.8805,-22.1286],[-41.8895,-22.1342],[-41.8908,-22.1364],[-41.8877,-22.1372],[-41.8794,-22.1282],[-41.8811,-22.1316],[-41.8771,-22.1331],[-41.8769,-22.1299],[-41.8776,-22.1349],[-41.8754,-22.1328],[-41.8728,-22.1367],[-41.8861,-22.1433],[-41.8965,-22.1393],[-41.8968,-22.1391]],[[-41.8893,-22.1424],[-41.8809,-22.1366],[-41.8893,-22.1423],[-41.8893,-22.1424]],[[-41.8795,-22.1397],[-41.8781,-22.1379],[-41.8794,-22.1397],[-41.8795,-22.1397]],[[-41.8795,-22.1323],[-41.8786,-22.1347],[-41.8794,-22.1321],[-41.8795,-22.1323]],[[-41.8842,-22.1417],[-41.8817,-22.1403],[-41.8838,-22.1416],[-41.8842,-22.1417]],[[-41.8856,-22.1406],[-41.8821,-22.1383],[-41.8856,-22.1405],[-41.8856,-22.1406]],[[-41.8919,-22.1373],[-41.8898,-22.1348],[-41.8918,-22.1372],[-41.8919,-22.1373]],[[-41.8965,-22.1384],[-41.8939,-22.1379],[-41.8964,-22.1384],[-41.8965,-22.1384]],[[-41.8762,-22.1388],[-41.8791,-22.1417],[-41.8762,-22.1388],[-41.8762,-22.1388]],[[-41.8809,-22.1287],[-41.8839,-22.1299],[-41.8808,-22.1287],[-41.8809,-22.1287]],[[-41.8864,-22.1313],[-41.8889,-22.1314],[-41.8842,-22.1288],[-41.8852,-22.1268],[-41.8836,-22.1285],[-41.8864,-22.1313],[-41.8864,-22.1313]],[[-41.8766,-22.1299],[-41.8752,-22.1327],[-41.8766,-22.1299],[-41.8766,-22.1299]],[[-41.8785,-22.1289],[-41.88,-22.1311],[-41.8786,-22.1289],[-41.8785,-22.1289]],[[-41.8984,-22.1227],[-41.8788,-22.1148],[-41.8811,-22.118],[-41.8796,-22.1236],[-41.8849,-22.1221],[-41.8803,-22.1219],[-41.8821,-22.1184],[-41.8903,-22.1229],[-41.8984,-22.1232],[-41.8984,-22.1227]],[[-41.883,-22.1217],[-41.8804,-22.1226],[-41.8827,-22.1217],[-41.883,-22.1217]],[[-41.886,-22.1187],[-41.8836,-22.1189],[-41.8856,-22.1187],[-41.886,-22.1187]],[[-41.896,-22.122],[-41.8928,-22.1219],[-41.8958,-22.1219],[-41.896,-22.122]],[[-41.8886,-22.1184],[-41.8862,-22.1173],[-41.8885,-22.1184],[-41.8886,-22.1184]],[[-41.8822,-22.126],[-41.8798,-22.1261],[-41.8822,-22.1261],[-41.8822,-22.126]],[[-41.8797,-22.1269],[-41.8823,-22.1263],[-41.8798,-22.1269],[-41.8797,-22.1269]],[[-41.8997,-22.1281],[-41.8978,-22.1244],[-41.8835,-22.1241],[-41.8995,-22.1279],[-41.8997,-22.1281]],[[-41.8842,-22.1157],[-41.8861,-22.1173],[-41.8841,-22.1156],[-41.8842,-22.1157]],[[-41.8948,-22.1297],[-41.8865,-22.1283],[-41.891,-22.1327],[-41.8948,-22.1297],[-41.8948,-22.1297]],[[-41.8912,-22.1264],[-41.8876,-22.1268],[-41.8911,-22.1264],[-41.8912,-22.1264]],[[-41.8924,-22.1281],[-41.8905,-22.1272],[-41.8924,-22.1282],[-41.8924,-22.1281]],[[-41.896,-22.1332],[-41.8949,-22.1298],[-41.8959,-22.1332],[-41.896,-22.1332]],[[-41.9001,-22.13],[-41.8958,-22.1304],[-41.8979,-22.1364],[-41.8996,-22.1322],[-41.9001,-22.13]],[[-41.8985,-22.1325],[-41.8967,-22.131],[-41.8984,-22.1325],[-41.8985,-22.1325]],[[-41.8971,-22.139],[-41.8965,-22.1366],[-41.8971,-22.1389],[-41.8971,-22.139]]]}},{"type":"Feature","properties":{"cod_tema":"AREA_USO_RESTRITO_DECLIVIDADE_25_A_45","cod_imovel":"RJ-3301405-84BA1672A8A4429DBBD04750BD3E0A45","num_area":"140.22770000000000000000000000000","ind_status":"AT"},"geometry":{"type":"Polygon","coordinates":[[[-41.9057,-22.1073],[-41.9076,-22.1052],[-41.9058,-22.1072],[-41.9057,-22.1073]],[[-41.9176,-22.106],[-41.9198,-22.1061],[-41.9166,-22.103],[-41.9177,-22.1048],[-41.9176,-22.106]],[[-41.9205,-22.0946],[-41.9265,-22.0973],[-41.9202,-22.0943],[-41.9205,-22.0946]],[[-41.9225,-22.1061],[-41.9188,-22.1007],[-41.9166,-22.1022],[-41.9187,-22.1008],[-41.9192,-22.105],[-41.9224,-22.106],[-41.9225,-22.1061]],[[-41.9092,-22.1076],[-41.9122,-22.1052],[-41.9089,-22.1004],[-41.9016,-22.1059],[-41.9081,-22.1021],[-41.9093,-22.1074],[-41.9092,-22.1076]],[[-41.932,-22.0941],[-41.9212,-22.0915],[-41.9314,-22.091],[-41.9196,-22.0906],[-41.9225,-22.0934],[-41.9183,-22.0921],[-41.9162,-22.097],[-41.9115,-22.0944],[-41.9153,-22.0988],[-41.9178,-22.0933],[-41.9316,-22.0941],[-41.932,-22.0941]],[[-41.9249,-22.1066],[-41.9363,-22.1057],[-41.9324,-22.1024],[-41.9339,-22.0993],[-41.9312,-22.1],[-41.9329,-22.0972],[-41.9301,-22.0976],[-41.9325,-22.0964],[-41.9273,-22.0988],[-41.9294,-22.1031],[-41.926,-22.1058],[-41.9232,-22.1042],[-41.925,-22.1063],[-41.9249,-22.1066]],[[-41.9303,-22.1035],[-41.9288,-22.1004],[-41.9309,-22.1029],[-41.9303,-22.1035]]]}},{"type":"Feature","properties":{"cod_tema":"AREA_USO_RESTRITO_DECLIVIDADE_25_A_45","cod_imovel":"RJ-3301405-DE54977FC1354855BC3917080CC45FA1","num_area":"45.495400000000000000000000000000","ind_status":"AT"},"geometry":{"type":"Polygon","coordinates":[[[-41.9374,-22.1029],[-41.9359,-22.1047],[-41.9374,-22.1029],[-41.9374,-22.1029]],[[-41.9469,-22.1077],[-41.9494,-22.1082],[-41.9469,-22.1077],[-41.9469,-22.1077]],[[-41.9368,-22.1058],[-41.9428,-22.1061],[-41.9371,-22.1058],[-41.9368,-22.1058]],[[-41.9463,-22.1023],[-41.9423,-22.0981],[-41.9401,-22.1002],[-41.944,-22.1014],[-41.9459,-22.1075],[-41.9458,-22.1021],[-41.9463,-22.1023]],[[-41.9396,-22.1007],[-41.9371,-22.1049],[-41.9448,-22.1062],[-41.9413,-22.1026],[-41.9396,-22.1042],[-41.9396,-22.1011],[-41.9396,-22.1007]]]}},{"type":"Feature","properties":{"cod_tema":"AREA_USO_RESTRITO_DECLIVIDADE_25_A_45","cod_imovel":"RJ-3301405-6D63380224854AD4B2E2B1B44A7CF1AB","num_area":"8.7428000000000000000000000000000","ind_status":"AT"},"geometry":{"type":"Polygon","coordinates":[[[-41.9095,-22.0783],[-41.9121,-22.0751],[-41.9077,-22.0758],[-41.9094,-22.0783],[-41.9095,-22.0783]]]}},{"type":"Feature","properties":{"cod_tema":"AREA_USO_RESTRITO_DECLIVIDADE_25_A_45","cod_imovel":"RJ-3301405-071BF30F63E048E3A68FF45E44F61E23","num_area":"55.578500000000000000000000000000","ind_status":"AT"},"geometry":{"type":"Polygon","coordinates":[[[-41.9002,-22.1037],[-41.9042,-22.1008],[-41.9006,-22.1036],[-41.9002,-22.1037]],[[-41.9057,-22.0981],[-41.9016,-22.0984],[-41.9057,-22.0982],[-41.9057,-22.0981]],[[-41.906,-22.1008],[-41.9018,-22.1002],[-41.9055,-22.1009],[-41.906,-22.1008]],[[-41.8887,-22.1015],[-41.8882,-22.1042],[-41.8968,-22.1048],[-41.9003,-22.1083],[-41.8888,-22.1008],[-41.8887,-22.1015]],[[-41.8913,-22.1031],[-41.888,-22.1033],[-41.8903,-22.1031],[-41.8913,-22.1031]],[[-41.8982,-22.094],[-41.8909,-22.0991],[-41.8981,-22.0966],[-41.8983,-22.0941],[-41.8982,-22.094]]]}},{"type":"Feature","properties":{"cod_tema":"AREA_USO_RESTRITO_DECLIVIDADE_25_A_45","cod_imovel":"RJ-3301405-76ED23FB4D434A76AB6A09C842012CE7","num_area":"13.779400000000000000000000000000","ind_status":"AT"},"geometry":{"type":"Polygon","coordinates":[[[-41.8775,-22.0635],[-41.882,-22.0663],[-41.8842,-22.0634],[-41.879,-22.0591],[-41.8831,-22.0645],[-41.8778,-22.0634],[-41.8775,-22.0635]]]}},{"type":"Feature","properties":{"cod_tema":"AREA_USO_RESTRITO_DECLIVIDADE_25_A_45","cod_imovel":"RJ-3301405-4552573A1E05444C9D5D00AD86125484","num_area":"9.4745000000000000000000000000000","ind_status":"AT"},"geometry":{"type":"Polygon","coordinates":[[[-41.9623,-22.0804],[-41.9582,-22.0821],[-41.9608,-22.0835],[-41.9624,-22.0804],[-41.9623,-22.0804]]]}},{"type":"Feature","properties":{"cod_tema":"AREA_USO_RESTRITO_DECLIVIDADE_25_A_45","cod_imovel":"RJ-3301405-24CD44FA28CF454199D3EA2A0D4B1155","num_area":"17.967400000000000000000000000000","ind_status":"AT"},"geometry":{"type":"Polygon","coordinates":[[[-41.9001,-22.2133],[-41.9059,-22.2166],[-41.8973,-22.2116],[-41.9001,-22.2133]]]}},{"type":"Feature","properties":{"cod_tema":"AREA_USO_RESTRITO_DECLIVIDADE_25_A_45","cod_imovel":"RJ-3301405-8DBC4777AE8146798BB7C8D298326F23","num_area":"4.5219000000000000000000000000000","ind_status":"AT"},"geometry":{"type":"Polygon","coordinates":[[[-41.9589,-22.0818],[-41.9622,-22.0791],[-41.9592,-22.081],[-41.9589,-22.0818]]]}},{"type":"Feature","properties":{"cod_tema":"AREA_USO_RESTRITO_DECLIVIDADE_25_A_45","cod_imovel":"RJ-3301405-28E1AC7FF4904CAFB9A87AABDAC560E4","num_area":"13.923400000000000000000000000000","ind_status":"AT"},"geometry":{"type":"Polygon","coordinates":[[[-41.9002,-22.2119],[-41.8975,-22.2117],[-41.9059,-22.2166],[-41.9008,-22.2119],[-41.9002,-22.2119]]]}},{"type":"Feature","properties":{"cod_tema":"AREA_USO_RESTRITO_DECLIVIDADE_25_A_45","cod_imovel":"RJ-3301405-2B280C2DA4AF4A3B92A820CCE11F3B61","num_area":"25.526900000000000000000000000000","ind_status":"AT"},"geometry":{"type":"Polygon","coordinates":[[[-41.8892,-22.1137],[-41.886,-22.1171],[-41.8896,-22.119],[-41.8933,-22.1163],[-41.8904,-22.114],[-41.8892,-22.1137]]]}},{"type":"Feature","properties":{"cod_tema":"AREA_USO_RESTRITO_DECLIVIDADE_25_A_45","cod_imovel":"RJ-3301405-7E69332D2AFA40B2B9B4B649446C8F2A","num_area":"3.1011000000000000000000000000000","ind_status":"AT"},"geometry":{"type":"Polygon","coordinates":[[[-41.8774,-22.095],[-41.8791,-22.0926],[-41.8768,-22.0931],[-41.8774,-22.095]]]}},{"type":"Feature","properties":{"cod_tema":"AREA_USO_RESTRITO_DECLIVIDADE_25_A_45","cod_imovel":"RJ-3301405-8FB7E4D908774EBABBBBF3E5BD8CE483","num_area":"20.550100000000000000000000000000","ind_status":"CA"},"geometry":{"type":"Polygon","coordinates":[[[-41.838,-22.1806],[-41.8422,-22.1817],[-41.8417,-22.1765],[-41.838,-22.1805],[-41.838,-22.1806]]]}},{"type":"Feature","properties":{"cod_tema":"AREA_USO_RESTRITO_DECLIVIDADE_25_A_45","cod_imovel":"RJ-3301405-B7EBC10803264402B167984925D37FA3","num_area":"3.5184000000000000000000000000000","ind_status":"AT"},"geometry":{"type":"Polygon","coordinates":[[[-41.8268,-22.1156],[-41.8236,-22.1174],[-41.8268,-22.1158],[-41.8268,-22.1156]]]}},{"type":"Feature","properties":{"cod_tema":"AREA_USO_RESTRITO_DECLIVIDADE_25_A_45","cod_imovel":"RJ-3301405-C94C1A826A884095A5B74B34640FDDDB","num_area":"25.586400000000000000000000000000","ind_status":"AT"},"geometry":{"type":"Polygon","coordinates":[[[-41.9111,-22.1203],[-41.9024,-22.1227],[-41.9079,-22.125],[-41.9115,-22.1221],[-41.9111,-22.1203]]]}}]}