{"type":"FeatureCollection","features":[{"type":"Feature","properties":{"cod_tema":"AREA_USO_RESTRITO_DECLIVIDADE_25_A_45","cod_imovel":"RJ-3301504-8614750584BA4F41B74CF6241BDCA281","num_area":"4.3032000000000000000000000000000","ind_status":"AT"},"geometry":{"type":"Polygon","coordinates":[[[-42.3425,-22.0715],[-42.3419,-22.0756],[-42.3422,-22.0719],[-42.3425,-22.0715]]]}},{"type":"Feature","properties":{"cod_tema":"AREA_USO_RESTRITO_DECLIVIDADE_25_A_45","cod_imovel":"RJ-3301504-74D5C290CE694B04A7086A62F75C06BE","num_area":"8.0216000000000000000000000000000","ind_status":"AT"},"geometry":{"type":"Polygon","coordinates":[[[-42.3184,-22.0929],[-42.3144,-22.0878],[-42.318,-22.093],[-42.3184,-22.0929]]]}},{"type":"Feature","properties":{"cod_tema":"AREA_USO_RESTRITO_DECLIVIDADE_25_A_45","cod_imovel":"RJ-3301108-194D8A225F1448C6B64BAF1966AABED7","num_area":"2.5879000000000000000000000000000","ind_status":"AT"},"geometry":{"type":"Polygon","coordinates":[[[-42.3243,-21.9997],[-42.3213,-21.9979],[-42.324,-21.9993],[-42.3243,-21.9997]]]}},{"type":"Feature","properties":{"cod_tema":"AREA_USO_RESTRITO_DECLIVIDADE_25_A_45","cod_imovel":"RJ-3301504-9C5B61E1DCBE40BFBD2756DC5D8347A6","num_area":"20.270600000000000000000000000000","ind_status":"AT"},"geometry":{"type":"Polygon","coordinates":[[[-42.3303,-22.0041],[-42.3352,-22.0026],[-42.3242,-22.0004],[-42.3295,-22.0042],[-42.3303,-22.0041]]]}},{"type":"Feature","properties":{"cod_tema":"AREA_USO_RESTRITO_DECLIVIDADE_25_A_45","cod_imovel":"RJ-3301504-6C3FBE86A31949FC9E497C5A4FD7F92A","num_area":"19.522600000000000000000000000000","ind_status":"AT"},"geometry":{"type":"Polygon","coordinates":[[[-42.3828,-22.0079],[-42.3807,-22.0108],[-42.3865,-22.0057],[-42.3834,-22.0071],[-42.3828,-22.0079]],[[-42.387,-22.0106],[-42.3889,-22.007],[-42.3862,-22.0068],[-42.387,-22.0107],[-42.387,-22.0106]]]}},{"type":"Feature","properties":{"cod_tema":"AREA_USO_RESTRITO_DECLIVIDADE_25_A_45","cod_imovel":"RJ-3301504-B60AAD0E375047A19B31AC27389727F9","num_area":"5.2973000000000000000000000000000","ind_status":"AT"},"geometry":{"type":"Polygon","coordinates":[[[-42.3173,-22.1094],[-42.319,-22.1074],[-42.3173,-22.1093],[-42.3173,-22.1094]]]}},{"type":"Feature","properties":{"cod_tema":"AREA_USO_RESTRITO_DECLIVIDADE_25_A_45","cod_imovel":"RJ-3301504-D1F3542AA64C40AB98B17D7EAAB39AE4","num_area":"33.904500000000000000000000000000","ind_status":"AT"},"geometry":{"type":"Polygon","coordinates":[[[-42.3017,-22.0943],[-42.3025,-22.0967],[-42.3067,-22.0951],[-42.3043,-22.0928],[-42.3021,-22.0947],[-42.3021,-22.0921],[-42.3017,-22.0943]],[[-42.3002,-22.0968],[-42.3027,-22.0973],[-42.3002,-22.0966],[-42.3002,-22.0968]],[[-42.3076,-22.0868],[-42.3053,-22.0854],[-42.3067,-22.0901],[-42.3075,-22.0869],[-42.3076,-22.0868]]]}},{"type":"Feature","properties":{"cod_tema":"AREA_USO_RESTRITO_DECLIVIDADE_25_A_45","cod_imovel":"RJ-3301504-701E9DDE1FB04F3A87E9B64222E49441","num_area":"52.171300000000000000000000000000","ind_status":"AT"},"geometry":{"type":"Polygon","coordinates":[[[-42.3804,-22.0309],[-42.383,-22.033],[-42.3852,-22.0241],[-42.3805,-22.0264],[-42.3824,-22.0283],[-42.38,-22.0303],[-42.3804,-22.0309]],[[-42.3773,-22.0262],[-42.3714,-22.0272],[-42.3735,-22.0307],[-42.3764,-22.0276],[-42.3773,-22.0262]],[[-42.3707,-22.0288],[-42.3705,-22.0329],[-42.3759,-22.0303],[-42.3712,-22.0276],[-42.3707,-22.0288]]]}},{"type":"Feature","properties":{"cod_tema":"AREA_USO_RESTRITO_DECLIVIDADE_25_A_45","cod_imovel":"RJ-3301504-3412FF3C1D564CDB8D73C32628EEDDAC","num_area":"9.2538000000000000000000000000000","ind_status":"AT"},"geometry":{"type":"Polygon","coordinates":[[[-42.3566,-22.0629],[-42.3562,-22.0654],[-42.3604,-22.066],[-42.357,-22.0637],[-42.3566,-22.0629]]]}},{"type":"Feature","properties":{"cod_tema":"AREA_USO_RESTRITO_DECLIVIDADE_25_A_45","cod_imovel":"RJ-3301504-4E3BC1E042EA4538B26667ADBE8B833E","num_area":"22.641000000000000000000000000000","ind_status":"AT"},"geometry":{"type":"Polygon","coordinates":[[[-42.3323,-22.0116],[-42.3347,-22.013],[-42.3331,-22.0116],[-42.3323,-22.0116]],[[-42.3308,-22.0062],[-42.33,-22.0081],[-42.3337,-22.0063],[-42.3315,-22.0055],[-42.3308,-22.0062]],[[-42.3355,-22.0075],[-42.3289,-22.011],[-42.3354,-22.0089],[-42.3355,-22.0075]]]}},{"type":"Feature","properties":{"cod_tema":"AREA_USO_RESTRITO_DECLIVIDADE_25_A_45","cod_imovel":"RJ-3301504-566F07DFE0694671B48CE73504B8DF52","num_area":"5.5943000000000000000000000000000","ind_status":"AT"},"geometry":{"type":"Polygon","coordinates":[[[-42.3803,-22.0067],[-42.3843,-22.0046],[-42.3799,-22.0053],[-42.3803,-22.0067]]]}}]}