{"type":"FeatureCollection","features":[{"type":"Feature","properties":{"cod_tema":"AREA_USO_RESTRITO_DECLIVIDADE_25_A_45","cod_imovel":"RJ-3301603-187CAA41839B4F86AEB60D1CCF0B98B7","num_area":"15.950000000000000000000000000000","ind_status":"AT"},"geometry":{"type":"Polygon","coordinates":[[[-42.4042,-22.0976],[-42.3999,-22.0966],[-42.3986,-22.1008],[-42.4042,-22.0981],[-42.4042,-22.0976]]]}},{"type":"Feature","properties":{"cod_tema":"AREA_USO_RESTRITO_DECLIVIDADE_25_A_45","cod_imovel":"RJ-3301603-4B1A71FD150D49098EE3DA3A4BE08852","num_area":"3.2747000000000000000000000000000","ind_status":"AT"},"geometry":{"type":"Polygon","coordinates":[[[-42.5829,-22.11],[-42.5856,-22.111],[-42.5836,-22.1088],[-42.5829,-22.11]]]}},{"type":"Feature","properties":{"cod_tema":"AREA_USO_RESTRITO_DECLIVIDADE_25_A_45","cod_imovel":"RJ-3301603-00C7115310C94DB384FEEBBDE0DEBE78","num_area":"46.005500000000000000000000000000","ind_status":"PE"},"geometry":{"type":"Polygon","coordinates":[[[-42.4734,-21.9704],[-42.4765,-21.9718],[-42.4739,-21.9703],[-42.4734,-21.9704]],[[-42.4791,-21.9688],[-42.477,-21.9728],[-42.4792,-21.969],[-42.4791,-21.9688]],[[-42.487,-21.9711],[-42.4841,-21.9722],[-42.4876,-21.9709],[-42.487,-21.9711]],[[-42.4886,-21.9636],[-42.4911,-21.9637],[-42.4884,-21.9633],[-42.4886,-21.9636]],[[-42.4905,-21.9745],[-42.4888,-21.9716],[-42.4904,-21.9745],[-42.4905,-21.9745]],[[-42.4955,-21.9755],[-42.4958,-21.9778],[-42.4958,-21.9758],[-42.4955,-21.9755]],[[-42.4983,-21.9772],[-42.501,-21.9779],[-42.4987,-21.9772],[-42.4983,-21.9772]],[[-42.4993,-21.9669],[-42.5026,-21.968],[-42.4993,-21.9669],[-42.4993,-21.9669]],[[-42.4999,-21.9731],[-42.5023,-21.9742],[-42.5001,-21.9728],[-42.4999,-21.9731]],[[-42.5029,-21.9835],[-42.5052,-21.9829],[-42.5031,-21.9833],[-42.5029,-21.9835]],[[-42.5095,-21.9826],[-42.5057,-21.9811],[-42.5094,-21.9827],[-42.5095,-21.9826]]]}},{"type":"Feature","properties":{"cod_tema":"AREA_USO_RESTRITO_DECLIVIDADE_25_A_45","cod_imovel":"RJ-3301603-BFAE55F47B4F4F17915A441261C215EF","num_area":"41.962600000000000000000000000000","ind_status":"AT"},"geometry":{"type":"Polygon","coordinates":[[[-42.5181,-21.9894],[-42.5187,-21.9867],[-42.518,-21.989],[-42.5181,-21.9894]],[[-42.5143,-21.9812],[-42.5168,-21.9801],[-42.5144,-21.9807],[-42.5143,-21.9812]],[[-42.5137,-21.981],[-42.5151,-21.9783],[-42.5136,-21.9802],[-42.5137,-21.981]],[[-42.5197,-21.9782],[-42.5208,-21.9804],[-42.5204,-21.9782],[-42.5197,-21.9782]],[[-42.5218,-21.9859],[-42.5196,-21.9868],[-42.5227,-21.9852],[-42.5218,-21.9859]],[[-42.5204,-21.9851],[-42.5193,-21.9827],[-42.5198,-21.985],[-42.5204,-21.9851]],[[-42.5121,-21.988],[-42.5139,-21.9899],[-42.5121,-21.9872],[-42.5121,-21.988]],[[-42.5168,-21.9867],[-42.5154,-21.9893],[-42.5176,-21.9866],[-42.5168,-21.9867]],[[-42.5158,-21.9841],[-42.5144,-21.9858],[-42.5185,-21.9857],[-42.516,-21.9841],[-42.5158,-21.9841]],[[-42.511,-21.9868],[-42.5168,-21.9812],[-42.5133,-21.984],[-42.51,-21.982],[-42.5127,-21.9844],[-42.5109,-21.9869],[-42.511,-21.9868]]]}},{"type":"Feature","properties":{"cod_tema":"AREA_USO_RESTRITO_DECLIVIDADE_25_A_45","cod_imovel":"RJ-3301603-C488879914304B568175D23D9CB1A122","num_area":"2.6648000000000000000000000000000","ind_status":"PE"},"geometry":{"type":"Polygon","coordinates":[[[-42.5279,-21.9942],[-42.5261,-21.9929],[-42.5281,-21.9942],[-42.5279,-21.9942]]]}},{"type":"Feature","properties":{"cod_tema":"AREA_USO_RESTRITO_DECLIVIDADE_25_A_45","cod_imovel":"RJ-3301603-002634E3320A4A53AE5063162BF2A929","num_area":"7.8284000000000000000000000000000","ind_status":"PE"},"geometry":{"type":"Polygon","coordinates":[[[-42.5322,-22.0004],[-42.5354,-22.0018],[-42.5325,-22.0002],[-42.5322,-22.0004]]]}},{"type":"Feature","properties":{"cod_tema":"AREA_USO_RESTRITO_DECLIVIDADE_25_A_45","cod_imovel":"RJ-3301603-D2F9A526BE3049759EF18A01F393BE09","num_area":"11.940000000000000000000000000000","ind_status":"AT"},"geometry":{"type":"Polygon","coordinates":[[[-42.4997,-22.0572],[-42.4981,-22.0555],[-42.4995,-22.0569],[-42.4997,-22.0572]],[[-42.5027,-22.057],[-42.5008,-22.056],[-42.5027,-22.057],[-42.5027,-22.057]],[[-42.5041,-22.0556],[-42.5052,-22.0527],[-42.5036,-22.0548],[-42.5041,-22.0556]],[[-42.5023,-22.052],[-42.5037,-22.0565],[-42.5024,-22.0521],[-42.5023,-22.052]]]}},{"type":"Feature","properties":{"cod_tema":"AREA_USO_RESTRITO_DECLIVIDADE_25_A_45","cod_imovel":"RJ-3301603-33D7C82F55004772BA4562724EDF000A","num_area":"1.6155000000000000000000000000000","ind_status":"PE"},"geometry":{"type":"Polygon","coordinates":[[[-42.5369,-21.9948],[-42.5338,-21.9968],[-42.5372,-21.9949],[-42.5369,-21.9948]]]}},{"type":"Feature","properties":{"cod_tema":"AREA_USO_RESTRITO_DECLIVIDADE_25_A_45","cod_imovel":"RJ-3301603-CA53C580F7444281A0E867DEE65180B6","num_area":"3.7657000000000000000000000000000","ind_status":"AT"},"geometry":{"type":"Polygon","coordinates":[[[-42.5383,-22.017],[-42.5412,-22.0186],[-42.5386,-22.0167],[-42.5383,-22.017]]]}},{"type":"Feature","properties":{"cod_tema":"AREA_USO_RESTRITO_DECLIVIDADE_25_A_45","cod_imovel":"RJ-3301603-18E34EC0ED334E3E840D126671403AB8","num_area":"7.3365000000000000000000000000000","ind_status":"AT"},"geometry":{"type":"Polygon","coordinates":[[[-42.509,-21.9785],[-42.5067,-21.9783],[-42.5097,-21.9784],[-42.509,-21.9785]],[[-42.5073,-21.9808],[-42.5101,-21.9793],[-42.508,-21.9807],[-42.5073,-21.9808]]]}},{"type":"Feature","properties":{"cod_tema":"AREA_USO_RESTRITO_DECLIVIDADE_25_A_45","cod_imovel":"RJ-3301603-B9DA442F6C54403DB21684F3847429DD","num_area":"7.8026000000000000000000000000000","ind_status":"AT"},"geometry":{"type":"Polygon","coordinates":[[[-42.6048,-22.1338],[-42.6044,-22.1293],[-42.6016,-22.1331],[-42.6049,-22.1336],[-42.6048,-22.1338]]]}},{"type":"Feature","properties":{"cod_tema":"AREA_USO_RESTRITO_DECLIVIDADE_25_A_45","cod_imovel":"RJ-3301603-888EBCAE7CE340DFB1BC6AC8BEAC5E55","num_area":"30.104600000000000000000000000000","ind_status":"PE"},"geometry":{"type":"Polygon","coordinates":[[[-42.5251,-21.9918],[-42.5282,-21.9921],[-42.5155,-21.9903],[-42.5252,-21.9915],[-42.5251,-21.9918]],[[-42.5067,-21.9988],[-42.5085,-21.9973],[-42.5066,-21.9981],[-42.5067,-21.9988]],[[-42.5148,-21.992],[-42.5131,-21.9904],[-42.5148,-21.9921],[-42.5148,-21.992]],[[-42.5085,-21.9953],[-42.5107,-21.9915],[-42.5085,-21.9951],[-42.5085,-21.9953]]]}},{"type":"Feature","properties":{"cod_tema":"AREA_USO_RESTRITO_DECLIVIDADE_25_A_45","cod_imovel":"RJ-3301603-3267CB15C8054B8BA8A38324B7943B4A","num_area":"27.383000000000000000000000000000","ind_status":"PE"},"geometry":{"type":"Polygon","coordinates":[[[-42.4852,-21.9744],[-42.483,-21.9753],[-42.4853,-21.9741],[-42.4852,-21.9744]],[[-42.4827,-21.9778],[-42.4837,-21.9753],[-42.4828,-21.9776],[-42.4827,-21.9778]],[[-42.4941,-21.9752],[-42.4958,-21.9778],[-42.4945,-21.9753],[-42.4941,-21.9752]],[[-42.4883,-21.976],[-42.4908,-21.9786],[-42.4882,-21.9749],[-42.4883,-21.976]],[[-42.4873,-21.9792],[-42.4896,-21.9783],[-42.486,-21.9757],[-42.4871,-21.9788],[-42.4873,-21.9792]],[[-42.4868,-21.9741],[-42.488,-21.976],[-42.4868,-21.9742],[-42.4868,-21.9741]],[[-42.4873,-21.9792],[-42.4864,-21.9832],[-42.4873,-21.9792],[-42.4873,-21.9792]]]}},{"type":"Feature","properties":{"cod_tema":"AREA_USO_RESTRITO_DECLIVIDADE_25_A_45","cod_imovel":"RJ-3301603-D9CE66A9DF914EA69F3F01AD4DC21CE7","num_area":"25.976900000000000000000000000000","ind_status":"PE"},"geometry":{"type":"Polygon","coordinates":[[[-42.5253,-21.9975],[-42.5227,-21.996],[-42.525,-21.9974],[-42.5253,-21.9975]],[[-42.5338,-21.9968],[-42.5321,-21.9981],[-42.5337,-21.9968],[-42.5338,-21.9968]],[[-42.5229,-21.9952],[-42.5211,-21.9964],[-42.5233,-21.9952],[-42.5229,-21.9952]],[[-42.5193,-21.9967],[-42.5224,-21.9983],[-42.5191,-21.9961],[-42.5193,-21.9967]],[[-42.5331,-21.996],[-42.5294,-21.996],[-42.5332,-21.9959],[-42.5331,-21.996]],[[-42.5269,-21.9982],[-42.5236,-21.9977],[-42.5255,-22.0004],[-42.5242,-21.9981],[-42.527,-21.9978],[-42.5269,-21.9982]],[[-42.5305,-21.999],[-42.5289,-21.9966],[-42.5298,-21.9992],[-42.5305,-21.999]]]}},{"type":"Feature","properties":{"cod_tema":"AREA_USO_RESTRITO_DECLIVIDADE_25_A_45","cod_imovel":"RJ-3301603-562CE61599AB4CA6BCE37122D738A457","num_area":"1.0219000000000000000000000000000","ind_status":"PE"},"geometry":{"type":"Polygon","coordinates":[[[-42.5307,-21.9962],[-42.5329,-21.9953],[-42.5307,-21.9962],[-42.5307,-21.9962]]]}},{"type":"Feature","properties":{"cod_tema":"AREA_USO_RESTRITO_DECLIVIDADE_25_A_45","cod_imovel":"RJ-3301603-9DBD6C2767124A73B8AB0147BA9F44C6","num_area":"26.069900000000000000000000000000","ind_status":"CA"},"geometry":{"type":"Polygon","coordinates":[[[-42.4734,-21.9704],[-42.4765,-21.9718],[-42.4739,-21.9703],[-42.4734,-21.9704]],[[-42.4791,-21.9688],[-42.477,-21.9728],[-42.4792,-21.969],[-42.4791,-21.9688]],[[-42.487,-21.9711],[-42.4841,-21.9722],[-42.4876,-21.9709],[-42.487,-21.9711]],[[-42.4886,-21.9636],[-42.4911,-21.9637],[-42.4884,-21.9633],[-42.4886,-21.9636]],[[-42.4905,-21.9745],[-42.4888,-21.9716],[-42.4904,-21.9745],[-42.4905,-21.9745]]]}},{"type":"Feature","properties":{"cod_tema":"AREA_USO_RESTRITO_DECLIVIDADE_25_A_45","cod_imovel":"RJ-3301603-5C60D7EE6B3D4E0294A3BB301C1E4923","num_area":"8.2137000000000000000000000000000","ind_status":"CA"},"geometry":{"type":"Polygon","coordinates":[[[-42.5001,-21.9728],[-42.5023,-21.9742],[-42.5004,-21.9727],[-42.5001,-21.9728]]]}},{"type":"Feature","properties":{"cod_tema":"AREA_USO_RESTRITO_DECLIVIDADE_25_A_45","cod_imovel":"RJ-3301603-BEF48B23F4FE4871B01B2160B6A0650D","num_area":"4.0937000000000000000000000000000","ind_status":"CA"},"geometry":{"type":"Polygon","coordinates":[[[-42.4955,-21.9755],[-42.4958,-21.9778],[-42.4958,-21.9758],[-42.4955,-21.9755]],[[-42.4983,-21.9772],[-42.501,-21.9779],[-42.4987,-21.9772],[-42.4983,-21.9772]]]}},{"type":"Feature","properties":{"cod_tema":"AREA_USO_RESTRITO_DECLIVIDADE_25_A_45","cod_imovel":"RJ-3301603-A2743B786EE64A9098A02EE5A8FFA659","num_area":"33.427500000000000000000000000000","ind_status":"AT"},"geometry":{"type":"Polygon","coordinates":[[[-42.4996,-22.121],[-42.502,-22.1272],[-42.504,-22.1212],[-42.4996,-22.121],[-42.4996,-22.121]],[[-42.5037,-22.1178],[-42.5001,-22.1118],[-42.5033,-22.1178],[-42.5037,-22.1178]]]}},{"type":"Feature","properties":{"cod_tema":"AREA_USO_RESTRITO_DECLIVIDADE_25_A_45","cod_imovel":"RJ-3301603-8D192CE4E3B74865BAAB8C137DD1D375","num_area":"2.2956000000000000000000000000000","ind_status":"AT"},"geometry":{"type":"Polygon","coordinates":[[[-42.5149,-22.1142],[-42.5123,-22.1132],[-42.5149,-22.1142],[-42.5149,-22.1142]]]}},{"type":"Feature","properties":{"cod_tema":"AREA_USO_RESTRITO_DECLIVIDADE_25_A_45","cod_imovel":"RJ-3301108-184D7DBC9F404174B84D9272DAE2DA07","num_area":"48.127500000000000000000000000000","ind_status":"AT"},"geometry":{"type":"Polygon","coordinates":[[[-42.4668,-21.9771],[-42.4673,-21.9711],[-42.4717,-21.9721],[-42.4728,-21.9685],[-42.4663,-21.9683],[-42.4623,-21.9749],[-42.4651,-21.9767],[-42.4668,-21.9771]]]}},{"type":"Feature","properties":{"cod_tema":"AREA_USO_RESTRITO_DECLIVIDADE_25_A_45","cod_imovel":"RJ-3301603-7D8AE4705E094A9EB02B78DFEC44ABD3","num_area":"7.0751000000000000000000000000000","ind_status":"AT"},"geometry":{"type":"Polygon","coordinates":[[[-42.5512,-21.9542],[-42.5529,-21.9569],[-42.5528,-21.9541],[-42.5512,-21.9542]]]}},{"type":"Feature","properties":{"cod_tema":"AREA_USO_RESTRITO_DECLIVIDADE_25_A_45","cod_imovel":"RJ-3301603-06F29CBE52FE477B87576CC97BF7F67C","num_area":"9.7757000000000000000000000000000","ind_status":"AT"},"geometry":{"type":"Polygon","coordinates":[[[-42.5535,-21.9579],[-42.55,-21.9562],[-42.5503,-21.9591],[-42.5534,-21.958],[-42.5535,-21.9579]]]}},{"type":"Feature","properties":{"cod_tema":"AREA_USO_RESTRITO_DECLIVIDADE_25_A_45","cod_imovel":"RJ-3301603-2A26B014F3E142819EA147D84C558B62","num_area":"4.3978000000000000000000000000000","ind_status":"AT"},"geometry":{"type":"Polygon","coordinates":[[[-42.5475,-21.9575],[-42.5503,-21.9591],[-42.5478,-21.9574],[-42.5475,-21.9575]]]}},{"type":"Feature","properties":{"cod_tema":"AREA_USO_RESTRITO_DECLIVIDADE_25_A_45","cod_imovel":"RJ-3301603-B646246CF49F4A15A7888290134CF6AD","num_area":"12.979700000000000000000000000000","ind_status":"AT"},"geometry":{"type":"Polygon","coordinates":[[[-42.5453,-21.962],[-42.5474,-21.9636],[-42.5478,-21.9596],[-42.5442,-21.9601],[-42.5454,-21.9619],[-42.5453,-21.962]]]}},{"type":"Feature","properties":{"cod_tema":"AREA_USO_RESTRITO_DECLIVIDADE_25_A_45","cod_imovel":"RJ-3301603-4B559D23140245789D26D57B0F1130AF","num_area":"13.502600000000000000000000000000","ind_status":"AT"},"geometry":{"type":"Polygon","coordinates":[[[-42.4599,-22.0255],[-42.4586,-22.0285],[-42.4609,-22.0267],[-42.4599,-22.0255]],[[-42.459,-22.0184],[-42.4629,-22.0253],[-42.4588,-22.0187],[-42.459,-22.0184]]]}},{"type":"Feature","properties":{"cod_tema":"AREA_USO_RESTRITO_DECLIVIDADE_25_A_45","cod_imovel":"RJ-3301603-97B9DBB9410C4900BB212FC19F733F23","num_area":"16.399100000000000000000000000000","ind_status":"AT"},"geometry":{"type":"Polygon","coordinates":[[[-42.5701,-22.1048],[-42.5782,-22.1105],[-42.5835,-22.1088],[-42.5703,-22.1046],[-42.5701,-22.1048]]]}},{"type":"Feature","properties":{"cod_tema":"AREA_USO_RESTRITO_DECLIVIDADE_25_A_45","cod_imovel":"RJ-3301603-6C39E6735FA74120AB5ACBFF7F471E4F","num_area":"25.309800000000000000000000000000","ind_status":"AT"},"geometry":{"type":"Polygon","coordinates":[[[-42.5396,-22.1231],[-42.5421,-22.1235],[-42.5396,-22.1229],[-42.5396,-22.1231]],[[-42.5385,-22.1196],[-42.5378,-22.1217],[-42.5447,-22.1206],[-42.5386,-22.1196],[-42.5385,-22.1196]],[[-42.5402,-22.1157],[-42.5393,-22.1178],[-42.5456,-22.1193],[-42.5408,-22.1155],[-42.5402,-22.1157]]]}},{"type":"Feature","properties":{"cod_tema":"AREA_USO_RESTRITO_DECLIVIDADE_25_A_45","cod_imovel":"RJ-3301603-E3FDA3EA418E40D19411BF2547AB53B0","num_area":"69.461600000000000000000000000000","ind_status":"AT"},"geometry":{"type":"Polygon","coordinates":[[[-42.5385,-22.1141],[-42.5317,-22.1177],[-42.5384,-22.1181],[-42.5408,-22.1151],[-42.5385,-22.1049],[-42.5362,-22.105],[-42.5336,-22.1088],[-42.5385,-22.1141],[-42.5385,-22.1141]],[[-42.538,-22.1199],[-42.5327,-22.1224],[-42.538,-22.1203],[-42.538,-22.1199]],[[-42.5354,-22.1158],[-42.5338,-22.1135],[-42.5352,-22.1156],[-42.5354,-22.1158]]]}},{"type":"Feature","properties":{"cod_tema":"AREA_USO_RESTRITO_DECLIVIDADE_25_A_45","cod_imovel":"RJ-3301603-EE2F5980C1774389B167584D62BB640F","num_area":"228.96370000000000000000000000000","ind_status":"AT"},"geometry":{"type":"Polygon","coordinates":[[[-42.5294,-22.1033],[-42.514,-22.0979],[-42.5103,-22.0999],[-42.5135,-22.105],[-42.5051,-22.1028],[-42.5031,-22.1085],[-42.5067,-22.1099],[-42.5043,-22.1085],[-42.5075,-22.1065],[-42.5059,-22.1041],[-42.5192,-22.1055],[-42.5135,-22.1008],[-42.5199,-22.101],[-42.5278,-22.1073],[-42.5294,-22.1033],[-42.5294,-22.1033]],[[-42.5302,-22.117],[-42.5236,-22.1089],[-42.5069,-22.1051],[-42.5071,-22.1105],[-42.5229,-22.1128],[-42.5287,-22.1165],[-42.5227,-22.1168],[-42.5268,-22.1188],[-42.5302,-22.117],[-42.5302,-22.117]],[[-42.5113,-22.1109],[-42.5099,-22.1092],[-42.5113,-22.1109],[-42.5113,-22.1109]],[[-42.5115,-22.1081],[-42.5091,-22.1077],[-42.5113,-22.1078],[-42.5115,-22.1081]],[[-42.5154,-22.1127],[-42.5246,-22.1148],[-42.5154,-22.1126],[-42.5154,-22.1127]]]}},{"type":"Feature","properties":{"cod_tema":"AREA_USO_RESTRITO_DECLIVIDADE_25_A_45","cod_imovel":"RJ-3301603-4DE1D5F2AA7B4176A0FC35BD90E21664","num_area":"35.571300000000000000000000000000","ind_status":"AT"},"geometry":{"type":"Polygon","coordinates":[[[-42.5218,-22.1195],[-42.519,-22.1174],[-42.5187,-22.1224],[-42.5286,-22.1212],[-42.5218,-22.1195],[-42.5218,-22.1195]]]}},{"type":"Feature","properties":{"cod_tema":"AREA_USO_RESTRITO_DECLIVIDADE_25_A_45","cod_imovel":"RJ-3301603-F00AEDCCC6674EE3988D98ED41967576","num_area":"3.8312000000000000000000000000000","ind_status":"AT"},"geometry":{"type":"Polygon","coordinates":[[[-42.5202,-22.0754],[-42.5232,-22.0744],[-42.5205,-22.0753],[-42.5202,-22.0754]]]}},{"type":"Feature","properties":{"cod_tema":"AREA_USO_RESTRITO_DECLIVIDADE_25_A_45","cod_imovel":"RJ-3301603-89AEE2532A664886A651589A8442B409","num_area":"3.2311000000000000000000000000000","ind_status":"AT"},"geometry":{"type":"Polygon","coordinates":[[[-42.5442,-21.9495],[-42.5417,-21.9489],[-42.5442,-21.9496],[-42.5442,-21.9495]]]}},{"type":"Feature","properties":{"cod_tema":"AREA_USO_RESTRITO_DECLIVIDADE_25_A_45","cod_imovel":"RJ-3301603-E177A37597044E8A80178789945CAED4","num_area":"8.8779000000000000000000000000000","ind_status":"AT"},"geometry":{"type":"Polygon","coordinates":[[[-42.5821,-22.1106],[-42.5795,-22.1109],[-42.5801,-22.114],[-42.5822,-22.1108],[-42.5821,-22.1106]]]}},{"type":"Feature","properties":{"cod_tema":"AREA_USO_RESTRITO_DECLIVIDADE_25_A_45","cod_imovel":"RJ-3301603-00DFB6091DDD497F8015CF49D6D71BE1","num_area":"22.269300000000000000000000000000","ind_status":"AT"},"geometry":{"type":"Polygon","coordinates":[[[-42.5695,-22.1604],[-42.5654,-22.1552],[-42.5623,-22.1563],[-42.5657,-22.1584],[-42.5625,-22.1597],[-42.5695,-22.1604],[-42.5695,-22.1604]]]}},{"type":"Feature","properties":{"cod_tema":"AREA_USO_RESTRITO_DECLIVIDADE_25_A_45","cod_imovel":"RJ-3301603-034515EA50594D6588F3CDEB6D509230","num_area":"10.707900000000000000000000000000","ind_status":"AT"},"geometry":{"type":"Polygon","coordinates":[[[-42.5298,-22.0315],[-42.5381,-22.0297],[-42.5302,-22.0312],[-42.5298,-22.0315]]]}},{"type":"Feature","properties":{"cod_tema":"AREA_USO_RESTRITO_DECLIVIDADE_25_A_45","cod_imovel":"RJ-3301603-03DF4BF427DD448EA481E8E28BD89ED2","num_area":"2.6119000000000000000000000000000","ind_status":"AT"},"geometry":{"type":"Polygon","coordinates":[[[-42.5073,-22.1488],[-42.5093,-22.1479],[-42.5073,-22.1487],[-42.5073,-22.1488]]]}},{"type":"Feature","properties":{"cod_tema":"AREA_USO_RESTRITO_DECLIVIDADE_25_A_45","cod_imovel":"RJ-3301603-269D16A680B148178C727E31ABEAD1B3","num_area":"4.6146000000000000000000000000000","ind_status":"AT"},"geometry":{"type":"Polygon","coordinates":[[[-42.5236,-21.9148],[-42.5236,-21.9176],[-42.5247,-21.9151],[-42.5236,-21.9148]]]}},{"type":"Feature","properties":{"cod_tema":"AREA_USO_RESTRITO_DECLIVIDADE_25_A_45","cod_imovel":"RJ-3301603-331D54B6F4614DA9B9243A776FA2204C","num_area":"51.949700000000000000000000000000","ind_status":"AT"},"geometry":{"type":"Polygon","coordinates":[[[-42.4769,-22.0651],[-42.4836,-22.0632],[-42.4836,-22.0605],[-42.4815,-22.0633],[-42.4788,-22.0603],[-42.4772,-22.0647],[-42.4769,-22.0651]],[[-42.4757,-22.0607],[-42.4746,-22.0657],[-42.4782,-22.0579],[-42.476,-22.0603],[-42.4757,-22.0607]],[[-42.4864,-22.0594],[-42.4842,-22.057],[-42.4863,-22.0594],[-42.4864,-22.0594]],[[-42.4863,-22.0594],[-42.4782,-22.0561],[-42.4862,-22.0595],[-42.4863,-22.0594]]]}},{"type":"Feature","properties":{"cod_tema":"AREA_USO_RESTRITO_DECLIVIDADE_25_A_45","cod_imovel":"RJ-3301603-368A270C12694E0582F96055617A4AC8","num_area":"3.1786000000000000000000000000000","ind_status":"AT"},"geometry":{"type":"Polygon","coordinates":[[[-42.5224,-22.0584],[-42.5196,-22.0573],[-42.5223,-22.0585],[-42.5224,-22.0584]]]}},{"type":"Feature","properties":{"cod_tema":"AREA_USO_RESTRITO_DECLIVIDADE_25_A_45","cod_imovel":"RJ-3301603-39C951D886894BB79EBF9A8869D6EDD6","num_area":"1.0985000000000000000000000000000","ind_status":"AT"},"geometry":{"type":"Polygon","coordinates":[[[-42.5542,-22.1138],[-42.5521,-22.1125],[-42.5538,-22.1138],[-42.5542,-22.1138]]]}},{"type":"Feature","properties":{"cod_tema":"AREA_USO_RESTRITO_DECLIVIDADE_25_A_45","cod_imovel":"RJ-3301603-4181ED0AF86144E28118F08EB1316058","num_area":"24.140700000000000000000000000000","ind_status":"AT"},"geometry":{"type":"Polygon","coordinates":[[[-42.5297,-22.0316],[-42.5286,-22.0294],[-42.5293,-22.0313],[-42.5297,-22.0316]],[[-42.5313,-22.0255],[-42.5347,-22.0218],[-42.5312,-22.0254],[-42.5313,-22.0255]],[[-42.5325,-22.021],[-42.5298,-22.0212],[-42.5348,-22.0214],[-42.5326,-22.0208],[-42.5325,-22.021]],[[-42.528,-22.0254],[-42.5332,-22.0274],[-42.5281,-22.0248],[-42.528,-22.0254]]]}},{"type":"Feature","properties":{"cod_tema":"AREA_USO_RESTRITO_DECLIVIDADE_25_A_45","cod_imovel":"RJ-3301603-44C431384C73493DA14134A39556CD80","num_area":"13.915300000000000000000000000000","ind_status":"AT"},"geometry":{"type":"Polygon","coordinates":[[[-42.3942,-22.0872],[-42.3946,-22.0896],[-42.3943,-22.0873],[-42.3942,-22.0872]],[[-42.3982,-22.0903],[-42.3952,-22.0896],[-42.3982,-22.0904],[-42.3982,-22.0903]],[[-42.389,-22.09],[-42.3917,-22.093],[-42.3939,-22.0911],[-42.3891,-22.0898],[-42.389,-22.09]]]}},{"type":"Feature","properties":{"cod_tema":"AREA_USO_RESTRITO_DECLIVIDADE_25_A_45","cod_imovel":"RJ-3301603-4FFD0E405179400691E5D6E7FDC4C056","num_area":"22.745300000000000000000000000000","ind_status":"AT"},"geometry":{"type":"Polygon","coordinates":[[[-42.5098,-21.9352],[-42.5071,-21.9355],[-42.5098,-21.9354],[-42.5098,-21.9352]],[[-42.5127,-21.935],[-42.5109,-21.9365],[-42.5127,-21.9352],[-42.5127,-21.935]],[[-42.5155,-21.9284],[-42.5178,-21.9301],[-42.5157,-21.9284],[-42.5155,-21.9284]],[[-42.5185,-21.9364],[-42.5197,-21.9332],[-42.5185,-21.936],[-42.5185,-21.9364]],[[-42.5146,-21.9273],[-42.5126,-21.9314],[-42.5146,-21.9273],[-42.5146,-21.9273]],[[-42.5111,-21.9296],[-42.5079,-21.935],[-42.5111,-21.9298],[-42.5111,-21.9296]]]}},{"type":"Feature","properties":{"cod_tema":"AREA_USO_RESTRITO_DECLIVIDADE_25_A_45","cod_imovel":"RJ-3301603-53E9EF60AC4F41A88A70C0E34B1979CB","num_area":"10.215300000000000000000000000000","ind_status":"AT"},"geometry":{"type":"Polygon","coordinates":[[[-42.5402,-22.1103],[-42.5441,-22.1088],[-42.5402,-22.1102],[-42.5402,-22.1103]]]}},{"type":"Feature","properties":{"cod_tema":"AREA_USO_RESTRITO_DECLIVIDADE_25_A_45","cod_imovel":"RJ-3301603-5EB9E04963DF49148F10D4525A4A5B47","num_area":"8.2374000000000000000000000000000","ind_status":"AT"},"geometry":{"type":"Polygon","coordinates":[[[-42.4742,-22.1055],[-42.4729,-22.1075],[-42.477,-22.1075],[-42.4743,-22.1055],[-42.4742,-22.1055]]]}},{"type":"Feature","properties":{"cod_tema":"AREA_USO_RESTRITO_DECLIVIDADE_25_A_45","cod_imovel":"RJ-3301603-637B873E7DF94203AFEB42C4A6DF9EB4","num_area":"3.0222000000000000000000000000000","ind_status":"AT"},"geometry":{"type":"Polygon","coordinates":[[[-42.5305,-22.1408],[-42.5333,-22.1398],[-42.5305,-22.1406],[-42.5305,-22.1408]]]}},{"type":"Feature","properties":{"cod_tema":"AREA_USO_RESTRITO_DECLIVIDADE_25_A_45","cod_imovel":"RJ-3301603-6A0978BFFC4C4B479E95C1E0F1DED5EB","num_area":"7.7039000000000000000000000000000","ind_status":"AT"},"geometry":{"type":"Polygon","coordinates":[[[-42.5373,-22.1301],[-42.5409,-22.1302],[-42.5369,-22.1298],[-42.5373,-22.1301]]]}},{"type":"Feature","properties":{"cod_tema":"AREA_USO_RESTRITO_DECLIVIDADE_25_A_45","cod_imovel":"RJ-3301603-66E5E0363F254B50AA54CCC093DBC086","num_area":"4.5330000000000000000000000000000","ind_status":"AT"},"geometry":{"type":"Polygon","coordinates":[[[-42.5079,-21.914],[-42.5103,-21.912],[-42.5079,-21.914],[-42.5079,-21.914]]]}},{"type":"Feature","properties":{"cod_tema":"AREA_USO_RESTRITO_DECLIVIDADE_25_A_45","cod_imovel":"RJ-3301603-723B1600A9B5496C8237E836FF50E9ED","num_area":"10.893000000000000000000000000000","ind_status":"AT"},"geometry":{"type":"Polygon","coordinates":[[[-42.4517,-22.1133],[-42.4542,-22.1158],[-42.452,-22.1129],[-42.4517,-22.1133]],[[-42.4561,-22.1099],[-42.4545,-22.1069],[-42.4571,-22.1148],[-42.4557,-22.1102],[-42.4561,-22.1099]]]}},{"type":"Feature","properties":{"cod_tema":"AREA_USO_RESTRITO_DECLIVIDADE_25_A_45","cod_imovel":"RJ-3301603-8011B6A9DCD44C169F1567B1993131DB","num_area":"11.890800000000000000000000000000","ind_status":"AT"},"geometry":{"type":"Polygon","coordinates":[[[-42.4209,-22.0661],[-42.4187,-22.0698],[-42.4214,-22.0668],[-42.4209,-22.0661]],[[-42.4185,-22.0543],[-42.4088,-22.0575],[-42.4179,-22.0551],[-42.4185,-22.0543]]]}},{"type":"Feature","properties":{"cod_tema":"AREA_USO_RESTRITO_DECLIVIDADE_25_A_45","cod_imovel":"RJ-3301603-858A3218F1C34BB98CD9CD3690C841E4","num_area":"22.643300000000000000000000000000","ind_status":"AT"},"geometry":{"type":"Polygon","coordinates":[[[-42.5754,-22.1198],[-42.574,-22.1229],[-42.5776,-22.1221],[-42.5754,-22.1198],[-42.5794,-22.1211],[-42.5754,-22.1198],[-42.5754,-22.1198]],[[-42.5814,-22.1188],[-42.5823,-22.116],[-42.5791,-22.1197],[-42.5816,-22.1189],[-42.5814,-22.1188]],[[-42.5831,-22.1258],[-42.5847,-22.1236],[-42.5831,-22.1251],[-42.5831,-22.1258]]]}},{"type":"Feature","properties":{"cod_tema":"AREA_USO_RESTRITO_DECLIVIDADE_25_A_45","cod_imovel":"RJ-3301603-88620F64660747509CD42D93511B4F45","num_area":"3.7681000000000000000000000000000","ind_status":"AT"},"geometry":{"type":"Polygon","coordinates":[[[-42.4166,-22.0986],[-42.4192,-22.1003],[-42.4171,-22.0979],[-42.4166,-22.0986]]]}},{"type":"Feature","properties":{"cod_tema":"AREA_USO_RESTRITO_DECLIVIDADE_25_A_45","cod_imovel":"RJ-3301603-89F43379827146B4973EF66B513E45A4","num_area":"8.9514000000000000000000000000000","ind_status":"AT"},"geometry":{"type":"Polygon","coordinates":[[[-42.5125,-22.0066],[-42.5151,-22.0055],[-42.5125,-22.0058],[-42.5125,-22.0066]],[[-42.511,-22.0115],[-42.5122,-22.0096],[-42.5109,-22.0115],[-42.511,-22.0115]],[[-42.5158,-22.0096],[-42.518,-22.0086],[-42.5157,-22.0096],[-42.5158,-22.0096]],[[-42.5179,-22.0087],[-42.516,-22.0112],[-42.5178,-22.0088],[-42.5179,-22.0087]]]}},{"type":"Feature","properties":{"cod_tema":"AREA_USO_RESTRITO_DECLIVIDADE_25_A_45","cod_imovel":"RJ-3301603-8F1312595A62496EB4FCE8B26DB9D860","num_area":"85.184100000000000000000000000000","ind_status":"AT"},"geometry":{"type":"Polygon","coordinates":[[[-42.4746,-21.983],[-42.4715,-21.9824],[-42.4861,-21.9879],[-42.4842,-21.9839],[-42.4789,-21.9836],[-42.48,-21.9787],[-42.4757,-21.9774],[-42.4797,-21.9818],[-42.4743,-21.9837],[-42.4746,-21.983]],[[-42.4838,-21.9865],[-42.4778,-21.9838],[-42.4856,-21.9865],[-42.4838,-21.9865]],[[-42.4767,-21.9922],[-42.4809,-21.9913],[-42.4769,-21.9916],[-42.4767,-21.9922]],[[-42.4722,-21.9763],[-42.4679,-21.9778],[-42.4677,-21.9809],[-42.4772,-21.9763],[-42.4823,-21.9777],[-42.4801,-21.9748],[-42.4724,-21.9763],[-42.4722,-21.9763]]]}},{"type":"Feature","properties":{"cod_tema":"AREA_USO_RESTRITO_DECLIVIDADE_25_A_45","cod_imovel":"RJ-3301603-997D4A603BC64FD58655899EC570601E","num_area":"1.8980000000000000000000000000000","ind_status":"AT"},"geometry":{"type":"Polygon","coordinates":[[[-42.5251,-22.1553],[-42.5252,-22.153],[-42.525,-22.1551],[-42.5251,-22.1553]]]}},{"type":"Feature","properties":{"cod_tema":"AREA_USO_RESTRITO_DECLIVIDADE_25_A_45","cod_imovel":"RJ-3301603-A2FB60329FC945A8AA94584C169622C6","num_area":"5.3310000000000000000000000000000","ind_status":"AT"},"geometry":{"type":"Polygon","coordinates":[[[-42.5255,-21.9183],[-42.5287,-21.9173],[-42.5254,-21.9182],[-42.5255,-21.9183]]]}},{"type":"Feature","properties":{"cod_tema":"AREA_USO_RESTRITO_DECLIVIDADE_25_A_45","cod_imovel":"RJ-3301603-C329F346521340C98A6FA23FC90436EA","num_area":"10.463800000000000000000000000000","ind_status":"AT"},"geometry":{"type":"Polygon","coordinates":[[[-42.5407,-22.131],[-42.5477,-22.1328],[-42.541,-22.1305],[-42.5407,-22.131]],[[-42.5467,-22.1316],[-42.5482,-22.1294],[-42.5463,-22.1317],[-42.5467,-22.1316]],[[-42.5491,-22.1266],[-42.547,-22.1277],[-42.5492,-22.1267],[-42.5491,-22.1266]]]}},{"type":"Feature","properties":{"cod_tema":"AREA_USO_RESTRITO_DECLIVIDADE_25_A_45","cod_imovel":"RJ-3301603-F6D74E6B604C40E3A3F2A373693A9899","num_area":"6.9874000000000000000000000000000","ind_status":"AT"},"geometry":{"type":"Polygon","coordinates":[[[-42.5347,-21.9278],[-42.5341,-21.931],[-42.5347,-21.928],[-42.5347,-21.9278]],[[-42.5302,-21.9293],[-42.5309,-21.9261],[-42.5292,-21.929],[-42.5302,-21.9293]]]}},{"type":"Feature","properties":{"cod_tema":"AREA_USO_RESTRITO_DECLIVIDADE_25_A_45","cod_imovel":"RJ-3301603-FA2F882101D742C58919584EDB5BA441","num_area":"4.1804000000000000000000000000000","ind_status":"AT"},"geometry":{"type":"Polygon","coordinates":[[[-42.5865,-22.0779],[-42.5827,-22.0782],[-42.5861,-22.0778],[-42.5865,-22.0779]]]}}]}