{"type":"FeatureCollection","features":[{"type":"Feature","properties":{"cod_tema":"AREA_USO_RESTRITO_DECLIVIDADE_25_A_45","cod_imovel":"RJ-3301801-018B01957E174C0683ADE96DD1B97B91","num_area":"10.125600000000000000000000000000","ind_status":"AT"},"geometry":{"type":"Polygon","coordinates":[[[-43.6914,-22.4964],[-43.6919,-22.4924],[-43.6892,-22.4953],[-43.6914,-22.4962],[-43.6914,-22.4964]],[[-43.6873,-22.4984],[-43.6909,-22.4975],[-43.6871,-22.4983],[-43.6873,-22.4984]]]}},{"type":"Feature","properties":{"cod_tema":"AREA_USO_RESTRITO_DECLIVIDADE_25_A_45","cod_imovel":"RJ-3301801-9E8D203953A24FF88B523E24AA51674A","num_area":"11.551100000000000000000000000000","ind_status":"AT"},"geometry":{"type":"Polygon","coordinates":[[[-43.5687,-22.4949],[-43.5675,-22.5019],[-43.5687,-22.4949],[-43.5687,-22.4949]]]}},{"type":"Feature","properties":{"cod_tema":"AREA_USO_RESTRITO_DECLIVIDADE_25_A_45","cod_imovel":"RJ-3301801-E9688363F5674E0EBCA35A109997C1BE","num_area":"21.582400000000000000000000000000","ind_status":"AT"},"geometry":{"type":"Polygon","coordinates":[[[-43.5672,-22.4974],[-43.5673,-22.4951],[-43.5665,-22.4976],[-43.5672,-22.4974]],[[-43.5625,-22.5014],[-43.5666,-22.4997],[-43.5625,-22.5014],[-43.5625,-22.5014]],[[-43.5603,-22.5001],[-43.5672,-22.4936],[-43.561,-22.4987],[-43.5603,-22.5001]]]}},{"type":"Feature","properties":{"cod_tema":"AREA_USO_RESTRITO_DECLIVIDADE_25_A_45","cod_imovel":"RJ-3301801-709760A40F8A452282E5353132DE20C6","num_area":"4.5925000000000000000000000000000","ind_status":"AT"},"geometry":{"type":"Polygon","coordinates":[[[-43.6206,-22.483],[-43.618,-22.4811],[-43.6192,-22.4844],[-43.6214,-22.4834],[-43.6206,-22.483]]]}},{"type":"Feature","properties":{"cod_tema":"AREA_USO_RESTRITO_DECLIVIDADE_25_A_45","cod_imovel":"RJ-3301801-B899D2D30D7E432391A711A493C373D8","num_area":"3.9004000000000000000000000000000","ind_status":"AT"},"geometry":{"type":"Polygon","coordinates":[[[-43.6587,-22.4985],[-43.6604,-22.4956],[-43.6587,-22.4985],[-43.6587,-22.4985]],[[-43.659,-22.4956],[-43.6551,-22.4993],[-43.659,-22.4956],[-43.659,-22.4956]]]}},{"type":"Feature","properties":{"cod_tema":"AREA_USO_RESTRITO_DECLIVIDADE_25_A_45","cod_imovel":"RJ-3301801-13A858D35DCE4AA18B54EF6146F012AE","num_area":"3.3600000000000000000000000000000","ind_status":"AT"},"geometry":{"type":"Polygon","coordinates":[[[-43.6886,-22.5348],[-43.6921,-22.5341],[-43.6888,-22.5348],[-43.6886,-22.5348]]]}},{"type":"Feature","properties":{"cod_tema":"AREA_USO_RESTRITO_DECLIVIDADE_25_A_45","cod_imovel":"RJ-3301801-F69950A2F5AD4F78BC68CC04316777EC","num_area":"8.6039000000000000000000000000000","ind_status":"PE"},"geometry":{"type":"Polygon","coordinates":[[[-43.6596,-22.4863],[-43.6604,-22.4836],[-43.6594,-22.4864],[-43.6596,-22.4863]],[[-43.6539,-22.4838],[-43.656,-22.4836],[-43.6539,-22.4838],[-43.6539,-22.4838]],[[-43.6564,-22.4815],[-43.6565,-22.4849],[-43.6565,-22.4815],[-43.6564,-22.4815]]]}},{"type":"Feature","properties":{"cod_tema":"AREA_USO_RESTRITO_DECLIVIDADE_25_A_45","cod_imovel":"RJ-3301801-2C76E8BF6F3348ED9FA9049C1B907192","num_area":"11.648400000000000000000000000000","ind_status":"AT"},"geometry":{"type":"Polygon","coordinates":[[[-43.6746,-22.5138],[-43.6778,-22.5175],[-43.6797,-22.5156],[-43.6746,-22.5138]]]}},{"type":"Feature","properties":{"cod_tema":"AREA_USO_RESTRITO_DECLIVIDADE_25_A_45","cod_imovel":"RJ-3301801-7EAA95DEB9E743D384237E0695AEDC56","num_area":"11.728100000000000000000000000000","ind_status":"AT"},"geometry":{"type":"Polygon","coordinates":[[[-43.6217,-22.5293],[-43.6159,-22.5321],[-43.6211,-22.5297],[-43.6217,-22.5293]],[[-43.6163,-22.5301],[-43.6182,-22.5284],[-43.6165,-22.5302],[-43.6163,-22.5301]],[[-43.6189,-22.5281],[-43.6224,-22.5278],[-43.6189,-22.5282],[-43.6189,-22.5281]]]}},{"type":"Feature","properties":{"cod_tema":"AREA_USO_RESTRITO_DECLIVIDADE_25_A_45","cod_imovel":"RJ-3301801-AE7777204F5F4CAC9F78DB23CAB6138B","num_area":"3.3138000000000000000000000000000","ind_status":"AT"},"geometry":{"type":"Polygon","coordinates":[[[-43.6043,-22.4887],[-43.6011,-22.4903],[-43.6042,-22.4901],[-43.6043,-22.4887]]]}},{"type":"Feature","properties":{"cod_tema":"AREA_USO_RESTRITO_DECLIVIDADE_25_A_45","cod_imovel":"RJ-3301801-70E1D00D82C5467F8325CB7443684A2B","num_area":"2.1012000000000000000000000000000","ind_status":"AT"},"geometry":{"type":"Polygon","coordinates":[[[-43.5711,-22.4846],[-43.5711,-22.4824],[-43.5709,-22.4847],[-43.5711,-22.4846]]]}},{"type":"Feature","properties":{"cod_tema":"AREA_USO_RESTRITO_DECLIVIDADE_25_A_45","cod_imovel":"RJ-3301801-52AFC5C4A94B45E5BADCFBA4B5EF5B08","num_area":"2.5246000000000000000000000000000","ind_status":"AT"},"geometry":{"type":"Polygon","coordinates":[[[-43.6339,-22.495],[-43.6367,-22.4947],[-43.634,-22.4949],[-43.6339,-22.495]]]}},{"type":"Feature","properties":{"cod_tema":"AREA_USO_RESTRITO_DECLIVIDADE_25_A_45","cod_imovel":"RJ-3301801-E07E2ECEB1EF48F2AC5773C082B17A8E","num_area":"5.6354000000000000000000000000000","ind_status":"AT"},"geometry":{"type":"Polygon","coordinates":[[[-43.6679,-22.5242],[-43.6656,-22.5254],[-43.6683,-22.5244],[-43.6679,-22.5242]]]}}]}