{"type":"FeatureCollection","features":[{"type":"Feature","properties":{"cod_tema":"AREA_USO_RESTRITO_DECLIVIDADE_25_A_45","cod_imovel":"RJ-3301850-ED9603BDF8944BBD85127A8F8B1216FF","num_area":"80.167900000000000000000000000000","ind_status":"PE"},"geometry":{"type":"Polygon","coordinates":[[[-42.9692,-22.4793],[-42.9741,-22.4796],[-42.9707,-22.475],[-42.9758,-22.4735],[-42.9742,-22.4718],[-42.9648,-22.475],[-42.966,-22.4822],[-42.9689,-22.483],[-42.967,-22.4853],[-42.9714,-22.4819],[-42.9692,-22.4793],[-42.9692,-22.4793]],[[-42.9688,-22.474],[-42.9698,-22.4762],[-42.9689,-22.4744],[-42.9688,-22.474]],[[-42.9701,-22.4755],[-42.9736,-22.4788],[-42.9705,-22.4763],[-42.9701,-22.4755]],[[-42.9622,-22.4768],[-42.9618,-22.4791],[-42.9622,-22.4768],[-42.9622,-22.4768]],[[-42.9773,-22.4751],[-42.9751,-22.4741],[-42.9774,-22.4759],[-42.9773,-22.4751]],[[-42.9624,-22.4789],[-42.9619,-22.4811],[-42.9626,-22.4788],[-42.9624,-22.4789]],[[-42.9747,-22.4791],[-42.9768,-22.4756],[-42.9743,-22.4753],[-42.9747,-22.479],[-42.9747,-22.4791]]]}},{"type":"Feature","properties":{"cod_tema":"AREA_USO_RESTRITO_DECLIVIDADE_25_A_45","cod_imovel":"RJ-3301850-25E01DFC22094E9BA44888D9D7B3A7A8","num_area":"71.935600000000000000000000000000","ind_status":"AT"},"geometry":{"type":"Polygon","coordinates":[[[-42.9577,-22.467],[-42.9532,-22.4626],[-42.9552,-22.459],[-42.9475,-22.473],[-42.95,-22.4757],[-42.9451,-22.4772],[-42.9484,-22.4794],[-42.9513,-22.4696],[-42.9531,-22.4731],[-42.9517,-22.4685],[-42.9533,-22.4728],[-42.9542,-22.4656],[-42.9574,-22.4673],[-42.9577,-22.467]],[[-42.9542,-22.4632],[-42.9505,-22.4678],[-42.9539,-22.4629],[-42.9542,-22.4632]]]}},{"type":"Feature","properties":{"cod_tema":"AREA_USO_RESTRITO_DECLIVIDADE_25_A_45","cod_imovel":"RJ-3301850-DB31BE2B540946B898512BA5DEF048E6","num_area":"3.0134000000000000000000000000000","ind_status":"AT"},"geometry":{"type":"Polygon","coordinates":[[[-43.0139,-22.5861],[-43.0124,-22.5832],[-43.015,-22.5848],[-43.0133,-22.5863],[-43.0139,-22.5861]]]}},{"type":"Feature","properties":{"cod_tema":"AREA_USO_RESTRITO_DECLIVIDADE_25_A_45","cod_imovel":"RJ-3301850-3F622703DB7148138214EEE204E78F0D","num_area":"35.697400000000000000000000000000","ind_status":"AT"},"geometry":{"type":"Polygon","coordinates":[[[-42.9717,-22.4928],[-42.9696,-22.4925],[-42.9694,-22.4981],[-42.9728,-22.4975],[-42.9721,-22.4994],[-42.9762,-22.4952],[-42.9757,-22.4926],[-42.9717,-22.4928],[-42.9717,-22.4928]]]}},{"type":"Feature","properties":{"cod_tema":"AREA_USO_RESTRITO_DECLIVIDADE_25_A_45","cod_imovel":"RJ-3301850-2A6DE05E16894A71B3189B8AAF129403","num_area":"19.552000000000000000000000000000","ind_status":"AT"},"geometry":{"type":"Polygon","coordinates":[[[-42.9419,-22.508],[-42.9475,-22.5064],[-42.9437,-22.5082],[-42.9407,-22.5057],[-42.9419,-22.5079],[-42.9419,-22.508]],[[-42.9378,-22.5069],[-42.9411,-22.5078],[-42.9378,-22.5068],[-42.9378,-22.5069]],[[-42.9473,-22.5075],[-42.9457,-22.5089],[-42.9476,-22.5075],[-42.9473,-22.5075]]]}},{"type":"Feature","properties":{"cod_tema":"AREA_USO_RESTRITO_DECLIVIDADE_25_A_45","cod_imovel":"RJ-3301850-EC2DC5922E1E4565A38C6ABCF49611FA","num_area":"94.533400000000000000000000000000","ind_status":"AT"},"geometry":{"type":"Polygon","coordinates":[[[-42.9428,-22.4796],[-42.9469,-22.4715],[-42.9324,-22.4757],[-42.9315,-22.4822],[-42.9425,-22.4798],[-42.9428,-22.4796]]]}},{"type":"Feature","properties":{"cod_tema":"AREA_USO_RESTRITO_DECLIVIDADE_25_A_45","cod_imovel":"RJ-3301850-A43E1EB666D14B96BB86121411695F48","num_area":"4.7573000000000000000000000000000","ind_status":"AT"},"geometry":{"type":"Polygon","coordinates":[[[-42.9507,-22.4985],[-42.9532,-22.4968],[-42.9503,-22.4972],[-42.9507,-22.4985]]]}},{"type":"Feature","properties":{"cod_tema":"AREA_USO_RESTRITO_DECLIVIDADE_25_A_45","cod_imovel":"RJ-3301850-29230A1855D14F4DB9FF4E4F36CCB028","num_area":"9.1274000000000000000000000000000","ind_status":"AT"},"geometry":{"type":"Polygon","coordinates":[[[-42.9467,-22.4977],[-42.9507,-22.4985],[-42.9467,-22.4976],[-42.9467,-22.4977]]]}},{"type":"Feature","properties":{"cod_tema":"AREA_USO_RESTRITO_DECLIVIDADE_25_A_45","cod_imovel":"RJ-3301850-0F0F7DFAFEB84DDE93C1B8D5A04AAF5E","num_area":"12.807100000000000000000000000000","ind_status":"AT"},"geometry":{"type":"Polygon","coordinates":[[[-42.9374,-22.49],[-42.9348,-22.4891],[-42.9375,-22.4901],[-42.9374,-22.49]],[[-42.9445,-22.4939],[-42.9385,-22.4915],[-42.9442,-22.494],[-42.9445,-22.4939]]]}},{"type":"Feature","properties":{"cod_tema":"AREA_USO_RESTRITO_DECLIVIDADE_25_A_45","cod_imovel":"RJ-3301850-DC0453030DD74D14B1A5EA3D1ECE434B","num_area":"11.121600000000000000000000000000","ind_status":"AT"},"geometry":{"type":"Polygon","coordinates":[[[-42.9436,-22.4933],[-42.9456,-22.491],[-42.9425,-22.4894],[-42.941,-22.4916],[-42.9437,-22.4932],[-42.9436,-22.4933]],[[-42.9429,-22.4902],[-42.9444,-22.4928],[-42.9423,-22.4898],[-42.9429,-22.4902]]]}},{"type":"Feature","properties":{"cod_tema":"AREA_USO_RESTRITO_DECLIVIDADE_25_A_45","cod_imovel":"RJ-3301850-A9D221C949E9456EB1C68F55321E60CB","num_area":"6.2494000000000000000000000000000","ind_status":"AT"},"geometry":{"type":"Polygon","coordinates":[[[-42.9475,-22.4995],[-42.9511,-22.5012],[-42.9472,-22.499],[-42.9475,-22.4995]]]}},{"type":"Feature","properties":{"cod_tema":"AREA_USO_RESTRITO_DECLIVIDADE_25_A_45","cod_imovel":"RJ-3301850-F0FBADB84CEF4706B54161D49A93F561","num_area":"37.979400000000000000000000000000","ind_status":"AT"},"geometry":{"type":"Polygon","coordinates":[[[-42.9771,-22.4998],[-42.9696,-22.4982],[-42.9659,-22.5018],[-42.9731,-22.5058],[-42.9771,-22.4998],[-42.9771,-22.4998]],[[-42.9718,-22.504],[-42.9696,-22.5019],[-42.9717,-22.5032],[-42.9718,-22.504]],[[-42.9739,-22.5013],[-42.9699,-22.5004],[-42.9738,-22.5012],[-42.9739,-22.5013]],[[-42.974,-22.5009],[-42.9709,-22.5005],[-42.9739,-22.5008],[-42.974,-22.5009]]]}},{"type":"Feature","properties":{"cod_tema":"AREA_USO_RESTRITO_DECLIVIDADE_25_A_45","cod_imovel":"RJ-3301850-B392F19CC18C40EBAB0C92B9E22F869D","num_area":"68.462500000000000000000000000000","ind_status":"AT"},"geometry":{"type":"Polygon","coordinates":[[[-42.9953,-22.4699],[-42.9963,-22.4654],[-42.9873,-22.4642],[-42.9877,-22.4697],[-42.9915,-22.4725],[-42.9947,-22.4705],[-42.9953,-22.4699]]]}},{"type":"Feature","properties":{"cod_tema":"AREA_USO_RESTRITO_DECLIVIDADE_25_A_45","cod_imovel":"RJ-3301850-495C7DB1888A4A828EACF5423BB6A2C0","num_area":"2.2305000000000000000000000000000","ind_status":"AT"},"geometry":{"type":"Polygon","coordinates":[[[-42.9585,-22.5926],[-42.9579,-22.5892],[-42.9586,-22.5925],[-42.9585,-22.5926]]]}},{"type":"Feature","properties":{"cod_tema":"AREA_USO_RESTRITO_DECLIVIDADE_25_A_45","cod_imovel":"RJ-3301850-200376091DD64B359F17DE88AB6790CA","num_area":"7.9032000000000000000000000000000","ind_status":"AT"},"geometry":{"type":"Polygon","coordinates":[[[-42.9766,-22.568],[-42.9808,-22.5648],[-42.9754,-22.5673],[-42.9766,-22.568]]]}},{"type":"Feature","properties":{"cod_tema":"AREA_USO_RESTRITO_DECLIVIDADE_25_A_45","cod_imovel":"RJ-3301850-D76860E69C7C44DF9D979498978E012D","num_area":"17.745300000000000000000000000000","ind_status":"AT"},"geometry":{"type":"Polygon","coordinates":[[[-42.9686,-22.56],[-42.9712,-22.5616],[-42.9684,-22.5599],[-42.9686,-22.56]],[[-42.9688,-22.5577],[-42.9667,-22.5594],[-42.9695,-22.5581],[-42.9688,-22.5577]],[[-42.9646,-22.5553],[-42.9654,-22.5603],[-42.9653,-22.5546],[-42.9646,-22.5553]],[[-42.9713,-22.557],[-42.9714,-22.5612],[-42.9714,-22.5569],[-42.9713,-22.557]]]}},{"type":"Feature","properties":{"cod_tema":"AREA_USO_RESTRITO_DECLIVIDADE_25_A_45","cod_imovel":"RJ-3301850-1C7E2C598F754570895E6AD040A03011","num_area":"3.2197000000000000000000000000000","ind_status":"AT"},"geometry":{"type":"Polygon","coordinates":[[[-42.8828,-22.5629],[-42.8807,-22.5638],[-42.8828,-22.5631],[-42.8828,-22.5629]]]}},{"type":"Feature","properties":{"cod_tema":"AREA_USO_RESTRITO_DECLIVIDADE_25_A_45","cod_imovel":"RJ-3301850-3041FC8E6A4E4863A18B0B48F8157642","num_area":"67.269500000000000000000000000000","ind_status":"AT"},"geometry":{"type":"Polygon","coordinates":[[[-42.9111,-22.5588],[-42.9139,-22.5586],[-42.9112,-22.5587],[-42.9111,-22.5588]],[[-42.9166,-22.5532],[-42.9136,-22.5569],[-42.9153,-22.5592],[-42.9193,-22.5528],[-42.9166,-22.5532],[-42.9166,-22.5532]],[[-42.9069,-22.5599],[-42.9093,-22.5601],[-42.9067,-22.5598],[-42.9069,-22.5599]],[[-42.9239,-22.5561],[-42.9256,-22.5536],[-42.9216,-22.5545],[-42.9229,-22.5566],[-42.9239,-22.5561]],[[-42.9154,-22.5601],[-42.9199,-22.5575],[-42.9167,-22.5568],[-42.9158,-22.5599],[-42.9154,-22.5601]],[[-42.9206,-22.5553],[-42.9186,-22.5591],[-42.9211,-22.559],[-42.9207,-22.5555],[-42.9206,-22.5553]],[[-42.9118,-22.5478],[-42.9094,-22.5536],[-42.9126,-22.5488],[-42.9118,-22.5478]],[[-42.92,-22.5659],[-42.919,-22.5622],[-42.9176,-22.5645],[-42.92,-22.5656],[-42.92,-22.5659]],[[-42.9123,-22.554],[-42.9135,-22.5502],[-42.9103,-22.5545],[-42.915,-22.5534],[-42.9124,-22.5538],[-42.9123,-22.554]],[[-42.9189,-22.5622],[-42.9161,-22.564],[-42.9155,-22.5611],[-42.9143,-22.5646],[-42.9189,-22.5622],[-42.9189,-22.5622]],[[-42.9166,-22.5605],[-42.9187,-22.5612],[-42.9168,-22.5602],[-42.9166,-22.5605]]]}},{"type":"Feature","properties":{"cod_tema":"AREA_USO_RESTRITO_DECLIVIDADE_25_A_45","cod_imovel":"RJ-3301850-B230FC4877C643FBBA2D046C92D56930","num_area":"15.856000000000000000000000000000","ind_status":"AT"},"geometry":{"type":"Polygon","coordinates":[[[-42.9616,-22.5672],[-42.9652,-22.5608],[-42.9592,-22.5635],[-42.9616,-22.5663],[-42.9616,-22.5672]]]}},{"type":"Feature","properties":{"cod_tema":"AREA_USO_RESTRITO_DECLIVIDADE_25_A_45","cod_imovel":"RJ-3301850-6989C5A4EFDB479AA814082EFD943EC9","num_area":"9.4344000000000000000000000000000","ind_status":"AT"},"geometry":{"type":"Polygon","coordinates":[[[-42.9557,-22.5596],[-42.9551,-22.5656],[-42.9559,-22.5597],[-42.9557,-22.5596]]]}},{"type":"Feature","properties":{"cod_tema":"AREA_USO_RESTRITO_DECLIVIDADE_25_A_45","cod_imovel":"RJ-3301850-38FB4E4A83074ADA82601167BF57C270","num_area":"21.440800000000000000000000000000","ind_status":"AT"},"geometry":{"type":"Polygon","coordinates":[[[-42.9592,-22.5844],[-42.9586,-22.5824],[-42.9589,-22.5844],[-42.9592,-22.5844]],[[-42.947,-22.5837],[-42.9464,-22.5796],[-42.947,-22.5837],[-42.947,-22.5837]],[[-42.9564,-22.584],[-42.9554,-22.5816],[-42.9561,-22.5842],[-42.9564,-22.584]],[[-42.949,-22.5813],[-42.9516,-22.5826],[-42.9488,-22.5811],[-42.949,-22.5813]],[[-42.9532,-22.5796],[-42.9538,-22.5825],[-42.9536,-22.5803],[-42.9532,-22.5796]],[[-42.9525,-22.5801],[-42.9524,-22.5848],[-42.9528,-22.5811],[-42.9525,-22.5801]],[[-42.946,-22.5763],[-42.9505,-22.5775],[-42.9465,-22.5759],[-42.946,-22.5763]]]}},{"type":"Feature","properties":{"cod_tema":"AREA_USO_RESTRITO_DECLIVIDADE_25_A_45","cod_imovel":"RJ-3301850-DDAD7F57333A48CF9AD79230D4B66196","num_area":"2.2259000000000000000000000000000","ind_status":"AT"},"geometry":{"type":"Polygon","coordinates":[[[-42.9559,-22.5614],[-42.9559,-22.565],[-42.9564,-22.5616],[-42.9559,-22.5614]]]}},{"type":"Feature","properties":{"cod_tema":"AREA_USO_RESTRITO_DECLIVIDADE_25_A_45","cod_imovel":"RJ-3301850-226120A8164E4B70988E10FE0225FC6E","num_area":"2.5296000000000000000000000000000","ind_status":"AT"},"geometry":{"type":"Polygon","coordinates":[[[-43.0047,-22.5579],[-43.0083,-22.5581],[-43.0047,-22.5579],[-43.0047,-22.5579]]]}},{"type":"Feature","properties":{"cod_tema":"AREA_USO_RESTRITO_DECLIVIDADE_25_A_45","cod_imovel":"RJ-3301850-35A3D99BEC494E9A8A80C33D8CAB3937","num_area":"5.6541000000000000000000000000000","ind_status":"AT"},"geometry":{"type":"Polygon","coordinates":[[[-43.0151,-22.5663],[-43.0164,-22.564],[-43.0136,-22.5632],[-43.0151,-22.5663],[-43.0151,-22.5663]]]}},{"type":"Feature","properties":{"cod_tema":"AREA_USO_RESTRITO_DECLIVIDADE_25_A_45","cod_imovel":"RJ-3301850-694891083BA8471084C2397EC4CE1B8A","num_area":"4.3725000000000000000000000000000","ind_status":"AT"},"geometry":{"type":"Polygon","coordinates":[[[-42.9081,-22.5041],[-42.9061,-22.5006],[-42.908,-22.5037],[-42.9081,-22.5041]]]}},{"type":"Feature","properties":{"cod_tema":"AREA_USO_RESTRITO_DECLIVIDADE_25_A_45","cod_imovel":"RJ-3301850-5DF798FBCA404707B850208FE1DB12F4","num_area":"3.2042000000000000000000000000000","ind_status":"AT"},"geometry":{"type":"Polygon","coordinates":[[[-43.0057,-22.5719],[-43.0037,-22.5702],[-43.0051,-22.572],[-43.0057,-22.5719]]]}},{"type":"Feature","properties":{"cod_tema":"AREA_USO_RESTRITO_DECLIVIDADE_25_A_45","cod_imovel":"RJ-3301850-D6E1CA2CC4EB48B2BC9DC3D3F28B1174","num_area":"12.071400000000000000000000000000","ind_status":"AT"},"geometry":{"type":"Polygon","coordinates":[[[-42.9661,-22.5442],[-42.9637,-22.5435],[-42.9666,-22.5463],[-42.9665,-22.5442],[-42.9661,-22.5442]],[[-42.9711,-22.546],[-42.9672,-22.5452],[-42.9703,-22.5478],[-42.9692,-22.5506],[-42.9709,-22.5461],[-42.9711,-22.546]]]}},{"type":"Feature","properties":{"cod_tema":"AREA_USO_RESTRITO_DECLIVIDADE_25_A_45","cod_imovel":"RJ-3301850-AD29FC07AA174F0CA017D5300FBD35D5","num_area":"3.6594000000000000000000000000000","ind_status":"AT"},"geometry":{"type":"Polygon","coordinates":[[[-42.9332,-22.5059],[-42.9313,-22.5076],[-42.9329,-22.5059],[-42.9332,-22.5059]]]}},{"type":"Feature","properties":{"cod_tema":"AREA_USO_RESTRITO_DECLIVIDADE_25_A_45","cod_imovel":"RJ-3301850-A0E3EB195F254516AC062E0C4B984B83","num_area":"4.3451000000000000000000000000000","ind_status":"AT"},"geometry":{"type":"Polygon","coordinates":[[[-43.0146,-22.5655],[-43.0116,-22.5623],[-43.0129,-22.5639],[-43.0146,-22.5655]]]}},{"type":"Feature","properties":{"cod_tema":"AREA_USO_RESTRITO_DECLIVIDADE_25_A_45","cod_imovel":"RJ-3301850-CBB157A5C2DC4D5FBAFF715C99F7B022","num_area":"4.4900000000000000000000000000000","ind_status":"AT"},"geometry":{"type":"Polygon","coordinates":[[[-42.9497,-22.4877],[-42.9516,-22.4899],[-42.9509,-22.4861],[-42.9492,-22.4872],[-42.9497,-22.4877]]]}},{"type":"Feature","properties":{"cod_tema":"AREA_USO_RESTRITO_DECLIVIDADE_25_A_45","cod_imovel":"RJ-3301850-F8DA751807D24CF8B032C56D6C4C4D9F","num_area":"85.527000000000000000000000000000","ind_status":"AT"},"geometry":{"type":"Polygon","coordinates":[[[-42.9098,-22.5136],[-42.91,-22.5157],[-42.9134,-22.5139],[-42.9115,-22.5116],[-42.9147,-22.5134],[-42.9119,-22.5112],[-42.9152,-22.5098],[-42.9197,-22.5128],[-42.9198,-22.5079],[-42.9108,-22.509],[-42.9077,-22.5141],[-42.9108,-22.5104],[-42.9098,-22.5136],[-42.9098,-22.5136]],[[-42.9254,-22.5069],[-42.9234,-22.505],[-42.9252,-22.507],[-42.9254,-22.5069]],[[-42.9257,-22.5201],[-42.9273,-22.5184],[-42.9255,-22.5194],[-42.9257,-22.5201]],[[-42.9216,-22.5181],[-42.9215,-22.5217],[-42.9217,-22.5185],[-42.9216,-22.5181]],[[-42.9234,-22.5073],[-42.92,-22.5079],[-42.9216,-22.5116],[-42.9256,-22.5098],[-42.9234,-22.5069],[-42.9234,-22.5073]],[[-42.9289,-22.5184],[-42.9275,-22.516],[-42.9299,-22.5178],[-42.9309,-22.5149],[-42.9261,-22.5153],[-42.9286,-22.5181],[-42.9289,-22.5184]]]}},{"type":"Feature","properties":{"cod_tema":"AREA_USO_RESTRITO_DECLIVIDADE_25_A_45","cod_imovel":"RJ-3301850-E1AA9915C0774335BA15DDC56A74814A","num_area":"3.1523000000000000000000000000000","ind_status":"AT"},"geometry":{"type":"Polygon","coordinates":[[[-42.9678,-22.5601],[-42.9658,-22.5612],[-42.9678,-22.5602],[-42.9678,-22.5601]]]}},{"type":"Feature","properties":{"cod_tema":"AREA_USO_RESTRITO_DECLIVIDADE_25_A_45","cod_imovel":"RJ-3301850-6256B8A5E9444D9FB9193B3AF6C311D0","num_area":"24.877800000000000000000000000000","ind_status":"AT"},"geometry":{"type":"Polygon","coordinates":[[[-42.9403,-22.5143],[-42.9407,-22.512],[-42.9332,-22.5105],[-42.9367,-22.5133],[-42.9403,-22.5143]],[[-42.9411,-22.5078],[-42.9376,-22.5083],[-42.9402,-22.511],[-42.9411,-22.5078],[-42.9411,-22.5078]]]}}]}