{"type":"FeatureCollection","features":[{"type":"Feature","properties":{"cod_tema":"AREA_USO_RESTRITO_DECLIVIDADE_25_A_45","cod_imovel":"RJ-3302007-CECBAE3C50A849DF9CF2CD6EA86AA378","num_area":"194.81540000000000000000000000000","ind_status":"AT"},"geometry":{"type":"Polygon","coordinates":[[[-43.8155,-22.7449],[-43.8132,-22.7427],[-43.8155,-22.7449],[-43.8155,-22.7449]],[[-43.819,-22.7479],[-43.8213,-22.747],[-43.8164,-22.7434],[-43.8193,-22.7475],[-43.819,-22.7479]],[[-43.8436,-22.7457],[-43.8338,-22.7412],[-43.8341,-22.7366],[-43.8263,-22.7362],[-43.83,-22.7365],[-43.8302,-22.7399],[-43.8272,-22.7364],[-43.8187,-22.7365],[-43.8227,-22.7386],[-43.8195,-22.7392],[-43.8295,-22.743],[-43.8201,-22.7432],[-43.8228,-22.7453],[-43.8307,-22.7427],[-43.8346,-22.7461],[-43.8295,-22.7458],[-43.8354,-22.7498],[-43.8284,-22.748],[-43.8414,-22.7489],[-43.8356,-22.7461],[-43.8331,-22.741],[-43.8391,-22.7468],[-43.8436,-22.7457]],[[-43.8339,-22.7408],[-43.8304,-22.7389],[-43.8338,-22.7401],[-43.8339,-22.7408]],[[-43.8349,-22.7466],[-43.8324,-22.7464],[-43.8346,-22.7465],[-43.8349,-22.7466]],[[-43.8195,-22.7448],[-43.8212,-22.7462],[-43.8196,-22.7445],[-43.8195,-22.7448]],[[-43.8209,-22.7482],[-43.8247,-22.7487],[-43.8213,-22.748],[-43.8209,-22.7482]],[[-43.8258,-22.7489],[-43.8282,-22.7492],[-43.8257,-22.7486],[-43.8258,-22.7489]]]}},{"type":"Feature","properties":{"cod_tema":"AREA_USO_RESTRITO_DECLIVIDADE_25_A_45","cod_imovel":"RJ-3302007-334AA35E5031453689A6012D498CB242","num_area":"37.594600000000000000000000000000","ind_status":"SU"},"geometry":{"type":"Polygon","coordinates":[[[-43.8301,-22.77],[-43.8313,-22.7674],[-43.8279,-22.769],[-43.8301,-22.77]],[[-43.8214,-22.7669],[-43.8259,-22.7685],[-43.8219,-22.7665],[-43.8214,-22.7669]],[[-43.8163,-22.757],[-43.8153,-22.7606],[-43.8165,-22.7571],[-43.8163,-22.757]],[[-43.8378,-22.7561],[-43.839,-22.7542],[-43.8343,-22.7517],[-43.8263,-22.7509],[-43.8376,-22.7559],[-43.8378,-22.7561]]]}},{"type":"Feature","properties":{"cod_tema":"AREA_USO_RESTRITO_DECLIVIDADE_25_A_45","cod_imovel":"RJ-3302007-8EBFF6D25AA0471AB9D6250A1E4611FE","num_area":"13.938100000000000000000000000000","ind_status":"AT"},"geometry":{"type":"Polygon","coordinates":[[[-43.8545,-22.881],[-43.8528,-22.8794],[-43.8544,-22.881],[-43.8545,-22.881]],[[-43.8503,-22.8919],[-43.8501,-22.8893],[-43.8479,-22.892],[-43.8503,-22.8919],[-43.8503,-22.8919]],[[-43.8532,-22.8841],[-43.8536,-22.8813],[-43.8509,-22.8844],[-43.8531,-22.8841],[-43.8532,-22.8841]]]}},{"type":"Feature","properties":{"cod_tema":"AREA_USO_RESTRITO_DECLIVIDADE_25_A_45","cod_imovel":"RJ-3302007-2209D7DF05DB4F53B24730F82507677B","num_area":"14.580500000000000000000000000000","ind_status":"AT"},"geometry":{"type":"Polygon","coordinates":[[[-43.865,-22.8904],[-43.8657,-22.8926],[-43.8675,-22.8885],[-43.8642,-22.8872],[-43.8622,-22.8897],[-43.8652,-22.8906],[-43.865,-22.8904]]]}},{"type":"Feature","properties":{"cod_tema":"AREA_USO_RESTRITO_DECLIVIDADE_25_A_45","cod_imovel":"RJ-3302007-5494BA5A9A774303AAB6119F64C0FC43","num_area":"18.406100000000000000000000000000","ind_status":"AT"},"geometry":{"type":"Polygon","coordinates":[[[-43.8552,-22.8714],[-43.8503,-22.8776],[-43.8551,-22.8716],[-43.8552,-22.8714]],[[-43.8556,-22.8712],[-43.8578,-22.8704],[-43.8557,-22.8711],[-43.8556,-22.8712]]]}},{"type":"Feature","properties":{"cod_tema":"AREA_USO_RESTRITO_DECLIVIDADE_25_A_45","cod_imovel":"RJ-3302007-EAA781FB450F4958A6BA631D4655E652","num_area":"14.533800000000000000000000000000","ind_status":"AT"},"geometry":{"type":"Polygon","coordinates":[[[-43.8686,-22.8831],[-43.8673,-22.881],[-43.8684,-22.8828],[-43.8686,-22.8831]],[[-43.8683,-22.8831],[-43.8663,-22.8815],[-43.8679,-22.8832],[-43.8683,-22.8831]],[[-43.8657,-22.8867],[-43.8686,-22.8866],[-43.8661,-22.8869],[-43.8657,-22.8867]],[[-43.8698,-22.8887],[-43.8723,-22.8887],[-43.8696,-22.8884],[-43.8698,-22.8887]],[[-43.8639,-22.8827],[-43.8697,-22.8857],[-43.865,-22.8828],[-43.8639,-22.8827]]]}},{"type":"Feature","properties":{"cod_tema":"AREA_USO_RESTRITO_DECLIVIDADE_25_A_45","cod_imovel":"RJ-3302007-8F6D4C95AF444EF2BE61DD800620D05D","num_area":"170.51120000000000000000000000000","ind_status":"AT"},"geometry":{"type":"Polygon","coordinates":[[[-43.8885,-22.8316],[-43.8815,-22.8238],[-43.8731,-22.8228],[-43.8701,-22.8282],[-43.8743,-22.828],[-43.8694,-22.8295],[-43.8662,-22.8351],[-43.8747,-22.8313],[-43.8724,-22.83],[-43.8742,-22.8284],[-43.8863,-22.8337],[-43.8885,-22.8316],[-43.8885,-22.8316]],[[-43.872,-22.8318],[-43.8696,-22.8319],[-43.8717,-22.8317],[-43.872,-22.8318]],[[-43.8734,-22.8285],[-43.8716,-22.8298],[-43.8733,-22.8284],[-43.8734,-22.8285]],[[-43.8843,-22.8309],[-43.8817,-22.8309],[-43.8837,-22.8302],[-43.8843,-22.8309]],[[-43.8849,-22.8331],[-43.8805,-22.8343],[-43.8855,-22.8341],[-43.8837,-22.833],[-43.8849,-22.8331]],[[-43.8725,-22.8407],[-43.8801,-22.8369],[-43.8768,-22.833],[-43.8682,-22.8347],[-43.8725,-22.8408],[-43.8725,-22.8407]],[[-43.8728,-22.8371],[-43.871,-22.8354],[-43.8733,-22.833],[-43.8728,-22.8371],[-43.8728,-22.8371]],[[-43.8768,-22.8368],[-43.8758,-22.835],[-43.8771,-22.8367],[-43.8768,-22.8368]],[[-43.8769,-22.8315],[-43.88,-22.8321],[-43.8769,-22.8313],[-43.8769,-22.8315]]]}},{"type":"Feature","properties":{"cod_tema":"AREA_USO_RESTRITO_DECLIVIDADE_25_A_45","cod_imovel":"RJ-3302007-3F780F3E21794A78A6F4F448545A44D9","num_area":"11.538100000000000000000000000000","ind_status":"AT"},"geometry":{"type":"Polygon","coordinates":[[[-43.87,-22.8946],[-43.8738,-22.8919],[-43.8703,-22.894],[-43.87,-22.8946]],[[-43.8694,-22.8955],[-43.8687,-22.8978],[-43.8717,-22.898],[-43.8694,-22.8955],[-43.8694,-22.8955]]]}},{"type":"Feature","properties":{"cod_tema":"AREA_USO_RESTRITO_DECLIVIDADE_25_A_45","cod_imovel":"RJ-3302007-609B14EB47364386A43FF06C7C0E7C19","num_area":"49.271700000000000000000000000000","ind_status":"AT"},"geometry":{"type":"Polygon","coordinates":[[[-43.8965,-22.8441],[-43.8939,-22.8415],[-43.8973,-22.8412],[-43.8922,-22.8362],[-43.8908,-22.8381],[-43.8952,-22.8407],[-43.8907,-22.8383],[-43.8887,-22.8411],[-43.8931,-22.8454],[-43.8965,-22.8441],[-43.8965,-22.8441]],[[-43.8937,-22.8408],[-43.8911,-22.8393],[-43.8932,-22.8402],[-43.8937,-22.8408]],[[-43.8959,-22.8371],[-43.8923,-22.836],[-43.8971,-22.8402],[-43.8961,-22.8371],[-43.8959,-22.8371]]]}},{"type":"Feature","properties":{"cod_tema":"AREA_USO_RESTRITO_DECLIVIDADE_25_A_45","cod_imovel":"RJ-3302007-AF4C95D8CC52497E930CE90D888A18BF","num_area":"40.243100000000000000000000000000","ind_status":"AT"},"geometry":{"type":"Polygon","coordinates":[[[-43.8774,-22.8483],[-43.883,-22.8478],[-43.8862,-22.8427],[-43.8819,-22.8419],[-43.8838,-22.8441],[-43.8807,-22.8435],[-43.8774,-22.848],[-43.8774,-22.8483]],[[-43.8901,-22.8474],[-43.8926,-22.844],[-43.89,-22.8473],[-43.8901,-22.8474]]]}},{"type":"Feature","properties":{"cod_tema":"AREA_USO_RESTRITO_DECLIVIDADE_25_A_45","cod_imovel":"RJ-3302007-05EF3659AEC3450B97B4087E67180A36","num_area":"5.7374000000000000000000000000000","ind_status":"AT"},"geometry":{"type":"Polygon","coordinates":[[[-43.8851,-22.8492],[-43.8862,-22.8519],[-43.8852,-22.8492],[-43.8851,-22.8492]]]}},{"type":"Feature","properties":{"cod_tema":"AREA_USO_RESTRITO_DECLIVIDADE_25_A_45","cod_imovel":"RJ-3302007-91593F51A4884D7DA2BADF0B7D0061B3","num_area":"6.4879000000000000000000000000000","ind_status":"AT"},"geometry":{"type":"Polygon","coordinates":[[[-43.8711,-22.8474],[-43.8675,-22.8486],[-43.871,-22.8476],[-43.8711,-22.8474]]]}},{"type":"Feature","properties":{"cod_tema":"AREA_USO_RESTRITO_DECLIVIDADE_25_A_45","cod_imovel":"RJ-3302007-DDC319F6198A48B6908D2C2DEF993FAC","num_area":"27.601000000000000000000000000000","ind_status":"AT"},"geometry":{"type":"Polygon","coordinates":[[[-43.8724,-22.8782],[-43.8721,-22.8743],[-43.87,-22.8776],[-43.8697,-22.874],[-43.8668,-22.8742],[-43.8692,-22.8803],[-43.8735,-22.8808],[-43.8725,-22.8784],[-43.8724,-22.8782]]]}},{"type":"Feature","properties":{"cod_tema":"AREA_USO_RESTRITO_DECLIVIDADE_25_A_45","cod_imovel":"RJ-3302007-F07015B93FE14207B8E44FACD5AC1E65","num_area":"16.321200000000000000000000000000","ind_status":"AT"},"geometry":{"type":"Polygon","coordinates":[[[-43.7725,-22.7222],[-43.7761,-22.7215],[-43.7723,-22.7221],[-43.7725,-22.7222]],[[-43.7718,-22.7219],[-43.7717,-22.7195],[-43.7717,-22.7217],[-43.7718,-22.7219]],[[-43.7723,-22.7239],[-43.7764,-22.7249],[-43.7777,-22.722],[-43.7725,-22.7238],[-43.7723,-22.7239]]]}},{"type":"Feature","properties":{"cod_tema":"AREA_USO_RESTRITO_DECLIVIDADE_25_A_45","cod_imovel":"RJ-3302007-7B3D2E2FCD15458C89C61D3946CAECF3","num_area":"17.453600000000000000000000000000","ind_status":"AT"},"geometry":{"type":"Polygon","coordinates":[[[-43.8802,-22.8828],[-43.8769,-22.8821],[-43.8802,-22.8837],[-43.8802,-22.8828]],[[-43.8735,-22.8883],[-43.8755,-22.8894],[-43.8735,-22.8883],[-43.8735,-22.8883]],[[-43.8769,-22.8829],[-43.8788,-22.887],[-43.877,-22.8844],[-43.8803,-22.8843],[-43.8771,-22.8831],[-43.8769,-22.8829]],[[-43.8768,-22.8892],[-43.8781,-22.8873],[-43.8737,-22.8859],[-43.8766,-22.889],[-43.8768,-22.8892]]]}},{"type":"Feature","properties":{"cod_tema":"AREA_USO_RESTRITO_DECLIVIDADE_25_A_45","cod_imovel":"RJ-3302007-8B08728D2D834BACA78F0FDFED1B0259","num_area":"19.156400000000000000000000000000","ind_status":"AT"},"geometry":{"type":"Polygon","coordinates":[[[-43.8282,-22.8068],[-43.8311,-22.7995],[-43.8283,-22.7988],[-43.8261,-22.8021],[-43.8282,-22.8068],[-43.8282,-22.8068]],[[-43.8298,-22.8019],[-43.8272,-22.8009],[-43.8301,-22.8013],[-43.8298,-22.8019]]]}},{"type":"Feature","properties":{"cod_tema":"AREA_USO_RESTRITO_DECLIVIDADE_25_A_45","cod_imovel":"RJ-3302007-DCB7BB32258A49FD9DC2237939F3DA54","num_area":"9.8121000000000000000000000000000","ind_status":"AT"},"geometry":{"type":"Polygon","coordinates":[[[-43.8261,-22.8021],[-43.8235,-22.8064],[-43.8262,-22.8024],[-43.8261,-22.8021]]]}},{"type":"Feature","properties":{"cod_tema":"AREA_USO_RESTRITO_DECLIVIDADE_25_A_45","cod_imovel":"RJ-3302007-3E2E8ACF1EAC44C0A854783D2F22CC94","num_area":"3.0664000000000000000000000000000","ind_status":"AT"},"geometry":{"type":"Polygon","coordinates":[[[-43.7647,-22.7093],[-43.767,-22.7097],[-43.7646,-22.7092],[-43.7647,-22.7093]]]}},{"type":"Feature","properties":{"cod_tema":"AREA_USO_RESTRITO_DECLIVIDADE_25_A_45","cod_imovel":"RJ-3302007-732E1CABD155417D830A56FADB83690E","num_area":"13.569900000000000000000000000000","ind_status":"AT"},"geometry":{"type":"Polygon","coordinates":[[[-43.8793,-22.8233],[-43.8724,-22.8239],[-43.8791,-22.8242],[-43.8793,-22.8233]]]}},{"type":"Feature","properties":{"cod_tema":"AREA_USO_RESTRITO_DECLIVIDADE_25_A_45","cod_imovel":"RJ-3302007-42EB59E2DCD246AD8745A7E60AE967F6","num_area":"32.699700000000000000000000000000","ind_status":"AT"},"geometry":{"type":"Polygon","coordinates":[[[-43.8289,-22.805],[-43.8294,-22.8087],[-43.8254,-22.8104],[-43.8317,-22.8103],[-43.8311,-22.7995],[-43.8289,-22.805],[-43.8289,-22.805]]]}},{"type":"Feature","properties":{"cod_tema":"AREA_USO_RESTRITO_DECLIVIDADE_25_A_45","cod_imovel":"RJ-3302007-6490BD61D6DC4B8EA790BF490E549C96","num_area":"5.6844000000000000000000000000000","ind_status":"AT"},"geometry":{"type":"Polygon","coordinates":[[[-43.8802,-22.8571],[-43.8777,-22.8552],[-43.8802,-22.8571],[-43.8802,-22.8571]]]}},{"type":"Feature","properties":{"cod_tema":"AREA_USO_RESTRITO_DECLIVIDADE_25_A_45","cod_imovel":"RJ-3302007-78D90FFE91904231A18A0AB7AABF5B1C","num_area":"46.068300000000000000000000000000","ind_status":"AT"},"geometry":{"type":"Polygon","coordinates":[[[-43.8777,-22.8383],[-43.8729,-22.8407],[-43.875,-22.843],[-43.8716,-22.8413],[-43.8703,-22.8455],[-43.874,-22.8493],[-43.8728,-22.8462],[-43.8757,-22.8473],[-43.8769,-22.8428],[-43.88,-22.8423],[-43.8778,-22.8383],[-43.8777,-22.8383]]]}},{"type":"Feature","properties":{"cod_tema":"AREA_USO_RESTRITO_DECLIVIDADE_25_A_45","cod_imovel":"RJ-3302007-7DA1DA05D8BC41E48E788A65F38D280C","num_area":"6.4475000000000000000000000000000","ind_status":"AT"},"geometry":{"type":"Polygon","coordinates":[[[-43.7798,-22.7609],[-43.7819,-22.7625],[-43.7798,-22.7606],[-43.7798,-22.7609]],[[-43.782,-22.7608],[-43.7792,-22.7596],[-43.7819,-22.7608],[-43.782,-22.7608]],[[-43.783,-22.7598],[-43.7832,-22.7576],[-43.7826,-22.7596],[-43.783,-22.7598]]]}},{"type":"Feature","properties":{"cod_tema":"AREA_USO_RESTRITO_DECLIVIDADE_25_A_45","cod_imovel":"RJ-3302007-8447AB10B85B40848C66CF6810126B20","num_area":"14.129000000000000000000000000000","ind_status":"AT"},"geometry":{"type":"Polygon","coordinates":[[[-43.7885,-22.7084],[-43.7869,-22.7063],[-43.7876,-22.7083],[-43.7885,-22.7084]],[[-43.7689,-22.7071],[-43.766,-22.7067],[-43.7689,-22.7074],[-43.7689,-22.7071]],[[-43.7856,-22.7256],[-43.7795,-22.7237],[-43.7851,-22.7261],[-43.7856,-22.7256]]]}},{"type":"Feature","properties":{"cod_tema":"AREA_USO_RESTRITO_DECLIVIDADE_25_A_45","cod_imovel":"RJ-3302007-A4D61EB860C744CA8AF74BBD40627EE0","num_area":"30.294800000000000000000000000000","ind_status":"AT"},"geometry":{"type":"Polygon","coordinates":[[[-43.8925,-22.8693],[-43.8906,-22.8675],[-43.8923,-22.8691],[-43.8925,-22.8693]],[[-43.8855,-22.8842],[-43.8889,-22.8834],[-43.887,-22.8807],[-43.8892,-22.8816],[-43.8903,-22.878],[-43.8856,-22.8838],[-43.8855,-22.8842]],[[-43.8907,-22.8763],[-43.8894,-22.8732],[-43.8916,-22.8726],[-43.8888,-22.8713],[-43.8875,-22.8767],[-43.8905,-22.876],[-43.8907,-22.8763]]]}},{"type":"Feature","properties":{"cod_tema":"AREA_USO_RESTRITO_DECLIVIDADE_25_A_45","cod_imovel":"RJ-3302007-D09ADB6A01934BAFA78E0F3A429299FC","num_area":"5.6934000000000000000000000000000","ind_status":"AT"},"geometry":{"type":"Polygon","coordinates":[[[-43.8392,-22.8672],[-43.8397,-22.8644],[-43.8391,-22.8672],[-43.8392,-22.8672]]]}}]}