{"type":"FeatureCollection","features":[{"type":"Feature","properties":{"cod_tema":"AREA_USO_RESTRITO_DECLIVIDADE_25_A_45","cod_imovel":"RJ-3302270-625FBC0396704F289AF313FCEC41EE72","num_area":"23.051800000000000000000000000000","ind_status":"AT"},"geometry":{"type":"Polygon","coordinates":[[[-43.6183,-22.656],[-43.62,-22.6578],[-43.6184,-22.6558],[-43.6183,-22.656]],[[-43.6258,-22.6562],[-43.6203,-22.6562],[-43.6257,-22.6564],[-43.6258,-22.6562]],[[-43.629,-22.6572],[-43.6255,-22.6539],[-43.6286,-22.6569],[-43.6263,-22.6556],[-43.6258,-22.6586],[-43.629,-22.6573],[-43.629,-22.6572]],[[-43.6257,-22.6598],[-43.6291,-22.6606],[-43.6258,-22.6603],[-43.6257,-22.6598]],[[-43.6259,-22.6597],[-43.6291,-22.6603],[-43.6259,-22.6596],[-43.6259,-22.6597]]]}},{"type":"Feature","properties":{"cod_tema":"AREA_USO_RESTRITO_DECLIVIDADE_25_A_45","cod_imovel":"RJ-3302270-2262694F0BC14D96B808C2F61F08169B","num_area":"147.25320000000000000000000000000","ind_status":"AT"},"geometry":{"type":"Polygon","coordinates":[[[-43.5648,-22.6155],[-43.5625,-22.6182],[-43.565,-22.6156],[-43.5648,-22.6155]],[[-43.5634,-22.6182],[-43.5662,-22.6187],[-43.5637,-22.6182],[-43.5634,-22.6182]],[[-43.5661,-22.6279],[-43.5635,-22.6287],[-43.5661,-22.6281],[-43.5661,-22.6279]],[[-43.5709,-22.6257],[-43.5672,-22.6249],[-43.5706,-22.626],[-43.5709,-22.6257]],[[-43.5681,-22.6235],[-43.5722,-22.6246],[-43.5681,-22.6235],[-43.5681,-22.6235]],[[-43.5732,-22.6151],[-43.5697,-22.6134],[-43.5732,-22.6156],[-43.5732,-22.6151]],[[-43.5765,-22.6048],[-43.5742,-22.6059],[-43.5765,-22.6049],[-43.5765,-22.6048]],[[-43.5796,-22.6003],[-43.5754,-22.6004],[-43.5778,-22.6028],[-43.5795,-22.6003],[-43.5796,-22.6003]],[[-43.5761,-22.6115],[-43.5784,-22.6123],[-43.5762,-22.6115],[-43.5761,-22.6115]],[[-43.5838,-22.611],[-43.5829,-22.6049],[-43.5784,-22.6027],[-43.578,-22.6078],[-43.5802,-22.6057],[-43.5837,-22.611],[-43.5838,-22.611]],[[-43.5811,-22.6163],[-43.5789,-22.6119],[-43.581,-22.6163],[-43.5811,-22.6163]],[[-43.58,-22.6095],[-43.5818,-22.6111],[-43.58,-22.6094],[-43.58,-22.6095]],[[-43.5834,-22.6077],[-43.584,-22.6108],[-43.5834,-22.6072],[-43.5834,-22.6077]],[[-43.5842,-22.6053],[-43.5864,-22.608],[-43.5842,-22.605],[-43.5842,-22.6053]],[[-43.5872,-22.6159],[-43.5853,-22.6171],[-43.5872,-22.616],[-43.5872,-22.6159]],[[-43.5872,-22.6084],[-43.5876,-22.605],[-43.5872,-22.6084],[-43.5872,-22.6084]],[[-43.5885,-22.604],[-43.5867,-22.6032],[-43.5886,-22.604],[-43.5885,-22.604]],[[-43.5893,-22.6168],[-43.587,-22.6182],[-43.5893,-22.6168],[-43.5893,-22.6168]],[[-43.595,-22.6103],[-43.5879,-22.6095],[-43.5926,-22.6119],[-43.5924,-22.615],[-43.595,-22.6109],[-43.595,-22.6103]],[[-43.5889,-22.6073],[-43.5892,-22.6045],[-43.5889,-22.6073],[-43.5889,-22.6073]],[[-43.593,-22.6054],[-43.5902,-22.6061],[-43.5922,-22.6082],[-43.5925,-22.6054],[-43.593,-22.6054]],[[-43.5994,-22.6056],[-43.595,-22.609],[-43.5988,-22.6095],[-43.5965,-22.6088],[-43.599,-22.606],[-43.5994,-22.6056]],[[-43.5972,-22.6099],[-43.5904,-22.608],[-43.597,-22.6098],[-43.5972,-22.6099]],[[-43.5913,-22.6157],[-43.5946,-22.6167],[-43.5912,-22.6155],[-43.5913,-22.6157]],[[-43.5981,-22.6049],[-43.5932,-22.6039],[-43.598,-22.6049],[-43.5981,-22.6049]],[[-43.5969,-22.6157],[-43.5944,-22.6123],[-43.5947,-22.6177],[-43.5968,-22.6158],[-43.5969,-22.6157]],[[-43.5958,-22.6097],[-43.5981,-22.6148],[-43.5993,-22.6123],[-43.596,-22.6097],[-43.5958,-22.6097]],[[-43.6003,-22.6068],[-43.5985,-22.6077],[-43.6006,-22.6067],[-43.6003,-22.6068]]]}},{"type":"Feature","properties":{"cod_tema":"AREA_USO_RESTRITO_DECLIVIDADE_25_A_45","cod_imovel":"RJ-3302270-986460835C4F447F93CFDE2880854FF1","num_area":"10.518100000000000000000000000000","ind_status":"AT"},"geometry":{"type":"Polygon","coordinates":[[[-43.6196,-22.6368],[-43.6214,-22.638],[-43.6197,-22.6369],[-43.6196,-22.6368]],[[-43.6213,-22.6344],[-43.6202,-22.632],[-43.6212,-22.6345],[-43.6213,-22.6344]],[[-43.6217,-22.6375],[-43.6204,-22.6354],[-43.6217,-22.6376],[-43.6217,-22.6375]],[[-43.6249,-22.6411],[-43.6221,-22.6391],[-43.6248,-22.6411],[-43.6249,-22.6411]],[[-43.6249,-22.6379],[-43.6221,-22.6372],[-43.6247,-22.6378],[-43.6249,-22.6379]]]}},{"type":"Feature","properties":{"cod_tema":"AREA_USO_RESTRITO_DECLIVIDADE_25_A_45","cod_imovel":"RJ-3302270-355DDC588B16481B96FE0BC476EC87A2","num_area":"4.1360000000000000000000000000000","ind_status":"AT"},"geometry":{"type":"Polygon","coordinates":[[[-43.5898,-22.6636],[-43.591,-22.6615],[-43.5895,-22.6634],[-43.5898,-22.6636]],[[-43.5892,-22.6633],[-43.59,-22.6607],[-43.5889,-22.6636],[-43.5892,-22.6633]]]}}]}