{"type":"FeatureCollection","features":[{"type":"Feature","properties":{"cod_tema":"AREA_USO_RESTRITO_DECLIVIDADE_25_A_45","cod_imovel":"RJ-3302403-C7AEE7D807964A97A4E6BAABD6C68E0F","num_area":"8.0711000000000000000000000000000","ind_status":"PE"},"geometry":{"type":"Polygon","coordinates":[[[-41.8439,-22.2748],[-41.847,-22.2737],[-41.8442,-22.2745],[-41.8439,-22.2748]],[[-41.844,-22.2719],[-41.8412,-22.2731],[-41.8441,-22.2716],[-41.844,-22.2719]]]}},{"type":"Feature","properties":{"cod_tema":"AREA_USO_RESTRITO_DECLIVIDADE_25_A_45","cod_imovel":"RJ-3302403-1A93F995C99847F08DFD63DECE52A548","num_area":"7.3595000000000000000000000000000","ind_status":"SU"},"geometry":{"type":"Polygon","coordinates":[[[-41.8853,-22.3131],[-41.888,-22.3121],[-41.8853,-22.313],[-41.8853,-22.3131]]]}},{"type":"Feature","properties":{"cod_tema":"AREA_USO_RESTRITO_DECLIVIDADE_25_A_45","cod_imovel":"RJ-3302403-36D66F3A454E4C72B329F47DFB1F86C9","num_area":"205.42110000000000000000000000000","ind_status":"AT"},"geometry":{"type":"Polygon","coordinates":[[[-42.0827,-22.4298],[-42.0803,-22.4289],[-42.0825,-22.4298],[-42.0827,-22.4298]],[[-42.0782,-22.4334],[-42.0802,-22.4335],[-42.0737,-22.4268],[-42.0782,-22.4334],[-42.0782,-22.4334]],[[-42.0809,-22.4256],[-42.0792,-22.424],[-42.0808,-22.4256],[-42.0809,-22.4256]],[[-42.0762,-22.4113],[-42.074,-22.4102],[-42.0762,-22.4114],[-42.0762,-22.4113]],[[-42.0809,-22.4332],[-42.0848,-22.4315],[-42.0809,-22.4332],[-42.0809,-22.4332]],[[-42.0821,-22.4114],[-42.08,-22.4101],[-42.082,-22.4114],[-42.0821,-22.4114]],[[-42.08,-22.3961],[-42.0787,-22.3935],[-42.0834,-22.3973],[-42.0833,-22.4005],[-42.0799,-22.401],[-42.0834,-22.4023],[-42.0918,-22.3949],[-42.0881,-22.3925],[-42.0903,-22.3953],[-42.0841,-22.3971],[-42.0864,-22.3941],[-42.0789,-22.3927],[-42.08,-22.3961],[-42.08,-22.3961]],[[-42.0722,-22.4299],[-42.0729,-22.4271],[-42.0723,-22.4299],[-42.0722,-22.4299]],[[-42.0799,-22.4097],[-42.0794,-22.4071],[-42.0799,-22.4097],[-42.0799,-22.4097]],[[-42.0797,-22.4275],[-42.0768,-22.4258],[-42.0797,-22.4275],[-42.0797,-22.4275]],[[-42.0787,-22.4293],[-42.0753,-22.427],[-42.0787,-22.4294],[-42.0787,-22.4293]],[[-42.0809,-22.3992],[-42.0805,-22.3962],[-42.0808,-22.3993],[-42.0809,-22.3992]],[[-42.0806,-22.4171],[-42.0735,-22.4184],[-42.0842,-22.4183],[-42.0807,-22.4171],[-42.0806,-22.4171]],[[-42.0862,-22.4143],[-42.0816,-22.4126],[-42.0823,-22.4149],[-42.0751,-22.4159],[-42.0907,-22.417],[-42.0858,-22.4113],[-42.0862,-22.4143],[-42.0862,-22.4143]],[[-42.0878,-22.4233],[-42.0908,-22.4183],[-42.0841,-22.4163],[-42.0883,-22.4197],[-42.0782,-22.4229],[-42.0877,-22.4233],[-42.0878,-22.4233]],[[-42.0919,-22.4121],[-42.0904,-22.4084],[-42.0968,-22.4099],[-42.0885,-22.4062],[-42.09,-22.4131],[-42.0919,-22.4121],[-42.0919,-22.4121]]]}},{"type":"Feature","properties":{"cod_tema":"AREA_USO_RESTRITO_DECLIVIDADE_25_A_45","cod_imovel":"RJ-3302403-117945BD891C4662BA8C49B6C427D10E","num_area":"15.309700000000000000000000000000","ind_status":"AT"},"geometry":{"type":"Polygon","coordinates":[[[-42.1303,-22.3189],[-42.1324,-22.3154],[-42.1277,-22.3154],[-42.1276,-22.3182],[-42.1303,-22.3189]]]}},{"type":"Feature","properties":{"cod_tema":"AREA_USO_RESTRITO_DECLIVIDADE_25_A_45","cod_imovel":"RJ-3302403-81DA57B9D2874FE7930E9961BB88B9CC","num_area":"43.034700000000000000000000000000","ind_status":"AT"},"geometry":{"type":"Polygon","coordinates":[[[-42.2075,-22.2927],[-42.2028,-22.294],[-42.2064,-22.2971],[-42.2053,-22.3007],[-42.203,-22.2961],[-42.1992,-22.3028],[-42.2034,-22.3039],[-42.2027,-22.3008],[-42.2051,-22.3036],[-42.2076,-22.2944],[-42.2047,-22.2936],[-42.2074,-22.2927],[-42.2075,-22.2927]]]}},{"type":"Feature","properties":{"cod_tema":"AREA_USO_RESTRITO_DECLIVIDADE_25_A_45","cod_imovel":"RJ-3302403-CF0415B5609D41DDA8359F3AF024115F","num_area":"6.3081000000000000000000000000000","ind_status":"AT"},"geometry":{"type":"Polygon","coordinates":[[[-42.2003,-22.3057],[-42.2023,-22.3038],[-42.1998,-22.3028],[-42.2003,-22.3057]]]}},{"type":"Feature","properties":{"cod_tema":"AREA_USO_RESTRITO_DECLIVIDADE_25_A_45","cod_imovel":"RJ-3302403-4CB195A66C264C7C9D39500F54F3D6AA","num_area":"55.533900000000000000000000000000","ind_status":"AT"},"geometry":{"type":"Polygon","coordinates":[[[-42.0589,-22.3947],[-42.0559,-22.3969],[-42.061,-22.4019],[-42.0589,-22.3951],[-42.0589,-22.3947]],[[-42.0611,-22.3892],[-42.0583,-22.3891],[-42.0611,-22.3895],[-42.0611,-22.3892]],[[-42.059,-22.4017],[-42.0549,-22.4029],[-42.0595,-22.4019],[-42.059,-22.4017]],[[-42.0555,-22.3908],[-42.059,-22.3915],[-42.0528,-22.3903],[-42.0551,-22.3907],[-42.0555,-22.3908]],[[-42.0475,-22.4013],[-42.0545,-22.4054],[-42.0478,-22.399],[-42.0477,-22.4013],[-42.0475,-22.4013]]]}},{"type":"Feature","properties":{"cod_tema":"AREA_USO_RESTRITO_DECLIVIDADE_25_A_45","cod_imovel":"RJ-3302403-55A8295CCBFF4DD081DC3700C54DFA21","num_area":"60.423300000000000000000000000000","ind_status":"SU"},"geometry":{"type":"Polygon","coordinates":[[[-41.9745,-22.3505],[-41.9708,-22.3514],[-41.9743,-22.3511],[-41.9745,-22.3505]],[[-41.9742,-22.3451],[-41.9705,-22.3432],[-41.9742,-22.3452],[-41.9742,-22.3451]],[[-41.9683,-22.3425],[-41.9706,-22.3504],[-41.9686,-22.3427],[-41.9683,-22.3425]],[[-41.9629,-22.3342],[-41.9671,-22.336],[-41.967,-22.3316],[-41.962,-22.3302],[-41.9628,-22.3339],[-41.9629,-22.3342]]]}},{"type":"Feature","properties":{"cod_tema":"AREA_USO_RESTRITO_DECLIVIDADE_25_A_45","cod_imovel":"RJ-3302403-41D33C03A17F47CFB728BF68B144DFF1","num_area":"13.456800000000000000000000000000","ind_status":"AT"},"geometry":{"type":"Polygon","coordinates":[[[-42.116,-22.3321],[-42.1183,-22.3337],[-42.1191,-22.3309],[-42.1105,-22.3305],[-42.1158,-22.3319],[-42.116,-22.3321]]]}},{"type":"Feature","properties":{"cod_tema":"AREA_USO_RESTRITO_DECLIVIDADE_25_A_45","cod_imovel":"RJ-3302403-F3197BC198804FDD836A15F5B8DE0450","num_area":"10.419700000000000000000000000000","ind_status":"AT"},"geometry":{"type":"Polygon","coordinates":[[[-41.7853,-22.2788],[-41.7909,-22.2804],[-41.7855,-22.2786],[-41.7853,-22.2788]]]}},{"type":"Feature","properties":{"cod_tema":"AREA_USO_RESTRITO_DECLIVIDADE_25_A_45","cod_imovel":"RJ-3302403-587F4527988E42ECBD15567CC8EEFDC9","num_area":"7.7585000000000000000000000000000","ind_status":"AT"},"geometry":{"type":"Polygon","coordinates":[[[-42.1437,-22.4065],[-42.1475,-22.4033],[-42.1433,-22.4059],[-42.1437,-22.4065]]]}},{"type":"Feature","properties":{"cod_tema":"AREA_USO_RESTRITO_DECLIVIDADE_25_A_45","cod_imovel":"RJ-3302403-335A754AB8514828B9D11D0D7FE47F85","num_area":"11.732400000000000000000000000000","ind_status":"AT"},"geometry":{"type":"Polygon","coordinates":[[[-42.0638,-22.2082],[-42.0535,-22.1967],[-42.051,-22.1979],[-42.0637,-22.2081],[-42.0638,-22.2082]]]}},{"type":"Feature","properties":{"cod_tema":"AREA_USO_RESTRITO_DECLIVIDADE_25_A_45","cod_imovel":"RJ-3302403-E3120E386DA8485FB11306312DF3F909","num_area":"22.583400000000000000000000000000","ind_status":"AT"},"geometry":{"type":"Polygon","coordinates":[[[-42.1356,-22.2537],[-42.139,-22.2544],[-42.1425,-22.248],[-42.1385,-22.2533],[-42.1319,-22.2515],[-42.1339,-22.253],[-42.1356,-22.2537]]]}},{"type":"Feature","properties":{"cod_tema":"AREA_USO_RESTRITO_DECLIVIDADE_25_A_45","cod_imovel":"RJ-3302403-3C83ECBE9D2D4BE3AE593D5A23AED34F","num_area":"36.824300000000000000000000000000","ind_status":"AT"},"geometry":{"type":"Polygon","coordinates":[[[-42.1287,-22.2337],[-42.1276,-22.2364],[-42.1347,-22.2425],[-42.1299,-22.2342],[-42.1287,-22.2337]]]}},{"type":"Feature","properties":{"cod_tema":"AREA_USO_RESTRITO_DECLIVIDADE_25_A_45","cod_imovel":"RJ-3302403-9B85E8225B7341F6985A48E91B5D0BAA","num_area":"88.917100000000000000000000000000","ind_status":"AT"},"geometry":{"type":"Polygon","coordinates":[[[-42.0546,-22.407],[-42.0522,-22.4065],[-42.0546,-22.4075],[-42.0546,-22.407]],[[-42.0716,-22.4087],[-42.0677,-22.4083],[-42.0713,-22.4089],[-42.0716,-22.4087]],[[-42.0627,-22.4027],[-42.0614,-22.4058],[-42.0629,-22.4032],[-42.0627,-22.4027]],[[-42.0627,-22.3895],[-42.0601,-22.3912],[-42.0596,-22.396],[-42.0627,-22.3981],[-42.0609,-22.402],[-42.0642,-22.4002],[-42.0602,-22.3943],[-42.0637,-22.3897],[-42.0627,-22.3895]],[[-42.0624,-22.4176],[-42.0639,-22.4143],[-42.0595,-22.4147],[-42.0503,-22.4067],[-42.053,-22.4123],[-42.0616,-22.4169],[-42.0624,-22.4176]]]}},{"type":"Feature","properties":{"cod_tema":"AREA_USO_RESTRITO_DECLIVIDADE_25_A_45","cod_imovel":"RJ-3302403-824FBE490692425DA4FA75970B2C6CC3","num_area":"4.8944000000000000000000000000000","ind_status":"AT"},"geometry":{"type":"Polygon","coordinates":[[[-42.0898,-22.3266],[-42.0888,-22.3227],[-42.0881,-22.3248],[-42.0898,-22.3266]]]}},{"type":"Feature","properties":{"cod_tema":"AREA_USO_RESTRITO_DECLIVIDADE_25_A_45","cod_imovel":"RJ-3302403-52A41BF6DE564B6FB040F6FAC13B8962","num_area":"65.723500000000000000000000000000","ind_status":"AT"},"geometry":{"type":"Polygon","coordinates":[[[-42.1638,-22.3675],[-42.1636,-22.3725],[-42.1743,-22.3585],[-42.1714,-22.3567],[-42.1643,-22.3605],[-42.1638,-22.3675]]]}},{"type":"Feature","properties":{"cod_tema":"AREA_USO_RESTRITO_DECLIVIDADE_25_A_45","cod_imovel":"RJ-3302403-E3FB2E6810E74733ADF63271A925C53E","num_area":"13.257100000000000000000000000000","ind_status":"AT"},"geometry":{"type":"Polygon","coordinates":[[[-42.2075,-22.2654],[-42.2052,-22.2677],[-42.2095,-22.2724],[-42.2079,-22.267],[-42.2075,-22.2654]]]}},{"type":"Feature","properties":{"cod_tema":"AREA_USO_RESTRITO_DECLIVIDADE_25_A_45","cod_imovel":"RJ-3302403-380BE654599046858F3313C528ED72A1","num_area":"28.451200000000000000000000000000","ind_status":"AT"},"geometry":{"type":"Polygon","coordinates":[[[-42.0855,-22.3829],[-42.099,-22.3802],[-42.0934,-22.3782],[-42.0854,-22.3828],[-42.0855,-22.3829]]]}},{"type":"Feature","properties":{"cod_tema":"AREA_USO_RESTRITO_DECLIVIDADE_25_A_45","cod_imovel":"RJ-3302403-FE2A34AC263C4E538DB4A5505885E5E9","num_area":"118.12170000000000000000000000000","ind_status":"AT"},"geometry":{"type":"Polygon","coordinates":[[[-42.0855,-22.3062],[-42.0806,-22.3071],[-42.0854,-22.3061],[-42.0855,-22.3062]],[[-42.0822,-22.303],[-42.0816,-22.3059],[-42.0822,-22.303],[-42.0822,-22.303]],[[-42.0849,-22.2998],[-42.0828,-22.3045],[-42.0849,-22.3052],[-42.0876,-22.3012],[-42.0851,-22.2963],[-42.085,-22.3027],[-42.0849,-22.2999],[-42.0849,-22.2998]],[[-42.0921,-22.2935],[-42.0858,-22.2951],[-42.0955,-22.2951],[-42.0921,-22.2941],[-42.0921,-22.2935]],[[-42.0861,-22.2967],[-42.0883,-22.3005],[-42.0865,-22.2967],[-42.0861,-22.2967]],[[-42.0883,-22.2968],[-42.0883,-22.3005],[-42.0887,-22.2982],[-42.0883,-22.2968]],[[-42.0911,-22.301],[-42.0866,-22.3013],[-42.0866,-22.3041],[-42.0898,-22.3046],[-42.0914,-22.3011],[-42.0911,-22.301]],[[-42.0898,-22.3021],[-42.0884,-22.2964],[-42.0894,-22.3019],[-42.0898,-22.3021]],[[-42.0895,-22.2963],[-42.0897,-22.3011],[-42.0947,-22.3011],[-42.09,-22.2961],[-42.0895,-22.2963]],[[-42.0937,-22.3042],[-42.091,-22.3001],[-42.0926,-22.3043],[-42.0937,-22.3042]],[[-42.1009,-22.2946],[-42.0925,-22.2958],[-42.0986,-22.2956],[-42.098,-22.2979],[-42.0911,-22.2961],[-42.0961,-22.3002],[-42.1009,-22.2946],[-42.1009,-22.2946]],[[-42.0931,-22.3037],[-42.0961,-22.2996],[-42.0935,-22.3035],[-42.0931,-22.3037]],[[-42.0967,-22.3018],[-42.0979,-22.299],[-42.0965,-22.302],[-42.0967,-22.3018]]]}},{"type":"Feature","properties":{"cod_tema":"AREA_USO_RESTRITO_DECLIVIDADE_25_A_45","cod_imovel":"RJ-3302403-10DE2299120840F082F435B4A065B9BE","num_area":"11.631600000000000000000000000000","ind_status":"AT"},"geometry":{"type":"Polygon","coordinates":[[[-42.0894,-22.2359],[-42.0838,-22.2365],[-42.0893,-22.236],[-42.0894,-22.2359]],[[-42.0839,-22.2373],[-42.0878,-22.2396],[-42.0841,-22.2374],[-42.0839,-22.2373]]]}},{"type":"Feature","properties":{"cod_tema":"AREA_USO_RESTRITO_DECLIVIDADE_25_A_45","cod_imovel":"RJ-3302403-83BA104DEE994F1291D094C5D4538C28","num_area":"90.699200000000000000000000000000","ind_status":"AT"},"geometry":{"type":"Polygon","coordinates":[[[-42.081,-22.2219],[-42.0891,-22.2193],[-42.0933,-22.2233],[-42.096,-22.2132],[-42.092,-22.2124],[-42.0798,-22.2209],[-42.081,-22.2219]]]}},{"type":"Feature","properties":{"cod_tema":"AREA_USO_RESTRITO_DECLIVIDADE_25_A_45","cod_imovel":"RJ-3302403-F2AD397D4CA34D86B9841DBA92FA87B8","num_area":"55.058100000000000000000000000000","ind_status":"AT"},"geometry":{"type":"Polygon","coordinates":[[[-42.0985,-22.3718],[-42.0992,-22.3772],[-42.1013,-22.3753],[-42.104,-22.3787],[-42.1065,-22.3725],[-42.0985,-22.3689],[-42.0985,-22.3714],[-42.0985,-22.3718]]]}},{"type":"Feature","properties":{"cod_tema":"AREA_USO_RESTRITO_DECLIVIDADE_25_A_45","cod_imovel":"RJ-3302403-C6CC096CE6BA443E8A7E7823F24C713E","num_area":"5.0092000000000000000000000000000","ind_status":"AT"},"geometry":{"type":"Polygon","coordinates":[[[-42.1704,-22.3223],[-42.1672,-22.3265],[-42.1708,-22.3219],[-42.1704,-22.3223]]]}},{"type":"Feature","properties":{"cod_tema":"AREA_USO_RESTRITO_DECLIVIDADE_25_A_45","cod_imovel":"RJ-3302403-FF4108217AD34F1EB37A1212A259D417","num_area":"23.802900000000000000000000000000","ind_status":"AT"},"geometry":{"type":"Polygon","coordinates":[[[-42.1339,-22.2974],[-42.1316,-22.2979],[-42.1339,-22.2977],[-42.1339,-22.2974]],[[-42.1318,-22.2967],[-42.1289,-22.2976],[-42.1318,-22.2968],[-42.1318,-22.2967]],[[-42.1276,-22.2955],[-42.1264,-22.2979],[-42.1276,-22.2956],[-42.1276,-22.2955]],[[-42.1302,-22.298],[-42.1264,-22.2981],[-42.1337,-22.2998],[-42.1302,-22.2979],[-42.1302,-22.298]]]}},{"type":"Feature","properties":{"cod_tema":"AREA_USO_RESTRITO_DECLIVIDADE_25_A_45","cod_imovel":"RJ-3302403-89D9C64415BA46ADA1B3B624BE2214A3","num_area":"14.202500000000000000000000000000","ind_status":"AT"},"geometry":{"type":"Polygon","coordinates":[[[-42.1726,-22.3248],[-42.1681,-22.3267],[-42.1745,-22.3278],[-42.1726,-22.3251],[-42.1726,-22.3248]]]}},{"type":"Feature","properties":{"cod_tema":"AREA_USO_RESTRITO_DECLIVIDADE_25_A_45","cod_imovel":"RJ-3302403-72C0BDEEDA9B4005A5774379CBAB8D02","num_area":"20.878300000000000000000000000000","ind_status":"AT"},"geometry":{"type":"Polygon","coordinates":[[[-42.128,-22.2822],[-42.1275,-22.2791],[-42.122,-22.2851],[-42.1277,-22.2824],[-42.128,-22.2822]]]}},{"type":"Feature","properties":{"cod_tema":"AREA_USO_RESTRITO_DECLIVIDADE_25_A_45","cod_imovel":"RJ-3302403-C21D9696EBC244A99DE3BD6348AE66A4","num_area":"5.9979000000000000000000000000000","ind_status":"AT"},"geometry":{"type":"Polygon","coordinates":[[[-42.15,-22.2908],[-42.1467,-22.2916],[-42.1495,-22.2931],[-42.15,-22.2908],[-42.15,-22.2908]]]}},{"type":"Feature","properties":{"cod_tema":"AREA_USO_RESTRITO_DECLIVIDADE_25_A_45","cod_imovel":"RJ-3302403-1341A8D7E9F0439AAF294A973C7AA982","num_area":"7.3114000000000000000000000000000","ind_status":"AT"},"geometry":{"type":"Polygon","coordinates":[[[-42.1427,-22.2486],[-42.1464,-22.2474],[-42.1427,-22.2473],[-42.1427,-22.2486]]]}},{"type":"Feature","properties":{"cod_tema":"AREA_USO_RESTRITO_DECLIVIDADE_25_A_45","cod_imovel":"RJ-3302403-6164D5FDA431494287D8706AB634B08C","num_area":"13.182600000000000000000000000000","ind_status":"AT"},"geometry":{"type":"Polygon","coordinates":[[[-42.1247,-22.3141],[-42.1204,-22.3161],[-42.1251,-22.3178],[-42.1248,-22.3145],[-42.1247,-22.3141]]]}},{"type":"Feature","properties":{"cod_tema":"AREA_USO_RESTRITO_DECLIVIDADE_25_A_45","cod_imovel":"RJ-3302403-3CACF6F8B07F4C8388E4DF6B815D5628","num_area":"3.8962000000000000000000000000000","ind_status":"AT"},"geometry":{"type":"Polygon","coordinates":[[[-42.1495,-22.3058],[-42.1457,-22.3065],[-42.15,-22.3055],[-42.1495,-22.3058]]]}},{"type":"Feature","properties":{"cod_tema":"AREA_USO_RESTRITO_DECLIVIDADE_25_A_45","cod_imovel":"RJ-3302403-AA40301022DA414BB0AFE699D77CA362","num_area":"11.545400000000000000000000000000","ind_status":"AT"},"geometry":{"type":"Polygon","coordinates":[[[-42.1388,-22.2774],[-42.1395,-22.2798],[-42.1422,-22.2762],[-42.1388,-22.2774],[-42.1388,-22.2774]],[[-42.1393,-22.2821],[-42.1372,-22.2806],[-42.1386,-22.2826],[-42.1393,-22.2821]]]}},{"type":"Feature","properties":{"cod_tema":"AREA_USO_RESTRITO_DECLIVIDADE_25_A_45","cod_imovel":"RJ-3302403-7084E8DFD84348F78022C7E070D9E29D","num_area":"33.026700000000000000000000000000","ind_status":"AT"},"geometry":{"type":"Polygon","coordinates":[[[-42.1773,-22.3332],[-42.1705,-22.3331],[-42.1691,-22.3377],[-42.1782,-22.3368],[-42.1775,-22.3343],[-42.1773,-22.3332]]]}},{"type":"Feature","properties":{"cod_tema":"AREA_USO_RESTRITO_DECLIVIDADE_25_A_45","cod_imovel":"RJ-3302403-1C5949D9895F4B5EA3F38CD91F0A572D","num_area":"12.053600000000000000000000000000","ind_status":"AT"},"geometry":{"type":"Polygon","coordinates":[[[-42.1686,-22.3237],[-42.1708,-22.3219],[-42.1657,-22.3223],[-42.1669,-22.3255],[-42.1683,-22.3239],[-42.1686,-22.3237]]]}},{"type":"Feature","properties":{"cod_tema":"AREA_USO_RESTRITO_DECLIVIDADE_25_A_45","cod_imovel":"RJ-3302403-CA540080059244A2A03BB0474496B0E7","num_area":"9.4208000000000000000000000000000","ind_status":"AT"},"geometry":{"type":"Polygon","coordinates":[[[-42.1741,-22.2954],[-42.1711,-22.2948],[-42.1714,-22.2978],[-42.1741,-22.2957],[-42.1741,-22.2954]]]}},{"type":"Feature","properties":{"cod_tema":"AREA_USO_RESTRITO_DECLIVIDADE_25_A_45","cod_imovel":"RJ-3302403-9DCE452CA19844739E37B1F166A4E050","num_area":"18.321900000000000000000000000000","ind_status":"AT"},"geometry":{"type":"Polygon","coordinates":[[[-42.172,-22.2569],[-42.1738,-22.2541],[-42.1698,-22.2509],[-42.172,-22.2565],[-42.172,-22.2569]]]}},{"type":"Feature","properties":{"cod_tema":"AREA_USO_RESTRITO_DECLIVIDADE_25_A_45","cod_imovel":"RJ-3302403-9BD7C7CDB46C4F758C1035050A843209","num_area":"18.538800000000000000000000000000","ind_status":"AT"},"geometry":{"type":"Polygon","coordinates":[[[-42.1505,-22.2746],[-42.1564,-22.2731],[-42.156,-22.2699],[-42.1522,-22.2692],[-42.1544,-22.2721],[-42.1515,-22.2713],[-42.1505,-22.2743],[-42.1505,-22.2746]]]}},{"type":"Feature","properties":{"cod_tema":"AREA_USO_RESTRITO_DECLIVIDADE_25_A_45","cod_imovel":"RJ-3302403-712486CFDA8E4D9BA7A4FD8AEBA4F65F","num_area":"6.4564000000000000000000000000000","ind_status":"AT"},"geometry":{"type":"Polygon","coordinates":[[[-42.0667,-22.3373],[-42.0652,-22.3394],[-42.0687,-22.3387],[-42.0667,-22.3373]]]}},{"type":"Feature","properties":{"cod_tema":"AREA_USO_RESTRITO_DECLIVIDADE_25_A_45","cod_imovel":"RJ-3302403-B062989C2B0B4BF99E6C6CBD47C28DEA","num_area":"3.0393000000000000000000000000000","ind_status":"AT"},"geometry":{"type":"Polygon","coordinates":[[[-42.154,-22.2953],[-42.1515,-22.2973],[-42.154,-22.2956],[-42.154,-22.2953]]]}},{"type":"Feature","properties":{"cod_tema":"AREA_USO_RESTRITO_DECLIVIDADE_25_A_45","cod_imovel":"RJ-3302403-30C66DEF6D304677B0B436AC966C17C9","num_area":"433.29170000000000000000000000000","ind_status":"AT"},"geometry":{"type":"Polygon","coordinates":[[[-41.9137,-22.1798],[-41.9147,-22.182],[-41.9137,-22.1801],[-41.9137,-22.1798]],[[-41.9293,-22.1888],[-41.9273,-22.1875],[-41.9293,-22.188],[-41.9293,-22.1888]],[[-41.9304,-22.2107],[-41.9299,-22.2148],[-41.9304,-22.2118],[-41.9304,-22.2107]],[[-41.9133,-22.1723],[-41.9113,-22.1731],[-41.9133,-22.1728],[-41.9133,-22.1723]],[[-41.9352,-22.1629],[-41.9332,-22.1646],[-41.9355,-22.1629],[-41.9352,-22.1629]],[[-41.9274,-22.1937],[-41.9254,-22.1956],[-41.9292,-22.1953],[-41.9274,-22.194],[-41.9274,-22.1937]],[[-41.9282,-22.1928],[-41.927,-22.1899],[-41.9282,-22.1929],[-41.9282,-22.1928]],[[-41.9322,-22.1719],[-41.9342,-22.1738],[-41.9322,-22.1722],[-41.9322,-22.1719]],[[-41.9271,-22.2097],[-41.9293,-22.2145],[-41.9271,-22.2099],[-41.9271,-22.2097]],[[-41.9427,-22.1617],[-41.944,-22.159],[-41.9409,-22.1586],[-41.9424,-22.1617],[-41.9427,-22.1617]],[[-41.9314,-22.2069],[-41.928,-22.2102],[-41.9315,-22.2091],[-41.9314,-22.2069]],[[-41.926,-22.1972],[-41.9284,-22.1996],[-41.926,-22.1975],[-41.926,-22.1972]],[[-41.9113,-22.1731],[-41.9087,-22.178],[-41.9113,-22.1737],[-41.9113,-22.1731]],[[-41.9255,-22.1989],[-41.9261,-22.2032],[-41.9255,-22.1991],[-41.9255,-22.1989]],[[-41.9212,-22.1627],[-41.9233,-22.1659],[-41.9212,-22.1629],[-41.9212,-22.1627]],[[-41.9457,-22.2087],[-41.9478,-22.2104],[-41.9458,-22.2088],[-41.9457,-22.2087]],[[-41.9293,-22.2031],[-41.9285,-22.2072],[-41.9311,-22.2058],[-41.9293,-22.2034],[-41.9293,-22.2031]],[[-41.9361,-22.1957],[-41.9292,-22.1969],[-41.9385,-22.197],[-41.9362,-22.1962],[-41.9361,-22.1957]],[[-41.9299,-22.2004],[-41.9341,-22.209],[-41.9299,-22.2007],[-41.9299,-22.2004]],[[-41.9139,-22.1865],[-41.9171,-22.1887],[-41.914,-22.1899],[-41.9155,-22.1936],[-41.9192,-22.1928],[-41.9186,-22.1887],[-41.9233,-22.1908],[-41.9144,-22.1966],[-41.9213,-22.1957],[-41.9237,-22.2005],[-41.9213,-22.1943],[-41.9254,-22.1972],[-41.9258,-22.1888],[-41.92,-22.1898],[-41.9194,-22.1854],[-41.9136,-22.1855],[-41.9115,-22.1821],[-41.9139,-22.1864],[-41.9139,-22.1865]],[[-41.9384,-22.1618],[-41.9349,-22.1654],[-41.9259,-22.1634],[-41.9202,-22.1686],[-41.92,-22.1732],[-41.9235,-22.1753],[-41.9209,-22.1732],[-41.9232,-22.1718],[-41.925,-22.1788],[-41.9165,-22.1712],[-41.911,-22.1704],[-41.9186,-22.1749],[-41.9186,-22.1779],[-41.928,-22.1812],[-41.9298,-22.1855],[-41.9342,-22.1738],[-41.9325,-22.176],[-41.9255,-22.1731],[-41.9243,-22.1688],[-41.9306,-22.1649],[-41.9376,-22.1699],[-41.9371,-22.1729],[-41.9364,-22.1659],[-41.9393,-22.1669],[-41.9416,-22.1639],[-41.9384,-22.1618],[-41.9384,-22.1618]],[[-41.9211,-22.1705],[-41.9219,-22.1686],[-41.9211,-22.1708],[-41.9211,-22.1705]],[[-41.9285,-22.1777],[-41.925,-22.1756],[-41.9282,-22.1777],[-41.9285,-22.1777]],[[-41.9274,-22.1655],[-41.926,-22.1674],[-41.9271,-22.1655],[-41.9274,-22.1655]]]}},{"type":"Feature","properties":{"cod_tema":"AREA_USO_RESTRITO_DECLIVIDADE_25_A_45","cod_imovel":"RJ-3302403-54CE633298E949C792DB2946E9E7AD5C","num_area":"8.3549000000000000000000000000000","ind_status":"AT"},"geometry":{"type":"Polygon","coordinates":[[[-42.1518,-22.2747],[-42.1537,-22.2768],[-42.1521,-22.2748],[-42.1518,-22.2747]],[[-42.1544,-22.277],[-42.1532,-22.2747],[-42.1541,-22.277],[-42.1544,-22.277]]]}},{"type":"Feature","properties":{"cod_tema":"AREA_USO_RESTRITO_DECLIVIDADE_25_A_45","cod_imovel":"RJ-3302403-800EA9EB744645FAB6C263B7FCB0CBBA","num_area":"6.4997000000000000000000000000000","ind_status":"AT"},"geometry":{"type":"Polygon","coordinates":[[[-42.2224,-22.2935],[-42.2274,-22.292],[-42.2234,-22.2916],[-42.2224,-22.2935]]]}},{"type":"Feature","properties":{"cod_tema":"AREA_USO_RESTRITO_DECLIVIDADE_25_A_45","cod_imovel":"RJ-3302403-55C6F9E3289A4C8DB2709C7B44C1DEB6","num_area":"18.581300000000000000000000000000","ind_status":"AT"},"geometry":{"type":"Polygon","coordinates":[[[-42.0875,-22.2771],[-42.0816,-22.2774],[-42.0843,-22.2782],[-42.0814,-22.28],[-42.0851,-22.2808],[-42.0886,-22.2783],[-42.0845,-22.2779],[-42.0875,-22.2772],[-42.0875,-22.2771]]]}},{"type":"Feature","properties":{"cod_tema":"AREA_USO_RESTRITO_DECLIVIDADE_25_A_45","cod_imovel":"RJ-3302403-81418731B4924101A969DBA4488F7AE3","num_area":"12.333000000000000000000000000000","ind_status":"AT"},"geometry":{"type":"Polygon","coordinates":[[[-42.2144,-22.3342],[-42.2161,-22.336],[-42.2223,-22.3326],[-42.2157,-22.3337],[-42.2144,-22.3342]]]}},{"type":"Feature","properties":{"cod_tema":"AREA_USO_RESTRITO_DECLIVIDADE_25_A_45","cod_imovel":"RJ-3302403-967B60A153444560A77C6B9898191605","num_area":"17.716600000000000000000000000000","ind_status":"AT"},"geometry":{"type":"Polygon","coordinates":[[[-42.1626,-22.3352],[-42.1655,-22.3382],[-42.1627,-22.3352],[-42.1626,-22.3352]],[[-42.168,-22.3382],[-42.1668,-22.3342],[-42.164,-22.3345],[-42.168,-22.3379],[-42.168,-22.3382]]]}},{"type":"Feature","properties":{"cod_tema":"AREA_USO_RESTRITO_DECLIVIDADE_25_A_45","cod_imovel":"RJ-3302403-2A1ECA07D90A4A92B4910CF19A9D0FAB","num_area":"12.495200000000000000000000000000","ind_status":"AT"},"geometry":{"type":"Polygon","coordinates":[[[-42.157,-22.3355],[-42.1575,-22.3323],[-42.1536,-22.3331],[-42.1564,-22.3355],[-42.157,-22.3355]]]}},{"type":"Feature","properties":{"cod_tema":"AREA_USO_RESTRITO_DECLIVIDADE_25_A_45","cod_imovel":"RJ-3302403-781C44F8155C46C6BA00DC2530103782","num_area":"4.6769000000000000000000000000000","ind_status":"AT"},"geometry":{"type":"Polygon","coordinates":[[[-42.1419,-22.2869],[-42.1399,-22.2874],[-42.1419,-22.2874],[-42.1419,-22.2869]],[[-42.1378,-22.2882],[-42.1387,-22.2906],[-42.138,-22.2882],[-42.1378,-22.2882]]]}},{"type":"Feature","properties":{"cod_tema":"AREA_USO_RESTRITO_DECLIVIDADE_25_A_45","cod_imovel":"RJ-3302403-909ABEA0D6784F94B24808B0CA387417","num_area":"47.159300000000000000000000000000","ind_status":"AT"},"geometry":{"type":"Polygon","coordinates":[[[-42.1695,-22.2269],[-42.1575,-22.2288],[-42.1675,-22.228],[-42.1635,-22.2323],[-42.1645,-22.2306],[-42.1545,-22.2315],[-42.1493,-22.2267],[-42.1547,-22.2289],[-42.1538,-22.227],[-42.1478,-22.2255],[-42.1544,-22.2326],[-42.1647,-22.2332],[-42.1695,-22.2269]]]}},{"type":"Feature","properties":{"cod_tema":"AREA_USO_RESTRITO_DECLIVIDADE_25_A_45","cod_imovel":"RJ-3302403-5FDBB607C98B429FB90416D19805FC7E","num_area":"475.04340000000000000000000000000","ind_status":"AT"},"geometry":{"type":"Polygon","coordinates":[[[-41.9333,-22.1791],[-41.936,-22.1641],[-41.9204,-22.1634],[-41.9169,-22.1655],[-41.9194,-22.1701],[-41.9143,-22.1688],[-41.9079,-22.1745],[-41.907,-22.1787],[-41.912,-22.185],[-41.9333,-22.1791]]]}},{"type":"Feature","properties":{"cod_tema":"AREA_USO_RESTRITO_DECLIVIDADE_25_A_45","cod_imovel":"RJ-3302403-7B6413EBDB16442CA9FD92750EF05979","num_area":"9.0915000000000000000000000000000","ind_status":"AT"},"geometry":{"type":"Polygon","coordinates":[[[-42.1645,-22.3034],[-42.1607,-22.3069],[-42.1648,-22.3066],[-42.1625,-22.3062],[-42.1645,-22.3035],[-42.1645,-22.3034]]]}},{"type":"Feature","properties":{"cod_tema":"AREA_USO_RESTRITO_DECLIVIDADE_25_A_45","cod_imovel":"RJ-3302403-043B63949DFE450A8BC43DB06E664A4A","num_area":"14.390700000000000000000000000000","ind_status":"AT"},"geometry":{"type":"Polygon","coordinates":[[[-42.1602,-22.3055],[-42.1567,-22.307],[-42.1621,-22.3076],[-42.1602,-22.3055]],[[-42.162,-22.3076],[-42.159,-22.3112],[-42.1631,-22.3091],[-42.162,-22.3076]]]}},{"type":"Feature","properties":{"cod_tema":"AREA_USO_RESTRITO_DECLIVIDADE_25_A_45","cod_imovel":"RJ-3302403-98D2ADDE44804ECD8652AA1807CD0187","num_area":"3.0674000000000000000000000000000","ind_status":"AT"},"geometry":{"type":"Polygon","coordinates":[[[-42.1696,-22.2532],[-42.17,-22.2509],[-42.1694,-22.2532],[-42.1696,-22.2532]]]}},{"type":"Feature","properties":{"cod_tema":"AREA_USO_RESTRITO_DECLIVIDADE_25_A_45","cod_imovel":"RJ-3302403-2428BBDA1BBC4B7EB53A50D38D74FB6A","num_area":"3.3339000000000000000000000000000","ind_status":"AT"},"geometry":{"type":"Polygon","coordinates":[[[-42.1648,-22.3112],[-42.1611,-22.3134],[-42.164,-22.3117],[-42.1648,-22.3112]]]}},{"type":"Feature","properties":{"cod_tema":"AREA_USO_RESTRITO_DECLIVIDADE_25_A_45","cod_imovel":"RJ-3302403-3418F57D694D400C94D74DDC726F06A2","num_area":"34.495900000000000000000000000000","ind_status":"AT"},"geometry":{"type":"Polygon","coordinates":[[[-42.1596,-22.374],[-42.158,-22.3754],[-42.1596,-22.3742],[-42.1596,-22.374]],[[-42.1534,-22.3747],[-42.1521,-22.3768],[-42.1535,-22.3746],[-42.1534,-22.3747]],[[-42.1643,-22.3785],[-42.1587,-22.3756],[-42.1594,-22.3792],[-42.1643,-22.3785],[-42.1643,-22.3785]],[[-42.1527,-22.3789],[-42.1596,-22.3709],[-42.1584,-22.3684],[-42.153,-22.3789],[-42.1527,-22.3789]]]}},{"type":"Feature","properties":{"cod_tema":"AREA_USO_RESTRITO_DECLIVIDADE_25_A_45","cod_imovel":"RJ-3302403-41123785CE254C14AF2DDDB272EEE36B","num_area":"20.658600000000000000000000000000","ind_status":"AT"},"geometry":{"type":"Polygon","coordinates":[[[-42.149,-22.2907],[-42.1471,-22.2929],[-42.1553,-22.2844],[-42.1495,-22.2906],[-42.149,-22.2907]]]}},{"type":"Feature","properties":{"cod_tema":"AREA_USO_RESTRITO_DECLIVIDADE_25_A_45","cod_imovel":"RJ-3302403-0B27FF8711004567BC875970B397FBC7","num_area":"53.763600000000000000000000000000","ind_status":"AT"},"geometry":{"type":"Polygon","coordinates":[[[-42.1529,-22.3245],[-42.149,-22.3204],[-42.1486,-22.3229],[-42.1484,-22.3206],[-42.1454,-22.3219],[-42.152,-22.3253],[-42.1529,-22.3245]],[[-42.1594,-22.3195],[-42.1608,-22.3162],[-42.1576,-22.3131],[-42.1534,-22.3145],[-42.1593,-22.3195],[-42.1594,-22.3195]],[[-42.1447,-22.3228],[-42.1506,-22.3256],[-42.145,-22.3225],[-42.1447,-22.3228]]]}},{"type":"Feature","properties":{"cod_tema":"AREA_USO_RESTRITO_DECLIVIDADE_25_A_45","cod_imovel":"RJ-3302403-FFE4931AE1CD4258AD1E0E64A161A974","num_area":"17.365400000000000000000000000000","ind_status":"AT"},"geometry":{"type":"Polygon","coordinates":[[[-42.1666,-22.2536],[-42.169,-22.2464],[-42.1641,-22.2543],[-42.1666,-22.2536],[-42.1666,-22.2536]]]}},{"type":"Feature","properties":{"cod_tema":"AREA_USO_RESTRITO_DECLIVIDADE_25_A_45","cod_imovel":"RJ-3302403-7431620CCD2843469BB6299B446C1A45","num_area":"22.571100000000000000000000000000","ind_status":"AT"},"geometry":{"type":"Polygon","coordinates":[[[-42.1553,-22.3677],[-42.1553,-22.3654],[-42.1478,-22.3648],[-42.1466,-22.3672],[-42.1538,-22.3677],[-42.1553,-22.3677]]]}},{"type":"Feature","properties":{"cod_tema":"AREA_USO_RESTRITO_DECLIVIDADE_25_A_45","cod_imovel":"RJ-3302403-FA7C1E7969A74E1D97D61223020DE8F0","num_area":"4.8070000000000000000000000000000","ind_status":"AT"},"geometry":{"type":"Polygon","coordinates":[[[-42.1643,-22.2521],[-42.1654,-22.2469],[-42.1643,-22.2521],[-42.1643,-22.2521]]]}},{"type":"Feature","properties":{"cod_tema":"AREA_USO_RESTRITO_DECLIVIDADE_25_A_45","cod_imovel":"RJ-3302403-3EA0CEEB266A4461BB28CF9BE060D62D","num_area":"28.464100000000000000000000000000","ind_status":"AT"},"geometry":{"type":"Polygon","coordinates":[[[-42.1402,-22.2868],[-42.1364,-22.2831],[-42.1402,-22.2868],[-42.1402,-22.2868]],[[-42.1307,-22.2855],[-42.1254,-22.2881],[-42.1332,-22.2878],[-42.1307,-22.2856],[-42.1307,-22.2855]],[[-42.1368,-22.2883],[-42.1356,-22.2835],[-42.1353,-22.2884],[-42.1369,-22.2871],[-42.1368,-22.2883]]]}},{"type":"Feature","properties":{"cod_tema":"AREA_USO_RESTRITO_DECLIVIDADE_25_A_45","cod_imovel":"RJ-3302403-4506E8D7BC8B41A1B2E769610C2C61C0","num_area":"1.9643000000000000000000000000000","ind_status":"AT"},"geometry":{"type":"Polygon","coordinates":[[[-42.1529,-22.2776],[-42.1537,-22.281],[-42.1527,-22.2778],[-42.1529,-22.2776]]]}},{"type":"Feature","properties":{"cod_tema":"AREA_USO_RESTRITO_DECLIVIDADE_25_A_45","cod_imovel":"RJ-3302403-4AB235E956EF4FC3897730EFDF90D934","num_area":"7.0900000000000000000000000000000","ind_status":"AT"},"geometry":{"type":"Polygon","coordinates":[[[-42.2063,-22.3276],[-42.2097,-22.3276],[-42.2062,-22.3275],[-42.2063,-22.3276]]]}},{"type":"Feature","properties":{"cod_tema":"AREA_USO_RESTRITO_DECLIVIDADE_25_A_45","cod_imovel":"RJ-3302403-7F042D7E9957485B9A528A99C4B404BE","num_area":"50.424200000000000000000000000000","ind_status":"AT"},"geometry":{"type":"Polygon","coordinates":[[[-42.0545,-22.3357],[-42.0526,-22.3405],[-42.0607,-22.3405],[-42.0605,-22.3344],[-42.0556,-22.334],[-42.0545,-22.3357]]]}},{"type":"Feature","properties":{"cod_tema":"AREA_USO_RESTRITO_DECLIVIDADE_25_A_45","cod_imovel":"RJ-3302403-948E22F09AE549E2A5EFC71E3561717A","num_area":"241.59040000000000000000000000000","ind_status":"AT"},"geometry":{"type":"Polygon","coordinates":[[[-42.0316,-22.3202],[-42.0321,-22.3148],[-42.0279,-22.3153],[-42.0303,-22.3158],[-42.0301,-22.3125],[-42.0317,-22.316],[-42.0307,-22.3115],[-42.0279,-22.3122],[-42.0313,-22.3111],[-42.0203,-22.3102],[-42.0232,-22.3116],[-42.0206,-22.3115],[-42.0221,-22.3173],[-42.0241,-22.3173],[-42.0212,-22.3129],[-42.0235,-22.3181],[-42.025,-22.3158],[-42.0253,-22.3178],[-42.0217,-22.317],[-42.025,-22.324],[-42.0319,-22.3242],[-42.0316,-22.3208],[-42.0316,-22.3202]],[[-42.0235,-22.312],[-42.0275,-22.3162],[-42.0233,-22.312],[-42.0235,-22.312]],[[-42.0237,-22.3141],[-42.0257,-22.3164],[-42.024,-22.3143],[-42.0237,-22.3141]],[[-42.0278,-22.312],[-42.0238,-22.3119],[-42.0277,-22.3119],[-42.0278,-22.312]],[[-42.0256,-22.3178],[-42.0267,-22.3157],[-42.0269,-22.3199],[-42.0262,-22.3176],[-42.0256,-22.3178]],[[-42.0267,-22.3211],[-42.0283,-22.3198],[-42.0268,-22.3212],[-42.0267,-22.3211]],[[-42.0283,-22.3194],[-42.0303,-22.3165],[-42.0323,-22.3182],[-42.0286,-22.3194],[-42.0283,-22.3194]],[[-42.0281,-22.322],[-42.0301,-22.3195],[-42.0281,-22.322],[-42.0281,-22.322]],[[-42.023,-22.3231],[-42.0253,-22.3234],[-42.0225,-22.3208],[-42.0232,-22.323],[-42.023,-22.3231]],[[-42.0287,-22.3258],[-42.0256,-22.3254],[-42.0287,-22.3259],[-42.0287,-22.3258]],[[-42.0469,-22.3198],[-42.0433,-22.3184],[-42.047,-22.319],[-42.0427,-22.3142],[-42.0467,-22.3151],[-42.0454,-22.3115],[-42.0413,-22.3123],[-42.0451,-22.3144],[-42.0329,-22.3107],[-42.034,-22.3162],[-42.0365,-22.3122],[-42.0409,-22.3143],[-42.0333,-22.3171],[-42.0378,-22.3163],[-42.0344,-22.3177],[-42.0348,-22.3215],[-42.0333,-22.3183],[-42.0339,-22.3217],[-42.0385,-22.3221],[-42.0352,-22.3197],[-42.0397,-22.3197],[-42.0389,-22.3156],[-42.0385,-22.3219],[-42.0447,-22.3204],[-42.041,-22.3173],[-42.0453,-22.3202],[-42.0469,-22.3198]],[[-42.0399,-22.3147],[-42.0415,-22.3169],[-42.0397,-22.315],[-42.0399,-22.3147]],[[-42.0414,-22.3156],[-42.0445,-22.3167],[-42.0414,-22.3156],[-42.0414,-22.3156]]]}},{"type":"Feature","properties":{"cod_tema":"AREA_USO_RESTRITO_DECLIVIDADE_25_A_45","cod_imovel":"RJ-3302403-17FD12E4C0434639921308F1D8E0639D","num_area":"15.794700000000000000000000000000","ind_status":"AT"},"geometry":{"type":"Polygon","coordinates":[[[-41.9829,-22.1277],[-41.9816,-22.1307],[-41.9852,-22.1331],[-41.9864,-22.1302],[-41.9838,-22.1283],[-41.9829,-22.1277]]]}},{"type":"Feature","properties":{"cod_tema":"AREA_USO_RESTRITO_DECLIVIDADE_25_A_45","cod_imovel":"RJ-3302403-5D21E967C2464D94AF79C8300183D222","num_area":"9.1080000000000000000000000000000","ind_status":"AT"},"geometry":{"type":"Polygon","coordinates":[[[-41.7929,-22.2058],[-41.7897,-22.2045],[-41.7926,-22.2061],[-41.7929,-22.2058]],[[-41.7946,-22.2026],[-41.7913,-22.2042],[-41.7945,-22.203],[-41.7946,-22.2026]]]}},{"type":"Feature","properties":{"cod_tema":"AREA_USO_RESTRITO_DECLIVIDADE_25_A_45","cod_imovel":"RJ-3302403-5CA3D52500AA479AAFC24F7B0F0D1B4B","num_area":"12.691700000000000000000000000000","ind_status":"AT"},"geometry":{"type":"Polygon","coordinates":[[[-42.1842,-22.3891],[-42.1849,-22.3929],[-42.1879,-22.3911],[-42.1842,-22.3891],[-42.1842,-22.3891]]]}},{"type":"Feature","properties":{"cod_tema":"AREA_USO_RESTRITO_DECLIVIDADE_25_A_45","cod_imovel":"RJ-3302403-611F2B95D77240C6AC202E6CB1F6A0BD","num_area":"11.236000000000000000000000000000","ind_status":"AT"},"geometry":{"type":"Polygon","coordinates":[[[-42.1337,-22.3571],[-42.1295,-22.3542],[-42.1279,-22.3566],[-42.1333,-22.3576],[-42.1337,-22.3571]]]}},{"type":"Feature","properties":{"cod_tema":"AREA_USO_RESTRITO_DECLIVIDADE_25_A_45","cod_imovel":"RJ-3302403-74810A51620F414E995802FE8B2A1C10","num_area":"68.506000000000000000000000000000","ind_status":"AT"},"geometry":{"type":"Polygon","coordinates":[[[-42.07,-22.2294],[-42.0623,-22.2196],[-42.0605,-22.2301],[-42.0696,-22.2316],[-42.07,-22.2294]]]}},{"type":"Feature","properties":{"cod_tema":"AREA_USO_RESTRITO_DECLIVIDADE_25_A_45","cod_imovel":"RJ-3302403-AE49F24A484A4E1BA22EE042746475B4","num_area":"13.520200000000000000000000000000","ind_status":"AT"},"geometry":{"type":"Polygon","coordinates":[[[-42.1598,-22.2454],[-42.1551,-22.2465],[-42.1565,-22.2492],[-42.161,-22.2467],[-42.1598,-22.2454]]]}},{"type":"Feature","properties":{"cod_tema":"AREA_USO_RESTRITO_DECLIVIDADE_25_A_45","cod_imovel":"RJ-3302403-404BD34CA79244C4ABE48BC8D9D09FD0","num_area":"8.3464000000000000000000000000000","ind_status":"AT"},"geometry":{"type":"Polygon","coordinates":[[[-42.1869,-22.3915],[-42.1822,-22.3951],[-42.1851,-22.3936],[-42.1846,-22.3966],[-42.1872,-22.3916],[-42.1869,-22.3915]]]}},{"type":"Feature","properties":{"cod_tema":"AREA_USO_RESTRITO_DECLIVIDADE_25_A_45","cod_imovel":"RJ-3302403-1F4EB8A0A7D24B20A6DC88D70F6FE7BE","num_area":"3.9488000000000000000000000000000","ind_status":"AT"},"geometry":{"type":"Polygon","coordinates":[[[-42.0891,-22.326],[-42.0864,-22.3253],[-42.0887,-22.3275],[-42.0891,-22.326]]]}},{"type":"Feature","properties":{"cod_tema":"AREA_USO_RESTRITO_DECLIVIDADE_25_A_45","cod_imovel":"RJ-3302403-59C40A9E0C0D4DAAAD6C2519050AE278","num_area":"1.3791000000000000000000000000000","ind_status":"AT"},"geometry":{"type":"Polygon","coordinates":[[[-42.2035,-22.4125],[-42.2015,-22.4102],[-42.203,-22.4124],[-42.2035,-22.4125]]]}},{"type":"Feature","properties":{"cod_tema":"AREA_USO_RESTRITO_DECLIVIDADE_25_A_45","cod_imovel":"RJ-3302403-018EA1E0A48D4E5C8B557C2AACFD4F64","num_area":"15.741600000000000000000000000000","ind_status":"AT"},"geometry":{"type":"Polygon","coordinates":[[[-42.1865,-22.3746],[-42.1866,-22.3721],[-42.1813,-22.3733],[-42.1865,-22.3746],[-42.1865,-22.3746]],[[-42.1799,-22.3707],[-42.1811,-22.3733],[-42.1806,-22.3708],[-42.1799,-22.3707]],[[-42.1866,-22.3705],[-42.1841,-22.3705],[-42.1866,-22.3707],[-42.1866,-22.3705]]]}},{"type":"Feature","properties":{"cod_tema":"AREA_USO_RESTRITO_DECLIVIDADE_25_A_45","cod_imovel":"RJ-3302403-0881F4954ECD4471ACA918C19078684C","num_area":"6.3817000000000000000000000000000","ind_status":"AT"},"geometry":{"type":"Polygon","coordinates":[[[-42.2009,-22.3142],[-42.2034,-22.3161],[-42.2017,-22.3143],[-42.2009,-22.3142]]]}},{"type":"Feature","properties":{"cod_tema":"AREA_USO_RESTRITO_DECLIVIDADE_25_A_45","cod_imovel":"RJ-3302403-05D10952A9C2472BA43DD6EDDCC13352","num_area":"24.605700000000000000000000000000","ind_status":"AT"},"geometry":{"type":"Polygon","coordinates":[[[-41.8982,-22.3917],[-41.896,-22.3946],[-41.9,-22.3974],[-41.9021,-22.3959],[-41.8982,-22.3917],[-41.8982,-22.3917]]]}},{"type":"Feature","properties":{"cod_tema":"AREA_USO_RESTRITO_DECLIVIDADE_25_A_45","cod_imovel":"RJ-3302403-080CBE857446444D9753DE90DA8876FC","num_area":"22.502700000000000000000000000000","ind_status":"AT"},"geometry":{"type":"Polygon","coordinates":[[[-42.0474,-22.3552],[-42.0449,-22.354],[-42.0478,-22.3556],[-42.0474,-22.3552]],[[-42.0483,-22.3611],[-42.0504,-22.357],[-42.047,-22.3603],[-42.0404,-22.3592],[-42.0402,-22.3613],[-42.0474,-22.3612],[-42.0483,-22.3611]]]}},{"type":"Feature","properties":{"cod_tema":"AREA_USO_RESTRITO_DECLIVIDADE_25_A_45","cod_imovel":"RJ-3302403-0DFF883E5EFC44FDA4BB8190139258F2","num_area":"3.0283000000000000000000000000000","ind_status":"AT"},"geometry":{"type":"Polygon","coordinates":[[[-42.1956,-22.3441],[-42.1956,-22.3467],[-42.1957,-22.3441],[-42.1956,-22.3441]]]}},{"type":"Feature","properties":{"cod_tema":"AREA_USO_RESTRITO_DECLIVIDADE_25_A_45","cod_imovel":"RJ-3302403-126A0F309970404DA834A236DBF2B4CC","num_area":"80.106800000000000000000000000000","ind_status":"AT"},"geometry":{"type":"Polygon","coordinates":[[[-42.1803,-22.2681],[-42.1833,-22.2739],[-42.1891,-22.2719],[-42.1887,-22.2671],[-42.182,-22.2708],[-42.1803,-22.2677],[-42.1803,-22.2681]],[[-42.1943,-22.2665],[-42.193,-22.2621],[-42.1894,-22.2637],[-42.1896,-22.2707],[-42.193,-22.2681],[-42.1943,-22.2665]]]}},{"type":"Feature","properties":{"cod_tema":"AREA_USO_RESTRITO_DECLIVIDADE_25_A_45","cod_imovel":"RJ-3302403-9A929DDF1724423FB182C0DF97190A9E","num_area":"8.0491000000000000000000000000000","ind_status":"AT"},"geometry":{"type":"Polygon","coordinates":[[[-42.1092,-22.2162],[-42.1063,-22.2187],[-42.11,-22.2186],[-42.1095,-22.2162],[-42.1092,-22.2162]]]}},{"type":"Feature","properties":{"cod_tema":"AREA_USO_RESTRITO_DECLIVIDADE_25_A_45","cod_imovel":"RJ-3302403-A0680C71564C4C0CAB81D50E6F47DA69","num_area":"261.49770000000000000000000000000","ind_status":"AT"},"geometry":{"type":"Polygon","coordinates":[[[-42.1024,-22.3455],[-42.0986,-22.3512],[-42.0939,-22.3499],[-42.0976,-22.3552],[-42.1101,-22.3598],[-42.1156,-22.3524],[-42.1122,-22.3446],[-42.1047,-22.3389],[-42.1031,-22.3439],[-42.1024,-22.3455]]]}},{"type":"Feature","properties":{"cod_tema":"AREA_USO_RESTRITO_DECLIVIDADE_25_A_45","cod_imovel":"RJ-3302403-16BDE2F4FC05455BB99674B9ADAF7BD0","num_area":"17.001300000000000000000000000000","ind_status":"AT"},"geometry":{"type":"Polygon","coordinates":[[[-41.9952,-22.256],[-42.0036,-22.2605],[-41.9956,-22.2563],[-41.9952,-22.256]]]}},{"type":"Feature","properties":{"cod_tema":"AREA_USO_RESTRITO_DECLIVIDADE_25_A_45","cod_imovel":"RJ-3302403-2E78A28088C64801BB9A01E1116D1414","num_area":"41.021400000000000000000000000000","ind_status":"AT"},"geometry":{"type":"Polygon","coordinates":[[[-42.0397,-22.3269],[-42.0405,-22.3304],[-42.0499,-22.3213],[-42.0475,-22.3194],[-42.0397,-22.3269]]]}},{"type":"Feature","properties":{"cod_tema":"AREA_USO_RESTRITO_DECLIVIDADE_25_A_45","cod_imovel":"RJ-3302403-18DD5EAD153C43E189A8AC8C4272FECE","num_area":"6.3483000000000000000000000000000","ind_status":"AT"},"geometry":{"type":"Polygon","coordinates":[[[-42.0701,-22.2378],[-42.0722,-22.2369],[-42.0645,-22.2378],[-42.0695,-22.2375],[-42.0701,-22.2378]]]}},{"type":"Feature","properties":{"cod_tema":"AREA_USO_RESTRITO_DECLIVIDADE_25_A_45","cod_imovel":"RJ-3302403-1C91549F2EB948539C1472BFC5606CBD","num_area":"0.5927000000000000000000000000000","ind_status":"AT"},"geometry":{"type":"Polygon","coordinates":[[[-42.1981,-22.3716],[-42.1988,-22.3745],[-42.1981,-22.3717],[-42.1981,-22.3716]]]}},{"type":"Feature","properties":{"cod_tema":"AREA_USO_RESTRITO_DECLIVIDADE_25_A_45","cod_imovel":"RJ-3302403-1D0EACC96ADB40F69F0BE84688F805F0","num_area":"2.3642000000000000000000000000000","ind_status":"AT"},"geometry":{"type":"Polygon","coordinates":[[[-42.1938,-22.3121],[-42.1917,-22.311],[-42.1938,-22.3121],[-42.1938,-22.3121]]]}},{"type":"Feature","properties":{"cod_tema":"AREA_USO_RESTRITO_DECLIVIDADE_25_A_45","cod_imovel":"RJ-3302403-208FC3CD1478470A9FD2A58C59188A2A","num_area":"35.925300000000000000000000000000","ind_status":"AT"},"geometry":{"type":"Polygon","coordinates":[[[-42.1521,-22.3327],[-42.1453,-22.332],[-42.1518,-22.3332],[-42.1521,-22.3327]],[[-42.1523,-22.3264],[-42.149,-22.3249],[-42.1473,-22.3283],[-42.1528,-22.3315],[-42.1524,-22.3264],[-42.1523,-22.3264]]]}},{"type":"Feature","properties":{"cod_tema":"AREA_USO_RESTRITO_DECLIVIDADE_25_A_45","cod_imovel":"RJ-3302403-2C180CF3A7314C01852049663EE1FF54","num_area":"1.0273000000000000000000000000000","ind_status":"AT"},"geometry":{"type":"Polygon","coordinates":[[[-42.1975,-22.3718],[-42.1977,-22.3746],[-42.1976,-22.3723],[-42.1975,-22.3718]]]}},{"type":"Feature","properties":{"cod_tema":"AREA_USO_RESTRITO_DECLIVIDADE_25_A_45","cod_imovel":"RJ-3302403-3ACBCCC59475431484CC4E11F5628C3E","num_area":"21.530000000000000000000000000000","ind_status":"AT"},"geometry":{"type":"Polygon","coordinates":[[[-42.1796,-22.3367],[-42.1837,-22.331],[-42.177,-22.3321],[-42.1783,-22.3371],[-42.1796,-22.3367]]]}},{"type":"Feature","properties":{"cod_tema":"AREA_USO_RESTRITO_DECLIVIDADE_25_A_45","cod_imovel":"RJ-3302403-3B9F5128BD314742AA59F30B996A6504","num_area":"11.406500000000000000000000000000","ind_status":"AT"},"geometry":{"type":"Polygon","coordinates":[[[-42.1993,-22.337],[-42.2018,-22.3383],[-42.2037,-22.3316],[-42.1999,-22.337],[-42.1993,-22.337]]]}},{"type":"Feature","properties":{"cod_tema":"AREA_USO_RESTRITO_DECLIVIDADE_25_A_45","cod_imovel":"RJ-3302403-5223825AC60941C6B664F97382371E87","num_area":"39.632400000000000000000000000000","ind_status":"AT"},"geometry":{"type":"Polygon","coordinates":[[[-42.1962,-22.4272],[-42.1977,-22.4227],[-42.1876,-22.4228],[-42.187,-22.4255],[-42.1943,-22.4273],[-42.1962,-22.4272]]]}},{"type":"Feature","properties":{"cod_tema":"AREA_USO_RESTRITO_DECLIVIDADE_25_A_45","cod_imovel":"RJ-3302403-536C5EF030D84CAC951AEFDD0657AC9D","num_area":"15.398400000000000000000000000000","ind_status":"AT"},"geometry":{"type":"Polygon","coordinates":[[[-42.2165,-22.36],[-42.2113,-22.357],[-42.2134,-22.3614],[-42.2163,-22.36],[-42.2165,-22.36]],[[-42.2113,-22.358],[-42.2134,-22.359],[-42.2113,-22.3576],[-42.2113,-22.358]]]}},{"type":"Feature","properties":{"cod_tema":"AREA_USO_RESTRITO_DECLIVIDADE_25_A_45","cod_imovel":"RJ-3302403-54C04387B8B343CE82FC2521C5B7EDF8","num_area":"6.7273000000000000000000000000000","ind_status":"AT"},"geometry":{"type":"Polygon","coordinates":[[[-42.1953,-22.3723],[-42.1924,-22.3717],[-42.1957,-22.3741],[-42.1953,-22.3723]]]}},{"type":"Feature","properties":{"cod_tema":"AREA_USO_RESTRITO_DECLIVIDADE_25_A_45","cod_imovel":"RJ-3302403-56BEC63427A74FC18BE6FEC34BA82104","num_area":"15.434500000000000000000000000000","ind_status":"AT"},"geometry":{"type":"Polygon","coordinates":[[[-42.1929,-22.373],[-42.1895,-22.3714],[-42.1876,-22.3749],[-42.1929,-22.373],[-42.1929,-22.373]]]}},{"type":"Feature","properties":{"cod_tema":"AREA_USO_RESTRITO_DECLIVIDADE_25_A_45","cod_imovel":"RJ-3302403-64EF1ADBD0584C22B43714FF7CAB13D4","num_area":"12.114200000000000000000000000000","ind_status":"AT"},"geometry":{"type":"Polygon","coordinates":[[[-42.1714,-22.2662],[-42.168,-22.2628],[-42.1658,-22.2647],[-42.171,-22.2671],[-42.1714,-22.2662]]]}},{"type":"Feature","properties":{"cod_tema":"AREA_USO_RESTRITO_DECLIVIDADE_25_A_45","cod_imovel":"RJ-3302403-6026B7D2B9D846C1A055B89C54449736","num_area":"18.520700000000000000000000000000","ind_status":"AT"},"geometry":{"type":"Polygon","coordinates":[[[-42.2118,-22.3293],[-42.2142,-22.3282],[-42.2115,-22.3293],[-42.2118,-22.3293]],[[-42.2096,-22.3283],[-42.2055,-22.3299],[-42.2089,-22.332],[-42.2101,-22.3285],[-42.2096,-22.3283]]]}},{"type":"Feature","properties":{"cod_tema":"AREA_USO_RESTRITO_DECLIVIDADE_25_A_45","cod_imovel":"RJ-3302403-6508A666071F432CAC30F1008DBE4F3D","num_area":"257.45670000000000000000000000000","ind_status":"AT"},"geometry":{"type":"Polygon","coordinates":[[[-42.0453,-22.2843],[-42.0455,-22.2738],[-42.0359,-22.2825],[-42.0396,-22.2878],[-42.0453,-22.2843]],[[-42.0196,-22.2481],[-42.0158,-22.2491],[-42.0209,-22.251],[-42.0196,-22.2481]],[[-42.0209,-22.251],[-42.0227,-22.2562],[-42.0311,-22.2577],[-42.0337,-22.2629],[-42.0323,-22.2557],[-42.0222,-22.254],[-42.0209,-22.251]],[[-42.0464,-22.2761],[-42.0501,-22.2741],[-42.045,-22.2651],[-42.0502,-22.2615],[-42.041,-22.2602],[-42.0389,-22.2663],[-42.0343,-22.267],[-42.0455,-22.2738],[-42.0464,-22.2761]]]}},{"type":"Feature","properties":{"cod_tema":"AREA_USO_RESTRITO_DECLIVIDADE_25_A_45","cod_imovel":"RJ-3302403-68A92DEBD916492BA2F601AC1A304282","num_area":"0.8380000000000000000000000000000","ind_status":"AT"},"geometry":{"type":"Polygon","coordinates":[[[-42.1965,-22.3723],[-42.1971,-22.3748],[-42.1965,-22.3724],[-42.1965,-22.3723]]]}},{"type":"Feature","properties":{"cod_tema":"AREA_USO_RESTRITO_DECLIVIDADE_25_A_45","cod_imovel":"RJ-3302403-6C722BF719C74C7481B4DCAC24ED50A4","num_area":"2.9797000000000000000000000000000","ind_status":"AT"},"geometry":{"type":"Polygon","coordinates":[[[-42.1974,-22.307],[-42.2014,-22.3076],[-42.1976,-22.3066],[-42.1974,-22.307]]]}},{"type":"Feature","properties":{"cod_tema":"AREA_USO_RESTRITO_DECLIVIDADE_25_A_45","cod_imovel":"RJ-3302403-728DA76ED2F6434EA8DE648BA6E57D9F","num_area":"52.258100000000000000000000000000","ind_status":"AT"},"geometry":{"type":"Polygon","coordinates":[[[-42.2277,-22.3019],[-42.229,-22.3049],[-42.2347,-22.3006],[-42.2293,-22.295],[-42.2249,-22.3001],[-42.2269,-22.3013],[-42.2277,-22.3019]]]}},{"type":"Feature","properties":{"cod_tema":"AREA_USO_RESTRITO_DECLIVIDADE_25_A_45","cod_imovel":"RJ-3302403-769EB53077344CAC9B9D1D2662302CD6","num_area":"38.911300000000000000000000000000","ind_status":"AT"},"geometry":{"type":"Polygon","coordinates":[[[-42.0136,-22.1463],[-42.0056,-22.1457],[-42.0106,-22.1487],[-42.0136,-22.1463]],[[-42.0055,-22.1457],[-41.9996,-22.1509],[-42.0067,-22.1465],[-42.0055,-22.1457]]]}},{"type":"Feature","properties":{"cod_tema":"AREA_USO_RESTRITO_DECLIVIDADE_25_A_45","cod_imovel":"RJ-3302403-7B1069EEEAE249E898C25FF9F6A4211F","num_area":"9.3706000000000000000000000000000","ind_status":"AT"},"geometry":{"type":"Polygon","coordinates":[[[-42.1991,-22.3102],[-42.1963,-22.3058],[-42.1957,-22.3111],[-42.1989,-22.3102],[-42.1991,-22.3102]]]}},{"type":"Feature","properties":{"cod_tema":"AREA_USO_RESTRITO_DECLIVIDADE_25_A_45","cod_imovel":"RJ-3302403-844A49229EAD43559E5E826E81E222AB","num_area":"1.0603000000000000000000000000000","ind_status":"AT"},"geometry":{"type":"Polygon","coordinates":[[[-42.1979,-22.3716],[-42.1983,-22.3746],[-42.198,-22.3721],[-42.1979,-22.3716]]]}},{"type":"Feature","properties":{"cod_tema":"AREA_USO_RESTRITO_DECLIVIDADE_25_A_45","cod_imovel":"RJ-3302403-8515DF7079C64399A067356E346B2FD5","num_area":"0.4388000000000000000000000000000","ind_status":"AT"},"geometry":{"type":"Polygon","coordinates":[[[-42.1937,-22.3625],[-42.1943,-22.3648],[-42.1937,-22.3627],[-42.1937,-22.3625]]]}},{"type":"Feature","properties":{"cod_tema":"AREA_USO_RESTRITO_DECLIVIDADE_25_A_45","cod_imovel":"RJ-3302403-89592F458BBB46518F686C66E700E456","num_area":"6.4412000000000000000000000000000","ind_status":"AT"},"geometry":{"type":"Polygon","coordinates":[[[-42.1907,-22.3144],[-42.1936,-22.3132],[-42.1902,-22.3142],[-42.1907,-22.3144]]]}},{"type":"Feature","properties":{"cod_tema":"AREA_USO_RESTRITO_DECLIVIDADE_25_A_45","cod_imovel":"RJ-3302403-8C54B62897BF4BADBFB3FCB2E5FC690C","num_area":"12.586800000000000000000000000000","ind_status":"AT"},"geometry":{"type":"Polygon","coordinates":[[[-42.0709,-22.307],[-42.0653,-22.3043],[-42.0647,-22.3065],[-42.0709,-22.3078],[-42.0709,-22.307]]]}},{"type":"Feature","properties":{"cod_tema":"AREA_USO_RESTRITO_DECLIVIDADE_25_A_45","cod_imovel":"RJ-3302403-8FC734CE9B844DEEA6CD6EF0EF22CF7D","num_area":"17.590800000000000000000000000000","ind_status":"AT"},"geometry":{"type":"Polygon","coordinates":[[[-42.2034,-22.3889],[-42.2004,-22.3907],[-42.2031,-22.3907],[-42.2034,-22.3889]],[[-42.2053,-22.392],[-42.2031,-22.3907],[-42.2046,-22.3922],[-42.2053,-22.392]],[[-42.2126,-22.4007],[-42.2097,-22.3984],[-42.212,-22.4009],[-42.2126,-22.4007]]]}},{"type":"Feature","properties":{"cod_tema":"AREA_USO_RESTRITO_DECLIVIDADE_25_A_45","cod_imovel":"RJ-3302403-99FCFE22B5CA467E8AC576D300067728","num_area":"113.00180000000000000000000000000","ind_status":"AT"},"geometry":{"type":"Polygon","coordinates":[[[-42.2479,-22.2958],[-42.2385,-22.2953],[-42.2411,-22.2951],[-42.2374,-22.2918],[-42.2361,-22.2936],[-42.236,-22.2906],[-42.2386,-22.2897],[-42.2422,-22.2907],[-42.2423,-22.2953],[-42.2476,-22.2952],[-42.243,-22.2901],[-42.2326,-22.2891],[-42.2339,-22.2997],[-42.2381,-22.2955],[-42.2366,-22.2998],[-42.2452,-22.3013],[-42.2441,-22.2978],[-42.2479,-22.2958],[-42.2479,-22.2958]],[[-42.2424,-22.2957],[-42.2401,-22.2991],[-42.2421,-22.2957],[-42.2424,-22.2957]],[[-42.2405,-22.2926],[-42.2388,-22.2911],[-42.2404,-22.2926],[-42.2405,-22.2926]],[[-42.248,-22.2945],[-42.2461,-22.3011],[-42.2482,-22.2946],[-42.248,-22.2945]]]}},{"type":"Feature","properties":{"cod_tema":"AREA_USO_RESTRITO_DECLIVIDADE_25_A_45","cod_imovel":"RJ-3302403-9FFB30C5A6C744E3830F13388BEBE858","num_area":"65.023200000000000000000000000000","ind_status":"AT"},"geometry":{"type":"Polygon","coordinates":[[[-41.8993,-22.2118],[-41.8982,-22.2061],[-41.8973,-22.2116],[-41.8993,-22.2118]],[[-41.9076,-22.1862],[-41.898,-22.1857],[-41.8972,-22.1899],[-41.9015,-22.189],[-41.9057,-22.1932],[-41.9076,-22.1862]]]}},{"type":"Feature","properties":{"cod_tema":"AREA_USO_RESTRITO_DECLIVIDADE_25_A_45","cod_imovel":"RJ-3302403-A17BA5F045884F23AC0A3C169FCE746F","num_area":"13.753400000000000000000000000000","ind_status":"AT"},"geometry":{"type":"Polygon","coordinates":[[[-42.2107,-22.3234],[-42.2056,-22.3214],[-42.2062,-22.3243],[-42.2102,-22.3234],[-42.2107,-22.3234]]]}},{"type":"Feature","properties":{"cod_tema":"AREA_USO_RESTRITO_DECLIVIDADE_25_A_45","cod_imovel":"RJ-3302403-A4975A5ACADD4EE6AA05352D0FCCBD21","num_area":"9.6620000000000000000000000000000","ind_status":"AT"},"geometry":{"type":"Polygon","coordinates":[[[-42.1778,-22.3377],[-42.1814,-22.3386],[-42.1783,-22.3377],[-42.1778,-22.3377]],[[-42.1814,-22.3388],[-42.1791,-22.34],[-42.1815,-22.3395],[-42.1814,-22.3388]]]}},{"type":"Feature","properties":{"cod_tema":"AREA_USO_RESTRITO_DECLIVIDADE_25_A_45","cod_imovel":"RJ-3302403-BF29246C8DCE432DBE120E6C1D82297F","num_area":"6.4723000000000000000000000000000","ind_status":"AT"},"geometry":{"type":"Polygon","coordinates":[[[-42.1743,-22.3297],[-42.1778,-22.327],[-42.1722,-22.3284],[-42.1738,-22.3297],[-42.1743,-22.3297]]]}},{"type":"Feature","properties":{"cod_tema":"AREA_USO_RESTRITO_DECLIVIDADE_25_A_45","cod_imovel":"RJ-3302403-BDE62CCABA8C42D9BC4404AF4A2FE918","num_area":"27.329400000000000000000000000000","ind_status":"AT"},"geometry":{"type":"Polygon","coordinates":[[[-42.2101,-22.3408],[-42.2138,-22.3383],[-42.2108,-22.3325],[-42.2083,-22.336],[-42.2121,-22.3372],[-42.2055,-22.3398],[-42.2099,-22.3409],[-42.2101,-22.3408]]]}},{"type":"Feature","properties":{"cod_tema":"AREA_USO_RESTRITO_DECLIVIDADE_25_A_45","cod_imovel":"RJ-3302403-C3704B0E7B144A03AF0D6B611503B569","num_area":"25.196500000000000000000000000000","ind_status":"AT"},"geometry":{"type":"Polygon","coordinates":[[[-42.2356,-22.3269],[-42.237,-22.3302],[-42.2431,-22.3283],[-42.2372,-22.325],[-42.2356,-22.3269]]]}},{"type":"Feature","properties":{"cod_tema":"AREA_USO_RESTRITO_DECLIVIDADE_25_A_45","cod_imovel":"RJ-3302403-CC643D7E4F8747B382D405DD6454264A","num_area":"0.6901000000000000000000000000000","ind_status":"AT"},"geometry":{"type":"Polygon","coordinates":[[[-42.1964,-22.3748],[-42.1955,-22.3725],[-42.1962,-22.3748],[-42.1964,-22.3748]]]}},{"type":"Feature","properties":{"cod_tema":"AREA_USO_RESTRITO_DECLIVIDADE_25_A_45","cod_imovel":"RJ-3302403-CD075B14454647E2B3EC1E7025B0DE31","num_area":"6.9978000000000000000000000000000","ind_status":"AT"},"geometry":{"type":"Polygon","coordinates":[[[-42.2001,-22.3081],[-42.201,-22.3114],[-42.2001,-22.3081],[-42.2001,-22.3081]],[[-42.2011,-22.3079],[-42.2005,-22.3103],[-42.2014,-22.3079],[-42.2011,-22.3079]]]}},{"type":"Feature","properties":{"cod_tema":"AREA_USO_RESTRITO_DECLIVIDADE_25_A_45","cod_imovel":"RJ-3302403-D51809B150F94607A103149632E54A27","num_area":"13.595900000000000000000000000000","ind_status":"AT"},"geometry":{"type":"Polygon","coordinates":[[[-41.812,-22.2382],[-41.8107,-22.2358],[-41.8119,-22.2383],[-41.812,-22.2382]],[[-41.8065,-22.2388],[-41.811,-22.239],[-41.8057,-22.2368],[-41.8064,-22.2387],[-41.8065,-22.2388]]]}},{"type":"Feature","properties":{"cod_tema":"AREA_USO_RESTRITO_DECLIVIDADE_25_A_45","cod_imovel":"RJ-3302403-D5437B8201FD446681D356A30BCBBE3F","num_area":"7.1195000000000000000000000000000","ind_status":"AT"},"geometry":{"type":"Polygon","coordinates":[[[-42.1807,-22.3373],[-42.1816,-22.3412],[-42.1838,-22.3378],[-42.1807,-22.3372],[-42.1807,-22.3373]]]}},{"type":"Feature","properties":{"cod_tema":"AREA_USO_RESTRITO_DECLIVIDADE_25_A_45","cod_imovel":"RJ-3302403-E2F61F5B71C743F7874A68C4A86B9119","num_area":"2.8202000000000000000000000000000","ind_status":"AT"},"geometry":{"type":"Polygon","coordinates":[[[-42.2045,-22.3139],[-42.206,-22.3152],[-42.2046,-22.3134],[-42.2045,-22.3139]]]}},{"type":"Feature","properties":{"cod_tema":"AREA_USO_RESTRITO_DECLIVIDADE_25_A_45","cod_imovel":"RJ-3302403-E386B3776CA14D79A5439A5675EA2BAF","num_area":"6.1156000000000000000000000000000","ind_status":"AT"},"geometry":{"type":"Polygon","coordinates":[[[-42.2084,-22.3106],[-42.2056,-22.3111],[-42.2124,-22.3108],[-42.2096,-22.3106],[-42.2084,-22.3106]]]}},{"type":"Feature","properties":{"cod_tema":"AREA_USO_RESTRITO_DECLIVIDADE_25_A_45","cod_imovel":"RJ-3302403-E417DFE243DA4AC297D6C22BDBBA6712","num_area":"15.525600000000000000000000000000","ind_status":"AT"},"geometry":{"type":"Polygon","coordinates":[[[-42.2137,-22.313],[-42.2186,-22.3135],[-42.2137,-22.3128],[-42.2137,-22.313]],[[-42.2204,-22.3164],[-42.2188,-22.3136],[-42.2151,-22.3145],[-42.2203,-22.3164],[-42.2204,-22.3164]]]}},{"type":"Feature","properties":{"cod_tema":"AREA_USO_RESTRITO_DECLIVIDADE_25_A_45","cod_imovel":"RJ-3302403-E5A766A9C00D4690BB723FE6D884A6E6","num_area":"0.6406000000000000000000000000000","ind_status":"AT"},"geometry":{"type":"Polygon","coordinates":[[[-42.2091,-22.3593],[-42.2066,-22.3597],[-42.2091,-22.3595],[-42.2091,-22.3593]]]}},{"type":"Feature","properties":{"cod_tema":"AREA_USO_RESTRITO_DECLIVIDADE_25_A_45","cod_imovel":"RJ-3302403-E9A77C9F1B1948A9B4023D5D61FBBD33","num_area":"36.336300000000000000000000000000","ind_status":"AT"},"geometry":{"type":"Polygon","coordinates":[[[-42.1826,-22.2925],[-42.1747,-22.3027],[-42.1842,-22.2985],[-42.1826,-22.2925]]]}},{"type":"Feature","properties":{"cod_tema":"AREA_USO_RESTRITO_DECLIVIDADE_25_A_45","cod_imovel":"RJ-3302403-EB6B866859B241379D8A423CD2A7D186","num_area":"2.6259000000000000000000000000000","ind_status":"AT"},"geometry":{"type":"Polygon","coordinates":[[[-41.8718,-22.3479],[-41.8658,-22.3487],[-41.8716,-22.348],[-41.8718,-22.3479]]]}}]}