{"type":"FeatureCollection","features":[{"type":"Feature","properties":{"cod_tema":"AREA_USO_RESTRITO_DECLIVIDADE_25_A_45","cod_imovel":"RJ-3302809-7112171673CC4B6D80FBC957169FFB05","num_area":"10.669600000000000000000000000000","ind_status":"AT"},"geometry":{"type":"Polygon","coordinates":[[[-43.766,-22.5335],[-43.7634,-22.532],[-43.7655,-22.5332],[-43.766,-22.5335]],[[-43.7636,-22.5314],[-43.7682,-22.5314],[-43.7637,-22.5313],[-43.7636,-22.5314]]]}},{"type":"Feature","properties":{"cod_tema":"AREA_USO_RESTRITO_DECLIVIDADE_25_A_45","cod_imovel":"RJ-3302809-E3204A9EC7EF408DAC66C2B23A54F1F1","num_area":"4.0289000000000000000000000000000","ind_status":"AT"},"geometry":{"type":"Polygon","coordinates":[[[-43.7039,-22.5372],[-43.7012,-22.5383],[-43.7043,-22.5371],[-43.7039,-22.5372]],[[-43.7034,-22.5402],[-43.7053,-22.5376],[-43.7034,-22.5401],[-43.7034,-22.5402]]]}}]}