{"type":"FeatureCollection","features":[{"type":"Feature","properties":{"cod_tema":"AREA_USO_RESTRITO_DECLIVIDADE_25_A_45","cod_imovel":"RJ-3303500-537A1DF9D39C4FEC8283C7A844A64E38","num_area":"53.129300000000000000000000000000","ind_status":"AT"},"geometry":{"type":"Polygon","coordinates":[[[-43.4832,-22.6774],[-43.4817,-22.6729],[-43.4791,-22.6762],[-43.4818,-22.6734],[-43.4836,-22.6767],[-43.48,-22.6784],[-43.4829,-22.6778],[-43.4832,-22.6774]],[[-43.4877,-22.6747],[-43.4852,-22.6766],[-43.4869,-22.6739],[-43.4834,-22.6731],[-43.4862,-22.6742],[-43.4849,-22.6773],[-43.4878,-22.6748],[-43.4877,-22.6747]],[[-43.4894,-22.6766],[-43.4909,-22.6783],[-43.4894,-22.6766],[-43.4894,-22.6766]],[[-43.4754,-22.6712],[-43.4768,-22.6698],[-43.4753,-22.6711],[-43.4754,-22.6712]],[[-43.4793,-22.6738],[-43.4813,-22.673],[-43.4791,-22.6739],[-43.4793,-22.6738]],[[-43.4775,-22.67],[-43.4815,-22.6713],[-43.4775,-22.67],[-43.4775,-22.67]],[[-43.4916,-22.679],[-43.4874,-22.6797],[-43.4917,-22.6794],[-43.4916,-22.679]],[[-43.4857,-22.6794],[-43.489,-22.6761],[-43.4854,-22.679],[-43.4857,-22.6794]],[[-43.4825,-22.672],[-43.4765,-22.6726],[-43.4827,-22.6723],[-43.4825,-22.672]]]}},{"type":"Feature","properties":{"cod_tema":"AREA_USO_RESTRITO_DECLIVIDADE_25_A_45","cod_imovel":"RJ-3303500-EF8F64322D664BBA869154B7E2EB75EE","num_area":"3.1897000000000000000000000000000","ind_status":"AT"},"geometry":{"type":"Polygon","coordinates":[[[-43.4163,-22.6008],[-43.4168,-22.6044],[-43.4164,-22.6009],[-43.4163,-22.6008]]]}},{"type":"Feature","properties":{"cod_tema":"AREA_USO_RESTRITO_DECLIVIDADE_25_A_45","cod_imovel":"RJ-3303500-1867D19B19674BBA9FB46E28EB1D7DBE","num_area":"49.018900000000000000000000000000","ind_status":"AT"},"geometry":{"type":"Polygon","coordinates":[[[-43.4433,-22.6315],[-43.4407,-22.6327],[-43.4429,-22.6296],[-43.4402,-22.6282],[-43.4361,-22.6327],[-43.4405,-22.6297],[-43.4382,-22.6328],[-43.4421,-22.6357],[-43.4398,-22.6334],[-43.4434,-22.6315],[-43.4433,-22.6315]],[[-43.4397,-22.6424],[-43.4413,-22.6442],[-43.4397,-22.6423],[-43.4397,-22.6424]],[[-43.4386,-22.6365],[-43.4408,-22.637],[-43.4387,-22.6364],[-43.4386,-22.6365]],[[-43.444,-22.6399],[-43.444,-22.6374],[-43.444,-22.6399],[-43.444,-22.6399]],[[-43.4396,-22.6224],[-43.4392,-22.6247],[-43.4396,-22.6222],[-43.4396,-22.6224]],[[-43.4382,-22.6425],[-43.441,-22.6443],[-43.4381,-22.6422],[-43.4382,-22.6425]],[[-43.446,-22.6262],[-43.4467,-22.6239],[-43.4459,-22.6262],[-43.446,-22.6262]],[[-43.4439,-22.62],[-43.4453,-22.6227],[-43.4438,-22.6199],[-43.4439,-22.62]],[[-43.4376,-22.6362],[-43.4391,-22.6336],[-43.4374,-22.637],[-43.4428,-22.6365],[-43.4376,-22.6364],[-43.4376,-22.6362]]]}},{"type":"Feature","properties":{"cod_tema":"AREA_USO_RESTRITO_DECLIVIDADE_25_A_45","cod_imovel":"RJ-3303500-BE3C6FD640184E59A90CDBE0FB6CD530","num_area":"267.81620000000000000000000000000","ind_status":"PE"},"geometry":{"type":"Polygon","coordinates":[[[-43.5046,-22.7838],[-43.5078,-22.793],[-43.5169,-22.7966],[-43.5145,-22.7993],[-43.5252,-22.8022],[-43.5307,-22.8004],[-43.5307,-22.7952],[-43.5314,-22.8007],[-43.5348,-22.7965],[-43.5234,-22.7962],[-43.5208,-22.7891],[-43.5142,-22.787],[-43.5174,-22.7848],[-43.5108,-22.7844],[-43.5046,-22.7838]]]}},{"type":"Feature","properties":{"cod_tema":"AREA_USO_RESTRITO_DECLIVIDADE_25_A_45","cod_imovel":"RJ-3303500-C8354DBA378C49B798C814234A1A8F68","num_area":"1.3750000000000000000000000000000","ind_status":"AT"},"geometry":{"type":"Polygon","coordinates":[[[-43.6015,-22.8484],[-43.5987,-22.8486],[-43.6015,-22.8488],[-43.6015,-22.8484]]]}},{"type":"Feature","properties":{"cod_tema":"AREA_USO_RESTRITO_DECLIVIDADE_25_A_45","cod_imovel":"RJ-3303500-1F4C58FC9DFB42AFAC66AE611A2F8839","num_area":"8.0786000000000000000000000000000","ind_status":"AT"},"geometry":{"type":"Polygon","coordinates":[[[-43.5237,-22.6882],[-43.5228,-22.686],[-43.5197,-22.6878],[-43.5234,-22.6883],[-43.5237,-22.6882]]]}}]}