{"type":"FeatureCollection","features":[{"type":"Feature","properties":{"cod_tema":"AREA_USO_RESTRITO_DECLIVIDADE_25_A_45","cod_imovel":"RJ-3304128-C47FD94EB348449F8D46612B5EB9F83D","num_area":"157.24300000000000000000000000000","ind_status":"AT"},"geometry":{"type":"Polygon","coordinates":[[[-44.209,-22.3742],[-44.2084,-22.3696],[-44.2049,-22.371],[-44.2081,-22.3724],[-44.2038,-22.3736],[-44.2071,-22.374],[-44.2063,-22.3782],[-44.2087,-22.3743],[-44.209,-22.3742]],[[-44.2095,-22.3707],[-44.21,-22.3665],[-44.2094,-22.3706],[-44.2095,-22.3707]],[[-44.2107,-22.3937],[-44.2124,-22.3924],[-44.2106,-22.3934],[-44.2107,-22.3937]],[[-44.208,-22.39],[-44.206,-22.3932],[-44.2083,-22.3901],[-44.208,-22.39]],[[-44.2123,-22.3902],[-44.2136,-22.3875],[-44.2125,-22.3902],[-44.2123,-22.3902]],[[-44.2093,-22.385],[-44.2116,-22.3848],[-44.2094,-22.3841],[-44.2093,-22.385]],[[-44.2014,-22.3891],[-44.2039,-22.39],[-44.2017,-22.3889],[-44.2014,-22.3891]],[[-44.1938,-22.3796],[-44.196,-22.3801],[-44.1942,-22.3791],[-44.1938,-22.3796]],[[-44.2017,-22.3725],[-44.2049,-22.3723],[-44.2014,-22.3724],[-44.2017,-22.3725]],[[-44.2007,-22.3847],[-44.2001,-22.3869],[-44.2011,-22.3846],[-44.2007,-22.3847]],[[-44.2098,-22.3921],[-44.2111,-22.3895],[-44.2097,-22.3913],[-44.2098,-22.3921]],[[-44.2057,-22.37],[-44.2068,-22.3675],[-44.2058,-22.3699],[-44.2057,-22.37]],[[-44.2088,-22.3955],[-44.2104,-22.3934],[-44.2088,-22.3955],[-44.2088,-22.3955]],[[-44.1889,-22.3837],[-44.1918,-22.3843],[-44.189,-22.3833],[-44.1889,-22.3837]],[[-44.2107,-22.3878],[-44.2059,-22.3892],[-44.2107,-22.3881],[-44.2107,-22.3878]],[[-44.2042,-22.3959],[-44.2051,-22.3912],[-44.2041,-22.3959],[-44.2042,-22.3959]],[[-44.2085,-22.3656],[-44.2084,-22.3692],[-44.2085,-22.365],[-44.2085,-22.3656]],[[-44.1953,-22.3862],[-44.1983,-22.3844],[-44.1931,-22.3847],[-44.1954,-22.386],[-44.1953,-22.3862]],[[-44.2103,-22.3793],[-44.2079,-22.3744],[-44.2103,-22.3793],[-44.2103,-22.3793]],[[-44.1989,-22.376],[-44.1954,-22.3742],[-44.1981,-22.3761],[-44.1989,-22.376]],[[-44.1981,-22.3753],[-44.2054,-22.3777],[-44.2029,-22.377],[-44.2051,-22.3771],[-44.203,-22.374],[-44.2055,-22.3765],[-44.2038,-22.3732],[-44.2018,-22.3766],[-44.1982,-22.3754],[-44.1981,-22.3753]],[[-44.195,-22.3722],[-44.1987,-22.3712],[-44.1993,-22.3664],[-44.2,-22.3712],[-44.2028,-22.3713],[-44.2013,-22.3683],[-44.2025,-22.3711],[-44.1999,-22.3708],[-44.2002,-22.3663],[-44.2045,-22.3692],[-44.2067,-22.3653],[-44.2035,-22.3676],[-44.1981,-22.366],[-44.1983,-22.3707],[-44.1952,-22.3722],[-44.195,-22.3722]]]}},{"type":"Feature","properties":{"cod_tema":"AREA_USO_RESTRITO_DECLIVIDADE_25_A_45","cod_imovel":"RJ-3304128-5D155CC691E3407ABA827CB4178AF0E0","num_area":"19.088000000000000000000000000000","ind_status":"AT"},"geometry":{"type":"Polygon","coordinates":[[[-44.2644,-22.3464],[-44.2617,-22.3452],[-44.2647,-22.3469],[-44.2644,-22.3464]],[[-44.265,-22.3462],[-44.2677,-22.3464],[-44.2652,-22.3459],[-44.265,-22.3462]],[[-44.2549,-22.3445],[-44.2615,-22.3455],[-44.2548,-22.3444],[-44.2549,-22.3445]],[[-44.2574,-22.3464],[-44.2653,-22.3495],[-44.2576,-22.3464],[-44.2574,-22.3464]]]}},{"type":"Feature","properties":{"cod_tema":"AREA_USO_RESTRITO_DECLIVIDADE_25_A_45","cod_imovel":"RJ-3304128-B9E50D0F947C4F208A728F5D7F6CB9D7","num_area":"183.03520000000000000000000000000","ind_status":"AT"},"geometry":{"type":"Polygon","coordinates":[[[-44.2274,-22.3759],[-44.2293,-22.3775],[-44.2274,-22.376],[-44.2274,-22.3759]],[[-44.2235,-22.3516],[-44.224,-22.3551],[-44.2235,-22.3516],[-44.2235,-22.3516]],[[-44.2179,-22.3764],[-44.2177,-22.3785],[-44.2179,-22.3765],[-44.2179,-22.3764]],[[-44.2187,-22.3738],[-44.2158,-22.3742],[-44.2146,-22.3794],[-44.2187,-22.374],[-44.2187,-22.3738]],[[-44.2242,-22.3558],[-44.2236,-22.3581],[-44.2242,-22.3561],[-44.2242,-22.3558]],[[-44.2204,-22.3767],[-44.2196,-22.3807],[-44.2204,-22.3769],[-44.2204,-22.3767]],[[-44.2311,-22.3772],[-44.2295,-22.3788],[-44.2311,-22.3773],[-44.2311,-22.3772]],[[-44.2261,-22.3589],[-44.2267,-22.3618],[-44.2261,-22.359],[-44.2261,-22.3589]],[[-44.2142,-22.3762],[-44.2146,-22.3787],[-44.2142,-22.3763],[-44.2142,-22.3762]],[[-44.2326,-22.3506],[-44.2306,-22.3526],[-44.2326,-22.3508],[-44.2326,-22.3506]],[[-44.2355,-22.3528],[-44.2331,-22.3542],[-44.2351,-22.3528],[-44.2355,-22.3528]],[[-44.2286,-22.3643],[-44.23,-22.3676],[-44.2286,-22.3645],[-44.2286,-22.3643]],[[-44.2326,-22.3732],[-44.2301,-22.3752],[-44.2326,-22.3734],[-44.2326,-22.3732]],[[-44.2288,-22.3681],[-44.227,-22.3708],[-44.2288,-22.3683],[-44.2288,-22.3681]],[[-44.2392,-22.3748],[-44.2384,-22.3788],[-44.2392,-22.375],[-44.2392,-22.3748]],[[-44.2216,-22.367],[-44.2181,-22.3675],[-44.2195,-22.3695],[-44.2216,-22.3672],[-44.2216,-22.367]],[[-44.2333,-22.3549],[-44.2289,-22.3569],[-44.2333,-22.3551],[-44.2333,-22.3549]],[[-44.2348,-22.3708],[-44.2321,-22.3715],[-44.2346,-22.3708],[-44.2348,-22.3708]],[[-44.2102,-22.3671],[-44.2098,-22.3731],[-44.2102,-22.3675],[-44.2102,-22.3671]],[[-44.2448,-22.3754],[-44.2447,-22.3714],[-44.2433,-22.3754],[-44.2448,-22.3754]],[[-44.2235,-22.3739],[-44.2253,-22.3775],[-44.2235,-22.374],[-44.2235,-22.3739]],[[-44.241,-22.3734],[-44.2381,-22.3739],[-44.2419,-22.3758],[-44.241,-22.3736],[-44.241,-22.3734]],[[-44.2315,-22.3641],[-44.2296,-22.3699],[-44.2315,-22.3643],[-44.2315,-22.3641]],[[-44.2439,-22.3691],[-44.2406,-22.3725],[-44.2437,-22.373],[-44.2416,-22.3714],[-44.2439,-22.3694],[-44.2439,-22.3691]],[[-44.2214,-22.3773],[-44.221,-22.3717],[-44.2214,-22.3773],[-44.2214,-22.3773]],[[-44.2222,-22.3703],[-44.2154,-22.3718],[-44.2133,-22.3671],[-44.2168,-22.3666],[-44.2125,-22.3668],[-44.2148,-22.3727],[-44.2222,-22.3702],[-44.2222,-22.3703]],[[-44.224,-22.3628],[-44.2224,-22.3663],[-44.2251,-22.3684],[-44.224,-22.363],[-44.224,-22.3628]],[[-44.2323,-22.369],[-44.2299,-22.3742],[-44.2323,-22.3696],[-44.2323,-22.369]],[[-44.2213,-22.3655],[-44.2176,-22.3648],[-44.2201,-22.3666],[-44.2236,-22.3639],[-44.2216,-22.3655],[-44.2213,-22.3655]],[[-44.2127,-22.3724],[-44.2119,-22.3769],[-44.2148,-22.3745],[-44.2127,-22.3725],[-44.2127,-22.3724]]]}}]}