{"type":"FeatureCollection","features":[{"type":"Feature","properties":{"cod_tema":"AREA_USO_RESTRITO_DECLIVIDADE_25_A_45","cod_imovel":"RJ-3304201-4748CC88AEF5468BB7FA18CC10BAD36B","num_area":"3.0957000000000000000000000000000","ind_status":"AT"},"geometry":{"type":"Polygon","coordinates":[[[-44.5074,-22.6368],[-44.5071,-22.6337],[-44.5074,-22.6366],[-44.5074,-22.6368]]]}},{"type":"Feature","properties":{"cod_tema":"AREA_USO_RESTRITO_DECLIVIDADE_25_A_45","cod_imovel":"RJ-3304201-764F4C6AA819409BACB3E21E9236F1E4","num_area":"7.9275000000000000000000000000000","ind_status":"AT"},"geometry":{"type":"Polygon","coordinates":[[[-44.5348,-22.5071],[-44.536,-22.5043],[-44.5346,-22.5069],[-44.5348,-22.5071]],[[-44.5337,-22.5062],[-44.5357,-22.5039],[-44.5338,-22.5059],[-44.5337,-22.5062]],[[-44.5336,-22.5079],[-44.5341,-22.5099],[-44.5336,-22.5075],[-44.5336,-22.5079]]]}},{"type":"Feature","properties":{"cod_tema":"AREA_USO_RESTRITO_DECLIVIDADE_25_A_45","cod_imovel":"RJ-3304201-C4E4918B27464F5D8354C257A54F2B86","num_area":"62.421900000000000000000000000000","ind_status":"AT"},"geometry":{"type":"Polygon","coordinates":[[[-44.5684,-22.3917],[-44.5711,-22.3923],[-44.5687,-22.3919],[-44.5684,-22.3917]],[[-44.5687,-22.3908],[-44.5765,-22.3906],[-44.5687,-22.3908],[-44.5687,-22.3908]],[[-44.5718,-22.3948],[-44.5697,-22.3931],[-44.5716,-22.3945],[-44.5718,-22.3948]],[[-44.5832,-22.3932],[-44.5792,-22.3905],[-44.5795,-22.3936],[-44.5755,-22.3934],[-44.5742,-22.3975],[-44.5813,-22.3988],[-44.5822,-22.3962],[-44.5787,-22.3965],[-44.5829,-22.393],[-44.5832,-22.3932]]]}},{"type":"Feature","properties":{"cod_tema":"AREA_USO_RESTRITO_DECLIVIDADE_25_A_45","cod_imovel":"RJ-3304201-374C5B0B110F40E39580A28296CC08C4","num_area":"8.5679000000000000000000000000000","ind_status":"AT"},"geometry":{"type":"Polygon","coordinates":[[[-44.489,-22.4976],[-44.4904,-22.4957],[-44.4894,-22.4975],[-44.489,-22.4976]],[[-44.4858,-22.4963],[-44.485,-22.4997],[-44.4862,-22.4962],[-44.4858,-22.4963]],[[-44.4877,-22.4955],[-44.4868,-22.4993],[-44.4882,-22.4955],[-44.4877,-22.4955]]]}},{"type":"Feature","properties":{"cod_tema":"AREA_USO_RESTRITO_DECLIVIDADE_25_A_45","cod_imovel":"RJ-3304201-8564FE6A4E4C41EAB2B642E0D3A1EDDA","num_area":"37.433300000000000000000000000000","ind_status":"AT"},"geometry":{"type":"Polygon","coordinates":[[[-44.5274,-22.3555],[-44.5309,-22.3559],[-44.5275,-22.3554],[-44.5274,-22.3555]],[[-44.5284,-22.3548],[-44.5311,-22.3556],[-44.5289,-22.3545],[-44.5284,-22.3548]],[[-44.5354,-22.3506],[-44.5401,-22.3479],[-44.5354,-22.3504],[-44.5354,-22.3506]],[[-44.5265,-22.3534],[-44.5301,-22.3538],[-44.5273,-22.3537],[-44.5265,-22.3534]],[[-44.5343,-22.346],[-44.5383,-22.347],[-44.5346,-22.3449],[-44.5343,-22.346]],[[-44.5294,-22.349],[-44.5301,-22.3541],[-44.5336,-22.3543],[-44.532,-22.3514],[-44.535,-22.3512],[-44.5298,-22.3491],[-44.5294,-22.349]]]}},{"type":"Feature","properties":{"cod_tema":"AREA_USO_RESTRITO_DECLIVIDADE_25_A_45","cod_imovel":"RJ-3304201-3AAEE7BC5F304BAAAC9D5FE21F3E236A","num_area":"23.851400000000000000000000000000","ind_status":"AT"},"geometry":{"type":"Polygon","coordinates":[[[-44.6669,-22.4791],[-44.668,-22.4764],[-44.6668,-22.4789],[-44.6669,-22.4791]],[[-44.6679,-22.4804],[-44.669,-22.4777],[-44.6679,-22.4803],[-44.6679,-22.4804]],[[-44.6648,-22.4815],[-44.6645,-22.4786],[-44.6646,-22.4813],[-44.6648,-22.4815]],[[-44.6611,-22.4779],[-44.6589,-22.4793],[-44.6609,-22.4782],[-44.6611,-22.4779]],[[-44.6627,-22.4812],[-44.662,-22.4777],[-44.6628,-22.4807],[-44.6627,-22.4812]],[[-44.6667,-22.4742],[-44.6644,-22.4748],[-44.6669,-22.4739],[-44.6667,-22.4742]],[[-44.6667,-22.475],[-44.6653,-22.4787],[-44.6667,-22.475],[-44.6667,-22.475]]]}},{"type":"Feature","properties":{"cod_tema":"AREA_USO_RESTRITO_DECLIVIDADE_25_A_45","cod_imovel":"RJ-3304201-7FECDC8F51554F5093FE69A0FD195391","num_area":"1.8926000000000000000000000000000","ind_status":"AT"},"geometry":{"type":"Polygon","coordinates":[[[-44.5652,-22.4009],[-44.5698,-22.4016],[-44.5659,-22.4011],[-44.5652,-22.4009]]]}},{"type":"Feature","properties":{"cod_tema":"AREA_USO_RESTRITO_DECLIVIDADE_25_A_45","cod_imovel":"RJ-3304201-94117D1916E0489492D745F74617FE02","num_area":"5.7979000000000000000000000000000","ind_status":"AT"},"geometry":{"type":"Polygon","coordinates":[[[-44.3974,-22.567],[-44.3954,-22.5688],[-44.3972,-22.5668],[-44.3974,-22.567]],[[-44.3971,-22.5703],[-44.3963,-22.568],[-44.3963,-22.5702],[-44.3971,-22.5703]]]}},{"type":"Feature","properties":{"cod_tema":"AREA_USO_RESTRITO_DECLIVIDADE_25_A_45","cod_imovel":"RJ-3304201-A7287660522C46219F1C889C713009A5","num_area":"148.74150000000000000000000000000","ind_status":"AT"},"geometry":{"type":"Polygon","coordinates":[[[-44.3837,-22.2951],[-44.3859,-22.3009],[-44.3827,-22.2991],[-44.3814,-22.3027],[-44.3888,-22.3019],[-44.3874,-22.3033],[-44.393,-22.2932],[-44.3869,-22.2934],[-44.3893,-22.2969],[-44.3861,-22.2984],[-44.387,-22.2919],[-44.3842,-22.2894],[-44.3773,-22.2971],[-44.3795,-22.2917],[-44.3761,-22.2886],[-44.3783,-22.2882],[-44.3772,-22.3042],[-44.3809,-22.2919],[-44.3834,-22.2917],[-44.3802,-22.2952],[-44.3835,-22.2954],[-44.3837,-22.2951]],[[-44.377,-22.3033],[-44.3777,-22.301],[-44.3764,-22.3033],[-44.377,-22.3033]],[[-44.3877,-22.2913],[-44.3907,-22.2917],[-44.3882,-22.2912],[-44.3877,-22.2913]]]}},{"type":"Feature","properties":{"cod_tema":"AREA_USO_RESTRITO_DECLIVIDADE_25_A_45","cod_imovel":"RJ-3304201-3B58ADE7797241729E58E49857B258BE","num_area":"8.4637000000000000000000000000000","ind_status":"AT"},"geometry":{"type":"Polygon","coordinates":[[[-44.4943,-22.3118],[-44.4943,-22.3148],[-44.4946,-22.3121],[-44.4943,-22.3118]],[[-44.4876,-22.314],[-44.4895,-22.3166],[-44.4884,-22.3141],[-44.4876,-22.314]]]}},{"type":"Feature","properties":{"cod_tema":"AREA_USO_RESTRITO_DECLIVIDADE_25_A_45","cod_imovel":"RJ-3304201-0E3E376E83D543589810F111DC9B91D3","num_area":"36.674600000000000000000000000000","ind_status":"AT"},"geometry":{"type":"Polygon","coordinates":[[[-44.4952,-22.3152],[-44.4964,-22.3134],[-44.495,-22.315],[-44.4952,-22.3152]],[[-44.5017,-22.3075],[-44.4989,-22.3063],[-44.5016,-22.3074],[-44.5017,-22.3075]],[[-44.4906,-22.3143],[-44.4907,-22.3175],[-44.4907,-22.3144],[-44.4906,-22.3143]],[[-44.4877,-22.3139],[-44.4898,-22.3123],[-44.4877,-22.3139],[-44.4877,-22.3139]],[[-44.4928,-22.3122],[-44.4912,-22.3146],[-44.4929,-22.3122],[-44.4928,-22.3122]],[[-44.4954,-22.3089],[-44.4955,-22.3116],[-44.4954,-22.3094],[-44.4954,-22.3089]],[[-44.4975,-22.3121],[-44.4997,-22.308],[-44.4977,-22.3123],[-44.4975,-22.3121]],[[-44.4896,-22.3162],[-44.4919,-22.3113],[-44.4892,-22.3161],[-44.4896,-22.3162]],[[-44.4939,-22.3164],[-44.4938,-22.3105],[-44.4938,-22.3163],[-44.4939,-22.3164]]]}},{"type":"Feature","properties":{"cod_tema":"AREA_USO_RESTRITO_DECLIVIDADE_25_A_45","cod_imovel":"RJ-3304201-9BD31F9AFE204ABF85F9E94F1C061615","num_area":"7.3028000000000000000000000000000","ind_status":"AT"},"geometry":{"type":"Polygon","coordinates":[[[-44.3039,-22.28],[-44.3044,-22.2751],[-44.3038,-22.2782],[-44.3039,-22.28]]]}},{"type":"Feature","properties":{"cod_tema":"AREA_USO_RESTRITO_DECLIVIDADE_25_A_45","cod_imovel":"RJ-3304201-2E5B0A439C4A41A5B6ABCC2272101717","num_area":"39.757500000000000000000000000000","ind_status":"AT"},"geometry":{"type":"Polygon","coordinates":[[[-44.6998,-22.4176],[-44.6972,-22.4182],[-44.6998,-22.4182],[-44.6998,-22.4176]],[[-44.695,-22.4187],[-44.6949,-22.4221],[-44.6956,-22.4187],[-44.695,-22.4187]],[[-44.7007,-22.4168],[-44.7009,-22.4141],[-44.697,-22.4156],[-44.7004,-22.4172],[-44.7007,-22.4168]],[[-44.6945,-22.4314],[-44.696,-22.4329],[-44.6969,-22.4285],[-44.6946,-22.43],[-44.6945,-22.4314]],[[-44.6948,-22.4242],[-44.6992,-22.428],[-44.6962,-22.4258],[-44.6976,-22.4235],[-44.6949,-22.4242],[-44.6948,-22.4242]]]}},{"type":"Feature","properties":{"cod_tema":"AREA_USO_RESTRITO_DECLIVIDADE_25_A_45","cod_imovel":"RJ-3304201-229486D723AF4A87B52E06C471B639CC","num_area":"2.2468000000000000000000000000000","ind_status":"AT"},"geometry":{"type":"Polygon","coordinates":[[[-44.758,-22.4154],[-44.7584,-22.4133],[-44.7577,-22.4152],[-44.758,-22.4154]]]}},{"type":"Feature","properties":{"cod_tema":"AREA_USO_RESTRITO_DECLIVIDADE_25_A_45","cod_imovel":"RJ-3304201-0229DA53E7A34341A356FE31CA5EB1F4","num_area":"4.4262000000000000000000000000000","ind_status":"AT"},"geometry":{"type":"Polygon","coordinates":[[[-44.528,-22.3336],[-44.5245,-22.3338],[-44.5281,-22.3336],[-44.528,-22.3336]],[[-44.5239,-22.3351],[-44.5278,-22.334],[-44.524,-22.3351],[-44.5239,-22.3351]]]}},{"type":"Feature","properties":{"cod_tema":"AREA_USO_RESTRITO_DECLIVIDADE_25_A_45","cod_imovel":"RJ-3304201-25A972F4BC944F7695D83F9C151E6CA8","num_area":"39.569700000000000000000000000000","ind_status":"AT"},"geometry":{"type":"Polygon","coordinates":[[[-44.5164,-22.3311],[-44.5126,-22.3343],[-44.5214,-22.3393],[-44.5219,-22.3362],[-44.5167,-22.3316],[-44.5164,-22.3311]]]}},{"type":"Feature","properties":{"cod_tema":"AREA_USO_RESTRITO_DECLIVIDADE_25_A_45","cod_imovel":"RJ-3304201-A741144C1BF0406694234A8DFD10A2D8","num_area":"18.221800000000000000000000000000","ind_status":"AT"},"geometry":{"type":"Polygon","coordinates":[[[-44.3956,-22.5551],[-44.3937,-22.5567],[-44.3958,-22.5551],[-44.3956,-22.5551]],[[-44.391,-22.5643],[-44.3934,-22.5657],[-44.391,-22.5641],[-44.391,-22.5643]],[[-44.3931,-22.5578],[-44.3952,-22.5623],[-44.3984,-22.5587],[-44.3956,-22.5615],[-44.3933,-22.5593],[-44.3974,-22.5577],[-44.3931,-22.5577],[-44.3931,-22.5578]]]}},{"type":"Feature","properties":{"cod_tema":"AREA_USO_RESTRITO_DECLIVIDADE_25_A_45","cod_imovel":"RJ-3304201-76782475DDA1424A9C3AA84894C897D4","num_area":"147.08220000000000000000000000000","ind_status":"AT"},"geometry":{"type":"Polygon","coordinates":[[[-44.7093,-22.4667],[-44.7117,-22.4663],[-44.7094,-22.4664],[-44.7093,-22.4667]],[[-44.7092,-22.4773],[-44.7085,-22.4749],[-44.709,-22.4774],[-44.7092,-22.4773]],[[-44.7022,-22.4771],[-44.7037,-22.4791],[-44.7022,-22.4768],[-44.7022,-22.4771]],[[-44.7073,-22.4775],[-44.7075,-22.4753],[-44.7073,-22.4774],[-44.7073,-22.4775]],[[-44.6999,-22.485],[-44.7015,-22.4831],[-44.6995,-22.4848],[-44.6999,-22.485]],[[-44.7,-22.4758],[-44.6976,-22.4766],[-44.699,-22.479],[-44.6998,-22.4757],[-44.7,-22.4758]],[[-44.7033,-22.4574],[-44.7003,-22.4589],[-44.7049,-22.4572],[-44.7033,-22.4574]],[[-44.6981,-22.4738],[-44.7008,-22.4734],[-44.6984,-22.473],[-44.6981,-22.4738]],[[-44.7078,-22.4676],[-44.7053,-22.4711],[-44.7074,-22.4687],[-44.7078,-22.4676]],[[-44.7003,-22.4573],[-44.6992,-22.4645],[-44.7004,-22.4573],[-44.7003,-22.4573]],[[-44.7043,-22.4797],[-44.7052,-22.482],[-44.7043,-22.4794],[-44.7043,-22.4797]],[[-44.697,-22.4769],[-44.6976,-22.4791],[-44.697,-22.477],[-44.697,-22.4769]],[[-44.6957,-22.4624],[-44.6992,-22.471],[-44.6957,-22.4621],[-44.6957,-22.4624]],[[-44.7116,-22.4694],[-44.7108,-22.467],[-44.7068,-22.4723],[-44.7111,-22.4694],[-44.7116,-22.4694]],[[-44.7106,-22.4731],[-44.7147,-22.4701],[-44.7106,-22.4732],[-44.7106,-22.4731]],[[-44.7039,-22.4713],[-44.7054,-22.4675],[-44.7045,-22.4705],[-44.7018,-22.4703],[-44.703,-22.4681],[-44.7008,-22.4699],[-44.704,-22.4711],[-44.7039,-22.4713]],[[-44.7008,-22.4627],[-44.7042,-22.4639],[-44.7011,-22.4667],[-44.7046,-22.4646],[-44.7008,-22.4623],[-44.7008,-22.4627]],[[-44.7057,-22.458],[-44.7045,-22.4611],[-44.7016,-22.4595],[-44.7044,-22.4623],[-44.7059,-22.4585],[-44.7057,-22.458]],[[-44.6912,-22.4554],[-44.6957,-22.462],[-44.6929,-22.4542],[-44.6971,-22.4583],[-44.6987,-22.4646],[-44.6962,-22.4552],[-44.6921,-22.4526],[-44.6912,-22.455],[-44.6912,-22.4554]],[[-44.708,-22.4595],[-44.7051,-22.4651],[-44.709,-22.4637],[-44.7082,-22.4605],[-44.7146,-22.4688],[-44.7085,-22.4598],[-44.708,-22.4595]]]}},{"type":"Feature","properties":{"cod_tema":"AREA_USO_RESTRITO_DECLIVIDADE_25_A_45","cod_imovel":"RJ-3304201-301681828C5F4A338D289C89D8315353","num_area":"10.510300000000000000000000000000","ind_status":"AT"},"geometry":{"type":"Polygon","coordinates":[[[-44.4121,-22.5089],[-44.4063,-22.5148],[-44.4122,-22.5092],[-44.4121,-22.5089]]]}},{"type":"Feature","properties":{"cod_tema":"AREA_USO_RESTRITO_DECLIVIDADE_25_A_45","cod_imovel":"RJ-3304201-970AC5851C5A413CBDB4253584019A6F","num_area":"6.5873000000000000000000000000000","ind_status":"AT"},"geometry":{"type":"Polygon","coordinates":[[[-44.4012,-22.5129],[-44.4053,-22.5116],[-44.402,-22.5127],[-44.4012,-22.5129]],[[-44.4053,-22.5139],[-44.4061,-22.5119],[-44.4045,-22.5143],[-44.4053,-22.5139]]]}},{"type":"Feature","properties":{"cod_tema":"AREA_USO_RESTRITO_DECLIVIDADE_25_A_45","cod_imovel":"RJ-3304201-30A4B201BA7E4734AC5A81080C9796D5","num_area":"8.6452000000000000000000000000000","ind_status":"AT"},"geometry":{"type":"Polygon","coordinates":[[[-44.5357,-22.3505],[-44.5401,-22.3485],[-44.5351,-22.3492],[-44.5357,-22.3505]]]}},{"type":"Feature","properties":{"cod_tema":"AREA_USO_RESTRITO_DECLIVIDADE_25_A_45","cod_imovel":"RJ-3304201-1D90361409E544F696225936A489A684","num_area":"50.388200000000000000000000000000","ind_status":"AT"},"geometry":{"type":"Polygon","coordinates":[[[-44.3484,-22.2585],[-44.349,-22.2609],[-44.3513,-22.2585],[-44.3491,-22.2578],[-44.3484,-22.2585]],[[-44.3484,-22.2633],[-44.3525,-22.2598],[-44.3486,-22.2626],[-44.3484,-22.2633]],[[-44.3555,-22.2648],[-44.3544,-22.2617],[-44.3507,-22.2636],[-44.3552,-22.2644],[-44.3555,-22.2648]],[[-44.3605,-22.2584],[-44.3596,-22.2552],[-44.3528,-22.2578],[-44.3551,-22.26],[-44.3589,-22.2581],[-44.3605,-22.2584]],[[-44.3572,-22.257],[-44.3544,-22.2569],[-44.3569,-22.2573],[-44.3572,-22.257]],[[-44.3604,-22.2588],[-44.3551,-22.2611],[-44.3601,-22.2599],[-44.3604,-22.2588]]]}},{"type":"Feature","properties":{"cod_tema":"AREA_USO_RESTRITO_DECLIVIDADE_25_A_45","cod_imovel":"RJ-3304201-AD33C0005FC94B6380C041583BC2D8E9","num_area":"3.0842000000000000000000000000000","ind_status":"AT"},"geometry":{"type":"Polygon","coordinates":[[[-44.3041,-22.2589],[-44.3068,-22.2606],[-44.3043,-22.2586],[-44.3041,-22.2589]]]}},{"type":"Feature","properties":{"cod_tema":"AREA_USO_RESTRITO_DECLIVIDADE_25_A_45","cod_imovel":"RJ-3304201-3A6B178AC348464BB21487CF62ADE861","num_area":"45.574100000000000000000000000000","ind_status":"AT"},"geometry":{"type":"Polygon","coordinates":[[[-44.3768,-22.5754],[-44.3793,-22.5748],[-44.377,-22.5754],[-44.3768,-22.5754]],[[-44.3824,-22.5721],[-44.3786,-22.5742],[-44.3821,-22.5718],[-44.3824,-22.5721]],[[-44.3719,-22.5707],[-44.3737,-22.5689],[-44.3717,-22.5703],[-44.3719,-22.5707]],[[-44.3825,-22.5709],[-44.3847,-22.5677],[-44.3815,-22.5663],[-44.3835,-22.5708],[-44.3825,-22.5709]],[[-44.3813,-22.5674],[-44.3825,-22.57],[-44.3796,-22.5678],[-44.3777,-22.5713],[-44.378,-22.5665],[-44.3749,-22.5708],[-44.3781,-22.5669],[-44.3772,-22.5724],[-44.3823,-22.5706],[-44.3818,-22.5675],[-44.3813,-22.5674]],[[-44.3754,-22.5739],[-44.3767,-22.5709],[-44.373,-22.5722],[-44.3757,-22.5657],[-44.3723,-22.572],[-44.3749,-22.5738],[-44.3754,-22.5739]]]}},{"type":"Feature","properties":{"cod_tema":"AREA_USO_RESTRITO_DECLIVIDADE_25_A_45","cod_imovel":"RJ-3304201-80BE0E94ECF34A24A49B90D2A4B43DD5","num_area":"10.561200000000000000000000000000","ind_status":"AT"},"geometry":{"type":"Polygon","coordinates":[[[-44.3463,-22.2994],[-44.3461,-22.2958],[-44.3424,-22.3001],[-44.346,-22.2996],[-44.3463,-22.2994]]]}},{"type":"Feature","properties":{"cod_tema":"AREA_USO_RESTRITO_DECLIVIDADE_25_A_45","cod_imovel":"RJ-3304201-059D4BA8EF534C2681EFEFB0E2235B9B","num_area":"13.852400000000000000000000000000","ind_status":"CA"},"geometry":{"type":"Polygon","coordinates":[[[-44.4307,-22.415],[-44.4325,-22.413],[-44.4221,-22.4143],[-44.4294,-22.4146],[-44.4307,-22.415]]]}},{"type":"Feature","properties":{"cod_tema":"AREA_USO_RESTRITO_DECLIVIDADE_25_A_45","cod_imovel":"RJ-3304201-5A442A2134E34B63B4561AC5EFD15CDE","num_area":"25.834500000000000000000000000000","ind_status":"CA"},"geometry":{"type":"Polygon","coordinates":[[[-44.7232,-22.4517],[-44.7177,-22.4646],[-44.7222,-22.4605],[-44.7234,-22.4518],[-44.7232,-22.4517]]]}},{"type":"Feature","properties":{"cod_tema":"AREA_USO_RESTRITO_DECLIVIDADE_25_A_45","cod_imovel":"RJ-3304201-DC274E9FE7584844A7C313F13B2AF669","num_area":"12.251900000000000000000000000000","ind_status":"AT"},"geometry":{"type":"Polygon","coordinates":[[[-44.429,-22.3556],[-44.4248,-22.3571],[-44.429,-22.356],[-44.429,-22.3556]]]}},{"type":"Feature","properties":{"cod_tema":"AREA_USO_RESTRITO_DECLIVIDADE_25_A_45","cod_imovel":"RJ-3304201-E62DEBB06CAB4C7E9C7219BD2F06F25C","num_area":"16.082600000000000000000000000000","ind_status":"AT"},"geometry":{"type":"Polygon","coordinates":[[[-44.4479,-22.3672],[-44.4525,-22.3686],[-44.4481,-22.3661],[-44.4479,-22.3672]],[[-44.4556,-22.3656],[-44.4522,-22.3637],[-44.4554,-22.3656],[-44.4556,-22.3656]]]}},{"type":"Feature","properties":{"cod_tema":"AREA_USO_RESTRITO_DECLIVIDADE_25_A_45","cod_imovel":"RJ-3304201-A6EC8B03045344C29185520C3C433C65","num_area":"4.7432000000000000000000000000000","ind_status":"AT"},"geometry":{"type":"Polygon","coordinates":[[[-44.547,-22.5944],[-44.5465,-22.5919],[-44.5468,-22.5943],[-44.547,-22.5944]]]}},{"type":"Feature","properties":{"cod_tema":"AREA_USO_RESTRITO_DECLIVIDADE_25_A_45","cod_imovel":"RJ-3304201-A3DA4829CA094EC2B3CF92C156D42C96","num_area":"11.361400000000000000000000000000","ind_status":"AT"},"geometry":{"type":"Polygon","coordinates":[[[-44.4522,-22.5274],[-44.4559,-22.5254],[-44.4523,-22.527],[-44.4522,-22.5274]],[[-44.4656,-22.5244],[-44.464,-22.5268],[-44.4661,-22.5244],[-44.4656,-22.5244]]]}},{"type":"Feature","properties":{"cod_tema":"AREA_USO_RESTRITO_DECLIVIDADE_25_A_45","cod_imovel":"RJ-3304201-078B9593D97344FA97AF837415058D23","num_area":"1.5320000000000000000000000000000","ind_status":"AT"},"geometry":{"type":"Polygon","coordinates":[[[-44.532,-22.3907],[-44.5345,-22.391],[-44.5321,-22.3906],[-44.532,-22.3907]]]}},{"type":"Feature","properties":{"cod_tema":"AREA_USO_RESTRITO_DECLIVIDADE_25_A_45","cod_imovel":"RJ-3304201-387B70A1D096416C8C6156E96978C9BB","num_area":"8.5964000000000000000000000000000","ind_status":"AT"},"geometry":{"type":"Polygon","coordinates":[[[-44.335,-22.5486],[-44.3324,-22.5506],[-44.335,-22.5496],[-44.335,-22.5486]]]}},{"type":"Feature","properties":{"cod_tema":"AREA_USO_RESTRITO_DECLIVIDADE_25_A_45","cod_imovel":"RJ-3304201-487832C839B14EC494E290033D98F2EC","num_area":"2.3992000000000000000000000000000","ind_status":"AT"},"geometry":{"type":"Polygon","coordinates":[[[-44.7142,-22.4519],[-44.7137,-22.4548],[-44.7144,-22.4518],[-44.7142,-22.4519]]]}},{"type":"Feature","properties":{"cod_tema":"AREA_USO_RESTRITO_DECLIVIDADE_25_A_45","cod_imovel":"RJ-3304201-7C830906F0864E8991061179A2D8EBF1","num_area":"6.4353000000000000000000000000000","ind_status":"AT"},"geometry":{"type":"Polygon","coordinates":[[[-44.5175,-22.5772],[-44.5155,-22.5798],[-44.5176,-22.5774],[-44.5175,-22.5772]]]}},{"type":"Feature","properties":{"cod_tema":"AREA_USO_RESTRITO_DECLIVIDADE_25_A_45","cod_imovel":"RJ-3304201-9000848075BE48D59DDA6F037A4DC5BF","num_area":"3.5822000000000000000000000000000","ind_status":"AT"},"geometry":{"type":"Polygon","coordinates":[[[-44.4455,-22.3955],[-44.4434,-22.3965],[-44.4454,-22.3961],[-44.4455,-22.3955]]]}},{"type":"Feature","properties":{"cod_tema":"AREA_USO_RESTRITO_DECLIVIDADE_25_A_45","cod_imovel":"RJ-3304201-98C772C963EB4EDBAF4C478D86E25046","num_area":"13.852400000000000000000000000000","ind_status":"AT"},"geometry":{"type":"Polygon","coordinates":[[[-44.4307,-22.415],[-44.4325,-22.413],[-44.4221,-22.4143],[-44.4294,-22.4146],[-44.4307,-22.415]]]}},{"type":"Feature","properties":{"cod_tema":"AREA_USO_RESTRITO_DECLIVIDADE_25_A_45","cod_imovel":"RJ-3304201-A2A35A9795A549799E26E7174BCE20CB","num_area":"5.3597000000000000000000000000000","ind_status":"AT"},"geometry":{"type":"Polygon","coordinates":[[[-44.6963,-22.4658],[-44.6957,-22.4636],[-44.696,-22.4658],[-44.6963,-22.4658]]]}},{"type":"Feature","properties":{"cod_tema":"AREA_USO_RESTRITO_DECLIVIDADE_25_A_45","cod_imovel":"RJ-3304201-B5164322E5B6469AA9FBF24C386EC5C6","num_area":"45.163700000000000000000000000000","ind_status":"AT"},"geometry":{"type":"Polygon","coordinates":[[[-44.4097,-22.386],[-44.4102,-22.3797],[-44.4073,-22.3774],[-44.4019,-22.3797],[-44.4073,-22.3844],[-44.4097,-22.386]]]}},{"type":"Feature","properties":{"cod_tema":"AREA_USO_RESTRITO_DECLIVIDADE_25_A_45","cod_imovel":"RJ-3304201-C1B6E806FCCB4905B9AC307568823AA5","num_area":"4.7099000000000000000000000000000","ind_status":"AT"},"geometry":{"type":"Polygon","coordinates":[[[-44.5476,-22.5783],[-44.5505,-22.5777],[-44.548,-22.5783],[-44.5476,-22.5783]]]}},{"type":"Feature","properties":{"cod_tema":"AREA_USO_RESTRITO_DECLIVIDADE_25_A_45","cod_imovel":"RJ-3304201-D2D0543F36C14705B76C6C326BA01994","num_area":"41.334100000000000000000000000000","ind_status":"AT"},"geometry":{"type":"Polygon","coordinates":[[[-44.4578,-22.3679],[-44.4564,-22.3706],[-44.4583,-22.3688],[-44.4578,-22.3679]],[[-44.4674,-22.3764],[-44.4691,-22.3799],[-44.4679,-22.3771],[-44.4674,-22.3764]],[[-44.4479,-22.3672],[-44.4525,-22.3686],[-44.4481,-22.3661],[-44.4479,-22.3672]],[[-44.4521,-22.3643],[-44.4592,-22.3663],[-44.4522,-22.3637],[-44.4521,-22.3643]],[[-44.4676,-22.3693],[-44.4662,-22.3716],[-44.4713,-22.3708],[-44.4702,-22.374],[-44.4729,-22.3719],[-44.4668,-22.3688],[-44.4676,-22.3693]]]}},{"type":"Feature","properties":{"cod_tema":"AREA_USO_RESTRITO_DECLIVIDADE_25_A_45","cod_imovel":"RJ-3304201-ED8E4C327D274763B1FCFB915DB1BB79","num_area":"22.525700000000000000000000000000","ind_status":"AT"},"geometry":{"type":"Polygon","coordinates":[[[-44.4249,-22.5661],[-44.4228,-22.564],[-44.4223,-22.5661],[-44.4249,-22.5661]],[[-44.4284,-22.5702],[-44.4228,-22.5666],[-44.4276,-22.5697],[-44.4284,-22.5702]]]}}]}