{"type":"FeatureCollection","features":[{"type":"Feature","properties":{"cod_tema":"AREA_USO_RESTRITO_DECLIVIDADE_25_A_45","cod_imovel":"RJ-3304706-40150CABC4C54F72ABFC77666157DEFD","num_area":"16.725200000000000000000000000000","ind_status":"AT"},"geometry":{"type":"Polygon","coordinates":[[[-42.2099,-21.5169],[-42.2122,-21.5161],[-42.2099,-21.5165],[-42.2099,-21.5169]],[[-42.2072,-21.521],[-42.2093,-21.5194],[-42.2074,-21.5207],[-42.2072,-21.521]],[[-42.2144,-21.5254],[-42.2161,-21.5239],[-42.2144,-21.5252],[-42.2144,-21.5254]],[[-42.2178,-21.5224],[-42.2199,-21.5219],[-42.2178,-21.5224],[-42.2178,-21.5224]],[[-42.2137,-21.5242],[-42.2156,-21.5222],[-42.2137,-21.5241],[-42.2137,-21.5242]],[[-42.2065,-21.5204],[-42.2096,-21.517],[-42.2071,-21.5199],[-42.2065,-21.5204]]]}},{"type":"Feature","properties":{"cod_tema":"AREA_USO_RESTRITO_DECLIVIDADE_25_A_45","cod_imovel":"RJ-3304706-2D525C62E85D4AFEB65A1F8666707DD8","num_area":"7.9021000000000000000000000000000","ind_status":"AT"},"geometry":{"type":"Polygon","coordinates":[[[-42.133,-21.5544],[-42.1348,-21.5527],[-42.133,-21.5544],[-42.133,-21.5544]],[[-42.138,-21.5555],[-42.1356,-21.5567],[-42.1381,-21.5557],[-42.138,-21.5555]]]}},{"type":"Feature","properties":{"cod_tema":"AREA_USO_RESTRITO_DECLIVIDADE_25_A_45","cod_imovel":"RJ-3304706-334212DC952447BF9F2B5D36067D0D5A","num_area":"15.556800000000000000000000000000","ind_status":"AT"},"geometry":{"type":"Polygon","coordinates":[[[-42.2398,-21.6431],[-42.2415,-21.6391],[-42.2365,-21.6469],[-42.2396,-21.643],[-42.2398,-21.6431]]]}},{"type":"Feature","properties":{"cod_tema":"AREA_USO_RESTRITO_DECLIVIDADE_25_A_45","cod_imovel":"RJ-3304706-A852380B6F4744BA80F274F7FBBEE584","num_area":"16.133500000000000000000000000000","ind_status":"AT"},"geometry":{"type":"Polygon","coordinates":[[[-42.0254,-21.4509],[-42.0272,-21.4486],[-42.026,-21.4503],[-42.0254,-21.4509]],[[-42.0272,-21.4412],[-42.0251,-21.4427],[-42.0274,-21.4468],[-42.0272,-21.4415],[-42.0272,-21.4412]],[[-42.0359,-21.448],[-42.0339,-21.4525],[-42.0359,-21.4483],[-42.0359,-21.448]]]}},{"type":"Feature","properties":{"cod_tema":"AREA_USO_RESTRITO_DECLIVIDADE_25_A_45","cod_imovel":"RJ-3304706-63DF3355709D4AE8961E156D68DAA0BE","num_area":"52.943900000000000000000000000000","ind_status":"AT"},"geometry":{"type":"Polygon","coordinates":[[[-42.1913,-21.599],[-42.1931,-21.6002],[-42.1913,-21.5988],[-42.1913,-21.599]],[[-42.1984,-21.6012],[-42.1981,-21.5978],[-42.1984,-21.6012],[-42.1984,-21.6012]],[[-42.1988,-21.5968],[-42.1906,-21.5913],[-42.1861,-21.5921],[-42.1898,-21.5972],[-42.1846,-21.5936],[-42.1901,-21.6005],[-42.1923,-21.601],[-42.1905,-21.5936],[-42.1953,-21.5958],[-42.1956,-21.6007],[-42.1985,-21.5968],[-42.1988,-21.5968]]]}},{"type":"Feature","properties":{"cod_tema":"AREA_USO_RESTRITO_DECLIVIDADE_25_A_45","cod_imovel":"RJ-3304706-82488F0976F74622885BB927AE2DC4B8","num_area":"7.8072000000000000000000000000000","ind_status":"PE"},"geometry":{"type":"Polygon","coordinates":[[[-42.1519,-21.5712],[-42.148,-21.5717],[-42.1514,-21.5714],[-42.1519,-21.5712]]]}},{"type":"Feature","properties":{"cod_tema":"AREA_USO_RESTRITO_DECLIVIDADE_25_A_45","cod_imovel":"RJ-3304706-A6BA90E6D88D4E1ABFF04931AF234516","num_area":"3.8765000000000000000000000000000","ind_status":"AT"},"geometry":{"type":"Polygon","coordinates":[[[-42.1149,-21.5753],[-42.1125,-21.5769],[-42.1145,-21.5754],[-42.1149,-21.5753]]]}},{"type":"Feature","properties":{"cod_tema":"AREA_USO_RESTRITO_DECLIVIDADE_25_A_45","cod_imovel":"RJ-3304706-BC89BA5A6D654EF38D93F19815372E36","num_area":"9.6869000000000000000000000000000","ind_status":"AT"},"geometry":{"type":"Polygon","coordinates":[[[-42.1137,-21.5181],[-42.1091,-21.5222],[-42.1133,-21.5182],[-42.1137,-21.5181]]]}},{"type":"Feature","properties":{"cod_tema":"AREA_USO_RESTRITO_DECLIVIDADE_25_A_45","cod_imovel":"RJ-3304706-0F0FEB32AE94427D8D3C4347D3B66D03","num_area":"4.2588000000000000000000000000000","ind_status":"AT"},"geometry":{"type":"Polygon","coordinates":[[[-42.2458,-21.6729],[-42.2486,-21.674],[-42.2455,-21.6727],[-42.2458,-21.6729]]]}},{"type":"Feature","properties":{"cod_tema":"AREA_USO_RESTRITO_DECLIVIDADE_25_A_45","cod_imovel":"RJ-3304706-6B60EBDEFAED4A9BB42C9EB0BF8DE454","num_area":"8.1734000000000000000000000000000","ind_status":"AT"},"geometry":{"type":"Polygon","coordinates":[[[-42.1477,-21.6065],[-42.1501,-21.6045],[-42.1483,-21.6029],[-42.1455,-21.6054],[-42.1486,-21.6034],[-42.1476,-21.6063],[-42.1477,-21.6065]]]}},{"type":"Feature","properties":{"cod_tema":"AREA_USO_RESTRITO_DECLIVIDADE_25_A_45","cod_imovel":"RJ-3304706-5334AE3D26C344DEB29FFE64C30C0E74","num_area":"6.4915000000000000000000000000000","ind_status":"AT"},"geometry":{"type":"Polygon","coordinates":[[[-42.2171,-21.5616],[-42.2169,-21.5588],[-42.2171,-21.5614],[-42.2171,-21.5616]],[[-42.216,-21.5619],[-42.2153,-21.5597],[-42.2159,-21.5617],[-42.216,-21.5619]]]}},{"type":"Feature","properties":{"cod_tema":"AREA_USO_RESTRITO_DECLIVIDADE_25_A_45","cod_imovel":"RJ-3304706-19D55D1C17BC43329EAE033CDAF41BA9","num_area":"20.369800000000000000000000000000","ind_status":"AT"},"geometry":{"type":"Polygon","coordinates":[[[-42.2727,-21.5687],[-42.2764,-21.5722],[-42.2752,-21.5679],[-42.2708,-21.5675],[-42.2727,-21.5687],[-42.2727,-21.5687]],[[-42.2716,-21.5641],[-42.27,-21.5659],[-42.2718,-21.5643],[-42.2716,-21.5641]],[[-42.2715,-21.5656],[-42.2693,-21.5661],[-42.2719,-21.5653],[-42.2715,-21.5656]],[[-42.2716,-21.5708],[-42.2756,-21.5737],[-42.2715,-21.5705],[-42.2716,-21.5708]]]}},{"type":"Feature","properties":{"cod_tema":"AREA_USO_RESTRITO_DECLIVIDADE_25_A_45","cod_imovel":"RJ-3304706-924DFBE069574F82AE7754A963B02F0C","num_area":"15.609100000000000000000000000000","ind_status":"AT"},"geometry":{"type":"Polygon","coordinates":[[[-42.1401,-21.5996],[-42.1408,-21.5963],[-42.1452,-21.5963],[-42.141,-21.5959],[-42.1401,-21.5996],[-42.1401,-21.5996]],[[-42.1423,-21.5987],[-42.1452,-21.5989],[-42.1425,-21.5984],[-42.1423,-21.5987]],[[-42.1457,-21.5963],[-42.1487,-21.6002],[-42.1463,-21.5962],[-42.1457,-21.5963]]]}},{"type":"Feature","properties":{"cod_tema":"AREA_USO_RESTRITO_DECLIVIDADE_25_A_45","cod_imovel":"RJ-3304706-3ADBF3AA3CF347D68F817C8E7042DA21","num_area":"7.2140000000000000000000000000000","ind_status":"AT"},"geometry":{"type":"Polygon","coordinates":[[[-42.1444,-21.6073],[-42.1426,-21.6088],[-42.1443,-21.6076],[-42.1444,-21.6073]],[[-42.1454,-21.6076],[-42.1433,-21.6088],[-42.1457,-21.6072],[-42.1454,-21.6076]]]}},{"type":"Feature","properties":{"cod_tema":"AREA_USO_RESTRITO_DECLIVIDADE_25_A_45","cod_imovel":"RJ-3304706-F7EDDA82DA8448D8A7CD7312BC6B46E2","num_area":"7.3389000000000000000000000000000","ind_status":"AT"},"geometry":{"type":"Polygon","coordinates":[[[-42.2643,-21.691],[-42.265,-21.6886],[-42.2641,-21.6908],[-42.2643,-21.691]],[[-42.2633,-21.6914],[-42.2615,-21.6888],[-42.263,-21.6911],[-42.2633,-21.6914]]]}},{"type":"Feature","properties":{"cod_tema":"AREA_USO_RESTRITO_DECLIVIDADE_25_A_45","cod_imovel":"RJ-3304706-47454C0F850A448C855460070A1294A1","num_area":"9.3063000000000000000000000000000","ind_status":"AT"},"geometry":{"type":"Polygon","coordinates":[[[-42.1784,-21.525],[-42.175,-21.5237],[-42.1777,-21.5246],[-42.1784,-21.525]],[[-42.1737,-21.5229],[-42.1783,-21.5233],[-42.1743,-21.5224],[-42.1737,-21.5229]]]}},{"type":"Feature","properties":{"cod_tema":"AREA_USO_RESTRITO_DECLIVIDADE_25_A_45","cod_imovel":"RJ-3304706-815743A9015349C7AE080F82ED0D9FDD","num_area":"7.6814000000000000000000000000000","ind_status":"AT"},"geometry":{"type":"Polygon","coordinates":[[[-42.1786,-21.5244],[-42.1836,-21.5265],[-42.1786,-21.5244],[-42.1786,-21.5244]]]}},{"type":"Feature","properties":{"cod_tema":"AREA_USO_RESTRITO_DECLIVIDADE_25_A_45","cod_imovel":"RJ-3304706-2B0BD936EB1C43C89F6B26AA8885A98F","num_area":"6.6058000000000000000000000000000","ind_status":"AT"},"geometry":{"type":"Polygon","coordinates":[[[-42.2103,-21.5611],[-42.2126,-21.5591],[-42.2105,-21.5607],[-42.2103,-21.5611]],[[-42.212,-21.5652],[-42.2123,-21.5624],[-42.212,-21.5646],[-42.212,-21.5652]]]}},{"type":"Feature","properties":{"cod_tema":"AREA_USO_RESTRITO_DECLIVIDADE_25_A_45","cod_imovel":"RJ-3304706-B809A1C0FEFB455E9F1D539CF8E29CE8","num_area":"52.398800000000000000000000000000","ind_status":"PE"},"geometry":{"type":"Polygon","coordinates":[[[-42.3175,-21.5872],[-42.3167,-21.5892],[-42.3176,-21.5872],[-42.3175,-21.5872]],[[-42.3196,-21.5901],[-42.3223,-21.5872],[-42.3198,-21.5898],[-42.3196,-21.5901]],[[-42.3251,-21.5999],[-42.3228,-21.5973],[-42.3248,-21.5997],[-42.3251,-21.5999]],[[-42.3222,-21.5909],[-42.325,-21.5869],[-42.3219,-21.5906],[-42.3222,-21.5909]],[[-42.3191,-21.5896],[-42.3234,-21.5846],[-42.319,-21.5894],[-42.3191,-21.5896]],[[-42.3202,-21.5939],[-42.3239,-21.5908],[-42.3201,-21.5938],[-42.3202,-21.5939]],[[-42.3191,-21.5959],[-42.326,-21.5948],[-42.3189,-21.5958],[-42.3191,-21.5959]],[[-42.3144,-21.5942],[-42.3189,-21.595],[-42.3111,-21.5898],[-42.3147,-21.5937],[-42.3144,-21.5942]]]}},{"type":"Feature","properties":{"cod_tema":"AREA_USO_RESTRITO_DECLIVIDADE_25_A_45","cod_imovel":"RJ-3304706-E0181DB43EFA4D0795344F159441F36B","num_area":"3.4737000000000000000000000000000","ind_status":"AT"},"geometry":{"type":"Polygon","coordinates":[[[-42.0948,-21.5217],[-42.0919,-21.5233],[-42.0942,-21.5218],[-42.0948,-21.5217]]]}},{"type":"Feature","properties":{"cod_tema":"AREA_USO_RESTRITO_DECLIVIDADE_25_A_45","cod_imovel":"RJ-3304706-07AE1ED65B724B1586DFF2154547A23F","num_area":"59.586600000000000000000000000000","ind_status":"PE"},"geometry":{"type":"Polygon","coordinates":[[[-42.3254,-21.5984],[-42.3263,-21.6006],[-42.3259,-21.5985],[-42.3254,-21.5984]],[[-42.3272,-21.6014],[-42.3322,-21.6032],[-42.329,-21.6019],[-42.3272,-21.6014]],[[-42.346,-21.5939],[-42.3501,-21.5877],[-42.3367,-21.5858],[-42.3377,-21.578],[-42.3333,-21.583],[-42.3432,-21.5906],[-42.346,-21.5939]]]}},{"type":"Feature","properties":{"cod_tema":"AREA_USO_RESTRITO_DECLIVIDADE_25_A_45","cod_imovel":"RJ-3304706-26D58B970DF24DF7810315B81C94550C","num_area":"3.3753000000000000000000000000000","ind_status":"AT"},"geometry":{"type":"Polygon","coordinates":[[[-42.2819,-21.5747],[-42.2824,-21.5726],[-42.2812,-21.5743],[-42.2819,-21.5747]]]}},{"type":"Feature","properties":{"cod_tema":"AREA_USO_RESTRITO_DECLIVIDADE_25_A_45","cod_imovel":"RJ-3304706-E72FA5F177774F6DB9576BF9F7CC5A3F","num_area":"25.427000000000000000000000000000","ind_status":"PE"},"geometry":{"type":"Polygon","coordinates":[[[-42.2533,-21.643],[-42.2509,-21.6372],[-42.2524,-21.6431],[-42.2481,-21.6393],[-42.2451,-21.6414],[-42.2531,-21.6433],[-42.2533,-21.643]]]}},{"type":"Feature","properties":{"cod_tema":"AREA_USO_RESTRITO_DECLIVIDADE_25_A_45","cod_imovel":"RJ-3304706-3A689249DEA349E39AFAED3F6CC959AB","num_area":"1.9890000000000000000000000000000","ind_status":"AT"},"geometry":{"type":"Polygon","coordinates":[[[-42.1028,-21.5033],[-42.1011,-21.5047],[-42.1028,-21.5033],[-42.1028,-21.5033]]]}},{"type":"Feature","properties":{"cod_tema":"AREA_USO_RESTRITO_DECLIVIDADE_25_A_45","cod_imovel":"RJ-3304706-945C47F100B540909A13042E68C6778D","num_area":"5.0366000000000000000000000000000","ind_status":"AT"},"geometry":{"type":"Polygon","coordinates":[[[-42.1707,-21.5372],[-42.169,-21.5338],[-42.1707,-21.5372],[-42.1707,-21.5372]]]}},{"type":"Feature","properties":{"cod_tema":"AREA_USO_RESTRITO_DECLIVIDADE_25_A_45","cod_imovel":"RJ-3304706-A0854DCD585344D89AE3CD954AA134C0","num_area":"1.9443000000000000000000000000000","ind_status":"AT"},"geometry":{"type":"Polygon","coordinates":[[[-42.2438,-21.5434],[-42.2465,-21.5423],[-42.244,-21.5432],[-42.2438,-21.5434]]]}},{"type":"Feature","properties":{"cod_tema":"AREA_USO_RESTRITO_DECLIVIDADE_25_A_45","cod_imovel":"RJ-3304706-B01E217E506B470BA517013663617D4D","num_area":"1.6236000000000000000000000000000","ind_status":"PE"},"geometry":{"type":"Polygon","coordinates":[[[-42.2047,-21.5034],[-42.2055,-21.5015],[-42.2043,-21.5034],[-42.2047,-21.5034]]]}},{"type":"Feature","properties":{"cod_tema":"AREA_USO_RESTRITO_DECLIVIDADE_25_A_45","cod_imovel":"RJ-3304706-52FE9A651D104C36B972706D22DF4493","num_area":"31.557200000000000000000000000000","ind_status":"AT"},"geometry":{"type":"Polygon","coordinates":[[[-42.0392,-21.5017],[-42.0413,-21.5035],[-42.0479,-21.4968],[-42.045,-21.4974],[-42.0392,-21.5017]],[[-42.0417,-21.4921],[-42.0356,-21.4964],[-42.0418,-21.492],[-42.0417,-21.4921]]]}},{"type":"Feature","properties":{"cod_tema":"AREA_USO_RESTRITO_DECLIVIDADE_25_A_45","cod_imovel":"RJ-3304706-C9B7B5C303F24CEA81A80794EEA3C8C1","num_area":"8.3981000000000000000000000000000","ind_status":"AT"},"geometry":{"type":"Polygon","coordinates":[[[-42.2335,-21.6341],[-42.2319,-21.6383],[-42.2337,-21.6344],[-42.2335,-21.6341]]]}},{"type":"Feature","properties":{"cod_tema":"AREA_USO_RESTRITO_DECLIVIDADE_25_A_45","cod_imovel":"RJ-3304706-94F4F4DA6CD94C739D004B52C69C4078","num_area":"10.390000000000000000000000000000","ind_status":"AT"},"geometry":{"type":"Polygon","coordinates":[[[-42.0781,-21.4681],[-42.083,-21.4671],[-42.0794,-21.4657],[-42.078,-21.4681],[-42.0781,-21.4681]]]}},{"type":"Feature","properties":{"cod_tema":"AREA_USO_RESTRITO_DECLIVIDADE_25_A_45","cod_imovel":"RJ-3304706-CB7F179E6AFA4EE3A909FF4F92D9C396","num_area":"3.3963000000000000000000000000000","ind_status":"AT"},"geometry":{"type":"Polygon","coordinates":[[[-42.2251,-21.6355],[-42.2272,-21.6327],[-42.2243,-21.6346],[-42.2251,-21.6355]]]}},{"type":"Feature","properties":{"cod_tema":"AREA_USO_RESTRITO_DECLIVIDADE_25_A_45","cod_imovel":"RJ-3304706-8D064E4F1F2243F4B7A6827216D848CC","num_area":"6.6250000000000000000000000000000","ind_status":"AT"},"geometry":{"type":"Polygon","coordinates":[[[-42.208,-21.4854],[-42.2103,-21.4848],[-42.2079,-21.4853],[-42.208,-21.4854]],[[-42.21,-21.4859],[-42.2075,-21.4861],[-42.2102,-21.486],[-42.21,-21.4859]]]}},{"type":"Feature","properties":{"cod_tema":"AREA_USO_RESTRITO_DECLIVIDADE_25_A_45","cod_imovel":"RJ-3304706-47253A0DA9F948128F2767E02786DCB6","num_area":"4.0696000000000000000000000000000","ind_status":"AT"},"geometry":{"type":"Polygon","coordinates":[[[-42.2088,-21.4773],[-42.2114,-21.4778],[-42.209,-21.4769],[-42.2088,-21.4773]]]}},{"type":"Feature","properties":{"cod_tema":"AREA_USO_RESTRITO_DECLIVIDADE_25_A_45","cod_imovel":"RJ-3304706-0C39939217704AB29766F69EDA278AEE","num_area":"13.033700000000000000000000000000","ind_status":"PE"},"geometry":{"type":"Polygon","coordinates":[[[-42.2703,-21.5894],[-42.2695,-21.5857],[-42.2698,-21.5889],[-42.2703,-21.5894]],[[-42.2673,-21.5874],[-42.2649,-21.5866],[-42.2671,-21.587],[-42.2673,-21.5874]]]}},{"type":"Feature","properties":{"cod_tema":"AREA_USO_RESTRITO_DECLIVIDADE_25_A_45","cod_imovel":"RJ-3304706-E6BA0156495E49CE94325852A7050E6C","num_area":"2.6046000000000000000000000000000","ind_status":"PE"},"geometry":{"type":"Polygon","coordinates":[[[-42.2028,-21.576],[-42.2038,-21.5782],[-42.2036,-21.5761],[-42.2028,-21.576]]]}},{"type":"Feature","properties":{"cod_tema":"AREA_USO_RESTRITO_DECLIVIDADE_25_A_45","cod_imovel":"RJ-3304706-EEDFE393A1774BF6AD3CF5BC74E77151","num_area":"4.1505000000000000000000000000000","ind_status":"AT"},"geometry":{"type":"Polygon","coordinates":[[[-42.1677,-21.4957],[-42.1647,-21.495],[-42.1675,-21.4957],[-42.1677,-21.4957]],[[-42.165,-21.4915],[-42.161,-21.4931],[-42.1647,-21.4917],[-42.165,-21.4915]]]}},{"type":"Feature","properties":{"cod_tema":"AREA_USO_RESTRITO_DECLIVIDADE_25_A_45","cod_imovel":"RJ-3304706-1789BD65FF6641BEA0A8EC55724D1434","num_area":"13.541200000000000000000000000000","ind_status":"AT"},"geometry":{"type":"Polygon","coordinates":[[[-42.3048,-21.6462],[-42.305,-21.6494],[-42.3073,-21.6432],[-42.3049,-21.6459],[-42.3048,-21.6462]],[[-42.3035,-21.6462],[-42.3111,-21.6417],[-42.3051,-21.6428],[-42.3038,-21.6463],[-42.3035,-21.6462]]]}},{"type":"Feature","properties":{"cod_tema":"AREA_USO_RESTRITO_DECLIVIDADE_25_A_45","cod_imovel":"RJ-3304706-4B38B6D557C2483093645F993224E906","num_area":"13.581100000000000000000000000000","ind_status":"AT"},"geometry":{"type":"Polygon","coordinates":[[[-42.0672,-21.4948],[-42.0655,-21.4919],[-42.0651,-21.4947],[-42.0672,-21.4948]],[[-42.0646,-21.4908],[-42.0603,-21.4921],[-42.063,-21.4939],[-42.0644,-21.4909],[-42.0646,-21.4908]]]}},{"type":"Feature","properties":{"cod_tema":"AREA_USO_RESTRITO_DECLIVIDADE_25_A_45","cod_imovel":"RJ-3304706-C46271B300DA4A98A8CD2FD4DF78FAFA","num_area":"11.709200000000000000000000000000","ind_status":"AT"},"geometry":{"type":"Polygon","coordinates":[[[-42.2562,-21.5321],[-42.2541,-21.5308],[-42.256,-21.5325],[-42.2562,-21.5321]],[[-42.2576,-21.5382],[-42.2531,-21.5368],[-42.2576,-21.5379],[-42.2576,-21.5382]],[[-42.2575,-21.5394],[-42.2604,-21.5394],[-42.258,-21.5393],[-42.2575,-21.5394]]]}},{"type":"Feature","properties":{"cod_tema":"AREA_USO_RESTRITO_DECLIVIDADE_25_A_45","cod_imovel":"RJ-3304706-2D353EBF6D2A4C4A98D17BBE0E88D184","num_area":"7.8669000000000000000000000000000","ind_status":"AT"},"geometry":{"type":"Polygon","coordinates":[[[-42.0988,-21.5271],[-42.0998,-21.5245],[-42.0985,-21.5269],[-42.0988,-21.5271]],[[-42.0962,-21.5236],[-42.0975,-21.5215],[-42.0962,-21.5233],[-42.0962,-21.5236]]]}},{"type":"Feature","properties":{"cod_tema":"AREA_USO_RESTRITO_DECLIVIDADE_25_A_45","cod_imovel":"RJ-3304706-D71CF21BE29D45A58B2DC6FB432DFA88","num_area":"47.265500000000000000000000000000","ind_status":"PE"},"geometry":{"type":"Polygon","coordinates":[[[-42.3128,-21.5835],[-42.3154,-21.5853],[-42.3132,-21.5836],[-42.3128,-21.5835]],[[-42.3169,-21.5844],[-42.3196,-21.5818],[-42.3169,-21.5842],[-42.3169,-21.5844]],[[-42.3171,-21.5821],[-42.3148,-21.5831],[-42.3171,-21.5821],[-42.3171,-21.5821]],[[-42.3308,-21.5726],[-42.3268,-21.5712],[-42.3244,-21.5776],[-42.331,-21.5729],[-42.3308,-21.5726]],[[-42.3259,-21.5805],[-42.3315,-21.5733],[-42.32,-21.5789],[-42.3257,-21.5807],[-42.3259,-21.5805]]]}},{"type":"Feature","properties":{"cod_tema":"AREA_USO_RESTRITO_DECLIVIDADE_25_A_45","cod_imovel":"RJ-3304706-B98F6FF71D464155B1F365A57A849100","num_area":"69.939800000000000000000000000000","ind_status":"AT"},"geometry":{"type":"Polygon","coordinates":[[[-42.0939,-21.5478],[-42.092,-21.5431],[-42.0911,-21.5473],[-42.0918,-21.5432],[-42.0881,-21.5454],[-42.0894,-21.5416],[-42.088,-21.5463],[-42.0914,-21.5491],[-42.0933,-21.5474],[-42.0939,-21.5478]],[[-42.0909,-21.5378],[-42.0883,-21.5406],[-42.0935,-21.536],[-42.0912,-21.5376],[-42.0909,-21.5378]],[[-42.0903,-21.5343],[-42.0933,-21.5355],[-42.0913,-21.5344],[-42.0903,-21.5343]],[[-42.0953,-21.5464],[-42.0943,-21.5435],[-42.0949,-21.5462],[-42.0953,-21.5464]],[[-42.0983,-21.5264],[-42.0948,-21.531],[-42.1008,-21.5308],[-42.0996,-21.5283],[-42.095,-21.5306],[-42.0982,-21.5264],[-42.0983,-21.5264]],[[-42.0969,-21.5434],[-42.0985,-21.5392],[-42.0971,-21.5431],[-42.0969,-21.5434]],[[-42.0976,-21.5236],[-42.0965,-21.5261],[-42.0976,-21.5236],[-42.0976,-21.5236]],[[-42.0979,-21.532],[-42.1017,-21.5325],[-42.0989,-21.53],[-42.0975,-21.5318],[-42.0979,-21.532]]]}},{"type":"Feature","properties":{"cod_tema":"AREA_USO_RESTRITO_DECLIVIDADE_25_A_45","cod_imovel":"RJ-3304706-971D675141884BB0B5C974B8F9949AE4","num_area":"2.6625000000000000000000000000000","ind_status":"AT"},"geometry":{"type":"Polygon","coordinates":[[[-42.2445,-21.587],[-42.2417,-21.5888],[-42.2445,-21.5875],[-42.2445,-21.587]]]}},{"type":"Feature","properties":{"cod_tema":"AREA_USO_RESTRITO_DECLIVIDADE_25_A_45","cod_imovel":"RJ-3304706-641AE91BC88C43B29EC0F083CBEDA23A","num_area":"1.9212000000000000000000000000000","ind_status":"PE"},"geometry":{"type":"Polygon","coordinates":[[[-42.3141,-21.6092],[-42.3162,-21.6114],[-42.3143,-21.6092],[-42.3141,-21.6092]]]}},{"type":"Feature","properties":{"cod_tema":"AREA_USO_RESTRITO_DECLIVIDADE_25_A_45","cod_imovel":"RJ-3304706-BC1AD3C2F6FE4CECA266F9524A548F42","num_area":"12.039500000000000000000000000000","ind_status":"AT"},"geometry":{"type":"Polygon","coordinates":[[[-42.1067,-21.4721],[-42.1092,-21.474],[-42.1069,-21.4722],[-42.1067,-21.4721]],[[-42.109,-21.4752],[-42.1124,-21.4744],[-42.109,-21.4751],[-42.109,-21.4752]],[[-42.1124,-21.4737],[-42.115,-21.4742],[-42.1122,-21.4736],[-42.1124,-21.4737]]]}},{"type":"Feature","properties":{"cod_tema":"AREA_USO_RESTRITO_DECLIVIDADE_25_A_45","cod_imovel":"RJ-3304706-E2BDEA9058824E41AED5B36C0C33887F","num_area":"3.4905000000000000000000000000000","ind_status":"AT"},"geometry":{"type":"Polygon","coordinates":[[[-42.0841,-21.525],[-42.0855,-21.5224],[-42.0845,-21.5249],[-42.0841,-21.525]]]}},{"type":"Feature","properties":{"cod_tema":"AREA_USO_RESTRITO_DECLIVIDADE_25_A_45","cod_imovel":"RJ-3304706-3C5A12E83097461BBD14E63F2CADD9E9","num_area":"3.8614000000000000000000000000000","ind_status":"PE"},"geometry":{"type":"Polygon","coordinates":[[[-42.2269,-21.6005],[-42.2241,-21.5983],[-42.227,-21.6004],[-42.2269,-21.6005]]]}},{"type":"Feature","properties":{"cod_tema":"AREA_USO_RESTRITO_DECLIVIDADE_25_A_45","cod_imovel":"RJ-3304706-6FD88F5F9ABD45B48D153248DBDF9616","num_area":"5.8619000000000000000000000000000","ind_status":"AT"},"geometry":{"type":"Polygon","coordinates":[[[-42.2406,-21.6864],[-42.2427,-21.689],[-42.2407,-21.6865],[-42.2406,-21.6864]]]}},{"type":"Feature","properties":{"cod_tema":"AREA_USO_RESTRITO_DECLIVIDADE_25_A_45","cod_imovel":"RJ-3304706-96AD13C423614C4FA2EC2308ADB9ECD6","num_area":"20.638400000000000000000000000000","ind_status":"AT"},"geometry":{"type":"Polygon","coordinates":[[[-42.185,-21.5212],[-42.1852,-21.5239],[-42.1853,-21.5208],[-42.185,-21.5212]],[[-42.1753,-21.5204],[-42.1806,-21.5199],[-42.1753,-21.5204],[-42.1753,-21.5204]],[[-42.1746,-21.5218],[-42.1801,-21.5235],[-42.1839,-21.5204],[-42.1746,-21.5217],[-42.1746,-21.5218]]]}},{"type":"Feature","properties":{"cod_tema":"AREA_USO_RESTRITO_DECLIVIDADE_25_A_45","cod_imovel":"RJ-3304706-85EEF0AE31954FA08564D39E0EA8B47F","num_area":"4.0978000000000000000000000000000","ind_status":"AT"},"geometry":{"type":"Polygon","coordinates":[[[-42.3411,-21.6172],[-42.3434,-21.6153],[-42.3404,-21.6168],[-42.3411,-21.6172]]]}},{"type":"Feature","properties":{"cod_tema":"AREA_USO_RESTRITO_DECLIVIDADE_25_A_45","cod_imovel":"RJ-3304706-038FE5E832734BE791ACC4112A7DBFE7","num_area":"9.2888000000000000000000000000000","ind_status":"AT"},"geometry":{"type":"Polygon","coordinates":[[[-42.2482,-21.6235],[-42.2458,-21.6223],[-42.248,-21.6239],[-42.2482,-21.6235]],[[-42.246,-21.6185],[-42.2505,-21.6227],[-42.246,-21.6185],[-42.246,-21.6185]]]}},{"type":"Feature","properties":{"cod_tema":"AREA_USO_RESTRITO_DECLIVIDADE_25_A_45","cod_imovel":"RJ-3304706-2D113DC4C31440E0B813BA5B78307218","num_area":"11.197900000000000000000000000000","ind_status":"AT"},"geometry":{"type":"Polygon","coordinates":[[[-42.2545,-21.6271],[-42.2563,-21.6285],[-42.2546,-21.6271],[-42.2545,-21.6271]],[[-42.2535,-21.636],[-42.2519,-21.6334],[-42.2532,-21.6358],[-42.2535,-21.636]],[[-42.251,-21.6349],[-42.2522,-21.6376],[-42.251,-21.6351],[-42.251,-21.6349]]]}},{"type":"Feature","properties":{"cod_tema":"AREA_USO_RESTRITO_DECLIVIDADE_25_A_45","cod_imovel":"RJ-3304706-77B7C6449FEC4B56B6866F47DAE1E6D7","num_area":"3.4714000000000000000000000000000","ind_status":"AT"},"geometry":{"type":"Polygon","coordinates":[[[-42.2714,-21.5642],[-42.269,-21.5647],[-42.2711,-21.5644],[-42.2714,-21.5642]]]}},{"type":"Feature","properties":{"cod_tema":"AREA_USO_RESTRITO_DECLIVIDADE_25_A_45","cod_imovel":"RJ-3304706-0B7F275E4E4948748A33BB4393D6F7F1","num_area":"2.8434000000000000000000000000000","ind_status":"AT"},"geometry":{"type":"Polygon","coordinates":[[[-42.2931,-21.5885],[-42.2946,-21.5861],[-42.2931,-21.5882],[-42.2931,-21.5885]]]}},{"type":"Feature","properties":{"cod_tema":"AREA_USO_RESTRITO_DECLIVIDADE_25_A_45","cod_imovel":"RJ-3304706-E85F1CDD957B4009AD0C95303B8ABD42","num_area":"4.1814000000000000000000000000000","ind_status":"AT"},"geometry":{"type":"Polygon","coordinates":[[[-42.1151,-21.4635],[-42.1177,-21.4639],[-42.1143,-21.4634],[-42.1151,-21.4635]]]}},{"type":"Feature","properties":{"cod_tema":"AREA_USO_RESTRITO_DECLIVIDADE_25_A_45","cod_imovel":"RJ-3304706-988B9216488E4D6CB87F0F5F4E286176","num_area":"7.0634000000000000000000000000000","ind_status":"AT"},"geometry":{"type":"Polygon","coordinates":[[[-42.1673,-21.5633],[-42.1663,-21.561],[-42.1672,-21.563],[-42.1673,-21.5633]],[[-42.1681,-21.5647],[-42.1723,-21.5638],[-42.1677,-21.5648],[-42.1681,-21.5647]]]}},{"type":"Feature","properties":{"cod_tema":"AREA_USO_RESTRITO_DECLIVIDADE_25_A_45","cod_imovel":"RJ-3304706-26DF3D51A53A474D8731615EB98D9284","num_area":"1.0569000000000000000000000000000","ind_status":"AT"},"geometry":{"type":"Polygon","coordinates":[[[-42.3282,-21.6543],[-42.3261,-21.6554],[-42.3285,-21.6545],[-42.3282,-21.6543]]]}},{"type":"Feature","properties":{"cod_tema":"AREA_USO_RESTRITO_DECLIVIDADE_25_A_45","cod_imovel":"RJ-3304706-08A76FC6ED2A49EFB49CB3190BAEA352","num_area":"5.8257000000000000000000000000000","ind_status":"AT"},"geometry":{"type":"Polygon","coordinates":[[[-42.191,-21.5107],[-42.193,-21.5089],[-42.1913,-21.5103],[-42.191,-21.5107]]]}},{"type":"Feature","properties":{"cod_tema":"AREA_USO_RESTRITO_DECLIVIDADE_25_A_45","cod_imovel":"RJ-3304706-4DCFFDBF5BB34D8FB0D562AF1C5054C6","num_area":"14.995400000000000000000000000000","ind_status":"AT"},"geometry":{"type":"Polygon","coordinates":[[[-42.0713,-21.5457],[-42.0724,-21.5504],[-42.0717,-21.5466],[-42.0735,-21.5496],[-42.0752,-21.5451],[-42.0715,-21.5456],[-42.0713,-21.5457]]]}},{"type":"Feature","properties":{"cod_tema":"AREA_USO_RESTRITO_DECLIVIDADE_25_A_45","cod_imovel":"RJ-3304706-C102DF8A2EA14F6192BB11C896228BBA","num_area":"4.7460000000000000000000000000000","ind_status":"PE"},"geometry":{"type":"Polygon","coordinates":[[[-42.207,-21.5756],[-42.2049,-21.5746],[-42.207,-21.5755],[-42.207,-21.5756]]]}},{"type":"Feature","properties":{"cod_tema":"AREA_USO_RESTRITO_DECLIVIDADE_25_A_45","cod_imovel":"RJ-3304706-25112F22211D497B80AEA6D2C2F60CC6","num_area":"2.9154000000000000000000000000000","ind_status":"AT"},"geometry":{"type":"Polygon","coordinates":[[[-42.1906,-21.5073],[-42.1924,-21.5051],[-42.1907,-21.5069],[-42.1906,-21.5073]]]}},{"type":"Feature","properties":{"cod_tema":"AREA_USO_RESTRITO_DECLIVIDADE_25_A_45","cod_imovel":"RJ-3304706-4D9763800715488FB56DE8330CA2FA0A","num_area":"12.656000000000000000000000000000","ind_status":"AT"},"geometry":{"type":"Polygon","coordinates":[[[-42.351,-21.6309],[-42.3492,-21.6288],[-42.3506,-21.6307],[-42.351,-21.6309]],[[-42.3497,-21.6287],[-42.35,-21.626],[-42.3496,-21.6286],[-42.3497,-21.6287]],[[-42.3471,-21.6243],[-42.3507,-21.6231],[-42.347,-21.6242],[-42.3471,-21.6243]],[[-42.3463,-21.6314],[-42.3484,-21.6322],[-42.3465,-21.631],[-42.3463,-21.6314]]]}},{"type":"Feature","properties":{"cod_tema":"AREA_USO_RESTRITO_DECLIVIDADE_25_A_45","cod_imovel":"RJ-3304706-C73750F8C23A46C8A8A3CD7A39AD5F38","num_area":"5.6280000000000000000000000000000","ind_status":"AT"},"geometry":{"type":"Polygon","coordinates":[[[-42.3245,-21.6466],[-42.3251,-21.6433],[-42.3244,-21.6462],[-42.3245,-21.6466]],[[-42.3266,-21.6444],[-42.3292,-21.644],[-42.3266,-21.6444],[-42.3266,-21.6444]]]}},{"type":"Feature","properties":{"cod_tema":"AREA_USO_RESTRITO_DECLIVIDADE_25_A_45","cod_imovel":"RJ-3304706-0EF2E439EC864D1BB070BEC0B9AE983C","num_area":"3.0840000000000000000000000000000","ind_status":"PE"},"geometry":{"type":"Polygon","coordinates":[[[-42.2,-21.5506],[-42.1979,-21.55],[-42.1998,-21.5508],[-42.2,-21.5506]]]}},{"type":"Feature","properties":{"cod_tema":"AREA_USO_RESTRITO_DECLIVIDADE_25_A_45","cod_imovel":"RJ-3304706-20D058CA1AD14C49AE5B4F365BDA1187","num_area":"1.1217000000000000000000000000000","ind_status":"AT"},"geometry":{"type":"Polygon","coordinates":[[[-42.1866,-21.5637],[-42.1885,-21.5652],[-42.1867,-21.5637],[-42.1866,-21.5637]]]}},{"type":"Feature","properties":{"cod_tema":"AREA_USO_RESTRITO_DECLIVIDADE_25_A_45","cod_imovel":"RJ-3304706-CA5234330D3E4690A6A92776357ED325","num_area":"20.871400000000000000000000000000","ind_status":"AT"},"geometry":{"type":"Polygon","coordinates":[[[-42.2637,-21.6768],[-42.2659,-21.6789],[-42.264,-21.6768],[-42.2637,-21.6768]],[[-42.2646,-21.6726],[-42.2635,-21.6699],[-42.2642,-21.6722],[-42.2646,-21.6726]],[[-42.2704,-21.6804],[-42.27,-21.6771],[-42.2703,-21.6804],[-42.2704,-21.6804]],[[-42.2547,-21.6695],[-42.2574,-21.6703],[-42.2547,-21.6695],[-42.2547,-21.6695]],[[-42.2653,-21.6742],[-42.2683,-21.6751],[-42.2655,-21.674],[-42.2653,-21.6742]],[[-42.2617,-21.6681],[-42.2578,-21.6697],[-42.262,-21.6682],[-42.2617,-21.6681]]]}},{"type":"Feature","properties":{"cod_tema":"AREA_USO_RESTRITO_DECLIVIDADE_25_A_45","cod_imovel":"RJ-3304706-04755A40A2FD47678DDBE2DBC01C262E","num_area":"25.570200000000000000000000000000","ind_status":"AT"},"geometry":{"type":"Polygon","coordinates":[[[-42.2339,-21.6427],[-42.2368,-21.6446],[-42.2401,-21.6382],[-42.2377,-21.6369],[-42.2338,-21.6426],[-42.2339,-21.6427]]]}},{"type":"Feature","properties":{"cod_tema":"AREA_USO_RESTRITO_DECLIVIDADE_25_A_45","cod_imovel":"RJ-3304706-062D64330A8649B4A017CAA9416EA1B1","num_area":"23.397000000000000000000000000000","ind_status":"AT"},"geometry":{"type":"Polygon","coordinates":[[[-42.1547,-21.4968],[-42.1607,-21.4938],[-42.1565,-21.4938],[-42.1599,-21.4909],[-42.154,-21.4957],[-42.1547,-21.4968]]]}},{"type":"Feature","properties":{"cod_tema":"AREA_USO_RESTRITO_DECLIVIDADE_25_A_45","cod_imovel":"RJ-3304706-2C2985AF7D3041929942ACD91F601998","num_area":"9.7300000000000000000000000000000","ind_status":"AT"},"geometry":{"type":"Polygon","coordinates":[[[-42.1656,-21.6184],[-42.1679,-21.6177],[-42.1632,-21.615],[-42.1657,-21.6177],[-42.1656,-21.6184]],[[-42.1613,-21.62],[-42.1591,-21.6218],[-42.1618,-21.6202],[-42.1613,-21.62]]]}},{"type":"Feature","properties":{"cod_tema":"AREA_USO_RESTRITO_DECLIVIDADE_25_A_45","cod_imovel":"RJ-3304706-2C783E3CFC574C04ACA45FCB06E4F57D","num_area":"6.0661000000000000000000000000000","ind_status":"AT"},"geometry":{"type":"Polygon","coordinates":[[[-42.311,-21.604],[-42.309,-21.606],[-42.3117,-21.6045],[-42.311,-21.604]]]}},{"type":"Feature","properties":{"cod_tema":"AREA_USO_RESTRITO_DECLIVIDADE_25_A_45","cod_imovel":"RJ-3304706-474A8372E8E5446980E12FCD427EC72C","num_area":"18.421400000000000000000000000000","ind_status":"AT"},"geometry":{"type":"Polygon","coordinates":[[[-42.1647,-21.4897],[-42.1596,-21.4877],[-42.1584,-21.4901],[-42.1637,-21.4904],[-42.1647,-21.4897]]]}},{"type":"Feature","properties":{"cod_tema":"AREA_USO_RESTRITO_DECLIVIDADE_25_A_45","cod_imovel":"RJ-3304706-6A67161C3EE74BBC9E212C2526F351A7","num_area":"70.569500000000000000000000000000","ind_status":"AT"},"geometry":{"type":"Polygon","coordinates":[[[-42.0371,-21.4979],[-42.0359,-21.4958],[-42.0314,-21.4984],[-42.0351,-21.4994],[-42.0371,-21.4979]],[[-42.0273,-21.5018],[-42.0372,-21.5132],[-42.0427,-21.5101],[-42.0369,-21.5108],[-42.0275,-21.5015],[-42.0273,-21.5018]]]}},{"type":"Feature","properties":{"cod_tema":"AREA_USO_RESTRITO_DECLIVIDADE_25_A_45","cod_imovel":"RJ-3304706-6D15D9DFD91B4561AAB4FE92BF8B18AE","num_area":"5.5887000000000000000000000000000","ind_status":"AT"},"geometry":{"type":"Polygon","coordinates":[[[-42.3179,-21.6082],[-42.3145,-21.6067],[-42.3176,-21.6082],[-42.3179,-21.6082]]]}},{"type":"Feature","properties":{"cod_tema":"AREA_USO_RESTRITO_DECLIVIDADE_25_A_45","cod_imovel":"RJ-3304706-6D6AC327D3B64823BDDB32809C85C54C","num_area":"8.7172000000000000000000000000000","ind_status":"CA"},"geometry":{"type":"Polygon","coordinates":[[[-42.046,-21.4655],[-42.0475,-21.4639],[-42.0459,-21.4654],[-42.046,-21.4655]],[[-42.0456,-21.4626],[-42.048,-21.4602],[-42.0457,-21.4624],[-42.0456,-21.4626]],[[-42.0514,-21.467],[-42.0484,-21.4685],[-42.0514,-21.4671],[-42.0514,-21.467]]]}},{"type":"Feature","properties":{"cod_tema":"AREA_USO_RESTRITO_DECLIVIDADE_25_A_45","cod_imovel":"RJ-3304706-7631888A18D9429C8C7FF0716FB12C1A","num_area":"5.8505000000000000000000000000000","ind_status":"AT"},"geometry":{"type":"Polygon","coordinates":[[[-42.2506,-21.5327],[-42.2474,-21.5328],[-42.2508,-21.5329],[-42.2506,-21.5327]],[[-42.2483,-21.5352],[-42.2461,-21.5346],[-42.2482,-21.5351],[-42.2483,-21.5352]]]}},{"type":"Feature","properties":{"cod_tema":"AREA_USO_RESTRITO_DECLIVIDADE_25_A_45","cod_imovel":"RJ-3304706-7ADB03BAFA8F45829165871A43F21540","num_area":"23.003700000000000000000000000000","ind_status":"AT"},"geometry":{"type":"Polygon","coordinates":[[[-42.093,-21.4642],[-42.0906,-21.4696],[-42.0939,-21.4708],[-42.0931,-21.4642],[-42.093,-21.4642]]]}},{"type":"Feature","properties":{"cod_tema":"AREA_USO_RESTRITO_DECLIVIDADE_25_A_45","cod_imovel":"RJ-3304706-8944E3F364C246CD857C104996E4DBF9","num_area":"2.4654000000000000000000000000000","ind_status":"AT"},"geometry":{"type":"Polygon","coordinates":[[[-42.3106,-21.6208],[-42.3086,-21.6222],[-42.3111,-21.6209],[-42.3106,-21.6208]]]}},{"type":"Feature","properties":{"cod_tema":"AREA_USO_RESTRITO_DECLIVIDADE_25_A_45","cod_imovel":"RJ-3304706-8AD71D98E12A45F094CC4F9C324AD416","num_area":"2.4215000000000000000000000000000","ind_status":"AT"},"geometry":{"type":"Polygon","coordinates":[[[-42.1386,-21.6082],[-42.1398,-21.6062],[-42.1387,-21.6081],[-42.1386,-21.6082]]]}},{"type":"Feature","properties":{"cod_tema":"AREA_USO_RESTRITO_DECLIVIDADE_25_A_45","cod_imovel":"RJ-3304706-A0C60B594D804A2886084689C3E29BE8","num_area":"1.7235000000000000000000000000000","ind_status":"AT"},"geometry":{"type":"Polygon","coordinates":[[[-42.2357,-21.602],[-42.2354,-21.6045],[-42.2357,-21.6021],[-42.2357,-21.602]]]}},{"type":"Feature","properties":{"cod_tema":"AREA_USO_RESTRITO_DECLIVIDADE_25_A_45","cod_imovel":"RJ-3304706-A152849E139842BEB09F88C86906360C","num_area":"28.982600000000000000000000000000","ind_status":"AT"},"geometry":{"type":"Polygon","coordinates":[[[-42.1454,-21.4791],[-42.1369,-21.48],[-42.1404,-21.4838],[-42.1455,-21.4792],[-42.1454,-21.4791]]]}},{"type":"Feature","properties":{"cod_tema":"AREA_USO_RESTRITO_DECLIVIDADE_25_A_45","cod_imovel":"RJ-3304706-A69380ED10D54984AD80102A1348423E","num_area":"5.6438000000000000000000000000000","ind_status":"AT"},"geometry":{"type":"Polygon","coordinates":[[[-42.3219,-21.6449],[-42.3236,-21.6433],[-42.3219,-21.6445],[-42.3219,-21.6449]],[[-42.3245,-21.6466],[-42.3251,-21.6433],[-42.3244,-21.6462],[-42.3245,-21.6466]],[[-42.3266,-21.6444],[-42.3292,-21.644],[-42.3266,-21.6444],[-42.3266,-21.6444]]]}},{"type":"Feature","properties":{"cod_tema":"AREA_USO_RESTRITO_DECLIVIDADE_25_A_45","cod_imovel":"RJ-3304706-A7370CE637674918BBCBC31EF5E68D56","num_area":"2.2673000000000000000000000000000","ind_status":"AT"},"geometry":{"type":"Polygon","coordinates":[[[-42.3347,-21.6318],[-42.3367,-21.6304],[-42.3346,-21.6311],[-42.3347,-21.6318]]]}},{"type":"Feature","properties":{"cod_tema":"AREA_USO_RESTRITO_DECLIVIDADE_25_A_45","cod_imovel":"RJ-3304706-B1262A8F92834B9190F3FA9728073E1C","num_area":"3.3713000000000000000000000000000","ind_status":"AT"},"geometry":{"type":"Polygon","coordinates":[[[-42.1662,-21.6206],[-42.1679,-21.6177],[-42.1658,-21.6205],[-42.1662,-21.6206]]]}},{"type":"Feature","properties":{"cod_tema":"AREA_USO_RESTRITO_DECLIVIDADE_25_A_45","cod_imovel":"RJ-3304706-C9199309709E4EE2890AF440E5296819","num_area":"6.4095000000000000000000000000000","ind_status":"AT"},"geometry":{"type":"Polygon","coordinates":[[[-42.0951,-21.5866],[-42.0927,-21.5873],[-42.0952,-21.5888],[-42.0951,-21.5866]]]}},{"type":"Feature","properties":{"cod_tema":"AREA_USO_RESTRITO_DECLIVIDADE_25_A_45","cod_imovel":"RJ-3304706-CFF8491EBF4C413787A2D9F13FAD4104","num_area":"3.8014000000000000000000000000000","ind_status":"AT"},"geometry":{"type":"Polygon","coordinates":[[[-42.318,-21.607],[-42.321,-21.6083],[-42.3181,-21.6069],[-42.318,-21.607]]]}},{"type":"Feature","properties":{"cod_tema":"AREA_USO_RESTRITO_DECLIVIDADE_25_A_45","cod_imovel":"RJ-3304706-E3667A34EE3E4BAA97EDF63A0BAE91BD","num_area":"2.5746000000000000000000000000000","ind_status":"AT"},"geometry":{"type":"Polygon","coordinates":[[[-42.2247,-21.6434],[-42.2229,-21.6448],[-42.2252,-21.6436],[-42.2247,-21.6434]]]}},{"type":"Feature","properties":{"cod_tema":"AREA_USO_RESTRITO_DECLIVIDADE_25_A_45","cod_imovel":"RJ-3304706-DD7A430279F14B8C9BF42CC82E4E1AEF","num_area":"55.950000000000000000000000000000","ind_status":"AT"},"geometry":{"type":"Polygon","coordinates":[[[-42.1495,-21.4889],[-42.1453,-21.4917],[-42.1498,-21.4899],[-42.1495,-21.4889]],[[-42.1512,-21.49],[-42.154,-21.4873],[-42.1511,-21.4891],[-42.1512,-21.49]],[[-42.1488,-21.4947],[-42.1572,-21.491],[-42.1508,-21.4915],[-42.1486,-21.4949],[-42.1488,-21.4947]],[[-42.1432,-21.4915],[-42.1425,-21.4948],[-42.1463,-21.4981],[-42.1482,-21.4953],[-42.1433,-21.4913],[-42.1432,-21.4915]]]}},{"type":"Feature","properties":{"cod_tema":"AREA_USO_RESTRITO_DECLIVIDADE_25_A_45","cod_imovel":"RJ-3304706-E04C9B82019245BF933B922CBCE867F2","num_area":"8.0931000000000000000000000000000","ind_status":"AT"},"geometry":{"type":"Polygon","coordinates":[[[-42.2418,-21.4535],[-42.2445,-21.4569],[-42.2429,-21.4534],[-42.2418,-21.4535]]]}},{"type":"Feature","properties":{"cod_tema":"AREA_USO_RESTRITO_DECLIVIDADE_25_A_45","cod_imovel":"RJ-3304706-F077561E747D4609858265934604D7B0","num_area":"2.0048000000000000000000000000000","ind_status":"AT"},"geometry":{"type":"Polygon","coordinates":[[[-42.2424,-21.6248],[-42.2448,-21.6247],[-42.2424,-21.6246],[-42.2424,-21.6248]]]}},{"type":"Feature","properties":{"cod_tema":"AREA_USO_RESTRITO_DECLIVIDADE_25_A_45","cod_imovel":"RJ-3304706-F7F3C766F6324C48ADFE38D1165D66E0","num_area":"19.295100000000000000000000000000","ind_status":"AT"},"geometry":{"type":"Polygon","coordinates":[[[-42.2407,-21.4683],[-42.2387,-21.4688],[-42.2407,-21.4683],[-42.2407,-21.4683]],[[-42.2442,-21.4707],[-42.2422,-21.461],[-42.2433,-21.4712],[-42.2442,-21.4707]]]}}]}