{"type":"FeatureCollection","features":[{"type":"Feature","properties":{"cod_tema":"AREA_USO_RESTRITO_DECLIVIDADE_25_A_45","cod_imovel":"RJ-3305208-FED7259A08824AD78D886B7308688265","num_area":"13.617800000000000000000000000000","ind_status":"AT"},"geometry":{"type":"Polygon","coordinates":[[[-42.1502,-22.7981],[-42.1499,-22.8001],[-42.1511,-22.7984],[-42.1502,-22.7981]],[[-42.1504,-22.7975],[-42.1529,-22.7974],[-42.1507,-22.7968],[-42.1504,-22.7975]],[[-42.162,-22.8045],[-42.1591,-22.8041],[-42.1615,-22.8048],[-42.162,-22.8045]]]}}]}