{"type":"FeatureCollection","features":[{"type":"Feature","properties":{"cod_tema":"AREA_USO_RESTRITO_PANTANEIRA","cod_imovel":"RJ-3304755-4FB238E1DB43479093C77565B88AF4FE","num_area":"12.574600000000000000000000000000","ind_status":"AT"},"geometry":{"type":"Polygon","coordinates":[[[-41.1057,-21.4428],[-41.1079,-21.4438],[-41.1078,-21.4369],[-41.1055,-21.4426],[-41.1057,-21.4428]]]}},{"type":"Feature","properties":{"cod_tema":"AREA_USO_RESTRITO_PANTANEIRA","cod_imovel":"RJ-3304755-D719664F17A542138E6E0B7E3FC97ACE","num_area":"3.4287000000000000000000000000000","ind_status":"AT"},"geometry":{"type":"Polygon","coordinates":[[[-41.1074,-21.4298],[-41.1085,-21.4326],[-41.1078,-21.43],[-41.1074,-21.4298]]]}},{"type":"Feature","properties":{"cod_tema":"AREA_USO_RESTRITO_DECLIVIDADE_25_A_45","cod_imovel":"RJ-3304755-5750D223EE7541889C36D6705C9F7B06","num_area":"72.909700000000000000000000000000","ind_status":"PE"},"geometry":{"type":"Polygon","coordinates":[[[-41.2416,-21.3527],[-41.2429,-21.3491],[-41.2404,-21.3495],[-41.2412,-21.3527],[-41.2416,-21.3527]],[[-41.2425,-21.352],[-41.241,-21.35],[-41.2425,-21.3519],[-41.2425,-21.352]],[[-41.2435,-21.3444],[-41.2408,-21.3403],[-41.2389,-21.3419],[-41.2411,-21.3442],[-41.2435,-21.3444]],[[-41.2366,-21.3601],[-41.2345,-21.3554],[-41.2365,-21.3597],[-41.2366,-21.3601]],[[-41.2392,-21.3466],[-41.2411,-21.3454],[-41.2382,-21.3424],[-41.2351,-21.3446],[-41.2429,-21.349],[-41.2388,-21.3467],[-41.2392,-21.3466]],[[-41.2423,-21.3378],[-41.2421,-21.3353],[-41.2411,-21.3404],[-41.2423,-21.3378],[-41.2423,-21.3378]]]}},{"type":"Feature","properties":{"cod_tema":"AREA_USO_RESTRITO_DECLIVIDADE_25_A_45","cod_imovel":"RJ-3304755-3C54BAC702D140CEAEA20F46D5FEC2B7","num_area":"1.2485000000000000000000000000000","ind_status":"AT"},"geometry":{"type":"Polygon","coordinates":[[[-41.2608,-21.3284],[-41.2591,-21.326],[-41.2607,-21.3283],[-41.2608,-21.3284]]]}},{"type":"Feature","properties":{"cod_tema":"AREA_USO_RESTRITO_DECLIVIDADE_25_A_45","cod_imovel":"RJ-3304755-9702D360D1884116BFD0B801DA74AEB5","num_area":"20.387100000000000000000000000000","ind_status":"AT"},"geometry":{"type":"Polygon","coordinates":[[[-41.2934,-21.2827],[-41.288,-21.2836],[-41.2882,-21.2893],[-41.2885,-21.2855],[-41.2938,-21.284],[-41.2934,-21.2827]]]}},{"type":"Feature","properties":{"cod_tema":"AREA_USO_RESTRITO_DECLIVIDADE_25_A_45","cod_imovel":"RJ-3304755-9AB883FA2816492CAD09DFFD0099FEE4","num_area":"15.092600000000000000000000000000","ind_status":"AT"},"geometry":{"type":"Polygon","coordinates":[[[-41.205,-21.2817],[-41.2058,-21.2796],[-41.205,-21.2816],[-41.205,-21.2817]],[[-41.2024,-21.2656],[-41.2072,-21.2611],[-41.2025,-21.2656],[-41.2024,-21.2656]],[[-41.198,-21.3038],[-41.1953,-21.301],[-41.1979,-21.3035],[-41.198,-21.3038]]]}},{"type":"Feature","properties":{"cod_tema":"AREA_USO_RESTRITO_DECLIVIDADE_25_A_45","cod_imovel":"RJ-3304755-A31219CE40AE478A845EA2202704A9CD","num_area":"4.6586000000000000000000000000000","ind_status":"AT"},"geometry":{"type":"Polygon","coordinates":[[[-41.1922,-21.2665],[-41.191,-21.2694],[-41.1922,-21.2659],[-41.1922,-21.2665]],[[-41.192,-21.2775],[-41.193,-21.2745],[-41.192,-21.2774],[-41.192,-21.2775]]]}},{"type":"Feature","properties":{"cod_tema":"AREA_USO_RESTRITO_PANTANEIRA","cod_imovel":"RJ-3304755-B349464D83C54A7694DDCA6653C513BB","num_area":"14.473900000000000000000000000000","ind_status":"AT"},"geometry":{"type":"Polygon","coordinates":[[[-41.1574,-21.4305],[-41.1672,-21.426],[-41.1576,-21.4305],[-41.1574,-21.4305]],[[-41.164,-21.418],[-41.1586,-21.4136],[-41.1645,-21.4183],[-41.164,-21.418]]]}},{"type":"Feature","properties":{"cod_tema":"AREA_USO_RESTRITO_DECLIVIDADE_25_A_45","cod_imovel":"RJ-3304755-00B122EAD4584B8EB1B3C502BB85BA7C","num_area":"66.577900000000000000000000000000","ind_status":"AT"},"geometry":{"type":"Polygon","coordinates":[[[-41.2268,-21.3687],[-41.228,-21.3724],[-41.2308,-21.3696],[-41.2269,-21.3684],[-41.2268,-21.3687]],[[-41.2296,-21.3668],[-41.2333,-21.3688],[-41.2304,-21.3669],[-41.2296,-21.3668]],[[-41.2232,-21.3727],[-41.2227,-21.375],[-41.2237,-21.3727],[-41.2232,-21.3727]],[[-41.2268,-21.3651],[-41.2238,-21.3668],[-41.2257,-21.3682],[-41.2269,-21.3652],[-41.2268,-21.3651]],[[-41.2286,-21.3755],[-41.2292,-21.3776],[-41.2288,-21.3755],[-41.2286,-21.3755]],[[-41.2293,-21.3736],[-41.2252,-21.3744],[-41.2291,-21.3737],[-41.2293,-21.3736]],[[-41.226,-21.377],[-41.2282,-21.3773],[-41.2261,-21.377],[-41.226,-21.377]],[[-41.2256,-21.3682],[-41.2226,-21.3707],[-41.2256,-21.3712],[-41.2257,-21.3683],[-41.2256,-21.3682]],[[-41.2291,-21.3791],[-41.2239,-21.3791],[-41.2289,-21.379],[-41.2291,-21.3791]],[[-41.2283,-21.3769],[-41.2266,-21.3748],[-41.2217,-21.3768],[-41.2283,-21.3764],[-41.2283,-21.3769]]]}},{"type":"Feature","properties":{"cod_tema":"AREA_USO_RESTRITO_DECLIVIDADE_25_A_45","cod_imovel":"RJ-3304755-1028F1DB62434A0483F5C5814F1B5C6F","num_area":"4.7944000000000000000000000000000","ind_status":"AT"},"geometry":{"type":"Polygon","coordinates":[[[-41.225,-21.292],[-41.2235,-21.2945],[-41.225,-21.292],[-41.225,-21.292]]]}},{"type":"Feature","properties":{"cod_tema":"AREA_USO_RESTRITO_DECLIVIDADE_25_A_45","cod_imovel":"RJ-3304755-10943ED852CC4CA1B0964467E8DCAC9F","num_area":"4.4161000000000000000000000000000","ind_status":"AT"},"geometry":{"type":"Polygon","coordinates":[[[-41.1986,-21.3759],[-41.2009,-21.3787],[-41.199,-21.3763],[-41.1986,-21.3759]],[[-41.1987,-21.3753],[-41.2009,-21.3781],[-41.1989,-21.3751],[-41.1987,-21.3753]]]}},{"type":"Feature","properties":{"cod_tema":"AREA_USO_RESTRITO_DECLIVIDADE_25_A_45","cod_imovel":"RJ-3304755-2377C4FD45284717AFF05EB9BFD180CB","num_area":"10.223700000000000000000000000000","ind_status":"AT"},"geometry":{"type":"Polygon","coordinates":[[[-41.1951,-21.3704],[-41.1949,-21.3724],[-41.1952,-21.3704],[-41.1951,-21.3704]],[[-41.2011,-21.3726],[-41.1991,-21.3705],[-41.2011,-21.3728],[-41.2011,-21.3726]]]}},{"type":"Feature","properties":{"cod_tema":"AREA_USO_RESTRITO_DECLIVIDADE_25_A_45","cod_imovel":"RJ-3304755-2F589B3D915A4221B89B242B1FDD5424","num_area":"33.870800000000000000000000000000","ind_status":"AT"},"geometry":{"type":"Polygon","coordinates":[[[-41.2241,-21.2852],[-41.2265,-21.286],[-41.2246,-21.2853],[-41.2241,-21.2852]],[[-41.227,-21.2921],[-41.2285,-21.2865],[-41.225,-21.2879],[-41.2273,-21.2907],[-41.227,-21.2921]],[[-41.2239,-21.2885],[-41.2237,-21.292],[-41.2263,-21.292],[-41.2244,-21.2888],[-41.2239,-21.2885]],[[-41.2285,-21.2819],[-41.2275,-21.2859],[-41.2287,-21.2819],[-41.2285,-21.2819]]]}},{"type":"Feature","properties":{"cod_tema":"AREA_USO_RESTRITO_PANTANEIRA","cod_imovel":"RJ-3304755-31DB7CA73EB240C1A3611E6B730E9589","num_area":"3.2521000000000000000000000000000","ind_status":"AT"},"geometry":{"type":"Polygon","coordinates":[[[-41.0055,-21.312],[-41.0078,-21.3124],[-41.0048,-21.3095],[-41.0054,-21.3115],[-41.0055,-21.312]]]}},{"type":"Feature","properties":{"cod_tema":"AREA_USO_RESTRITO_DECLIVIDADE_25_A_45","cod_imovel":"RJ-3304755-3D85D6F125AE4476889C5CCC2932DA5E","num_area":"14.587100000000000000000000000000","ind_status":"AT"},"geometry":{"type":"Polygon","coordinates":[[[-41.196,-21.3994],[-41.1986,-21.3955],[-41.1954,-21.3994],[-41.196,-21.3994]]]}},{"type":"Feature","properties":{"cod_tema":"AREA_USO_RESTRITO_PANTANEIRA","cod_imovel":"RJ-3304755-42013048AC8D4617BB4DB0EC11BE002F","num_area":"13.398100000000000000000000000000","ind_status":"AT"},"geometry":{"type":"Polygon","coordinates":[[[-41.1464,-21.5001],[-41.1424,-21.5061],[-41.1463,-21.5001],[-41.1464,-21.5001]]]}},{"type":"Feature","properties":{"cod_tema":"AREA_USO_RESTRITO_DECLIVIDADE_25_A_45","cod_imovel":"RJ-3304755-49C6F83DB1A84ACE9E9BB21E812FD17C","num_area":"6.5678000000000000000000000000000","ind_status":"AT"},"geometry":{"type":"Polygon","coordinates":[[[-41.2285,-21.3666],[-41.2299,-21.3634],[-41.2284,-21.3666],[-41.2285,-21.3666]]]}},{"type":"Feature","properties":{"cod_tema":"AREA_USO_RESTRITO_DECLIVIDADE_25_A_45","cod_imovel":"RJ-3304755-73BFECEE5B194A809D3D862B95EE6D63","num_area":"2.5159000000000000000000000000000","ind_status":"AT"},"geometry":{"type":"Polygon","coordinates":[[[-41.1252,-21.4971],[-41.1283,-21.4969],[-41.1254,-21.497],[-41.1252,-21.4971]]]}},{"type":"Feature","properties":{"cod_tema":"AREA_USO_RESTRITO_PANTANEIRA","cod_imovel":"RJ-3304755-B3F3A9EFFEA243D5881B35737FF9FE65","num_area":"10.946600000000000000000000000000","ind_status":"AT"},"geometry":{"type":"Polygon","coordinates":[[[-41.088,-21.4399],[-41.0922,-21.4355],[-41.0883,-21.4396],[-41.088,-21.4399]],[[-41.0837,-21.4403],[-41.0857,-21.4356],[-41.0831,-21.4404],[-41.0837,-21.4403]]]}},{"type":"Feature","properties":{"cod_tema":"AREA_USO_RESTRITO_DECLIVIDADE_25_A_45","cod_imovel":"RJ-3304755-B4B11070B63D4C969DD4CB6EA852C05A","num_area":"17.089500000000000000000000000000","ind_status":"AT"},"geometry":{"type":"Polygon","coordinates":[[[-41.0288,-21.2764],[-41.0309,-21.2754],[-41.0248,-21.2745],[-41.0284,-21.2763],[-41.0288,-21.2764]],[[-41.0258,-21.2778],[-41.0218,-21.2775],[-41.0252,-21.2781],[-41.0258,-21.2778]]]}},{"type":"Feature","properties":{"cod_tema":"AREA_USO_RESTRITO_DECLIVIDADE_25_A_45","cod_imovel":"RJ-3304755-B7C399C385BB4833A1B8E578DEC130EA","num_area":"50.159200000000000000000000000000","ind_status":"AT"},"geometry":{"type":"Polygon","coordinates":[[[-41.2176,-21.2851],[-41.2164,-21.2892],[-41.2182,-21.2851],[-41.2176,-21.2851]],[[-41.2236,-21.2923],[-41.2239,-21.2885],[-41.2186,-21.2933],[-41.2235,-21.2943],[-41.2236,-21.2923]],[[-41.2203,-21.285],[-41.2209,-21.2895],[-41.2237,-21.2868],[-41.221,-21.2852],[-41.2203,-21.285]],[[-41.2209,-21.2896],[-41.2191,-21.2874],[-41.2163,-21.2922],[-41.2206,-21.2898],[-41.2209,-21.2896]]]}},{"type":"Feature","properties":{"cod_tema":"AREA_USO_RESTRITO_DECLIVIDADE_25_A_45","cod_imovel":"RJ-3304755-BC2E8C6645504AAC8F0FB4EE7E1BF3D7","num_area":"12.090700000000000000000000000000","ind_status":"AT"},"geometry":{"type":"Polygon","coordinates":[[[-41.2304,-21.3027],[-41.2281,-21.2998],[-41.2287,-21.3052],[-41.2302,-21.3032],[-41.2304,-21.3027]]]}},{"type":"Feature","properties":{"cod_tema":"AREA_USO_RESTRITO_DECLIVIDADE_25_A_45","cod_imovel":"RJ-3304755-D70C9BF9EC304E4F9970A71FAA024CBA","num_area":"20.522400000000000000000000000000","ind_status":"AT"},"geometry":{"type":"Polygon","coordinates":[[[-41.1755,-21.3837],[-41.1727,-21.3808],[-41.1743,-21.3863],[-41.1755,-21.384],[-41.1755,-21.3837]],[[-41.1769,-21.3835],[-41.1787,-21.3802],[-41.1754,-21.3801],[-41.1766,-21.3835],[-41.1769,-21.3835]]]}},{"type":"Feature","properties":{"cod_tema":"AREA_USO_RESTRITO_PANTANEIRA","cod_imovel":"RJ-3304755-FC0C7EB31ED84DE2B57823123F70F29D","num_area":"3.3974000000000000000000000000000","ind_status":"AT"},"geometry":{"type":"Polygon","coordinates":[[[-41.1294,-21.5121],[-41.1304,-21.5095],[-41.1294,-21.512],[-41.1294,-21.5121]]]}}]}