{"type":"FeatureCollection","features":[{"type":"Feature","properties":{"cod_tema":"AREA_USO_RESTRITO_DECLIVIDADE_25_A_45","cod_imovel":"RJ-3304904-19C570DF77A2491799E10D492029F136","num_area":"77.750300000000000000000000000000","ind_status":"AT"},"geometry":{"type":"Polygon","coordinates":[[[-42.9001,-22.8699],[-42.8971,-22.8669],[-42.8996,-22.8697],[-42.9001,-22.8699]],[[-42.9007,-22.8767],[-42.9025,-22.8783],[-42.9008,-22.8766],[-42.9007,-22.8767]],[[-42.8807,-22.8599],[-42.8868,-22.8654],[-42.8853,-22.8679],[-42.8984,-22.8741],[-42.882,-22.8581],[-42.8807,-22.8599]]]}},{"type":"Feature","properties":{"cod_tema":"AREA_USO_RESTRITO_DECLIVIDADE_25_A_45","cod_imovel":"RJ-3304904-5F3AD478D4414306863E0CCEDD083662","num_area":"8.9465000000000000000000000000000","ind_status":"AT"},"geometry":{"type":"Polygon","coordinates":[[[-42.9688,-22.8836],[-42.9643,-22.8825],[-42.9704,-22.8865],[-42.9688,-22.8836]]]}},{"type":"Feature","properties":{"cod_tema":"AREA_USO_RESTRITO_DECLIVIDADE_25_A_45","cod_imovel":"RJ-3304904-56E4E3A82D5D43FA9604B93DB86C4786","num_area":"59.090800000000000000000000000000","ind_status":"AT"},"geometry":{"type":"Polygon","coordinates":[[[-42.9211,-22.8391],[-42.9203,-22.8359],[-42.9211,-22.839],[-42.9211,-22.8391]],[[-42.9294,-22.8487],[-42.9269,-22.8481],[-42.9294,-22.8488],[-42.9294,-22.8487]],[[-42.9321,-22.8455],[-42.9331,-22.8475],[-42.9326,-22.8454],[-42.9321,-22.8455]],[[-42.9342,-22.8404],[-42.9371,-22.8407],[-42.9342,-22.8403],[-42.9342,-22.8404]],[[-42.9375,-22.8428],[-42.9359,-22.8442],[-42.9375,-22.8429],[-42.9375,-22.8428]]]}}]}