{"type":"FeatureCollection","features":[{"type":"Feature","properties":{"cod_tema":"RIO_ATE_10","cod_imovel":"RJ-3300456-33DC7AAB2A6E44DBBB716268C12C4413","ind_status":"AT"},"geometry":{"type":"Polygon","coordinates":[[[-43.363,-22.7127],[-43.3614,-22.7095],[-43.3627,-22.7129],[-43.363,-22.7127]]]}},{"type":"Feature","properties":{"cod_tema":"RIO_ATE_10","cod_imovel":"RJ-3300456-5CA249F1EAC34B9BB8DB755B07935D16","ind_status":"AT"},"geometry":{"type":"Polygon","coordinates":[[[-43.4021,-22.6995],[-43.3923,-22.693],[-43.3787,-22.7004],[-43.3923,-22.6931],[-43.4042,-22.7004],[-43.4021,-22.6995]]]}},{"type":"Feature","properties":{"cod_tema":"RIO_ATE_10","cod_imovel":"RJ-3300456-5CA249F1EAC34B9BB8DB755B07935D16","ind_status":"AT"},"geometry":{"type":"Polygon","coordinates":[[[-43.3735,-22.7028],[-43.3703,-22.7034],[-43.3787,-22.7004],[-43.3735,-22.7028]]]}},{"type":"Feature","properties":{"cod_tema":"RIO_ATE_10","cod_imovel":"RJ-3300456-5CA249F1EAC34B9BB8DB755B07935D16","ind_status":"AT"},"geometry":{"type":"Polygon","coordinates":[[[-43.3838,-22.7005],[-43.3888,-22.7028],[-43.3803,-22.6996],[-43.3838,-22.7005]]]}},{"type":"Feature","properties":{"cod_tema":"RIO_ATE_10","cod_imovel":"RJ-3300456-F641D9912EB4481F9EAE041048B1440C","ind_status":"AT"},"geometry":{"type":"Polygon","coordinates":[[[-43.405,-22.6947],[-43.4019,-22.6952],[-43.4052,-22.6947],[-43.405,-22.6947]]]}}]}