{"type":"FeatureCollection","features":[{"type":"Feature","properties":{"cod_tema":"RIO_ATE_10","cod_imovel":"RJ-3300506-BCA445B346984A41898F39690566004E","ind_status":"AT"},"geometry":{"type":"Polygon","coordinates":[[[-42.261,-22.2429],[-42.2646,-22.2445],[-42.2609,-22.2428],[-42.261,-22.2429]]]}},{"type":"Feature","properties":{"cod_tema":"RIO_ATE_10","cod_imovel":"RJ-3300506-9D82D08FFAE04F5D9CBBFBD6071C8AFD","ind_status":"AT"},"geometry":{"type":"Polygon","coordinates":[[[-42.4121,-22.2528],[-42.4184,-22.2502],[-42.4119,-22.2528],[-42.4121,-22.2528]]]}},{"type":"Feature","properties":{"cod_tema":"RIO_ATE_10","cod_imovel":"RJ-3300506-37214A9B80A142C49F8BFFAF1469C046","ind_status":"AT"},"geometry":{"type":"Polygon","coordinates":[[[-42.3277,-22.2859],[-42.326,-22.2821],[-42.3276,-22.2859],[-42.3277,-22.2859]]]}},{"type":"Feature","properties":{"cod_tema":"RIO_ATE_10","cod_imovel":"RJ-3300506-03EBB2F8E8334B1EA07F06C6C0D15A57","ind_status":"AT"},"geometry":{"type":"Polygon","coordinates":[[[-42.3804,-22.1532],[-42.3841,-22.1596],[-42.3781,-22.1614],[-42.3841,-22.1596],[-42.3803,-22.1531],[-42.3804,-22.1532]],[[-42.3864,-22.1556],[-42.3876,-22.1597],[-42.3837,-22.1605],[-42.3877,-22.1597],[-42.3862,-22.1554],[-42.3864,-22.1556]],[[-42.3958,-22.1597],[-42.4022,-22.1616],[-42.3955,-22.1597],[-42.3958,-22.1597]],[[-42.4025,-22.1517],[-42.4001,-22.1467],[-42.3971,-22.1505],[-42.4025,-22.1517],[-42.4025,-22.1517]],[[-42.4004,-22.1564],[-42.4039,-22.1539],[-42.4003,-22.1565],[-42.4004,-22.1564]]]}},{"type":"Feature","properties":{"cod_tema":"RIO_10_A_50","cod_imovel":"RJ-3300506-03EBB2F8E8334B1EA07F06C6C0D15A57","ind_status":"AT"},"geometry":{"type":"Polygon","coordinates":[[[-42.4044,-22.1527],[-42.407,-22.1608],[-42.4042,-22.1526],[-42.4044,-22.1527]]]}},{"type":"Feature","properties":{"cod_tema":"RIO_ATE_10","cod_imovel":"RJ-3300506-A650270BC9954E30A46B689C3CB41605","ind_status":"AT"},"geometry":{"type":"Polygon","coordinates":[[[-42.3098,-22.1719],[-42.3012,-22.1746],[-42.3098,-22.1719],[-42.3098,-22.1719]]]}},{"type":"Feature","properties":{"cod_tema":"RIO_ATE_10","cod_imovel":"RJ-3300506-1B08C004735146698C4AB4E544BDA044","ind_status":"AT"},"geometry":{"type":"Polygon","coordinates":[[[-42.4471,-22.1792],[-42.4435,-22.1784],[-42.4471,-22.1792],[-42.4471,-22.1792]]]}},{"type":"Feature","properties":{"cod_tema":"RIO_ATE_10","cod_imovel":"RJ-3300506-00E20C0D1C034F38A2588F81C6FE1A44","ind_status":"AT"},"geometry":{"type":"Polygon","coordinates":[[[-42.2723,-22.2479],[-42.2774,-22.2469],[-42.2717,-22.2481],[-42.2723,-22.2479]]]}},{"type":"Feature","properties":{"cod_tema":"RIO_ATE_10","cod_imovel":"RJ-3300506-041C932D59FD456B907F92D7F01B66D6","ind_status":"AT"},"geometry":{"type":"Polygon","coordinates":[[[-42.3615,-22.2043],[-42.3639,-22.2116],[-42.3612,-22.204],[-42.3615,-22.2043]]]}},{"type":"Feature","properties":{"cod_tema":"RIO_ATE_10","cod_imovel":"RJ-3300506-133F5EDA3A654CD5A208FC8DC89F92A1","ind_status":"AT"},"geometry":{"type":"Polygon","coordinates":[[[-42.3477,-22.252],[-42.3507,-22.2487],[-42.3471,-22.2521],[-42.3477,-22.252]]]}},{"type":"Feature","properties":{"cod_tema":"RIO_ATE_10","cod_imovel":"RJ-3300506-08D938649FE44BDA8632BE036933685C","ind_status":"AT"},"geometry":{"type":"Polygon","coordinates":[[[-42.3162,-22.2559],[-42.3168,-22.2594],[-42.3162,-22.2558],[-42.3162,-22.2559]]]}},{"type":"Feature","properties":{"cod_tema":"RIO_ATE_10","cod_imovel":"RJ-3300506-0B24F87FA7814F08B66B59BFC4365927","ind_status":"AT"},"geometry":{"type":"Polygon","coordinates":[[[-42.3269,-22.1283],[-42.3372,-22.1268],[-42.3267,-22.1284],[-42.3269,-22.1283]]]}},{"type":"Feature","properties":{"cod_tema":"RIO_ATE_10","cod_imovel":"RJ-3300506-0C52028035A2483F937222C4F281238D","ind_status":"AT"},"geometry":{"type":"Polygon","coordinates":[[[-42.428,-22.2243],[-42.4253,-22.2216],[-42.4282,-22.2246],[-42.428,-22.2243]]]}},{"type":"Feature","properties":{"cod_tema":"RIO_ATE_10","cod_imovel":"RJ-3300506-0F29E008D78C4EADB0F953E2668FE28A","ind_status":"AT"},"geometry":{"type":"Polygon","coordinates":[[[-42.3528,-22.2152],[-42.3496,-22.2133],[-42.3533,-22.2158],[-42.3528,-22.2152]],[[-42.3495,-22.2134],[-42.343,-22.216],[-42.347,-22.2143],[-42.3495,-22.2234],[-42.3461,-22.2192],[-42.3506,-22.2125],[-42.3495,-22.2134]]]}},{"type":"Feature","properties":{"cod_tema":"RIO_ATE_10","cod_imovel":"RJ-3300506-1050C6B1716949E4B4C9CCD7FBCC5F6D","ind_status":"AT"},"geometry":{"type":"Polygon","coordinates":[[[-42.2999,-22.2887],[-42.2929,-22.2927],[-42.2984,-22.2912],[-42.2985,-22.295],[-42.3011,-22.2878],[-42.2999,-22.2887]]]}},{"type":"Feature","properties":{"cod_tema":"RIO_ATE_10","cod_imovel":"RJ-3300506-10C20205BC4542258F317E270D0F9954","ind_status":"AT"},"geometry":{"type":"Polygon","coordinates":[[[-42.4261,-22.1314],[-42.4209,-22.1345],[-42.4261,-22.1314],[-42.4261,-22.1314]]]}},{"type":"Feature","properties":{"cod_tema":"RIO_ATE_10","cod_imovel":"RJ-3300506-111BE72AB61041408B02C8647A64789F","ind_status":"AT"},"geometry":{"type":"Polygon","coordinates":[[[-42.4999,-22.1534],[-42.4963,-22.1524],[-42.4999,-22.1534],[-42.4999,-22.1534]]]}},{"type":"Feature","properties":{"cod_tema":"RIO_ATE_10","cod_imovel":"RJ-3300506-127B980BDE6A4A7EB3F24483BAA226B6","ind_status":"AT"},"geometry":{"type":"Polygon","coordinates":[[[-42.3231,-22.1433],[-42.3317,-22.1395],[-42.323,-22.1433],[-42.3231,-22.1433]]]}},{"type":"Feature","properties":{"cod_tema":"RIO_10_A_50","cod_imovel":"RJ-3300506-127B980BDE6A4A7EB3F24483BAA226B6","ind_status":"AT"},"geometry":{"type":"Polygon","coordinates":[[[-42.3338,-22.1424],[-42.3313,-22.136],[-42.3338,-22.1424],[-42.3338,-22.1424]]]}},{"type":"Feature","properties":{"cod_tema":"RIO_ATE_10","cod_imovel":"RJ-3300506-1B3E0614A5754BE4B105EFB0AC5051CC","ind_status":"AT"},"geometry":{"type":"Polygon","coordinates":[[[-42.323,-22.2704],[-42.3203,-22.2721],[-42.3232,-22.2704],[-42.323,-22.2704]]]}},{"type":"Feature","properties":{"cod_tema":"RIO_ATE_10","cod_imovel":"RJ-3300506-213AFEB99D9A46A4B96B0884515F5BE7","ind_status":"AT"},"geometry":{"type":"Polygon","coordinates":[[[-42.3994,-22.1947],[-42.3961,-22.1962],[-42.3994,-22.1946],[-42.3994,-22.1947]]]}},{"type":"Feature","properties":{"cod_tema":"RIO_ATE_10","cod_imovel":"RJ-3300506-216614233C714A4AB93CC077040ABA7F","ind_status":"AT"},"geometry":{"type":"Polygon","coordinates":[[[-42.3791,-22.2798],[-42.3762,-22.2817],[-42.3792,-22.2797],[-42.3791,-22.2798]]]}},{"type":"Feature","properties":{"cod_tema":"RIO_ATE_10","cod_imovel":"RJ-3300506-23845E95599E4F4494E8A8876E804298","ind_status":"AT"},"geometry":{"type":"Polygon","coordinates":[[[-42.3303,-22.2386],[-42.3259,-22.2434],[-42.3304,-22.2386],[-42.3303,-22.2386]]]}},{"type":"Feature","properties":{"cod_tema":"RIO_ATE_10","cod_imovel":"RJ-3300506-2653355CF04C4BC0815AB22E80C48EB8","ind_status":"AT"},"geometry":{"type":"Polygon","coordinates":[[[-42.3585,-22.2214],[-42.357,-22.2135],[-42.3583,-22.2217],[-42.3585,-22.2214]]]}},{"type":"Feature","properties":{"cod_tema":"RIO_ATE_10","cod_imovel":"RJ-3300506-29952A3311A64DCF8FCB8FDD0C2BA8E6","ind_status":"AT"},"geometry":{"type":"Polygon","coordinates":[[[-42.4955,-22.1731],[-42.4903,-22.1684],[-42.4962,-22.1738],[-42.4955,-22.1731]]]}},{"type":"Feature","properties":{"cod_tema":"RIO_ATE_10","cod_imovel":"RJ-3300506-2E9A2416467D40CC89C33758940F1CAE","ind_status":"AT"},"geometry":{"type":"Polygon","coordinates":[[[-42.2849,-22.2524],[-42.2822,-22.2506],[-42.285,-22.2528],[-42.2849,-22.2524]]]}},{"type":"Feature","properties":{"cod_tema":"RIO_ATE_10","cod_imovel":"RJ-3300506-2F7B3F765D674C22AB4AC020D1EBF874","ind_status":"AT"},"geometry":{"type":"Polygon","coordinates":[[[-42.288,-22.177],[-42.2891,-22.1802],[-42.2878,-22.1766],[-42.288,-22.177]]]}},{"type":"Feature","properties":{"cod_tema":"RIO_ATE_10","cod_imovel":"RJ-3300506-338ABD625B2E464B9225DB2C7B8C2E54","ind_status":"AT"},"geometry":{"type":"Polygon","coordinates":[[[-42.366,-22.1874],[-42.3585,-22.1839],[-42.3665,-22.1874],[-42.366,-22.1874]]]}},{"type":"Feature","properties":{"cod_tema":"RIO_ATE_10","cod_imovel":"RJ-3300506-394534F4D3774798A0E3EC4850ADC2B6","ind_status":"AT"},"geometry":{"type":"Polygon","coordinates":[[[-42.3601,-22.2774],[-42.3551,-22.2733],[-42.3602,-22.2777],[-42.3601,-22.2774]]]}},{"type":"Feature","properties":{"cod_tema":"RIO_ATE_10","cod_imovel":"RJ-3300506-3A2C702DE2204343BE2DDD390BC1DFC8","ind_status":"AT"},"geometry":{"type":"Polygon","coordinates":[[[-42.4406,-22.2386],[-42.4396,-22.2447],[-42.4406,-22.2386],[-42.4406,-22.2386]]]}},{"type":"Feature","properties":{"cod_tema":"RIO_ATE_10","cod_imovel":"RJ-3300506-3A2C702DE2204343BE2DDD390BC1DFC8","ind_status":"AT"},"geometry":{"type":"Polygon","coordinates":[[[-42.4406,-22.2386],[-42.4396,-22.2447],[-42.4406,-22.2386],[-42.4406,-22.2386]]]}},{"type":"Feature","properties":{"cod_tema":"RIO_ATE_10","cod_imovel":"RJ-3300506-3A91C87ED976434E8C56DA3F5D62D063","ind_status":"AT"},"geometry":{"type":"Polygon","coordinates":[[[-42.382,-22.2596],[-42.3795,-22.2564],[-42.3822,-22.2597],[-42.382,-22.2596]]]}},{"type":"Feature","properties":{"cod_tema":"RIO_ATE_10","cod_imovel":"RJ-3300506-3B13F630D87345FB808E5719D833BF3C","ind_status":"AT"},"geometry":{"type":"Polygon","coordinates":[[[-42.3306,-22.2614],[-42.3257,-22.2626],[-42.3306,-22.2614],[-42.3306,-22.2614]]]}},{"type":"Feature","properties":{"cod_tema":"RIO_ATE_10","cod_imovel":"RJ-3300506-3B69A0C6E4C944F9A84678D0F21E8834","ind_status":"AT"},"geometry":{"type":"Polygon","coordinates":[[[-42.2804,-22.2159],[-42.2769,-22.2157],[-42.2808,-22.216],[-42.2804,-22.2159]]]}},{"type":"Feature","properties":{"cod_tema":"RIO_ATE_10","cod_imovel":"RJ-3300506-3EFD6F5F5C314D4B9BB9EC81816E9A1B","ind_status":"AT"},"geometry":{"type":"Polygon","coordinates":[[[-42.3478,-22.1652],[-42.3509,-22.1612],[-42.3478,-22.1656],[-42.3478,-22.1652]]]}},{"type":"Feature","properties":{"cod_tema":"RIO_ATE_10","cod_imovel":"RJ-3300506-3F90ED01A45545499DE619A2E7ABC52E","ind_status":"AT"},"geometry":{"type":"Polygon","coordinates":[[[-42.4323,-22.225],[-42.4358,-22.2187],[-42.432,-22.225],[-42.4323,-22.225]]]}},{"type":"Feature","properties":{"cod_tema":"RIO_ATE_10","cod_imovel":"RJ-3300506-3F9185A3D59D4A08B1BBEFADC69B2C42","ind_status":"AT"},"geometry":{"type":"Polygon","coordinates":[[[-42.3237,-22.2169],[-42.3311,-22.2207],[-42.3235,-22.2171],[-42.3237,-22.2169]],[[-42.3185,-22.2229],[-42.319,-22.2175],[-42.3179,-22.2235],[-42.3185,-22.2229]]]}},{"type":"Feature","properties":{"cod_tema":"RIO_ATE_10","cod_imovel":"RJ-3300506-404C49EC919B40999C6DABE3CCD6AE80","ind_status":"AT"},"geometry":{"type":"Polygon","coordinates":[[[-42.4527,-22.1196],[-42.4469,-22.1199],[-42.451,-22.1215],[-42.4469,-22.1247],[-42.4518,-22.1258],[-42.449,-22.123],[-42.4527,-22.1196],[-42.4527,-22.1196]]]}},{"type":"Feature","properties":{"cod_tema":"RIO_ATE_10","cod_imovel":"RJ-3300506-42ADB24B2A1740048D6CD77D7E54B6E5","ind_status":"AT"},"geometry":{"type":"Polygon","coordinates":[[[-42.3219,-22.2829],[-42.3229,-22.277],[-42.3216,-22.2834],[-42.3219,-22.2829]]]}},{"type":"Feature","properties":{"cod_tema":"RIO_ATE_10","cod_imovel":"RJ-3300506-43AD55A2996A41E0A4D15E0BFDE6C105","ind_status":"AT"},"geometry":{"type":"Polygon","coordinates":[[[-42.2859,-22.2277],[-42.2817,-22.242],[-42.2858,-22.2277],[-42.2859,-22.2277]]]}},{"type":"Feature","properties":{"cod_tema":"RIO_ATE_10","cod_imovel":"RJ-3300506-512B96ED2890478080C1EFED68439721","ind_status":"AT"},"geometry":{"type":"Polygon","coordinates":[[[-42.3814,-22.2776],[-42.3856,-22.2782],[-42.3812,-22.2775],[-42.3814,-22.2776]]]}},{"type":"Feature","properties":{"cod_tema":"RIO_ATE_10","cod_imovel":"RJ-3300506-46915FB87F0A42098BBC89DCDCF02C87","ind_status":"AT"},"geometry":{"type":"Polygon","coordinates":[[[-42.301,-22.2554],[-42.3055,-22.2541],[-42.3002,-22.2555],[-42.301,-22.2554]]]}},{"type":"Feature","properties":{"cod_tema":"RIO_ATE_10","cod_imovel":"RJ-3300506-47B68F0414064DA28696BECC2D37A881","ind_status":"AT"},"geometry":{"type":"Polygon","coordinates":[[[-42.393,-22.1991],[-42.3893,-22.199],[-42.3933,-22.1995],[-42.393,-22.1991]]]}},{"type":"Feature","properties":{"cod_tema":"RIO_ATE_10","cod_imovel":"RJ-3300506-4935DF1036D74DBFA727ED0A0ABC7C0F","ind_status":"AT"},"geometry":{"type":"Polygon","coordinates":[[[-42.3202,-22.2675],[-42.3186,-22.2644],[-42.3204,-22.2677],[-42.3202,-22.2675]]]}},{"type":"Feature","properties":{"cod_tema":"RIO_ATE_10","cod_imovel":"RJ-3300506-49585FAD0C4D4068857DC514F5259E39","ind_status":"CA"},"geometry":{"type":"Polygon","coordinates":[[[-42.3432,-22.1409],[-42.3511,-22.1362],[-42.3426,-22.1415],[-42.3432,-22.1409]]]}},{"type":"Feature","properties":{"cod_tema":"RIO_ATE_10","cod_imovel":"RJ-3300506-4B5B143A31E54135A2A7BA2B8B998FB4","ind_status":"AT"},"geometry":{"type":"Polygon","coordinates":[[[-42.4856,-22.1993],[-42.4852,-22.1948],[-42.4857,-22.1996],[-42.4856,-22.1993]]]}},{"type":"Feature","properties":{"cod_tema":"RIO_ATE_10","cod_imovel":"RJ-3300506-4C9BD9C288AF49399CA01E5ADF948943","ind_status":"AT"},"geometry":{"type":"Polygon","coordinates":[[[-42.292,-22.2595],[-42.2902,-22.2637],[-42.2921,-22.2593],[-42.292,-22.2595]]]}},{"type":"Feature","properties":{"cod_tema":"RIO_ATE_10","cod_imovel":"RJ-3300506-4E7E51ABC01441B79BA938E172947E67","ind_status":"AT"},"geometry":{"type":"Polygon","coordinates":[[[-42.3258,-22.2623],[-42.3215,-22.2618],[-42.3261,-22.2619],[-42.3258,-22.2623]]]}},{"type":"Feature","properties":{"cod_tema":"RIO_ATE_10","cod_imovel":"RJ-3300506-4EEC3E0BBA39433BB7234C387FEBC21C","ind_status":"AT"},"geometry":{"type":"Polygon","coordinates":[[[-42.4412,-22.2277],[-42.4376,-22.2295],[-42.4415,-22.2273],[-42.4412,-22.2277]]]}},{"type":"Feature","properties":{"cod_tema":"RIO_10_A_50","cod_imovel":"RJ-3300506-50771DB8171544E7BF3C174D902A1DF6","ind_status":"AT"},"geometry":{"type":"Polygon","coordinates":[[[-42.3879,-22.1737],[-42.384,-22.1745],[-42.3873,-22.1737],[-42.3879,-22.1737]]]}},{"type":"Feature","properties":{"cod_tema":"RIO_ATE_10","cod_imovel":"RJ-3300506-50E6AA94203945F8B2BAEA41783EF2D0","ind_status":"AT"},"geometry":{"type":"Polygon","coordinates":[[[-42.3786,-22.2361],[-42.3771,-22.2329],[-42.3786,-22.2363],[-42.3786,-22.2361]]]}},{"type":"Feature","properties":{"cod_tema":"RIO_ATE_10","cod_imovel":"RJ-3300506-53400E6CAE974252B9166A1304F6FD9F","ind_status":"AT"},"geometry":{"type":"Polygon","coordinates":[[[-42.337,-22.1413],[-42.3428,-22.1412],[-42.3361,-22.1418],[-42.337,-22.1413]],[[-42.3432,-22.1409],[-42.3511,-22.1362],[-42.3426,-22.1415],[-42.3432,-22.1409]]]}},{"type":"Feature","properties":{"cod_tema":"RIO_ATE_10","cod_imovel":"RJ-3300506-5398D0587E7A49EBB91EC5E562541861","ind_status":"AT"},"geometry":{"type":"Polygon","coordinates":[[[-42.5182,-22.1621],[-42.5133,-22.1631],[-42.5182,-22.1621],[-42.5182,-22.1621]]]}},{"type":"Feature","properties":{"cod_tema":"RIO_ATE_10","cod_imovel":"RJ-3300506-561C862CA47F4DAD8F15288A3FFB8A55","ind_status":"AT"},"geometry":{"type":"Polygon","coordinates":[[[-42.2986,-22.2557],[-42.3016,-22.2549],[-42.2984,-22.2559],[-42.2986,-22.2557]]]}},{"type":"Feature","properties":{"cod_tema":"RIO_ATE_10","cod_imovel":"RJ-3300506-581EF9F8940A41A8B4FCB7D04701C7C4","ind_status":"AT"},"geometry":{"type":"Polygon","coordinates":[[[-42.3786,-22.2431],[-42.3782,-22.2465],[-42.3784,-22.2428],[-42.3786,-22.2431]]]}},{"type":"Feature","properties":{"cod_tema":"RIO_ATE_10","cod_imovel":"RJ-3300506-58C03D199E4C47EB992A3ECA0DBD7F52","ind_status":"AT"},"geometry":{"type":"Polygon","coordinates":[[[-42.4646,-22.1944],[-42.4693,-22.1942],[-42.4638,-22.1917],[-42.4639,-22.1948],[-42.4646,-22.1944]]]}},{"type":"Feature","properties":{"cod_tema":"RIO_ATE_10","cod_imovel":"RJ-3300506-58C1A960D69F47A9A8D2496C9AAE88D6","ind_status":"AT"},"geometry":{"type":"Polygon","coordinates":[[[-42.4016,-22.2085],[-42.3991,-22.2067],[-42.4018,-22.2087],[-42.4016,-22.2085]]]}},{"type":"Feature","properties":{"cod_tema":"RIO_ATE_10","cod_imovel":"RJ-3300506-5E00C6CF13A74713AB92C95F24167B71","ind_status":"AT"},"geometry":{"type":"Polygon","coordinates":[[[-42.3679,-22.2212],[-42.3646,-22.2278],[-42.3679,-22.2211],[-42.3679,-22.2212]]]}},{"type":"Feature","properties":{"cod_tema":"RIO_ATE_10","cod_imovel":"RJ-3300506-60683364C3D640B8BC57645B90D7515C","ind_status":"AT"},"geometry":{"type":"Polygon","coordinates":[[[-42.3476,-22.2678],[-42.3481,-22.2596],[-42.3449,-22.2638],[-42.3478,-22.268],[-42.3476,-22.2678]]]}},{"type":"Feature","properties":{"cod_tema":"RIO_ATE_10","cod_imovel":"RJ-3300506-5F25CF8A5E934F98A7396C8D8489FAFE","ind_status":"AT"},"geometry":{"type":"Polygon","coordinates":[[[-42.2979,-22.2156],[-42.2956,-22.2208],[-42.2888,-22.2213],[-42.2885,-22.2323],[-42.2888,-22.2213],[-42.2956,-22.2208],[-42.298,-22.2155],[-42.2979,-22.2156]]]}},{"type":"Feature","properties":{"cod_tema":"RIO_10_A_50","cod_imovel":"RJ-3300506-61C2C8FF88D546C6983FB0DAF00DE414","ind_status":"AT"},"geometry":{"type":"Polygon","coordinates":[[[-42.3434,-22.1736],[-42.3403,-22.1715],[-42.3494,-22.17],[-42.3404,-22.1712],[-42.3428,-22.1738],[-42.3434,-22.1736]]]}},{"type":"Feature","properties":{"cod_tema":"RIO_ATE_10","cod_imovel":"RJ-3300506-63361DF15FFF4485910516A489F7B74E","ind_status":"AT"},"geometry":{"type":"Polygon","coordinates":[[[-42.3163,-22.2563],[-42.3169,-22.2607],[-42.3163,-22.2561],[-42.3163,-22.2563]]]}},{"type":"Feature","properties":{"cod_tema":"RIO_ATE_10","cod_imovel":"RJ-3300506-6388378EE394400B9F422E3297EDA881","ind_status":"AT"},"geometry":{"type":"Polygon","coordinates":[[[-42.4437,-22.13],[-42.4405,-22.1329],[-42.4439,-22.1297],[-42.4437,-22.13]]]}},{"type":"Feature","properties":{"cod_tema":"RIO_ATE_10","cod_imovel":"RJ-3300506-643909F026C746CDAC6969C2FA744486","ind_status":"AT"},"geometry":{"type":"Polygon","coordinates":[[[-42.3053,-22.2022],[-42.3083,-22.1984],[-42.3053,-22.2023],[-42.3053,-22.2022]]]}},{"type":"Feature","properties":{"cod_tema":"RIO_ATE_10","cod_imovel":"RJ-3300506-66DE5C2F58FC4AC396C56CDF95265956","ind_status":"AT"},"geometry":{"type":"Polygon","coordinates":[[[-42.3158,-22.2854],[-42.3215,-22.2845],[-42.3156,-22.2854],[-42.3158,-22.2854]]]}},{"type":"Feature","properties":{"cod_tema":"RIO_ATE_10","cod_imovel":"RJ-3300506-6850AEEA8F0E4691AF229F8E97BBEF59","ind_status":"AT"},"geometry":{"type":"Polygon","coordinates":[[[-42.2616,-22.2506],[-42.2591,-22.2528],[-42.2615,-22.2504],[-42.2616,-22.2506]]]}},{"type":"Feature","properties":{"cod_tema":"RIO_ATE_10","cod_imovel":"RJ-3300506-689AA1961FB1485D87D15533798EA4C9","ind_status":"AT"},"geometry":{"type":"Polygon","coordinates":[[[-42.5185,-22.1565],[-42.5192,-22.1518],[-42.5185,-22.1566],[-42.5185,-22.1565]]]}},{"type":"Feature","properties":{"cod_tema":"RIO_ATE_10","cod_imovel":"RJ-3300506-6D314883F02F4AEC8BD99561621DD34B","ind_status":"AT"},"geometry":{"type":"Polygon","coordinates":[[[-42.3615,-22.2043],[-42.3639,-22.2116],[-42.3612,-22.204],[-42.3615,-22.2043]]]}},{"type":"Feature","properties":{"cod_tema":"RIO_ATE_10","cod_imovel":"RJ-3300506-6EE6486F80A747C8B8CC6A7F39DCA2E3","ind_status":"AT"},"geometry":{"type":"Polygon","coordinates":[[[-42.3702,-22.2488],[-42.3758,-22.2514],[-42.3789,-22.2457],[-42.3699,-22.2489],[-42.3702,-22.2488]]]}},{"type":"Feature","properties":{"cod_tema":"RIO_ATE_10","cod_imovel":"RJ-3300506-772770C401554FD2A9D0348DF3D51F23","ind_status":"AT"},"geometry":{"type":"Polygon","coordinates":[[[-42.2741,-22.2282],[-42.2616,-22.2231],[-42.2665,-22.2291],[-42.2646,-22.2255],[-42.2725,-22.2276],[-42.2664,-22.2338],[-42.2741,-22.2282],[-42.2741,-22.2282]]]}},{"type":"Feature","properties":{"cod_tema":"RIO_ATE_10","cod_imovel":"RJ-3300506-7748131409C84B739ADF03528C3580B6","ind_status":"AT"},"geometry":{"type":"Polygon","coordinates":[[[-42.3912,-22.1635],[-42.3885,-22.1677],[-42.3922,-22.1636],[-42.3912,-22.1635]]]}},{"type":"Feature","properties":{"cod_tema":"RIO_10_A_50","cod_imovel":"RJ-3300506-7813EFA6E8CF4C1AB801FFDB2150A0C1","ind_status":"AT"},"geometry":{"type":"Polygon","coordinates":[[[-42.4591,-22.1728],[-42.4652,-22.1764],[-42.4596,-22.1728],[-42.4591,-22.1728]]]}},{"type":"Feature","properties":{"cod_tema":"RIO_ATE_10","cod_imovel":"RJ-3300506-7988D72A65034DF19F1ED723F193B32F","ind_status":"AT"},"geometry":{"type":"Polygon","coordinates":[[[-42.4047,-22.2626],[-42.3999,-22.2606],[-42.4049,-22.2626],[-42.4047,-22.2626]]]}},{"type":"Feature","properties":{"cod_tema":"RIO_ATE_10","cod_imovel":"RJ-3300506-79AD1B6130184A3F8C10C8DA75B58EB1","ind_status":"AT"},"geometry":{"type":"Polygon","coordinates":[[[-42.3045,-22.2256],[-42.2958,-22.2214],[-42.3062,-22.2229],[-42.2911,-22.2199],[-42.2858,-22.2274],[-42.2872,-22.2311],[-42.2879,-22.2244],[-42.2906,-22.2304],[-42.289,-22.2213],[-42.2953,-22.2209],[-42.293,-22.2267],[-42.2956,-22.2208],[-42.2951,-22.2275],[-42.2981,-22.2237],[-42.3045,-22.2257],[-42.3074,-22.232],[-42.3045,-22.226],[-42.3087,-22.2243],[-42.3046,-22.2256],[-42.3045,-22.2256]]]}},{"type":"Feature","properties":{"cod_tema":"RIO_ATE_10","cod_imovel":"RJ-3300506-7A4168ADE6C04EF5A7A586B952051E20","ind_status":"AT"},"geometry":{"type":"Polygon","coordinates":[[[-42.3805,-22.2185],[-42.3775,-22.2268],[-42.3807,-22.2185],[-42.3805,-22.2185]]]}},{"type":"Feature","properties":{"cod_tema":"RIO_10_A_50","cod_imovel":"RJ-3300506-7DFA10F4E0AB4358A179078AF334A0E6","ind_status":"AT"},"geometry":{"type":"Polygon","coordinates":[[[-42.4517,-22.1628],[-42.4499,-22.1672],[-42.4518,-22.1629],[-42.4517,-22.1628]]]}},{"type":"Feature","properties":{"cod_tema":"RIO_ATE_10","cod_imovel":"RJ-3300506-7BDFDE6FCC3A4B52AC3BF643E0EE79DA","ind_status":"AT"},"geometry":{"type":"Polygon","coordinates":[[[-42.4606,-22.1675],[-42.4525,-22.1646],[-42.4612,-22.1678],[-42.4606,-22.1675]]]}},{"type":"Feature","properties":{"cod_tema":"RIO_10_A_50","cod_imovel":"RJ-3300506-7BDFDE6FCC3A4B52AC3BF643E0EE79DA","ind_status":"AT"},"geometry":{"type":"Polygon","coordinates":[[[-42.4556,-22.1712],[-42.4483,-22.1609],[-42.455,-22.1706],[-42.4556,-22.1712]]]}},{"type":"Feature","properties":{"cod_tema":"RIO_ATE_10","cod_imovel":"RJ-3300506-7F4025BD8D274C92A777871649416351","ind_status":"AT"},"geometry":{"type":"Polygon","coordinates":[[[-42.2683,-22.2593],[-42.2745,-22.2573],[-42.2679,-22.2592],[-42.2683,-22.2593]]]}},{"type":"Feature","properties":{"cod_tema":"RIO_ATE_10","cod_imovel":"RJ-3300506-82E2633435EA4030BAF17B60A97973FA","ind_status":"AT"},"geometry":{"type":"Polygon","coordinates":[[[-42.3786,-22.236],[-42.3786,-22.243],[-42.3785,-22.2356],[-42.3786,-22.236]]]}},{"type":"Feature","properties":{"cod_tema":"RIO_ATE_10","cod_imovel":"RJ-3300506-84BCABFAB0A44ED8A94F1D9133F8345A","ind_status":"AT"},"geometry":{"type":"Polygon","coordinates":[[[-42.3513,-22.1774],[-42.3433,-22.1737],[-42.3516,-22.1775],[-42.3513,-22.1774]]]}},{"type":"Feature","properties":{"cod_tema":"RIO_ATE_10","cod_imovel":"RJ-3300506-859389D183AC4C01BF0EF0421281CFC1","ind_status":"AT"},"geometry":{"type":"Polygon","coordinates":[[[-42.3645,-22.2866],[-42.3612,-22.2886],[-42.3649,-22.2864],[-42.3645,-22.2866]]]}},{"type":"Feature","properties":{"cod_tema":"RIO_ATE_10","cod_imovel":"RJ-3300506-85C04FA3EC144A53B14A46C6D4098BA0","ind_status":"AT"},"geometry":{"type":"Polygon","coordinates":[[[-42.4452,-22.2121],[-42.4418,-22.2147],[-42.4454,-22.2116],[-42.4452,-22.2121]]]}},{"type":"Feature","properties":{"cod_tema":"RIO_ATE_10","cod_imovel":"RJ-3300506-87B9174A00DC40E398C4717104AD6D11","ind_status":"AT"},"geometry":{"type":"Polygon","coordinates":[[[-42.3346,-22.2927],[-42.3313,-22.2883],[-42.3349,-22.2929],[-42.3346,-22.2927]]]}},{"type":"Feature","properties":{"cod_tema":"RIO_ATE_10","cod_imovel":"RJ-3300506-882A40C318884F6FA1A4C6913867F27A","ind_status":"AT"},"geometry":{"type":"Polygon","coordinates":[[[-42.3466,-22.1286],[-42.3492,-22.1363],[-42.3467,-22.1283],[-42.3466,-22.1286]]]}},{"type":"Feature","properties":{"cod_tema":"RIO_ATE_10","cod_imovel":"RJ-3300506-8A37A29A7EBA490982E08424857D7D41","ind_status":"AT"},"geometry":{"type":"Polygon","coordinates":[[[-42.3195,-22.286],[-42.3156,-22.2854],[-42.3196,-22.2859],[-42.3195,-22.286]]]}},{"type":"Feature","properties":{"cod_tema":"RIO_ATE_10","cod_imovel":"RJ-3300506-8AE8F836CA25456DA1EA8152C2C9B336","ind_status":"AT"},"geometry":{"type":"Polygon","coordinates":[[[-42.4204,-22.1831],[-42.4169,-22.1836],[-42.4206,-22.1827],[-42.4204,-22.1831]]]}},{"type":"Feature","properties":{"cod_tema":"RIO_ATE_10","cod_imovel":"RJ-3300506-9064BCF958B84E74A286956575CCDA30","ind_status":"AT"},"geometry":{"type":"Polygon","coordinates":[[[-42.3168,-22.2441],[-42.3112,-22.2427],[-42.317,-22.244],[-42.3168,-22.2441]]]}},{"type":"Feature","properties":{"cod_tema":"RIO_ATE_10","cod_imovel":"RJ-3300506-9422C46B269549CEAF6758B78F930D3D","ind_status":"AT"},"geometry":{"type":"Polygon","coordinates":[[[-42.3864,-22.2778],[-42.3829,-22.2736],[-42.3864,-22.2778],[-42.3864,-22.2778]]]}},{"type":"Feature","properties":{"cod_tema":"RIO_ATE_10","cod_imovel":"RJ-3300506-944D179FAB1C4FBF8B530BEC5C9764DE","ind_status":"AT"},"geometry":{"type":"Polygon","coordinates":[[[-42.342,-22.2859],[-42.3476,-22.2829],[-42.3416,-22.2863],[-42.342,-22.2859]]]}},{"type":"Feature","properties":{"cod_tema":"RIO_ATE_10","cod_imovel":"RJ-3300506-97F3D9B8F17244CB982AB577247D287E","ind_status":"AT"},"geometry":{"type":"Polygon","coordinates":[[[-42.3061,-22.2534],[-42.3079,-22.2493],[-42.306,-22.2536],[-42.3061,-22.2534]]]}},{"type":"Feature","properties":{"cod_tema":"RIO_ATE_10","cod_imovel":"RJ-3300506-994D2CF6560A43D9BAF3C2A6FB919880","ind_status":"AT"},"geometry":{"type":"Polygon","coordinates":[[[-42.4243,-22.2207],[-42.43,-22.2254],[-42.4246,-22.2209],[-42.4243,-22.2207]]]}},{"type":"Feature","properties":{"cod_tema":"RIO_ATE_10","cod_imovel":"RJ-3300506-9A85186F20A944CE9D0273DE1105B30D","ind_status":"AT"},"geometry":{"type":"Polygon","coordinates":[[[-42.3716,-22.2887],[-42.3695,-22.2854],[-42.3718,-22.2889],[-42.3716,-22.2887]]]}},{"type":"Feature","properties":{"cod_tema":"RIO_ATE_10","cod_imovel":"RJ-3300506-9C2844DF1FCB4CE98CC916E8E54B94D0","ind_status":"AT"},"geometry":{"type":"Polygon","coordinates":[[[-42.399,-22.2598],[-42.3998,-22.2631],[-42.399,-22.2598],[-42.399,-22.2598]]]}},{"type":"Feature","properties":{"cod_tema":"RIO_10_A_50","cod_imovel":"RJ-3300506-9C78F26961694BE5BE301E153F7CF308","ind_status":"AT"},"geometry":{"type":"Polygon","coordinates":[[[-42.3747,-22.1652],[-42.3679,-22.1645],[-42.3747,-22.1654],[-42.3747,-22.1652]]]}},{"type":"Feature","properties":{"cod_tema":"RIO_ATE_10","cod_imovel":"RJ-3300506-9E3552FA630148BDA72B5B49D20B4A01","ind_status":"AT"},"geometry":{"type":"Polygon","coordinates":[[[-42.4038,-22.2679],[-42.3995,-22.2671],[-42.4038,-22.2679],[-42.4038,-22.2679]]]}},{"type":"Feature","properties":{"cod_tema":"RIO_ATE_10","cod_imovel":"RJ-3300506-A4A8FAC25CCF4CED99F9F128612AD1F1","ind_status":"AT"},"geometry":{"type":"Polygon","coordinates":[[[-42.3171,-22.1758],[-42.3122,-22.1681],[-42.3171,-22.1759],[-42.3171,-22.1758]]]}},{"type":"Feature","properties":{"cod_tema":"RIO_ATE_10","cod_imovel":"RJ-3300506-A7A24E4703124EFDA380A6FBF6B628DB","ind_status":"AT"},"geometry":{"type":"Polygon","coordinates":[[[-42.3354,-22.2986],[-42.3353,-22.2953],[-42.3349,-22.2992],[-42.3354,-22.2986]]]}},{"type":"Feature","properties":{"cod_tema":"RIO_ATE_10","cod_imovel":"RJ-3300506-A986CF0D79B74E3D8DFBBF9D509390AE","ind_status":"AT"},"geometry":{"type":"Polygon","coordinates":[[[761141.7231,7543571.6761],[761134.8792,7543570.4931],[761129.7739,7543568.234],[761129.5191,7543568.113],[761124.4473,7543563.2437],[761119.1342,7543557.309],[761110.5925,7543549.2255],[761092.2361,7543538.7807],[761074.9271,7543528.522],[761062.5658,7543523.754],[761040.4687,7543520.6069],[761026.8849,7543519.6218],[760999.797,7543519.8295],[760971.0134,7543521.753],[760955.5141,7543521.1756],[760936.756,7543514.9454],[760925.611,7543508.085],[760914.7595,7543501.8646],[760907.6475,7543496.743],[760914.7595,7543501.8647],[760925.6109,7543508.0851],[760936.7559,7543514.9455],[760955.5141,7543521.1757],[760971.0134,7543521.7531],[760999.797,7543519.8296],[761026.8849,7543519.6219],[761040.4687,7543520.607],[761062.5657,7543523.7541],[761074.927,7543528.5221],[761092.236,7543538.7808],[761110.5924,7543549.2256],[761119.1341,7543557.3091],[761124.4473,7543563.2437],[761129.519,7543568.1131],[761129.7738,7543568.2341],[761134.8792,7543570.4932],[761141.7231,7543571.6762],[761147.4474,7543570.934],[761141.7231,7543571.6761]]]}},{"type":"Feature","properties":{"cod_tema":"RIO_ATE_10","cod_imovel":"RJ-3300506-A923A42A35204DBAA2EAE43E67E083CE","ind_status":"AT"},"geometry":{"type":"Polygon","coordinates":[[[-42.5136,-22.1577],[-42.5103,-22.1489],[-42.5139,-22.158],[-42.5136,-22.1577]]]}},{"type":"Feature","properties":{"cod_tema":"RIO_ATE_10","cod_imovel":"RJ-3300506-A943A868C0E043F18D5503A80182B40D","ind_status":"AT"},"geometry":{"type":"Polygon","coordinates":[[[-42.2743,-22.257],[-42.2655,-22.2531],[-42.2737,-22.257],[-42.2666,-22.2589],[-42.2749,-22.2569],[-42.2743,-22.257]]]}},{"type":"Feature","properties":{"cod_tema":"RIO_ATE_10","cod_imovel":"RJ-3300506-AB890C11779F4564BBC3AEA201400852","ind_status":"AT"},"geometry":{"type":"Polygon","coordinates":[[[-42.3436,-22.2407],[-42.3349,-22.2307],[-42.3437,-22.2417],[-42.3436,-22.2407]]]}},{"type":"Feature","properties":{"cod_tema":"RIO_ATE_10","cod_imovel":"RJ-3300506-AD39C232718845B29E9F025C7CBA25DD","ind_status":"AT"},"geometry":{"type":"Polygon","coordinates":[[[-42.3971,-22.2841],[-42.3921,-22.2787],[-42.3972,-22.2841],[-42.3971,-22.2841]]]}},{"type":"Feature","properties":{"cod_tema":"RIO_ATE_10","cod_imovel":"RJ-3300506-AEC99055552C4F7389FB4CA108691638","ind_status":"AT"},"geometry":{"type":"Polygon","coordinates":[[[-42.4545,-22.2034],[-42.45,-22.2041],[-42.4545,-22.2034],[-42.4545,-22.2034]]]}},{"type":"Feature","properties":{"cod_tema":"RIO_ATE_10","cod_imovel":"RJ-3300506-B0DC66B55C2E462AB5E10C13C648E82D","ind_status":"AT"},"geometry":{"type":"Polygon","coordinates":[[[-42.3453,-22.2308],[-42.3407,-22.2272],[-42.3408,-22.2338],[-42.3453,-22.2309],[-42.3453,-22.2308]],[[-42.3492,-22.2355],[-42.3466,-22.2314],[-42.3459,-22.2414],[-42.3492,-22.2354],[-42.3519,-22.2425],[-42.3493,-22.2355],[-42.3572,-22.2392],[-42.3529,-22.2433],[-42.3572,-22.2395],[-42.3492,-22.2355],[-42.3492,-22.2355]],[[-42.3536,-22.2312],[-42.3498,-22.2291],[-42.3537,-22.2315],[-42.3536,-22.2312]],[[-42.3575,-22.2342],[-42.3522,-22.2252],[-42.3574,-22.2344],[-42.3575,-22.2342]],[[-42.3604,-22.2249],[-42.3557,-22.2234],[-42.3607,-22.225],[-42.3604,-22.2249]]]}},{"type":"Feature","properties":{"cod_tema":"RIO_10_A_50","cod_imovel":"RJ-3300506-B0E0B0D3A455482799467D971D766879","ind_status":"AT"},"geometry":{"type":"Polygon","coordinates":[[[-42.4523,-22.1702],[-42.4495,-22.1667],[-42.4512,-22.1695],[-42.4523,-22.1702]]]}},{"type":"Feature","properties":{"cod_tema":"RIO_ATE_10","cod_imovel":"RJ-3300506-B199880897B441B0B566A553D5F855C0","ind_status":"AT"},"geometry":{"type":"Polygon","coordinates":[[[-42.3922,-22.2784],[-42.3892,-22.2789],[-42.3924,-22.2785],[-42.3922,-22.2784]]]}},{"type":"Feature","properties":{"cod_tema":"RIO_ATE_10","cod_imovel":"RJ-3300506-B45B2C1F65964815ABF637CC60159840","ind_status":"AT"},"geometry":{"type":"Polygon","coordinates":[[[-42.3559,-22.1592],[-42.3509,-22.1608],[-42.3559,-22.1593],[-42.3559,-22.1592]],[[-42.3521,-22.171],[-42.3474,-22.1651],[-42.3513,-22.1612],[-42.3474,-22.1651],[-42.3528,-22.1712],[-42.3521,-22.171]]]}},{"type":"Feature","properties":{"cod_tema":"RIO_ATE_10","cod_imovel":"RJ-3300506-B4C3FD6DCF4F42929031F0B53860F099","ind_status":"AT"},"geometry":{"type":"Polygon","coordinates":[[[-42.4254,-22.2219],[-42.421,-22.2192],[-42.4256,-22.2223],[-42.4254,-22.2219]]]}},{"type":"Feature","properties":{"cod_tema":"RIO_ATE_10","cod_imovel":"RJ-3300506-B88BF4C6DEA44357975CAAD3001A3311","ind_status":"AT"},"geometry":{"type":"Polygon","coordinates":[[[-42.3769,-22.2531],[-42.3707,-22.2498],[-42.3772,-22.2534],[-42.3769,-22.2531]]]}},{"type":"Feature","properties":{"cod_tema":"RIO_ATE_10","cod_imovel":"RJ-3300506-B998A7E6070D4D8CAAAA7C9D3A07F94A","ind_status":"AT"},"geometry":{"type":"Polygon","coordinates":[[[-42.3193,-22.1972],[-42.3157,-22.1942],[-42.3193,-22.1972],[-42.3193,-22.1972]]]}},{"type":"Feature","properties":{"cod_tema":"RIO_ATE_10","cod_imovel":"RJ-3300506-B9AADE283E4D43D2B4B149E3570EDC4A","ind_status":"AT"},"geometry":{"type":"Polygon","coordinates":[[[-42.3066,-22.2525],[-42.3079,-22.2494],[-42.3064,-22.2527],[-42.3066,-22.2525]]]}},{"type":"Feature","properties":{"cod_tema":"RIO_ATE_10","cod_imovel":"RJ-3300506-BB0EB8B25B664616B510339C0565CFD3","ind_status":"AT"},"geometry":{"type":"Polygon","coordinates":[[[-42.285,-22.2373],[-42.2843,-22.2403],[-42.2852,-22.237],[-42.285,-22.2373]]]}},{"type":"Feature","properties":{"cod_tema":"RIO_ATE_10","cod_imovel":"RJ-3300506-BB376737C5AF42829644338471DECDF0","ind_status":"AT"},"geometry":{"type":"Polygon","coordinates":[[[-42.3148,-22.2524],[-42.3145,-22.2492],[-42.3148,-22.2524],[-42.3148,-22.2524]]]}},{"type":"Feature","properties":{"cod_tema":"RIO_ATE_10","cod_imovel":"RJ-3300506-BED2860782484CD6AC89EE9BEB491A31","ind_status":"AT"},"geometry":{"type":"Polygon","coordinates":[[[-42.3571,-22.2939],[-42.3573,-22.2897],[-42.3496,-22.2911],[-42.3501,-22.2943],[-42.35,-22.2905],[-42.3559,-22.29],[-42.3527,-22.2986],[-42.3563,-22.2961],[-42.3571,-22.3012],[-42.3571,-22.2939],[-42.3571,-22.2939]]]}},{"type":"Feature","properties":{"cod_tema":"RIO_ATE_10","cod_imovel":"RJ-3300506-BFEB59D58BAD48CBB8DAD08E4FB83E49","ind_status":"AT"},"geometry":{"type":"Polygon","coordinates":[[[-42.2981,-22.2148],[-42.3008,-22.2108],[-42.2981,-22.215],[-42.2981,-22.2148]]]}},{"type":"Feature","properties":{"cod_tema":"RIO_ATE_10","cod_imovel":"RJ-3300506-C00E66E4CEE448B1B416D0EF42FF10FD","ind_status":"AT"},"geometry":{"type":"Polygon","coordinates":[[[-42.3642,-22.2314],[-42.3666,-22.2343],[-42.3641,-22.2314],[-42.3642,-22.2314]]]}},{"type":"Feature","properties":{"cod_tema":"RIO_ATE_10","cod_imovel":"RJ-3300506-C7FE1BED81B44647B7DBD7BC8E9E1403","ind_status":"AT"},"geometry":{"type":"Polygon","coordinates":[[[-42.4307,-22.2291],[-42.4373,-22.2294],[-42.4306,-22.229],[-42.4307,-22.2291]]]}},{"type":"Feature","properties":{"cod_tema":"RIO_ATE_10","cod_imovel":"RJ-3300506-C9E53C35476543EABE87A5BFE38E9748","ind_status":"AT"},"geometry":{"type":"Polygon","coordinates":[[[-42.3971,-22.2841],[-42.3921,-22.2787],[-42.3972,-22.2841],[-42.3971,-22.2841]]]}},{"type":"Feature","properties":{"cod_tema":"RIO_10_A_50","cod_imovel":"RJ-3300506-CABB4D3477C34A209E615959AA94A839","ind_status":"AT"},"geometry":{"type":"Polygon","coordinates":[[[-42.3451,-22.1391],[-42.3399,-22.1417],[-42.345,-22.1391],[-42.3451,-22.1391]]]}},{"type":"Feature","properties":{"cod_tema":"RIO_ATE_10","cod_imovel":"RJ-3300506-CB53D1078F134D5FA2146745ACC60A05","ind_status":"AT"},"geometry":{"type":"Polygon","coordinates":[[[-42.4037,-22.1339],[-42.4047,-22.1385],[-42.4037,-22.1337],[-42.4037,-22.1339]]]}},{"type":"Feature","properties":{"cod_tema":"RIO_ATE_10","cod_imovel":"RJ-3300506-CD6BD1685BFA453093508127B40E42D5","ind_status":"AT"},"geometry":{"type":"Polygon","coordinates":[[[-42.296,-22.2195],[-42.298,-22.2153],[-42.2942,-22.2214],[-42.2866,-22.2186],[-42.2887,-22.2224],[-42.2959,-22.2197],[-42.296,-22.2195]]]}},{"type":"Feature","properties":{"cod_tema":"RIO_ATE_10","cod_imovel":"RJ-3300506-D1521FF75DF64705A1D7AE24C979680E","ind_status":"AT"},"geometry":{"type":"Polygon","coordinates":[[[-42.3872,-22.2302],[-42.3907,-22.2285],[-42.3871,-22.2305],[-42.3872,-22.2302]]]}},{"type":"Feature","properties":{"cod_tema":"RIO_ATE_10","cod_imovel":"RJ-3300506-D1D58F91C67F427DA9E6B7CAF8BB4E8A","ind_status":"AT"},"geometry":{"type":"Polygon","coordinates":[[[-42.2765,-22.2294],[-42.2737,-22.228],[-42.2767,-22.2297],[-42.2765,-22.2294]]]}},{"type":"Feature","properties":{"cod_tema":"RIO_ATE_10","cod_imovel":"RJ-3300506-D3E21F346A1E4D32B19F4DF7777AF3FE","ind_status":"AT"},"geometry":{"type":"Polygon","coordinates":[[[-42.3799,-22.1745],[-42.3688,-22.1738],[-42.3769,-22.1693],[-42.3684,-22.1732],[-42.3807,-22.1746],[-42.3799,-22.1745]]]}},{"type":"Feature","properties":{"cod_tema":"RIO_ATE_10","cod_imovel":"RJ-3300506-D4083F3D22EF4CF3A998FED1C7D1FC8B","ind_status":"AT"},"geometry":{"type":"Polygon","coordinates":[[[-42.2921,-22.1903],[-42.2912,-22.1833],[-42.2921,-22.1903],[-42.2921,-22.1903]]]}},{"type":"Feature","properties":{"cod_tema":"RIO_ATE_10","cod_imovel":"RJ-3300506-D7E2B0AA0BA2477091337D26B31784BE","ind_status":"AT"},"geometry":{"type":"Polygon","coordinates":[[[-42.3982,-22.2593],[-42.3931,-22.2508],[-42.3985,-22.2595],[-42.3982,-22.2593]]]}},{"type":"Feature","properties":{"cod_tema":"RIO_ATE_10","cod_imovel":"RJ-3300506-D4E8C5FC6DE24CADA5600D900141AC9F","ind_status":"AT"},"geometry":{"type":"Polygon","coordinates":[[[-42.3793,-22.286],[-42.3757,-22.2837],[-42.3795,-22.2861],[-42.3793,-22.286]]]}},{"type":"Feature","properties":{"cod_tema":"RIO_ATE_10","cod_imovel":"RJ-3300506-D71522C30B0F4FE989C6CF00F69C5C49","ind_status":"AT"},"geometry":{"type":"Polygon","coordinates":[[[-42.4211,-22.2549],[-42.4244,-22.2552],[-42.4209,-22.2549],[-42.4211,-22.2549]]]}},{"type":"Feature","properties":{"cod_tema":"RIO_ATE_10","cod_imovel":"RJ-3300506-D8E85502568D470BB81BF8E5CA15AF82","ind_status":"AT"},"geometry":{"type":"Polygon","coordinates":[[[-42.3783,-22.2338],[-42.3771,-22.2295],[-42.3785,-22.2341],[-42.3783,-22.2338]]]}},{"type":"Feature","properties":{"cod_tema":"RIO_ATE_10","cod_imovel":"RJ-3300506-DAAB6BA8FF12486D8D81696A0F52E282","ind_status":"AT"},"geometry":{"type":"Polygon","coordinates":[[[-42.3649,-22.2588],[-42.3598,-22.2603],[-42.3651,-22.2591],[-42.3649,-22.2588]]]}},{"type":"Feature","properties":{"cod_tema":"RIO_ATE_10","cod_imovel":"RJ-3300506-DCABE07893C3430D9650F09C984FD883","ind_status":"AT"},"geometry":{"type":"Polygon","coordinates":[[[-42.3881,-22.2846],[-42.3867,-22.2783],[-42.3874,-22.2853],[-42.3881,-22.2846]]]}},{"type":"Feature","properties":{"cod_tema":"RIO_ATE_10","cod_imovel":"RJ-3300506-DDE917A6E42E4FD9ADDD30D16848D596","ind_status":"AT"},"geometry":{"type":"Polygon","coordinates":[[[-42.5033,-22.1619],[-42.5066,-22.1624],[-42.5044,-22.158],[-42.5033,-22.1619],[-42.5033,-22.1619]]]}},{"type":"Feature","properties":{"cod_tema":"RIO_ATE_10","cod_imovel":"RJ-3300506-DEE6A62F5E4E4355B400084FF4D6D06F","ind_status":"AT"},"geometry":{"type":"Polygon","coordinates":[[[-42.3831,-22.2621],[-42.3836,-22.2664],[-42.383,-22.2619],[-42.3831,-22.2621]]]}},{"type":"Feature","properties":{"cod_tema":"RIO_ATE_10","cod_imovel":"RJ-3300506-E225AC3C3EFB4687BB7E31B4F8B40702","ind_status":"AT"},"geometry":{"type":"Polygon","coordinates":[[[-42.3712,-22.2431],[-42.3734,-22.2471],[-42.3712,-22.2431],[-42.3712,-22.2431]]]}},{"type":"Feature","properties":{"cod_tema":"RIO_ATE_10","cod_imovel":"RJ-3300506-E4017DE6B64E46B0B405B2F326ABB3B1","ind_status":"AT"},"geometry":{"type":"Polygon","coordinates":[[[-42.3126,-22.2725],[-42.3078,-22.2722],[-42.3126,-22.2725],[-42.3126,-22.2725]]]}},{"type":"Feature","properties":{"cod_tema":"RIO_ATE_10","cod_imovel":"RJ-3300506-E45B2338F5904801A80A075B03B4D041","ind_status":"AT"},"geometry":{"type":"Polygon","coordinates":[[[-42.3084,-22.198],[-42.3106,-22.1945],[-42.3081,-22.1982],[-42.3084,-22.198]]]}},{"type":"Feature","properties":{"cod_tema":"RIO_ATE_10","cod_imovel":"RJ-3300506-E4DF44F3698A43B7A326DEFE5C728796","ind_status":"AT"},"geometry":{"type":"Polygon","coordinates":[[[-42.3222,-22.2144],[-42.3181,-22.2115],[-42.3195,-22.2165],[-42.3216,-22.2138],[-42.3222,-22.2144]]]}},{"type":"Feature","properties":{"cod_tema":"RIO_ATE_10","cod_imovel":"RJ-3300506-E603156757944D4B8190138B6AD4C143","ind_status":"AT"},"geometry":{"type":"Polygon","coordinates":[[[-42.3194,-22.2404],[-42.3189,-22.2434],[-42.3195,-22.2402],[-42.3194,-22.2404]],[[-42.3257,-22.2432],[-42.3143,-22.2435],[-42.3259,-22.2432],[-42.3257,-22.2432]]]}},{"type":"Feature","properties":{"cod_tema":"RIO_ATE_10","cod_imovel":"RJ-3300506-E75555D1B41E4E88872E9149B9A9B615","ind_status":"AT"},"geometry":{"type":"Polygon","coordinates":[[[-42.4547,-22.1899],[-42.4573,-22.1864],[-42.4519,-22.1914],[-42.4546,-22.1898],[-42.4547,-22.1899]],[[-42.4531,-22.1843],[-42.4567,-22.183],[-42.4526,-22.1846],[-42.4531,-22.1843]],[[-42.464,-22.1917],[-42.4576,-22.1872],[-42.4598,-22.1804],[-42.4575,-22.1872],[-42.464,-22.1918],[-42.464,-22.1917]]]}},{"type":"Feature","properties":{"cod_tema":"RIO_ATE_10","cod_imovel":"RJ-3300506-EA481DC718CA4538AD3ABCE359AAE00B","ind_status":"AT"},"geometry":{"type":"Polygon","coordinates":[[[-42.2885,-22.1776],[-42.2906,-22.1821],[-42.2867,-22.1847],[-42.2906,-22.1821],[-42.2929,-22.1862],[-42.288,-22.1769],[-42.2885,-22.1776]]]}},{"type":"Feature","properties":{"cod_tema":"RIO_ATE_10","cod_imovel":"RJ-3300506-EB32F80F8B93405982DF5ABDE174DBBE","ind_status":"AT"},"geometry":{"type":"Polygon","coordinates":[[[-42.3315,-22.2567],[-42.3356,-22.255],[-42.3315,-22.2569],[-42.3315,-22.2567]]]}},{"type":"Feature","properties":{"cod_tema":"RIO_ATE_10","cod_imovel":"RJ-3300506-ED5D19E58C4D423BA117586F822E9681","ind_status":"AT"},"geometry":{"type":"Polygon","coordinates":[[[-42.4183,-22.2172],[-42.4143,-22.2145],[-42.4183,-22.2172],[-42.4183,-22.2172]]]}},{"type":"Feature","properties":{"cod_tema":"RIO_ATE_10","cod_imovel":"RJ-3300506-ED5D19E58C4D423BA117586F822E9681","ind_status":"AT"},"geometry":{"type":"Polygon","coordinates":[[[-42.4142,-22.2146],[-42.4023,-22.2091],[-42.4143,-22.2145],[-42.4142,-22.2146]]]}},{"type":"Feature","properties":{"cod_tema":"RIO_ATE_10","cod_imovel":"RJ-3300506-EDD5FA1193DB40B9929A7E89C266B8AC","ind_status":"AT"},"geometry":{"type":"Polygon","coordinates":[[[-42.2803,-22.2567],[-42.2841,-22.2599],[-42.2805,-22.2566],[-42.2803,-22.2567]]]}},{"type":"Feature","properties":{"cod_tema":"RIO_ATE_10","cod_imovel":"RJ-3300506-EF99E8778FD743A7B4A72D562E50E8BA","ind_status":"AT"},"geometry":{"type":"Polygon","coordinates":[[[-42.4241,-22.2551],[-42.4208,-22.2556],[-42.4245,-22.2552],[-42.4241,-22.2551]]]}},{"type":"Feature","properties":{"cod_tema":"RIO_ATE_10","cod_imovel":"RJ-3300506-F02E750106DF4776A1D78236F4A6651D","ind_status":"AT"},"geometry":{"type":"Polygon","coordinates":[[[-42.4113,-22.2649],[-42.4058,-22.2626],[-42.4123,-22.2647],[-42.4113,-22.2649]]]}},{"type":"Feature","properties":{"cod_tema":"RIO_ATE_10","cod_imovel":"RJ-3300506-FA1FD30C37134936A828C4925893E8B4","ind_status":"AT"},"geometry":{"type":"Polygon","coordinates":[[[-42.3145,-22.2856],[-42.3177,-22.2857],[-42.3142,-22.2856],[-42.3145,-22.2856]]]}},{"type":"Feature","properties":{"cod_tema":"RIO_ATE_10","cod_imovel":"RJ-3300506-F058370F9A344589B8FF925065475373","ind_status":"AT"},"geometry":{"type":"Polygon","coordinates":[[[-42.3124,-22.1618],[-42.3124,-22.1678],[-42.3127,-22.1615],[-42.3124,-22.1618]]]}},{"type":"Feature","properties":{"cod_tema":"RIO_ATE_10","cod_imovel":"RJ-3300506-F0B1F7B6DB3D43ECBA36C555B452D110","ind_status":"AT"},"geometry":{"type":"Polygon","coordinates":[[[-42.4637,-22.1799],[-42.4655,-22.1771],[-42.4636,-22.18],[-42.4637,-22.1799]]]}},{"type":"Feature","properties":{"cod_tema":"RIO_ATE_10","cod_imovel":"RJ-3300506-F28CEBC8D9DA4B66B8AB898F4859109E","ind_status":"AT"},"geometry":{"type":"Polygon","coordinates":[[[-42.332,-22.2295],[-42.3283,-22.2284],[-42.3324,-22.2299],[-42.332,-22.2295]],[[-42.3323,-22.2312],[-42.3226,-22.2359],[-42.3323,-22.2312],[-42.3323,-22.2312]]]}},{"type":"Feature","properties":{"cod_tema":"RIO_ATE_10","cod_imovel":"RJ-3300506-F59BB6BA198B4FB5A448DFF6D6F7309F","ind_status":"AT"},"geometry":{"type":"Polygon","coordinates":[[[-42.3871,-22.2231],[-42.3881,-22.2185],[-42.3875,-22.2236],[-42.3871,-22.2231]]]}},{"type":"Feature","properties":{"cod_tema":"RIO_ATE_10","cod_imovel":"RJ-3300506-F7125D1725FA4A5E99C17B824C6587D7","ind_status":"AT"},"geometry":{"type":"Polygon","coordinates":[[[-42.3186,-22.181],[-42.3126,-22.1889],[-42.3188,-22.1807],[-42.3186,-22.181]]]}},{"type":"Feature","properties":{"cod_tema":"RIO_ATE_10","cod_imovel":"RJ-3300506-FB319637321A4310809FCDF95BB93DD8","ind_status":"AT"},"geometry":{"type":"Polygon","coordinates":[[[-42.4154,-22.2094],[-42.4124,-22.2114],[-42.4154,-22.2092],[-42.4154,-22.2094]]]}},{"type":"Feature","properties":{"cod_tema":"RIO_ATE_10","cod_imovel":"RJ-3300506-FB722D1091A64DEEB909C8586C820952","ind_status":"AT"},"geometry":{"type":"Polygon","coordinates":[[[-42.3663,-22.285],[-42.3703,-22.2853],[-42.3663,-22.2852],[-42.3663,-22.285]]]}},{"type":"Feature","properties":{"cod_tema":"RIO_10_A_50","cod_imovel":"RJ-3300506-FB8714DFE3BA41818A7F01BF1B97DB9A","ind_status":"AT"},"geometry":{"type":"Polygon","coordinates":[[[-42.3798,-22.1734],[-42.3897,-22.173],[-42.3799,-22.1736],[-42.3798,-22.1734]]]}},{"type":"Feature","properties":{"cod_tema":"RIO_ATE_10","cod_imovel":"RJ-3300506-FBB88A51C9A94E3E913E2163C2FE43C7","ind_status":"AT"},"geometry":{"type":"Polygon","coordinates":[[[-42.4606,-22.2243],[-42.4438,-22.2277],[-42.4554,-22.2242],[-42.4648,-22.2281],[-42.4593,-22.2248],[-42.4663,-22.2237],[-42.461,-22.2243],[-42.4664,-22.2197],[-42.4609,-22.2243],[-42.4606,-22.2243]]]}},{"type":"Feature","properties":{"cod_tema":"RIO_ATE_10","cod_imovel":"RJ-3300506-FD20656E83034C76A4753BE2458D2B64","ind_status":"AT"},"geometry":{"type":"Polygon","coordinates":[[[-42.3601,-22.2898],[-42.3555,-22.2901],[-42.3603,-22.2898],[-42.3601,-22.2898]]]}},{"type":"Feature","properties":{"cod_tema":"RIO_ATE_10","cod_imovel":"RJ-3300506-AC4E18992CA24BDD9A4D116A5C0CA8B0","ind_status":"AT"},"geometry":{"type":"Polygon","coordinates":[[[-42.3384,-22.2282],[-42.3323,-22.2309],[-42.339,-22.2278],[-42.3384,-22.2282]]]}},{"type":"Feature","properties":{"cod_tema":"RIO_ATE_10","cod_imovel":"RJ-3300506-5D1D3FA198F14E35A8DFF61E6CD4F002","ind_status":"AT"},"geometry":{"type":"Polygon","coordinates":[[[-42.4455,-22.1424],[-42.4362,-22.1442],[-42.4444,-22.1473],[-42.4455,-22.1424],[-42.4455,-22.1424]]]}},{"type":"Feature","properties":{"cod_tema":"RIO_ATE_10","cod_imovel":"RJ-3300506-D2FA526C0D7E45338F3E3D4506D69679","ind_status":"CA"},"geometry":{"type":"Polygon","coordinates":[[[-42.3303,-22.2386],[-42.3259,-22.2434],[-42.3304,-22.2386],[-42.3303,-22.2386]]]}},{"type":"Feature","properties":{"cod_tema":"RIO_ATE_10","cod_imovel":"RJ-3300506-929945ACD3D14E118141585D577E435C","ind_status":"AT"},"geometry":{"type":"Polygon","coordinates":[[[-42.434,-22.1246],[-42.4333,-22.1315],[-42.4378,-22.1237],[-42.4339,-22.1247],[-42.434,-22.1246]],[[-42.4355,-22.1358],[-42.4309,-22.132],[-42.4354,-22.1359],[-42.4355,-22.1358]]]}},{"type":"Feature","properties":{"cod_tema":"RIO_ATE_10","cod_imovel":"RJ-3300506-7988436224184459B304973FBE03372E","ind_status":"AT"},"geometry":{"type":"Polygon","coordinates":[[[-42.4055,-22.1314],[-42.4093,-22.1316],[-42.4055,-22.1314],[-42.4055,-22.1314]]]}},{"type":"Feature","properties":{"cod_tema":"RIO_ATE_10","cod_imovel":"RJ-3300506-2D5EBA14E4414A0BA07B8F7731B689F6","ind_status":"AT"},"geometry":{"type":"Polygon","coordinates":[[[-42.4573,-22.1765],[-42.4587,-22.173],[-42.4572,-22.1765],[-42.4573,-22.1765]]]}},{"type":"Feature","properties":{"cod_tema":"RIO_ATE_10","cod_imovel":"RJ-3300506-9E6DDC2200894B6494D7F295F4494909","ind_status":"AT"},"geometry":{"type":"Polygon","coordinates":[[[-42.3864,-22.1962],[-42.3866,-22.1915],[-42.3864,-22.1962],[-42.3864,-22.1962]]]}},{"type":"Feature","properties":{"cod_tema":"RIO_ATE_10","cod_imovel":"RJ-3300506-0768414E4B124F8A84E1F9A8DED11520","ind_status":"AT"},"geometry":{"type":"Polygon","coordinates":[[[-42.3832,-22.1749],[-42.3787,-22.1729],[-42.3829,-22.1749],[-42.3832,-22.1749]]]}},{"type":"Feature","properties":{"cod_tema":"RIO_ATE_10","cod_imovel":"RJ-3300506-C74977FD32C24B239ECD23E2ED7DB27A","ind_status":"AT"},"geometry":{"type":"Polygon","coordinates":[[[-42.4802,-22.2036],[-42.4753,-22.203],[-42.4789,-22.204],[-42.4741,-22.2096],[-42.4803,-22.2036],[-42.4802,-22.2036]]]}},{"type":"Feature","properties":{"cod_tema":"RIO_ATE_10","cod_imovel":"RJ-3300506-D188BBB5A84E47FF9003B60A90DAC189","ind_status":"AT"},"geometry":{"type":"Polygon","coordinates":[[[-42.3347,-22.282],[-42.3307,-22.2842],[-42.3411,-22.2834],[-42.3307,-22.2842],[-42.3349,-22.2818],[-42.3347,-22.282]]]}},{"type":"Feature","properties":{"cod_tema":"RIO_10_A_50","cod_imovel":"RJ-3300506-7C485EB418014FFA883562A0508D0FB0","ind_status":"AT"},"geometry":{"type":"Polygon","coordinates":[[[-42.4358,-22.1588],[-42.4406,-22.1585],[-42.437,-22.1587],[-42.4358,-22.1588]]]}},{"type":"Feature","properties":{"cod_tema":"RIO_ATE_10","cod_imovel":"RJ-3300506-398E83B583C44D77A80F0FC31574C3C2","ind_status":"AT"},"geometry":{"type":"Polygon","coordinates":[[[-42.3096,-22.292],[-42.3127,-22.2864],[-42.3096,-22.2924],[-42.3096,-22.292]]]}},{"type":"Feature","properties":{"cod_tema":"RIO_ATE_10","cod_imovel":"RJ-3300506-ACEBAD7C9F154470A426C30A159CE07E","ind_status":"AT"},"geometry":{"type":"Polygon","coordinates":[[[-42.3501,-22.1772],[-42.3402,-22.1858],[-42.3502,-22.1772],[-42.3501,-22.1772]],[[-42.3549,-22.1814],[-42.3434,-22.1919],[-42.3548,-22.1814],[-42.3549,-22.1814]],[[-42.3518,-22.1775],[-42.3549,-22.181],[-42.3519,-22.1775],[-42.3518,-22.1775]]]}},{"type":"Feature","properties":{"cod_tema":"RIO_ATE_10","cod_imovel":"RJ-3300506-CE4BA259BD16419BA15D4585A3E01453","ind_status":"AT"},"geometry":{"type":"Polygon","coordinates":[[[-42.5153,-22.1626],[-42.5058,-22.1619],[-42.5153,-22.1626],[-42.5153,-22.1626]]]}},{"type":"Feature","properties":{"cod_tema":"RIO_ATE_10","cod_imovel":"RJ-3300506-9BA0E3E4CDD44957BFE4933452BDF178","ind_status":"AT"},"geometry":{"type":"Polygon","coordinates":[[[-42.3774,-22.2537],[-42.3753,-22.2504],[-42.3776,-22.2539],[-42.3774,-22.2537]]]}},{"type":"Feature","properties":{"cod_tema":"RIO_ATE_10","cod_imovel":"RJ-3300506-3057738AB90F4EFA9EDDBAF7556C32F7","ind_status":"PE"},"geometry":{"type":"Polygon","coordinates":[[[-42.3589,-22.2503],[-42.3622,-22.2499],[-42.3587,-22.2502],[-42.3589,-22.2503]]]}},{"type":"Feature","properties":{"cod_tema":"RIO_ATE_10","cod_imovel":"RJ-3300506-8D0324D6ACCF4D6886764539D1E7C152","ind_status":"PE"},"geometry":{"type":"Polygon","coordinates":[[[-42.3602,-22.2704],[-42.3569,-22.2706],[-42.3605,-22.2704],[-42.3602,-22.2704]]]}},{"type":"Feature","properties":{"cod_tema":"RIO_ATE_10","cod_imovel":"RJ-3300506-427D0E3CA6FC40059A74C0B57E1BA3C1","ind_status":"AT"},"geometry":{"type":"Polygon","coordinates":[[[-42.2822,-22.2419],[-42.2807,-22.247],[-42.2822,-22.2418],[-42.2822,-22.2419]]]}},{"type":"Feature","properties":{"cod_tema":"RIO_ATE_10","cod_imovel":"RJ-3300506-E02634EC56E94FF686B67E655772A1AD","ind_status":"AT"},"geometry":{"type":"Polygon","coordinates":[[[-42.3077,-22.2419],[-42.3115,-22.2427],[-42.3076,-22.2419],[-42.3077,-22.2419]]]}},{"type":"Feature","properties":{"cod_tema":"RIO_ATE_10","cod_imovel":"RJ-3300506-F07826984F6541C2A0159CD30BE56258","ind_status":"AT"},"geometry":{"type":"Polygon","coordinates":[[[-42.3255,-22.252],[-42.3199,-22.2467],[-42.3255,-22.252],[-42.3255,-22.252]]]}},{"type":"Feature","properties":{"cod_tema":"RIO_ATE_10","cod_imovel":"RJ-3300506-6682A7731991416697C351A933666AA7","ind_status":"AT"},"geometry":{"type":"Polygon","coordinates":[[[-42.3146,-22.2438],[-42.3113,-22.2426],[-42.3147,-22.2438],[-42.3146,-22.2438]]]}},{"type":"Feature","properties":{"cod_tema":"RIO_ATE_10","cod_imovel":"RJ-3300506-B74F44E340D245938036AFE26BD70B41","ind_status":"AT"},"geometry":{"type":"Polygon","coordinates":[[[-42.3203,-22.1546],[-42.3168,-22.158],[-42.32,-22.155],[-42.3203,-22.1546]]]}},{"type":"Feature","properties":{"cod_tema":"RIO_ATE_10","cod_imovel":"RJ-3300506-BC81A41EE33C493583E6F4C5DE6D06DC","ind_status":"AT"},"geometry":{"type":"Polygon","coordinates":[[[-42.3539,-22.2109],[-42.357,-22.208],[-42.3539,-22.2109],[-42.3539,-22.2109]]]}},{"type":"Feature","properties":{"cod_tema":"RIO_10_A_50","cod_imovel":"RJ-3300506-27809F44A958445F880058A31A3FCDB8","ind_status":"AT"},"geometry":{"type":"Polygon","coordinates":[[[-42.4617,-22.1738],[-42.4559,-22.1714],[-42.4615,-22.174],[-42.4617,-22.1738]]]}},{"type":"Feature","properties":{"cod_tema":"RIO_ATE_10","cod_imovel":"RJ-3300506-2158EA84C6A843C29A106A43D111CBB6","ind_status":"AT"},"geometry":{"type":"Polygon","coordinates":[[[-42.3221,-22.2922],[-42.3192,-22.2977],[-42.3222,-22.2922],[-42.3269,-22.2949],[-42.3222,-22.2922],[-42.3221,-22.2922]]]}},{"type":"Feature","properties":{"cod_tema":"RIO_ATE_10","cod_imovel":"RJ-3300506-29E9D250065D44329A9553E34F7C69D2","ind_status":"AT"},"geometry":{"type":"Polygon","coordinates":[[[-42.5032,-22.1649],[-42.5021,-22.162],[-42.5081,-22.1698],[-42.5032,-22.165],[-42.5032,-22.1649]]]}},{"type":"Feature","properties":{"cod_tema":"RIO_ATE_10","cod_imovel":"RJ-3300506-47A87C3EE1904D06B833549BCCC35756","ind_status":"AT"},"geometry":{"type":"Polygon","coordinates":[[[-42.3286,-22.1482],[-42.3248,-22.1493],[-42.3292,-22.1479],[-42.3286,-22.1482]]]}},{"type":"Feature","properties":{"cod_tema":"RIO_ATE_10","cod_imovel":"RJ-3300506-573BDD8033D5438F81412816C713789B","ind_status":"AT"},"geometry":{"type":"Polygon","coordinates":[[[-42.4633,-22.2205],[-42.4609,-22.2237],[-42.4635,-22.2203],[-42.4633,-22.2205]]]}},{"type":"Feature","properties":{"cod_tema":"RIO_ATE_10","cod_imovel":"RJ-3300506-6DF933BA56004D8E8A7D43723664BF15","ind_status":"AT"},"geometry":{"type":"Polygon","coordinates":[[[-42.3323,-22.2738],[-42.3303,-22.2689],[-42.3324,-22.2738],[-42.3323,-22.2738]]]}},{"type":"Feature","properties":{"cod_tema":"RIO_ATE_10","cod_imovel":"RJ-3300506-013624EC3F854E83B80C8A6A1992DE4D","ind_status":"AT"},"geometry":{"type":"Polygon","coordinates":[[[-42.2849,-22.2524],[-42.2822,-22.2506],[-42.285,-22.2528],[-42.2849,-22.2524]]]}},{"type":"Feature","properties":{"cod_tema":"RIO_ATE_10","cod_imovel":"RJ-3300506-EFF3D06A529C4BA4B9DA23EBCB1B2F5C","ind_status":"AT"},"geometry":{"type":"Polygon","coordinates":[[[-42.3087,-22.2726],[-42.3123,-22.2724],[-42.3086,-22.2726],[-42.3087,-22.2726]]]}},{"type":"Feature","properties":{"cod_tema":"RIO_ATE_10","cod_imovel":"RJ-3300506-05625726521B4DE295F08D89C99EF4C6","ind_status":"AT"},"geometry":{"type":"Polygon","coordinates":[[[-42.3268,-22.2508],[-42.3269,-22.2478],[-42.3267,-22.2512],[-42.3268,-22.2508]]]}},{"type":"Feature","properties":{"cod_tema":"RIO_ATE_10","cod_imovel":"RJ-3300506-8DB74CFA1862456AB6A9AEC02047C8D3","ind_status":"AT"},"geometry":{"type":"Polygon","coordinates":[[[-42.4819,-22.1654],[-42.4793,-22.1676],[-42.4824,-22.1649],[-42.4819,-22.1654]]]}},{"type":"Feature","properties":{"cod_tema":"RIO_ATE_10","cod_imovel":"RJ-3300506-32279954E1954C5C9AB9F983A5CF985B","ind_status":"AT"},"geometry":{"type":"Polygon","coordinates":[[[-42.4814,-22.1508],[-42.4746,-22.1483],[-42.4771,-22.144],[-42.4722,-22.1523],[-42.4622,-22.1545],[-42.4731,-22.1528],[-42.4747,-22.1482],[-42.4814,-22.1508],[-42.4814,-22.1508]]]}},{"type":"Feature","properties":{"cod_tema":"RIO_ATE_10","cod_imovel":"RJ-3300506-F6A08991F9F7494E98051A8C44C45122","ind_status":"AT"},"geometry":{"type":"Polygon","coordinates":[[[-42.3096,-22.292],[-42.3127,-22.2864],[-42.3096,-22.2924],[-42.3096,-22.292]]]}},{"type":"Feature","properties":{"cod_tema":"RIO_ATE_10","cod_imovel":"RJ-3300506-05180B273C0540D790C18436D6566922","ind_status":"AT"},"geometry":{"type":"Polygon","coordinates":[[[-42.3931,-22.2352],[-42.3893,-22.2342],[-42.3934,-22.2353],[-42.3931,-22.2352]]]}},{"type":"Feature","properties":{"cod_tema":"RIO_ATE_10","cod_imovel":"RJ-3300506-929E0F88DA68485CA1EEE88319A0D056","ind_status":"AT"},"geometry":{"type":"Polygon","coordinates":[[[-42.3489,-22.2434],[-42.3464,-22.2462],[-42.349,-22.2433],[-42.3489,-22.2434]]]}},{"type":"Feature","properties":{"cod_tema":"RIO_ATE_10","cod_imovel":"RJ-3300506-4C5D0C6796714F8E837C3B3BD5E1204A","ind_status":"AT"},"geometry":{"type":"Polygon","coordinates":[[[-42.347,-22.2145],[-42.3506,-22.2125],[-42.3431,-22.216],[-42.347,-22.2143],[-42.347,-22.2145]]]}},{"type":"Feature","properties":{"cod_tema":"RIO_ATE_10","cod_imovel":"RJ-3300506-97737E019A614BBBBE0D5BF0942FBD18","ind_status":"AT"},"geometry":{"type":"Polygon","coordinates":[[[-42.3522,-22.203],[-42.3558,-22.2053],[-42.3519,-22.2028],[-42.3522,-22.203]]]}},{"type":"Feature","properties":{"cod_tema":"RIO_ATE_10","cod_imovel":"RJ-3300506-29C49A5F17E8473E996FCEAEB1EEABEA","ind_status":"AT"},"geometry":{"type":"Polygon","coordinates":[[[-42.3123,-22.1684],[-42.3126,-22.1613],[-42.3124,-22.1686],[-42.3123,-22.1684]]]}},{"type":"Feature","properties":{"cod_tema":"RIO_ATE_10","cod_imovel":"RJ-3300506-83989484210546ABA3B00D48C1777490","ind_status":"AT"},"geometry":{"type":"Polygon","coordinates":[[[-42.3329,-22.2437],[-42.3279,-22.2427],[-42.3342,-22.2439],[-42.3329,-22.2437]]]}},{"type":"Feature","properties":{"cod_tema":"RIO_ATE_10","cod_imovel":"RJ-3300506-87C675D294124FF089C6ABE2BE56D928","ind_status":"AT"},"geometry":{"type":"Polygon","coordinates":[[[-42.312,-22.1824],[-42.3167,-22.1832],[-42.3118,-22.1824],[-42.312,-22.1824]]]}},{"type":"Feature","properties":{"cod_tema":"RIO_ATE_10","cod_imovel":"RJ-3300506-33FC251CDB8C46F59DE61307A517D8E2","ind_status":"AT"},"geometry":{"type":"Polygon","coordinates":[[[-42.3055,-22.1842],[-42.3117,-22.1824],[-42.2981,-22.1844],[-42.3071,-22.1809],[-42.3053,-22.1844],[-42.3055,-22.1842]]]}},{"type":"Feature","properties":{"cod_tema":"RIO_ATE_10","cod_imovel":"RJ-3300506-58916014F49B45369BD3884F291BC121","ind_status":"AT"},"geometry":{"type":"Polygon","coordinates":[[[-42.3331,-22.1929],[-42.337,-22.1892],[-42.3328,-22.1929],[-42.3331,-22.1929]]]}},{"type":"Feature","properties":{"cod_tema":"RIO_ATE_10","cod_imovel":"RJ-3300506-5E21A439D8534659904442BB5DCB4C80","ind_status":"AT"},"geometry":{"type":"Polygon","coordinates":[[[-42.3533,-22.1713],[-42.3604,-22.1719],[-42.3526,-22.1713],[-42.3533,-22.1713]]]}},{"type":"Feature","properties":{"cod_tema":"RIO_ATE_10","cod_imovel":"RJ-3300506-7CB9F7193FE24B67A5380FD43ADE8AEF","ind_status":"AT"},"geometry":{"type":"Polygon","coordinates":[[[-42.3005,-22.1754],[-42.2974,-22.1797],[-42.3013,-22.1752],[-42.3005,-22.1754]]]}},{"type":"Feature","properties":{"cod_tema":"RIO_ATE_10","cod_imovel":"RJ-3300506-7CB9F7193FE24B67A5380FD43ADE8AEF","ind_status":"AT"},"geometry":{"type":"Polygon","coordinates":[[[-42.2972,-22.1748],[-42.2942,-22.1737],[-42.2978,-22.175],[-42.2972,-22.1748]]]}},{"type":"Feature","properties":{"cod_tema":"RIO_ATE_10","cod_imovel":"RJ-3300506-72EBD6FABC044C62BA84278BA1F0FC53","ind_status":"AT"},"geometry":{"type":"Polygon","coordinates":[[[-42.3362,-22.2389],[-42.3391,-22.2419],[-42.336,-22.2386],[-42.3362,-22.2389]]]}},{"type":"Feature","properties":{"cod_tema":"RIO_ATE_10","cod_imovel":"RJ-3300506-93CE103FE9CE4DB5B9164BEA32DA7A3E","ind_status":"AT"},"geometry":{"type":"Polygon","coordinates":[[[-42.2734,-22.2571],[-42.2792,-22.2554],[-42.2728,-22.2568],[-42.2734,-22.2571]]]}},{"type":"Feature","properties":{"cod_tema":"RIO_ATE_10","cod_imovel":"RJ-3300506-7CE68E70C0F342538AB8A7FE56AF8460","ind_status":"AT"},"geometry":{"type":"Polygon","coordinates":[[[-42.3644,-22.2363],[-42.3652,-22.2326],[-42.3644,-22.2364],[-42.3644,-22.2363]]]}},{"type":"Feature","properties":{"cod_tema":"RIO_ATE_10","cod_imovel":"RJ-3300506-DE4494B4498342779D1785D0E2464AB4","ind_status":"AT"},"geometry":{"type":"Polygon","coordinates":[[[-42.3095,-22.2068],[-42.3046,-22.2039],[-42.3099,-22.207],[-42.3095,-22.2068]]]}},{"type":"Feature","properties":{"cod_tema":"RIO_10_A_50","cod_imovel":"RJ-3300506-1870C73D3E514723B690F0A9437479D1","ind_status":"AT"},"geometry":{"type":"Polygon","coordinates":[[[-42.401,-22.1621],[-42.3952,-22.1667],[-42.3916,-22.1637],[-42.395,-22.1669],[-42.4015,-22.1621],[-42.401,-22.1621]]]}},{"type":"Feature","properties":{"cod_tema":"RIO_ATE_10","cod_imovel":"RJ-3300506-D9C8D3BA7E9349CBB3BAFA608DDCC048","ind_status":"AT"},"geometry":{"type":"Polygon","coordinates":[[[-42.4325,-22.2006],[-42.4276,-22.205],[-42.4327,-22.2003],[-42.4325,-22.2006]]]}},{"type":"Feature","properties":{"cod_tema":"RIO_ATE_10","cod_imovel":"RJ-3300506-7068378E2AAC4BF791BBA2AAB13C2D4D","ind_status":"AT"},"geometry":{"type":"Polygon","coordinates":[[[-42.3178,-22.1822],[-42.3128,-22.1888],[-42.3203,-22.1803],[-42.318,-22.1753],[-42.3177,-22.1821],[-42.3178,-22.1822]]]}},{"type":"Feature","properties":{"cod_tema":"RIO_ATE_10","cod_imovel":"RJ-3300506-41D1EC7CD0F94710BF7972F9C33DB10D","ind_status":"AT"},"geometry":{"type":"Polygon","coordinates":[[[-42.3012,-22.255],[-42.3058,-22.2538],[-42.3011,-22.2553],[-42.3012,-22.255]]]}},{"type":"Feature","properties":{"cod_tema":"RIO_ATE_10","cod_imovel":"RJ-3300506-C301D53CFEF846B1B8C8B3B1F7E6EB61","ind_status":"AT"},"geometry":{"type":"Polygon","coordinates":[[[-42.4069,-22.2119],[-42.4016,-22.2085],[-42.4072,-22.2115],[-42.4069,-22.2119]]]}},{"type":"Feature","properties":{"cod_tema":"RIO_ATE_10","cod_imovel":"RJ-3300506-485E063BCD7F4E47A6A96A542C6B13ED","ind_status":"AT"},"geometry":{"type":"Polygon","coordinates":[[[-42.3178,-22.1822],[-42.3128,-22.1888],[-42.3203,-22.1803],[-42.318,-22.1753],[-42.3177,-22.1821],[-42.3178,-22.1822]]]}},{"type":"Feature","properties":{"cod_tema":"RIO_ATE_10","cod_imovel":"RJ-3300506-B683710E241A4766997F80CE0BAC5C96","ind_status":"AT"},"geometry":{"type":"Polygon","coordinates":[[[-42.3926,-22.2142],[-42.3897,-22.2182],[-42.3929,-22.2141],[-42.3926,-22.2142]]]}},{"type":"Feature","properties":{"cod_tema":"RIO_ATE_10","cod_imovel":"RJ-3300506-8972AA089E1642BBBDC4AF8E76AC5A32","ind_status":"AT"},"geometry":{"type":"Polygon","coordinates":[[[-42.3227,-22.2893],[-42.3211,-22.2856],[-42.3227,-22.2893],[-42.3227,-22.2893]]]}},{"type":"Feature","properties":{"cod_tema":"RIO_ATE_10","cod_imovel":"RJ-3300506-A7B06BBBAD9249619A22EBA9E7EC72BE","ind_status":"AT"},"geometry":{"type":"Polygon","coordinates":[[[-42.3619,-22.1251],[-42.3566,-22.1287],[-42.3637,-22.1256],[-42.3619,-22.1251]],[[-42.3541,-22.1192],[-42.3606,-22.1207],[-42.3607,-22.1252],[-42.3606,-22.1207],[-42.3523,-22.1195],[-42.3541,-22.1192]]]}},{"type":"Feature","properties":{"cod_tema":"RIO_ACIMA_600","cod_imovel":"RJ-3300506-26D2DFE8D35D417E98DC1C5EBDE10B8A","ind_status":"AT"},"geometry":{"type":"Polygon","coordinates":[[[-42.446,-22.1262],[-42.4437,-22.1296],[-42.4472,-22.1248],[-42.446,-22.1262]]]}},{"type":"Feature","properties":{"cod_tema":"RIO_ATE_10","cod_imovel":"RJ-3300506-2A5820C0AFC24E81A838C1045581D80A","ind_status":"AT"},"geometry":{"type":"Polygon","coordinates":[[[-42.3755,-22.1514],[-42.3796,-22.1528],[-42.375,-22.1513],[-42.3755,-22.1514]]]}},{"type":"Feature","properties":{"cod_tema":"RIO_ATE_10","cod_imovel":"RJ-3300506-A459B308B4D844E59FFA151D61E42740","ind_status":"AT"},"geometry":{"type":"Polygon","coordinates":[[[-42.374,-22.1445],[-42.3761,-22.1417],[-42.3738,-22.1446],[-42.374,-22.1445]]]}},{"type":"Feature","properties":{"cod_tema":"RIO_ATE_10","cod_imovel":"RJ-3300506-0770F21A05DD4AEE925D99D27BEC25AF","ind_status":"AT"},"geometry":{"type":"Polygon","coordinates":[[[-42.3943,-22.2696],[-42.3984,-22.2662],[-42.3941,-22.2699],[-42.3943,-22.2696]]]}},{"type":"Feature","properties":{"cod_tema":"RIO_ATE_10","cod_imovel":"RJ-3300506-0770F21A05DD4AEE925D99D27BEC25AF","ind_status":"AT"},"geometry":{"type":"Polygon","coordinates":[[[-42.3996,-22.2639],[-42.4001,-22.2672],[-42.3998,-22.2632],[-42.3996,-22.2639]]]}},{"type":"Feature","properties":{"cod_tema":"RIO_ATE_10","cod_imovel":"RJ-3300506-25E42ABAB5B14DAE99AAAA6B524090E8","ind_status":"AT"},"geometry":{"type":"Polygon","coordinates":[[[-42.3622,-22.2595],[-42.3654,-22.2594],[-42.3618,-22.2594],[-42.3622,-22.2595]]]}},{"type":"Feature","properties":{"cod_tema":"RIO_ATE_10","cod_imovel":"RJ-3300506-E208F44357E346C1B55972B392964248","ind_status":"AT"},"geometry":{"type":"Polygon","coordinates":[[[-42.4941,-22.1619],[-42.4926,-22.1565],[-42.4941,-22.1619],[-42.4941,-22.1619]]]}},{"type":"Feature","properties":{"cod_tema":"RIO_ATE_10","cod_imovel":"RJ-3300506-20CE6D0FFEF34E0ABBB0AA37B46F2F13","ind_status":"AT"},"geometry":{"type":"Polygon","coordinates":[[[-42.3356,-22.2004],[-42.3438,-22.1917],[-42.335,-22.2007],[-42.3356,-22.2004]]]}},{"type":"Feature","properties":{"cod_tema":"RIO_ATE_10","cod_imovel":"RJ-3300506-26C810106E11451A8DAEBABA3F78DAF6","ind_status":"AT"},"geometry":{"type":"Polygon","coordinates":[[[-42.3625,-22.2025],[-42.3597,-22.2048],[-42.3625,-22.2025],[-42.3625,-22.2025]]]}},{"type":"Feature","properties":{"cod_tema":"RIO_ATE_10","cod_imovel":"RJ-3300506-46919ECBE4E9462EA16D8B5622124103","ind_status":"AT"},"geometry":{"type":"Polygon","coordinates":[[[-42.4708,-22.1646],[-42.4661,-22.1682],[-42.4712,-22.1638],[-42.4708,-22.1646]]]}},{"type":"Feature","properties":{"cod_tema":"RIO_ATE_10","cod_imovel":"RJ-3300506-C0DF8296525E45B9AD9FFDE2CEBD046B","ind_status":"AT"},"geometry":{"type":"Polygon","coordinates":[[[-42.3553,-22.2597],[-42.3607,-22.2591],[-42.355,-22.2597],[-42.3553,-22.2597]]]}},{"type":"Feature","properties":{"cod_tema":"RIO_ATE_10","cod_imovel":"RJ-3300506-24204C4A5E2E4A80A50D25BF43E166E6","ind_status":"AT"},"geometry":{"type":"Polygon","coordinates":[[[-42.3131,-22.1703],[-42.3122,-22.1629],[-42.3131,-22.1703],[-42.3131,-22.1703]]]}},{"type":"Feature","properties":{"cod_tema":"RIO_ATE_10","cod_imovel":"RJ-3300506-68365C6DA5654CB9BC79ECC2D626BCD4","ind_status":"AT"},"geometry":{"type":"Polygon","coordinates":[[[-42.3187,-22.2103],[-42.322,-22.2062],[-42.3187,-22.2103],[-42.3187,-22.2103]]]}},{"type":"Feature","properties":{"cod_tema":"RIO_ATE_10","cod_imovel":"RJ-3300506-B16E71C75DC143EDBDF34222CDB3FBCE","ind_status":"AT"},"geometry":{"type":"Polygon","coordinates":[[[-42.3537,-22.249],[-42.3502,-22.2465],[-42.354,-22.2491],[-42.3537,-22.249]]]}},{"type":"Feature","properties":{"cod_tema":"RIO_ATE_10","cod_imovel":"RJ-3300506-04212A49716941EE9C0601FA08E2689A","ind_status":"AT"},"geometry":{"type":"Polygon","coordinates":[[[-42.4867,-22.1631],[-42.4924,-22.1558],[-42.4863,-22.163],[-42.4867,-22.1631]]]}},{"type":"Feature","properties":{"cod_tema":"RIO_ATE_10","cod_imovel":"RJ-3300506-878C204EAE244C5B81621FB38E4FBB75","ind_status":"AT"},"geometry":{"type":"Polygon","coordinates":[[[-42.2788,-22.2559],[-42.2747,-22.2574],[-42.2788,-22.2559],[-42.2788,-22.2559]],[[-42.2796,-22.2578],[-42.2753,-22.2648],[-42.2796,-22.2578],[-42.2796,-22.2578]]]}},{"type":"Feature","properties":{"cod_tema":"RIO_ATE_10","cod_imovel":"RJ-3300506-EC756D29405D458CAE3C00715148C2C2","ind_status":"AT"},"geometry":{"type":"Polygon","coordinates":[[[-42.3355,-22.2193],[-42.3308,-22.2207],[-42.3358,-22.2192],[-42.3355,-22.2193]]]}},{"type":"Feature","properties":{"cod_tema":"RIO_ATE_10","cod_imovel":"RJ-3300506-DA1F4C3206BE431E985979607EB16F32","ind_status":"AT"},"geometry":{"type":"Polygon","coordinates":[[[-42.3879,-22.2379],[-42.3883,-22.2339],[-42.3877,-22.2379],[-42.3879,-22.2379]]]}},{"type":"Feature","properties":{"cod_tema":"RIO_ATE_10","cod_imovel":"RJ-3300506-C0BAD2F03E4D4FC398D0175A27EEAA72","ind_status":"AT"},"geometry":{"type":"Polygon","coordinates":[[[-42.2838,-22.2308],[-42.2807,-22.2301],[-42.2839,-22.2308],[-42.2838,-22.2308]]]}},{"type":"Feature","properties":{"cod_tema":"RIO_ATE_10","cod_imovel":"RJ-3300506-69A155184DCC4141BBDD0095D344A50B","ind_status":"AT"},"geometry":{"type":"Polygon","coordinates":[[[-42.3386,-22.2699],[-42.3447,-22.272],[-42.3384,-22.2699],[-42.3386,-22.2699]]]}},{"type":"Feature","properties":{"cod_tema":"RIO_ATE_10","cod_imovel":"RJ-3300506-4A58A96C8EE74DED80533753A9F5E587","ind_status":"AT"},"geometry":{"type":"Polygon","coordinates":[[[-42.3199,-22.2576],[-42.32,-22.2606],[-42.32,-22.2573],[-42.3199,-22.2576]]]}},{"type":"Feature","properties":{"cod_tema":"RIO_ATE_10","cod_imovel":"RJ-3300506-EE3A97F190DC435E99278FF0E82DDBC7","ind_status":"AT"},"geometry":{"type":"Polygon","coordinates":[[[-42.3197,-22.2123],[-42.3224,-22.2145],[-42.3196,-22.2122],[-42.3197,-22.2123]]]}},{"type":"Feature","properties":{"cod_tema":"RIO_ATE_10","cod_imovel":"RJ-3300506-B3124ED1B6C94528B00082D5D83969DE","ind_status":"AT"},"geometry":{"type":"Polygon","coordinates":[[[-42.4658,-22.2268],[-42.4594,-22.2252],[-42.4663,-22.2265],[-42.4658,-22.2268]]]}},{"type":"Feature","properties":{"cod_tema":"RIO_ATE_10","cod_imovel":"RJ-3300506-ABE281EEF03D433EA6B68714C7A0E926","ind_status":"AT"},"geometry":{"type":"Polygon","coordinates":[[[-42.2791,-22.2499],[-42.2726,-22.25],[-42.2789,-22.2495],[-42.2794,-22.2543],[-42.2791,-22.25],[-42.2791,-22.2499]]]}},{"type":"Feature","properties":{"cod_tema":"RIO_ATE_10","cod_imovel":"RJ-3300506-D916D815514D497993373DB6D23C4B9E","ind_status":"AT"},"geometry":{"type":"Polygon","coordinates":[[[-42.3585,-22.1563],[-42.3571,-22.1591],[-42.359,-22.1558],[-42.3585,-22.1563]]]}},{"type":"Feature","properties":{"cod_tema":"RIO_ATE_10","cod_imovel":"RJ-3300506-C2CAE9013E12404F83A75E2ADC392353","ind_status":"AT"},"geometry":{"type":"Polygon","coordinates":[[[-42.36,-22.1526],[-42.3582,-22.1502],[-42.3604,-22.1529],[-42.36,-22.1526]]]}},{"type":"Feature","properties":{"cod_tema":"RIO_ATE_10","cod_imovel":"RJ-3300506-2892FE02CEB94546AA4BB61111EF81CE","ind_status":"AT"},"geometry":{"type":"Polygon","coordinates":[[[-42.3309,-22.2318],[-42.3226,-22.2359],[-42.3308,-22.2319],[-42.3309,-22.2318]]]}},{"type":"Feature","properties":{"cod_tema":"RIO_ATE_10","cod_imovel":"RJ-3300506-B49DA6D4DBD2450C965DE3414A6BF4F8","ind_status":"AT"},"geometry":{"type":"Polygon","coordinates":[[[-42.3301,-22.21],[-42.3235,-22.215],[-42.3303,-22.2096],[-42.3301,-22.21]]]}},{"type":"Feature","properties":{"cod_tema":"RIO_ATE_10","cod_imovel":"RJ-3300506-0816AE5B72174EF3B2F941B1A795ABEE","ind_status":"AT"},"geometry":{"type":"Polygon","coordinates":[[[-42.4471,-22.1792],[-42.4431,-22.1784],[-42.4471,-22.1792],[-42.4471,-22.1792]]]}},{"type":"Feature","properties":{"cod_tema":"RIO_ATE_10","cod_imovel":"RJ-3300506-D73F25B4463F4EF48DE55B5657587501","ind_status":"AT"},"geometry":{"type":"Polygon","coordinates":[[[-42.3287,-22.1481],[-42.3248,-22.1494],[-42.3291,-22.1479],[-42.3287,-22.1481]]]}},{"type":"Feature","properties":{"cod_tema":"RIO_ATE_10","cod_imovel":"RJ-3300506-D179FEAF1CC646429BA4F8EF7184A939","ind_status":"AT"},"geometry":{"type":"Polygon","coordinates":[[[-42.5059,-22.1558],[-42.5053,-22.1526],[-42.5064,-22.1557],[-42.5059,-22.1558]]]}},{"type":"Feature","properties":{"cod_tema":"RIO_ATE_10","cod_imovel":"RJ-3300506-6C80D2B408C84678984B32EF8DAD698A","ind_status":"AT"},"geometry":{"type":"Polygon","coordinates":[[[-42.3588,-22.2207],[-42.3495,-22.2236],[-42.3586,-22.2187],[-42.3588,-22.2207]]]}},{"type":"Feature","properties":{"cod_tema":"RIO_ATE_10","cod_imovel":"RJ-3300506-725A5EAC521443AF9E5E210027971BB5","ind_status":"AT"},"geometry":{"type":"Polygon","coordinates":[[[-42.4121,-22.1395],[-42.4069,-22.1398],[-42.4123,-22.1391],[-42.4121,-22.1395]]]}},{"type":"Feature","properties":{"cod_tema":"RIO_ATE_10","cod_imovel":"RJ-3300506-9199641D1A714D1894D8CD5803BBAFAB","ind_status":"AT"},"geometry":{"type":"Polygon","coordinates":[[[-42.3831,-22.199],[-42.3787,-22.1981],[-42.3833,-22.199],[-42.3831,-22.199]]]}},{"type":"Feature","properties":{"cod_tema":"RIO_ATE_10","cod_imovel":"RJ-3300506-EFFFE8170B054981BAAB4F84EFF86767","ind_status":"AT"},"geometry":{"type":"Polygon","coordinates":[[[-42.3127,-22.1889],[-42.3116,-22.1925],[-42.3129,-22.1886],[-42.3127,-22.1889]],[[-42.3102,-22.1918],[-42.3058,-22.1896],[-42.31,-22.1919],[-42.3102,-22.1918]]]}},{"type":"Feature","properties":{"cod_tema":"RIO_ATE_10","cod_imovel":"RJ-3300506-B9906D9609FB44D7A598874F1C25B071","ind_status":"AT"},"geometry":{"type":"Polygon","coordinates":[[[-42.3696,-22.1995],[-42.3644,-22.2015],[-42.3696,-22.1995],[-42.3696,-22.1995]]]}},{"type":"Feature","properties":{"cod_tema":"RIO_ATE_10","cod_imovel":"RJ-3300506-F4C74AF90ED7447997E0413695F348E1","ind_status":"AT"},"geometry":{"type":"Polygon","coordinates":[[[-42.3881,-22.2298],[-42.3896,-22.2259],[-42.3879,-22.2298],[-42.3881,-22.2298]]]}},{"type":"Feature","properties":{"cod_tema":"RIO_ATE_10","cod_imovel":"RJ-3300506-3C2FFDD52D5B48638FF5BE9CEC6B76D2","ind_status":"AT"},"geometry":{"type":"Polygon","coordinates":[[[-42.3979,-22.2287],[-42.3919,-22.2273],[-42.3982,-22.2288],[-42.3979,-22.2287]]]}},{"type":"Feature","properties":{"cod_tema":"RIO_ATE_10","cod_imovel":"RJ-3300506-36B97B71EA344138950631F5F7057DEE","ind_status":"AT"},"geometry":{"type":"Polygon","coordinates":[[[-42.3696,-22.1992],[-42.3706,-22.1949],[-42.3693,-22.1993],[-42.3696,-22.1992]]]}},{"type":"Feature","properties":{"cod_tema":"RIO_ATE_10","cod_imovel":"RJ-3300506-86CD8B33BCBD433D83505374F724CAAB","ind_status":"AT"},"geometry":{"type":"Polygon","coordinates":[[[-42.3962,-22.1324],[-42.3994,-22.1333],[-42.3959,-22.1323],[-42.3962,-22.1324]]]}},{"type":"Feature","properties":{"cod_tema":"RIO_ATE_10","cod_imovel":"RJ-3300506-36D4528C111A40B5A5709F6B6EBE84CD","ind_status":"AT"},"geometry":{"type":"Polygon","coordinates":[[[-42.4153,-22.1828],[-42.4122,-22.1842],[-42.4152,-22.1828],[-42.4153,-22.1828]]]}},{"type":"Feature","properties":{"cod_tema":"RIO_ATE_10","cod_imovel":"RJ-3300506-CE480BFE9E0E49EE89747975020EC453","ind_status":"AT"},"geometry":{"type":"Polygon","coordinates":[[[-42.2904,-22.2632],[-42.2922,-22.2662],[-42.2907,-22.2625],[-42.2904,-22.2632]]]}},{"type":"Feature","properties":{"cod_tema":"RIO_ATE_10","cod_imovel":"RJ-3300506-A5D9482088FF4B85BAF34576430033D4","ind_status":"AT"},"geometry":{"type":"Polygon","coordinates":[[[-42.3728,-22.2602],[-42.3745,-22.2567],[-42.3724,-22.2607],[-42.3728,-22.2602]]]}},{"type":"Feature","properties":{"cod_tema":"RIO_ATE_10","cod_imovel":"RJ-3300506-E0D74B0103D244E59C864EB1E284A6DC","ind_status":"AT"},"geometry":{"type":"Polygon","coordinates":[[[-42.3774,-22.2326],[-42.3769,-22.2291],[-42.3775,-22.2328],[-42.3774,-22.2326]]]}},{"type":"Feature","properties":{"cod_tema":"RIO_ATE_10","cod_imovel":"RJ-3300506-8FF5F65D3A5E4666B4B5BBC232332F9E","ind_status":"AT"},"geometry":{"type":"Polygon","coordinates":[[[-42.2789,-22.2496],[-42.2807,-22.2468],[-42.2789,-22.2498],[-42.2789,-22.2496]]]}},{"type":"Feature","properties":{"cod_tema":"RIO_ATE_10","cod_imovel":"RJ-3300506-E0C2AD6602524982A0413A0F4A934716","ind_status":"AT"},"geometry":{"type":"Polygon","coordinates":[[[-42.3004,-22.2112],[-42.3026,-22.2091],[-42.3004,-22.2113],[-42.3004,-22.2112]]]}},{"type":"Feature","properties":{"cod_tema":"RIO_ATE_10","cod_imovel":"RJ-3300506-31EBBF2CEA2948AD9C4AE1C5E7E972E4","ind_status":"AT"},"geometry":{"type":"Polygon","coordinates":[[[-42.3716,-22.1665],[-42.3644,-22.1599],[-42.3713,-22.1665],[-42.3716,-22.1665]],[[-42.3605,-22.1662],[-42.3648,-22.1607],[-42.3604,-22.1666],[-42.3605,-22.1662]]]}},{"type":"Feature","properties":{"cod_tema":"RIO_10_A_50","cod_imovel":"RJ-3300506-978AF0069419441D8867CD6B9DD8AE04","ind_status":"AT"},"geometry":{"type":"Polygon","coordinates":[[[-42.4619,-22.1739],[-42.4675,-22.176],[-42.4625,-22.1743],[-42.4619,-22.1739]]]}},{"type":"Feature","properties":{"cod_tema":"RIO_10_A_50","cod_imovel":"RJ-3300506-4C864BDC9B2844DD9E8C1D97E2303181","ind_status":"AT"},"geometry":{"type":"Polygon","coordinates":[[[-42.4353,-22.1588],[-42.4295,-22.1611],[-42.4354,-22.1591],[-42.4353,-22.1588]]]}},{"type":"Feature","properties":{"cod_tema":"RIO_ATE_10","cod_imovel":"RJ-3300506-E26283D393084A4A8002AFFB9CBDB88D","ind_status":"AT"},"geometry":{"type":"Polygon","coordinates":[[[-42.3921,-22.2428],[-42.3896,-22.2406],[-42.3923,-22.2431],[-42.3921,-22.2428]]]}},{"type":"Feature","properties":{"cod_tema":"RIO_ATE_10","cod_imovel":"RJ-3300506-DE5AD20CD6C246DDBA703E1B5E5313F3","ind_status":"AT"},"geometry":{"type":"Polygon","coordinates":[[[-42.379,-22.1418],[-42.3736,-22.1379],[-42.3731,-22.1414],[-42.379,-22.1418],[-42.379,-22.1418]]]}},{"type":"Feature","properties":{"cod_tema":"RIO_10_A_50","cod_imovel":"RJ-3300506-ED439021E91E4BA9BAA06C6546CBA64F","ind_status":"AT"},"geometry":{"type":"Polygon","coordinates":[[[-42.3669,-22.1637],[-42.3716,-22.1665],[-42.3671,-22.1637],[-42.3669,-22.1637]]]}},{"type":"Feature","properties":{"cod_tema":"RIO_ATE_10","cod_imovel":"RJ-3300506-EA081F77E43B49D484F11B4D998B3CB9","ind_status":"AT"},"geometry":{"type":"Polygon","coordinates":[[[-42.3675,-22.2749],[-42.3676,-22.2705],[-42.3675,-22.2749],[-42.3675,-22.2749]]]}},{"type":"Feature","properties":{"cod_tema":"RIO_ATE_10","cod_imovel":"RJ-3300506-3423FC904AD24AD49DB6EC3F2A0E2F85","ind_status":"AT"},"geometry":{"type":"Polygon","coordinates":[[[-42.373,-22.2157],[-42.3791,-22.2126],[-42.374,-22.212],[-42.3732,-22.216],[-42.373,-22.2157]]]}},{"type":"Feature","properties":{"cod_tema":"RIO_10_A_50","cod_imovel":"RJ-3300506-F70FC698273F4BFDB158F967B4551868","ind_status":"AT"},"geometry":{"type":"Polygon","coordinates":[[[-42.3464,-22.1704],[-42.3408,-22.1711],[-42.3463,-22.1707],[-42.3464,-22.1704]]]}},{"type":"Feature","properties":{"cod_tema":"RIO_ATE_10","cod_imovel":"RJ-3300506-F436E2F8E9E54E658C01502B9E5165CB","ind_status":"AT"},"geometry":{"type":"Polygon","coordinates":[[[-42.4489,-22.1506],[-42.4485,-22.1537],[-42.4492,-22.1502],[-42.4489,-22.1506]]]}},{"type":"Feature","properties":{"cod_tema":"RIO_ATE_10","cod_imovel":"RJ-3300506-3B6354CD1EBF44B3947312C3C763F490","ind_status":"AT"},"geometry":{"type":"Polygon","coordinates":[[[-42.4484,-22.1538],[-42.4495,-22.157],[-42.4484,-22.1536],[-42.4484,-22.1538]]]}},{"type":"Feature","properties":{"cod_tema":"RIO_ATE_10","cod_imovel":"RJ-3300506-452CDD01BDC24A23B7F574BE3FD59980","ind_status":"AT"},"geometry":{"type":"Polygon","coordinates":[[[-42.4499,-22.158],[-42.4479,-22.1603],[-42.4501,-22.1579],[-42.4499,-22.158]]]}},{"type":"Feature","properties":{"cod_tema":"RIO_ATE_10","cod_imovel":"RJ-3300506-0DC68C5E910C4BEEB684303E809BBC10","ind_status":"AT"},"geometry":{"type":"Polygon","coordinates":[[[-42.279,-22.2497],[-42.2808,-22.2467],[-42.2788,-22.2501],[-42.279,-22.2497]]]}},{"type":"Feature","properties":{"cod_tema":"RIO_ATE_10","cod_imovel":"RJ-3300506-148C07D4E5FC43359563D9CD84CCE417","ind_status":"AT"},"geometry":{"type":"Polygon","coordinates":[[[-42.2963,-22.1323],[-42.2889,-22.1318],[-42.2967,-22.1325],[-42.2963,-22.1323]]]}},{"type":"Feature","properties":{"cod_tema":"RIO_ATE_10","cod_imovel":"RJ-3300506-07EC0E07A72849C6BA669A4008A566A9","ind_status":"AT"},"geometry":{"type":"Polygon","coordinates":[[[-42.3815,-22.134],[-42.3741,-22.1282],[-42.3821,-22.134],[-42.3815,-22.134]]]}},{"type":"Feature","properties":{"cod_tema":"RESERVATORIO_ARTIFICIAL_DECORRENTE_BARRAMENTO","cod_imovel":"RJ-3300506-5D80EBE8CF3045BA8693F6797BDF8020","ind_status":"AT"},"geometry":{"type":"Polygon","coordinates":[[[-42.3505,-22.1384],[-42.3453,-22.1468],[-42.3548,-22.1477],[-42.345,-22.1503],[-42.3518,-22.153],[-42.3467,-22.1588],[-42.3502,-22.1624],[-42.3636,-22.1596],[-42.3692,-22.166],[-42.3637,-22.1588],[-42.3514,-22.1606],[-42.3529,-22.1509],[-42.3588,-22.15],[-42.3548,-22.1434],[-42.348,-22.1445],[-42.3529,-22.1394],[-42.3505,-22.1384]],[[-42.3518,-22.1416],[-42.3477,-22.1447],[-42.3546,-22.1437],[-42.3585,-22.1497],[-42.3525,-22.1508],[-42.3512,-22.1608],[-42.3637,-22.1591],[-42.369,-22.1658],[-42.3637,-22.1594],[-42.3503,-22.1621],[-42.3469,-22.1586],[-42.3521,-22.153],[-42.3451,-22.1503],[-42.3551,-22.1477],[-42.3453,-22.144],[-42.3519,-22.1415],[-42.3518,-22.1416]]]}},{"type":"Feature","properties":{"cod_tema":"RIO_ATE_10","cod_imovel":"RJ-3300506-E5CAD677EE1A4F7C89F4AECDC7CC024C","ind_status":"AT"},"geometry":{"type":"Polygon","coordinates":[[[-42.3706,-22.1175],[-42.3653,-22.117],[-42.371,-22.1174],[-42.3706,-22.1175]]]}},{"type":"Feature","properties":{"cod_tema":"RIO_ATE_10","cod_imovel":"RJ-3300506-129D2AB8B7A0446F9F8FE7D6D429FCC4","ind_status":"AT"},"geometry":{"type":"Polygon","coordinates":[[[-42.343,-22.2636],[-42.3501,-22.2688],[-42.343,-22.2615],[-42.343,-22.2636]]]}},{"type":"Feature","properties":{"cod_tema":"RIO_ATE_10","cod_imovel":"RJ-3300506-3B44D048669A42B7B7EE5ADC13748BF4","ind_status":"AT"},"geometry":{"type":"Polygon","coordinates":[[[-42.2508,-22.2246],[-42.2533,-22.2224],[-42.2502,-22.2247],[-42.2508,-22.2246]]]}},{"type":"Feature","properties":{"cod_tema":"RIO_ATE_10","cod_imovel":"RJ-3300506-3297ED9D263B47DFBF41C9E5E99F2A5E","ind_status":"AT"},"geometry":{"type":"Polygon","coordinates":[[[-42.4355,-22.2209],[-42.4322,-22.2251],[-42.4356,-22.2208],[-42.4355,-22.2209]]]}},{"type":"Feature","properties":{"cod_tema":"RIO_ATE_10","cod_imovel":"RJ-3300506-A76BF66311FE4AA5AF0844743BB452D0","ind_status":"AT"},"geometry":{"type":"Polygon","coordinates":[[[-42.2859,-22.1347],[-42.2892,-22.1321],[-42.2858,-22.135],[-42.2859,-22.1347]]]}},{"type":"Feature","properties":{"cod_tema":"RIO_ATE_10","cod_imovel":"RJ-3300506-A743DB6F2EB24A43BD72BDCF93B7D803","ind_status":"AT"},"geometry":{"type":"Polygon","coordinates":[[[-42.3161,-22.1482],[-42.322,-22.1486],[-42.3156,-22.1481],[-42.3161,-22.1482]]]}},{"type":"Feature","properties":{"cod_tema":"RIO_10_A_50","cod_imovel":"RJ-3300506-47EE7951147A4E33B32844BE50CE275D","ind_status":"AT"},"geometry":{"type":"Polygon","coordinates":[[[-42.371,-22.1664],[-42.3767,-22.1657],[-42.3731,-22.1704],[-42.3771,-22.1693],[-42.3768,-22.1654],[-42.3711,-22.1661],[-42.371,-22.1664]]]}},{"type":"Feature","properties":{"cod_tema":"RIO_ATE_10","cod_imovel":"RJ-3300506-B1322353D2AB484BBBA526FC37C09392","ind_status":"AT"},"geometry":{"type":"Polygon","coordinates":[[[-42.2863,-22.1341],[-42.289,-22.1319],[-42.2861,-22.1342],[-42.2863,-22.1341]]]}},{"type":"Feature","properties":{"cod_tema":"RIO_ATE_10","cod_imovel":"RJ-3300506-1B7C721F39AE4C45ADB8FC04FB43A049","ind_status":"AT"},"geometry":{"type":"Polygon","coordinates":[[[-42.2888,-22.1755],[-42.2911,-22.1787],[-42.2905,-22.1752],[-42.2888,-22.1755]]]}},{"type":"Feature","properties":{"cod_tema":"RIO_ATE_10","cod_imovel":"RJ-3300506-E01A209EE9FD4566B3B130F3ADDA6D6D","ind_status":"AT"},"geometry":{"type":"Polygon","coordinates":[[[-42.3357,-22.2188],[-42.3394,-22.2162],[-42.3352,-22.219],[-42.3357,-22.2188]]]}},{"type":"Feature","properties":{"cod_tema":"RIO_ATE_10","cod_imovel":"RJ-3300506-EF1F34D1FDD04844B3867AAA51B29912","ind_status":"AT"},"geometry":{"type":"Polygon","coordinates":[[[-42.3886,-22.1727],[-42.3885,-22.1674],[-42.3885,-22.1727],[-42.3886,-22.1727]]]}},{"type":"Feature","properties":{"cod_tema":"RIO_ATE_10","cod_imovel":"RJ-3300506-18C2CEFD07274790A4E589E12FA7D6F0","ind_status":"AT"},"geometry":{"type":"Polygon","coordinates":[[[-42.3093,-22.1233],[-42.3069,-22.1193],[-42.3061,-22.1261],[-42.2917,-22.1342],[-42.2884,-22.1215],[-42.2963,-22.1168],[-42.2934,-22.1135],[-42.3017,-22.1158],[-42.2885,-22.1131],[-42.2938,-22.1149],[-42.2873,-22.1267],[-42.2916,-22.1342],[-42.3093,-22.1233],[-42.3093,-22.1233]]]}},{"type":"Feature","properties":{"cod_tema":"RIO_ATE_10","cod_imovel":"RJ-3300506-632C4F6CD67F4F9382CE6D252E193D63","ind_status":"AT"},"geometry":{"type":"Polygon","coordinates":[[[-42.3071,-22.1251],[-42.2933,-22.1341],[-42.2891,-22.1319],[-42.2946,-22.1337],[-42.299,-22.1473],[-42.294,-22.1335],[-42.3071,-22.125],[-42.3071,-22.1251]],[[-42.306,-22.1376],[-42.3002,-22.1299],[-42.3035,-22.1332],[-42.3003,-22.139],[-42.3026,-22.1351],[-42.3033,-22.1409],[-42.3036,-22.1333],[-42.3061,-22.1386],[-42.306,-22.1376]],[[-42.3059,-22.1321],[-42.3018,-22.1293],[-42.3061,-22.132],[-42.3059,-22.1321]],[[-42.3104,-22.1422],[-42.3118,-22.1366],[-42.3068,-22.1316],[-42.3129,-22.1261],[-42.3068,-22.1316],[-42.3117,-22.1366],[-42.3105,-22.1425],[-42.3104,-22.1422]]]}},{"type":"Feature","properties":{"cod_tema":"RIO_ATE_10","cod_imovel":"RJ-3300506-5F83F7A343D2401F8EF380623E71F314","ind_status":"AT"},"geometry":{"type":"Polygon","coordinates":[[[-42.3397,-22.2087],[-42.3449,-22.21],[-42.3395,-22.2084],[-42.3397,-22.2087]]]}},{"type":"Feature","properties":{"cod_tema":"RIO_ATE_10","cod_imovel":"RJ-3300506-5E8DFD1197D84AF69CD86F2788C10BC2","ind_status":"AT"},"geometry":{"type":"Polygon","coordinates":[[[-42.4749,-22.1489],[-42.4649,-22.1528],[-42.4746,-22.148],[-42.4749,-22.1489]]]}},{"type":"Feature","properties":{"cod_tema":"RIO_ATE_10","cod_imovel":"RJ-3300506-6F878A28FBD744C682164D566D2213DA","ind_status":"AT"},"geometry":{"type":"Polygon","coordinates":[[[-42.3913,-22.1198],[-42.3891,-22.1173],[-42.3924,-22.1205],[-42.3913,-22.1198]]]}},{"type":"Feature","properties":{"cod_tema":"RIO_ATE_10","cod_imovel":"RJ-3300506-E9D2279775664C499E324CD396CB82C7","ind_status":"AT"},"geometry":{"type":"Polygon","coordinates":[[[-42.26,-22.2521],[-42.2549,-22.2546],[-42.26,-22.2521],[-42.26,-22.2521]]]}},{"type":"Feature","properties":{"cod_tema":"RIO_ATE_10","cod_imovel":"RJ-3300506-EEA42931402148E9A4E44FD4CD5A19B7","ind_status":"AT"},"geometry":{"type":"Polygon","coordinates":[[[-42.3765,-22.147],[-42.3788,-22.1438],[-42.3765,-22.1474],[-42.3765,-22.147]]]}},{"type":"Feature","properties":{"cod_tema":"RIO_ATE_10","cod_imovel":"RJ-3300506-A76504C07CB14ED4B891B5D7EB8674DE","ind_status":"AT"},"geometry":{"type":"Polygon","coordinates":[[[-42.3681,-22.2494],[-42.364,-22.2584],[-42.3681,-22.2492],[-42.3681,-22.2494]]]}},{"type":"Feature","properties":{"cod_tema":"RIO_ATE_10","cod_imovel":"RJ-3300506-CB5F93AB0279461FBCF10B84D8629256","ind_status":"AT"},"geometry":{"type":"Polygon","coordinates":[[[-42.2906,-22.1806],[-42.29,-22.1741],[-42.2908,-22.1809],[-42.2906,-22.1806]]]}},{"type":"Feature","properties":{"cod_tema":"RIO_ATE_10","cod_imovel":"RJ-3300506-A8110C60560F4E579C11DA816177AFD6","ind_status":"AT"},"geometry":{"type":"Polygon","coordinates":[[[-42.4433,-22.2334],[-42.4463,-22.2342],[-42.4432,-22.2334],[-42.4433,-22.2334]]]}},{"type":"Feature","properties":{"cod_tema":"RIO_ATE_10","cod_imovel":"RJ-3300506-3923A785DAAC4C2B8004D6DDC8753439","ind_status":"AT"},"geometry":{"type":"Polygon","coordinates":[[[-42.4579,-22.1178],[-42.454,-22.1186],[-42.458,-22.1175],[-42.4579,-22.1178]]]}},{"type":"Feature","properties":{"cod_tema":"RIO_ATE_10","cod_imovel":"RJ-3300506-687AF73B31AE4AFAA4F4DE0ECDE0422F","ind_status":"AT"},"geometry":{"type":"Polygon","coordinates":[[[-42.4021,-22.2503],[-42.3982,-22.2476],[-42.4023,-22.2505],[-42.4021,-22.2503]]]}},{"type":"Feature","properties":{"cod_tema":"RIO_ATE_10","cod_imovel":"RJ-3300506-EDBB92FD6A2D4DA78CF736493BFF3B6A","ind_status":"CA"},"geometry":{"type":"Polygon","coordinates":[[[-42.4827,-22.1898],[-42.4802,-22.188],[-42.4831,-22.1908],[-42.4827,-22.1898]]]}},{"type":"Feature","properties":{"cod_tema":"RIO_ATE_10","cod_imovel":"RJ-3300506-E68170A6E44D4BC4B4CE39C971324192","ind_status":"AT"},"geometry":{"type":"Polygon","coordinates":[[[-42.2723,-22.2479],[-42.2774,-22.2469],[-42.2717,-22.2481],[-42.2723,-22.2479]]]}},{"type":"Feature","properties":{"cod_tema":"RIO_ATE_10","cod_imovel":"RJ-3300506-ABF1950C8ED445E79889558277C391B0","ind_status":"AT"},"geometry":{"type":"Polygon","coordinates":[[[-42.3942,-22.1518],[-42.391,-22.1506],[-42.3943,-22.1517],[-42.3942,-22.1518]]]}},{"type":"Feature","properties":{"cod_tema":"RIO_ATE_10","cod_imovel":"RJ-3300506-21AA252020374111B682561422FFB509","ind_status":"AT"},"geometry":{"type":"Polygon","coordinates":[[[-42.2903,-22.2672],[-42.2831,-22.2587],[-42.2766,-22.2702],[-42.2796,-22.265],[-42.2865,-22.2707],[-42.2796,-22.2652],[-42.284,-22.2602],[-42.2888,-22.271],[-42.2876,-22.2658],[-42.2908,-22.2675],[-42.2903,-22.2672]],[[-42.296,-22.2816],[-42.291,-22.2621],[-42.2959,-22.2822],[-42.296,-22.2816]]]}},{"type":"Feature","properties":{"cod_tema":"RIO_ATE_10","cod_imovel":"RJ-3300506-F858386503ED47A9809626D30A566127","ind_status":"AT"},"geometry":{"type":"Polygon","coordinates":[[[-42.4662,-22.1628],[-42.4638,-22.1583],[-42.4663,-22.1629],[-42.4662,-22.1628]]]}},{"type":"Feature","properties":{"cod_tema":"RIO_ATE_10","cod_imovel":"RJ-3300506-FE67FEC9419747EAAC2C8BC476CF922B","ind_status":"AT"},"geometry":{"type":"Polygon","coordinates":[[[-42.3119,-22.2146],[-42.3053,-22.2022],[-42.3005,-22.2022],[-42.3028,-22.2095],[-42.3041,-22.2055],[-42.3076,-22.2086],[-42.3089,-22.2177],[-42.3076,-22.2086],[-42.3119,-22.2149],[-42.3119,-22.2146]],[[-42.3104,-22.2314],[-42.3143,-22.2278],[-42.3165,-22.2328],[-42.3148,-22.2266],[-42.3102,-22.2317],[-42.3104,-22.2314]],[[-42.3109,-22.2233],[-42.314,-22.2266],[-42.3181,-22.2234],[-42.314,-22.2266],[-42.3108,-22.2232],[-42.3109,-22.2233]],[[-42.3198,-22.2299],[-42.3154,-22.2296],[-42.3201,-22.2298],[-42.3198,-22.2299]]]}},{"type":"Feature","properties":{"cod_tema":"RIO_ATE_10","cod_imovel":"RJ-3300506-4ACE024C6DF14D85BE715DFF63B9EA0E","ind_status":"AT"},"geometry":{"type":"Polygon","coordinates":[[[-42.3712,-22.1378],[-42.375,-22.1392],[-42.371,-22.1377],[-42.3712,-22.1378]]]}},{"type":"Feature","properties":{"cod_tema":"RIO_ATE_10","cod_imovel":"RJ-3300506-B2A89EC27A7F46B5B72F88D9DE0B2A7C","ind_status":"AT"},"geometry":{"type":"Polygon","coordinates":[[[-42.3033,-22.1542],[-42.307,-22.1495],[-42.3034,-22.1544],[-42.3033,-22.1542]]]}},{"type":"Feature","properties":{"cod_tema":"RIO_ATE_10","cod_imovel":"RJ-3300506-8131000E0F7B4B26BEC3E8C608B73F15","ind_status":"AT"},"geometry":{"type":"Polygon","coordinates":[[[-42.2927,-22.2424],[-42.2936,-22.2382],[-42.2927,-22.2425],[-42.2927,-22.2424]]]}},{"type":"Feature","properties":{"cod_tema":"RIO_ATE_10","cod_imovel":"RJ-3300506-DB8B4A8DB101451282A478A67703B196","ind_status":"AT"},"geometry":{"type":"Polygon","coordinates":[[[-42.3103,-22.2897],[-42.3094,-22.2935],[-42.3107,-22.2897],[-42.3103,-22.2897]]]}},{"type":"Feature","properties":{"cod_tema":"RIO_ATE_10","cod_imovel":"RJ-3300506-CF18434F46094F6B8E74A06673F6071E","ind_status":"AT"},"geometry":{"type":"Polygon","coordinates":[[[-42.3992,-22.2664],[-42.3998,-22.2629],[-42.3993,-22.2665],[-42.3992,-22.2664]]]}},{"type":"Feature","properties":{"cod_tema":"RIO_ATE_10","cod_imovel":"RJ-3300506-AA11AE4B21F042E2A9465812175F5D63","ind_status":"AT"},"geometry":{"type":"Polygon","coordinates":[[[-42.2928,-22.2356],[-42.2901,-22.234],[-42.2932,-22.2354],[-42.2928,-22.2356]]]}},{"type":"Feature","properties":{"cod_tema":"RIO_ATE_10","cod_imovel":"RJ-3300506-B90E81F413C24E36B0C98C28BE82BBC3","ind_status":"AT"},"geometry":{"type":"Polygon","coordinates":[[[-42.4147,-22.1308],[-42.4188,-22.1284],[-42.4146,-22.1309],[-42.4147,-22.1308]]]}},{"type":"Feature","properties":{"cod_tema":"RIO_ATE_10","cod_imovel":"RJ-3300506-62F7ABFE915143BD91E28D71F714F6C8","ind_status":"AT"},"geometry":{"type":"Polygon","coordinates":[[[-42.3681,-22.2494],[-42.364,-22.2584],[-42.3681,-22.2492],[-42.3681,-22.2494]]]}},{"type":"Feature","properties":{"cod_tema":"RIO_10_A_50","cod_imovel":"RJ-3300506-C89E4DADAD9B407A8791CCBEE48CBD9C","ind_status":"AT"},"geometry":{"type":"Polygon","coordinates":[[[-42.4772,-22.178],[-42.4761,-22.1833],[-42.4773,-22.1781],[-42.4772,-22.178]]]}},{"type":"Feature","properties":{"cod_tema":"RIO_ATE_10","cod_imovel":"RJ-3300506-96F8A2C4D16841F680EE980179A865CF","ind_status":"AT"},"geometry":{"type":"Polygon","coordinates":[[[-42.3931,-22.2498],[-42.3929,-22.2452],[-42.3928,-22.2505],[-42.3931,-22.2498]]]}},{"type":"Feature","properties":{"cod_tema":"RIO_ATE_10","cod_imovel":"RJ-3300506-845CCEAD8D00440697DE3F4EAF91E7F2","ind_status":"AT"},"geometry":{"type":"Polygon","coordinates":[[[-42.3529,-22.1923],[-42.3566,-22.1877],[-42.3566,-22.1939],[-42.3585,-22.1842],[-42.3526,-22.1926],[-42.3529,-22.1923]]]}},{"type":"Feature","properties":{"cod_tema":"RIO_ATE_10","cod_imovel":"RJ-3300506-C09ADA38D4FB4ECDB77DF9A48335B4FE","ind_status":"AT"},"geometry":{"type":"Polygon","coordinates":[[[-42.3785,-22.2438],[-42.3787,-22.236],[-42.3785,-22.2441],[-42.3785,-22.2438]]]}},{"type":"Feature","properties":{"cod_tema":"RIO_ATE_10","cod_imovel":"RJ-3300506-D2B67799BF82474FA6888F9AFAACFF39","ind_status":"AT"},"geometry":{"type":"Polygon","coordinates":[[[-42.3104,-22.2458],[-42.3083,-22.243],[-42.3106,-22.246],[-42.3104,-22.2458]]]}},{"type":"Feature","properties":{"cod_tema":"RIO_ATE_10","cod_imovel":"RJ-3300506-B5E8803ACDF6408CA75FE4BC6F45A8EE","ind_status":"AT"},"geometry":{"type":"Polygon","coordinates":[[[-42.3404,-22.2271],[-42.3431,-22.2163],[-42.3379,-22.2287],[-42.3404,-22.2271]]]}},{"type":"Feature","properties":{"cod_tema":"RIO_10_A_50","cod_imovel":"RJ-3300506-094494D6E53346B8B9FF9B05DA798D78","ind_status":"AT"},"geometry":{"type":"Polygon","coordinates":[[[-42.3063,-22.1264],[-42.31,-22.1227],[-42.3063,-22.1264],[-42.3063,-22.1264]]]}},{"type":"Feature","properties":{"cod_tema":"RIO_ATE_10","cod_imovel":"RJ-3300506-8BA8F98B329F4597BD1E21C41F3CA273","ind_status":"AT"},"geometry":{"type":"Polygon","coordinates":[[[-42.3891,-22.1239],[-42.3907,-22.12],[-42.3891,-22.1241],[-42.3891,-22.1239]]]}}]}