{"type":"FeatureCollection","features":[{"type":"Feature","properties":{"cod_tema":"RIO_ATE_10","cod_imovel":"RJ-3301306-4A2F27BC9CFE4E9F88A520A16494889F","ind_status":"AT"},"geometry":{"type":"Polygon","coordinates":[[[-42.0051,-22.4962],[-41.9975,-22.4958],[-42.0055,-22.4958],[-42.0051,-22.4962]],[[-42.013,-22.5061],[-42.0072,-22.5039],[-42.008,-22.4989],[-42.0071,-22.504],[-42.0137,-22.5064],[-42.013,-22.5061]]]}},{"type":"Feature","properties":{"cod_tema":"RIO_ATE_10","cod_imovel":"RJ-3301306-94CA5EA803FA43B9AAFF6BDA25B954D7","ind_status":"AT"},"geometry":{"type":"Polygon","coordinates":[[[-42.0616,-22.4815],[-42.0515,-22.4848],[-42.0587,-22.4787],[-42.0517,-22.4832],[-42.0507,-22.4743],[-42.0577,-22.4763],[-42.0532,-22.4737],[-42.0584,-22.4704],[-42.0507,-22.4743],[-42.0518,-22.4673],[-42.0501,-22.4724],[-42.0478,-22.4673],[-42.0499,-22.474],[-42.0426,-22.4673],[-42.0524,-22.4799],[-42.0496,-22.4873],[-42.0402,-22.4741],[-42.0496,-22.4873],[-42.0414,-22.4848],[-42.0416,-22.4795],[-42.0402,-22.485],[-42.0515,-22.4878],[-42.0573,-22.4945],[-42.0515,-22.4848],[-42.0613,-22.4865],[-42.0576,-22.4846],[-42.0618,-22.4815],[-42.0616,-22.4815]],[[-42.0421,-22.4944],[-42.0422,-22.49],[-42.0421,-22.4943],[-42.0421,-22.4944]],[[-42.0463,-22.4944],[-42.0451,-22.4915],[-42.0462,-22.4943],[-42.0463,-22.4944]],[[-42.0483,-22.4944],[-42.0476,-22.4911],[-42.0483,-22.4943],[-42.0483,-22.4944]],[[-42.0643,-22.4864],[-42.0655,-22.4822],[-42.0618,-22.4914],[-42.059,-22.4894],[-42.0614,-22.4945],[-42.0642,-22.4866],[-42.0643,-22.4864]],[[-42.061,-22.4712],[-42.0592,-22.4673],[-42.061,-22.4712],[-42.061,-22.4712]],[[-42.0748,-22.4845],[-42.0778,-22.4826],[-42.0734,-22.4848],[-42.0618,-22.4774],[-42.0712,-22.4813],[-42.0734,-22.4848],[-42.0686,-22.4871],[-42.0742,-22.4848],[-42.0748,-22.4845]],[[-42.066,-22.4945],[-42.0686,-22.4903],[-42.0659,-22.4941],[-42.066,-22.4945]],[[-42.0778,-22.4814],[-42.0676,-22.4673],[-42.0777,-22.4813],[-42.0778,-22.4814]],[[-42.0709,-22.4945],[-42.0691,-22.4893],[-42.0709,-22.4944],[-42.0709,-22.4945]],[[-42.0757,-22.4904],[-42.0708,-22.4891],[-42.0758,-22.4945],[-42.0758,-22.4905],[-42.0757,-22.4904]],[[-42.0778,-22.47],[-42.0752,-22.4676],[-42.0778,-22.47],[-42.0778,-22.47]]]}},{"type":"Feature","properties":{"cod_tema":"RIO_ATE_10","cod_imovel":"RJ-3301306-08F08F0B772F4B61867103C589CCF011","ind_status":"AT"},"geometry":{"type":"Polygon","coordinates":[[[-42.2132,-22.367],[-42.2051,-22.3715],[-42.2156,-22.3656],[-42.2201,-22.3679],[-42.2136,-22.367],[-42.2132,-22.367]],[[-42.237,-22.368],[-42.2374,-22.3619],[-42.2362,-22.3691],[-42.237,-22.368]],[[-42.2177,-22.3632],[-42.2162,-22.3606],[-42.219,-22.3632],[-42.2177,-22.3632]],[[-42.2346,-22.3654],[-42.2357,-22.3606],[-42.2343,-22.3683],[-42.2346,-22.3654]],[[-42.2249,-22.3667],[-42.2252,-22.3593],[-42.222,-22.3698],[-42.2249,-22.3667]],[[-42.2322,-22.3669],[-42.2347,-22.3603],[-42.2295,-22.3679],[-42.2322,-22.3669]]]}},{"type":"Feature","properties":{"cod_tema":"RIO_10_A_50","cod_imovel":"RJ-3301306-08F08F0B772F4B61867103C589CCF011","ind_status":"AT"},"geometry":{"type":"Polygon","coordinates":[[[-42.2388,-22.3618],[-42.2224,-22.3585],[-42.2256,-22.3517],[-42.2039,-22.3711],[-42.2095,-22.3724],[-42.2039,-22.3704],[-42.2064,-22.3662],[-42.2255,-22.3522],[-42.2224,-22.3589],[-42.2374,-22.3619],[-42.2388,-22.3618]]]}},{"type":"Feature","properties":{"cod_tema":"RIO_ATE_10","cod_imovel":"RJ-3301306-2056AF468E994C04B4CD2FEFC973783C","ind_status":"AT"},"geometry":{"type":"Polygon","coordinates":[[[-42.2528,-22.3884],[-42.2462,-22.388],[-42.2541,-22.3886],[-42.2528,-22.3884]]]}},{"type":"Feature","properties":{"cod_tema":"RIO_ATE_10","cod_imovel":"RJ-3301306-2A611165A9B343E1893938EEB67D34C6","ind_status":"AT"},"geometry":{"type":"Polygon","coordinates":[[[-42.1227,-22.4542],[-42.1124,-22.4635],[-42.1143,-22.453],[-42.1099,-22.4689],[-42.1206,-22.4637],[-42.1101,-22.4686],[-42.1226,-22.4543],[-42.1227,-22.4542]]]}},{"type":"Feature","properties":{"cod_tema":"RIO_ATE_10","cod_imovel":"RJ-3301306-2DD3D3B5494F4299B488A22D931AC46A","ind_status":"PE"},"geometry":{"type":"Polygon","coordinates":[[[-42.2158,-22.411],[-42.236,-22.4048],[-42.2154,-22.4104],[-42.2158,-22.411]],[[-42.207,-22.412],[-42.2126,-22.4074],[-42.2152,-22.4102],[-42.2126,-22.4073],[-42.2044,-22.4147],[-42.207,-22.412]]]}},{"type":"Feature","properties":{"cod_tema":"RIO_ATE_10","cod_imovel":"RJ-3301306-4A638DE801174D0191DD3756C7B690E1","ind_status":"AT"},"geometry":{"type":"Polygon","coordinates":[[[-42.0008,-22.5238],[-42.016,-22.5116],[-41.9966,-22.5254],[-42.0008,-22.5238]]]}},{"type":"Feature","properties":{"cod_tema":"RIO_ATE_10","cod_imovel":"RJ-3301306-4AACE4E681BF4E30915ADCFE19614410","ind_status":"AT"},"geometry":{"type":"Polygon","coordinates":[[[-42.2304,-22.4004],[-42.2343,-22.4028],[-42.23,-22.4003],[-42.2304,-22.4004]],[[-42.2349,-22.4055],[-42.2378,-22.4043],[-42.2209,-22.4112],[-42.2347,-22.4056],[-42.2349,-22.4055]]]}},{"type":"Feature","properties":{"cod_tema":"RIO_ATE_10","cod_imovel":"RJ-3301306-4C2D171481434162BD6E7FE2D5BBBDD5","ind_status":"AT"},"geometry":{"type":"Polygon","coordinates":[[[-42.2054,-22.435],[-42.2038,-22.4288],[-42.2054,-22.435],[-42.2054,-22.435]]]}},{"type":"Feature","properties":{"cod_tema":"RIO_ATE_10","cod_imovel":"RJ-3301306-7019C8E9E9CE4D5693EB3F0148F859EA","ind_status":"AT"},"geometry":{"type":"Polygon","coordinates":[[[-42.2271,-22.4244],[-42.2334,-22.4304],[-42.2245,-22.4209],[-42.2271,-22.4244]]]}},{"type":"Feature","properties":{"cod_tema":"RIO_ATE_10","cod_imovel":"RJ-3301306-7D69A4D5F18443DA8B13B643BFDFC061","ind_status":"AT"},"geometry":{"type":"Polygon","coordinates":[[[-42.2184,-22.3934],[-42.2153,-22.3925],[-42.2186,-22.3935],[-42.2184,-22.3934]]]}},{"type":"Feature","properties":{"cod_tema":"RIO_ATE_10","cod_imovel":"RJ-3301306-825E2042F93447E4882419D5E6AF5AA8","ind_status":"AT"},"geometry":{"type":"Polygon","coordinates":[[[-42.2421,-22.4319],[-42.2526,-22.4324],[-42.2419,-22.4317],[-42.2421,-22.4319]],[[-42.2423,-22.4306],[-42.2468,-22.4259],[-42.2419,-22.431],[-42.2423,-22.4306]]]}},{"type":"Feature","properties":{"cod_tema":"RIO_ATE_10","cod_imovel":"RJ-3301306-8A5863D6CFC5457F9B72039AD4500E4F","ind_status":"AT"},"geometry":{"type":"Polygon","coordinates":[[[-42.1422,-22.438],[-42.1381,-22.4325],[-42.1427,-22.4362],[-42.1401,-22.4416],[-42.1422,-22.438]],[[-42.1775,-22.4317],[-42.1739,-22.4262],[-42.1778,-22.4301],[-42.1742,-22.4323],[-42.1775,-22.4317]],[[-42.1556,-22.4369],[-42.1618,-22.429],[-42.1552,-22.4355],[-42.1593,-22.4392],[-42.1556,-22.4369]],[[-42.152,-22.4389],[-42.1467,-22.4375],[-42.1456,-22.4278],[-42.1467,-22.4375],[-42.1569,-22.4402],[-42.152,-22.4389]]]}},{"type":"Feature","properties":{"cod_tema":"RIO_10_A_50","cod_imovel":"RJ-3301306-8A5863D6CFC5457F9B72039AD4500E4F","ind_status":"AT"},"geometry":{"type":"Polygon","coordinates":[[[-42.1822,-22.4327],[-42.1713,-22.4214],[-42.1618,-22.4281],[-42.1618,-22.4228],[-42.1517,-22.4207],[-42.1486,-22.427],[-42.1414,-22.4255],[-42.1487,-22.4275],[-42.1526,-22.4214],[-42.1612,-22.423],[-42.1618,-22.4284],[-42.1709,-22.422],[-42.1812,-22.4312],[-42.1822,-22.4327]]]}},{"type":"Feature","properties":{"cod_tema":"RIO_ATE_10","cod_imovel":"RJ-3301306-9F826E1AA6C44D9386F91FF16BDD32B4","ind_status":"PE"},"geometry":{"type":"Polygon","coordinates":[[[-42.2266,-22.3641],[-42.2255,-22.358],[-42.2254,-22.3668],[-42.2268,-22.3642],[-42.2266,-22.3641]]]}},{"type":"Feature","properties":{"cod_tema":"RIO_ATE_10","cod_imovel":"RJ-3301306-CE6FD89395154F78B2B08163082F846D","ind_status":"AT"},"geometry":{"type":"Polygon","coordinates":[[[-42.2469,-22.3991],[-42.2489,-22.4019],[-42.2467,-22.3989],[-42.2469,-22.3991]]]}},{"type":"Feature","properties":{"cod_tema":"RIO_ATE_10","cod_imovel":"RJ-3301306-CAD128CD64674DF09C4208242A4721F5","ind_status":"AT"},"geometry":{"type":"Polygon","coordinates":[[[-42.2629,-22.3987],[-42.2475,-22.401],[-42.2637,-22.3995],[-42.2629,-22.3987]]]}},{"type":"Feature","properties":{"cod_tema":"RIO_10_A_50","cod_imovel":"RJ-3301306-CA6615EA2C3C4EDB8D3F020488B983C1","ind_status":"AT"},"geometry":{"type":"Polygon","coordinates":[[[-42.215,-22.3763],[-42.2088,-22.3722],[-42.2147,-22.3764],[-42.215,-22.3763]]]}},{"type":"Feature","properties":{"cod_tema":"RIO_ATE_10","cod_imovel":"RJ-3301306-E39C809FE12D435A9AF0348260A8F250","ind_status":"AT"},"geometry":{"type":"Polygon","coordinates":[[[-42.2529,-22.3948],[-42.2496,-22.3961],[-42.2533,-22.3954],[-42.2529,-22.3948]],[[-42.2544,-22.4002],[-42.2514,-22.4011],[-42.2546,-22.4],[-42.2544,-22.4002]]]}},{"type":"Feature","properties":{"cod_tema":"RIO_10_A_50","cod_imovel":"RJ-3301306-E438A8688255402282164C4CF7E7A3BF","ind_status":"AT"},"geometry":{"type":"Polygon","coordinates":[[[-42.215,-22.3763],[-42.2088,-22.3722],[-42.2147,-22.3764],[-42.215,-22.3763]]]}},{"type":"Feature","properties":{"cod_tema":"RIO_ATE_10","cod_imovel":"RJ-3301306-EF780FA3C9B34040A8277340AE6FB82A","ind_status":"AT"},"geometry":{"type":"Polygon","coordinates":[[[-42.2198,-22.3858],[-42.216,-22.3857],[-42.22,-22.3859],[-42.2198,-22.3858]]]}},{"type":"Feature","properties":{"cod_tema":"RIO_ATE_10","cod_imovel":"RJ-3301306-35C401856C1D49E58B1BC91A60A66843","ind_status":"AT"},"geometry":{"type":"Polygon","coordinates":[[[-42.1842,-22.482],[-42.1801,-22.4822],[-42.1906,-22.4832],[-42.1842,-22.482],[-42.1842,-22.482]]]}},{"type":"Feature","properties":{"cod_tema":"RIO_ATE_10","cod_imovel":"RJ-3301306-266328EAC31E46E09E57525A54118285","ind_status":"AT"},"geometry":{"type":"Polygon","coordinates":[[[-42.2493,-22.4565],[-42.2578,-22.4542],[-42.2506,-22.4408],[-42.2471,-22.4412],[-42.2552,-22.4495],[-42.254,-22.4524],[-42.2485,-22.4487],[-42.2565,-22.454],[-42.2473,-22.4498],[-42.244,-22.4528],[-42.2465,-22.4467],[-42.2414,-22.4523],[-42.2439,-22.4449],[-42.2404,-22.4549],[-42.2464,-22.4525],[-42.2454,-22.4562],[-42.2473,-22.453],[-42.2494,-22.4563],[-42.2493,-22.4565]]]}},{"type":"Feature","properties":{"cod_tema":"RIO_ATE_10","cod_imovel":"RJ-3301306-4A35BA36E887429A9A7A56092A71BD82","ind_status":"AT"},"geometry":{"type":"Polygon","coordinates":[[[-42.2289,-22.4513],[-42.228,-22.4563],[-42.229,-22.4526],[-42.2289,-22.4513]]]}},{"type":"Feature","properties":{"cod_tema":"RIO_ATE_10","cod_imovel":"RJ-3301306-DABFB53C8B53438CB63C4176ED2508F6","ind_status":"AT"},"geometry":{"type":"Polygon","coordinates":[[[-42.2512,-22.4171],[-42.2352,-22.4038],[-42.2537,-22.4174],[-42.2512,-22.4171]]]}},{"type":"Feature","properties":{"cod_tema":"RIO_ATE_10","cod_imovel":"RJ-3301306-A4F64BFB7A0B4F13984BC4C4CC99C404","ind_status":"PE"},"geometry":{"type":"Polygon","coordinates":[[[-42.1968,-22.4908],[-42.1964,-22.4846],[-42.1934,-22.4832],[-42.1961,-22.4884],[-42.1895,-22.4831],[-42.197,-22.4911],[-42.1968,-22.4908]]]}},{"type":"Feature","properties":{"cod_tema":"RIO_ATE_10","cod_imovel":"RJ-3301306-24863450AEC34FB091ABE7CB1A3A3A86","ind_status":"AT"},"geometry":{"type":"Polygon","coordinates":[[[-42.1966,-22.5008],[-42.1978,-22.5099],[-42.1779,-22.5072],[-42.1978,-22.5099],[-42.199,-22.5183],[-42.1965,-22.5006],[-42.1764,-22.4959],[-42.1965,-22.5006],[-42.1966,-22.5008]]]}},{"type":"Feature","properties":{"cod_tema":"RIO_ATE_10","cod_imovel":"RJ-3301306-117FC0CC524F4CFA9A2E74F93169C509","ind_status":"AT"},"geometry":{"type":"Polygon","coordinates":[[[-42.1774,-22.4784],[-42.179,-22.4747],[-42.1774,-22.4784],[-42.1774,-22.4784]]]}},{"type":"Feature","properties":{"cod_tema":"RIO_ATE_10","cod_imovel":"RJ-3301306-015125A870D444F3A42F042566392C02","ind_status":"AT"},"geometry":{"type":"Polygon","coordinates":[[[-42.0917,-22.4462],[-42.1041,-22.4424],[-42.091,-22.4469],[-42.0917,-22.4462]]]}},{"type":"Feature","properties":{"cod_tema":"RIO_ATE_10","cod_imovel":"RJ-3301306-015125A870D444F3A42F042566392C02","ind_status":"AT"},"geometry":{"type":"Polygon","coordinates":[[[-42.0909,-22.4452],[-42.087,-22.4471],[-42.0911,-22.4449],[-42.0909,-22.4452]]]}},{"type":"Feature","properties":{"cod_tema":"RIO_ATE_10","cod_imovel":"RJ-3301306-015125A870D444F3A42F042566392C02","ind_status":"AT"},"geometry":{"type":"Polygon","coordinates":[[[-42.0909,-22.4452],[-42.087,-22.4471],[-42.0911,-22.4449],[-42.0909,-22.4452]]]}},{"type":"Feature","properties":{"cod_tema":"RIO_ATE_10","cod_imovel":"RJ-3301306-383D5157B80545DAB2052F78D76F7B27","ind_status":"AT"},"geometry":{"type":"Polygon","coordinates":[[[-42.0887,-22.4911],[-42.0908,-22.4814],[-42.1043,-22.4768],[-42.1091,-22.4696],[-42.1043,-22.4767],[-42.0907,-22.4814],[-42.0886,-22.4913],[-42.0887,-22.4911]]]}},{"type":"Feature","properties":{"cod_tema":"RIO_ATE_10","cod_imovel":"RJ-3301306-7C9E7A12C98C4E10BC427EE3860ECA20","ind_status":"AT"},"geometry":{"type":"Polygon","coordinates":[[[-42.1866,-22.4467],[-42.1808,-22.4456],[-42.1868,-22.447],[-42.1866,-22.4467]]]}},{"type":"Feature","properties":{"cod_tema":"RIO_ATE_10","cod_imovel":"RJ-3301306-86BBB72C438D40CF81E0AF4C51720C4C","ind_status":"AT"},"geometry":{"type":"Polygon","coordinates":[[[-42.1416,-22.4149],[-42.1363,-22.4163],[-42.1487,-22.4141],[-42.1416,-22.4149]],[[-42.1427,-22.412],[-42.1379,-22.4129],[-42.1398,-22.405],[-42.1377,-22.413],[-42.1449,-22.41],[-42.1427,-22.412]],[[-42.1323,-22.4254],[-42.1307,-22.4212],[-42.1337,-22.4286],[-42.1323,-22.4254]],[[-42.1376,-22.4092],[-42.1362,-22.4123],[-42.1362,-22.4059],[-42.1376,-22.4092]]]}},{"type":"Feature","properties":{"cod_tema":"RIO_10_A_50","cod_imovel":"RJ-3301306-86BBB72C438D40CF81E0AF4C51720C4C","ind_status":"AT"},"geometry":{"type":"Polygon","coordinates":[[[-42.1511,-22.4212],[-42.1444,-22.4278],[-42.1336,-22.412],[-42.1439,-22.4279],[-42.1488,-22.4278],[-42.1513,-22.4214],[-42.1511,-22.4212]]]}},{"type":"Feature","properties":{"cod_tema":"RIO_ATE_10","cod_imovel":"RJ-3301306-A25ACD0DEA5644BC9AF7D8F4CBB66C29","ind_status":"AT"},"geometry":{"type":"Polygon","coordinates":[[[-42.1442,-22.4668],[-42.1363,-22.4649],[-42.1439,-22.4669],[-42.1442,-22.4668]],[[-42.1405,-22.4679],[-42.1439,-22.4668],[-42.1363,-22.4649],[-42.1439,-22.4668],[-42.1403,-22.468],[-42.1405,-22.4679]],[[-42.1406,-22.468],[-42.1459,-22.4667],[-42.1403,-22.4681],[-42.1406,-22.468]]]}},{"type":"Feature","properties":{"cod_tema":"RIO_ATE_10","cod_imovel":"RJ-3301306-8551A5FC8C6C4550A5116E4AFF248811","ind_status":"AT"},"geometry":{"type":"Polygon","coordinates":[[[-42.1326,-22.4781],[-42.1442,-22.4884],[-42.1321,-22.4779],[-42.1326,-22.4781]],[[-42.133,-22.4735],[-42.1436,-22.4791],[-42.1472,-22.4888],[-42.1437,-22.479],[-42.1326,-22.4733],[-42.133,-22.4735]],[[-42.185,-22.4492],[-42.1786,-22.452],[-42.1772,-22.4455],[-42.1785,-22.4521],[-42.1693,-22.4545],[-42.1699,-22.4459],[-42.1696,-22.4539],[-42.1625,-22.4527],[-42.1521,-22.4601],[-42.1544,-22.4525],[-42.1555,-22.4574],[-42.1434,-22.4534],[-42.1508,-22.448],[-42.1439,-22.4435],[-42.1491,-22.4719],[-42.139,-22.4498],[-42.14,-22.4424],[-42.1411,-22.4527],[-42.1336,-22.455],[-42.1417,-22.4556],[-42.1337,-22.4606],[-42.1438,-22.4655],[-42.1499,-22.4833],[-42.1512,-22.4756],[-42.1743,-22.4666],[-42.1587,-22.4754],[-42.1558,-22.4676],[-42.1772,-22.4619],[-42.1569,-22.4668],[-42.1857,-22.4534],[-42.1548,-22.4685],[-42.1491,-22.4672],[-42.1567,-22.458],[-42.176,-22.454],[-42.185,-22.4492]],[[-42.1569,-22.4579],[-42.1629,-22.4531],[-42.1627,-22.4583],[-42.1572,-22.4581],[-42.1569,-22.4579]],[[-42.1398,-22.4408],[-42.1404,-22.4357],[-42.1398,-22.4416],[-42.1398,-22.4408]],[[-42.156,-22.4436],[-42.147,-22.4343],[-42.1519,-22.4383],[-42.1474,-22.442],[-42.1519,-22.4384],[-42.1579,-22.4443],[-42.156,-22.4436]],[[-42.1722,-22.442],[-42.1655,-22.441],[-42.1699,-22.4374],[-42.1659,-22.4362],[-42.1654,-22.4409],[-42.1555,-22.4362],[-42.173,-22.4422],[-42.1722,-22.442]],[[-42.1644,-22.4811],[-42.159,-22.4852],[-42.1652,-22.4811],[-42.1644,-22.4811]],[[-42.1681,-22.4489],[-42.1666,-22.4456],[-42.1684,-22.4492],[-42.1681,-22.4489]],[[-42.1816,-22.4592],[-42.1808,-22.4689],[-42.1752,-22.4742],[-42.1758,-22.4683],[-42.1735,-22.4708],[-42.1757,-22.4821],[-42.1712,-22.4841],[-42.1758,-22.4821],[-42.1819,-22.4586],[-42.1816,-22.4592]],[[-42.1881,-22.4481],[-42.1858,-22.4387],[-42.179,-22.4378],[-42.1862,-22.4431],[-42.1793,-22.4448],[-42.1862,-22.4432],[-42.1893,-22.4489],[-42.1881,-22.4481]],[[-42.192,-22.4535],[-42.1838,-22.4571],[-42.1921,-22.4538],[-42.192,-22.4535]]]}},{"type":"Feature","properties":{"cod_tema":"RIO_ATE_10","cod_imovel":"RJ-3301306-FD7DD899F04A40EBB97013FD71B0F073","ind_status":"AT"},"geometry":{"type":"Polygon","coordinates":[[[-42.0997,-22.4583],[-42.0969,-22.4541],[-42.1007,-22.4606],[-42.098,-22.463],[-42.0961,-22.4556],[-42.0978,-22.4636],[-42.0923,-22.4659],[-42.0986,-22.4647],[-42.1001,-22.4576],[-42.0997,-22.4583]]]}},{"type":"Feature","properties":{"cod_tema":"RIO_ATE_10","cod_imovel":"RJ-3301306-05E57FA6BBB5414EB057618EFBA30CD6","ind_status":"AT"},"geometry":{"type":"Polygon","coordinates":[[[-42.089,-22.4555],[-42.0858,-22.4594],[-42.0782,-22.4555],[-42.08,-22.4655],[-42.089,-22.4555],[-42.089,-22.4555]],[[-42.0871,-22.4611],[-42.0815,-22.4657],[-42.0872,-22.4611],[-42.0871,-22.4611]]]}},{"type":"Feature","properties":{"cod_tema":"RIO_ATE_10","cod_imovel":"RJ-3301306-8A6A1032685F4C55B3D0C7A9D77532B7","ind_status":"CA"},"geometry":{"type":"Polygon","coordinates":[[[-42.1989,-22.4388],[-42.1994,-22.4305],[-42.1993,-22.4393],[-42.1989,-22.4388]]]}},{"type":"Feature","properties":{"cod_tema":"RIO_ATE_10","cod_imovel":"RJ-3301306-7BB659895DDE440194ED38E21C8AA516","ind_status":"CA"},"geometry":{"type":"Polygon","coordinates":[[[-42.2289,-22.4513],[-42.228,-22.4563],[-42.229,-22.4526],[-42.2289,-22.4513]]]}},{"type":"Feature","properties":{"cod_tema":"RIO_ATE_10","cod_imovel":"RJ-3301306-5DCAA5445D8740E5A8881076BCBDCE25","ind_status":"CA"},"geometry":{"type":"Polygon","coordinates":[[[-42.1326,-22.5088],[-42.1322,-22.5125],[-42.1326,-22.5088],[-42.1326,-22.5088]],[[-42.13,-22.5091],[-42.1342,-22.5159],[-42.13,-22.5091],[-42.13,-22.5091]]]}},{"type":"Feature","properties":{"cod_tema":"RIO_ATE_10","cod_imovel":"RJ-3301306-F190B193A2E7493E80E2609221AA045B","ind_status":"AT"},"geometry":{"type":"Polygon","coordinates":[[[-42.2133,-22.4347],[-42.2091,-22.4332],[-42.2134,-22.4348],[-42.2133,-22.4347]]]}},{"type":"Feature","properties":{"cod_tema":"RIO_ATE_10","cod_imovel":"RJ-3301306-F6C5DFB0FBA54E6DBFDA40FDD37680CB","ind_status":"CA"},"geometry":{"type":"Polygon","coordinates":[[[-42.1487,-22.5123],[-42.1432,-22.506],[-42.1487,-22.5124],[-42.1487,-22.5123]],[[-42.1376,-22.5121],[-42.1361,-22.5158],[-42.1375,-22.5122],[-42.1376,-22.5121]],[[-42.1326,-22.5088],[-42.1322,-22.5125],[-42.1326,-22.5088],[-42.1326,-22.5088]],[[-42.13,-22.5091],[-42.1342,-22.5159],[-42.13,-22.5091],[-42.13,-22.5091]]]}},{"type":"Feature","properties":{"cod_tema":"RIO_ATE_10","cod_imovel":"RJ-3301306-5B16F049AA0A44E580369A9F03EF1F54","ind_status":"CA"},"geometry":{"type":"Polygon","coordinates":[[[-42.1482,-22.5117],[-42.1432,-22.506],[-42.1482,-22.5118],[-42.1482,-22.5117]],[[-42.13,-22.5091],[-42.1323,-22.5144],[-42.13,-22.5091],[-42.13,-22.5091]],[[-42.1326,-22.5088],[-42.1322,-22.5125],[-42.1326,-22.5088],[-42.1326,-22.5088]]]}},{"type":"Feature","properties":{"cod_tema":"RIO_10_A_50","cod_imovel":"RJ-3301306-0FC0682ADBDE4C059291842F9D2F0E7E","ind_status":"AT"},"geometry":{"type":"Polygon","coordinates":[[[-42.2262,-22.3524],[-42.2207,-22.3537],[-42.2261,-22.3522],[-42.2262,-22.3524]]]}},{"type":"Feature","properties":{"cod_tema":"RIO_ATE_10","cod_imovel":"RJ-3301306-44EE55D0F1F1430EA7CF9335F7C66CE1","ind_status":"AT"},"geometry":{"type":"Polygon","coordinates":[[[-42.2275,-22.3736],[-42.219,-22.3748],[-42.228,-22.3734],[-42.2275,-22.3736]]]}},{"type":"Feature","properties":{"cod_tema":"RIO_ATE_10","cod_imovel":"RJ-3301306-6ADA64A4A826482398AF82CF9AE0260F","ind_status":"AT"},"geometry":{"type":"Polygon","coordinates":[[[-42.2312,-22.436],[-42.2315,-22.4303],[-42.2312,-22.4361],[-42.2312,-22.436]]]}},{"type":"Feature","properties":{"cod_tema":"RIO_ATE_10","cod_imovel":"RJ-3301306-0E909C318ACC4CBBAB3FE13CD397FD6C","ind_status":"PE"},"geometry":{"type":"Polygon","coordinates":[[[-42.0211,-22.4767],[-42.0209,-22.472],[-42.0129,-22.4753],[-42.0229,-22.4859],[-42.0175,-22.4759],[-42.0212,-22.4767],[-42.0211,-22.4767]],[[-42.0171,-22.4844],[-42.013,-22.4788],[-42.0171,-22.4844],[-42.0171,-22.4844]],[[-42.0142,-22.4929],[-42.0166,-22.495],[-42.0146,-22.4909],[-42.0185,-22.4892],[-42.0142,-22.4929],[-42.0142,-22.4929]],[[-42.0933,-22.5037],[-42.0851,-22.4982],[-42.0923,-22.4786],[-42.0875,-22.475],[-42.0795,-22.4799],[-42.071,-22.4749],[-42.0735,-22.4946],[-42.0691,-22.4893],[-42.0881,-22.5202],[-42.0662,-22.4948],[-42.0662,-22.4845],[-42.0515,-22.4849],[-42.0532,-22.4737],[-42.0329,-22.4754],[-42.0422,-22.4833],[-42.0294,-22.4798],[-42.0804,-22.511],[-42.088,-22.524],[-42.0816,-22.5372],[-42.0726,-22.5134],[-42.0451,-22.4915],[-42.0595,-22.5172],[-42.0297,-22.4874],[-42.0193,-22.4843],[-42.0232,-22.4937],[-42.0152,-22.497],[-42.0594,-22.5172],[-42.022,-22.5034],[-42.0354,-22.5182],[-42.0438,-22.5139],[-42.0418,-22.5268],[-42.0454,-22.5324],[-42.0592,-22.5312],[-42.0445,-22.5355],[-42.0658,-22.5281],[-42.0754,-22.5374],[-42.0696,-22.5456],[-42.0776,-22.544],[-42.0922,-22.5219],[-42.0933,-22.5037]],[[-42.0491,-22.5212],[-42.0462,-22.515],[-42.0529,-22.5157],[-42.05,-22.5214],[-42.0491,-22.5212]],[[-42.0536,-22.517],[-42.0615,-22.5252],[-42.05,-22.5214],[-42.0525,-22.5169],[-42.0536,-22.517]],[[-42.0616,-22.5253],[-42.0632,-22.5286],[-42.0582,-22.5295],[-42.0556,-22.5232],[-42.0616,-22.5253],[-42.0616,-22.5253]],[[-42.0599,-22.5418],[-42.0584,-22.5297],[-42.0601,-22.5369],[-42.0599,-22.5418]],[[-42.0652,-22.5317],[-42.0689,-22.5301],[-42.0652,-22.5317],[-42.0652,-22.5317]],[[-42.0659,-22.5281],[-42.0712,-22.5271],[-42.0675,-22.5292],[-42.0659,-22.5281]],[[-42.0708,-22.5324],[-42.0672,-22.5325],[-42.0708,-22.5324],[-42.0708,-22.5324]],[[-42.0781,-22.5424],[-42.0766,-22.5379],[-42.0816,-22.538],[-42.0781,-22.5424]],[[-42.0907,-22.5414],[-42.0776,-22.5438],[-42.084,-22.5356],[-42.0907,-22.5342],[-42.0909,-22.5377],[-42.0907,-22.5414]],[[-42.0821,-22.5061],[-42.0789,-22.5022],[-42.0821,-22.5059],[-42.0821,-22.5061]],[[-42.0852,-22.5331],[-42.0821,-22.5373],[-42.0791,-22.5336],[-42.0852,-22.5331],[-42.0852,-22.5331]],[[-42.0869,-22.4936],[-42.0818,-22.5001],[-42.0905,-22.4843],[-42.087,-22.4934],[-42.0869,-22.4936]],[[-42.0818,-22.5002],[-42.0849,-22.4985],[-42.0818,-22.5003],[-42.0818,-22.5002]],[[-42.0871,-22.5331],[-42.0906,-22.5342],[-42.084,-22.5355],[-42.0869,-22.5336],[-42.0871,-22.5331]],[[-42.0907,-22.5342],[-42.0872,-22.533],[-42.09,-22.5236],[-42.0911,-22.5345],[-42.0907,-22.5342]],[[-42.0227,-22.5145],[-42.0132,-22.5105],[-42.0166,-22.5121],[-42.0132,-22.5176],[-42.0227,-22.5146],[-42.0292,-22.5268],[-42.0227,-22.5146],[-42.0227,-22.5145]],[[-42.0142,-22.518],[-42.0197,-22.5151],[-42.0161,-22.5183],[-42.0142,-22.518]],[[-42.0154,-22.5167],[-42.0166,-22.5122],[-42.0162,-22.5168],[-42.0154,-22.5167]],[[-42.028,-22.5308],[-42.0133,-22.5279],[-42.0282,-22.5308],[-42.028,-22.5308]],[[-42.0166,-22.532],[-42.0133,-22.5318],[-42.0166,-22.532],[-42.0166,-22.532]],[[-42.0322,-22.5334],[-42.0271,-22.5395],[-42.0188,-22.5378],[-42.0254,-22.5334],[-42.0134,-22.5382],[-42.0196,-22.5379],[-42.0204,-22.5418],[-42.0219,-22.538],[-42.0255,-22.5449],[-42.0265,-22.5414],[-42.0319,-22.5458],[-42.0263,-22.5411],[-42.0354,-22.5381],[-42.0249,-22.5397],[-42.0322,-22.5333],[-42.0322,-22.5334]],[[-42.0225,-22.5435],[-42.0134,-22.5444],[-42.0225,-22.5435],[-42.0225,-22.5435]],[[-42.0252,-22.526],[-42.018,-22.5167],[-42.0252,-22.526],[-42.0252,-22.526]],[[-42.0252,-22.4733],[-42.024,-22.4796],[-42.0253,-22.4735],[-42.03,-22.4738],[-42.0253,-22.4734],[-42.0252,-22.4733]],[[-42.0501,-22.5472],[-42.0374,-22.5416],[-42.0501,-22.5472],[-42.0501,-22.5472]],[[-42.0933,-22.5132],[-42.0888,-22.5157],[-42.085,-22.507],[-42.0933,-22.505],[-42.0849,-22.5057],[-42.0933,-22.5041],[-42.0827,-22.5052],[-42.0876,-22.5171],[-42.0933,-22.5132],[-42.0933,-22.5132]],[[-42.0888,-22.5157],[-42.0829,-22.5075],[-42.0881,-22.5145],[-42.0888,-22.5157]],[[-42.0933,-22.5276],[-42.0911,-22.5409],[-42.0933,-22.5277],[-42.0933,-22.5276]]]}},{"type":"Feature","properties":{"cod_tema":"RIO_ATE_10","cod_imovel":"RJ-3301306-05122C90549D462596E87EE800DA0C19","ind_status":"AT"},"geometry":{"type":"Polygon","coordinates":[[[-42.2494,-22.4231],[-42.2369,-22.4313],[-42.2496,-22.4229],[-42.2494,-22.4231]]]}},{"type":"Feature","properties":{"cod_tema":"RIO_ATE_10","cod_imovel":"RJ-3301306-98933A5354FB44DFB43581308B2D0334","ind_status":"PE"},"geometry":{"type":"Polygon","coordinates":[[[-41.997,-22.4965],[-41.9962,-22.4996],[-41.9971,-22.4962],[-41.997,-22.4965]]]}},{"type":"Feature","properties":{"cod_tema":"RIO_10_A_50","cod_imovel":"RJ-3301306-6969F984CBC546659DB18CC03FBA4508","ind_status":"PE"},"geometry":{"type":"Polygon","coordinates":[[[-42.269,-22.4952],[-42.2676,-22.4983],[-42.2691,-22.4951],[-42.269,-22.4952]]]}},{"type":"Feature","properties":{"cod_tema":"RIO_ATE_10","cod_imovel":"RJ-3301306-FDFB4F7443C946B7A29C8B87DB0C61AF","ind_status":"PE"},"geometry":{"type":"Polygon","coordinates":[[[-42.2621,-22.3763],[-42.2473,-22.3798],[-42.2561,-22.3766],[-42.2573,-22.3856],[-42.2536,-22.3793],[-42.262,-22.3763],[-42.2579,-22.3824],[-42.2626,-22.382],[-42.261,-22.3876],[-42.262,-22.3763],[-42.2621,-22.3763]],[[-42.2519,-22.3751],[-42.2593,-22.372],[-42.2516,-22.3751],[-42.2519,-22.3751]],[[-42.2588,-22.3868],[-42.255,-22.3895],[-42.259,-22.3866],[-42.2588,-22.3868]],[[-42.2616,-22.3931],[-42.2601,-22.3998],[-42.2618,-22.3928],[-42.2616,-22.3931]],[[-42.2801,-22.3851],[-42.2734,-22.3834],[-42.2743,-22.3871],[-42.2611,-22.3895],[-42.2667,-22.3887],[-42.2631,-22.3929],[-42.2742,-22.3871],[-42.2699,-22.3922],[-42.2778,-22.3857],[-42.271,-22.3932],[-42.2801,-22.3851],[-42.2801,-22.3851]],[[-42.2666,-22.3975],[-42.2626,-22.3979],[-42.267,-22.3973],[-42.2666,-22.3975]],[[-42.264,-22.3866],[-42.2662,-22.3763],[-42.2641,-22.3869],[-42.264,-22.3866]],[[-42.2693,-22.3688],[-42.264,-22.3737],[-42.2694,-22.3687],[-42.2693,-22.3688]],[[-42.2683,-22.3823],[-42.2731,-22.3826],[-42.2669,-22.3764],[-42.2674,-22.3825],[-42.2683,-22.3823]],[[-42.2799,-22.4005],[-42.2765,-22.3921],[-42.2678,-22.3971],[-42.2752,-22.401],[-42.2686,-22.3968],[-42.2746,-22.3998],[-42.2721,-22.3953],[-42.2758,-22.3941],[-42.2798,-22.4009],[-42.2799,-22.4005]],[[-42.2713,-22.3711],[-42.2684,-22.3754],[-42.2713,-22.371],[-42.2713,-22.3711]],[[-42.2708,-22.4018],[-42.2751,-22.407],[-42.2708,-22.4015],[-42.2708,-22.4018]],[[-42.2772,-22.4025],[-42.2762,-22.4054],[-42.2776,-22.402],[-42.2772,-22.4025]],[[-42.2789,-22.4024],[-42.2832,-22.4043],[-42.2786,-22.4022],[-42.2789,-22.4024]],[[-42.2814,-22.4012],[-42.2862,-22.4],[-42.2811,-22.4014],[-42.2814,-22.4012]]]}},{"type":"Feature","properties":{"cod_tema":"RIO_10_A_50","cod_imovel":"RJ-3301306-FDFB4F7443C946B7A29C8B87DB0C61AF","ind_status":"PE"},"geometry":{"type":"Polygon","coordinates":[[[-42.259,-22.3718],[-42.2804,-22.3853],[-42.2764,-22.3791],[-42.2588,-22.3715],[-42.259,-22.3718]]]}},{"type":"Feature","properties":{"cod_tema":"RIO_ATE_10","cod_imovel":"RJ-3301306-E8B73FBD6C53436AAE1F0A80000B0FC7","ind_status":"PE"},"geometry":{"type":"Polygon","coordinates":[[[-42.1873,-22.5547],[-42.1796,-22.5498],[-42.1887,-22.5443],[-42.1712,-22.5489],[-42.1554,-22.546],[-42.1496,-22.5559],[-42.1412,-22.5484],[-42.1476,-22.5428],[-42.1404,-22.542],[-42.1459,-22.5327],[-42.1671,-22.5278],[-42.1739,-22.5191],[-42.1709,-22.5108],[-42.1742,-22.5174],[-42.1698,-22.5154],[-42.1664,-22.5284],[-42.1459,-22.5326],[-42.1623,-22.513],[-42.1582,-22.5114],[-42.1776,-22.5072],[-42.1647,-22.5099],[-42.1711,-22.5039],[-42.1635,-22.5005],[-42.1656,-22.509],[-42.1625,-22.5057],[-42.1579,-22.5116],[-42.1567,-22.501],[-42.1579,-22.5116],[-42.1487,-22.5063],[-42.146,-22.5325],[-42.1404,-22.542],[-42.1478,-22.5418],[-42.1436,-22.5481],[-42.1525,-22.5563],[-42.1505,-22.549],[-42.1605,-22.5449],[-42.1783,-22.5476],[-42.1864,-22.5552],[-42.1873,-22.5547]]]}},{"type":"Feature","properties":{"cod_tema":"RIO_10_A_50","cod_imovel":"RJ-3301306-E8B73FBD6C53436AAE1F0A80000B0FC7","ind_status":"PE"},"geometry":{"type":"Polygon","coordinates":[[[-42.1808,-22.5552],[-42.1342,-22.5576],[-42.19,-22.557],[-42.1834,-22.5551],[-42.1808,-22.5552]]]}},{"type":"Feature","properties":{"cod_tema":"RIO_ATE_10","cod_imovel":"RJ-3301306-CCE8C9E902904A9BB2A65D15C26F08C4","ind_status":"CA"},"geometry":{"type":"Polygon","coordinates":[[[-42.06,-22.477],[-42.0693,-22.4806],[-42.0591,-22.4768],[-42.06,-22.477]],[[-42.0504,-22.4738],[-42.051,-22.4876],[-42.0537,-22.4821],[-42.0502,-22.4728],[-42.0504,-22.4738]]]}},{"type":"Feature","properties":{"cod_tema":"RIO_ATE_10","cod_imovel":"RJ-3301306-8B8F04A7678041E1BB9CA428C3655594","ind_status":"PE"},"geometry":{"type":"Polygon","coordinates":[[[-42.2506,-22.5196],[-42.2443,-22.5166],[-42.2425,-22.5203],[-42.2444,-22.5167],[-42.2509,-22.5199],[-42.2506,-22.5196]],[[-42.2456,-22.5113],[-42.24,-22.517],[-42.2338,-22.5162],[-42.24,-22.5171],[-42.2459,-22.5112],[-42.2456,-22.5113]]]}},{"type":"Feature","properties":{"cod_tema":"RIO_ATE_10","cod_imovel":"RJ-3301306-747ACA57D7E34B73A5B4723465DA3E89","ind_status":"PE"},"geometry":{"type":"Polygon","coordinates":[[[-42.2716,-22.4549],[-42.2748,-22.46],[-42.2711,-22.4532],[-42.2716,-22.4549]],[[-42.2608,-22.4576],[-42.2746,-22.4651],[-42.2593,-22.4564],[-42.2608,-22.4576]],[[-42.2735,-22.46],[-42.2766,-22.4657],[-42.2748,-22.4601],[-42.2735,-22.46]],[[-42.2789,-22.4558],[-42.2836,-22.4653],[-42.2765,-22.466],[-42.2828,-22.4693],[-42.2766,-22.466],[-42.2837,-22.4653],[-42.2782,-22.4533],[-42.2789,-22.4558]]]}},{"type":"Feature","properties":{"cod_tema":"RIO_ATE_10","cod_imovel":"RJ-3301306-A2C07289842B44D3AD08317A32315D87","ind_status":"AT"},"geometry":{"type":"Polygon","coordinates":[[[-42.2408,-22.448],[-42.239,-22.4512],[-42.2408,-22.4476],[-42.2408,-22.448]],[[-42.245,-22.4466],[-42.2415,-22.4516],[-42.2451,-22.4463],[-42.245,-22.4466]]]}},{"type":"Feature","properties":{"cod_tema":"RIO_ATE_10","cod_imovel":"RJ-3301306-9B448EA6BBD54D0792410DDD58EB7A55","ind_status":"AT"},"geometry":{"type":"Polygon","coordinates":[[[-42.1813,-22.4912],[-42.1766,-22.4897],[-42.1814,-22.4912],[-42.1813,-22.4912]]]}},{"type":"Feature","properties":{"cod_tema":"RIO_ATE_10","cod_imovel":"RJ-3301306-BC47130E377848C0B47C87F63CDF0F94","ind_status":"AT"},"geometry":{"type":"Polygon","coordinates":[[[-42.2838,-22.4193],[-42.2718,-22.4039],[-42.2744,-22.4067],[-42.2702,-22.4078],[-42.2803,-22.4116],[-42.2696,-22.4133],[-42.2764,-22.4114],[-42.2739,-22.4162],[-42.2804,-22.4117],[-42.2834,-22.4179],[-42.2784,-22.4201],[-42.2838,-22.4193],[-42.2838,-22.4193]]]}},{"type":"Feature","properties":{"cod_tema":"RIO_ATE_10","cod_imovel":"RJ-3301306-A1F1A0B4465248FA9C07C72727B31E02","ind_status":"AT"},"geometry":{"type":"Polygon","coordinates":[[[-42.2033,-22.5062],[-42.2011,-22.5136],[-42.2085,-22.5126],[-42.2106,-22.5185],[-42.2024,-22.5109],[-42.204,-22.5044],[-42.2033,-22.5062]]]}},{"type":"Feature","properties":{"cod_tema":"RIO_10_A_50","cod_imovel":"RJ-3301306-7009163EB55A47D6A705549725BBC8F5","ind_status":"AT"},"geometry":{"type":"Polygon","coordinates":[[[-42.2072,-22.3882],[-42.2101,-22.3815],[-42.2152,-22.3828],[-42.2097,-22.3811],[-42.207,-22.3877],[-42.2072,-22.3882]]]}},{"type":"Feature","properties":{"cod_tema":"RIO_ATE_10","cod_imovel":"RJ-3301306-C436685F010F4EBDA7BACBFC207A3E24","ind_status":"AT"},"geometry":{"type":"Polygon","coordinates":[[[-42.3038,-22.4587],[-42.2977,-22.4674],[-42.289,-22.4655],[-42.2844,-22.4773],[-42.2704,-22.4878],[-42.2845,-22.4773],[-42.289,-22.4656],[-42.2977,-22.4674],[-42.3038,-22.4589],[-42.3038,-22.4587]]]}},{"type":"Feature","properties":{"cod_tema":"RIO_ATE_10","cod_imovel":"RJ-3301306-39D696FA042C469ABCDD31439ABC4124","ind_status":"AT"},"geometry":{"type":"Polygon","coordinates":[[[-42.1088,-22.4999],[-42.1039,-22.502],[-42.1093,-22.4998],[-42.1088,-22.4999]]]}},{"type":"Feature","properties":{"cod_tema":"RIO_ATE_10","cod_imovel":"RJ-3301306-D9B3F407BC6B4797AEBF95ADE813DAB3","ind_status":"AT"},"geometry":{"type":"Polygon","coordinates":[[[-42.1495,-22.5003],[-42.1502,-22.495],[-42.1493,-22.5015],[-42.1495,-22.5003]]]}},{"type":"Feature","properties":{"cod_tema":"RIO_ATE_10","cod_imovel":"RJ-3301306-2C10D9DF2F784011B0C3A40941E74F3D","ind_status":"AT"},"geometry":{"type":"Polygon","coordinates":[[[-42.008,-22.5271],[-42.003,-22.5252],[-42.008,-22.5271],[-42.008,-22.5271]],[[-42.0124,-22.5223],[-42.0076,-22.5204],[-42.0124,-22.5223],[-42.0124,-22.5223]]]}},{"type":"Feature","properties":{"cod_tema":"RIO_ATE_10","cod_imovel":"RJ-3301306-8A2FD8E8E94A4D9F82BA427F1E8A94DC","ind_status":"AT"},"geometry":{"type":"Polygon","coordinates":[[[-42.2088,-22.4638],[-42.2045,-22.4718],[-42.2088,-22.4637],[-42.2088,-22.4638]]]}},{"type":"Feature","properties":{"cod_tema":"RIO_ATE_10","cod_imovel":"RJ-3301306-1D200C8079DC488F89D6C44364493AF1","ind_status":"AT"},"geometry":{"type":"Polygon","coordinates":[[[-42.0892,-22.4717],[-42.0877,-22.4746],[-42.0894,-22.4716],[-42.0892,-22.4717]]]}},{"type":"Feature","properties":{"cod_tema":"RIO_ATE_10","cod_imovel":"RJ-3301306-08A8754395504B7BAFE34F413C39223B","ind_status":"AT"},"geometry":{"type":"Polygon","coordinates":[[[-42.1207,-22.4637],[-42.1279,-22.4602],[-42.1206,-22.4636],[-42.1207,-22.4637]],[[-42.1138,-22.4669],[-42.1248,-22.469],[-42.1137,-22.4669],[-42.1138,-22.4669]]]}},{"type":"Feature","properties":{"cod_tema":"RIO_ATE_10","cod_imovel":"RJ-3301306-DDE737F9880B47DCADD7455F4B9AB3CD","ind_status":"AT"},"geometry":{"type":"Polygon","coordinates":[[[-42.0878,-22.4926],[-42.0788,-22.502],[-42.0838,-22.5036],[-42.0878,-22.4926],[-42.0878,-22.4926]]]}},{"type":"Feature","properties":{"cod_tema":"RIO_ATE_10","cod_imovel":"RJ-3301306-A6964612B1F64B04A9A4CA4D8E122155","ind_status":"AT"},"geometry":{"type":"Polygon","coordinates":[[[-42.0261,-22.4737],[-42.0221,-22.4721],[-42.0269,-22.4737],[-42.0261,-22.4737]]]}},{"type":"Feature","properties":{"cod_tema":"RIO_ATE_10","cod_imovel":"RJ-3301306-524A4CDDA4C24BBAA4B46D9545793A8E","ind_status":"AT"},"geometry":{"type":"Polygon","coordinates":[[[-42.2535,-22.475],[-42.2494,-22.4795],[-42.2535,-22.475],[-42.2535,-22.475]],[[-42.2473,-22.4749],[-42.2422,-22.4661],[-42.2477,-22.4773],[-42.2507,-22.4687],[-42.2571,-22.4656],[-42.2473,-22.4749],[-42.2473,-22.4749]],[[-42.2695,-22.4847],[-42.2662,-22.4781],[-42.2696,-22.4849],[-42.2695,-22.4847]]]}},{"type":"Feature","properties":{"cod_tema":"RIO_ATE_10","cod_imovel":"RJ-3301306-F403D3BC90B24CD0922E38EB9EDA6AAC","ind_status":"AT"},"geometry":{"type":"Polygon","coordinates":[[[-42.2297,-22.5055],[-42.223,-22.4993],[-42.2298,-22.5058],[-42.2297,-22.5055]]]}},{"type":"Feature","properties":{"cod_tema":"RIO_ATE_10","cod_imovel":"RJ-3301306-60E847FC57DB416C823D0C2D1D37A1E0","ind_status":"AT"},"geometry":{"type":"Polygon","coordinates":[[[-42.1506,-22.4919],[-42.151,-22.4798],[-42.1506,-22.492],[-42.1506,-22.4919]]]}},{"type":"Feature","properties":{"cod_tema":"RIO_ATE_10","cod_imovel":"RJ-3301306-E43DEAA9ABD44FC782693E359947A888","ind_status":"AT"},"geometry":{"type":"Polygon","coordinates":[[[-42.0127,-22.4932],[-42.0061,-22.4885],[-42.0127,-22.4932],[-42.0127,-22.4932]]]}},{"type":"Feature","properties":{"cod_tema":"RIO_ATE_10","cod_imovel":"RJ-3301306-3773D92772C54A049EE0B64436D8017A","ind_status":"PE"},"geometry":{"type":"Polygon","coordinates":[[[-42.1103,-22.5195],[-42.1069,-22.5166],[-42.1103,-22.5196],[-42.1103,-22.5195]],[[-42.1107,-22.5153],[-42.1096,-22.5115],[-42.1106,-22.5164],[-42.1121,-22.5128],[-42.1238,-22.5138],[-42.1264,-22.5088],[-42.1122,-22.5127],[-42.1251,-22.5048],[-42.1108,-22.5145],[-42.1107,-22.5153]]]}},{"type":"Feature","properties":{"cod_tema":"RIO_ATE_10","cod_imovel":"RJ-3301306-48F894A0456D4721B5C39876CC1332CB","ind_status":"PE"},"geometry":{"type":"Polygon","coordinates":[[[-42.0349,-22.4812],[-42.0415,-22.4849],[-42.0345,-22.4812],[-42.0349,-22.4812]]]}},{"type":"Feature","properties":{"cod_tema":"RIO_ATE_10","cod_imovel":"RJ-3301306-5A091F0CD25B4C68BCFB41674D0727C2","ind_status":"AT"},"geometry":{"type":"Polygon","coordinates":[[[-42.1291,-22.5069],[-42.1256,-22.5041],[-42.1291,-22.5069],[-42.1291,-22.5069]],[[-42.1343,-22.5158],[-42.1327,-22.5093],[-42.1325,-22.5144],[-42.1283,-22.5126],[-42.1332,-22.5149],[-42.1343,-22.5158]],[[-42.1491,-22.5155],[-42.1488,-22.5071],[-42.149,-22.5124],[-42.1427,-22.5031],[-42.1337,-22.5031],[-42.1429,-22.5033],[-42.1363,-22.5094],[-42.1372,-22.5049],[-42.1404,-22.5094],[-42.1384,-22.5053],[-42.1419,-22.5052],[-42.1465,-22.5098],[-42.1412,-22.5136],[-42.149,-22.5124],[-42.1427,-22.5157],[-42.1491,-22.5155],[-42.1491,-22.5155]],[[-42.1361,-22.516],[-42.1384,-22.5107],[-42.1361,-22.516],[-42.1361,-22.516]]]}},{"type":"Feature","properties":{"cod_tema":"RIO_ATE_10","cod_imovel":"RJ-3301306-85B14E21E61F492BA7A3646A22865A90","ind_status":"AT"},"geometry":{"type":"Polygon","coordinates":[[[-42.1964,-22.4651],[-42.199,-22.4672],[-42.196,-22.4647],[-42.1964,-22.4651]]]}},{"type":"Feature","properties":{"cod_tema":"RIO_ATE_10","cod_imovel":"RJ-3301306-2DD69711F79B46FAA2C47D510F12BB95","ind_status":"AT"},"geometry":{"type":"Polygon","coordinates":[[[-42.1006,-22.5027],[-42.107,-22.5006],[-42.1001,-22.5029],[-42.1006,-22.5027]]]}},{"type":"Feature","properties":{"cod_tema":"RIO_ATE_10","cod_imovel":"RJ-3301306-E43353C4C3D54B76892E4BE111107357","ind_status":"AT"},"geometry":{"type":"Polygon","coordinates":[[[-42.2453,-22.4017],[-42.2372,-22.4023],[-42.2454,-22.4017],[-42.2453,-22.4017]],[[-42.2435,-22.4059],[-42.239,-22.4076],[-42.2437,-22.4059],[-42.2435,-22.4059]]]}},{"type":"Feature","properties":{"cod_tema":"RIO_ATE_10","cod_imovel":"RJ-3301306-E22830E500D241A986308DA4BF493AE6","ind_status":"AT"},"geometry":{"type":"Polygon","coordinates":[[[-42.243,-22.4325],[-42.2549,-22.4316],[-42.243,-22.4324],[-42.243,-22.4325]]]}},{"type":"Feature","properties":{"cod_tema":"RIO_ATE_10","cod_imovel":"RJ-3301306-19D678EB4E1C499A9DE6B1C05C75B2CC","ind_status":"AT"},"geometry":{"type":"Polygon","coordinates":[[[-42.2177,-22.4513],[-42.2093,-22.45],[-42.2178,-22.4513],[-42.2177,-22.4513]]]}},{"type":"Feature","properties":{"cod_tema":"RIO_ATE_10","cod_imovel":"RJ-3301306-0A089BCCD0224105AADFD5A513BF2501","ind_status":"AT"},"geometry":{"type":"Polygon","coordinates":[[[-42.1163,-22.4365],[-42.1217,-22.4343],[-42.1138,-22.4369],[-42.1163,-22.4365]],[[-42.1224,-22.4344],[-42.1158,-22.4409],[-42.1288,-22.4342],[-42.115,-22.4308],[-42.1216,-22.4342],[-42.1224,-22.4344]]]}},{"type":"Feature","properties":{"cod_tema":"RIO_ATE_10","cod_imovel":"RJ-3301306-842FECEDDCEC4D27A4A3A3A00A8AAAF0","ind_status":"AT"},"geometry":{"type":"Polygon","coordinates":[[[-42.2278,-22.4373],[-42.2156,-22.4419],[-42.219,-22.4365],[-42.2237,-22.4377],[-42.219,-22.4365],[-42.222,-22.4335],[-42.2272,-22.4366],[-42.222,-22.4335],[-42.227,-22.4299],[-42.2197,-22.4349],[-42.2179,-22.4297],[-42.2196,-22.4352],[-42.2162,-22.4312],[-42.2184,-22.4372],[-42.2143,-22.4422],[-42.2281,-22.4371],[-42.2278,-22.4373]]]}},{"type":"Feature","properties":{"cod_tema":"RIO_10_A_50","cod_imovel":"RJ-3301306-930955C2B7E5458CAEB96B90A96A0901","ind_status":"AT"},"geometry":{"type":"Polygon","coordinates":[[[-42.2137,-22.3914],[-42.208,-22.3844],[-42.208,-22.3894],[-42.2137,-22.3914],[-42.2137,-22.3914]]]}},{"type":"Feature","properties":{"cod_tema":"RIO_ATE_10","cod_imovel":"RJ-3301306-D877A64B5F2C40D9B60935F11D71B4F8","ind_status":"AT"},"geometry":{"type":"Polygon","coordinates":[[[-42.2197,-22.3935],[-42.2154,-22.3925],[-42.2201,-22.3933],[-42.2197,-22.3935]]]}},{"type":"Feature","properties":{"cod_tema":"RIO_ATE_10","cod_imovel":"RJ-3301306-76517F7EF5EE400A8A171C18F423D1BD","ind_status":"AT"},"geometry":{"type":"Polygon","coordinates":[[[-42.213,-22.3872],[-42.2127,-22.3909],[-42.2129,-22.387],[-42.213,-22.3872]]]}},{"type":"Feature","properties":{"cod_tema":"RIO_ATE_10","cod_imovel":"RJ-3301306-B50F59A7E2EF4E419E41BEF4E952F719","ind_status":"AT"},"geometry":{"type":"Polygon","coordinates":[[[-42.1894,-22.4805],[-42.1906,-22.4836],[-42.1894,-22.4793],[-42.1894,-22.4805]]]}},{"type":"Feature","properties":{"cod_tema":"RIO_ATE_10","cod_imovel":"RJ-3301306-37623EBD49D04AEFA9ADCD8295B5E02E","ind_status":"AT"},"geometry":{"type":"Polygon","coordinates":[[[-42.2139,-22.444],[-42.2098,-22.4459],[-42.2141,-22.4439],[-42.2139,-22.444]]]}},{"type":"Feature","properties":{"cod_tema":"RIO_ATE_10","cod_imovel":"RJ-3301306-87500A953B2349BBA7512F301FE136BC","ind_status":"AT"},"geometry":{"type":"Polygon","coordinates":[[[-42.2448,-22.4112],[-42.2363,-22.4049],[-42.2498,-22.415],[-42.2448,-22.4112]]]}},{"type":"Feature","properties":{"cod_tema":"RIO_ATE_10","cod_imovel":"RJ-3301306-24E91CA66DF548298A274E34D5790A3F","ind_status":"AT"},"geometry":{"type":"Polygon","coordinates":[[[-42.1902,-22.4474],[-42.1974,-22.4486],[-42.1901,-22.4472],[-42.1902,-22.4474]]]}},{"type":"Feature","properties":{"cod_tema":"RIO_ATE_10","cod_imovel":"RJ-3301306-B39C750228944D78A321FF1255463217","ind_status":"AT"},"geometry":{"type":"Polygon","coordinates":[[[-42.243,-22.4959],[-42.2461,-22.5112],[-42.2423,-22.506],[-42.2441,-22.4931],[-42.243,-22.4959]]]}},{"type":"Feature","properties":{"cod_tema":"RIO_ATE_10","cod_imovel":"RJ-3301306-8C7C775AB52E43DF8BAA3CD458F306F5","ind_status":"AT"},"geometry":{"type":"Polygon","coordinates":[[[-42.197,-22.5483],[-42.1994,-22.5403],[-42.197,-22.5483],[-42.197,-22.5483]],[[-42.1993,-22.5404],[-42.1971,-22.5482],[-42.1993,-22.5404],[-42.1993,-22.5404]]]}},{"type":"Feature","properties":{"cod_tema":"RIO_ATE_10","cod_imovel":"RJ-3301306-CA6FC92BB291484E91B59E58B01378F7","ind_status":"AT"},"geometry":{"type":"Polygon","coordinates":[[[-42.1739,-22.4924],[-42.1749,-22.4956],[-42.1682,-22.4958],[-42.1763,-22.4958],[-42.1741,-22.4921],[-42.1739,-22.4924]]]}},{"type":"Feature","properties":{"cod_tema":"RIO_ATE_10","cod_imovel":"RJ-3301306-EEE23970E40C4D8AB7AA22D25FDF7048","ind_status":"AT"},"geometry":{"type":"Polygon","coordinates":[[[-42.1997,-22.4643],[-42.1997,-22.469],[-42.1999,-22.464],[-42.1997,-22.4643]]]}},{"type":"Feature","properties":{"cod_tema":"RIO_ATE_10","cod_imovel":"RJ-3301306-EB084FB7B71B4E33AE79D18614003841","ind_status":"AT"},"geometry":{"type":"Polygon","coordinates":[[[-42.2397,-22.3926],[-42.233,-22.3899],[-42.2362,-22.3871],[-42.228,-22.3918],[-42.2302,-22.3877],[-42.2239,-22.3913],[-42.2255,-22.3878],[-42.219,-22.3935],[-42.2254,-22.3974],[-42.2201,-22.3933],[-42.225,-22.391],[-42.2252,-22.3959],[-42.2266,-22.3912],[-42.2258,-22.3978],[-42.2318,-22.3964],[-42.2269,-22.3915],[-42.2397,-22.3926],[-42.2397,-22.3926]]]}},{"type":"Feature","properties":{"cod_tema":"RIO_ATE_10","cod_imovel":"RJ-3301306-3A1CE0183C694EB19E655EBA8165E8C5","ind_status":"AT"},"geometry":{"type":"Polygon","coordinates":[[[-42.1847,-22.4928],[-42.1814,-22.4912],[-42.1847,-22.4928],[-42.1847,-22.4928]]]}},{"type":"Feature","properties":{"cod_tema":"RIO_ATE_10","cod_imovel":"RJ-3301306-279093FA87024E90BE48036310A2ECF2","ind_status":"AT"},"geometry":{"type":"Polygon","coordinates":[[[-42.227,-22.5288],[-42.2205,-22.5307],[-42.2155,-22.5179],[-42.2052,-22.523],[-42.2133,-22.5291],[-42.2057,-22.5234],[-42.2151,-22.5203],[-42.2079,-22.5249],[-42.2163,-22.5225],[-42.221,-22.5304],[-42.218,-22.5326],[-42.2424,-22.5307],[-42.2269,-22.5307],[-42.227,-22.5288]],[[-42.234,-22.5395],[-42.2212,-22.5397],[-42.2441,-22.5425],[-42.234,-22.5395]]]}},{"type":"Feature","properties":{"cod_tema":"RIO_10_A_50","cod_imovel":"RJ-3301306-C782034B8ABD49F0B3661D7B8228870F","ind_status":"AT"},"geometry":{"type":"Polygon","coordinates":[[[-42.1394,-22.5403],[-42.1498,-22.5255],[-42.1491,-22.5155],[-42.1496,-22.5255],[-42.1309,-22.5461],[-42.1336,-22.5546],[-42.1288,-22.5573],[-42.1339,-22.5546],[-42.1312,-22.5462],[-42.139,-22.5402],[-42.1394,-22.5403]],[[-42.0819,-22.5036],[-42.0882,-22.5279],[-42.0859,-22.5332],[-42.0792,-22.5327],[-42.0813,-22.5376],[-42.0717,-22.5405],[-42.0737,-22.5453],[-42.0624,-22.5486],[-42.0598,-22.5565],[-42.0646,-22.5598],[-42.06,-22.5565],[-42.0626,-22.5487],[-42.0739,-22.5455],[-42.0719,-22.5406],[-42.0815,-22.5377],[-42.0794,-22.5329],[-42.0861,-22.5333],[-42.0885,-22.5281],[-42.082,-22.5036],[-42.0819,-22.5036]]]}},{"type":"Feature","properties":{"cod_tema":"RIO_50_A_200","cod_imovel":"RJ-3301306-C782034B8ABD49F0B3661D7B8228870F","ind_status":"AT"},"geometry":{"type":"Polygon","coordinates":[[[-42.1288,-22.5576],[-42.0349,-22.5595],[-42.0297,-22.5704],[-42.0203,-22.5687],[-42.0201,-22.5775],[-42.0108,-22.5714],[-42.0038,-22.5844],[-41.9986,-22.5717],[-41.9982,-22.5749],[-42.004,-22.5849],[-42.0111,-22.5718],[-42.0191,-22.5785],[-42.0212,-22.5687],[-42.0301,-22.5708],[-42.0341,-22.5602],[-42.0416,-22.5692],[-42.049,-22.5617],[-42.0627,-22.56],[-42.062,-22.5735],[-42.0724,-22.5677],[-42.081,-22.5751],[-42.0841,-22.5695],[-42.0943,-22.5712],[-42.093,-22.5624],[-42.1009,-22.5651],[-42.1058,-22.5607],[-42.1092,-22.567],[-42.1191,-22.5669],[-42.1253,-22.5642],[-42.1206,-22.5579],[-42.1279,-22.5576],[-42.1288,-22.5576]],[[-42.0381,-22.5614],[-42.0595,-22.5605],[-42.0487,-22.5612],[-42.0416,-22.5687],[-42.0381,-22.5616],[-42.0381,-22.5614]],[[-42.0632,-22.5603],[-42.1201,-22.5582],[-42.1246,-22.5642],[-42.1106,-22.567],[-42.1061,-22.5602],[-42.1008,-22.5646],[-42.0939,-22.5616],[-42.0932,-22.5717],[-42.0839,-22.5691],[-42.0798,-22.5748],[-42.0724,-22.5672],[-42.0622,-22.573],[-42.0632,-22.5606],[-42.0632,-22.5603]]]}},{"type":"Feature","properties":{"cod_tema":"LAGO_NATURAL","cod_imovel":"RJ-3301306-C782034B8ABD49F0B3661D7B8228870F","ind_status":"AT"},"geometry":{"type":"Polygon","coordinates":[[[-42.0924,-22.518],[-42.0924,-22.5217],[-42.0927,-22.5179],[-42.0924,-22.518]]]}},{"type":"Feature","properties":{"cod_tema":"RIO_ATE_10","cod_imovel":"RJ-3301306-CAF5796268EF4B2B8BCEB3AD30D0D930","ind_status":"AT"},"geometry":{"type":"Polygon","coordinates":[[[-42.1205,-22.4921],[-42.1162,-22.4947],[-42.1237,-22.4931],[-42.1208,-22.4918],[-42.1205,-22.4921]],[[-42.1234,-22.4939],[-42.123,-22.4981],[-42.1232,-22.4936],[-42.1234,-22.4939]]]}},{"type":"Feature","properties":{"cod_tema":"RIO_ATE_10","cod_imovel":"RJ-3301306-1B26DD16A67D49E39423DAFFC28ECE52","ind_status":"AT"},"geometry":{"type":"Polygon","coordinates":[[[-42.1214,-22.5001],[-42.1175,-22.4977],[-42.1217,-22.5001],[-42.1214,-22.5001]]]}},{"type":"Feature","properties":{"cod_tema":"RIO_ATE_10","cod_imovel":"RJ-3301306-ECD48B1CBF57433489025F8D10CF607D","ind_status":"AT"},"geometry":{"type":"Polygon","coordinates":[[[-42.2357,-22.438],[-42.2343,-22.4441],[-42.2449,-22.4421],[-42.235,-22.4435],[-42.2357,-22.438],[-42.2357,-22.438]],[[-42.2276,-22.4401],[-42.228,-22.4469],[-42.2274,-22.4398],[-42.2276,-22.4401]],[[-42.2301,-22.4388],[-42.2304,-22.4461],[-42.2299,-22.4385],[-42.2301,-22.4388]]]}},{"type":"Feature","properties":{"cod_tema":"RIO_10_A_50","cod_imovel":"RJ-3301306-7142197E201A46D78D2B593E5AF2438E","ind_status":"AT"},"geometry":{"type":"Polygon","coordinates":[[[-42.2877,-22.3894],[-42.2839,-22.3876],[-42.2875,-22.3893],[-42.2877,-22.3894]]]}},{"type":"Feature","properties":{"cod_tema":"RIO_ATE_10","cod_imovel":"RJ-3301306-9D467BE419B548E99FC3A56603E61ECF","ind_status":"AT"},"geometry":{"type":"Polygon","coordinates":[[[-42.1094,-22.4561],[-42.1054,-22.4577],[-42.1097,-22.4556],[-42.1094,-22.4561]],[[-42.1127,-22.4631],[-42.1065,-22.4681],[-42.1084,-22.472],[-42.1127,-22.4631],[-42.1127,-22.4631]]]}},{"type":"Feature","properties":{"cod_tema":"RIO_ATE_10","cod_imovel":"RJ-3301306-45ACE94262AD408FBDD1CAC2D471C7D3","ind_status":"AT"},"geometry":{"type":"Polygon","coordinates":[[[-42.2325,-22.366],[-42.2358,-22.362],[-42.2316,-22.3668],[-42.2325,-22.366]]]}},{"type":"Feature","properties":{"cod_tema":"RIO_ATE_10","cod_imovel":"RJ-3301306-4E523E047E88441BA754B4F45DB59516","ind_status":"AT"},"geometry":{"type":"Polygon","coordinates":[[[-42.1989,-22.4388],[-42.1994,-22.4305],[-42.1993,-22.4393],[-42.1989,-22.4388]]]}},{"type":"Feature","properties":{"cod_tema":"RIO_ATE_10","cod_imovel":"RJ-3301306-FA4B4F51399F4D378F0E74BCC642015A","ind_status":"AT"},"geometry":{"type":"Polygon","coordinates":[[[-42.2692,-22.4649],[-42.2636,-22.464],[-42.2693,-22.465],[-42.2692,-22.4649]]]}},{"type":"Feature","properties":{"cod_tema":"RIO_10_A_50","cod_imovel":"RJ-3301306-4F65C21A46B0462C930FFB0825C02DE4","ind_status":"AT"},"geometry":{"type":"Polygon","coordinates":[[[-42.2557,-22.3664],[-42.2601,-22.3727],[-42.2558,-22.3661],[-42.2557,-22.3664]]]}},{"type":"Feature","properties":{"cod_tema":"RIO_ATE_10","cod_imovel":"RJ-3301306-42649AB0F8D74A2DAC8F922382CA3C5A","ind_status":"AT"},"geometry":{"type":"Polygon","coordinates":[[[-42.217,-22.4253],[-42.2083,-22.4232],[-42.2181,-22.4257],[-42.217,-22.4253]]]}},{"type":"Feature","properties":{"cod_tema":"RIO_ATE_10","cod_imovel":"RJ-3301306-0CD1395B85E14395848EF78EDCDD8867","ind_status":"AT"},"geometry":{"type":"Polygon","coordinates":[[[-42.1763,-22.4899],[-42.1741,-22.4922],[-42.1764,-22.4897],[-42.1763,-22.4899]]]}},{"type":"Feature","properties":{"cod_tema":"RIO_ATE_10","cod_imovel":"RJ-3301306-3CE3E51A68FC4F37876A2D61706257E1","ind_status":"AT"},"geometry":{"type":"Polygon","coordinates":[[[-42.2275,-22.4471],[-42.22,-22.4465],[-42.225,-22.4418],[-42.2098,-22.4487],[-42.2276,-22.4471],[-42.2275,-22.4471]],[[-42.2257,-22.4504],[-42.2098,-22.4499],[-42.2259,-22.4505],[-42.2257,-22.4504]]]}},{"type":"Feature","properties":{"cod_tema":"RIO_ATE_10","cod_imovel":"RJ-3301306-C13BFFE5B6C8425E999FC8B63E8DF837","ind_status":"AT"},"geometry":{"type":"Polygon","coordinates":[[[-42.0509,-22.471],[-42.0505,-22.474],[-42.0507,-22.4703],[-42.0509,-22.471]]]}},{"type":"Feature","properties":{"cod_tema":"RIO_10_A_50","cod_imovel":"RJ-3301306-43EB730F31634D3EB6A6CA525739D4C2","ind_status":"AT"},"geometry":{"type":"Polygon","coordinates":[[[-42.2063,-22.4196],[-42.2059,-22.4156],[-42.2059,-22.4189],[-42.2063,-22.4196]]]}},{"type":"Feature","properties":{"cod_tema":"RIO_ATE_10","cod_imovel":"RJ-3301306-D663FB35E60B4C21A53B44D7FAFFC133","ind_status":"AT"},"geometry":{"type":"Polygon","coordinates":[[[-42.0124,-22.5224],[-42.0214,-22.524],[-42.013,-22.5228],[-42.0124,-22.5224]],[[-42.0013,-22.5672],[-42.0062,-22.5543],[-41.9978,-22.5382],[-42.0061,-22.554],[-42.0012,-22.5672],[-42.0013,-22.5672]]]}},{"type":"Feature","properties":{"cod_tema":"RIO_ATE_10","cod_imovel":"RJ-3301306-2A613BB569E6481C8E1780FDBCE5E422","ind_status":"AT"},"geometry":{"type":"Polygon","coordinates":[[[-42.1972,-22.4456],[-42.1987,-22.4486],[-42.1974,-22.4452],[-42.1972,-22.4456]]]}},{"type":"Feature","properties":{"cod_tema":"RIO_ATE_10","cod_imovel":"RJ-3301306-BD08BC5DDC2B4EF5A2904A332C4E7E87","ind_status":"AT"},"geometry":{"type":"Polygon","coordinates":[[[-42.2196,-22.4942],[-42.2184,-22.4997],[-42.2196,-22.4941],[-42.2196,-22.4942]]]}},{"type":"Feature","properties":{"cod_tema":"RIO_ATE_10","cod_imovel":"RJ-3301306-B91A6CB97B8E4ADDB73DEC59D960BF20","ind_status":"AT"},"geometry":{"type":"Polygon","coordinates":[[[-42.2212,-22.4808],[-42.2293,-22.4745],[-42.2213,-22.4809],[-42.2212,-22.4808]],[[-42.2311,-22.4812],[-42.226,-22.4862],[-42.2311,-22.4812],[-42.2311,-22.4812]],[[-42.2344,-22.4812],[-42.2324,-22.4841],[-42.2344,-22.4811],[-42.2344,-22.4812]],[[-42.2352,-22.4789],[-42.2393,-22.48],[-42.2352,-22.4789],[-42.2352,-22.4789]],[[-42.2303,-22.4799],[-42.2204,-22.4837],[-42.2303,-22.4797],[-42.2303,-22.4799]],[[-42.2278,-22.4727],[-42.2196,-22.475],[-42.2279,-22.4726],[-42.2278,-22.4727]]]}},{"type":"Feature","properties":{"cod_tema":"RIO_ATE_10","cod_imovel":"RJ-3301306-F5263A40E2D74E3680C9B9FE7E86B75A","ind_status":"AT"},"geometry":{"type":"Polygon","coordinates":[[[-42.1749,-22.4796],[-42.1751,-22.4858],[-42.1754,-22.4806],[-42.1749,-22.4796]]]}},{"type":"Feature","properties":{"cod_tema":"RIO_ATE_10","cod_imovel":"RJ-3301306-0A0EA6C0EDC0432BB74E9F5689065DFA","ind_status":"AT"},"geometry":{"type":"Polygon","coordinates":[[[-42.1793,-22.4702],[-42.1746,-22.4724],[-42.1796,-22.47],[-42.1793,-22.4702]]]}},{"type":"Feature","properties":{"cod_tema":"RIO_ATE_10","cod_imovel":"RJ-3301306-2CF027431C6E4022BF435A93E7C92973","ind_status":"AT"},"geometry":{"type":"Polygon","coordinates":[[[-42.2199,-22.4662],[-42.2173,-22.4624],[-42.2089,-22.4648],[-42.2202,-22.4662],[-42.2199,-22.4662]],[[-42.2278,-22.4727],[-42.2178,-22.4749],[-42.2271,-22.4706],[-42.2266,-22.4662],[-42.2271,-22.4705],[-42.2178,-22.4749],[-42.2279,-22.4726],[-42.2278,-22.4727]]]}},{"type":"Feature","properties":{"cod_tema":"RIO_ATE_10","cod_imovel":"RJ-3301306-B3FAB8E8FE504091B2AA14C71B1BE865","ind_status":"AT"},"geometry":{"type":"Polygon","coordinates":[[[-42.2303,-22.3715],[-42.2157,-22.3749],[-42.2309,-22.3718],[-42.2303,-22.3715]]]}},{"type":"Feature","properties":{"cod_tema":"RIO_ATE_10","cod_imovel":"RJ-3301306-B3FAB8E8FE504091B2AA14C71B1BE865","ind_status":"AT"},"geometry":{"type":"Polygon","coordinates":[[[-42.2189,-22.3712],[-42.2159,-22.3734],[-42.2193,-22.3712],[-42.2189,-22.3712]]]}},{"type":"Feature","properties":{"cod_tema":"RIO_ATE_10","cod_imovel":"RJ-3301306-B3FAB8E8FE504091B2AA14C71B1BE865","ind_status":"AT"},"geometry":{"type":"Polygon","coordinates":[[[-42.2283,-22.3723],[-42.2252,-22.3739],[-42.2285,-22.372],[-42.2283,-22.3723]]]}},{"type":"Feature","properties":{"cod_tema":"RIO_ATE_10","cod_imovel":"RJ-3301306-53EF7041520943AFAD81FD414614206F","ind_status":"AT"},"geometry":{"type":"Polygon","coordinates":[[[-42.2364,-22.371],[-42.2377,-22.3666],[-42.2365,-22.3712],[-42.2364,-22.371]]]}},{"type":"Feature","properties":{"cod_tema":"RIO_ATE_10","cod_imovel":"RJ-3301306-9923F2A0B3534409A1B3FC45A2C3B489","ind_status":"PE"},"geometry":{"type":"Polygon","coordinates":[[[-42.1968,-22.4908],[-42.1964,-22.4846],[-42.1934,-22.4832],[-42.1961,-22.4884],[-42.1895,-22.4831],[-42.197,-22.4911],[-42.1968,-22.4908]]]}},{"type":"Feature","properties":{"cod_tema":"RIO_ATE_10","cod_imovel":"RJ-3301306-0146772D6E064829BCD0666E095F850A","ind_status":"AT"},"geometry":{"type":"Polygon","coordinates":[[[-42.2011,-22.4585],[-42.1988,-22.4624],[-42.2014,-22.4575],[-42.2011,-22.4585]]]}},{"type":"Feature","properties":{"cod_tema":"RIO_ATE_10","cod_imovel":"RJ-3301306-E8AF710DE7124EDD8B9336D493F0F060","ind_status":"AT"},"geometry":{"type":"Polygon","coordinates":[[[-42.2811,-22.3991],[-42.2762,-22.3929],[-42.281,-22.3994],[-42.2811,-22.3991]]]}},{"type":"Feature","properties":{"cod_tema":"RIO_ATE_10","cod_imovel":"RJ-3301306-CFCAD957BCD949A9BB2EE60046DFE7BD","ind_status":"AT"},"geometry":{"type":"Polygon","coordinates":[[[-42.1977,-22.532],[-42.1947,-22.5498],[-42.1869,-22.5555],[-42.1954,-22.5484],[-42.1992,-22.522],[-42.1977,-22.532]]]}},{"type":"Feature","properties":{"cod_tema":"RIO_ATE_10","cod_imovel":"RJ-3301306-CFCAD957BCD949A9BB2EE60046DFE7BD","ind_status":"AT"},"geometry":{"type":"Polygon","coordinates":[[[-42.1959,-22.5599],[-42.1706,-22.5558],[-42.1865,-22.5555],[-42.1995,-22.5621],[-42.1959,-22.5599]]]}},{"type":"Feature","properties":{"cod_tema":"RIO_ATE_10","cod_imovel":"RJ-3301306-CFCAD957BCD949A9BB2EE60046DFE7BD","ind_status":"AT"},"geometry":{"type":"Polygon","coordinates":[[[-42.208,-22.5409],[-42.1971,-22.5485],[-42.2167,-22.5506],[-42.1972,-22.5485],[-42.2082,-22.5402],[-42.208,-22.5409]]]}},{"type":"Feature","properties":{"cod_tema":"RIO_ATE_10","cod_imovel":"RJ-3301306-CFCAD957BCD949A9BB2EE60046DFE7BD","ind_status":"AT"},"geometry":{"type":"Polygon","coordinates":[[[-42.2007,-22.5509],[-42.1933,-22.5518],[-42.2042,-22.5508],[-42.2007,-22.5509]]]}},{"type":"Feature","properties":{"cod_tema":"RIO_ATE_10","cod_imovel":"RJ-3301306-614CA8DB45C540E09A981C7F6E391A0E","ind_status":"AT"},"geometry":{"type":"Polygon","coordinates":[[[-42.2824,-22.3943],[-42.2784,-22.3911],[-42.2826,-22.3945],[-42.2824,-22.3943]]]}},{"type":"Feature","properties":{"cod_tema":"RIO_ATE_10","cod_imovel":"RJ-3301306-DB3600155D2D4D2E96B65619636347EF","ind_status":"AT"},"geometry":{"type":"Polygon","coordinates":[[[-42.2411,-22.3704],[-42.2392,-22.367],[-42.2421,-22.3709],[-42.2411,-22.3704]]]}},{"type":"Feature","properties":{"cod_tema":"RIO_ATE_10","cod_imovel":"RJ-3301306-278FCD7DA88D436AB08FA9690C76DF77","ind_status":"AT"},"geometry":{"type":"Polygon","coordinates":[[[-42.1836,-22.4573],[-42.1917,-22.4543],[-42.1832,-22.4575],[-42.1836,-22.4573]]]}},{"type":"Feature","properties":{"cod_tema":"RIO_ATE_10","cod_imovel":"RJ-3301306-A3536602CA544238997F8225672EC73A","ind_status":"AT"},"geometry":{"type":"Polygon","coordinates":[[[-42.1893,-22.4616],[-42.196,-22.4648],[-42.1869,-22.4572],[-42.1953,-22.4625],[-42.189,-22.4617],[-42.1893,-22.4616]]]}},{"type":"Feature","properties":{"cod_tema":"RIO_ATE_10","cod_imovel":"RJ-3301306-BA77F48A9A9741AC92668C55F6A6ECE1","ind_status":"AT"},"geometry":{"type":"Polygon","coordinates":[[[-42.1866,-22.4662],[-42.1912,-22.4714],[-42.1864,-22.4659],[-42.1866,-22.4662]],[[-42.188,-22.4648],[-42.1937,-22.469],[-42.188,-22.4646],[-42.188,-22.4648]]]}},{"type":"Feature","properties":{"cod_tema":"RIO_ATE_10","cod_imovel":"RJ-3301306-5FC2A4F8D6F44FCB9F6881A3162A7E9D","ind_status":"AT"},"geometry":{"type":"Polygon","coordinates":[[[-42.2164,-22.3671],[-42.2085,-22.3696],[-42.217,-22.3673],[-42.2164,-22.3671]]]}},{"type":"Feature","properties":{"cod_tema":"RIO_ATE_10","cod_imovel":"RJ-3301306-A6D68F06F43D4506B5974DEF7E0FAA18","ind_status":"AT"},"geometry":{"type":"Polygon","coordinates":[[[-42.2164,-22.3671],[-42.2206,-22.3681],[-42.2086,-22.3696],[-42.217,-22.3673],[-42.2164,-22.3671]]]}},{"type":"Feature","properties":{"cod_tema":"RIO_ATE_10","cod_imovel":"RJ-3301306-4D3B60DD46FD4BF995FABFA73268D0F8","ind_status":"AT"},"geometry":{"type":"Polygon","coordinates":[[[-42.2438,-22.5309],[-42.2486,-22.5403],[-42.2431,-22.5295],[-42.2438,-22.5309]],[[-42.2425,-22.5203],[-42.2417,-22.527],[-42.2426,-22.5202],[-42.2425,-22.5203]]]}},{"type":"Feature","properties":{"cod_tema":"RIO_10_A_50","cod_imovel":"RJ-3301306-4D3B60DD46FD4BF995FABFA73268D0F8","ind_status":"AT"},"geometry":{"type":"Polygon","coordinates":[[[-42.2486,-22.5403],[-42.2532,-22.5334],[-42.2487,-22.5403],[-42.2486,-22.5403]]]}},{"type":"Feature","properties":{"cod_tema":"RIO_ATE_10","cod_imovel":"RJ-3301306-B61049842DC540DEB3645DB0D7B841BF","ind_status":"AT"},"geometry":{"type":"Polygon","coordinates":[[[-42.2365,-22.485],[-42.2338,-22.4867],[-42.2366,-22.4849],[-42.2365,-22.485]]]}},{"type":"Feature","properties":{"cod_tema":"RIO_ATE_10","cod_imovel":"RJ-3301306-E2B2F2C6656A446CA022502A7E8CFAAA","ind_status":"AT"},"geometry":{"type":"Polygon","coordinates":[[[-42.2625,-22.3989],[-42.2503,-22.4004],[-42.263,-22.3988],[-42.2625,-22.3989]]]}},{"type":"Feature","properties":{"cod_tema":"RIO_ATE_10","cod_imovel":"RJ-3301306-7EA942DA2AF74764938D576A47FB7AC4","ind_status":"AT"},"geometry":{"type":"Polygon","coordinates":[[[-42.2829,-22.4299],[-42.2893,-22.427],[-42.2829,-22.4299],[-42.2829,-22.4299]],[[-42.2856,-22.4265],[-42.2889,-22.4264],[-42.2856,-22.4265],[-42.2856,-22.4265]],[[-42.284,-22.4322],[-42.2898,-22.429],[-42.284,-22.4322],[-42.284,-22.4322]]]}},{"type":"Feature","properties":{"cod_tema":"RIO_ATE_10","cod_imovel":"RJ-3301306-61D193B564D84FC3963C7C9B17213B11","ind_status":"AT"},"geometry":{"type":"Polygon","coordinates":[[[-42.1021,-22.5017],[-42.101,-22.4978],[-42.1021,-22.5017],[-42.1021,-22.5017]]]}},{"type":"Feature","properties":{"cod_tema":"RIO_ATE_10","cod_imovel":"RJ-3301306-3D32C73C2475406E8B7C90017AFD89A0","ind_status":"AT"},"geometry":{"type":"Polygon","coordinates":[[[-42.2551,-22.4852],[-42.2509,-22.4895],[-42.2471,-22.485],[-42.2448,-22.4934],[-42.2415,-22.4878],[-42.244,-22.4937],[-42.2551,-22.4852],[-42.2551,-22.4852]],[[-42.2491,-22.4918],[-42.248,-22.4962],[-42.255,-22.4936],[-42.2489,-22.4957],[-42.2491,-22.4916],[-42.2491,-22.4918]],[[-42.2537,-22.5023],[-42.2521,-22.505],[-42.2541,-22.502],[-42.2537,-22.5023]],[[-42.2672,-22.5239],[-42.2537,-22.5329],[-42.2672,-22.5238],[-42.2672,-22.5239]],[[-42.2683,-22.4978],[-42.2631,-22.5001],[-42.2623,-22.5065],[-42.2632,-22.5001],[-42.2685,-22.4978],[-42.2683,-22.4978]]]}}]}