{"type":"FeatureCollection","features":[{"type":"Feature","properties":{"cod_tema":"RIO_ATE_10","cod_imovel":"RJ-3301405-0BF00C94093041C3BCE49CFAEE5D7BE3","ind_status":"AT"},"geometry":{"type":"Polygon","coordinates":[[[-41.869,-22.1542],[-41.867,-22.1492],[-41.8694,-22.1546],[-41.869,-22.1542]],[[-41.8683,-22.1487],[-41.8704,-22.1512],[-41.8682,-22.1486],[-41.8683,-22.1487]]]}},{"type":"Feature","properties":{"cod_tema":"RIO_ATE_10","cod_imovel":"RJ-3301405-0B1E03AAFEB7456088073F4F0DA4D28D","ind_status":"AT"},"geometry":{"type":"Polygon","coordinates":[[[-41.7201,-22.1378],[-41.7187,-22.1343],[-41.7202,-22.1378],[-41.7201,-22.1378]]]}},{"type":"Feature","properties":{"cod_tema":"RIO_ATE_10","cod_imovel":"RJ-3301405-0F5AF92D0417439393F7252B4111E43F","ind_status":"AT"},"geometry":{"type":"Polygon","coordinates":[[[-41.7257,-22.1065],[-41.7167,-22.0966],[-41.7099,-22.1023],[-41.7195,-22.1124],[-41.7099,-22.1023],[-41.7168,-22.1004],[-41.7192,-22.1088],[-41.7173,-22.1009],[-41.7256,-22.1071],[-41.7257,-22.1065]],[[-41.7263,-22.1016],[-41.7309,-22.0983],[-41.7257,-22.1019],[-41.7263,-22.1016]]]}},{"type":"Feature","properties":{"cod_tema":"RIO_ATE_10","cod_imovel":"RJ-3301405-1C39A2EA41074A5F8FF18211584A1AD5","ind_status":"AT"},"geometry":{"type":"Polygon","coordinates":[[[-41.8064,-22.1385],[-41.8028,-22.1352],[-41.8065,-22.1385],[-41.8064,-22.1385]]]}},{"type":"Feature","properties":{"cod_tema":"RIO_ATE_10","cod_imovel":"RJ-3301405-17A91C13044449579D0DB30DDD852AC8","ind_status":"AT"},"geometry":{"type":"Polygon","coordinates":[[[-41.7625,-22.1519],[-41.7623,-22.1463],[-41.7628,-22.1521],[-41.7625,-22.1519]]]}},{"type":"Feature","properties":{"cod_tema":"RIO_ATE_10","cod_imovel":"RJ-3301405-17A91C13044449579D0DB30DDD852AC8","ind_status":"AT"},"geometry":{"type":"Polygon","coordinates":[[[-41.764,-22.1463],[-41.7602,-22.1465],[-41.7641,-22.1464],[-41.764,-22.1463]]]}},{"type":"Feature","properties":{"cod_tema":"RIO_ATE_10","cod_imovel":"RJ-3301405-17A91C13044449579D0DB30DDD852AC8","ind_status":"AT"},"geometry":{"type":"Polygon","coordinates":[[[-41.7629,-22.1542],[-41.7574,-22.1525],[-41.7633,-22.1543],[-41.7629,-22.1542]]]}},{"type":"Feature","properties":{"cod_tema":"RIO_ATE_10","cod_imovel":"RJ-3301405-1F63BA8CF9584DEF8F775A9D76D86EA1","ind_status":"AT"},"geometry":{"type":"Polygon","coordinates":[[[-41.8582,-22.0826],[-41.8594,-22.0766],[-41.8578,-22.0839],[-41.8582,-22.0826]]]}},{"type":"Feature","properties":{"cod_tema":"RIO_ATE_10","cod_imovel":"RJ-3301405-2115AB33F6B046889181144952717B6D","ind_status":"AT"},"geometry":{"type":"Polygon","coordinates":[[[-41.7817,-22.0982],[-41.7729,-22.0915],[-41.7818,-22.0982],[-41.7817,-22.0982]]]}},{"type":"Feature","properties":{"cod_tema":"RIO_ATE_10","cod_imovel":"RJ-3301405-21C7FB53968743679C56172650C60F6B","ind_status":"AT"},"geometry":{"type":"Polygon","coordinates":[[[-41.7311,-22.0978],[-41.7357,-22.0958],[-41.7309,-22.0986],[-41.7311,-22.0978]],[[-41.7391,-22.0903],[-41.736,-22.0855],[-41.7394,-22.0902],[-41.7391,-22.0903]],[[-41.7504,-22.0863],[-41.7396,-22.0861],[-41.7506,-22.0864],[-41.7504,-22.0863]]]}},{"type":"Feature","properties":{"cod_tema":"RIO_ATE_10","cod_imovel":"RJ-3301405-384B36700DA3452BA8A2B3E755506B47","ind_status":"AT"},"geometry":{"type":"Polygon","coordinates":[[[-41.8072,-22.0988],[-41.8018,-22.099],[-41.8066,-22.0986],[-41.8072,-22.0988]]]}},{"type":"Feature","properties":{"cod_tema":"RIO_ATE_10","cod_imovel":"RJ-3301405-222E9F265B3D4D2EB31A27088DC2CB61","ind_status":"AT"},"geometry":{"type":"Polygon","coordinates":[[[-41.7189,-22.0755],[-41.7233,-22.0703],[-41.7164,-22.0776],[-41.7189,-22.0755]],[[-41.7331,-22.0748],[-41.7308,-22.0723],[-41.722,-22.0829],[-41.727,-22.0856],[-41.7328,-22.0745],[-41.7331,-22.0748]]]}},{"type":"Feature","properties":{"cod_tema":"RIO_ATE_10","cod_imovel":"RJ-3301405-24806A7CF85A4431B0E9A5414A105EA7","ind_status":"AT"},"geometry":{"type":"Polygon","coordinates":[[[-41.8135,-22.1088],[-41.8125,-22.1048],[-41.8136,-22.109],[-41.8135,-22.1088]]]}},{"type":"Feature","properties":{"cod_tema":"RIO_ATE_10","cod_imovel":"RJ-3301405-2B280C2DA4AF4A3B92A820CCE11F3B61","ind_status":"AT"},"geometry":{"type":"Polygon","coordinates":[[[-41.8901,-22.1157],[-41.8929,-22.1123],[-41.8897,-22.1164],[-41.8901,-22.1157]]]}},{"type":"Feature","properties":{"cod_tema":"RIO_ATE_10","cod_imovel":"RJ-3301405-2C921CF37ED24D89A13DE802CEB4CE98","ind_status":"AT"},"geometry":{"type":"Polygon","coordinates":[[[-41.699,-22.0925],[-41.6995,-22.0883],[-41.699,-22.0925],[-41.699,-22.0925]],[[-41.6974,-22.092],[-41.6969,-22.0876],[-41.6974,-22.0924],[-41.6974,-22.092]]]}},{"type":"Feature","properties":{"cod_tema":"RIO_ATE_10","cod_imovel":"RJ-3301405-315DB5409EC74692B153538A4D6E2147","ind_status":"AT"},"geometry":{"type":"Polygon","coordinates":[[[-41.7379,-22.1207],[-41.7377,-22.1263],[-41.7396,-22.1163],[-41.7452,-22.118],[-41.741,-22.1284],[-41.7453,-22.118],[-41.7379,-22.1151],[-41.7375,-22.1211],[-41.7379,-22.1207]]]}},{"type":"Feature","properties":{"cod_tema":"RIO_ATE_10","cod_imovel":"RJ-3301405-32520EE811A34B2BAD9E470D06812EF5","ind_status":"AT"},"geometry":{"type":"Polygon","coordinates":[[[-41.773,-22.1322],[-41.7426,-22.1407],[-41.7459,-22.1362],[-41.7355,-22.1391],[-41.7387,-22.136],[-41.7207,-22.1282],[-41.7289,-22.1232],[-41.7177,-22.1277],[-41.7279,-22.1381],[-41.7227,-22.1285],[-41.7354,-22.1392],[-41.7623,-22.143],[-41.7519,-22.1403],[-41.7576,-22.1371],[-41.7756,-22.1421],[-41.7589,-22.1371],[-41.7711,-22.1373],[-41.773,-22.1322],[-41.773,-22.1322]],[[-41.7203,-22.1137],[-41.7212,-22.1106],[-41.7204,-22.1142],[-41.7203,-22.1137]],[[-41.7757,-22.147],[-41.7477,-22.1471],[-41.7231,-22.1388],[-41.7296,-22.1591],[-41.733,-22.1598],[-41.7272,-22.1441],[-41.7384,-22.1451],[-41.7378,-22.1588],[-41.7385,-22.1451],[-41.7437,-22.1559],[-41.7521,-22.1549],[-41.7522,-22.1656],[-41.7607,-22.1627],[-41.7563,-22.1682],[-41.7608,-22.1628],[-41.7653,-22.1671],[-41.7706,-22.1647],[-41.7729,-22.1757],[-41.7724,-22.1653],[-41.7608,-22.1627],[-41.7679,-22.1597],[-41.7614,-22.1621],[-41.7646,-22.1559],[-41.7561,-22.1578],[-41.7441,-22.1479],[-41.7695,-22.1546],[-41.7696,-22.1579],[-41.7736,-22.1551],[-41.7505,-22.1498],[-41.7635,-22.1462],[-41.7662,-22.1521],[-41.7694,-22.1474],[-41.7812,-22.154],[-41.7742,-22.1488],[-41.7757,-22.147]],[[-41.7251,-22.1079],[-41.7201,-22.1024],[-41.7248,-22.1081],[-41.7251,-22.1079]],[[-41.7651,-22.1319],[-41.7689,-22.1324],[-41.7614,-22.1249],[-41.7684,-22.1272],[-41.7525,-22.1212],[-41.7566,-22.1165],[-41.7506,-22.1207],[-41.7286,-22.1096],[-41.7233,-22.1128],[-41.7318,-22.1119],[-41.7301,-22.1201],[-41.7297,-22.1136],[-41.736,-22.1146],[-41.7342,-22.1226],[-41.7363,-22.1149],[-41.7394,-22.1162],[-41.7376,-22.1261],[-41.7395,-22.1162],[-41.7454,-22.1178],[-41.7403,-22.1304],[-41.7444,-22.1187],[-41.7489,-22.1187],[-41.748,-22.1279],[-41.743,-22.1313],[-41.7495,-22.1288],[-41.7475,-22.1339],[-41.7498,-22.1306],[-41.7512,-22.1365],[-41.7524,-22.1283],[-41.7477,-22.1268],[-41.7521,-22.1196],[-41.7555,-22.1334],[-41.7554,-22.13],[-41.7589,-22.1322],[-41.7561,-22.1268],[-41.7603,-22.1307],[-41.7545,-22.1222],[-41.7652,-22.1323],[-41.7651,-22.1319]],[[-41.7405,-22.1011],[-41.7383,-22.096],[-41.742,-22.0944],[-41.7355,-22.0938],[-41.7253,-22.1018],[-41.7289,-22.1008],[-41.7279,-22.1043],[-41.7322,-22.0962],[-41.7382,-22.0961],[-41.7306,-22.1063],[-41.7371,-22.1009],[-41.732,-22.1089],[-41.7366,-22.1044],[-41.7357,-22.1113],[-41.7411,-22.1103],[-41.7367,-22.1044],[-41.7376,-22.0997],[-41.7406,-22.1013],[-41.7405,-22.1011]],[[-41.738,-22.1313],[-41.7359,-22.124],[-41.7285,-22.1331],[-41.7344,-22.1289],[-41.7381,-22.1314],[-41.738,-22.1313]],[[-41.7736,-22.1087],[-41.7511,-22.0939],[-41.7525,-22.0997],[-41.74,-22.1044],[-41.747,-22.1088],[-41.74,-22.1132],[-41.7469,-22.1101],[-41.7495,-22.1142],[-41.7456,-22.1055],[-41.7537,-22.0981],[-41.757,-22.1012],[-41.7498,-22.1069],[-41.754,-22.1058],[-41.7505,-22.1118],[-41.755,-22.1024],[-41.7601,-22.1055],[-41.7575,-22.1016],[-41.7606,-22.1008],[-41.762,-22.1196],[-41.7618,-22.1091],[-41.7672,-22.1174],[-41.7646,-22.1215],[-41.7675,-22.1187],[-41.7667,-22.1234],[-41.7683,-22.1206],[-41.7723,-22.1249],[-41.7619,-22.1091],[-41.7632,-22.1035],[-41.7699,-22.1139],[-41.7651,-22.1046],[-41.7738,-22.1086],[-41.7736,-22.1087]],[[-41.77,-22.1715],[-41.7591,-22.168],[-41.7564,-22.1734],[-41.7537,-22.1683],[-41.7563,-22.1735],[-41.7514,-22.1749],[-41.7597,-22.1763],[-41.7572,-22.173],[-41.763,-22.1706],[-41.7691,-22.1757],[-41.7646,-22.1709],[-41.77,-22.1715],[-41.77,-22.1715]],[[-41.7641,-22.1796],[-41.7616,-22.1818],[-41.766,-22.1776],[-41.7622,-22.1728],[-41.7646,-22.1793],[-41.7641,-22.1796]],[[-41.7725,-22.1815],[-41.7708,-22.1775],[-41.7724,-22.1809],[-41.7725,-22.1815]],[[-41.7885,-22.1221],[-41.7844,-22.116],[-41.7838,-22.1217],[-41.7805,-22.1198],[-41.781,-22.1243],[-41.7711,-22.1282],[-41.7773,-22.1267],[-41.7748,-22.1346],[-41.7778,-22.1365],[-41.7748,-22.1341],[-41.7783,-22.1305],[-41.7826,-22.1389],[-41.7807,-22.1307],[-41.7861,-22.1401],[-41.7832,-22.1337],[-41.7871,-22.1348],[-41.7774,-22.1267],[-41.7807,-22.1245],[-41.7848,-22.1321],[-41.7807,-22.1245],[-41.7856,-22.1239],[-41.7859,-22.1302],[-41.784,-22.12],[-41.7889,-22.1221],[-41.7885,-22.1221]],[[-41.7719,-22.1616],[-41.7737,-22.1645],[-41.779,-22.1598],[-41.7737,-22.164],[-41.7719,-22.1612],[-41.7719,-22.1616]],[[-41.7783,-22.1143],[-41.7726,-22.1158],[-41.7751,-22.1229],[-41.7783,-22.1143],[-41.7783,-22.1143]],[[-41.7784,-22.1702],[-41.7821,-22.1684],[-41.7749,-22.1656],[-41.7784,-22.1713],[-41.7784,-22.1702]],[[-41.7889,-22.1466],[-41.7789,-22.1406],[-41.7774,-22.1433],[-41.7812,-22.1476],[-41.7889,-22.1466],[-41.7889,-22.1466]],[[-41.7805,-22.1784],[-41.7797,-22.1752],[-41.7805,-22.1783],[-41.7805,-22.1784]]]}},{"type":"Feature","properties":{"cod_tema":"LAGO_NATURAL","cod_imovel":"RJ-3301405-32520EE811A34B2BAD9E470D06812EF5","ind_status":"AT"},"geometry":{"type":"Polygon","coordinates":[[[-41.7566,-22.1165],[-41.7593,-22.1134],[-41.7563,-22.1164],[-41.7566,-22.1165]],[[-41.722,-22.1514],[-41.7248,-22.1474],[-41.7222,-22.1512],[-41.722,-22.1514]]]}},{"type":"Feature","properties":{"cod_tema":"RIO_ATE_10","cod_imovel":"RJ-3301405-33FE07F21E8348879CC5D38481483881","ind_status":"AT"},"geometry":{"type":"Polygon","coordinates":[[[-41.8451,-22.1024],[-41.8409,-22.1019],[-41.8465,-22.1026],[-41.8451,-22.1024]]]}},{"type":"Feature","properties":{"cod_tema":"RIO_ATE_10","cod_imovel":"RJ-3301405-3DDA9A21467A43AC998EF91B2913872C","ind_status":"AT"},"geometry":{"type":"Polygon","coordinates":[[[-41.7088,-22.0854],[-41.695,-22.0877],[-41.7167,-22.0908],[-41.7089,-22.0852],[-41.7088,-22.0854]],[[-41.7179,-22.084],[-41.702,-22.077],[-41.7023,-22.0844],[-41.7037,-22.0789],[-41.714,-22.0814],[-41.7151,-22.0872],[-41.7141,-22.0814],[-41.7179,-22.084],[-41.7179,-22.084]]]}},{"type":"Feature","properties":{"cod_tema":"RIO_10_A_50","cod_imovel":"RJ-3301405-53D55AAFE88940F596D6472179C1FFA8","ind_status":"AT"},"geometry":{"type":"Polygon","coordinates":[[[-41.7055,-22.0537],[-41.684,-22.0539],[-41.7051,-22.0531],[-41.7055,-22.0537]],[[-41.7222,-22.0643],[-41.7058,-22.0531],[-41.7221,-22.0644],[-41.7222,-22.0643]]]}},{"type":"Feature","properties":{"cod_tema":"RIO_ATE_10","cod_imovel":"RJ-3301405-4FC928F2B94843FDBFDA5058B4BAD808","ind_status":"AT"},"geometry":{"type":"Polygon","coordinates":[[[-41.8596,-22.0629],[-41.8478,-22.0714],[-41.8365,-22.072],[-41.838,-22.0759],[-41.8365,-22.0721],[-41.8478,-22.0715],[-41.8597,-22.0628],[-41.8596,-22.0629]]]}},{"type":"Feature","properties":{"cod_tema":"RIO_ATE_10","cod_imovel":"RJ-3301405-511EA910C361421391E4B293119B42B9","ind_status":"AT"},"geometry":{"type":"Polygon","coordinates":[[[-41.8207,-22.124],[-41.8174,-22.1208],[-41.8211,-22.1242],[-41.8207,-22.124]],[[-41.8191,-22.1186],[-41.8161,-22.1164],[-41.8199,-22.119],[-41.8191,-22.1186]]]}},{"type":"Feature","properties":{"cod_tema":"RIO_ATE_10","cod_imovel":"RJ-3301405-55CD3AB51DD546B2B3A576467BB36BFB","ind_status":"AT"},"geometry":{"type":"Polygon","coordinates":[[[-41.8809,-22.1065],[-41.8773,-22.1086],[-41.881,-22.1062],[-41.8809,-22.1065]]]}},{"type":"Feature","properties":{"cod_tema":"RIO_ATE_10","cod_imovel":"RJ-3301405-56392D6D9C824B2BB900F02F1705DB23","ind_status":"AT"},"geometry":{"type":"Polygon","coordinates":[[[-41.7911,-22.1579],[-41.7916,-22.1544],[-41.7914,-22.1588],[-41.7911,-22.1579]]]}},{"type":"Feature","properties":{"cod_tema":"RIO_ATE_10","cod_imovel":"RJ-3301405-5F90754826674937812605595959EFCD","ind_status":"AT"},"geometry":{"type":"Polygon","coordinates":[[[-41.8384,-22.1564],[-41.8302,-22.1543],[-41.8384,-22.1564],[-41.8384,-22.1564]],[[-41.8362,-22.1622],[-41.8322,-22.1631],[-41.8363,-22.1623],[-41.8362,-22.1622]]]}},{"type":"Feature","properties":{"cod_tema":"RIO_ATE_10","cod_imovel":"RJ-3301405-7F730E97360B420D9A5D390451551E68","ind_status":"AT"},"geometry":{"type":"Polygon","coordinates":[[[-41.8424,-22.1116],[-41.8462,-22.1114],[-41.8422,-22.1117],[-41.8424,-22.1116]]]}},{"type":"Feature","properties":{"cod_tema":"RIO_ATE_10","cod_imovel":"RJ-3301405-8A73B1AD54FF400598C677577148F413","ind_status":"AT"},"geometry":{"type":"Polygon","coordinates":[[[-41.799,-22.1006],[-41.7953,-22.0989],[-41.7993,-22.1007],[-41.799,-22.1006]]]}},{"type":"Feature","properties":{"cod_tema":"RIO_10_A_50","cod_imovel":"RJ-3301405-8A73B1AD54FF400598C677577148F413","ind_status":"AT"},"geometry":{"type":"Polygon","coordinates":[[[-41.7999,-22.0984],[-41.7912,-22.1003],[-41.7998,-22.0985],[-41.7999,-22.0984]]]}},{"type":"Feature","properties":{"cod_tema":"RIO_ATE_10","cod_imovel":"RJ-3301405-8EFAB18B2C994A4BBB583ADF7FCB8DF6","ind_status":"AT"},"geometry":{"type":"Polygon","coordinates":[[[-41.8354,-22.0984],[-41.8302,-22.0985],[-41.8355,-22.0983],[-41.8354,-22.0984]]]}},{"type":"Feature","properties":{"cod_tema":"RIO_ATE_10","cod_imovel":"RJ-3301405-8FB7E4D908774EBABBBBF3E5BD8CE483","ind_status":"CA"},"geometry":{"type":"Polygon","coordinates":[[[-41.8383,-22.1861],[-41.8421,-22.1814],[-41.838,-22.1859],[-41.8383,-22.1861]]]}},{"type":"Feature","properties":{"cod_tema":"RIO_ATE_10","cod_imovel":"RJ-3301405-9AF6ADE43A1B4FFDAED2B44FEE847688","ind_status":"AT"},"geometry":{"type":"Polygon","coordinates":[[[-41.8424,-22.1116],[-41.8462,-22.1114],[-41.8422,-22.1117],[-41.8424,-22.1116]]]}},{"type":"Feature","properties":{"cod_tema":"RIO_ATE_10","cod_imovel":"RJ-3301405-99DF53F8E61F443DA0B69FE914EBBE9F","ind_status":"AT"},"geometry":{"type":"Polygon","coordinates":[[[-41.8649,-22.0875],[-41.8648,-22.0844],[-41.8649,-22.0875],[-41.8649,-22.0875]]]}},{"type":"Feature","properties":{"cod_tema":"RIO_ATE_10","cod_imovel":"RJ-3301405-A11081310BFD4603A76EF454BBE35191","ind_status":"AT"},"geometry":{"type":"Polygon","coordinates":[[[-41.8456,-22.1441],[-41.846,-22.1501],[-41.8521,-22.1402],[-41.8466,-22.1359],[-41.8485,-22.1404],[-41.8449,-22.1419],[-41.851,-22.1407],[-41.8454,-22.1442],[-41.8456,-22.1441]],[[-41.8536,-22.134],[-41.8507,-22.135],[-41.8537,-22.1339],[-41.8536,-22.134]]]}},{"type":"Feature","properties":{"cod_tema":"RIO_ATE_10","cod_imovel":"RJ-3301405-A314DE57A3AB4BDF970DB9BF731AB730","ind_status":"AT"},"geometry":{"type":"Polygon","coordinates":[[[-41.803,-22.1137],[-41.8067,-22.1143],[-41.8025,-22.1137],[-41.803,-22.1137]],[[-41.8068,-22.1081],[-41.8049,-22.1048],[-41.8068,-22.1084],[-41.8068,-22.1081]],[[-41.8084,-22.1042],[-41.8051,-22.1032],[-41.8089,-22.1042],[-41.8084,-22.1042]]]}},{"type":"Feature","properties":{"cod_tema":"RIO_ATE_10","cod_imovel":"RJ-3301405-A23189217A3D42378E0BE4EB85439495","ind_status":"AT"},"geometry":{"type":"Polygon","coordinates":[[[-41.8362,-22.1622],[-41.8325,-22.1625],[-41.8363,-22.1623],[-41.8362,-22.1622]]]}},{"type":"Feature","properties":{"cod_tema":"RIO_ATE_10","cod_imovel":"RJ-3301405-A37B579FDE734FD7A3CEC38E94A51733","ind_status":"AT"},"geometry":{"type":"Polygon","coordinates":[[[-41.7978,-22.1158],[-41.7854,-22.1081],[-41.7872,-22.1216],[-41.7855,-22.1082],[-41.7884,-22.1181],[-41.7871,-22.1092],[-41.7933,-22.1118],[-41.7918,-22.1167],[-41.7934,-22.1119],[-41.7974,-22.1152],[-41.7956,-22.1209],[-41.7978,-22.1158],[-41.7978,-22.1158]]]}},{"type":"Feature","properties":{"cod_tema":"RIO_ATE_10","cod_imovel":"RJ-3301405-A5C3AEAAB72F4E35B36F2D1194AF3D2C","ind_status":"AT"},"geometry":{"type":"Polygon","coordinates":[[[-41.7894,-22.125],[-41.7877,-22.1216],[-41.7895,-22.1254],[-41.7894,-22.125]]]}},{"type":"Feature","properties":{"cod_tema":"RIO_ATE_10","cod_imovel":"RJ-3301405-A5C3AEAAB72F4E35B36F2D1194AF3D2C","ind_status":"AT"},"geometry":{"type":"Polygon","coordinates":[[[-41.7975,-22.1259],[-41.7877,-22.1216],[-41.7981,-22.1258],[-41.7975,-22.1259]]]}},{"type":"Feature","properties":{"cod_tema":"RIO_ATE_10","cod_imovel":"RJ-3301405-A8E6A51EFFAF4052BB101993A654B47E","ind_status":"AT"},"geometry":{"type":"Polygon","coordinates":[[[-41.8328,-22.1548],[-41.8285,-22.1546],[-41.8329,-22.1548],[-41.8328,-22.1548]],[[-41.8354,-22.1621],[-41.8322,-22.1636],[-41.8354,-22.1621],[-41.8354,-22.1621]]]}},{"type":"Feature","properties":{"cod_tema":"RIO_ATE_10","cod_imovel":"RJ-3301405-AC080C7D13054144AEA12AF31A80279A","ind_status":"AT"},"geometry":{"type":"Polygon","coordinates":[[[-41.8378,-22.0778],[-41.8325,-22.0783],[-41.8295,-22.088],[-41.8328,-22.0812],[-41.8481,-22.0877],[-41.8353,-22.0839],[-41.8323,-22.079],[-41.8372,-22.077],[-41.8378,-22.0778]]]}},{"type":"Feature","properties":{"cod_tema":"RIO_ATE_10","cod_imovel":"RJ-3301405-C61E61ECAFC543759DB823535526F7CB","ind_status":"AT"},"geometry":{"type":"Polygon","coordinates":[[[-41.8424,-22.1116],[-41.8462,-22.1114],[-41.8422,-22.1117],[-41.8424,-22.1116]]]}},{"type":"Feature","properties":{"cod_tema":"RIO_ATE_10","cod_imovel":"RJ-3301405-D98C053383774F389431A88BDC5347E5","ind_status":"AT"},"geometry":{"type":"Polygon","coordinates":[[[-41.8552,-22.0762],[-41.8518,-22.0709],[-41.8553,-22.0764],[-41.8552,-22.0762]],[[-41.8594,-22.0764],[-41.8581,-22.0736],[-41.8595,-22.0765],[-41.8594,-22.0764]]]}},{"type":"Feature","properties":{"cod_tema":"RIO_ATE_10","cod_imovel":"RJ-3301405-DC1955AA997D4D61B314687C273996AD","ind_status":"AT"},"geometry":{"type":"Polygon","coordinates":[[[-41.7938,-22.165],[-41.7905,-22.1626],[-41.794,-22.1648],[-41.7938,-22.165]]]}},{"type":"Feature","properties":{"cod_tema":"RIO_ATE_10","cod_imovel":"RJ-3301405-DC1955AA997D4D61B314687C273996AD","ind_status":"AT"},"geometry":{"type":"Polygon","coordinates":[[[-41.7974,-22.1734],[-41.7902,-22.1713],[-41.7976,-22.1638],[-41.7901,-22.1716],[-41.7944,-22.1757],[-41.7978,-22.1732],[-41.7974,-22.1734]]]}},{"type":"Feature","properties":{"cod_tema":"RIO_ATE_10","cod_imovel":"RJ-3301405-DC1955AA997D4D61B314687C273996AD","ind_status":"AT"},"geometry":{"type":"Polygon","coordinates":[[[-41.7874,-22.1679],[-41.7903,-22.1711],[-41.7872,-22.1677],[-41.7874,-22.1679]]]}},{"type":"Feature","properties":{"cod_tema":"RIO_ATE_10","cod_imovel":"RJ-3301405-E2216DB20B1C451C82CEC03A4ACE20B3","ind_status":"AT"},"geometry":{"type":"Polygon","coordinates":[[[-41.8403,-22.2075],[-41.8423,-22.2117],[-41.8402,-22.2052],[-41.8403,-22.2075]],[[-41.8452,-22.206],[-41.8452,-22.2101],[-41.8458,-22.2051],[-41.8452,-22.206]],[[-41.8544,-22.2071],[-41.8519,-22.2032],[-41.8544,-22.2071],[-41.8544,-22.2071]]]}},{"type":"Feature","properties":{"cod_tema":"RIO_ATE_10","cod_imovel":"RJ-3301405-E4810C71436147548C379474C52791D0","ind_status":"AT"},"geometry":{"type":"Polygon","coordinates":[[[-41.8922,-22.1538],[-41.8847,-22.159],[-41.8846,-22.1518],[-41.882,-22.1577],[-41.8877,-22.1594],[-41.8927,-22.1539],[-41.8922,-22.1538]]]}},{"type":"Feature","properties":{"cod_tema":"RIO_ATE_10","cod_imovel":"RJ-3301405-E350596A4A2F4D5681560338787848D3","ind_status":"AT"},"geometry":{"type":"Polygon","coordinates":[[[-41.7595,-22.1008],[-41.7543,-22.0988],[-41.7599,-22.1006],[-41.7595,-22.1008]]]}},{"type":"Feature","properties":{"cod_tema":"RIO_ATE_10","cod_imovel":"RJ-3301405-EA1F9F7D331B4107870CC1C538E1A018","ind_status":"AT"},"geometry":{"type":"Polygon","coordinates":[[[-41.7541,-22.0975],[-41.7515,-22.0945],[-41.7541,-22.0974],[-41.7541,-22.0975]]]}},{"type":"Feature","properties":{"cod_tema":"RIO_ATE_10","cod_imovel":"RJ-3301405-F00EC3C0D6E84CCFBD6967B40321ADA6","ind_status":"AT"},"geometry":{"type":"Polygon","coordinates":[[[-41.7573,-22.1197],[-41.7259,-22.1118],[-41.7318,-22.1119],[-41.7301,-22.1201],[-41.7319,-22.1119],[-41.7362,-22.1148],[-41.7321,-22.1181],[-41.7356,-22.1166],[-41.735,-22.1209],[-41.7363,-22.1149],[-41.7373,-22.1209],[-41.7395,-22.1162],[-41.7454,-22.1178],[-41.7435,-22.1209],[-41.7468,-22.1175],[-41.7524,-22.1209],[-41.7536,-22.1163],[-41.7573,-22.1197],[-41.7573,-22.1197]],[[-41.7298,-22.0996],[-41.7276,-22.1044],[-41.7299,-22.0996],[-41.7298,-22.0996]],[[-41.7377,-22.1074],[-41.7374,-22.1],[-41.7406,-22.1013],[-41.7375,-22.0996],[-41.7306,-22.1063],[-41.7371,-22.1009],[-41.7319,-22.1089],[-41.7366,-22.1044],[-41.7357,-22.1113],[-41.7411,-22.1103],[-41.7377,-22.1074],[-41.7377,-22.1074]],[[-41.7494,-22.1142],[-41.7456,-22.1055],[-41.7526,-22.0996],[-41.74,-22.1044],[-41.747,-22.1088],[-41.74,-22.1133],[-41.7469,-22.1101],[-41.7494,-22.1142],[-41.7494,-22.1142]],[[-41.7628,-22.1029],[-41.756,-22.0996],[-41.7505,-22.1118],[-41.7555,-22.1019],[-41.7582,-22.1058],[-41.7575,-22.1016],[-41.7627,-22.1027],[-41.7628,-22.1029]],[[-41.7628,-22.1106],[-41.7628,-22.1046],[-41.7592,-22.1134],[-41.7628,-22.1205],[-41.7628,-22.1107],[-41.7628,-22.1106]]]}},{"type":"Feature","properties":{"cod_tema":"LAGO_NATURAL","cod_imovel":"RJ-3301405-F00EC3C0D6E84CCFBD6967B40321ADA6","ind_status":"AT"},"geometry":{"type":"Polygon","coordinates":[[[-41.7566,-22.1165],[-41.7593,-22.1134],[-41.7563,-22.1164],[-41.7566,-22.1165]]]}},{"type":"Feature","properties":{"cod_tema":"RIO_ATE_10","cod_imovel":"RJ-3301405-F5CA4B71720C4E0C9B347643330D22F2","ind_status":"AT"},"geometry":{"type":"Polygon","coordinates":[[[-41.8125,-22.1002],[-41.8094,-22.0985],[-41.8128,-22.1003],[-41.8125,-22.1002]],[[-41.8135,-22.1053],[-41.8088,-22.1043],[-41.8134,-22.1088],[-41.8135,-22.1053],[-41.8135,-22.1053]]]}},{"type":"Feature","properties":{"cod_tema":"RIO_ATE_10","cod_imovel":"RJ-3301405-F79ED7AF29E74C48A8BAB91FEB1504CE","ind_status":"AT"},"geometry":{"type":"Polygon","coordinates":[[[-41.8301,-22.121],[-41.8298,-22.115],[-41.8303,-22.1211],[-41.8301,-22.121]]]}},{"type":"Feature","properties":{"cod_tema":"RIO_ATE_10","cod_imovel":"RJ-3301405-76ED23FB4D434A76AB6A09C842012CE7","ind_status":"AT"},"geometry":{"type":"Polygon","coordinates":[[[-41.8832,-22.0646],[-41.877,-22.0581],[-41.8834,-22.0646],[-41.8832,-22.0646]]]}},{"type":"Feature","properties":{"cod_tema":"RIO_ATE_10","cod_imovel":"RJ-3301405-071BF30F63E048E3A68FF45E44F61E23","ind_status":"AT"},"geometry":{"type":"Polygon","coordinates":[[[-41.9053,-22.0986],[-41.9004,-22.0994],[-41.9011,-22.0947],[-41.9001,-22.0994],[-41.8894,-22.1023],[-41.8982,-22.0987],[-41.8931,-22.1037],[-41.8984,-22.0999],[-41.9014,-22.1053],[-41.8985,-22.0998],[-41.9056,-22.0984],[-41.9053,-22.0986]]]}},{"type":"Feature","properties":{"cod_tema":"RIO_ATE_10","cod_imovel":"RJ-3301405-5BB83DA22B3E4B238AE971792CBC0B25","ind_status":"AT"},"geometry":{"type":"Polygon","coordinates":[[[-41.8602,-22.0939],[-41.8572,-22.0924],[-41.8608,-22.0941],[-41.8602,-22.0939]],[[-41.8599,-22.0972],[-41.8567,-22.0927],[-41.8602,-22.0972],[-41.8599,-22.0972]],[[-41.8662,-22.0991],[-41.8606,-22.1032],[-41.8662,-22.099],[-41.8662,-22.0991]]]}},{"type":"Feature","properties":{"cod_tema":"RIO_ATE_10","cod_imovel":"RJ-3301405-671382797B3D4EE7A38E5C9C18963429","ind_status":"AT"},"geometry":{"type":"Polygon","coordinates":[[[-41.8244,-22.101],[-41.8213,-22.1001],[-41.8248,-22.1011],[-41.8244,-22.101]],[[-41.8323,-22.0904],[-41.8285,-22.0906],[-41.8327,-22.0902],[-41.8323,-22.0904]]]}},{"type":"Feature","properties":{"cod_tema":"RIO_10_A_50","cod_imovel":"RJ-3301405-671382797B3D4EE7A38E5C9C18963429","ind_status":"AT"},"geometry":{"type":"Polygon","coordinates":[[[-41.8147,-22.1008],[-41.8213,-22.1002],[-41.8296,-22.0881],[-41.8213,-22.1],[-41.8148,-22.1006],[-41.8147,-22.1008]]]}},{"type":"Feature","properties":{"cod_tema":"RIO_ATE_10","cod_imovel":"RJ-3301405-781CDFD3E27B48FAA098789906282F33","ind_status":"AT"},"geometry":{"type":"Polygon","coordinates":[[[-41.9436,-22.1044],[-41.9377,-22.0975],[-41.9442,-22.1047],[-41.9436,-22.1044]]]}},{"type":"Feature","properties":{"cod_tema":"RIO_ATE_10","cod_imovel":"RJ-3301405-29DA61780DDF49F986888E68AF68DB07","ind_status":"AT"},"geometry":{"type":"Polygon","coordinates":[[[-41.8479,-22.0874],[-41.834,-22.0829],[-41.8412,-22.0866],[-41.835,-22.0952],[-41.8413,-22.0891],[-41.8434,-22.0927],[-41.8411,-22.0851],[-41.848,-22.0876],[-41.8479,-22.0874]]]}},{"type":"Feature","properties":{"cod_tema":"RIO_10_A_50","cod_imovel":"RJ-3301405-29DA61780DDF49F986888E68AF68DB07","ind_status":"AT"},"geometry":{"type":"Polygon","coordinates":[[[-41.8376,-22.0764],[-41.8325,-22.0782],[-41.8295,-22.0881],[-41.8374,-22.0766],[-41.8376,-22.0764]]]}},{"type":"Feature","properties":{"cod_tema":"RIO_ATE_10","cod_imovel":"RJ-3301405-F2C1058EF16C43C7982D83A0CA82713F","ind_status":"AT"},"geometry":{"type":"Polygon","coordinates":[[[-41.919,-22.1197],[-41.9157,-22.1117],[-41.919,-22.1199],[-41.919,-22.1197]]]}},{"type":"Feature","properties":{"cod_tema":"RIO_ATE_10","cod_imovel":"RJ-3301405-3D8137AEC8C7447CB9709842BAAFA1F9","ind_status":"AT"},"geometry":{"type":"Polygon","coordinates":[[[-41.8416,-22.1831],[-41.836,-22.1854],[-41.8416,-22.1831],[-41.8416,-22.1831]]]}},{"type":"Feature","properties":{"cod_tema":"RIO_ATE_10","cod_imovel":"RJ-3301405-458B6F8594214D238F84BC232DADEE63","ind_status":"AT"},"geometry":{"type":"Polygon","coordinates":[[[-41.7804,-22.1785],[-41.7821,-22.1752],[-41.7807,-22.1785],[-41.7804,-22.1785]],[[-41.7767,-22.1677],[-41.776,-22.1706],[-41.7767,-22.1675],[-41.7767,-22.1677]],[[-41.7743,-22.1734],[-41.7771,-22.1713],[-41.7736,-22.173],[-41.7743,-22.1734]],[[-41.7831,-22.1777],[-41.7853,-22.1755],[-41.7827,-22.1778],[-41.7831,-22.1777]],[[-41.7726,-22.1664],[-41.7759,-22.1667],[-41.7719,-22.1665],[-41.7726,-22.1664]]]}},{"type":"Feature","properties":{"cod_tema":"RIO_10_A_50","cod_imovel":"RJ-3301405-5D616931990E48B18FB849018F4ACC23","ind_status":"AT"},"geometry":{"type":"Polygon","coordinates":[[[-41.7686,-22.0866],[-41.7636,-22.0845],[-41.7679,-22.0868],[-41.7686,-22.0866]]]}},{"type":"Feature","properties":{"cod_tema":"RIO_ATE_10","cod_imovel":"RJ-3301405-D5F1780CFFE340679C9CFC53E97FA942","ind_status":"AT"},"geometry":{"type":"Polygon","coordinates":[[[-41.9029,-22.0823],[-41.9077,-22.0806],[-41.9029,-22.0822],[-41.9029,-22.0823]]]}},{"type":"Feature","properties":{"cod_tema":"RIO_ATE_10","cod_imovel":"RJ-3301405-DE54977FC1354855BC3917080CC45FA1","ind_status":"AT"},"geometry":{"type":"Polygon","coordinates":[[[-41.94,-22.1005],[-41.9376,-22.1048],[-41.94,-22.1004],[-41.94,-22.1005]],[[-41.9411,-22.1027],[-41.9382,-22.1054],[-41.9412,-22.1023],[-41.946,-22.1071],[-41.9412,-22.1023],[-41.9411,-22.1027]]]}},{"type":"Feature","properties":{"cod_tema":"RIO_ATE_10","cod_imovel":"RJ-3301405-84BA1672A8A4429DBBD04750BD3E0A45","ind_status":"AT"},"geometry":{"type":"Polygon","coordinates":[[[-41.9114,-22.1024],[-41.9027,-22.1065],[-41.9125,-22.1018],[-41.9114,-22.1024]],[[-41.9208,-22.1025],[-41.9222,-22.0981],[-41.9325,-22.0963],[-41.9184,-22.1005],[-41.9183,-22.0927],[-41.9163,-22.0995],[-41.9104,-22.0931],[-41.921,-22.1028],[-41.9208,-22.1025]],[[-41.9117,-22.0988],[-41.9138,-22.1053],[-41.9113,-22.0977],[-41.9117,-22.0988]],[[-41.93,-22.1056],[-41.921,-22.1029],[-41.9313,-22.1058],[-41.93,-22.1056]]]}},{"type":"Feature","properties":{"cod_tema":"RIO_ATE_10","cod_imovel":"RJ-3301405-C48E2F5055784AB0B1E6491AE9F7401F","ind_status":"AT"},"geometry":{"type":"Polygon","coordinates":[[[-41.7653,-22.1123],[-41.762,-22.1091],[-41.7653,-22.1123],[-41.7653,-22.1123]],[[-41.7622,-22.1087],[-41.7616,-22.116],[-41.762,-22.1091],[-41.7622,-22.1087]]]}},{"type":"Feature","properties":{"cod_tema":"RIO_ATE_10","cod_imovel":"RJ-3301405-B0020A29968F42399FD67C98E975E5C7","ind_status":"AT"},"geometry":{"type":"Polygon","coordinates":[[[-41.7629,-22.1051],[-41.7622,-22.1087],[-41.7628,-22.1056],[-41.7629,-22.1051]],[[-41.7692,-22.1055],[-41.7644,-22.1044],[-41.768,-22.1102],[-41.7651,-22.1047],[-41.7686,-22.105],[-41.7692,-22.1055]]]}},{"type":"Feature","properties":{"cod_tema":"RIO_ATE_10","cod_imovel":"RJ-3301405-331A1C6F3E274731B2AF306F64E83681","ind_status":"AT"},"geometry":{"type":"Polygon","coordinates":[[[-41.9183,-22.1312],[-41.9183,-22.1274],[-41.9124,-22.1306],[-41.9184,-22.1313],[-41.9183,-22.1312]]]}},{"type":"Feature","properties":{"cod_tema":"RIO_ATE_10","cod_imovel":"RJ-3301405-09C9B685843344938D2BECEB75F57959","ind_status":"PE"},"geometry":{"type":"Polygon","coordinates":[[[-41.8157,-22.1212],[-41.8137,-22.1182],[-41.8156,-22.1208],[-41.8157,-22.1212]]]}},{"type":"Feature","properties":{"cod_tema":"RIO_ATE_10","cod_imovel":"RJ-3301405-9B6FEC635D2843D3AC3ED34E84296D90","ind_status":"AT"},"geometry":{"type":"Polygon","coordinates":[[[-41.847,-22.0868],[-41.8478,-22.0908],[-41.8469,-22.0866],[-41.847,-22.0868]]]}},{"type":"Feature","properties":{"cod_tema":"RIO_ATE_10","cod_imovel":"RJ-3301405-1D728C9BD5FC473E8A521FD778D1331E","ind_status":"AT"},"geometry":{"type":"Polygon","coordinates":[[[-41.8825,-22.0742],[-41.8915,-22.0761],[-41.8823,-22.0742],[-41.8825,-22.0742]]]}},{"type":"Feature","properties":{"cod_tema":"RIO_ATE_10","cod_imovel":"RJ-3301405-BB28B535C4AB4D9BB80AE0B61177CCA3","ind_status":"AT"},"geometry":{"type":"Polygon","coordinates":[[[-41.7921,-22.1705],[-41.7976,-22.1649],[-41.7961,-22.1597],[-41.7976,-22.1649],[-41.7921,-22.1705],[-41.7921,-22.1705]]]}},{"type":"Feature","properties":{"cod_tema":"RIO_ATE_10","cod_imovel":"RJ-3301405-36C14B0B9B8144EB9E92BD6BA0F6B030","ind_status":"AT"},"geometry":{"type":"Polygon","coordinates":[[[-41.7259,-22.1435],[-41.7307,-22.1424],[-41.7264,-22.144],[-41.7199,-22.1376],[-41.7257,-22.1434],[-41.7259,-22.1435]]]}},{"type":"Feature","properties":{"cod_tema":"RIO_ATE_10","cod_imovel":"RJ-3301405-D3BDC02D7259436BBFF689EA593EB41F","ind_status":"AT"},"geometry":{"type":"Polygon","coordinates":[[[-41.874,-22.1542],[-41.8814,-22.1477],[-41.8721,-22.152],[-41.8743,-22.1545],[-41.874,-22.1542]]]}},{"type":"Feature","properties":{"cod_tema":"RIO_ATE_10","cod_imovel":"RJ-3301405-DDDD4F6320374B39B323889FEB9D2C3A","ind_status":"AT"},"geometry":{"type":"Polygon","coordinates":[[[-41.7732,-22.1635],[-41.7715,-22.1602],[-41.7732,-22.1635],[-41.7732,-22.1635]],[[-41.7826,-22.161],[-41.7735,-22.1635],[-41.7793,-22.1601],[-41.7824,-22.1644],[-41.7829,-22.1608],[-41.7826,-22.161]],[[-41.7785,-22.1678],[-41.7756,-22.1666],[-41.7833,-22.1686],[-41.7851,-22.165],[-41.7786,-22.1678],[-41.7785,-22.1678]],[[-41.7882,-22.1612],[-41.7845,-22.1651],[-41.7882,-22.1612],[-41.7882,-22.1612]]]}},{"type":"Feature","properties":{"cod_tema":"RIO_ATE_10","cod_imovel":"RJ-3301405-E0759C83E2CE4152955EA6F162A3B5C9","ind_status":"AT"},"geometry":{"type":"Polygon","coordinates":[[[-41.8948,-22.1587],[-41.8874,-22.1593],[-41.886,-22.179],[-41.8888,-22.1605],[-41.8931,-22.1681],[-41.891,-22.161],[-41.8966,-22.164],[-41.8948,-22.1587],[-41.8948,-22.1587]]]}},{"type":"Feature","properties":{"cod_tema":"RIO_ATE_10","cod_imovel":"RJ-3301405-18C235C2C6C44C3798116A6A6F8295F3","ind_status":"AT"},"geometry":{"type":"Polygon","coordinates":[[[-41.914,-22.0802],[-41.9006,-22.0816],[-41.9078,-22.0807],[-41.9099,-22.0913],[-41.9077,-22.0806],[-41.9143,-22.0803],[-41.914,-22.0802]]]}},{"type":"Feature","properties":{"cod_tema":"RIO_ATE_10","cod_imovel":"RJ-3301405-92166C5FEE16450B9E201B2DECA89ACC","ind_status":"AT"},"geometry":{"type":"Polygon","coordinates":[[[-41.7721,-22.165],[-41.772,-22.1607],[-41.7721,-22.165],[-41.7721,-22.165]]]}},{"type":"Feature","properties":{"cod_tema":"RIO_ATE_10","cod_imovel":"RJ-3301405-75F8C1C04BF448A3A7DDAA5EB066FB2A","ind_status":"PE"},"geometry":{"type":"Polygon","coordinates":[[[-41.8477,-22.129],[-41.8507,-22.1284],[-41.8476,-22.129],[-41.8477,-22.129]],[[-41.896,-22.1226],[-41.8813,-22.1258],[-41.8714,-22.1191],[-41.8616,-22.1284],[-41.8505,-22.1232],[-41.8627,-22.128],[-41.864,-22.1329],[-41.8646,-22.1284],[-41.8672,-22.1348],[-41.87,-22.1333],[-41.8664,-22.1286],[-41.8694,-22.1294],[-41.8632,-22.1279],[-41.8639,-22.1232],[-41.8749,-22.1238],[-41.8733,-22.1343],[-41.8777,-22.1364],[-41.8777,-22.1272],[-41.8835,-22.1331],[-41.8824,-22.1258],[-41.8892,-22.1369],[-41.8829,-22.1288],[-41.8932,-22.1326],[-41.8887,-22.1271],[-41.895,-22.1266],[-41.8841,-22.1258],[-41.8961,-22.1227],[-41.896,-22.1226]],[[-41.8559,-22.1317],[-41.8517,-22.1286],[-41.8559,-22.1317],[-41.8559,-22.1317]],[[-41.8633,-22.1343],[-41.861,-22.1372],[-41.8633,-22.1343],[-41.8633,-22.1343]],[[-41.8677,-22.1192],[-41.8639,-22.1176],[-41.8679,-22.1193],[-41.8677,-22.1192]],[[-41.8683,-22.1139],[-41.8646,-22.1116],[-41.8684,-22.1139],[-41.8683,-22.1139]],[[-41.8699,-22.108],[-41.8667,-22.1074],[-41.8698,-22.108],[-41.8699,-22.108]],[[-41.8787,-22.1168],[-41.8773,-22.1225],[-41.8787,-22.1168],[-41.8787,-22.1168]],[[-41.8966,-22.1375],[-41.8964,-22.1323],[-41.8913,-22.1402],[-41.8966,-22.1375],[-41.8966,-22.1375]],[[-41.8965,-22.1322],[-41.8939,-22.1338],[-41.8964,-22.1322],[-41.8965,-22.1322]],[[-41.8968,-22.1295],[-41.9002,-22.1299],[-41.8967,-22.1296],[-41.8968,-22.1295]]]}},{"type":"Feature","properties":{"cod_tema":"RIO_ATE_10","cod_imovel":"RJ-3301405-FF3A89C097204B02AD110EC953A2C23C","ind_status":"AT"},"geometry":{"type":"Polygon","coordinates":[[[-41.7379,-22.0978],[-41.743,-22.0908],[-41.7355,-22.0958],[-41.7376,-22.0986],[-41.7379,-22.0978]],[[-41.7426,-22.0977],[-41.7421,-22.0944],[-41.7433,-22.099],[-41.7426,-22.0977]]]}},{"type":"Feature","properties":{"cod_tema":"RIO_ATE_10","cod_imovel":"RJ-3301405-1363D720B2A4418EA29655110FCDBA93","ind_status":"PE"},"geometry":{"type":"Polygon","coordinates":[[[-41.7625,-22.1025],[-41.7595,-22.1008],[-41.7627,-22.1027],[-41.7625,-22.1025]]]}},{"type":"Feature","properties":{"cod_tema":"RIO_ATE_10","cod_imovel":"RJ-3301405-AA806EE30EBD43478E771B5E5B69D134","ind_status":"AT"},"geometry":{"type":"Polygon","coordinates":[[[-41.8468,-22.0806],[-41.8489,-22.0758],[-41.8449,-22.0736],[-41.8489,-22.0762],[-41.8465,-22.0809],[-41.8468,-22.0806]]]}},{"type":"Feature","properties":{"cod_tema":"RIO_ATE_10","cod_imovel":"RJ-3301405-CC86E95B7E374DD98545319B928E7DDF","ind_status":"AT"},"geometry":{"type":"Polygon","coordinates":[[[-41.8285,-22.1734],[-41.8246,-22.1689],[-41.8287,-22.1734],[-41.8285,-22.1734]],[[-41.8344,-22.1613],[-41.8246,-22.1688],[-41.8306,-22.1716],[-41.8313,-22.167],[-41.8333,-22.1716],[-41.8344,-22.1613],[-41.8344,-22.1613]]]}},{"type":"Feature","properties":{"cod_tema":"RIO_ATE_10","cod_imovel":"RJ-3301405-21E664D76B5E4545BA706DB24EACBC8A","ind_status":"AT"},"geometry":{"type":"Polygon","coordinates":[[[-41.8695,-22.1451],[-41.866,-22.1467],[-41.8697,-22.1451],[-41.8695,-22.1451]]]}},{"type":"Feature","properties":{"cod_tema":"RIO_ATE_10","cod_imovel":"RJ-3301405-2F5B9A37457746DCBDE90AEC59DDD216","ind_status":"AT"},"geometry":{"type":"Polygon","coordinates":[[[-41.8967,-22.0781],[-41.8724,-22.0686],[-41.898,-22.0785],[-41.8967,-22.0781]]]}},{"type":"Feature","properties":{"cod_tema":"RIO_ATE_10","cod_imovel":"RJ-3301405-D0749D1DA3CC4B339425206F0758579F","ind_status":"AT"},"geometry":{"type":"Polygon","coordinates":[[[-41.9562,-22.0962],[-41.9503,-22.0922],[-41.9564,-22.0963],[-41.9562,-22.0962]]]}},{"type":"Feature","properties":{"cod_tema":"RIO_ATE_10","cod_imovel":"RJ-3301405-96FC56F94CC7432893DAFF6109F57AF4","ind_status":"AT"},"geometry":{"type":"Polygon","coordinates":[[[-41.8359,-22.0981],[-41.8409,-22.1019],[-41.8356,-22.0982],[-41.8359,-22.0981]]]}},{"type":"Feature","properties":{"cod_tema":"RIO_ATE_10","cod_imovel":"RJ-3301405-20E7AA59CBAC4032A2E33B74F368941A","ind_status":"AT"},"geometry":{"type":"Polygon","coordinates":[[[-41.9619,-22.0956],[-41.9604,-22.0926],[-41.9621,-22.0956],[-41.9619,-22.0956]]]}},{"type":"Feature","properties":{"cod_tema":"RIO_ATE_10","cod_imovel":"RJ-3301405-B9ABC13FA19B4070A61FC71A362A4758","ind_status":"PE"},"geometry":{"type":"Polygon","coordinates":[[[-41.7772,-22.0952],[-41.7729,-22.0915],[-41.7772,-22.0952],[-41.7772,-22.0952]]]}},{"type":"Feature","properties":{"cod_tema":"RIO_ATE_10","cod_imovel":"RJ-3301405-9B7BB96B0BE744419B9853110AC809AA","ind_status":"AT"},"geometry":{"type":"Polygon","coordinates":[[[-41.9367,-22.13],[-41.9276,-22.1297],[-41.9376,-22.1298],[-41.9367,-22.13]]]}},{"type":"Feature","properties":{"cod_tema":"RIO_ATE_10","cod_imovel":"RJ-3301405-27A0BBE934B2412B808EDA1E31BA05C2","ind_status":"AT"},"geometry":{"type":"Polygon","coordinates":[[[-41.8599,-22.0774],[-41.8577,-22.0838],[-41.8595,-22.0765],[-41.8599,-22.0774]]]}},{"type":"Feature","properties":{"cod_tema":"RIO_ATE_10","cod_imovel":"RJ-3301405-96FA865EB5224A668A8B33DD0D76D0F8","ind_status":"AT"},"geometry":{"type":"Polygon","coordinates":[[[-41.8448,-22.1308],[-41.838,-22.1318],[-41.8372,-22.1247],[-41.8378,-22.1316],[-41.8468,-22.1362],[-41.8447,-22.1307],[-41.8448,-22.1308]]]}},{"type":"Feature","properties":{"cod_tema":"RIO_ATE_10","cod_imovel":"RJ-3301405-4D97F4313D454218AB363D383196F4FB","ind_status":"AT"},"geometry":{"type":"Polygon","coordinates":[[[-41.7915,-22.1314],[-41.7837,-22.1218],[-41.792,-22.1319],[-41.7915,-22.1314]]]}},{"type":"Feature","properties":{"cod_tema":"RIO_ATE_10","cod_imovel":"RJ-3301405-4D97F4313D454218AB363D383196F4FB","ind_status":"AT"},"geometry":{"type":"Polygon","coordinates":[[[-41.7899,-22.1261],[-41.7847,-22.119],[-41.79,-22.1265],[-41.7899,-22.1261]]]}},{"type":"Feature","properties":{"cod_tema":"RIO_10_A_50","cod_imovel":"RJ-3301405-88DBABE494D342ABA5A49276B69C7960","ind_status":"AT"},"geometry":{"type":"Polygon","coordinates":[[[-41.8306,-22.082],[-41.8252,-22.0903],[-41.8307,-22.0819],[-41.8306,-22.082]]]}},{"type":"Feature","properties":{"cod_tema":"RIO_ATE_10","cod_imovel":"RJ-3301405-B2025ECFA5094D6FB7FB540A9E3FCFEC","ind_status":"AT"},"geometry":{"type":"Polygon","coordinates":[[[-41.8085,-22.1224],[-41.8112,-22.1182],[-41.8083,-22.1225],[-41.8085,-22.1224]]]}},{"type":"Feature","properties":{"cod_tema":"RIO_ATE_10","cod_imovel":"RJ-3301405-A6D449D4C74544F7995ABA2BD522EE8D","ind_status":"AT"},"geometry":{"type":"Polygon","coordinates":[[[-41.85,-22.1041],[-41.8568,-22.109],[-41.8508,-22.1036],[-41.85,-22.1041]]]}},{"type":"Feature","properties":{"cod_tema":"RIO_ATE_10","cod_imovel":"RJ-3301405-D70E81E859AD411989A636A1A27A84B6","ind_status":"AT"},"geometry":{"type":"Polygon","coordinates":[[[-41.7161,-22.0908],[-41.6968,-22.0877],[-41.7031,-22.0912],[-41.7011,-22.0875],[-41.7084,-22.0881],[-41.7122,-22.0953],[-41.7116,-22.0903],[-41.7161,-22.0908],[-41.7161,-22.0908]],[[-41.7172,-22.0994],[-41.7127,-22.1011],[-41.7141,-22.0965],[-41.7102,-22.1021],[-41.7094,-22.0977],[-41.7013,-22.101],[-41.7091,-22.0927],[-41.7012,-22.101],[-41.7171,-22.1001],[-41.7172,-22.0994]]]}},{"type":"Feature","properties":{"cod_tema":"RIO_10_A_50","cod_imovel":"RJ-3301405-4EE92112810D4076816370D9B59EB44C","ind_status":"AT"},"geometry":{"type":"Polygon","coordinates":[[[-41.7681,-22.0843],[-41.7712,-22.0882],[-41.7683,-22.0843],[-41.7681,-22.0843]]]}},{"type":"Feature","properties":{"cod_tema":"RIO_ATE_10","cod_imovel":"RJ-3301405-7F10B897342E492C894977E6E3A252B9","ind_status":"AT"},"geometry":{"type":"Polygon","coordinates":[[[-41.8354,-22.0984],[-41.8301,-22.0984],[-41.8357,-22.0982],[-41.8354,-22.0984]]]}},{"type":"Feature","properties":{"cod_tema":"RIO_ATE_10","cod_imovel":"RJ-3301405-93CF4F73507F46FDBA9DAD855001C855","ind_status":"AT"},"geometry":{"type":"Polygon","coordinates":[[[-41.7918,-22.1538],[-41.7912,-22.147],[-41.7916,-22.1547],[-41.7918,-22.1538]],[[-41.7982,-22.1553],[-41.7948,-22.1523],[-41.7983,-22.1567],[-41.7982,-22.1553]]]}},{"type":"Feature","properties":{"cod_tema":"RIO_ATE_10","cod_imovel":"RJ-3301405-A4389696B0D345B3AD226E55A74199FE","ind_status":"AT"},"geometry":{"type":"Polygon","coordinates":[[[-41.8598,-22.0772],[-41.8577,-22.084],[-41.8597,-22.0771],[-41.8598,-22.0772]]]}},{"type":"Feature","properties":{"cod_tema":"RIO_ATE_10","cod_imovel":"RJ-3301405-D8A30A45E32341B0B3E1A7F1453FD237","ind_status":"AT"},"geometry":{"type":"Polygon","coordinates":[[[-41.7618,-22.1019],[-41.7615,-22.11],[-41.7617,-22.1017],[-41.7618,-22.1019]]]}},{"type":"Feature","properties":{"cod_tema":"RIO_ATE_10","cod_imovel":"RJ-3301405-C96D22DC2F694C0788828AD15CAED986","ind_status":"AT"},"geometry":{"type":"Polygon","coordinates":[[[-41.7796,-22.1749],[-41.7777,-22.1679],[-41.7834,-22.1702],[-41.7774,-22.1678],[-41.7797,-22.1752],[-41.7796,-22.1749]],[[-41.7938,-22.1743],[-41.7873,-22.1702],[-41.7939,-22.1743],[-41.7938,-22.1743]]]}},{"type":"Feature","properties":{"cod_tema":"RIO_ATE_10","cod_imovel":"RJ-3301405-C7C04A21B44A403CA3628100C5E0A205","ind_status":"AT"},"geometry":{"type":"Polygon","coordinates":[[[-41.8648,-22.1104],[-41.8613,-22.1104],[-41.8649,-22.1103],[-41.8648,-22.1104]]]}},{"type":"Feature","properties":{"cod_tema":"RIO_ATE_10","cod_imovel":"RJ-3301405-FF762B6A0F4A45969190CEB932629BCA","ind_status":"AT"},"geometry":{"type":"Polygon","coordinates":[[[-41.8599,-22.2676],[-41.8579,-22.2799],[-41.8598,-22.2674],[-41.8599,-22.2676]],[[-41.8599,-22.2667],[-41.8422,-22.2114],[-41.8599,-22.2667],[-41.8599,-22.2667]]]}},{"type":"Feature","properties":{"cod_tema":"RIO_ATE_10","cod_imovel":"RJ-3301405-47CC8F6247B249A79AF4F12CEFBB57A7","ind_status":"AT"},"geometry":{"type":"Polygon","coordinates":[[[-41.8414,-22.1464],[-41.8397,-22.1425],[-41.8415,-22.1464],[-41.8414,-22.1464]]]}},{"type":"Feature","properties":{"cod_tema":"RIO_ATE_10","cod_imovel":"RJ-3301405-431F8515BB9144BDB91062D163142B17","ind_status":"AT"},"geometry":{"type":"Polygon","coordinates":[[[-41.8479,-22.1861],[-41.8469,-22.1805],[-41.8481,-22.1862],[-41.8479,-22.1861]]]}},{"type":"Feature","properties":{"cod_tema":"RIO_ATE_10","cod_imovel":"RJ-3301405-F6B96047C16B46379EA4E752FB61CF4B","ind_status":"AT"},"geometry":{"type":"Polygon","coordinates":[[[-41.9104,-22.0932],[-41.9165,-22.0927],[-41.91,-22.0922],[-41.9104,-22.0932]]]}},{"type":"Feature","properties":{"cod_tema":"RIO_ATE_10","cod_imovel":"RJ-3301405-D072176F892B435DBB4987138BC5BD41","ind_status":"AT"},"geometry":{"type":"Polygon","coordinates":[[[-41.8697,-22.1611],[-41.8705,-22.1553],[-41.8697,-22.1613],[-41.8697,-22.1611]]]}},{"type":"Feature","properties":{"cod_tema":"RIO_ATE_10","cod_imovel":"RJ-3301405-50FD9FDA15E24072B9E7DFCFEE58AADF","ind_status":"AT"},"geometry":{"type":"Polygon","coordinates":[[[-41.7256,-22.1432],[-41.7201,-22.1377],[-41.7257,-22.1433],[-41.7256,-22.1432]]]}},{"type":"Feature","properties":{"cod_tema":"RIO_ATE_10","cod_imovel":"RJ-3301405-B2600CBC74D14315B7BD36F79E15A5B8","ind_status":"AT"},"geometry":{"type":"Polygon","coordinates":[[[-41.8505,-22.1958],[-41.8556,-22.1862],[-41.8544,-22.1742],[-41.8556,-22.1862],[-41.8505,-22.1958],[-41.8505,-22.1958]]]}},{"type":"Feature","properties":{"cod_tema":"RESERVATORIO_ARTIFICIAL_DECORRENTE_BARRAMENTO","cod_imovel":"RJ-3301405-6E366D095FBC4A5395794894258AF626","ind_status":"AT"},"geometry":{"type":"Polygon","coordinates":[[[-41.7853,-22.147],[-41.7881,-22.1508],[-41.7865,-22.1477],[-41.7853,-22.147]]]}},{"type":"Feature","properties":{"cod_tema":"RIO_ATE_10","cod_imovel":"RJ-3301405-255AF8B636A64FB788DAF6C899DD7F06","ind_status":"AT"},"geometry":{"type":"Polygon","coordinates":[[[-41.8126,-22.1447],[-41.8064,-22.146],[-41.8127,-22.1447],[-41.8126,-22.1447]],[[-41.8114,-22.1498],[-41.8073,-22.147],[-41.8115,-22.1499],[-41.8114,-22.1498]]]}},{"type":"Feature","properties":{"cod_tema":"RIO_ATE_10","cod_imovel":"RJ-3301405-9EC4E3E7FF5147AF8B943F76E3F9E410","ind_status":"AT"},"geometry":{"type":"Polygon","coordinates":[[[-41.8533,-22.1589],[-41.8597,-22.1585],[-41.8595,-22.1634],[-41.861,-22.1564],[-41.8526,-22.1588],[-41.8533,-22.1589]]]}},{"type":"Feature","properties":{"cod_tema":"RIO_ATE_10","cod_imovel":"RJ-3301405-FDAF28B6C40B4A15B26052E3FE2B782A","ind_status":"AT"},"geometry":{"type":"Polygon","coordinates":[[[-41.9093,-22.0895],[-41.9114,-22.0979],[-41.9059,-22.099],[-41.9122,-22.1001],[-41.9089,-22.0854],[-41.9073,-22.0913],[-41.8969,-22.0926],[-41.9053,-22.0918],[-41.9062,-22.0962],[-41.9092,-22.0896],[-41.9093,-22.0895]]]}},{"type":"Feature","properties":{"cod_tema":"RIO_ATE_10","cod_imovel":"RJ-3301405-A5A1DFA766294B8C8629D780051566F7","ind_status":"AT"},"geometry":{"type":"Polygon","coordinates":[[[-41.82,-22.1147],[-41.8225,-22.1092],[-41.827,-22.1105],[-41.8197,-22.1031],[-41.8207,-22.1155],[-41.82,-22.1147]],[[-41.8316,-22.1075],[-41.8278,-22.1015],[-41.8315,-22.103],[-41.8248,-22.1011],[-41.8316,-22.1075],[-41.8316,-22.1075]],[[-41.8299,-22.0984],[-41.8264,-22.1004],[-41.8302,-22.0984],[-41.8299,-22.0984]]]}},{"type":"Feature","properties":{"cod_tema":"RIO_ATE_10","cod_imovel":"RJ-3301405-DE18A5880BD448B1B0F8824D79621DE4","ind_status":"AT"},"geometry":{"type":"Polygon","coordinates":[[[-41.9003,-22.119],[-41.9027,-22.1158],[-41.9,-22.1193],[-41.9003,-22.119]],[[-41.898,-22.1184],[-41.9031,-22.1123],[-41.8978,-22.1187],[-41.898,-22.1184]]]}},{"type":"Feature","properties":{"cod_tema":"RIO_ATE_10","cod_imovel":"RJ-3301405-613AC77A4B614D7EA2BC648683DABC55","ind_status":"AT"},"geometry":{"type":"Polygon","coordinates":[[[-41.95,-22.0821],[-41.9504,-22.0755],[-41.9496,-22.0823],[-41.95,-22.0821]]]}},{"type":"Feature","properties":{"cod_tema":"RIO_ATE_10","cod_imovel":"RJ-3301405-B9E32F6298A34BCE96A875FD0181545D","ind_status":"AT"},"geometry":{"type":"Polygon","coordinates":[[[-41.8194,-22.1864],[-41.8377,-22.1969],[-41.8194,-22.1862],[-41.8194,-22.1864]]]}},{"type":"Feature","properties":{"cod_tema":"RIO_10_A_50","cod_imovel":"RJ-3301405-3E7CB30A4BC7447E9BFD1228080D8DD9","ind_status":"AT"},"geometry":{"type":"Polygon","coordinates":[[[-41.8735,-22.2773],[-41.8787,-22.2749],[-41.874,-22.2771],[-41.8735,-22.2773]]]}},{"type":"Feature","properties":{"cod_tema":"RIO_ATE_10","cod_imovel":"RJ-3301405-0ACFCA89C83E4DFF8AB34BAF87264847","ind_status":"AT"},"geometry":{"type":"Polygon","coordinates":[[[-41.8062,-22.1831],[-41.8194,-22.1863],[-41.8131,-22.179],[-41.8195,-22.1699],[-41.8131,-22.179],[-41.8154,-22.1848],[-41.8057,-22.1832],[-41.8062,-22.1831]]]}},{"type":"Feature","properties":{"cod_tema":"RIO_ATE_10","cod_imovel":"RJ-3301405-5C143BE28ACB409A8341CCF47653E1E9","ind_status":"AT"},"geometry":{"type":"Polygon","coordinates":[[[-41.9451,-22.0834],[-41.9418,-22.0845],[-41.9463,-22.0847],[-41.944,-22.0791],[-41.9453,-22.0832],[-41.9451,-22.0834]]]}},{"type":"Feature","properties":{"cod_tema":"RIO_ATE_10","cod_imovel":"RJ-3301405-2EC04DBB655640C0A271F1C48C272F7D","ind_status":"AT"},"geometry":{"type":"Polygon","coordinates":[[[-41.9179,-22.0815],[-41.9094,-22.0872],[-41.9068,-22.0799],[-41.9006,-22.0816],[-41.9078,-22.0807],[-41.9099,-22.0913],[-41.9087,-22.0865],[-41.9191,-22.0892],[-41.9123,-22.0859],[-41.9183,-22.0814],[-41.9179,-22.0815]]]}},{"type":"Feature","properties":{"cod_tema":"LAGO_NATURAL","cod_imovel":"RJ-3301405-BCB443AF2F16467D80E25537BDC494A6","ind_status":"AT"},"geometry":{"type":"Polygon","coordinates":[[[-41.8672,-22.2298],[-41.8648,-22.2323],[-41.8673,-22.2297],[-41.8672,-22.2298]],[[-41.8812,-22.2034],[-41.8787,-22.2061],[-41.8812,-22.2032],[-41.8812,-22.2034]],[[-41.8749,-22.2397],[-41.8775,-22.2438],[-41.8809,-22.2402],[-41.8751,-22.2395],[-41.8749,-22.2397]]]}},{"type":"Feature","properties":{"cod_tema":"RIO_ATE_10","cod_imovel":"RJ-3301405-D1327C0C747846E3B812E0B4FFC552AB","ind_status":"AT"},"geometry":{"type":"Polygon","coordinates":[[[-41.9034,-22.1128],[-41.9112,-22.1108],[-41.9029,-22.1128],[-41.9034,-22.1128]]]}},{"type":"Feature","properties":{"cod_tema":"RIO_ATE_10","cod_imovel":"RJ-3301405-2D3D729956B14D178C25A5F18A8094AB","ind_status":"AT"},"geometry":{"type":"Polygon","coordinates":[[[-41.7968,-22.1145],[-41.7982,-22.1226],[-41.7967,-22.1145],[-41.7968,-22.1145]]]}},{"type":"Feature","properties":{"cod_tema":"RIO_ATE_10","cod_imovel":"RJ-3301405-A81746778C434C5A9F6F7D7027E34813","ind_status":"AT"},"geometry":{"type":"Polygon","coordinates":[[[-41.8192,-22.1534],[-41.8112,-22.1493],[-41.8192,-22.1534],[-41.8192,-22.1534]]]}},{"type":"Feature","properties":{"cod_tema":"RIO_10_A_50","cod_imovel":"RJ-3301405-356F6A0F90104D3DBE3BD8D671537624","ind_status":"AT"},"geometry":{"type":"Polygon","coordinates":[[[-41.7713,-22.0882],[-41.7729,-22.0916],[-41.7713,-22.0883],[-41.7713,-22.0882]]]}},{"type":"Feature","properties":{"cod_tema":"RIO_ATE_10","cod_imovel":"RJ-3301405-0F5856D345B64F7D831602B09F1B5CF1","ind_status":"AT"},"geometry":{"type":"Polygon","coordinates":[[[-41.8205,-22.1371],[-41.8233,-22.1296],[-41.8264,-22.1336],[-41.8214,-22.1243],[-41.8207,-22.1374],[-41.8205,-22.1371]]]}},{"type":"Feature","properties":{"cod_tema":"RIO_ATE_10","cod_imovel":"RJ-3301405-2E3E0651372C418F991BCD31E105B611","ind_status":"AT"},"geometry":{"type":"Polygon","coordinates":[[[-41.9269,-22.1491],[-41.9233,-22.1453],[-41.9261,-22.1392],[-41.9233,-22.1453],[-41.9268,-22.1504],[-41.9269,-22.1491]],[[-41.9319,-22.1373],[-41.9183,-22.1276],[-41.932,-22.1376],[-41.9319,-22.1373]]]}},{"type":"Feature","properties":{"cod_tema":"RIO_ATE_10","cod_imovel":"RJ-3301405-E48F8CB4A1FD4F17AFC55AEB209366AF","ind_status":"AT"},"geometry":{"type":"Polygon","coordinates":[[[-41.9219,-22.1446],[-41.9171,-22.1428],[-41.9173,-22.1309],[-41.9179,-22.1571],[-41.9178,-22.1441],[-41.922,-22.1445],[-41.9219,-22.1446]]]}},{"type":"Feature","properties":{"cod_tema":"RIO_ATE_10","cod_imovel":"RJ-3301405-786D3D2133A0490BB46B894FB3B75D32","ind_status":"AT"},"geometry":{"type":"Polygon","coordinates":[[[-41.9014,-22.0818],[-41.8973,-22.079],[-41.9016,-22.082],[-41.9014,-22.0818]]]}},{"type":"Feature","properties":{"cod_tema":"RIO_ATE_10","cod_imovel":"RJ-3301405-C2F2F57C6C2C4B47B0B48CFB797DACF4","ind_status":"AT"},"geometry":{"type":"Polygon","coordinates":[[[-41.8873,-22.2638],[-41.8859,-22.2578],[-41.8837,-22.272],[-41.8873,-22.2638],[-41.8873,-22.2638]]]}},{"type":"Feature","properties":{"cod_tema":"RIO_10_A_50","cod_imovel":"RJ-3301405-C2F2F57C6C2C4B47B0B48CFB797DACF4","ind_status":"AT"},"geometry":{"type":"Polygon","coordinates":[[[-41.8844,-22.2716],[-41.8727,-22.2781],[-41.8845,-22.2716],[-41.8844,-22.2716]]]}},{"type":"Feature","properties":{"cod_tema":"RIO_ATE_10","cod_imovel":"RJ-3301405-B8518DFF2F0942E99553146B2C0BFCBC","ind_status":"AT"},"geometry":{"type":"Polygon","coordinates":[[[-41.8775,-22.2524],[-41.8862,-22.2588],[-41.8775,-22.2524],[-41.8775,-22.2524]]]}},{"type":"Feature","properties":{"cod_tema":"RIO_ATE_10","cod_imovel":"RJ-3301405-C30D90EDF7E24ACC9C798E4C9D43B2D5","ind_status":"AT"},"geometry":{"type":"Polygon","coordinates":[[[-41.8393,-22.1373],[-41.8263,-22.1311],[-41.8395,-22.1374],[-41.8393,-22.1373]]]}},{"type":"Feature","properties":{"cod_tema":"RIO_ATE_10","cod_imovel":"RJ-3301405-2C259B37564044018908CDBDA3B10313","ind_status":"AT"},"geometry":{"type":"Polygon","coordinates":[[[-41.8344,-22.1657],[-41.837,-22.1689],[-41.8339,-22.1657],[-41.8344,-22.1657]],[[-41.8481,-22.1594],[-41.8359,-22.1622],[-41.8439,-22.1641],[-41.8459,-22.1742],[-41.8415,-22.1636],[-41.8484,-22.1594],[-41.8481,-22.1594]]]}},{"type":"Feature","properties":{"cod_tema":"RIO_ATE_10","cod_imovel":"RJ-3301405-9A45AEE1EF304519B6E9715A98805100","ind_status":"AT"},"geometry":{"type":"Polygon","coordinates":[[[-41.8624,-22.1551],[-41.8636,-22.1515],[-41.8623,-22.1552],[-41.8624,-22.1551]]]}},{"type":"Feature","properties":{"cod_tema":"RIO_ATE_10","cod_imovel":"RJ-3301405-48B525E935A048C1A84F12F3FAF9EC70","ind_status":"AT"},"geometry":{"type":"Polygon","coordinates":[[[-41.8669,-22.1492],[-41.8636,-22.1515],[-41.8671,-22.1493],[-41.8669,-22.1492]]]}},{"type":"Feature","properties":{"cod_tema":"RIO_ATE_10","cod_imovel":"RJ-3301405-CD4FF046A7AC4497BA743B0ECA69FFA8","ind_status":"AT"},"geometry":{"type":"Polygon","coordinates":[[[-41.9092,-22.0852],[-41.9038,-22.0878],[-41.9088,-22.0855],[-41.9092,-22.0852]]]}},{"type":"Feature","properties":{"cod_tema":"RIO_ATE_10","cod_imovel":"RJ-3301405-E09D02B2CEED4DE18D93E446DF41C2B8","ind_status":"AT"},"geometry":{"type":"Polygon","coordinates":[[[-41.9355,-22.0764],[-41.936,-22.0721],[-41.9356,-22.0768],[-41.9355,-22.0764]]]}},{"type":"Feature","properties":{"cod_tema":"RIO_ATE_10","cod_imovel":"RJ-3301405-E09D02B2CEED4DE18D93E446DF41C2B8","ind_status":"AT"},"geometry":{"type":"Polygon","coordinates":[[[-41.9307,-22.061],[-41.9351,-22.0665],[-41.9306,-22.0609],[-41.9307,-22.061]]]}},{"type":"Feature","properties":{"cod_tema":"RIO_ATE_10","cod_imovel":"RJ-3301405-E09D02B2CEED4DE18D93E446DF41C2B8","ind_status":"AT"},"geometry":{"type":"Polygon","coordinates":[[[-41.9099,-22.069],[-41.9359,-22.0569],[-41.9416,-22.0704],[-41.9475,-22.0716],[-41.9416,-22.0704],[-41.936,-22.0568],[-41.9098,-22.0691],[-41.9099,-22.069]]]}},{"type":"Feature","properties":{"cod_tema":"RIO_ATE_10","cod_imovel":"RJ-3301405-E09D02B2CEED4DE18D93E446DF41C2B8","ind_status":"AT"},"geometry":{"type":"Polygon","coordinates":[[[-41.9423,-22.0711],[-41.9378,-22.0719],[-41.9424,-22.0709],[-41.9423,-22.0711]]]}},{"type":"Feature","properties":{"cod_tema":"RIO_ATE_10","cod_imovel":"RJ-3301405-E09D02B2CEED4DE18D93E446DF41C2B8","ind_status":"AT"},"geometry":{"type":"Polygon","coordinates":[[[-41.9378,-22.072],[-41.9441,-22.0791],[-41.9379,-22.0719],[-41.9303,-22.0731],[-41.9367,-22.0715],[-41.9378,-22.072]]]}},{"type":"Feature","properties":{"cod_tema":"RIO_ATE_10","cod_imovel":"RJ-3301405-E09D02B2CEED4DE18D93E446DF41C2B8","ind_status":"AT"},"geometry":{"type":"Polygon","coordinates":[[[-41.9347,-22.0727],[-41.9328,-22.0776],[-41.939,-22.0844],[-41.9329,-22.0776],[-41.9348,-22.0727],[-41.9347,-22.0727]]]}},{"type":"Feature","properties":{"cod_tema":"RIO_ATE_10","cod_imovel":"RJ-3301405-E09D02B2CEED4DE18D93E446DF41C2B8","ind_status":"AT"},"geometry":{"type":"Polygon","coordinates":[[[-41.9236,-22.0723],[-41.9214,-22.0773],[-41.9236,-22.0722],[-41.9236,-22.0723]]]}},{"type":"Feature","properties":{"cod_tema":"RIO_ATE_10","cod_imovel":"RJ-3301405-E09D02B2CEED4DE18D93E446DF41C2B8","ind_status":"AT"},"geometry":{"type":"Polygon","coordinates":[[[-41.923,-22.064],[-41.9296,-22.0645],[-41.9283,-22.0679],[-41.9299,-22.065],[-41.9228,-22.0641],[-41.923,-22.064]]]}},{"type":"Feature","properties":{"cod_tema":"RIO_ATE_10","cod_imovel":"RJ-3301405-E09D02B2CEED4DE18D93E446DF41C2B8","ind_status":"AT"},"geometry":{"type":"Polygon","coordinates":[[[-41.9295,-22.0852],[-41.9282,-22.0738],[-41.9114,-22.0684],[-41.9282,-22.0739],[-41.9295,-22.0854],[-41.9295,-22.0852]]]}},{"type":"Feature","properties":{"cod_tema":"RIO_ATE_10","cod_imovel":"RJ-3301405-E09D02B2CEED4DE18D93E446DF41C2B8","ind_status":"AT"},"geometry":{"type":"Polygon","coordinates":[[[-41.9261,-22.0723],[-41.9254,-22.0858],[-41.9261,-22.0721],[-41.9261,-22.0723]]]}},{"type":"Feature","properties":{"cod_tema":"RIO_ATE_10","cod_imovel":"RJ-3301405-95B171DED1ED4109827E70A919F88BCA","ind_status":"AT"},"geometry":{"type":"Polygon","coordinates":[[[-41.84,-22.1987],[-41.8368,-22.1963],[-41.8401,-22.1989],[-41.84,-22.1987]]]}},{"type":"Feature","properties":{"cod_tema":"RIO_ATE_10","cod_imovel":"RJ-3301405-D9243B6046B0459E9B9284EF5C882C2A","ind_status":"AT"},"geometry":{"type":"Polygon","coordinates":[[[-41.8795,-22.1704],[-41.8706,-22.1633],[-41.8796,-22.1704],[-41.8795,-22.1704]]]}},{"type":"Feature","properties":{"cod_tema":"RIO_ATE_10","cod_imovel":"RJ-3301405-D9243B6046B0459E9B9284EF5C882C2A","ind_status":"AT"},"geometry":{"type":"Polygon","coordinates":[[[-41.8767,-22.1721],[-41.871,-22.1705],[-41.8698,-22.1608],[-41.8709,-22.1705],[-41.8775,-22.1722],[-41.8767,-22.1721]]]}},{"type":"Feature","properties":{"cod_tema":"RIO_ATE_10","cod_imovel":"RJ-3301405-A06F27CA47A34FAF9CAD836A61A40E94","ind_status":"AT"},"geometry":{"type":"Polygon","coordinates":[[[-41.9365,-22.0969],[-41.9318,-22.0968],[-41.9364,-22.0968],[-41.9365,-22.0969]]]}},{"type":"Feature","properties":{"cod_tema":"RIO_ATE_10","cod_imovel":"RJ-3301405-8F0C63CF5EAC4059A7D1CFF65EC6B0DD","ind_status":"AT"},"geometry":{"type":"Polygon","coordinates":[[[-41.8246,-22.1689],[-41.8191,-22.1698],[-41.8247,-22.1689],[-41.8246,-22.1689]]]}},{"type":"Feature","properties":{"cod_tema":"RIO_ATE_10","cod_imovel":"RJ-3301405-8F0C63CF5EAC4059A7D1CFF65EC6B0DD","ind_status":"AT"},"geometry":{"type":"Polygon","coordinates":[[[-41.8231,-22.1657],[-41.8219,-22.1685],[-41.8232,-22.1657],[-41.8231,-22.1657]]]}},{"type":"Feature","properties":{"cod_tema":"LAGO_NATURAL","cod_imovel":"RJ-3301405-8F0C63CF5EAC4059A7D1CFF65EC6B0DD","ind_status":"AT"},"geometry":{"type":"Polygon","coordinates":[[[-41.8178,-22.1634],[-41.8202,-22.167],[-41.8178,-22.1634],[-41.8178,-22.1634]]]}},{"type":"Feature","properties":{"cod_tema":"RIO_ATE_10","cod_imovel":"RJ-3301405-A0E3A0522379496BB61CC0E01624C897","ind_status":"AT"},"geometry":{"type":"Polygon","coordinates":[[[-41.8338,-22.119],[-41.8306,-22.1148],[-41.8338,-22.1191],[-41.8338,-22.119]]]}},{"type":"Feature","properties":{"cod_tema":"RIO_ATE_10","cod_imovel":"RJ-3301405-A0E3A0522379496BB61CC0E01624C897","ind_status":"AT"},"geometry":{"type":"Polygon","coordinates":[[[-41.8363,-22.1184],[-41.8306,-22.1148],[-41.8364,-22.1185],[-41.8363,-22.1184]]]}},{"type":"Feature","properties":{"cod_tema":"RIO_ATE_10","cod_imovel":"RJ-3301405-C8D9DBD8345C461C9EDE1F61F733B222","ind_status":"AT"},"geometry":{"type":"Polygon","coordinates":[[[-41.8065,-22.1256],[-41.8017,-22.136],[-41.8066,-22.1255],[-41.8065,-22.1256]]]}},{"type":"Feature","properties":{"cod_tema":"RIO_ATE_10","cod_imovel":"RJ-3301405-22A3ABE72193400EB477739175E21F97","ind_status":"AT"},"geometry":{"type":"Polygon","coordinates":[[[-41.8861,-22.0924],[-41.8838,-22.0975],[-41.8886,-22.0904],[-41.8928,-22.0917],[-41.8875,-22.0844],[-41.8885,-22.0906],[-41.8833,-22.0943],[-41.886,-22.0925],[-41.8861,-22.0924]]]}},{"type":"Feature","properties":{"cod_tema":"RIO_ATE_10","cod_imovel":"RJ-3301405-BF045AAA9CB245A89D0EEC6CEF5B60AA","ind_status":"AT"},"geometry":{"type":"Polygon","coordinates":[[[-41.7995,-22.1387],[-41.8017,-22.136],[-41.7972,-22.1398],[-41.7944,-22.1356],[-41.7963,-22.1404],[-41.7996,-22.1389],[-41.7995,-22.1387]]]}},{"type":"Feature","properties":{"cod_tema":"RIO_ATE_10","cod_imovel":"RJ-3301405-B2D95674E7B647C297CE4E30C3F2909D","ind_status":"AT"},"geometry":{"type":"Polygon","coordinates":[[[-41.9448,-22.142],[-41.939,-22.1414],[-41.9452,-22.1421],[-41.9448,-22.142]]]}},{"type":"Feature","properties":{"cod_tema":"RIO_ATE_10","cod_imovel":"RJ-3301405-5DAED0C198284AC2B5CCAD81A04B0977","ind_status":"AT"},"geometry":{"type":"Polygon","coordinates":[[[-41.9418,-22.1452],[-41.9327,-22.143],[-41.9418,-22.1452],[-41.9418,-22.1452]]]}},{"type":"Feature","properties":{"cod_tema":"RIO_ATE_10","cod_imovel":"RJ-3301405-D93B3E01B374401AAFC0A9B0A27C6F64","ind_status":"PE"},"geometry":{"type":"Polygon","coordinates":[[[-41.7413,-22.1034],[-41.7455,-22.105],[-41.7411,-22.1035],[-41.7413,-22.1034]]]}},{"type":"Feature","properties":{"cod_tema":"RIO_ATE_10","cod_imovel":"RJ-3301405-5F0BE8128F224810B39ACF37D4AAD056","ind_status":"AT"},"geometry":{"type":"Polygon","coordinates":[[[-41.9071,-22.0674],[-41.9035,-22.0576],[-41.8876,-22.049],[-41.8928,-22.0421],[-41.8889,-22.0485],[-41.8748,-22.0533],[-41.8876,-22.0491],[-41.9035,-22.0577],[-41.9074,-22.0676],[-41.9071,-22.0674]]]}},{"type":"Feature","properties":{"cod_tema":"RIO_ATE_10","cod_imovel":"RJ-3301405-1351F191E7F54E1195861E751657C24B","ind_status":"AT"},"geometry":{"type":"Polygon","coordinates":[[[-41.9345,-22.1142],[-41.9136,-22.1062],[-41.9182,-22.1182],[-41.9153,-22.1089],[-41.9345,-22.1142],[-41.9345,-22.1142]]]}},{"type":"Feature","properties":{"cod_tema":"RIO_ATE_10","cod_imovel":"RJ-3301405-DE839031C40047AC8C7FCCE83D4D4757","ind_status":"AT"},"geometry":{"type":"Polygon","coordinates":[[[-41.8551,-22.1381],[-41.8519,-22.1402],[-41.857,-22.1431],[-41.8525,-22.1402],[-41.8554,-22.1379],[-41.8551,-22.1381]]]}},{"type":"Feature","properties":{"cod_tema":"RIO_ATE_10","cod_imovel":"RJ-3301405-41EFF5563D9448E6A6DECF1CE5261BF4","ind_status":"AT"},"geometry":{"type":"Polygon","coordinates":[[[-41.8381,-22.1593],[-41.8376,-22.1555],[-41.8378,-22.1596],[-41.8381,-22.1593]]]}},{"type":"Feature","properties":{"cod_tema":"RIO_ATE_10","cod_imovel":"RJ-3301405-989E5A9CFCFE4CFB9CD7699501888ECB","ind_status":"AT"},"geometry":{"type":"Polygon","coordinates":[[[-41.8774,-22.1734],[-41.873,-22.1737],[-41.8779,-22.1729],[-41.8774,-22.1734]]]}},{"type":"Feature","properties":{"cod_tema":"RIO_ATE_10","cod_imovel":"RJ-3301405-FF67CDFBFF904B4891CCBD869EF2F230","ind_status":"AT"},"geometry":{"type":"Polygon","coordinates":[[[-41.8607,-22.1215],[-41.85,-22.1236],[-41.8362,-22.1185],[-41.8414,-22.1208],[-41.8372,-22.1255],[-41.843,-22.1202],[-41.85,-22.1237],[-41.8608,-22.121],[-41.8607,-22.1215]]]}},{"type":"Feature","properties":{"cod_tema":"RIO_ATE_10","cod_imovel":"RJ-3301405-8616CB7DFA4746BB81067A9B278FE49E","ind_status":"AT"},"geometry":{"type":"Polygon","coordinates":[[[-41.814,-22.1352],[-41.8045,-22.132],[-41.8146,-22.1355],[-41.814,-22.1352]]]}},{"type":"Feature","properties":{"cod_tema":"RIO_ATE_10","cod_imovel":"RJ-3301405-8EE9FF35FF144D8CBB33602145C86D22","ind_status":"AT"},"geometry":{"type":"Polygon","coordinates":[[[-41.814,-22.1352],[-41.8045,-22.132],[-41.8146,-22.1355],[-41.814,-22.1352]]]}},{"type":"Feature","properties":{"cod_tema":"RIO_ATE_10","cod_imovel":"RJ-3301405-0C52C2E867D1443DA25754F90EEB2208","ind_status":"AT"},"geometry":{"type":"Polygon","coordinates":[[[-41.8607,-22.1215],[-41.8414,-22.1209],[-41.8608,-22.121],[-41.8607,-22.1215]]]}},{"type":"Feature","properties":{"cod_tema":"RIO_ATE_10","cod_imovel":"RJ-3301405-D2862310DAD74C08A71F29C25EE0A1D7","ind_status":"AT"},"geometry":{"type":"Polygon","coordinates":[[[-41.8607,-22.1215],[-41.8414,-22.1209],[-41.8608,-22.121],[-41.8607,-22.1215]]]}},{"type":"Feature","properties":{"cod_tema":"RIO_ATE_10","cod_imovel":"RJ-3301405-83ADDD387AD54AA19C57A6158B7275D8","ind_status":"AT"},"geometry":{"type":"Polygon","coordinates":[[[-41.7902,-22.1626],[-41.7814,-22.1537],[-41.787,-22.1597],[-41.7848,-22.1627],[-41.7902,-22.1626],[-41.7902,-22.1626]],[[-41.7872,-22.1558],[-41.7839,-22.1526],[-41.7873,-22.1557],[-41.7872,-22.1558]]]}},{"type":"Feature","properties":{"cod_tema":"RIO_ATE_10","cod_imovel":"RJ-3301405-CCC1C3B5B0FF46AD9A88456DFFCE9424","ind_status":"AT"},"geometry":{"type":"Polygon","coordinates":[[[-41.8292,-22.1788],[-41.8279,-22.1863],[-41.8326,-22.1797],[-41.8292,-22.1784],[-41.8292,-22.1788]]]}},{"type":"Feature","properties":{"cod_tema":"RIO_ATE_10","cod_imovel":"RJ-3301405-EAA8A80C1F834356AB2A3696A8EA07AE","ind_status":"AT"},"geometry":{"type":"Polygon","coordinates":[[[-41.8843,-22.1587],[-41.8779,-22.1564],[-41.8849,-22.1588],[-41.8843,-22.1587]]]}},{"type":"Feature","properties":{"cod_tema":"RIO_ATE_10","cod_imovel":"RJ-3301405-521033A42C89480B9BDB7CB3E8F6ECD1","ind_status":"PE"},"geometry":{"type":"Polygon","coordinates":[[[-41.7112,-22.1217],[-41.7082,-22.1182],[-41.7121,-22.1227],[-41.7112,-22.1217]],[[-41.7173,-22.1168],[-41.7142,-22.1159],[-41.718,-22.1162],[-41.7173,-22.1168]]]}},{"type":"Feature","properties":{"cod_tema":"RIO_ATE_10","cod_imovel":"RJ-3301405-E243AF0F6A254750A56A03C88C8946F0","ind_status":"PE"},"geometry":{"type":"Polygon","coordinates":[[[-41.7506,-22.0934],[-41.7451,-22.0896],[-41.751,-22.0937],[-41.7506,-22.0934]],[[-41.762,-22.0842],[-41.7502,-22.0862],[-41.7617,-22.0843],[-41.762,-22.0842]]]}},{"type":"Feature","properties":{"cod_tema":"RIO_ATE_10","cod_imovel":"RJ-3301405-8E7206C3FED44123BECCC61EB540D7D9","ind_status":"AT"},"geometry":{"type":"Polygon","coordinates":[[[-41.8778,-22.0545],[-41.864,-22.0428],[-41.8719,-22.0496],[-41.8598,-22.0626],[-41.8616,-22.0522],[-41.8589,-22.0578],[-41.8554,-22.0521],[-41.8597,-22.0626],[-41.8511,-22.0689],[-41.8627,-22.0616],[-41.8638,-22.0697],[-41.8657,-22.065],[-41.8694,-22.0688],[-41.8649,-22.0802],[-41.8678,-22.0732],[-41.8699,-22.0805],[-41.869,-22.0662],[-41.8822,-22.0742],[-41.8607,-22.0619],[-41.8653,-22.0577],[-41.8733,-22.0608],[-41.8653,-22.0576],[-41.8712,-22.0514],[-41.8824,-22.0644],[-41.8764,-22.0582],[-41.88,-22.0546],[-41.8836,-22.0574],[-41.8779,-22.0545],[-41.8835,-22.0505],[-41.8779,-22.054],[-41.8778,-22.0545]],[[-41.8603,-22.0793],[-41.8581,-22.0693],[-41.8516,-22.0706],[-41.858,-22.0693],[-41.8601,-22.0797],[-41.8603,-22.0793]]]}},{"type":"Feature","properties":{"cod_tema":"RIO_ATE_10","cod_imovel":"RJ-3301405-44C91FBBC4CA44FCB359E6F190B3099C","ind_status":"AT"},"geometry":{"type":"Polygon","coordinates":[[[-41.8152,-22.1239],[-41.816,-22.1281],[-41.815,-22.1236],[-41.8152,-22.1239]]]}},{"type":"Feature","properties":{"cod_tema":"RIO_ATE_10","cod_imovel":"RJ-3301405-789D68CE9F734BAC9F7A37FC50A6E3B1","ind_status":"AT"},"geometry":{"type":"Polygon","coordinates":[[[-41.8271,-22.1113],[-41.831,-22.113],[-41.8271,-22.1109],[-41.8271,-22.1113]]]}}]}