{"type":"FeatureCollection","features":[{"type":"Feature","properties":{"cod_tema":"RIO_ATE_10","cod_imovel":"RJ-3301801-BAEFD18F75A9434F8B096CFAC0E72BBB","ind_status":"AT"},"geometry":{"type":"Polygon","coordinates":[[[-43.63,-22.5034],[-43.6317,-22.4979],[-43.6297,-22.5057],[-43.63,-22.5034]],[[-43.6273,-22.4995],[-43.618,-22.5049],[-43.6291,-22.4977],[-43.6273,-22.4995]]]}},{"type":"Feature","properties":{"cod_tema":"RIO_ATE_10","cod_imovel":"RJ-3301801-EBC6FDC8DFCB4377BC3BD9B41EC4B553","ind_status":"AT"},"geometry":{"type":"Polygon","coordinates":[[[-43.6674,-22.473],[-43.6636,-22.4735],[-43.6669,-22.4732],[-43.6674,-22.473]]]}},{"type":"Feature","properties":{"cod_tema":"RIO_ATE_10","cod_imovel":"RJ-3301801-FE6B358427D4459C9E9EBD85666D2EE8","ind_status":"AT"},"geometry":{"type":"Polygon","coordinates":[[[-43.645,-22.5388],[-43.6476,-22.5357],[-43.645,-22.5388],[-43.645,-22.5388]],[[-43.649,-22.5417],[-43.6537,-22.5403],[-43.6489,-22.5417],[-43.649,-22.5417]]]}},{"type":"Feature","properties":{"cod_tema":"RIO_ATE_10","cod_imovel":"RJ-3301801-9D23E227114C481FA570236C02DAB8D1","ind_status":"AT"},"geometry":{"type":"Polygon","coordinates":[[[-43.6141,-22.5007],[-43.6133,-22.5118],[-43.6141,-22.5007],[-43.6141,-22.5007]]]}},{"type":"Feature","properties":{"cod_tema":"RIO_ATE_10","cod_imovel":"RJ-3301801-38C2AAA7F6A24E1C8B07D7605B43F8FC","ind_status":"AT"},"geometry":{"type":"Polygon","coordinates":[[[-43.624,-22.4821],[-43.6301,-22.4798],[-43.6238,-22.4821],[-43.624,-22.4821]]]}},{"type":"Feature","properties":{"cod_tema":"RIO_ATE_10","cod_imovel":"RJ-3301801-0DE3208D00944ED2A52AB2F69DDFCB47","ind_status":"AT"},"geometry":{"type":"Polygon","coordinates":[[[-43.6132,-22.53],[-43.6076,-22.5277],[-43.6133,-22.5302],[-43.6132,-22.53]],[[-43.619,-22.5215],[-43.6128,-22.5193],[-43.6094,-22.5231],[-43.6192,-22.5213],[-43.619,-22.5215]]]}},{"type":"Feature","properties":{"cod_tema":"RESERVATORIO_ARTIFICIAL_DECORRENTE_BARRAMENTO","cod_imovel":"RJ-3301801-0DE3208D00944ED2A52AB2F69DDFCB47","ind_status":"AT"},"geometry":{"type":"Polygon","coordinates":[[[-43.6077,-22.5247],[-43.6056,-22.5282],[-43.6079,-22.5243],[-43.6077,-22.5247]]]}},{"type":"Feature","properties":{"cod_tema":"RIO_ATE_10","cod_imovel":"RJ-3301801-3015220589AF4D648E053D2F3A63A13E","ind_status":"AT"},"geometry":{"type":"Polygon","coordinates":[[[-43.6147,-22.502],[-43.6139,-22.4984],[-43.6046,-22.5163],[-43.5981,-22.5123],[-43.5971,-22.5159],[-43.6039,-22.5164],[-43.6016,-22.5227],[-43.6147,-22.502],[-43.6147,-22.502]]]}},{"type":"Feature","properties":{"cod_tema":"RIO_ATE_10","cod_imovel":"RJ-3301801-4FAF21B79EB2448DBD7DBA1D0F0C51BC","ind_status":"AT"},"geometry":{"type":"Polygon","coordinates":[[[-43.6364,-22.4853],[-43.6368,-22.4814],[-43.6361,-22.4856],[-43.6364,-22.4853]]]}},{"type":"Feature","properties":{"cod_tema":"RIO_ATE_10","cod_imovel":"RJ-3301801-64A9D631200941F48C26A6614DCA123E","ind_status":"AT"},"geometry":{"type":"Polygon","coordinates":[[[-43.6741,-22.5355],[-43.669,-22.5342],[-43.671,-22.5384],[-43.6749,-22.5347],[-43.6741,-22.5355]]]}},{"type":"Feature","properties":{"cod_tema":"RIO_ATE_10","cod_imovel":"RJ-3301801-52AFC5C4A94B45E5BADCFBA4B5EF5B08","ind_status":"AT"},"geometry":{"type":"Polygon","coordinates":[[[-43.6318,-22.4953],[-43.6406,-22.4917],[-43.6318,-22.4953],[-43.6318,-22.4953]]]}},{"type":"Feature","properties":{"cod_tema":"RIO_ATE_10","cod_imovel":"RJ-3301801-7CFD2C8C1E9740769923DBDC5E9E13C2","ind_status":"AT"},"geometry":{"type":"Polygon","coordinates":[[[-43.6289,-22.5341],[-43.6283,-22.5309],[-43.6287,-22.5345],[-43.6289,-22.5341]]]}},{"type":"Feature","properties":{"cod_tema":"RIO_ATE_10","cod_imovel":"RJ-3301801-979152B1416F4350A6129F83F8326042","ind_status":"AT"},"geometry":{"type":"Polygon","coordinates":[[[-43.6294,-22.4677],[-43.6253,-22.4723],[-43.6231,-22.4646],[-43.6247,-22.4719],[-43.6223,-22.4663],[-43.6142,-22.4717],[-43.62,-22.4682],[-43.6237,-22.4716],[-43.6186,-22.4736],[-43.6253,-22.4724],[-43.6294,-22.4678],[-43.6294,-22.4677]],[[-43.6157,-22.4748],[-43.6255,-22.4727],[-43.6148,-22.4749],[-43.6157,-22.4748]],[[-43.6327,-22.475],[-43.6254,-22.4725],[-43.6222,-22.4766],[-43.6275,-22.4739],[-43.6244,-22.4787],[-43.6277,-22.4761],[-43.6313,-22.4806],[-43.6291,-22.4768],[-43.6339,-22.4751],[-43.6327,-22.475]],[[-43.6338,-22.4706],[-43.6308,-22.4732],[-43.6424,-22.4669],[-43.635,-22.4708],[-43.6338,-22.4706]]]}},{"type":"Feature","properties":{"cod_tema":"RIO_ATE_10","cod_imovel":"RJ-3301801-9D9D83D4844646C6A577A59AA827798A","ind_status":"AT"},"geometry":{"type":"Polygon","coordinates":[[[-43.6124,-22.5167],[-43.6103,-22.5134],[-43.6126,-22.5168],[-43.6124,-22.5167]]]}},{"type":"Feature","properties":{"cod_tema":"RIO_ATE_10","cod_imovel":"RJ-3301801-A9F0D314D5F64CE7B0EB793E90E97D29","ind_status":"AT"},"geometry":{"type":"Polygon","coordinates":[[[-43.6368,-22.4848],[-43.6299,-22.4877],[-43.6321,-22.4907],[-43.6368,-22.4848],[-43.6368,-22.4848]]]}},{"type":"Feature","properties":{"cod_tema":"RIO_ATE_10","cod_imovel":"RJ-3301801-B68BF5E6FA1C4243B955CC8BBB9023FC","ind_status":"AT"},"geometry":{"type":"Polygon","coordinates":[[[-43.6183,-22.4808],[-43.6159,-22.4772],[-43.6181,-22.481],[-43.6183,-22.4808]],[[-43.621,-22.48],[-43.6251,-22.483],[-43.6209,-22.4797],[-43.621,-22.48]]]}},{"type":"Feature","properties":{"cod_tema":"RIO_ATE_10","cod_imovel":"RJ-3301801-F6961AF72FDF43D28987EDAE5866C889","ind_status":"AT"},"geometry":{"type":"Polygon","coordinates":[[[-43.677,-22.4738],[-43.6722,-22.4726],[-43.6763,-22.477],[-43.677,-22.4739],[-43.677,-22.4738]],[[-43.6722,-22.4815],[-43.6786,-22.4796],[-43.6721,-22.4816],[-43.6722,-22.4815]]]}},{"type":"Feature","properties":{"cod_tema":"RIO_ATE_10","cod_imovel":"RJ-3301801-70E1D00D82C5467F8325CB7443684A2B","ind_status":"AT"},"geometry":{"type":"Polygon","coordinates":[[[-43.5733,-22.4801],[-43.575,-22.4776],[-43.5733,-22.4803],[-43.5733,-22.4801]],[[-43.5721,-22.4839],[-43.5786,-22.4774],[-43.5719,-22.4843],[-43.5721,-22.4839]]]}},{"type":"Feature","properties":{"cod_tema":"RIO_ATE_10","cod_imovel":"RJ-3301801-5E655E4BED064C1BA717FA390A0B5B59","ind_status":"AT"},"geometry":{"type":"Polygon","coordinates":[[[-43.6961,-22.5],[-43.6962,-22.4968],[-43.696,-22.5],[-43.6961,-22.5]]]}},{"type":"Feature","properties":{"cod_tema":"RIO_ATE_10","cod_imovel":"RJ-3301801-04D231CF4DF24815B5692C2767507590","ind_status":"AT"},"geometry":{"type":"Polygon","coordinates":[[[-43.6707,-22.5189],[-43.6676,-22.52],[-43.6708,-22.519],[-43.6707,-22.5189]]]}},{"type":"Feature","properties":{"cod_tema":"RIO_ATE_10","cod_imovel":"RJ-3301801-7FCB5BDF46394F63A099CC8826BD427B","ind_status":"AT"},"geometry":{"type":"Polygon","coordinates":[[[-43.692,-22.5176],[-43.6919,-22.5249],[-43.692,-22.5176],[-43.692,-22.5176]],[[-43.6942,-22.5255],[-43.6973,-22.5208],[-43.6942,-22.5256],[-43.6942,-22.5255]],[[-43.6962,-22.5261],[-43.6971,-22.5215],[-43.6962,-22.5261],[-43.6962,-22.5261]]]}},{"type":"Feature","properties":{"cod_tema":"RIO_ATE_10","cod_imovel":"RJ-3301801-7EAA95DEB9E743D384237E0695AEDC56","ind_status":"AT"},"geometry":{"type":"Polygon","coordinates":[[[-43.6164,-22.5312],[-43.6232,-22.528],[-43.6166,-22.531],[-43.6164,-22.5312]]]}},{"type":"Feature","properties":{"cod_tema":"RIO_ATE_10","cod_imovel":"RJ-3301801-8524BE6DADD241BD8738A1B6B22664E6","ind_status":"AT"},"geometry":{"type":"Polygon","coordinates":[[[-43.6982,-22.5174],[-43.6934,-22.5144],[-43.6897,-22.5182],[-43.6934,-22.5145],[-43.6985,-22.5175],[-43.6982,-22.5174]]]}},{"type":"Feature","properties":{"cod_tema":"RIO_ATE_10","cod_imovel":"RJ-3301801-7AFD19EFE494436FAE866A1BA386E7EB","ind_status":"AT"},"geometry":{"type":"Polygon","coordinates":[[[-43.7057,-22.4994],[-43.7073,-22.4959],[-43.7012,-22.5002],[-43.7061,-22.4998],[-43.7057,-22.4994]],[[-43.7059,-22.5082],[-43.6982,-22.502],[-43.7064,-22.5086],[-43.7059,-22.5082]]]}},{"type":"Feature","properties":{"cod_tema":"RIO_ATE_10","cod_imovel":"RJ-3301801-92830B76EE564F2296A32009C3A14607","ind_status":"AT"},"geometry":{"type":"Polygon","coordinates":[[[-43.6101,-22.4766],[-43.6115,-22.4726],[-43.6101,-22.4779],[-43.6101,-22.4766]]]}},{"type":"Feature","properties":{"cod_tema":"RIO_ATE_10","cod_imovel":"RJ-3301801-328E05337B37436798556A001A0E52F8","ind_status":"PE"},"geometry":{"type":"Polygon","coordinates":[[[-43.6613,-22.5262],[-43.6566,-22.5202],[-43.6615,-22.5266],[-43.6613,-22.5262]]]}},{"type":"Feature","properties":{"cod_tema":"RIO_ATE_10","cod_imovel":"RJ-3301801-F69950A2F5AD4F78BC68CC04316777EC","ind_status":"PE"},"geometry":{"type":"Polygon","coordinates":[[[-43.6559,-22.4867],[-43.6532,-22.485],[-43.6558,-22.4867],[-43.6559,-22.4867]]]}},{"type":"Feature","properties":{"cod_tema":"RIO_ATE_10","cod_imovel":"RJ-3301801-D98A8A38F33545EB915561B91AE023B4","ind_status":"AT"},"geometry":{"type":"Polygon","coordinates":[[[-43.6306,-22.5045],[-43.6315,-22.4979],[-43.6359,-22.5024],[-43.6308,-22.4963],[-43.6136,-22.4952],[-43.6152,-22.503],[-43.614,-22.4955],[-43.617,-22.5011],[-43.6189,-22.4971],[-43.6224,-22.4979],[-43.6193,-22.5013],[-43.6283,-22.4974],[-43.6179,-22.5053],[-43.6253,-22.5026],[-43.6234,-22.508],[-43.6186,-22.5084],[-43.6273,-22.5058],[-43.6253,-22.5026],[-43.6308,-22.4963],[-43.6306,-22.5047],[-43.6306,-22.5045]]]}},{"type":"Feature","properties":{"cod_tema":"RIO_ATE_10","cod_imovel":"RJ-3301801-B235414C05C94800B9EA83289DF46170","ind_status":"AT"},"geometry":{"type":"Polygon","coordinates":[[[-43.5955,-22.4668],[-43.592,-22.4677],[-43.5958,-22.4666],[-43.5955,-22.4668]]]}},{"type":"Feature","properties":{"cod_tema":"RIO_ATE_10","cod_imovel":"RJ-3301801-0326BF638B5345D1AF25558CC9F64354","ind_status":"AT"},"geometry":{"type":"Polygon","coordinates":[[[-43.6843,-22.5141],[-43.6812,-22.5103],[-43.6844,-22.5141],[-43.6843,-22.5141]]]}},{"type":"Feature","properties":{"cod_tema":"RIO_10_A_50","cod_imovel":"RJ-3301801-86EF97C06DB44114B0666A134FFFE1F1","ind_status":"AT"},"geometry":{"type":"Polygon","coordinates":[[[-43.6598,-22.4949],[-43.6544,-22.488],[-43.6595,-22.4944],[-43.6598,-22.4949]]]}},{"type":"Feature","properties":{"cod_tema":"RIO_ATE_10","cod_imovel":"RJ-3301801-D2E2A64CCBCF4A3EB3E6F8C1C01EFEA7","ind_status":"AT"},"geometry":{"type":"Polygon","coordinates":[[[-43.6613,-22.4902],[-43.6669,-22.4854],[-43.6612,-22.4904],[-43.6613,-22.4902]]]}},{"type":"Feature","properties":{"cod_tema":"RIO_ATE_10","cod_imovel":"RJ-3301801-619BA0602D574019A6955CF0DFE2A2A6","ind_status":"AT"},"geometry":{"type":"Polygon","coordinates":[[[-43.5871,-22.5058],[-43.5864,-22.499],[-43.5868,-22.5066],[-43.5871,-22.5058]]]}},{"type":"Feature","properties":{"cod_tema":"RIO_ATE_10","cod_imovel":"RJ-3301801-BCCE0500E954445595E27014F11ECBC7","ind_status":"AT"},"geometry":{"type":"Polygon","coordinates":[[[-43.6545,-22.4884],[-43.6512,-22.4863],[-43.6546,-22.4883],[-43.6545,-22.4884]]]}},{"type":"Feature","properties":{"cod_tema":"RIO_ATE_10","cod_imovel":"RJ-3301801-EDD94F72CB19435F985BC219E00533EC","ind_status":"AT"},"geometry":{"type":"Polygon","coordinates":[[[-43.6366,-22.4827],[-43.6421,-22.4804],[-43.6369,-22.4811],[-43.6385,-22.4756],[-43.6368,-22.4812],[-43.6324,-22.4807],[-43.6362,-22.4833],[-43.6366,-22.4827]]]}},{"type":"Feature","properties":{"cod_tema":"RIO_ATE_10","cod_imovel":"RJ-3301801-084F05AF62E84B63B3D3231FBFC667F5","ind_status":"AT"},"geometry":{"type":"Polygon","coordinates":[[[-43.6045,-22.5076],[-43.6091,-22.5055],[-43.6039,-22.5083],[-43.6045,-22.5076]]]}},{"type":"Feature","properties":{"cod_tema":"RIO_10_A_50","cod_imovel":"RJ-3301801-98B5A31947344CFF9EEAC5C15BB02246","ind_status":"AT"},"geometry":{"type":"Polygon","coordinates":[[[-43.6594,-22.494],[-43.6558,-22.4895],[-43.6593,-22.4942],[-43.6594,-22.494]]]}},{"type":"Feature","properties":{"cod_tema":"RIO_ATE_10","cod_imovel":"RJ-3301801-A4BCC14769F9497E85ECB87F540B4695","ind_status":"AT"},"geometry":{"type":"Polygon","coordinates":[[[-43.6458,-22.4883],[-43.6434,-22.4948],[-43.6457,-22.4882],[-43.6458,-22.4883]]]}},{"type":"Feature","properties":{"cod_tema":"RIO_ATE_10","cod_imovel":"RJ-3301801-90618B5FAEA244D19C74E478E7B393BB","ind_status":"AT"},"geometry":{"type":"Polygon","coordinates":[[[-43.6433,-22.5309],[-43.6422,-22.5342],[-43.6433,-22.531],[-43.6433,-22.5309]]]}},{"type":"Feature","properties":{"cod_tema":"RIO_ATE_10","cod_imovel":"RJ-3301801-C1C11958DFBF416FB4409B64C85A018C","ind_status":"AT"},"geometry":{"type":"Polygon","coordinates":[[[-43.6078,-22.5026],[-43.6017,-22.5018],[-43.6078,-22.5026],[-43.6078,-22.5026]]]}},{"type":"Feature","properties":{"cod_tema":"RIO_ATE_10","cod_imovel":"RJ-3301801-D4AE0AF718C9491B8F9D1C5D2C5C9310","ind_status":"AT"},"geometry":{"type":"Polygon","coordinates":[[[-43.5957,-22.5069],[-43.6007,-22.502],[-43.5956,-22.507],[-43.5957,-22.5069]]]}},{"type":"Feature","properties":{"cod_tema":"RIO_ATE_10","cod_imovel":"RJ-3301801-8D8C4174235D46B3A130A84115571EEF","ind_status":"AT"},"geometry":{"type":"Polygon","coordinates":[[[-43.6618,-22.5716],[-43.6608,-22.5764],[-43.6618,-22.5716],[-43.6618,-22.5716]]]}},{"type":"Feature","properties":{"cod_tema":"RIO_ATE_10","cod_imovel":"RJ-3301801-BB8B7207B7EB4EDF90BA042C3DCDD7B2","ind_status":"AT"},"geometry":{"type":"Polygon","coordinates":[[[-43.6033,-22.5192],[-43.6014,-22.5224],[-43.6034,-22.5191],[-43.6033,-22.5192]]]}},{"type":"Feature","properties":{"cod_tema":"RIO_ATE_10","cod_imovel":"RJ-3301801-0AF015F3714D45F9A519DF61D3B973E4","ind_status":"AT"},"geometry":{"type":"Polygon","coordinates":[[[-43.6853,-22.5147],[-43.682,-22.5128],[-43.6854,-22.5147],[-43.6853,-22.5147]]]}},{"type":"Feature","properties":{"cod_tema":"RIO_ATE_10","cod_imovel":"RJ-3301801-ACFD2B0223E544A09DFB6E758F515395","ind_status":"AT"},"geometry":{"type":"Polygon","coordinates":[[[-43.5828,-22.511],[-43.5806,-22.5176],[-43.5828,-22.511],[-43.5828,-22.511]]]}},{"type":"Feature","properties":{"cod_tema":"RIO_ATE_10","cod_imovel":"RJ-3301801-2D7C57FCB8DD4D0D884A77509547A492","ind_status":"AT"},"geometry":{"type":"Polygon","coordinates":[[[-43.6535,-22.5559],[-43.6489,-22.5565],[-43.6535,-22.5559],[-43.6535,-22.5559]]]}},{"type":"Feature","properties":{"cod_tema":"RIO_ATE_10","cod_imovel":"RJ-3301801-A9318ACEAEC54AB08A874462F6B56CCC","ind_status":"AT"},"geometry":{"type":"Polygon","coordinates":[[[-43.6791,-22.5654],[-43.6823,-22.5708],[-43.679,-22.5653],[-43.6791,-22.5654]]]}},{"type":"Feature","properties":{"cod_tema":"RIO_ATE_10","cod_imovel":"RJ-3301801-323328BB08784FECB964FB071DBE6A43","ind_status":"AT"},"geometry":{"type":"Polygon","coordinates":[[[-43.6582,-22.4778],[-43.6657,-22.4794],[-43.658,-22.4777],[-43.6582,-22.4778]]]}},{"type":"Feature","properties":{"cod_tema":"RIO_ATE_10","cod_imovel":"RJ-3301801-6C5A7970BF504336963FFF440D33C52A","ind_status":"AT"},"geometry":{"type":"Polygon","coordinates":[[[-43.5753,-22.4929],[-43.5792,-22.485],[-43.5752,-22.493],[-43.5753,-22.4929]]]}},{"type":"Feature","properties":{"cod_tema":"RIO_ATE_10","cod_imovel":"RJ-3301801-27B481942774429C8CA4ACE52F7E0F91","ind_status":"AT"},"geometry":{"type":"Polygon","coordinates":[[[-43.6819,-22.5127],[-43.679,-22.5085],[-43.682,-22.5128],[-43.6819,-22.5127]]]}},{"type":"Feature","properties":{"cod_tema":"RIO_ATE_10","cod_imovel":"RJ-3301801-0A412C69A3854ACA9F974E70286AFD5B","ind_status":"AT"},"geometry":{"type":"Polygon","coordinates":[[[-43.6369,-22.5531],[-43.6337,-22.5526],[-43.6369,-22.5531],[-43.6369,-22.5531]]]}},{"type":"Feature","properties":{"cod_tema":"RIO_ATE_10","cod_imovel":"RJ-3301801-786B79EBBBEE4301A45BF4ABC021FE1C","ind_status":"AT"},"geometry":{"type":"Polygon","coordinates":[[[-43.6671,-22.5423],[-43.6612,-22.5361],[-43.6625,-22.5404],[-43.6587,-22.5408],[-43.6671,-22.5423],[-43.6671,-22.5423]]]}},{"type":"Feature","properties":{"cod_tema":"RIO_10_A_50","cod_imovel":"RJ-3301801-6B79EB5794934186BB66FDFDB52E486F","ind_status":"AT"},"geometry":{"type":"Polygon","coordinates":[[[-43.6649,-22.5263],[-43.6614,-22.5269],[-43.6649,-22.5263],[-43.6649,-22.5263]]]}},{"type":"Feature","properties":{"cod_tema":"RIO_ATE_10","cod_imovel":"RJ-3301801-903D1F729EBE4C5A8A1422F088A3D08B","ind_status":"AT"},"geometry":{"type":"Polygon","coordinates":[[[-43.6012,-22.5222],[-43.5996,-22.5261],[-43.6037,-22.5245],[-43.6012,-22.5222],[-43.6012,-22.5222]]]}},{"type":"Feature","properties":{"cod_tema":"RIO_ATE_10","cod_imovel":"RJ-3301801-513815FEB1F147EC986E3FF650BE35D8","ind_status":"AT"},"geometry":{"type":"Polygon","coordinates":[[[-43.6573,-22.5605],[-43.6574,-22.5666],[-43.6578,-22.5596],[-43.6573,-22.5605]]]}},{"type":"Feature","properties":{"cod_tema":"RIO_ATE_10","cod_imovel":"RJ-3306206-E0D827D3B21A4B33ADE0B53C7B825AF5","ind_status":"AT"},"geometry":{"type":"Polygon","coordinates":[[[-43.6839,-22.477],[-43.6773,-22.4768],[-43.6816,-22.4802],[-43.6781,-22.4767],[-43.684,-22.477],[-43.6839,-22.477]]]}},{"type":"Feature","properties":{"cod_tema":"RIO_ATE_10","cod_imovel":"RJ-3301801-0DA7AC961B0448FAA030D5A138C22727","ind_status":"AT"},"geometry":{"type":"Polygon","coordinates":[[[-43.6624,-22.5301],[-43.6611,-22.5265],[-43.6624,-22.5301],[-43.6624,-22.5301]]]}},{"type":"Feature","properties":{"cod_tema":"RIO_ATE_10","cod_imovel":"RJ-3301801-02813507B533428A8B4EA458A3A9FAF0","ind_status":"AT"},"geometry":{"type":"Polygon","coordinates":[[[-43.5887,-22.5131],[-43.5855,-22.5145],[-43.5887,-22.5131],[-43.5887,-22.5131]]]}},{"type":"Feature","properties":{"cod_tema":"RIO_ATE_10","cod_imovel":"RJ-3301801-3D31D07721404D989A19206EFB2973D5","ind_status":"AT"},"geometry":{"type":"Polygon","coordinates":[[[-43.601,-22.4678],[-43.596,-22.4703],[-43.601,-22.4678],[-43.601,-22.4678]]]}},{"type":"Feature","properties":{"cod_tema":"RIO_ATE_10","cod_imovel":"RJ-3301801-271E72A300A646FFB96D106E50A01A85","ind_status":"AT"},"geometry":{"type":"Polygon","coordinates":[[[-43.6477,-22.5599],[-43.6546,-22.5644],[-43.6475,-22.5598],[-43.6477,-22.5599]]]}},{"type":"Feature","properties":{"cod_tema":"RIO_ATE_10","cod_imovel":"RJ-3306206-DACA82AA165840F1AC6515651669F9EC","ind_status":"CA"},"geometry":{"type":"Polygon","coordinates":[[[-43.6114,-22.4688],[-43.6157,-22.4667],[-43.6113,-22.469],[-43.6114,-22.4688]],[[-43.6155,-22.4635],[-43.6123,-22.4644],[-43.6169,-22.4674],[-43.6155,-22.4628],[-43.6155,-22.4635]],[[-43.6204,-22.4625],[-43.6182,-22.4669],[-43.6209,-22.4621],[-43.6204,-22.4625]],[[-43.6241,-22.4615],[-43.6213,-22.4656],[-43.6247,-22.4611],[-43.6241,-22.4615]],[[-43.6311,-22.4654],[-43.6353,-22.4669],[-43.6359,-22.4627],[-43.6303,-22.4667],[-43.6311,-22.4654]],[[-43.6408,-22.4655],[-43.636,-22.4614],[-43.6412,-22.4658],[-43.6408,-22.4655]]]}},{"type":"Feature","properties":{"cod_tema":"RIO_ATE_10","cod_imovel":"RJ-3301801-976CC38636CD4E9DBE92CD2C8A4E7ADC","ind_status":"AT"},"geometry":{"type":"Polygon","coordinates":[[[-43.7041,-22.5633],[-43.7011,-22.5594],[-43.7071,-22.5494],[-43.6988,-22.5602],[-43.7013,-22.5654],[-43.7009,-22.561],[-43.7042,-22.5635],[-43.7041,-22.5633]],[[-43.7011,-22.5505],[-43.7045,-22.5476],[-43.7006,-22.5505],[-43.7011,-22.5505]],[[-43.7094,-22.5554],[-43.7117,-22.5511],[-43.7093,-22.556],[-43.7094,-22.5554]]]}},{"type":"Feature","properties":{"cod_tema":"RIO_ATE_10","cod_imovel":"RJ-3301801-A57F3D15556D483F8993D7BC24CF2BB5","ind_status":"AT"},"geometry":{"type":"Polygon","coordinates":[[[-43.6424,-22.4862],[-43.6468,-22.4862],[-43.6444,-22.4891],[-43.6426,-22.486],[-43.6424,-22.4862]]]}},{"type":"Feature","properties":{"cod_tema":"RIO_ATE_10","cod_imovel":"RJ-3301801-AE8B2F645E9F489D95B6FCD2F661EB77","ind_status":"AT"},"geometry":{"type":"Polygon","coordinates":[[[-43.6763,-22.4747],[-43.6722,-22.4725],[-43.6765,-22.4745],[-43.6763,-22.4747]]]}}]}