{"type":"FeatureCollection","features":[{"type":"Feature","properties":{"cod_tema":"RIO_ATE_10","cod_imovel":"RJ-3302106-8DC89828E9A94F8A8CFCA57F3F981A92","ind_status":"AT"},"geometry":{"type":"Polygon","coordinates":[[[-42.117,-21.7872],[-42.1151,-21.7843],[-42.1168,-21.787],[-42.117,-21.7872]]]}},{"type":"Feature","properties":{"cod_tema":"RIO_ATE_10","cod_imovel":"RJ-3302106-009137D9D1DC4B28AF89E636B0F4750F","ind_status":"AT"},"geometry":{"type":"Polygon","coordinates":[[[-42.2002,-21.6934],[-42.1987,-21.698],[-42.1999,-21.6931],[-42.2002,-21.6934]]]}},{"type":"Feature","properties":{"cod_tema":"RIO_ATE_10","cod_imovel":"RJ-3302106-08BD254040D5484B93F55FD9EED985EB","ind_status":"AT"},"geometry":{"type":"Polygon","coordinates":[[[-41.9614,-21.7131],[-41.9525,-21.7179],[-41.9619,-21.7129],[-41.9614,-21.7131]]]}},{"type":"Feature","properties":{"cod_tema":"RIO_ATE_10","cod_imovel":"RJ-3302106-0D367F20F86A46C2AA198E48A50D7343","ind_status":"AT"},"geometry":{"type":"Polygon","coordinates":[[[-42.1722,-21.8427],[-42.1716,-21.8397],[-42.1731,-21.8437],[-42.1722,-21.8427]]]}},{"type":"Feature","properties":{"cod_tema":"RIO_ACIMA_600","cod_imovel":"RJ-3302106-0D69B8D20E704E479A058685B9C303DA","ind_status":"AT"},"geometry":{"type":"Polygon","coordinates":[[[-42.2102,-21.6944],[-42.212,-21.6867],[-42.2101,-21.6944],[-42.2102,-21.6944]]]}},{"type":"Feature","properties":{"cod_tema":"RIO_10_A_50","cod_imovel":"RJ-3302106-13020C57825540F684D6D82A82DFC56C","ind_status":"AT"},"geometry":{"type":"Polygon","coordinates":[[[-42.1876,-21.6896],[-42.1927,-21.6875],[-42.1876,-21.6864],[-42.1876,-21.6896]]]}},{"type":"Feature","properties":{"cod_tema":"RIO_ATE_10","cod_imovel":"RJ-3302106-1777417D6A9B4EE4949DC70913912676","ind_status":"AT"},"geometry":{"type":"Polygon","coordinates":[[[-42.2107,-21.7289],[-42.2076,-21.7282],[-42.2111,-21.7257],[-42.2066,-21.7283],[-42.2109,-21.7288],[-42.2107,-21.7289]]]}},{"type":"Feature","properties":{"cod_tema":"RIO_ATE_10","cod_imovel":"RJ-3302106-196954854DA2478D81179B4E75800334","ind_status":"AT"},"geometry":{"type":"Polygon","coordinates":[[[-42.0404,-21.6517],[-42.0376,-21.6381],[-42.0417,-21.6377],[-42.0295,-21.6366],[-42.0226,-21.6414],[-42.0295,-21.6367],[-42.0396,-21.6392],[-42.0402,-21.6519],[-42.0404,-21.6517]]]}},{"type":"Feature","properties":{"cod_tema":"RIO_10_A_50","cod_imovel":"RJ-3302106-196954854DA2478D81179B4E75800334","ind_status":"AT"},"geometry":{"type":"Polygon","coordinates":[[[-42.0451,-21.642],[-42.048,-21.64],[-42.0403,-21.6332],[-42.0202,-21.6307],[-42.0207,-21.6417],[-42.0194,-21.6357],[-42.0245,-21.6311],[-42.0393,-21.6338],[-42.0452,-21.6415],[-42.0451,-21.642]]]}},{"type":"Feature","properties":{"cod_tema":"RIO_ATE_10","cod_imovel":"RJ-3302106-1CB3C0FFD6864F63A78890004A8C3D1B","ind_status":"AT"},"geometry":{"type":"Polygon","coordinates":[[[-42.1658,-21.8234],[-42.1666,-21.8202],[-42.1659,-21.8239],[-42.1658,-21.8234]]]}},{"type":"Feature","properties":{"cod_tema":"RIO_ATE_10","cod_imovel":"RJ-3302106-200F228602094FCAA0685B45BF72CE97","ind_status":"AT"},"geometry":{"type":"Polygon","coordinates":[[[-42.19,-21.7421],[-42.1862,-21.7418],[-42.1901,-21.7421],[-42.19,-21.7421]]]}},{"type":"Feature","properties":{"cod_tema":"RIO_ATE_10","cod_imovel":"RJ-3302106-224097F25104464FABAE0C2265001163","ind_status":"AT"},"geometry":{"type":"Polygon","coordinates":[[[-42.166,-21.8114],[-42.1616,-21.8104],[-42.1663,-21.8114],[-42.166,-21.8114]]]}},{"type":"Feature","properties":{"cod_tema":"RIO_ATE_10","cod_imovel":"RJ-3302106-23C62B204CB74A8A993072D17BF3418C","ind_status":"AT"},"geometry":{"type":"Polygon","coordinates":[[[-41.9492,-21.6902],[-41.9507,-21.6933],[-41.9491,-21.6901],[-41.9492,-21.6902]],[[-41.9447,-21.684],[-41.948,-21.6865],[-41.9446,-21.6839],[-41.9447,-21.684]]]}},{"type":"Feature","properties":{"cod_tema":"RIO_ATE_10","cod_imovel":"RJ-3302106-25E42BF6EA61405EA0A94503BA115C29","ind_status":"AT"},"geometry":{"type":"Polygon","coordinates":[[[-42.0674,-21.7442],[-42.0633,-21.7429],[-42.0675,-21.7443],[-42.0674,-21.7442]]]}},{"type":"Feature","properties":{"cod_tema":"RIO_ATE_10","cod_imovel":"RJ-3302106-260D8045246B49CB963360B0DCF878B5","ind_status":"AT"},"geometry":{"type":"Polygon","coordinates":[[[-42.0419,-21.6947],[-42.0465,-21.694],[-42.0416,-21.6947],[-42.0419,-21.6947]]]}},{"type":"Feature","properties":{"cod_tema":"RIO_ATE_10","cod_imovel":"RJ-3302106-28D46BCBFEA84A85B82B1C1D994FCB78","ind_status":"AT"},"geometry":{"type":"Polygon","coordinates":[[[-41.9676,-21.7009],[-41.9732,-21.7055],[-41.9673,-21.7004],[-41.9676,-21.7009]]]}},{"type":"Feature","properties":{"cod_tema":"RIO_ATE_10","cod_imovel":"RJ-3302106-2FA6B6256B03486494379D87496B9A4E","ind_status":"AT"},"geometry":{"type":"Polygon","coordinates":[[[-42.1454,-21.8016],[-42.15,-21.8036],[-42.1451,-21.8013],[-42.1454,-21.8016]]]}},{"type":"Feature","properties":{"cod_tema":"RIO_ATE_10","cod_imovel":"RJ-3302106-3141A5DB699340CF9FB6EE3538B1D1D6","ind_status":"AT"},"geometry":{"type":"Polygon","coordinates":[[[-41.9595,-21.6723],[-41.9614,-21.6778],[-41.9581,-21.6709],[-41.9595,-21.6723]]]}},{"type":"Feature","properties":{"cod_tema":"RIO_ATE_10","cod_imovel":"RJ-3302106-39F029852B48488FA0E3166847CCC641","ind_status":"AT"},"geometry":{"type":"Polygon","coordinates":[[[-42.1238,-21.7975],[-42.1254,-21.8004],[-42.1239,-21.7972],[-42.1238,-21.7975]]]}},{"type":"Feature","properties":{"cod_tema":"RIO_50_A_200","cod_imovel":"RJ-3302106-3B0D39B511A043168C62F48909346B9D","ind_status":"AT"},"geometry":{"type":"Polygon","coordinates":[[[-41.9497,-21.6052],[-41.9797,-21.6268],[-41.9507,-21.6052],[-41.9497,-21.6052]]]}},{"type":"Feature","properties":{"cod_tema":"RIO_ATE_10","cod_imovel":"RJ-3302106-3D1EA8019B9A4FC7953A233653C1697D","ind_status":"AT"},"geometry":{"type":"Polygon","coordinates":[[[-42.1804,-21.7949],[-42.1751,-21.7965],[-42.1831,-21.7938],[-42.1804,-21.7949]]]}},{"type":"Feature","properties":{"cod_tema":"RIO_ATE_10","cod_imovel":"RJ-3302106-4248C63C4D5E4C1A887A3CF6D4B2D4E4","ind_status":"AT"},"geometry":{"type":"Polygon","coordinates":[[[-42.1451,-21.7521],[-42.1476,-21.7537],[-42.1446,-21.7517],[-42.1451,-21.7521]]]}},{"type":"Feature","properties":{"cod_tema":"RIO_ATE_10","cod_imovel":"RJ-3302106-4B1A694253AE41478A4F9924E558EB4D","ind_status":"AT"},"geometry":{"type":"Polygon","coordinates":[[[-42.157,-21.8042],[-42.1602,-21.8048],[-42.1569,-21.8042],[-42.157,-21.8042]]]}},{"type":"Feature","properties":{"cod_tema":"RIO_10_A_50","cod_imovel":"RJ-3302106-4ED7B2B0F87C47F38A025DD8C1FB9890","ind_status":"AT"},"geometry":{"type":"Polygon","coordinates":[[[-42.0707,-21.657],[-42.0641,-21.6534],[-42.07,-21.6565],[-42.0707,-21.657]],[[-42.0711,-21.6589],[-42.0627,-21.6541],[-42.0705,-21.6595],[-42.0711,-21.6589]]]}},{"type":"Feature","properties":{"cod_tema":"RIO_ATE_10","cod_imovel":"RJ-3302106-534CE34538754AA8B041CB8A6EE27D69","ind_status":"AT"},"geometry":{"type":"Polygon","coordinates":[[[-42.1651,-21.7267],[-42.1555,-21.7226],[-42.1652,-21.7267],[-42.1651,-21.7267]]]}},{"type":"Feature","properties":{"cod_tema":"RIO_ATE_10","cod_imovel":"RJ-3302106-5B35AD7A425B41EC984A9F046A12764F","ind_status":"AT"},"geometry":{"type":"Polygon","coordinates":[[[-41.9835,-21.6499],[-41.9862,-21.6482],[-41.9832,-21.65],[-41.9835,-21.6499]]]}},{"type":"Feature","properties":{"cod_tema":"RIO_ATE_10","cod_imovel":"RJ-3302106-5EE3FCCE572C47E3B1F0F612F6804288","ind_status":"AT"},"geometry":{"type":"Polygon","coordinates":[[[-42.2039,-21.731],[-42.2035,-21.7344],[-42.2039,-21.7308],[-42.2039,-21.731]]]}},{"type":"Feature","properties":{"cod_tema":"RIO_ATE_10","cod_imovel":"RJ-3302106-600F79C5CEDB40149A168A8B27678B0F","ind_status":"AT"},"geometry":{"type":"Polygon","coordinates":[[[-42.0744,-21.6825],[-42.0706,-21.6818],[-42.0752,-21.6822],[-42.0744,-21.6825]]]}},{"type":"Feature","properties":{"cod_tema":"RIO_ATE_10","cod_imovel":"RJ-3302106-621ED5E00CB544BCA0A4ACA6A20C6B99","ind_status":"AT"},"geometry":{"type":"Polygon","coordinates":[[[-42.2073,-21.7402],[-42.2175,-21.738],[-42.207,-21.7403],[-42.2073,-21.7402]],[[-42.2163,-21.7449],[-42.2111,-21.7476],[-42.2164,-21.7449],[-42.2163,-21.7449]]]}},{"type":"Feature","properties":{"cod_tema":"RIO_ATE_10","cod_imovel":"RJ-3302106-63B1221C3F1F4E52BFF2E9249B008830","ind_status":"AT"},"geometry":{"type":"Polygon","coordinates":[[[-42.1718,-21.839],[-42.1697,-21.8357],[-42.1718,-21.8391],[-42.1718,-21.839]]]}},{"type":"Feature","properties":{"cod_tema":"RIO_ATE_10","cod_imovel":"RJ-3302106-64C5F08F5E63474BBB9170768FF8C86A","ind_status":"PE"},"geometry":{"type":"Polygon","coordinates":[[[-42.063,-21.7236],[-42.0681,-21.7255],[-42.0618,-21.7227],[-42.063,-21.7236]]]}},{"type":"Feature","properties":{"cod_tema":"RIO_50_A_200","cod_imovel":"RJ-3302106-6C62609AA06A409FB09ED4031904EE35","ind_status":"CA"},"geometry":{"type":"Polygon","coordinates":[[[-42.1236,-21.6987],[-42.128,-21.7039],[-42.1249,-21.6991],[-42.1236,-21.6987]]]}},{"type":"Feature","properties":{"cod_tema":"RIO_ATE_10","cod_imovel":"RJ-3302106-700DB104A3B445248189AC4C13CC84EC","ind_status":"AT"},"geometry":{"type":"Polygon","coordinates":[[[-42.1483,-21.803],[-42.1454,-21.8015],[-42.149,-21.8033],[-42.1483,-21.803]]]}},{"type":"Feature","properties":{"cod_tema":"RIO_ATE_10","cod_imovel":"RJ-3302106-782B7E77D13B48648BF4BB607182CE92","ind_status":"AT"},"geometry":{"type":"Polygon","coordinates":[[[-42.1145,-21.7461],[-42.1114,-21.7457],[-42.1155,-21.7467],[-42.1145,-21.7461]]]}},{"type":"Feature","properties":{"cod_tema":"RIO_ATE_10","cod_imovel":"RJ-3302106-86FD520E78CD4320B688D16F68CE6D20","ind_status":"AT"},"geometry":{"type":"Polygon","coordinates":[[[-41.9999,-21.7394],[-42.0001,-21.7424],[-41.9999,-21.7391],[-41.9999,-21.7394]]]}},{"type":"Feature","properties":{"cod_tema":"RIO_ATE_10","cod_imovel":"RJ-3302106-88D805BE63B04B64ACC7516C9A2C62E1","ind_status":"AT"},"geometry":{"type":"Polygon","coordinates":[[[-42.0372,-21.7359],[-42.034,-21.7342],[-42.0376,-21.7363],[-42.0372,-21.7359]]]}},{"type":"Feature","properties":{"cod_tema":"RIO_ATE_10","cod_imovel":"RJ-3302106-89DA962AB04046EEA8AB8C043654E69E","ind_status":"AT"},"geometry":{"type":"Polygon","coordinates":[[[-42.1373,-21.7817],[-42.1345,-21.7788],[-42.1376,-21.7821],[-42.1373,-21.7817]]]}},{"type":"Feature","properties":{"cod_tema":"RIO_ATE_10","cod_imovel":"RJ-3302106-8B329FB9BFF442D6928824C98DA40B48","ind_status":"AT"},"geometry":{"type":"Polygon","coordinates":[[[-42.2049,-21.7014],[-42.2075,-21.6986],[-42.2046,-21.7015],[-42.2049,-21.7014]]]}},{"type":"Feature","properties":{"cod_tema":"RIO_ATE_10","cod_imovel":"RJ-3302106-8D1D1C860C814F30A7657A99351F4CDB","ind_status":"AT"},"geometry":{"type":"Polygon","coordinates":[[[-42.1269,-21.8122],[-42.1228,-21.8152],[-42.1279,-21.8111],[-42.1269,-21.8122]]]}},{"type":"Feature","properties":{"cod_tema":"RIO_ATE_10","cod_imovel":"RJ-3302106-8DFBF2AA1D88415FAC4FB88E31994118","ind_status":"AT"},"geometry":{"type":"Polygon","coordinates":[[[-42.1922,-21.7423],[-42.1888,-21.743],[-42.1923,-21.7423],[-42.1922,-21.7423]]]}},{"type":"Feature","properties":{"cod_tema":"RIO_50_A_200","cod_imovel":"RJ-3302106-8F2E0C0F4F124AFD92ED637EBD094B0E","ind_status":"AT"},"geometry":{"type":"Polygon","coordinates":[[[-42.1973,-21.6863],[-42.1985,-21.6832],[-42.1968,-21.6859],[-42.1973,-21.6863]]]}},{"type":"Feature","properties":{"cod_tema":"RIO_10_A_50","cod_imovel":"RJ-3302106-90913DA4084942BE86EEF2C35E57E0F2","ind_status":"AT"},"geometry":{"type":"Polygon","coordinates":[[[-42.0194,-21.646],[-42.0256,-21.6432],[-42.0193,-21.6458],[-42.0194,-21.646]]]}},{"type":"Feature","properties":{"cod_tema":"RIO_ATE_10","cod_imovel":"RJ-3302106-92B1E9C5783940BC889D7882F918C649","ind_status":"AT"},"geometry":{"type":"Polygon","coordinates":[[[-42.2074,-21.6975],[-42.2044,-21.6976],[-42.208,-21.6976],[-42.2074,-21.6975]]]}},{"type":"Feature","properties":{"cod_tema":"RIO_10_A_50","cod_imovel":"RJ-3302106-92B1E9C5783940BC889D7882F918C649","ind_status":"AT"},"geometry":{"type":"Polygon","coordinates":[[[-42.2058,-21.6912],[-42.2089,-21.693],[-42.2059,-21.691],[-42.2058,-21.6912]],[[-42.2091,-21.692],[-42.2061,-21.69],[-42.2091,-21.6918],[-42.2091,-21.692]]]}},{"type":"Feature","properties":{"cod_tema":"RIO_ATE_10","cod_imovel":"RJ-3302106-92D92864C6184FEEAE872D56819DA9F4","ind_status":"AT"},"geometry":{"type":"Polygon","coordinates":[[[-42.0783,-21.7178],[-42.0755,-21.7194],[-42.0784,-21.7178],[-42.0783,-21.7178]]]}},{"type":"Feature","properties":{"cod_tema":"RIO_ATE_10","cod_imovel":"RJ-3302106-93E054D9573C4483B77D02FCEC6C791E","ind_status":"AT"},"geometry":{"type":"Polygon","coordinates":[[[-42.2042,-21.7192],[-42.2022,-21.7263],[-42.2042,-21.7189],[-42.2042,-21.7192]]]}},{"type":"Feature","properties":{"cod_tema":"RIO_ATE_10","cod_imovel":"RJ-3302106-95F357AEA4C3428B98F0EEC88859A8A2","ind_status":"AT"},"geometry":{"type":"Polygon","coordinates":[[[-42.1973,-21.6964],[-42.1942,-21.6934],[-42.1934,-21.6986],[-42.1943,-21.6936],[-42.1973,-21.6964],[-42.1973,-21.6964]]]}},{"type":"Feature","properties":{"cod_tema":"RIO_ATE_10","cod_imovel":"RJ-3302106-9B6DE0DE93794847BB9A3211AC9CACFF","ind_status":"AT"},"geometry":{"type":"Polygon","coordinates":[[[-42.0509,-21.7404],[-42.0484,-21.7384],[-42.0512,-21.7408],[-42.0509,-21.7404]]]}},{"type":"Feature","properties":{"cod_tema":"RIO_ATE_10","cod_imovel":"RJ-3302106-A13063F9299C4E389C15DF3B7A962AC6","ind_status":"AT"},"geometry":{"type":"Polygon","coordinates":[[[-42.0689,-21.7452],[-42.0715,-21.7475],[-42.0686,-21.7452],[-42.0689,-21.7452]]]}},{"type":"Feature","properties":{"cod_tema":"RIO_ATE_10","cod_imovel":"RJ-3302106-A9F2E53176C74EE6BF0ADA6A291263B9","ind_status":"AT"},"geometry":{"type":"Polygon","coordinates":[[[-42.1082,-21.7358],[-42.1054,-21.7319],[-42.1084,-21.736],[-42.1082,-21.7358]]]}},{"type":"Feature","properties":{"cod_tema":"RIO_ATE_10","cod_imovel":"RJ-3302106-ADE8FE72281D4A7EB3FA197BB23DBC55","ind_status":"AT"},"geometry":{"type":"Polygon","coordinates":[[[-42.1745,-21.7406],[-42.1773,-21.7387],[-42.1743,-21.741],[-42.1745,-21.7406]]]}},{"type":"Feature","properties":{"cod_tema":"RIO_ATE_10","cod_imovel":"RJ-3302106-B32ACEC47B6E470797343BCD01D35370","ind_status":"AT"},"geometry":{"type":"Polygon","coordinates":[[[-42.1548,-21.7232],[-42.1463,-21.7192],[-42.1549,-21.7232],[-42.1548,-21.7232]]]}},{"type":"Feature","properties":{"cod_tema":"RIO_ATE_10","cod_imovel":"RJ-3302106-B459D1014E6443F7B737A2216EC31E68","ind_status":"AT"},"geometry":{"type":"Polygon","coordinates":[[[-41.9519,-21.7202],[-41.9508,-21.7232],[-41.9517,-21.72],[-41.9519,-21.7202]]]}},{"type":"Feature","properties":{"cod_tema":"RIO_ATE_10","cod_imovel":"RJ-3302106-B76F2471F6E34CF7A04B81F1448F052B","ind_status":"AT"},"geometry":{"type":"Polygon","coordinates":[[[-42.0909,-21.7193],[-42.0917,-21.7156],[-42.0908,-21.7197],[-42.0909,-21.7193]]]}},{"type":"Feature","properties":{"cod_tema":"RIO_ATE_10","cod_imovel":"RJ-3302106-B827D6BCF5E840C995BFD279144CAEEF","ind_status":"AT"},"geometry":{"type":"Polygon","coordinates":[[[-42.1666,-21.8196],[-42.1643,-21.8148],[-42.1666,-21.8202],[-42.1666,-21.8196]]]}},{"type":"Feature","properties":{"cod_tema":"RIO_ATE_10","cod_imovel":"RJ-3302106-BD0A2D767511496C87AE3281BBA34735","ind_status":"AT"},"geometry":{"type":"Polygon","coordinates":[[[-42.0995,-21.747],[-42.0958,-21.7484],[-42.0996,-21.747],[-42.0995,-21.747]]]}},{"type":"Feature","properties":{"cod_tema":"RIO_ATE_10","cod_imovel":"RJ-3302106-BD74B1ACD14E43509C0FC391C68E5DBB","ind_status":"AT"},"geometry":{"type":"Polygon","coordinates":[[[-42.1395,-21.73],[-42.1493,-21.7222],[-42.1386,-21.7308],[-42.1395,-21.73]],[[-42.1519,-21.722],[-42.1634,-21.723],[-42.1578,-21.7408],[-42.1665,-21.7441],[-42.1579,-21.7408],[-42.1635,-21.7229],[-42.1506,-21.722],[-42.1519,-21.722]]]}},{"type":"Feature","properties":{"cod_tema":"RIO_ATE_10","cod_imovel":"RJ-3302106-C426E88B381141A491DBE72D09F7E43D","ind_status":"AT"},"geometry":{"type":"Polygon","coordinates":[[[-42.0374,-21.7712],[-42.0351,-21.7681],[-42.038,-21.7717],[-42.0374,-21.7712]]]}},{"type":"Feature","properties":{"cod_tema":"RIO_ATE_10","cod_imovel":"RJ-3302106-C4D1A8DCE2F64681A21FA6B825BA1FBD","ind_status":"AT"},"geometry":{"type":"Polygon","coordinates":[[[-42.1338,-21.7879],[-42.1344,-21.7916],[-42.1341,-21.7869],[-42.1338,-21.7879]]]}},{"type":"Feature","properties":{"cod_tema":"RIO_ATE_10","cod_imovel":"RJ-3302106-C4DA24E5E6164CDF94C9326E23238373","ind_status":"AT"},"geometry":{"type":"Polygon","coordinates":[[[-42.0039,-21.6569],[-42.0001,-21.6561],[-42.0048,-21.6564],[-42.0039,-21.6569]]]}},{"type":"Feature","properties":{"cod_tema":"RIO_ATE_10","cod_imovel":"RJ-3302106-C5EB81917B4F4F8782B6E328E67F9DCB","ind_status":"AT"},"geometry":{"type":"Polygon","coordinates":[[[-42.0893,-21.7306],[-42.0842,-21.7345],[-42.0894,-21.7303],[-42.0893,-21.7306]]]}},{"type":"Feature","properties":{"cod_tema":"RIO_ATE_10","cod_imovel":"RJ-3302106-C69F29B083DB4422A1E55FF069380830","ind_status":"AT"},"geometry":{"type":"Polygon","coordinates":[[[-42.1074,-21.7952],[-42.1069,-21.7897],[-42.1075,-21.7958],[-42.1074,-21.7952]]]}},{"type":"Feature","properties":{"cod_tema":"RIO_ATE_10","cod_imovel":"RJ-3302106-C7AFA632C8B64F56BF1FB5514DC81915","ind_status":"AT"},"geometry":{"type":"Polygon","coordinates":[[[-42.0476,-21.6663],[-42.0397,-21.6655],[-42.048,-21.666],[-42.0476,-21.6663]]]}},{"type":"Feature","properties":{"cod_tema":"RIO_ACIMA_600","cod_imovel":"RJ-3302106-C93666EE01A6414491F8A964EDF19D02","ind_status":"AT"},"geometry":{"type":"Polygon","coordinates":[[[-42.2278,-21.6959],[-42.228,-21.7022],[-42.2301,-21.6959],[-42.2278,-21.6959]]]}},{"type":"Feature","properties":{"cod_tema":"RIO_ATE_10","cod_imovel":"RJ-3302106-D0FFD12C97CB4AD09E36B091D5A94139","ind_status":"AT"},"geometry":{"type":"Polygon","coordinates":[[[-42.1413,-21.7107],[-42.1428,-21.7178],[-42.1444,-21.7133],[-42.1398,-21.7104],[-42.1413,-21.7107]],[[-42.1447,-21.7177],[-42.1507,-21.7127],[-42.1447,-21.7178],[-42.1447,-21.7177]]]}},{"type":"Feature","properties":{"cod_tema":"RIO_50_A_200","cod_imovel":"RJ-3302106-D0FFD12C97CB4AD09E36B091D5A94139","ind_status":"AT"},"geometry":{"type":"Polygon","coordinates":[[[-42.1442,-21.7072],[-42.138,-21.7118],[-42.143,-21.7083],[-42.1442,-21.7072]]]}},{"type":"Feature","properties":{"cod_tema":"RIO_ATE_10","cod_imovel":"RJ-3302106-D020245D5D674E0AB3846FBD913B50E8","ind_status":"AT"},"geometry":{"type":"Polygon","coordinates":[[[-42.1683,-21.7568],[-42.1653,-21.7557],[-42.1691,-21.7567],[-42.1683,-21.7568]],[[-42.1468,-21.7594],[-42.1504,-21.7559],[-42.1464,-21.76],[-42.1468,-21.7594]],[[-42.1541,-21.767],[-42.1537,-21.7578],[-42.1513,-21.7646],[-42.1556,-21.767],[-42.1541,-21.767]],[[-42.1635,-21.7581],[-42.1658,-21.7713],[-42.1631,-21.7575],[-42.1635,-21.7581]],[[-42.1645,-21.7561],[-42.1614,-21.7599],[-42.1471,-21.7535],[-42.1618,-21.7599],[-42.1662,-21.7552],[-42.1645,-21.7561]]]}},{"type":"Feature","properties":{"cod_tema":"RIO_ATE_10","cod_imovel":"RJ-3302106-D0420F69AFC14638B5C8B9C2CECE0F90","ind_status":"AT"},"geometry":{"type":"Polygon","coordinates":[[[-42.0196,-21.7617],[-42.0215,-21.7579],[-42.0196,-21.7626],[-42.0196,-21.7617]]]}},{"type":"Feature","properties":{"cod_tema":"RIO_ATE_10","cod_imovel":"RJ-3302106-D4F4483CA4DF43ABA037C5CD160FE190","ind_status":"AT"},"geometry":{"type":"Polygon","coordinates":[[[-42.1218,-21.7353],[-42.1192,-21.7316],[-42.1224,-21.7355],[-42.1218,-21.7353]]]}},{"type":"Feature","properties":{"cod_tema":"RIO_ATE_10","cod_imovel":"RJ-3302106-DB4DCE3D9F3D4DA99D0941827F7450D8","ind_status":"AT"},"geometry":{"type":"Polygon","coordinates":[[[-42.1966,-21.731],[-42.1978,-21.7356],[-42.197,-21.7305],[-42.1966,-21.731]],[[-42.199,-21.7352],[-42.197,-21.7381],[-42.1996,-21.7351],[-42.199,-21.7352]],[[-42.2011,-21.7382],[-42.1918,-21.7381],[-42.2024,-21.7386],[-42.2011,-21.7382]]]}},{"type":"Feature","properties":{"cod_tema":"RIO_10_A_50","cod_imovel":"RJ-3302106-DF5C2CF1933947C7AFF8F6C6171C0DD6","ind_status":"AT"},"geometry":{"type":"Polygon","coordinates":[[[-42.1009,-21.6798],[-42.0951,-21.6738],[-42.1002,-21.6794],[-42.1009,-21.6798]]]}},{"type":"Feature","properties":{"cod_tema":"RIO_ATE_10","cod_imovel":"RJ-3302106-E023667E5FC14187A72EE125125C9B67","ind_status":"AT"},"geometry":{"type":"Polygon","coordinates":[[[-41.9959,-21.7167],[-41.9958,-21.7214],[-41.9953,-21.7161],[-41.9959,-21.7167]]]}},{"type":"Feature","properties":{"cod_tema":"RIO_ATE_10","cod_imovel":"RJ-3302106-E0ED7086155F4AEC861F96EA45B30782","ind_status":"AT"},"geometry":{"type":"Polygon","coordinates":[[[-42.1717,-21.7311],[-42.1671,-21.7295],[-42.1722,-21.7317],[-42.1717,-21.7311]]]}},{"type":"Feature","properties":{"cod_tema":"RIO_ATE_10","cod_imovel":"RJ-3302106-E1BEFD4068DF4F5F89FD71B301184893","ind_status":"AT"},"geometry":{"type":"Polygon","coordinates":[[[-42.1899,-21.7421],[-42.1953,-21.7426],[-42.1897,-21.742],[-42.1899,-21.7421]]]}},{"type":"Feature","properties":{"cod_tema":"RIO_ATE_10","cod_imovel":"RJ-3302106-EE0F93FBC181490B96013AFC4CE4FEAF","ind_status":"AT"},"geometry":{"type":"Polygon","coordinates":[[[-42.049,-21.7473],[-42.0522,-21.7525],[-42.0488,-21.7469],[-42.049,-21.7473]]]}},{"type":"Feature","properties":{"cod_tema":"RIO_ATE_10","cod_imovel":"RJ-3302106-EFACE51AFD6141C3A4D26473B505DABE","ind_status":"AT"},"geometry":{"type":"Polygon","coordinates":[[[-41.9408,-21.6788],[-41.9428,-21.6829],[-41.9407,-21.6785],[-41.9408,-21.6788]]]}},{"type":"Feature","properties":{"cod_tema":"RIO_ATE_10","cod_imovel":"RJ-3302106-EFCA07D8D3EA41EA9FD3A1759310FA27","ind_status":"AT"},"geometry":{"type":"Polygon","coordinates":[[[-42.1443,-21.7911],[-42.152,-21.7897],[-42.1438,-21.7912],[-42.1443,-21.7911]]]}},{"type":"Feature","properties":{"cod_tema":"RIO_ATE_10","cod_imovel":"RJ-3302106-F113E63F39674A8EB84E9BE0356E462C","ind_status":"PE"},"geometry":{"type":"Polygon","coordinates":[[[-42.0053,-21.6469],[-42.0126,-21.6492],[-42.0048,-21.6464],[-42.0053,-21.6469]],[[-41.9953,-21.638],[-42.001,-21.6384],[-41.9946,-21.6379],[-41.9953,-21.638]]]}},{"type":"Feature","properties":{"cod_tema":"RIO_ATE_10","cod_imovel":"RJ-3302106-F9428A3738804566BC54D6F525571595","ind_status":"AT"},"geometry":{"type":"Polygon","coordinates":[[[-42.1785,-21.7342],[-42.1774,-21.7389],[-42.1787,-21.7341],[-42.1785,-21.7342]]]}},{"type":"Feature","properties":{"cod_tema":"RIO_ATE_10","cod_imovel":"RJ-3305307-476364A5DAA94411BC9690BFB7874DF9","ind_status":"AT"},"geometry":{"type":"Polygon","coordinates":[[[-42.1369,-21.8369],[-42.1282,-21.8434],[-42.1323,-21.8442],[-42.1371,-21.8366],[-42.1369,-21.8369]]]}},{"type":"Feature","properties":{"cod_tema":"RIO_10_A_50","cod_imovel":"RJ-3302106-8E51B06064104012A73A1015BDBCF4D4","ind_status":"CA"},"geometry":{"type":"Polygon","coordinates":[[[-42.0814,-21.8007],[-42.0659,-21.7994],[-42.0796,-21.8016],[-42.0814,-21.8007]]]}},{"type":"Feature","properties":{"cod_tema":"RIO_ATE_10","cod_imovel":"RJ-3302106-84762ED5271B494CB4D7668E7AD5DA2C","ind_status":"AT"},"geometry":{"type":"Polygon","coordinates":[[[-41.9914,-21.6355],[-41.9928,-21.6437],[-41.9914,-21.6354],[-41.9914,-21.6355]]]}},{"type":"Feature","properties":{"cod_tema":"RIO_ATE_10","cod_imovel":"RJ-3302106-72CBBD0DDBBF411FA665390358EE99CC","ind_status":"AT"},"geometry":{"type":"Polygon","coordinates":[[[-42.0202,-21.7127],[-42.0263,-21.7145],[-42.0197,-21.7123],[-42.0202,-21.7127]]]}},{"type":"Feature","properties":{"cod_tema":"RIO_ATE_10","cod_imovel":"RJ-3302106-97919F91C5EB46BC93D382F9DB77941E","ind_status":"PE"},"geometry":{"type":"Polygon","coordinates":[[[-42.1402,-21.765],[-42.1363,-21.7657],[-42.1404,-21.7653],[-42.1402,-21.765]]]}},{"type":"Feature","properties":{"cod_tema":"RIO_ATE_10","cod_imovel":"RJ-3302106-1C3BE6F6F0B640278DECC106E0C87BE1","ind_status":"AT"},"geometry":{"type":"Polygon","coordinates":[[[-42.1726,-21.8514],[-42.1716,-21.8544],[-42.1727,-21.8513],[-42.1726,-21.8514]]]}},{"type":"Feature","properties":{"cod_tema":"RIO_ATE_10","cod_imovel":"RJ-3302106-AB4FFB9EB332449AB87AF3AE176890E7","ind_status":"AT"},"geometry":{"type":"Polygon","coordinates":[[[-41.9945,-21.6474],[-41.9927,-21.6434],[-41.9953,-21.6481],[-41.9945,-21.6474]]]}},{"type":"Feature","properties":{"cod_tema":"RIO_ATE_10","cod_imovel":"RJ-3302106-D73735DEC74442A78876C3D2BDA88046","ind_status":"AT"},"geometry":{"type":"Polygon","coordinates":[[[-42.2051,-21.7257],[-42.202,-21.7257],[-42.205,-21.7252],[-42.2051,-21.7257]]]}},{"type":"Feature","properties":{"cod_tema":"RIO_ATE_10","cod_imovel":"RJ-3302106-7FF8E196EC594B9EA4A5D0B1BB233D74","ind_status":"AT"},"geometry":{"type":"Polygon","coordinates":[[[-41.9513,-21.7293],[-41.9438,-21.7373],[-41.9514,-21.729],[-41.9513,-21.7293]],[[-41.9303,-21.718],[-41.9274,-21.715],[-41.9305,-21.7183],[-41.9303,-21.718]],[[-41.9504,-21.7233],[-41.9517,-21.7289],[-41.9504,-21.723],[-41.9504,-21.7233]]]}},{"type":"Feature","properties":{"cod_tema":"RIO_ATE_10","cod_imovel":"RJ-3302106-CDBC634866D147DEB6DFC9982E441F46","ind_status":"AT"},"geometry":{"type":"Polygon","coordinates":[[[-42.2207,-21.7073],[-42.2234,-21.7019],[-42.2207,-21.7076],[-42.2207,-21.7073]]]}},{"type":"Feature","properties":{"cod_tema":"RIO_ACIMA_600","cod_imovel":"RJ-3302106-CDBC634866D147DEB6DFC9982E441F46","ind_status":"AT"},"geometry":{"type":"Polygon","coordinates":[[[-42.2245,-21.7027],[-42.2262,-21.6928],[-42.2229,-21.6906],[-42.2243,-21.7026],[-42.2245,-21.7027]]]}},{"type":"Feature","properties":{"cod_tema":"RIO_ATE_10","cod_imovel":"RJ-3302106-7A7EA5ED0D1546AEB46D9683553869D2","ind_status":"AT"},"geometry":{"type":"Polygon","coordinates":[[[-42.1231,-21.7938],[-42.1243,-21.7971],[-42.1231,-21.7933],[-42.1231,-21.7938]]]}},{"type":"Feature","properties":{"cod_tema":"RIO_ATE_10","cod_imovel":"RJ-3302106-F409C67D0D694912B8A8F32065D05DFB","ind_status":"AT"},"geometry":{"type":"Polygon","coordinates":[[[-41.9536,-21.6546],[-41.9568,-21.6552],[-41.9535,-21.6546],[-41.9536,-21.6546]]]}},{"type":"Feature","properties":{"cod_tema":"RIO_200_A_600","cod_imovel":"RJ-3302106-E2CEDDD602234AFDBF9DE94D429F6C4F","ind_status":"AT"},"geometry":{"type":"Polygon","coordinates":[[[-42.1283,-21.704],[-42.1378,-21.7119],[-42.1561,-21.6959],[-42.1511,-21.6908],[-42.1384,-21.7016],[-42.1271,-21.7034],[-42.1283,-21.704]],[[-42.1309,-21.7055],[-42.1384,-21.7056],[-42.1495,-21.6935],[-42.1529,-21.6952],[-42.1381,-21.7102],[-42.1312,-21.7061],[-42.1309,-21.7055]]]}},{"type":"Feature","properties":{"cod_tema":"RIO_ATE_10","cod_imovel":"RJ-3302106-1B6D90AB463E48999AB8D52427E9A174","ind_status":"AT"},"geometry":{"type":"Polygon","coordinates":[[[-42.1738,-21.7185],[-42.1797,-21.7193],[-42.1668,-21.7105],[-42.1766,-21.7173],[-42.1736,-21.7186],[-42.1738,-21.7185]],[[-42.1631,-21.7075],[-42.1515,-21.7023],[-42.1633,-21.7075],[-42.1631,-21.7075]]]}},{"type":"Feature","properties":{"cod_tema":"RIO_10_A_50","cod_imovel":"RJ-3302106-1B6D90AB463E48999AB8D52427E9A174","ind_status":"AT"},"geometry":{"type":"Polygon","coordinates":[[[-42.1476,-21.7045],[-42.1442,-21.707],[-42.1473,-21.705],[-42.1476,-21.7045]],[[-42.151,-21.7004],[-42.158,-21.6943],[-42.1477,-21.7045],[-42.1513,-21.701],[-42.151,-21.7004]]]}},{"type":"Feature","properties":{"cod_tema":"LAGO_NATURAL","cod_imovel":"RJ-3302106-1B6D90AB463E48999AB8D52427E9A174","ind_status":"AT"},"geometry":{"type":"Polygon","coordinates":[[[-42.1635,-21.7077],[-42.1668,-21.7101],[-42.1636,-21.7078],[-42.1635,-21.7077]]]}},{"type":"Feature","properties":{"cod_tema":"RIO_ATE_10","cod_imovel":"RJ-3302106-1404C82B313A4268B07B39E8830F1A1E","ind_status":"AT"},"geometry":{"type":"Polygon","coordinates":[[[-41.9509,-21.723],[-41.9522,-21.729],[-41.951,-21.7228],[-41.9509,-21.723]]]}},{"type":"Feature","properties":{"cod_tema":"RIO_ATE_10","cod_imovel":"RJ-3302106-13C499F7F0AF4B58917327A288847B83","ind_status":"AT"},"geometry":{"type":"Polygon","coordinates":[[[-42.2166,-21.7197],[-42.2134,-21.7238],[-42.2168,-21.7193],[-42.2166,-21.7197]]]}},{"type":"Feature","properties":{"cod_tema":"RIO_ACIMA_600","cod_imovel":"RJ-3302106-13C499F7F0AF4B58917327A288847B83","ind_status":"AT"},"geometry":{"type":"Polygon","coordinates":[[[-42.2192,-21.6928],[-42.2185,-21.6995],[-42.221,-21.6928],[-42.2192,-21.6928]]]}},{"type":"Feature","properties":{"cod_tema":"RIO_ATE_10","cod_imovel":"RJ-3302106-B377D4FE9DD6488DB9EB881F31C6B987","ind_status":"PE"},"geometry":{"type":"Polygon","coordinates":[[[-41.9913,-21.7323],[-41.9856,-21.733],[-41.9909,-21.732],[-41.9913,-21.7323]]]}},{"type":"Feature","properties":{"cod_tema":"RIO_ATE_10","cod_imovel":"RJ-3302106-E36BDE0233C24EDE81E8B41EB73253D9","ind_status":"AT"},"geometry":{"type":"Polygon","coordinates":[[[-42.1007,-21.7159],[-42.0993,-21.7126],[-42.1007,-21.7161],[-42.1007,-21.7159]]]}},{"type":"Feature","properties":{"cod_tema":"RIO_ATE_10","cod_imovel":"RJ-3302106-D8792E12FD8D41E28500E9C44CDD09B2","ind_status":"AT"},"geometry":{"type":"Polygon","coordinates":[[[-42.0801,-21.8005],[-42.0711,-21.7967],[-42.0804,-21.8004],[-42.0801,-21.8005]]]}},{"type":"Feature","properties":{"cod_tema":"RIO_ATE_10","cod_imovel":"RJ-3302106-7BC24E5C33D3480492F7BD3A215B1CB9","ind_status":"AT"},"geometry":{"type":"Polygon","coordinates":[[[-42.0537,-21.6984],[-42.0567,-21.6955],[-42.0534,-21.6985],[-42.0537,-21.6984]]]}},{"type":"Feature","properties":{"cod_tema":"RIO_ATE_10","cod_imovel":"RJ-3302106-17A6B1EE585140DB836B411A45EE2D52","ind_status":"AT"},"geometry":{"type":"Polygon","coordinates":[[[-42.0875,-21.7292],[-42.0943,-21.7272],[-42.0871,-21.7294],[-42.0875,-21.7292]]]}},{"type":"Feature","properties":{"cod_tema":"RIO_ATE_10","cod_imovel":"RJ-3302106-99B4C4D9D1F746FBB78D6C35ECBCC242","ind_status":"AT"},"geometry":{"type":"Polygon","coordinates":[[[-42.1664,-21.7488],[-42.1636,-21.7427],[-42.1669,-21.7491],[-42.1664,-21.7488]]]}},{"type":"Feature","properties":{"cod_tema":"RIO_ATE_10","cod_imovel":"RJ-3302106-C3485901C6254977B7B6E705B758490F","ind_status":"PE"},"geometry":{"type":"Polygon","coordinates":[[[-42.1114,-21.7719],[-42.1135,-21.7754],[-42.1118,-21.7711],[-42.1114,-21.7719]],[[-42.1089,-21.7759],[-42.1132,-21.7756],[-42.1085,-21.7757],[-42.1089,-21.7759]]]}},{"type":"Feature","properties":{"cod_tema":"RIO_ATE_10","cod_imovel":"RJ-3302106-AB624F1A6B7D475D93D48812EBB91D63","ind_status":"AT"},"geometry":{"type":"Polygon","coordinates":[[[-42.1414,-21.7916],[-42.1374,-21.7921],[-42.142,-21.7914],[-42.1414,-21.7916]]]}},{"type":"Feature","properties":{"cod_tema":"RIO_ATE_10","cod_imovel":"RJ-3302106-3FE5CFC3CED14482BCFA999008331D8C","ind_status":"AT"},"geometry":{"type":"Polygon","coordinates":[[[-42.122,-21.7613],[-42.1192,-21.76],[-42.1227,-21.7618],[-42.122,-21.7613]]]}},{"type":"Feature","properties":{"cod_tema":"RIO_ATE_10","cod_imovel":"RJ-3302106-10AD63BF5EE84991B54DE770F8DB253D","ind_status":"AT"},"geometry":{"type":"Polygon","coordinates":[[[-42.0916,-21.8095],[-42.0944,-21.8141],[-42.0995,-21.8109],[-42.0944,-21.814],[-42.0906,-21.8094],[-42.0916,-21.8095]]]}},{"type":"Feature","properties":{"cod_tema":"RIO_ATE_10","cod_imovel":"RJ-3302106-93F48E663C6F4A218D7A2F3E2E42AEA0","ind_status":"AT"},"geometry":{"type":"Polygon","coordinates":[[[-42.0394,-21.6803],[-42.0391,-21.676],[-42.0342,-21.6775],[-42.0394,-21.6803],[-42.0394,-21.6803]]]}},{"type":"Feature","properties":{"cod_tema":"LAGO_NATURAL","cod_imovel":"RJ-3302106-A051628B2B464D8DA71BBA83C7B17168","ind_status":"AT"},"geometry":{"type":"Polygon","coordinates":[[[-41.9834,-21.6806],[-41.9824,-21.6775],[-41.9827,-21.6805],[-41.9834,-21.6806]]]}},{"type":"Feature","properties":{"cod_tema":"RIO_ATE_10","cod_imovel":"RJ-3302106-3D4F9312C88242DA983171B973F41D98","ind_status":"AT"},"geometry":{"type":"Polygon","coordinates":[[[-42.1131,-21.8239],[-42.1195,-21.827],[-42.1197,-21.8231],[-42.1184,-21.8271],[-42.1128,-21.8237],[-42.1131,-21.8239]]]}},{"type":"Feature","properties":{"cod_tema":"RIO_ATE_10","cod_imovel":"RJ-3302106-7EDE94F675E44DC6B46024FF473001DA","ind_status":"AT"},"geometry":{"type":"Polygon","coordinates":[[[-42.1202,-21.739],[-42.1218,-21.7352],[-42.1199,-21.7395],[-42.1202,-21.739]]]}},{"type":"Feature","properties":{"cod_tema":"RIO_ATE_10","cod_imovel":"RJ-3302106-8A154108EEBB45E79C44485F9F69E4CB","ind_status":"AT"},"geometry":{"type":"Polygon","coordinates":[[[-42.1636,-21.7279],[-42.1634,-21.7315],[-42.1631,-21.7273],[-42.1636,-21.7279]]]}},{"type":"Feature","properties":{"cod_tema":"RIO_ATE_10","cod_imovel":"RJ-3302106-48E5B5E1013146A192CB474B14D9A91A","ind_status":"AT"},"geometry":{"type":"Polygon","coordinates":[[[-42.1681,-21.8537],[-42.1654,-21.848],[-42.1683,-21.8539],[-42.1681,-21.8537]]]}},{"type":"Feature","properties":{"cod_tema":"RIO_ATE_10","cod_imovel":"RJ-3302106-0C7C4050C876410F9BDA33FC8500C6F9","ind_status":"AT"},"geometry":{"type":"Polygon","coordinates":[[[-42.053,-21.667],[-42.0558,-21.6637],[-42.0528,-21.6671],[-42.053,-21.667]]]}},{"type":"Feature","properties":{"cod_tema":"RIO_ATE_10","cod_imovel":"RJ-3302106-26D6253DB638412D94BEC6CAF4C77ABA","ind_status":"PE"},"geometry":{"type":"Polygon","coordinates":[[[-42.1251,-21.8035],[-42.1266,-21.8008],[-42.1248,-21.8041],[-42.1251,-21.8035]]]}},{"type":"Feature","properties":{"cod_tema":"RIO_ATE_10","cod_imovel":"RJ-3302106-A926A7F50A374AF89F0F126D8323F5F3","ind_status":"AT"},"geometry":{"type":"Polygon","coordinates":[[[-42.0255,-21.6805],[-42.0252,-21.6769],[-42.0253,-21.6809],[-42.0255,-21.6805]]]}},{"type":"Feature","properties":{"cod_tema":"RIO_ATE_10","cod_imovel":"RJ-3302106-219724C19C9D46A799B18DFEEBEEE36D","ind_status":"AT"},"geometry":{"type":"Polygon","coordinates":[[[-42.1198,-21.8249],[-42.1128,-21.8236],[-42.1185,-21.8272],[-42.1197,-21.8232],[-42.1198,-21.8249]]]}},{"type":"Feature","properties":{"cod_tema":"RIO_ATE_10","cod_imovel":"RJ-3302106-7968BDCAB79944C383EFDFD24463C92C","ind_status":"AT"},"geometry":{"type":"Polygon","coordinates":[[[-42.0956,-21.8137],[-42.0914,-21.8115],[-42.0956,-21.8139],[-42.0956,-21.8137]]]}},{"type":"Feature","properties":{"cod_tema":"RIO_10_A_50","cod_imovel":"RJ-3302106-14373F8D76854EDDB8D103F688998610","ind_status":"AT"},"geometry":{"type":"Polygon","coordinates":[[[-41.9358,-21.739],[-41.9306,-21.7343],[-41.9356,-21.7397],[-41.9358,-21.739]]]}},{"type":"Feature","properties":{"cod_tema":"RIO_ATE_10","cod_imovel":"RJ-3302106-0BB8C27C433043588443A0E8FB27443C","ind_status":"AT"},"geometry":{"type":"Polygon","coordinates":[[[-41.9753,-21.6868],[-41.9731,-21.6847],[-41.9757,-21.6871],[-41.9753,-21.6868]]]}},{"type":"Feature","properties":{"cod_tema":"RIO_ATE_10","cod_imovel":"RJ-3302106-47DC7D853A384BF89D827C02943D6B64","ind_status":"AT"},"geometry":{"type":"Polygon","coordinates":[[[-42.1707,-21.7519],[-42.1675,-21.7497],[-42.1709,-21.7519],[-42.1707,-21.7519]]]}},{"type":"Feature","properties":{"cod_tema":"RIO_ATE_10","cod_imovel":"RJ-3302106-52FF907220194A429DF5B666FECD2591","ind_status":"AT"},"geometry":{"type":"Polygon","coordinates":[[[-42.0559,-21.7506],[-42.0532,-21.7523],[-42.056,-21.7506],[-42.0559,-21.7506]]]}},{"type":"Feature","properties":{"cod_tema":"RIO_ATE_10","cod_imovel":"RJ-3302106-AAA57A907AAC480CB6DC853E9428AF3F","ind_status":"AT"},"geometry":{"type":"Polygon","coordinates":[[[-41.9667,-21.7107],[-41.9701,-21.7104],[-41.9669,-21.7107],[-41.9667,-21.7107]]]}},{"type":"Feature","properties":{"cod_tema":"RIO_10_A_50","cod_imovel":"RJ-3302106-B7BBEBECD5F2462FBF8CE19EC0FC66D6","ind_status":"AT"},"geometry":{"type":"Polygon","coordinates":[[[-42.0901,-21.8099],[-42.0875,-21.8064],[-42.0898,-21.8101],[-42.0901,-21.8099]]]}},{"type":"Feature","properties":{"cod_tema":"RIO_ATE_10","cod_imovel":"RJ-3302106-11BAB573347B4524AABAAAA69D6B0B52","ind_status":"AT"},"geometry":{"type":"Polygon","coordinates":[[[-41.9761,-21.6818],[-41.9708,-21.6807],[-41.9763,-21.682],[-41.9761,-21.6818]]]}},{"type":"Feature","properties":{"cod_tema":"RIO_ATE_10","cod_imovel":"RJ-3302106-57A9C8EEE63B4E999EBF82D3D65F4881","ind_status":"AT"},"geometry":{"type":"Polygon","coordinates":[[[-41.9761,-21.6818],[-41.9708,-21.6807],[-41.9763,-21.682],[-41.9761,-21.6818]]]}},{"type":"Feature","properties":{"cod_tema":"RIO_ATE_10","cod_imovel":"RJ-3302106-77A0A6A772AD4A868210E398353BFCA7","ind_status":"AT"},"geometry":{"type":"Polygon","coordinates":[[[-42.1518,-21.8064],[-42.1466,-21.8019],[-42.1523,-21.8069],[-42.1518,-21.8064]]]}},{"type":"Feature","properties":{"cod_tema":"RIO_ATE_10","cod_imovel":"RJ-3302106-CDA3C321AA834567A630CF2D8BECCFA1","ind_status":"AT"},"geometry":{"type":"Polygon","coordinates":[[[-42.0954,-21.7277],[-42.0919,-21.7274],[-42.0958,-21.7279],[-42.0954,-21.7277]]]}},{"type":"Feature","properties":{"cod_tema":"RIO_10_A_50","cod_imovel":"RJ-3302106-4D64339550E741C79BD18389C2A8AFBB","ind_status":"AT"},"geometry":{"type":"Polygon","coordinates":[[[-42.1371,-21.8071],[-42.1328,-21.8039],[-42.1369,-21.8073],[-42.1371,-21.8071]]]}},{"type":"Feature","properties":{"cod_tema":"RIO_ATE_10","cod_imovel":"RJ-3302106-2A7191D3783F442BBB36EEA83242B825","ind_status":"AT"},"geometry":{"type":"Polygon","coordinates":[[[-42.1716,-21.7845],[-42.166,-21.7886],[-42.1633,-21.7845],[-42.1628,-21.7779],[-42.1711,-21.7777],[-42.1657,-21.7711],[-42.1662,-21.7754],[-42.1587,-21.7765],[-42.1637,-21.7772],[-42.1614,-21.7843],[-42.1688,-21.7951],[-42.17,-21.7885],[-42.166,-21.7887],[-42.1716,-21.7845],[-42.1716,-21.7845]],[[-42.1602,-21.7833],[-42.163,-21.7815],[-42.1591,-21.784],[-42.1602,-21.7833]],[[-42.173,-21.795],[-42.1693,-21.7959],[-42.1724,-21.7947],[-42.173,-21.795]]]}},{"type":"Feature","properties":{"cod_tema":"RIO_ATE_10","cod_imovel":"RJ-3302106-ED1E89FB81D34BC0861B1DA9044A4417","ind_status":"AT"},"geometry":{"type":"Polygon","coordinates":[[[-42.1127,-21.8235],[-42.1112,-21.8205],[-42.1126,-21.8238],[-42.1127,-21.8235]]]}},{"type":"Feature","properties":{"cod_tema":"RIO_ATE_10","cod_imovel":"RJ-3302106-18023F14EFBF48039093080A82D9A633","ind_status":"AT"},"geometry":{"type":"Polygon","coordinates":[[[-42.1398,-21.784],[-42.1375,-21.7819],[-42.1401,-21.7842],[-42.1398,-21.784]]]}},{"type":"Feature","properties":{"cod_tema":"RIO_ATE_10","cod_imovel":"RJ-3302106-52894BE014854F23A74849D4BF91CCEB","ind_status":"AT"},"geometry":{"type":"Polygon","coordinates":[[[-42.0012,-21.6961],[-41.9997,-21.6898],[-42.0013,-21.6969],[-42.0012,-21.6961]]]}},{"type":"Feature","properties":{"cod_tema":"RIO_ATE_10","cod_imovel":"RJ-3302106-C93C3BE02A4A437F9AFEA383A7BFED01","ind_status":"AT"},"geometry":{"type":"Polygon","coordinates":[[[-42.0353,-21.6692],[-42.0382,-21.6737],[-42.0374,-21.667],[-42.0352,-21.6692],[-42.0353,-21.6692]]]}},{"type":"Feature","properties":{"cod_tema":"RIO_ATE_10","cod_imovel":"RJ-3302106-812A182BF68B455380EDC1771C9AE868","ind_status":"AT"},"geometry":{"type":"Polygon","coordinates":[[[-42.1031,-21.7217],[-42.0995,-21.7206],[-42.1032,-21.7216],[-42.1031,-21.7217]]]}},{"type":"Feature","properties":{"cod_tema":"RIO_ATE_10","cod_imovel":"RJ-3302106-F8397BDB3E3A425EA425BA5D4CA9F904","ind_status":"AT"},"geometry":{"type":"Polygon","coordinates":[[[-42.172,-21.802],[-42.1717,-21.7988],[-42.172,-21.802],[-42.172,-21.802]]]}},{"type":"Feature","properties":{"cod_tema":"RIO_ATE_10","cod_imovel":"RJ-3302106-737FDE82AB9140AF9BC3D2C00D3F22C2","ind_status":"AT"},"geometry":{"type":"Polygon","coordinates":[[[-42.1441,-21.8464],[-42.1454,-21.8417],[-42.1441,-21.8466],[-42.1441,-21.8464]]]}},{"type":"Feature","properties":{"cod_tema":"RIO_ATE_10","cod_imovel":"RJ-3302106-618F9DF4309641FB9455F6227E32C80A","ind_status":"AT"},"geometry":{"type":"Polygon","coordinates":[[[-42.1643,-21.7433],[-42.1663,-21.7489],[-42.1638,-21.743],[-42.1643,-21.7433]]]}},{"type":"Feature","properties":{"cod_tema":"RIO_ATE_10","cod_imovel":"RJ-3302106-BD98A203BC0844CC8F76A85B07075432","ind_status":"AT"},"geometry":{"type":"Polygon","coordinates":[[[-42.1542,-21.8103],[-42.1523,-21.8071],[-42.1542,-21.8105],[-42.1542,-21.8103]]]}},{"type":"Feature","properties":{"cod_tema":"RIO_ATE_10","cod_imovel":"RJ-3302106-614ADB57E14742B18FD9C6D97BAB615E","ind_status":"AT"},"geometry":{"type":"Polygon","coordinates":[[[-41.9436,-21.7374],[-41.936,-21.7395],[-41.9439,-21.7376],[-41.9436,-21.7374]]]}},{"type":"Feature","properties":{"cod_tema":"RIO_ATE_10","cod_imovel":"RJ-3302106-011E6FAAF8F44C75A10107388B785F1E","ind_status":"AT"},"geometry":{"type":"Polygon","coordinates":[[[-42.1223,-21.8347],[-42.1163,-21.8372],[-42.1179,-21.8408],[-42.1166,-21.8373],[-42.1219,-21.835],[-42.1223,-21.8347]]]}},{"type":"Feature","properties":{"cod_tema":"RIO_ATE_10","cod_imovel":"RJ-3302106-170946744E8D4B6489EE8D9A9D7B3322","ind_status":"AT"},"geometry":{"type":"Polygon","coordinates":[[[-42.0893,-21.8025],[-42.0879,-21.807],[-42.0896,-21.8021],[-42.0893,-21.8025]]]}},{"type":"Feature","properties":{"cod_tema":"RIO_ATE_10","cod_imovel":"RJ-3302106-CC6E19E723254B1B9E34762A414D55C7","ind_status":"AT"},"geometry":{"type":"Polygon","coordinates":[[[-42.174,-21.7244],[-42.1706,-21.7234],[-42.1748,-21.7242],[-42.174,-21.7244]]]}},{"type":"Feature","properties":{"cod_tema":"RIO_10_A_50","cod_imovel":"RJ-3302106-3F45A67EF81D464380F57C7A89D23EB5","ind_status":"AT"},"geometry":{"type":"Polygon","coordinates":[[[-42.1272,-21.8279],[-42.1203,-21.8224],[-42.127,-21.8279],[-42.1272,-21.8279]]]}},{"type":"Feature","properties":{"cod_tema":"RIO_ATE_10","cod_imovel":"RJ-3302106-50F0D8378036472A9B596670BAC94217","ind_status":"AT"},"geometry":{"type":"Polygon","coordinates":[[[-42.0058,-21.7032],[-42.0027,-21.7042],[-42.0064,-21.7028],[-42.0058,-21.7032]]]}},{"type":"Feature","properties":{"cod_tema":"RIO_ATE_10","cod_imovel":"RJ-3302106-DF703D730D8A474CA0FB28AC519C72B0","ind_status":"AT"},"geometry":{"type":"Polygon","coordinates":[[[-42.1351,-21.7659],[-42.1381,-21.7652],[-42.135,-21.766],[-42.1351,-21.7659]]]}},{"type":"Feature","properties":{"cod_tema":"RIO_ATE_10","cod_imovel":"RJ-3302106-B21B24E86219405B8DE7A282AAE5804E","ind_status":"AT"},"geometry":{"type":"Polygon","coordinates":[[[-42.0457,-21.7827],[-42.0422,-21.7833],[-42.046,-21.7826],[-42.0457,-21.7827]]]}},{"type":"Feature","properties":{"cod_tema":"RIO_ATE_10","cod_imovel":"RJ-3302106-2689B72DD65442C19F505FB938CC2B77","ind_status":"AT"},"geometry":{"type":"Polygon","coordinates":[[[-42.1028,-21.7884],[-42.1049,-21.7908],[-42.1024,-21.7866],[-42.1028,-21.7884]],[[-42.0593,-21.7635],[-42.0796,-21.7864],[-42.0557,-21.7619],[-42.0593,-21.7635]]]}},{"type":"Feature","properties":{"cod_tema":"RIO_ATE_10","cod_imovel":"RJ-3302106-4D47D2849FF14B41AF53FEF8739F5922","ind_status":"AT"},"geometry":{"type":"Polygon","coordinates":[[[-42.1373,-21.7978],[-42.144,-21.8001],[-42.1365,-21.7973],[-42.1373,-21.7978]]]}},{"type":"Feature","properties":{"cod_tema":"RIO_ATE_10","cod_imovel":"RJ-3302106-5CC97D4EB9B94889B24C569255CD9556","ind_status":"AT"},"geometry":{"type":"Polygon","coordinates":[[[-42.161,-21.7939],[-42.1579,-21.7952],[-42.1618,-21.7934],[-42.161,-21.7939]]]}},{"type":"Feature","properties":{"cod_tema":"RIO_ATE_10","cod_imovel":"RJ-3302106-657D55286E974BE4818AA75D1385F13D","ind_status":"AT"},"geometry":{"type":"Polygon","coordinates":[[[-42.2024,-21.712],[-42.2042,-21.7091],[-42.2016,-21.7125],[-42.2024,-21.712]]]}},{"type":"Feature","properties":{"cod_tema":"RESERVATORIO_ARTIFICIAL_DECORRENTE_BARRAMENTO","cod_imovel":"RJ-3302106-20E64074BBAF4E1B92B84FB1FD976CA5","ind_status":"PE"},"geometry":{"type":"Polygon","coordinates":[[[-42.0539,-21.6546],[-42.0512,-21.6575],[-42.0538,-21.655],[-42.0539,-21.6546]]]}},{"type":"Feature","properties":{"cod_tema":"RIO_ATE_10","cod_imovel":"RJ-3302106-26E5B76EC9704AE996E6710EA420A6AD","ind_status":"AT"},"geometry":{"type":"Polygon","coordinates":[[[-42.0707,-21.7977],[-42.0579,-21.801],[-42.0624,-21.7904],[-42.0579,-21.801],[-42.0709,-21.7971],[-42.0707,-21.7977]]]}},{"type":"Feature","properties":{"cod_tema":"RIO_ATE_10","cod_imovel":"RJ-3302106-C8527C49D19946849EC5CE8BA5D3BA90","ind_status":"CA"},"geometry":{"type":"Polygon","coordinates":[[[-42.0394,-21.6803],[-42.0392,-21.676],[-42.0341,-21.6774],[-42.0394,-21.6803],[-42.0394,-21.6803]]]}},{"type":"Feature","properties":{"cod_tema":"RIO_10_A_50","cod_imovel":"RJ-3302106-2209D989082A4F12A00ADF2225E652F0","ind_status":"AT"},"geometry":{"type":"Polygon","coordinates":[[[-42.069,-21.6519],[-42.0636,-21.6407],[-42.0513,-21.6362],[-42.0627,-21.6416],[-42.0692,-21.6515],[-42.069,-21.6519]]]}},{"type":"Feature","properties":{"cod_tema":"RIO_50_A_200","cod_imovel":"RJ-3302106-2209D989082A4F12A00ADF2225E652F0","ind_status":"AT"},"geometry":{"type":"Polygon","coordinates":[[[-42.0678,-21.6529],[-42.051,-21.6438],[-42.0513,-21.6362],[-42.0477,-21.6398],[-42.0682,-21.6538],[-42.0678,-21.6529]]]}},{"type":"Feature","properties":{"cod_tema":"RIO_ATE_10","cod_imovel":"RJ-3302106-4941F81237BB4CD68E13274C8B74CA09","ind_status":"AT"},"geometry":{"type":"Polygon","coordinates":[[[-42.1481,-21.8521],[-42.1504,-21.8597],[-42.148,-21.8518],[-42.1481,-21.8521]]]}},{"type":"Feature","properties":{"cod_tema":"RIO_ATE_10","cod_imovel":"RJ-3302106-FDB480DA9F9F4ACD868AC89879CEAFBD","ind_status":"AT"},"geometry":{"type":"Polygon","coordinates":[[[-41.9356,-21.7298],[-41.9365,-21.724],[-41.9357,-21.7297],[-41.9356,-21.7298]]]}},{"type":"Feature","properties":{"cod_tema":"RIO_50_A_200","cod_imovel":"RJ-3302106-FDB480DA9F9F4ACD868AC89879CEAFBD","ind_status":"AT"},"geometry":{"type":"Polygon","coordinates":[[[-41.9324,-21.7349],[-41.9346,-21.7312],[-41.9319,-21.7343],[-41.9324,-21.7349]]]}},{"type":"Feature","properties":{"cod_tema":"RIO_ATE_10","cod_imovel":"RJ-3302106-5525F39E3F9E43BFAD7F75C53B6003A5","ind_status":"AT"},"geometry":{"type":"Polygon","coordinates":[[[-41.9397,-21.6024],[-41.9305,-21.5919],[-41.9341,-21.597],[-41.9308,-21.6],[-41.9342,-21.597],[-41.94,-21.6025],[-41.9397,-21.6024]],[[-41.9429,-21.6012],[-41.9392,-21.6067],[-41.9329,-21.6046],[-41.9364,-21.6065],[-41.9333,-21.6083],[-41.9417,-21.6093],[-41.9429,-21.6012],[-41.9429,-21.6012]]]}},{"type":"Feature","properties":{"cod_tema":"RIO_50_A_200","cod_imovel":"RJ-3302106-5525F39E3F9E43BFAD7F75C53B6003A5","ind_status":"AT"},"geometry":{"type":"Polygon","coordinates":[[[-41.9297,-21.5916],[-41.9502,-21.607],[-41.9327,-21.5916],[-41.9297,-21.5916]],[[-41.9457,-21.6034],[-41.9491,-21.6067],[-41.9457,-21.6033],[-41.9457,-21.6034]]]}},{"type":"Feature","properties":{"cod_tema":"RIO_ATE_10","cod_imovel":"RJ-3302106-70191EA3008648ECB698FF1A8C790E1C","ind_status":"AT"},"geometry":{"type":"Polygon","coordinates":[[[-42.0116,-21.6653],[-42.0165,-21.6677],[-42.0115,-21.665],[-42.0116,-21.6653]]]}},{"type":"Feature","properties":{"cod_tema":"RIO_ATE_10","cod_imovel":"RJ-3302106-3029A8F95C85423C9C50708F1E89B02B","ind_status":"AT"},"geometry":{"type":"Polygon","coordinates":[[[-42.1339,-21.7764],[-42.1351,-21.7793],[-42.1341,-21.7758],[-42.1339,-21.7764]]]}},{"type":"Feature","properties":{"cod_tema":"RIO_ATE_10","cod_imovel":"RJ-3302106-C649111054C54811A812E9C2A04FDE1F","ind_status":"AT"},"geometry":{"type":"Polygon","coordinates":[[[-42.1716,-21.7931],[-42.1666,-21.7931],[-42.1699,-21.7884],[-42.1669,-21.7908],[-42.1632,-21.7841],[-42.1628,-21.7928],[-42.1659,-21.7888],[-42.1715,-21.7987],[-42.1719,-21.7923],[-42.1716,-21.7931]]]}},{"type":"Feature","properties":{"cod_tema":"RIO_ATE_10","cod_imovel":"RJ-3302106-3984E1580C8548CC996792F45220D9F6","ind_status":"AT"},"geometry":{"type":"Polygon","coordinates":[[[-42.1411,-21.787],[-42.1398,-21.7841],[-42.1414,-21.7873],[-42.1411,-21.787]]]}},{"type":"Feature","properties":{"cod_tema":"RIO_ATE_10","cod_imovel":"RJ-3302106-611D67676D6F48538683DCFEBEAE94EC","ind_status":"AT"},"geometry":{"type":"Polygon","coordinates":[[[-42.0708,-21.7472],[-42.0676,-21.7445],[-42.0717,-21.7477],[-42.0708,-21.7472]]]}},{"type":"Feature","properties":{"cod_tema":"RIO_10_A_50","cod_imovel":"RJ-3302106-5C2778A2AF004E86824A8D9EFD8F9F83","ind_status":"AT"},"geometry":{"type":"Polygon","coordinates":[[[-41.9362,-21.7394],[-41.9302,-21.7351],[-41.9359,-21.7399],[-41.9362,-21.7394]]]}},{"type":"Feature","properties":{"cod_tema":"RIO_10_A_50","cod_imovel":"RJ-3302106-FE564A315DAF46EFB96B9E69CEE8E600","ind_status":"AT"},"geometry":{"type":"Polygon","coordinates":[[[-42.0137,-21.7701],[-42.0195,-21.7628],[-42.0135,-21.7656],[-42.0138,-21.77],[-42.0137,-21.7701]]]}},{"type":"Feature","properties":{"cod_tema":"RIO_ATE_10","cod_imovel":"RJ-3302106-71D08926921C4E2E8F073238CAAB7821","ind_status":"PE"},"geometry":{"type":"Polygon","coordinates":[[[-42.0471,-21.6952],[-42.0407,-21.7013],[-42.0579,-21.6952],[-42.0516,-21.6989],[-42.0451,-21.6934],[-42.0344,-21.6969],[-42.0426,-21.6946],[-42.0361,-21.6997],[-42.0471,-21.6951],[-42.0471,-21.6952]]]}},{"type":"Feature","properties":{"cod_tema":"RIO_ATE_10","cod_imovel":"RJ-3302106-091BF4A6BDEF409DA714AB151350CFD7","ind_status":"AT"},"geometry":{"type":"Polygon","coordinates":[[[-42.1028,-21.7046],[-42.1112,-21.6998],[-42.1026,-21.7046],[-42.1028,-21.7046]]]}},{"type":"Feature","properties":{"cod_tema":"RIO_ATE_10","cod_imovel":"RJ-3302106-CEC64F8AA581463EBBFCD719D9C80FA8","ind_status":"AT"},"geometry":{"type":"Polygon","coordinates":[[[-42.1813,-21.7569],[-42.1746,-21.7537],[-42.1816,-21.7569],[-42.1813,-21.7569]],[[-42.2112,-21.7532],[-42.1945,-21.7514],[-42.1873,-21.7602],[-42.1862,-21.7511],[-42.1873,-21.7602],[-42.1819,-21.7656],[-42.1754,-21.7606],[-42.1848,-21.767],[-42.1903,-21.7648],[-42.1935,-21.7746],[-42.1995,-21.7773],[-42.1936,-21.7746],[-42.1908,-21.7652],[-42.2085,-21.7702],[-42.1976,-21.7656],[-42.2037,-21.7614],[-42.2102,-21.7638],[-42.1819,-21.7656],[-42.1945,-21.7514],[-42.2112,-21.7532],[-42.2112,-21.7532]],[[-42.2069,-21.7404],[-42.195,-21.7425],[-42.2124,-21.7479],[-42.2017,-21.7433],[-42.2076,-21.7396],[-42.2069,-21.7404]]]}},{"type":"Feature","properties":{"cod_tema":"RIO_ATE_10","cod_imovel":"RJ-3302106-601F0E6F58774FA796543EE2B7A4FCB6","ind_status":"AT"},"geometry":{"type":"Polygon","coordinates":[[[-41.9702,-21.6445],[-41.9709,-21.6332],[-41.9654,-21.6427],[-41.9692,-21.6398],[-41.9702,-21.6445],[-41.9702,-21.6445]]]}},{"type":"Feature","properties":{"cod_tema":"RIO_ATE_10","cod_imovel":"RJ-3302106-236772704D08477F9390C2AD6D284242","ind_status":"AT"},"geometry":{"type":"Polygon","coordinates":[[[-42.1062,-21.7698],[-42.1092,-21.7697],[-42.1056,-21.7692],[-42.1062,-21.7698]]]}},{"type":"Feature","properties":{"cod_tema":"RIO_ATE_10","cod_imovel":"RJ-3302106-A3C30A0513FE49B8926808E27CB9D3C4","ind_status":"AT"},"geometry":{"type":"Polygon","coordinates":[[[-42.0429,-21.7289],[-42.045,-21.7261],[-42.0432,-21.7293],[-42.0429,-21.7289]]]}},{"type":"Feature","properties":{"cod_tema":"RIO_ATE_10","cod_imovel":"RJ-3302106-6444FE5CFACC45D7895C17E4D0882DFC","ind_status":"AT"},"geometry":{"type":"Polygon","coordinates":[[[-42.2261,-21.6969],[-42.2207,-21.6979],[-42.2266,-21.6968],[-42.2261,-21.6969]]]}},{"type":"Feature","properties":{"cod_tema":"RIO_50_A_200","cod_imovel":"RJ-3302106-6444FE5CFACC45D7895C17E4D0882DFC","ind_status":"AT"},"geometry":{"type":"Polygon","coordinates":[[[-42.2256,-21.6962],[-42.2299,-21.691],[-42.2118,-21.6868],[-42.2062,-21.692],[-42.2199,-21.7],[-42.2102,-21.6911],[-42.2251,-21.6961],[-42.2256,-21.6962]]]}}]}