{"type":"FeatureCollection","features":[{"type":"Feature","properties":{"cod_tema":"RIO_ATE_10","cod_imovel":"RJ-3302304-7FD5515292E540F6A7205129639DA103","ind_status":"AT"},"geometry":{"type":"Polygon","coordinates":[[[-42.0949,-21.1991],[-42.0962,-21.2031],[-42.0949,-21.199],[-42.0949,-21.1991]]]}},{"type":"Feature","properties":{"cod_tema":"RIO_ATE_10","cod_imovel":"RJ-3302304-0236DEF4296341EE9233E1EFDBD921CE","ind_status":"AT"},"geometry":{"type":"Polygon","coordinates":[[[-42.1468,-21.2068],[-42.1487,-21.2134],[-42.1467,-21.2061],[-42.1468,-21.2068]]]}},{"type":"Feature","properties":{"cod_tema":"RIO_ATE_10","cod_imovel":"RJ-3302304-0B8B1DB2EAD94C00AC2BF8895BAAE9E9","ind_status":"AT"},"geometry":{"type":"Polygon","coordinates":[[[-42.1905,-21.2077],[-42.1864,-21.2147],[-42.1903,-21.2079],[-42.1905,-21.2077]]]}},{"type":"Feature","properties":{"cod_tema":"RIO_50_A_200","cod_imovel":"RJ-3302304-0BFDEB8DE9EF4A78A53AF07727CA8A8E","ind_status":"AT"},"geometry":{"type":"Polygon","coordinates":[[[-42.1678,-21.1663],[-42.1626,-21.1675],[-42.1652,-21.1748],[-42.1632,-21.1676],[-42.1677,-21.1664],[-42.1678,-21.1663]]]}},{"type":"Feature","properties":{"cod_tema":"RIO_ATE_10","cod_imovel":"RJ-3302304-14A4928168A243C192B725BBDD279629","ind_status":"AT"},"geometry":{"type":"Polygon","coordinates":[[[-42.1756,-21.1957],[-42.1805,-21.1999],[-42.1748,-21.1948],[-42.1756,-21.1957]]]}},{"type":"Feature","properties":{"cod_tema":"RIO_ATE_10","cod_imovel":"RJ-3302304-20F8601E767449E0878A942A6459ACF4","ind_status":"AT"},"geometry":{"type":"Polygon","coordinates":[[[-42.0944,-21.2087],[-42.0902,-21.2125],[-42.0956,-21.2083],[-42.0944,-21.2087]]]}},{"type":"Feature","properties":{"cod_tema":"RIO_ATE_10","cod_imovel":"RJ-3302304-23D305B4EA6D41728E84BDD578303108","ind_status":"AT"},"geometry":{"type":"Polygon","coordinates":[[[-42.087,-21.2983],[-42.0954,-21.2958],[-42.087,-21.2984],[-42.087,-21.2983]]]}},{"type":"Feature","properties":{"cod_tema":"RIO_ATE_10","cod_imovel":"RJ-3302304-2B5EB45CAE6944B9B9EA72BC43FF6BB5","ind_status":"AT"},"geometry":{"type":"Polygon","coordinates":[[[-42.1196,-21.2356],[-42.1155,-21.2321],[-42.129,-21.2281],[-42.1211,-21.2327],[-42.1108,-21.2304],[-42.1202,-21.2358],[-42.1196,-21.2356]]]}},{"type":"Feature","properties":{"cod_tema":"RIO_ATE_10","cod_imovel":"RJ-3302304-44A6F3FD2DE446CF86F676B29CB91846","ind_status":"AT"},"geometry":{"type":"Polygon","coordinates":[[[-42.1666,-21.2336],[-42.1687,-21.2294],[-42.1663,-21.2335],[-42.1666,-21.2336]]]}},{"type":"Feature","properties":{"cod_tema":"RIO_ATE_10","cod_imovel":"RJ-3302304-393A441EDAEB49A5BF3E421C6C72B1E0","ind_status":"AT"},"geometry":{"type":"Polygon","coordinates":[[[-42.0921,-21.2197],[-42.0886,-21.2185],[-42.0924,-21.2199],[-42.0921,-21.2197]]]}},{"type":"Feature","properties":{"cod_tema":"RIO_ATE_10","cod_imovel":"RJ-3302304-4644203B00F0404E9461AF8DFF8FD7D2","ind_status":"AT"},"geometry":{"type":"Polygon","coordinates":[[[-42.1451,-21.2933],[-42.1461,-21.2986],[-42.1476,-21.2862],[-42.1445,-21.2933],[-42.1451,-21.2933]],[[-42.1519,-21.2892],[-42.1561,-21.29],[-42.1487,-21.2878],[-42.1518,-21.2888],[-42.1519,-21.2892]],[[-42.1691,-21.2741],[-42.1628,-21.2767],[-42.1612,-21.2717],[-42.1639,-21.2821],[-42.1675,-21.2831],[-42.1628,-21.2767],[-42.1693,-21.274],[-42.1691,-21.2741]]]}},{"type":"Feature","properties":{"cod_tema":"RIO_ATE_10","cod_imovel":"RJ-3302304-50846E0157E1416299EBF9A33179562F","ind_status":"AT"},"geometry":{"type":"Polygon","coordinates":[[[-42.1741,-21.2442],[-42.1634,-21.2386],[-42.1724,-21.2377],[-42.1597,-21.2385],[-42.1756,-21.2451],[-42.1741,-21.2442]]]}},{"type":"Feature","properties":{"cod_tema":"RIO_ATE_10","cod_imovel":"RJ-3302304-585BC847B4C548DBABFFB8C65B760E86","ind_status":"AT"},"geometry":{"type":"Polygon","coordinates":[[[-42.1783,-21.1884],[-42.1719,-21.1884],[-42.1785,-21.1882],[-42.1783,-21.1884]]]}},{"type":"Feature","properties":{"cod_tema":"RIO_ATE_10","cod_imovel":"RJ-3302304-5FB9D3AA05BE4F74A737A944C5E3B080","ind_status":"AT"},"geometry":{"type":"Polygon","coordinates":[[[-42.162,-21.2725],[-42.169,-21.2679],[-42.1558,-21.2705],[-42.162,-21.2727],[-42.162,-21.2725]],[[-42.1651,-21.2681],[-42.172,-21.2545],[-42.1651,-21.2681],[-42.1651,-21.2681]]]}},{"type":"Feature","properties":{"cod_tema":"RIO_ATE_10","cod_imovel":"RJ-3302304-5C6E7900F6C94725B3B729D02712F6F9","ind_status":"AT"},"geometry":{"type":"Polygon","coordinates":[[[-42.1648,-21.1833],[-42.1604,-21.1807],[-42.1648,-21.1833],[-42.1648,-21.1833]],[[-42.1645,-21.1828],[-42.16,-21.1797],[-42.1645,-21.1828],[-42.1645,-21.1828]]]}},{"type":"Feature","properties":{"cod_tema":"RIO_ATE_10","cod_imovel":"RJ-3302304-63ACDB5AB18A4043A05B2DFC196E8EB0","ind_status":"AT"},"geometry":{"type":"Polygon","coordinates":[[[-42.1055,-21.2418],[-42.1096,-21.2411],[-42.1054,-21.2418],[-42.1055,-21.2418]]]}},{"type":"Feature","properties":{"cod_tema":"RIO_ATE_10","cod_imovel":"RJ-3302304-6694A13C37CA4A8D806AEFC6808A88B1","ind_status":"AT"},"geometry":{"type":"Polygon","coordinates":[[[-42.0853,-21.2682],[-42.0805,-21.2697],[-42.0853,-21.2682],[-42.0853,-21.2682]]]}},{"type":"Feature","properties":{"cod_tema":"RIO_ATE_10","cod_imovel":"RJ-3302304-6792B47F345D44C896234555A13854C3","ind_status":"AT"},"geometry":{"type":"Polygon","coordinates":[[[-42.0931,-21.2213],[-42.1018,-21.216],[-42.0929,-21.2221],[-42.0931,-21.2213]]]}},{"type":"Feature","properties":{"cod_tema":"RIO_ATE_10","cod_imovel":"RJ-3302304-7040AE8B17DC4A418C2CF8589C1E9BAC","ind_status":"AT"},"geometry":{"type":"Polygon","coordinates":[[[-42.1512,-21.1863],[-42.154,-21.1832],[-42.151,-21.1866],[-42.1512,-21.1863]]]}},{"type":"Feature","properties":{"cod_tema":"RIO_ATE_10","cod_imovel":"RJ-3302304-7A9608E1915644C6AACDE1593B8595EE","ind_status":"AT"},"geometry":{"type":"Polygon","coordinates":[[[-42.1978,-21.1683],[-42.1904,-21.1704],[-42.1973,-21.1683],[-42.1978,-21.1683]]]}},{"type":"Feature","properties":{"cod_tema":"RIO_10_A_50","cod_imovel":"RJ-3302304-7A9608E1915644C6AACDE1593B8595EE","ind_status":"AT"},"geometry":{"type":"Polygon","coordinates":[[[-42.1877,-21.1694],[-42.1914,-21.1652],[-42.1875,-21.1621],[-42.1937,-21.158],[-42.1869,-21.162],[-42.191,-21.1649],[-42.1879,-21.1688],[-42.1877,-21.1694]]]}},{"type":"Feature","properties":{"cod_tema":"RIO_ATE_10","cod_imovel":"RJ-3302304-962ABB9C63D04DC4BF61BDEC9A143C37","ind_status":"AT"},"geometry":{"type":"Polygon","coordinates":[[[-42.1376,-21.2527],[-42.1341,-21.2533],[-42.1377,-21.2526],[-42.1376,-21.2527]]]}},{"type":"Feature","properties":{"cod_tema":"RIO_ATE_10","cod_imovel":"RJ-3302304-965BA01A98424F1AA0B1A228EA4139AC","ind_status":"AT"},"geometry":{"type":"Polygon","coordinates":[[[-42.1485,-21.243],[-42.1447,-21.243],[-42.1491,-21.2434],[-42.1485,-21.243]],[[-42.1566,-21.2353],[-42.1486,-21.2415],[-42.1464,-21.2341],[-42.1512,-21.2465],[-42.1486,-21.2416],[-42.1566,-21.2353],[-42.1566,-21.2353]],[[-42.154,-21.2438],[-42.1504,-21.2442],[-42.1547,-21.244],[-42.154,-21.2438]],[[-42.1545,-21.2351],[-42.1527,-21.2375],[-42.1548,-21.2341],[-42.1545,-21.2351]]]}},{"type":"Feature","properties":{"cod_tema":"RIO_ATE_10","cod_imovel":"RJ-3302304-9AFE8866D7654E0888079191A24D3A97","ind_status":"AT"},"geometry":{"type":"Polygon","coordinates":[[[-42.05,-21.2401],[-42.0436,-21.2395],[-42.0426,-21.244],[-42.0365,-21.2413],[-42.0361,-21.2457],[-42.0409,-21.2479],[-42.038,-21.2438],[-42.05,-21.24],[-42.05,-21.2401]]]}},{"type":"Feature","properties":{"cod_tema":"RIO_ATE_10","cod_imovel":"RJ-3302304-A224B14645554A3182661A77D67258AB","ind_status":"AT"},"geometry":{"type":"Polygon","coordinates":[[[-42.1397,-21.2312],[-42.1378,-21.2339],[-42.14,-21.2304],[-42.1397,-21.2312]]]}},{"type":"Feature","properties":{"cod_tema":"RIO_ATE_10","cod_imovel":"RJ-3302304-A31A1CC38BF7470C846A38BD6B248B7D","ind_status":"AT"},"geometry":{"type":"Polygon","coordinates":[[[-42.0748,-21.2218],[-42.0738,-21.2128],[-42.0748,-21.2219],[-42.0748,-21.2218]]]}},{"type":"Feature","properties":{"cod_tema":"RIO_50_A_200","cod_imovel":"RJ-3302304-A572F97435454E43916568943238D7D9","ind_status":"AT"},"geometry":{"type":"Polygon","coordinates":[[[-42.1281,-21.1872],[-42.1193,-21.199],[-42.1265,-21.2006],[-42.1199,-21.198],[-42.1275,-21.1878],[-42.1281,-21.1872]]]}},{"type":"Feature","properties":{"cod_tema":"RIO_ATE_10","cod_imovel":"RJ-3302304-A65BD113EA3A44C48FE7052194E3BC07","ind_status":"AT"},"geometry":{"type":"Polygon","coordinates":[[[-42.1502,-21.1781],[-42.1527,-21.1761],[-42.1536,-21.1813],[-42.1527,-21.1761],[-42.1495,-21.1782],[-42.1502,-21.1781]]]}},{"type":"Feature","properties":{"cod_tema":"RIO_ATE_10","cod_imovel":"RJ-3302304-AC210039FD3E43D1AF7E4AF9ADF19A43","ind_status":"AT"},"geometry":{"type":"Polygon","coordinates":[[[-42.0816,-21.3182],[-42.0784,-21.3157],[-42.0817,-21.3182],[-42.0816,-21.3182]]]}},{"type":"Feature","properties":{"cod_tema":"RIO_ATE_10","cod_imovel":"RJ-3302304-B1C46D9434134B829118469DBE02127E","ind_status":"PE"},"geometry":{"type":"Polygon","coordinates":[[[-42.1885,-21.2984],[-42.1879,-21.3052],[-42.1884,-21.2979],[-42.1885,-21.2984]],[[-42.1934,-21.3121],[-42.1919,-21.3035],[-42.1957,-21.3031],[-42.1925,-21.3022],[-42.1934,-21.3121],[-42.1934,-21.3121]]]}},{"type":"Feature","properties":{"cod_tema":"RIO_ATE_10","cod_imovel":"RJ-3302304-B6D686E29D074DA1A3A1A862302E85F1","ind_status":"AT"},"geometry":{"type":"Polygon","coordinates":[[[-42.1546,-21.2011],[-42.1596,-21.2007],[-42.1543,-21.2013],[-42.1546,-21.2011]]]}},{"type":"Feature","properties":{"cod_tema":"RIO_ATE_10","cod_imovel":"RJ-3302304-B7AB935E3FFF45BE820C4B914324CAB3","ind_status":"AT"},"geometry":{"type":"Polygon","coordinates":[[[-42.1879,-21.2018],[-42.1849,-21.2041],[-42.188,-21.2021],[-42.1879,-21.2018]]]}},{"type":"Feature","properties":{"cod_tema":"RIO_ATE_10","cod_imovel":"RJ-3302304-D04486685AE14C409B387A80D426249D","ind_status":"AT"},"geometry":{"type":"Polygon","coordinates":[[[-42.1738,-21.2039],[-42.1681,-21.2047],[-42.1743,-21.204],[-42.1738,-21.2039]]]}},{"type":"Feature","properties":{"cod_tema":"RIO_ATE_10","cod_imovel":"RJ-3302304-C00104FA7A3243359BB050F7E07F18BC","ind_status":"CA"},"geometry":{"type":"Polygon","coordinates":[[[-42.1362,-21.2655],[-42.1396,-21.2622],[-42.1362,-21.2653],[-42.1362,-21.2655]]]}},{"type":"Feature","properties":{"cod_tema":"RIO_ATE_10","cod_imovel":"RJ-3302304-C172261145DF43CFA43FC4317554ADD7","ind_status":"AT"},"geometry":{"type":"Polygon","coordinates":[[[-42.1472,-21.1817],[-42.1426,-21.1803],[-42.1474,-21.1844],[-42.1477,-21.1811],[-42.1472,-21.1817]],[[-42.1428,-21.1918],[-42.1409,-21.199],[-42.1428,-21.1918],[-42.1428,-21.1918]]]}},{"type":"Feature","properties":{"cod_tema":"RIO_ATE_10","cod_imovel":"RJ-3302304-D2D8265F838C442C9A4DD5BBD0D3C996","ind_status":"AT"},"geometry":{"type":"Polygon","coordinates":[[[-42.1593,-21.1743],[-42.1529,-21.1736],[-42.1533,-21.1777],[-42.1529,-21.1736],[-42.1595,-21.1749],[-42.1593,-21.1743]]]}},{"type":"Feature","properties":{"cod_tema":"RIO_ATE_10","cod_imovel":"RJ-3302304-C39F9CE772E84BFEAF4641FB630B488B","ind_status":"CA"},"geometry":{"type":"Polygon","coordinates":[[[-42.1455,-21.2525],[-42.1425,-21.2566],[-42.1385,-21.2539],[-42.1426,-21.2567],[-42.1454,-21.2531],[-42.1455,-21.2525]]]}},{"type":"Feature","properties":{"cod_tema":"RIO_ATE_10","cod_imovel":"RJ-3302304-D80085B33A7241EEBAB530D62EF8A668","ind_status":"AT"},"geometry":{"type":"Polygon","coordinates":[[[-42.0943,-21.3349],[-42.0924,-21.3317],[-42.0945,-21.335],[-42.0943,-21.3349]]]}},{"type":"Feature","properties":{"cod_tema":"RIO_ATE_10","cod_imovel":"RJ-3302304-D3C4CBF15FFE4F478499F53BC86963F4","ind_status":"AT"},"geometry":{"type":"Polygon","coordinates":[[[-42.1707,-21.3021],[-42.1671,-21.2979],[-42.1711,-21.3024],[-42.1707,-21.3021]]]}},{"type":"Feature","properties":{"cod_tema":"RIO_ATE_10","cod_imovel":"RJ-3302304-EFF00416CF174B558017D972F2E017BC","ind_status":"AT"},"geometry":{"type":"Polygon","coordinates":[[[-42.0855,-21.2682],[-42.0916,-21.268],[-42.0852,-21.2682],[-42.0855,-21.2682]]]}},{"type":"Feature","properties":{"cod_tema":"RIO_ATE_10","cod_imovel":"RJ-3302304-F081BB65617349BFBB2E6AE8238A060C","ind_status":"AT"},"geometry":{"type":"Polygon","coordinates":[[[-42.1502,-21.1781],[-42.1527,-21.1761],[-42.1536,-21.1811],[-42.1527,-21.1761],[-42.1495,-21.1782],[-42.1502,-21.1781]]]}},{"type":"Feature","properties":{"cod_tema":"RIO_ATE_10","cod_imovel":"RJ-3302304-F440EB25764E4AF99CFD3255424B5BE8","ind_status":"AT"},"geometry":{"type":"Polygon","coordinates":[[[-42.1612,-21.2716],[-42.1558,-21.2705],[-42.1615,-21.2718],[-42.1612,-21.2716]],[[-42.1478,-21.2835],[-42.1484,-21.2796],[-42.1478,-21.2835],[-42.1478,-21.2835]]]}},{"type":"Feature","properties":{"cod_tema":"RIO_ATE_10","cod_imovel":"RJ-3302304-F46C515EEA9C4D3A893B997B923335ED","ind_status":"AT"},"geometry":{"type":"Polygon","coordinates":[[[-42.1545,-21.184],[-42.1537,-21.179],[-42.1573,-21.1793],[-42.1537,-21.179],[-42.1549,-21.1845],[-42.1545,-21.184]]]}},{"type":"Feature","properties":{"cod_tema":"RIO_ATE_10","cod_imovel":"RJ-3302304-FB0A58BA5EC9477194B472928D55B9A1","ind_status":"AT"},"geometry":{"type":"Polygon","coordinates":[[[-42.1903,-21.2079],[-42.1864,-21.2147],[-42.1903,-21.2079],[-42.1903,-21.2079]]]}},{"type":"Feature","properties":{"cod_tema":"RIO_ATE_10","cod_imovel":"RJ-3302304-AB848A823CF24A4B972D05161969D22D","ind_status":"AT"},"geometry":{"type":"Polygon","coordinates":[[[-42.1068,-21.252],[-42.1025,-21.2461],[-42.1067,-21.2523],[-42.1068,-21.252]]]}},{"type":"Feature","properties":{"cod_tema":"RIO_ATE_10","cod_imovel":"RJ-3302304-D06867E6C89A44FAACEB9783AF199204","ind_status":"AT"},"geometry":{"type":"Polygon","coordinates":[[[-42.0854,-21.22],[-42.0777,-21.2198],[-42.0856,-21.2201],[-42.0854,-21.22]]]}},{"type":"Feature","properties":{"cod_tema":"RIO_ATE_10","cod_imovel":"RJ-3302304-7C6F785D6A7546D391D49B9970CAD104","ind_status":"AT"},"geometry":{"type":"Polygon","coordinates":[[[-42.1555,-21.3134],[-42.1492,-21.3124],[-42.1557,-21.3137],[-42.1555,-21.3134]],[[-42.1612,-21.3119],[-42.1523,-21.3075],[-42.1619,-21.312],[-42.1612,-21.3119]]]}},{"type":"Feature","properties":{"cod_tema":"RIO_ATE_10","cod_imovel":"RJ-3302304-C0E347A6E5BB48039BEA98F8396787AA","ind_status":"AT"},"geometry":{"type":"Polygon","coordinates":[[[-42.142,-21.2567],[-42.1495,-21.2508],[-42.1415,-21.2565],[-42.142,-21.2567]],[[-42.1331,-21.2668],[-42.1415,-21.2615],[-42.1327,-21.2671],[-42.1331,-21.2668]]]}},{"type":"Feature","properties":{"cod_tema":"RIO_10_A_50","cod_imovel":"RJ-3302304-C0E347A6E5BB48039BEA98F8396787AA","ind_status":"AT"},"geometry":{"type":"Polygon","coordinates":[[[-42.1416,-21.2565],[-42.1386,-21.2536],[-42.1414,-21.2565],[-42.1416,-21.2565]]]}},{"type":"Feature","properties":{"cod_tema":"RIO_10_A_50","cod_imovel":"RJ-3302304-3ED33691E8BD48C0A8B20A31DA4B538D","ind_status":"AT"},"geometry":{"type":"Polygon","coordinates":[[[-42.1047,-21.1992],[-42.1014,-21.1835],[-42.1047,-21.1992],[-42.1047,-21.1992]]]}},{"type":"Feature","properties":{"cod_tema":"RIO_ATE_10","cod_imovel":"RJ-3302304-8B619B73A1B14CD082A8165B5AE0E665","ind_status":"AT"},"geometry":{"type":"Polygon","coordinates":[[[-42.1687,-21.1872],[-42.1671,-21.1845],[-42.1688,-21.1872],[-42.1687,-21.1872]],[[-42.1682,-21.1873],[-42.1663,-21.1914],[-42.1686,-21.1872],[-42.1682,-21.1873]]]}},{"type":"Feature","properties":{"cod_tema":"RIO_ATE_10","cod_imovel":"RJ-3302304-CBFF8EBD483849D4881632EF595B2E46","ind_status":"AT"},"geometry":{"type":"Polygon","coordinates":[[[-42.1499,-21.2508],[-42.1567,-21.2576],[-42.1499,-21.2507],[-42.1499,-21.2508]]]}},{"type":"Feature","properties":{"cod_tema":"RIO_ATE_10","cod_imovel":"RJ-3302304-B5E50CC716B148299B37760C9CAE4784","ind_status":"AT"},"geometry":{"type":"Polygon","coordinates":[[[-42.0928,-21.2807],[-42.0915,-21.2765],[-42.0889,-21.2893],[-42.0926,-21.2808],[-42.0928,-21.2807]]]}},{"type":"Feature","properties":{"cod_tema":"RIO_ATE_10","cod_imovel":"RJ-3302304-D2C58C32753F4C1DAAB9A988E7841849","ind_status":"AT"},"geometry":{"type":"Polygon","coordinates":[[[-42.1881,-21.2607],[-42.1946,-21.2585],[-42.1855,-21.2657],[-42.1753,-21.264],[-42.1685,-21.2682],[-42.1754,-21.2725],[-42.1699,-21.2674],[-42.1822,-21.2658],[-42.1804,-21.272],[-42.1827,-21.2692],[-42.1857,-21.2765],[-42.1822,-21.2657],[-42.1931,-21.2603],[-42.1881,-21.2608],[-42.1881,-21.2607]],[[-42.1811,-21.2774],[-42.1778,-21.2788],[-42.1818,-21.2769],[-42.1811,-21.2774]]]}},{"type":"Feature","properties":{"cod_tema":"RIO_ATE_10","cod_imovel":"RJ-3302304-8A6C2EB1A2714EAA95B8FC778F16C927","ind_status":"AT"},"geometry":{"type":"Polygon","coordinates":[[[-42.1941,-21.2683],[-42.1876,-21.2648],[-42.1952,-21.2696],[-42.1886,-21.2783],[-42.1942,-21.2684],[-42.1941,-21.2683]],[[-42.2001,-21.2746],[-42.1972,-21.2682],[-42.2002,-21.2746],[-42.2001,-21.2746]],[[-42.202,-21.2593],[-42.1972,-21.2682],[-42.2021,-21.2592],[-42.202,-21.2593]]]}},{"type":"Feature","properties":{"cod_tema":"RIO_ATE_10","cod_imovel":"RJ-3302304-0E0922CA213547E5A0ED23FA6E34CFA4","ind_status":"AT"},"geometry":{"type":"Polygon","coordinates":[[[-42.1422,-21.1921],[-42.1387,-21.1908],[-42.1422,-21.1921],[-42.1422,-21.1921]]]}},{"type":"Feature","properties":{"cod_tema":"RIO_ATE_10","cod_imovel":"RJ-3302304-394FC34784A24BFAAB849C103A694F8A","ind_status":"AT"},"geometry":{"type":"Polygon","coordinates":[[[-42.1387,-21.1908],[-42.1282,-21.1866],[-42.1384,-21.1906],[-42.1387,-21.1908]]]}},{"type":"Feature","properties":{"cod_tema":"RIO_ATE_10","cod_imovel":"RJ-3302304-6DCBF63F747E4F2A993465617087A12A","ind_status":"AT"},"geometry":{"type":"Polygon","coordinates":[[[-42.1109,-21.2305],[-42.1052,-21.2262],[-42.0957,-21.2292],[-42.1052,-21.2262],[-42.1109,-21.2305],[-42.1109,-21.2305]]]}},{"type":"Feature","properties":{"cod_tema":"RIO_ATE_10","cod_imovel":"RJ-3302304-ECD1948AAFD348B9BDAE5B50FA499BE0","ind_status":"AT"},"geometry":{"type":"Polygon","coordinates":[[[-42.2182,-21.32],[-42.2148,-21.3151],[-42.218,-21.3203],[-42.2182,-21.32]]]}},{"type":"Feature","properties":{"cod_tema":"RIO_ATE_10","cod_imovel":"RJ-3302304-D9410F06F6EF433E902732976BD8671F","ind_status":"CA"},"geometry":{"type":"Polygon","coordinates":[[[-42.1523,-21.297],[-42.147,-21.2988],[-42.1534,-21.2969],[-42.1523,-21.297]]]}},{"type":"Feature","properties":{"cod_tema":"RIO_ATE_10","cod_imovel":"RJ-3302304-2DAAE4B52ABE4D0DA2339EEA21F02D0D","ind_status":"AT"},"geometry":{"type":"Polygon","coordinates":[[[-42.1324,-21.2485],[-42.1283,-21.2477],[-42.1326,-21.2484],[-42.1324,-21.2485]]]}},{"type":"Feature","properties":{"cod_tema":"RIO_ATE_10","cod_imovel":"RJ-3302304-B825862F75E8424F8ABC83A3D2127FC2","ind_status":"AT"},"geometry":{"type":"Polygon","coordinates":[[[-42.0861,-21.2297],[-42.082,-21.2289],[-42.0861,-21.2297],[-42.0861,-21.2297]]]}},{"type":"Feature","properties":{"cod_tema":"RIO_ATE_10","cod_imovel":"RJ-3302304-D3093CAF21D44071AF0E697FD602A460","ind_status":"AT"},"geometry":{"type":"Polygon","coordinates":[[[-42.1624,-21.2067],[-42.1603,-21.2099],[-42.1628,-21.2062],[-42.1624,-21.2067]]]}},{"type":"Feature","properties":{"cod_tema":"RIO_ATE_10","cod_imovel":"RJ-3302304-F8F5ECA8163C40C6BA0288EAFAD9715D","ind_status":"AT"},"geometry":{"type":"Polygon","coordinates":[[[-42.0887,-21.2521],[-42.0958,-21.2597],[-42.0886,-21.2517],[-42.0887,-21.2521]]]}},{"type":"Feature","properties":{"cod_tema":"RIO_50_A_200","cod_imovel":"RJ-3302304-93A5234B90EE4CB79944297CDB4B66CD","ind_status":"AT"},"geometry":{"type":"Polygon","coordinates":[[[-42.0849,-21.1912],[-42.0845,-21.1865],[-42.0851,-21.1902],[-42.0849,-21.1912]]]}},{"type":"Feature","properties":{"cod_tema":"RIO_ATE_10","cod_imovel":"RJ-3302304-D7E05864763749159475C2B3395F0080","ind_status":"AT"},"geometry":{"type":"Polygon","coordinates":[[[-42.2107,-21.2822],[-42.2066,-21.2793],[-42.2086,-21.2842],[-42.2035,-21.2873],[-42.2107,-21.2828],[-42.2107,-21.2822]]]}},{"type":"Feature","properties":{"cod_tema":"RIO_ATE_10","cod_imovel":"RJ-3302304-F0840071A7D24C7DB7FC663EB1B916E6","ind_status":"AT"},"geometry":{"type":"Polygon","coordinates":[[[-42.2359,-21.3238],[-42.2236,-21.3226],[-42.2279,-21.3176],[-42.2233,-21.3152],[-42.226,-21.3116],[-42.2233,-21.3152],[-42.2184,-21.3129],[-42.2214,-21.3102],[-42.2181,-21.3128],[-42.2247,-21.3168],[-42.2247,-21.328],[-42.2253,-21.3232],[-42.2359,-21.3235],[-42.2359,-21.3238]],[[-42.2204,-21.3237],[-42.2222,-21.3211],[-42.2198,-21.324],[-42.2204,-21.3237]]]}},{"type":"Feature","properties":{"cod_tema":"RIO_ATE_10","cod_imovel":"RJ-3302304-B26FAF9BC95F456FBFD3228E19D1B656","ind_status":"AT"},"geometry":{"type":"Polygon","coordinates":[[[-42.1465,-21.2785],[-42.1449,-21.2666],[-42.1467,-21.2787],[-42.1465,-21.2785]]]}},{"type":"Feature","properties":{"cod_tema":"RIO_ATE_10","cod_imovel":"RJ-3302304-B26FAF9BC95F456FBFD3228E19D1B656","ind_status":"AT"},"geometry":{"type":"Polygon","coordinates":[[[-42.1489,-21.2662],[-42.1523,-21.2711],[-42.1467,-21.2612],[-42.1489,-21.2662],[-42.1489,-21.2662]]]}},{"type":"Feature","properties":{"cod_tema":"RIO_10_A_50","cod_imovel":"RJ-3302304-2AE446CDF06347D9B43D1F729907CCFD","ind_status":"AT"},"geometry":{"type":"Polygon","coordinates":[[[-42.136,-21.1665],[-42.1308,-21.1642],[-42.1216,-21.1696],[-42.1236,-21.1725],[-42.1253,-21.166],[-42.1358,-21.1668],[-42.136,-21.1665]]]}},{"type":"Feature","properties":{"cod_tema":"RIO_10_A_50","cod_imovel":"RJ-3302304-1F568C6FB8B544958069684DCF512231","ind_status":"AT"},"geometry":{"type":"Polygon","coordinates":[[[-42.1799,-21.1833],[-42.1766,-21.1807],[-42.1798,-21.1834],[-42.1799,-21.1833]]]}},{"type":"Feature","properties":{"cod_tema":"RIO_ATE_10","cod_imovel":"RJ-3302304-ED6EB2D513DD471CB8FC117818F8FB7B","ind_status":"AT"},"geometry":{"type":"Polygon","coordinates":[[[-42.122,-21.1677],[-42.1234,-21.1719],[-42.1258,-21.1656],[-42.122,-21.1677]]]}},{"type":"Feature","properties":{"cod_tema":"RIO_ATE_10","cod_imovel":"RJ-3302304-01C97B06C972413BB9D129D7329A9254","ind_status":"AT"},"geometry":{"type":"Polygon","coordinates":[[[-42.1849,-21.1757],[-42.1769,-21.1792],[-42.1851,-21.1763],[-42.1849,-21.1757]]]}},{"type":"Feature","properties":{"cod_tema":"RIO_ATE_10","cod_imovel":"RJ-3302304-721CEF419D06467A8BFA1DB526942F1B","ind_status":"AT"},"geometry":{"type":"Polygon","coordinates":[[[-42.0696,-21.2073],[-42.066,-21.2038],[-42.0697,-21.2075],[-42.0696,-21.2073]]]}},{"type":"Feature","properties":{"cod_tema":"RIO_ATE_10","cod_imovel":"RJ-3302304-E4C1100FBE944A1AB4F43FF8B2A2365D","ind_status":"AT"},"geometry":{"type":"Polygon","coordinates":[[[-42.1221,-21.237],[-42.1248,-21.2385],[-42.122,-21.237],[-42.1221,-21.237]]]}},{"type":"Feature","properties":{"cod_tema":"RIO_ATE_10","cod_imovel":"RJ-3302304-9875E4C2ED174FADA8A48C418F1E3A53","ind_status":"AT"},"geometry":{"type":"Polygon","coordinates":[[[-42.1485,-21.2126],[-42.1466,-21.2061],[-42.1487,-21.2135],[-42.1485,-21.2126]],[[-42.147,-21.2061],[-42.1517,-21.2113],[-42.1468,-21.206],[-42.147,-21.2061]]]}},{"type":"Feature","properties":{"cod_tema":"RIO_ATE_10","cod_imovel":"RJ-3302304-B6C01BB3AB994FDC9A84D9D40F29304E","ind_status":"AT"},"geometry":{"type":"Polygon","coordinates":[[[-42.2029,-21.3082],[-42.1974,-21.3024],[-42.2037,-21.3096],[-42.2029,-21.3082]]]}},{"type":"Feature","properties":{"cod_tema":"RIO_ATE_10","cod_imovel":"RJ-3302304-514B34168CB04F9B8DF7DB639E4FB536","ind_status":"AT"},"geometry":{"type":"Polygon","coordinates":[[[-42.1229,-21.2942],[-42.1165,-21.3009],[-42.1084,-21.2981],[-42.107,-21.2908],[-42.1104,-21.3039],[-42.1081,-21.2982],[-42.1165,-21.301],[-42.1256,-21.2943],[-42.1229,-21.2942]]]}},{"type":"Feature","properties":{"cod_tema":"RIO_ATE_10","cod_imovel":"RJ-3302304-45E14C703C264C19833E7E8F50CE7AF9","ind_status":"PE"},"geometry":{"type":"Polygon","coordinates":[[[-42.0687,-21.2138],[-42.0725,-21.211],[-42.0689,-21.214],[-42.0687,-21.2138]]]}},{"type":"Feature","properties":{"cod_tema":"RIO_10_A_50","cod_imovel":"RJ-3302304-C61B17CF5CB347DB87CF4E922BD70579","ind_status":"AT"},"geometry":{"type":"Polygon","coordinates":[[[-42.1092,-21.1997],[-42.1107,-21.2078],[-42.1099,-21.1994],[-42.1064,-21.2008],[-42.1092,-21.1997]]]}},{"type":"Feature","properties":{"cod_tema":"RIO_ATE_10","cod_imovel":"RJ-3302304-40D2179135BD4DB3B5E450D446DB9808","ind_status":"AT"},"geometry":{"type":"Polygon","coordinates":[[[-42.1574,-21.1793],[-42.1608,-21.1813],[-42.1576,-21.1793],[-42.1574,-21.1793]]]}},{"type":"Feature","properties":{"cod_tema":"RIO_ATE_10","cod_imovel":"RJ-3302304-D9481C1FBA2C44C6BF6C5660C24531BB","ind_status":"AT"},"geometry":{"type":"Polygon","coordinates":[[[-42.1422,-21.1802],[-42.1387,-21.1798],[-42.143,-21.1806],[-42.1422,-21.1802]]]}},{"type":"Feature","properties":{"cod_tema":"RIO_10_A_50","cod_imovel":"RJ-3302304-D9481C1FBA2C44C6BF6C5660C24531BB","ind_status":"AT"},"geometry":{"type":"Polygon","coordinates":[[[-42.1287,-21.1856],[-42.1339,-21.1814],[-42.131,-21.176],[-42.1335,-21.1812],[-42.1285,-21.1853],[-42.1287,-21.1856]]]}},{"type":"Feature","properties":{"cod_tema":"LAGO_NATURAL","cod_imovel":"RJ-3302304-D9481C1FBA2C44C6BF6C5660C24531BB","ind_status":"AT"},"geometry":{"type":"Polygon","coordinates":[[[-42.1357,-21.1835],[-42.1393,-21.1778],[-42.1357,-21.1835],[-42.1357,-21.1835]]]}},{"type":"Feature","properties":{"cod_tema":"RIO_ATE_10","cod_imovel":"RJ-3302304-08BFBC357B99402FBF71CFA9D2C4465C","ind_status":"AT"},"geometry":{"type":"Polygon","coordinates":[[[-42.1719,-21.2276],[-42.174,-21.2252],[-42.1716,-21.2279],[-42.1719,-21.2276]],[[-42.1814,-21.2394],[-42.1805,-21.236],[-42.182,-21.24],[-42.1814,-21.2394]],[[-42.1754,-21.2388],[-42.172,-21.2374],[-42.1755,-21.239],[-42.1754,-21.2388]]]}},{"type":"Feature","properties":{"cod_tema":"RIO_ATE_10","cod_imovel":"RJ-3302304-BE9E33FF957941D39603C577F8D63BA4","ind_status":"AT"},"geometry":{"type":"Polygon","coordinates":[[[-42.1393,-21.2374],[-42.1377,-21.2344],[-42.1397,-21.2378],[-42.1393,-21.2374]]]}},{"type":"Feature","properties":{"cod_tema":"RIO_ATE_10","cod_imovel":"RJ-3302304-35044E1C21A14B21B4A665B8A2A10FBF","ind_status":"AT"},"geometry":{"type":"Polygon","coordinates":[[[-42.1745,-21.1832],[-42.1768,-21.1785],[-42.1746,-21.1836],[-42.1745,-21.1832]]]}},{"type":"Feature","properties":{"cod_tema":"RIO_10_A_50","cod_imovel":"RJ-3302304-35044E1C21A14B21B4A665B8A2A10FBF","ind_status":"AT"},"geometry":{"type":"Polygon","coordinates":[[[-42.1768,-21.1781],[-42.1724,-21.1759],[-42.1708,-21.1596],[-42.1594,-21.1595],[-42.167,-21.1663],[-42.1652,-21.1604],[-42.16,-21.1596],[-42.1701,-21.1594],[-42.172,-21.176],[-42.1768,-21.1785],[-42.1768,-21.1781]]]}},{"type":"Feature","properties":{"cod_tema":"RIO_ATE_10","cod_imovel":"RJ-3302304-05B87F49635741399616D62A0C733069","ind_status":"AT"},"geometry":{"type":"Polygon","coordinates":[[[-42.1488,-21.1998],[-42.1439,-21.1988],[-42.1495,-21.2002],[-42.1488,-21.1998]]]}},{"type":"Feature","properties":{"cod_tema":"RIO_10_A_50","cod_imovel":"RJ-3302304-7D5D7EAECD2F4250871EB772FA72812E","ind_status":"AT"},"geometry":{"type":"Polygon","coordinates":[[[-42.082,-21.1823],[-42.0793,-21.1776],[-42.0744,-21.1794],[-42.0792,-21.1777],[-42.0818,-21.1823],[-42.082,-21.1823]]]}},{"type":"Feature","properties":{"cod_tema":"RIO_10_A_50","cod_imovel":"RJ-3302304-B71940552DC64989925123EC8CF169A1","ind_status":"AT"},"geometry":{"type":"Polygon","coordinates":[[[-42.0836,-21.187],[-42.082,-21.1823],[-42.0832,-21.1861],[-42.0836,-21.187]]]}},{"type":"Feature","properties":{"cod_tema":"RIO_ATE_10","cod_imovel":"RJ-3302304-7C65D937FA1A4A43BB978C00735B2390","ind_status":"AT"},"geometry":{"type":"Polygon","coordinates":[[[-42.1977,-21.2245],[-42.2002,-21.2203],[-42.1968,-21.2243],[-42.1977,-21.2245]]]}},{"type":"Feature","properties":{"cod_tema":"RIO_ATE_10","cod_imovel":"RJ-3302304-F13A771CEEA047588FAB6C75F67B4721","ind_status":"AT"},"geometry":{"type":"Polygon","coordinates":[[[-42.0841,-21.2153],[-42.0811,-21.2154],[-42.0845,-21.2151],[-42.0841,-21.2153]]]}},{"type":"Feature","properties":{"cod_tema":"RIO_ATE_10","cod_imovel":"RJ-3302304-11A705716A724CA682408A7FFB9EC957","ind_status":"AT"},"geometry":{"type":"Polygon","coordinates":[[[-42.0871,-21.2715],[-42.086,-21.2756],[-42.0882,-21.2715],[-42.0871,-21.2715]]]}},{"type":"Feature","properties":{"cod_tema":"RIO_ATE_10","cod_imovel":"RJ-3302304-DB59FEF7826B45C597F93AA141C77C7E","ind_status":"AT"},"geometry":{"type":"Polygon","coordinates":[[[-42.1068,-21.3126],[-42.1029,-21.3148],[-42.1067,-21.3127],[-42.1064,-21.3173],[-42.1071,-21.3125],[-42.1068,-21.3126]]]}},{"type":"Feature","properties":{"cod_tema":"RIO_ATE_10","cod_imovel":"RJ-3302304-4A525BED00D04B44B70D3F51F128C327","ind_status":"AT"},"geometry":{"type":"Polygon","coordinates":[[[-42.1911,-21.2775],[-42.1945,-21.2711],[-42.191,-21.2775],[-42.1911,-21.2775]]]}},{"type":"Feature","properties":{"cod_tema":"RIO_ATE_10","cod_imovel":"RJ-3302304-19C2DD7739374D6DBCD28C8C161949C8","ind_status":"AT"},"geometry":{"type":"Polygon","coordinates":[[[-42.1362,-21.2496],[-42.1386,-21.2536],[-42.135,-21.2479],[-42.1362,-21.2496]]]}},{"type":"Feature","properties":{"cod_tema":"RIO_ATE_10","cod_imovel":"RJ-3302304-878442FD772F4DE89E0804ADDE33E3F0","ind_status":"AT"},"geometry":{"type":"Polygon","coordinates":[[[-42.1283,-21.2473],[-42.1242,-21.2379],[-42.1281,-21.2477],[-42.1283,-21.2473]]]}},{"type":"Feature","properties":{"cod_tema":"RIO_ATE_10","cod_imovel":"RJ-3302304-13140806412C4523A89D511A23480054","ind_status":"AT"},"geometry":{"type":"Polygon","coordinates":[[[-42.1483,-21.1697],[-42.1441,-21.1669],[-42.1481,-21.1699],[-42.1483,-21.1697]],[[-42.1588,-21.1736],[-42.1529,-21.1735],[-42.1589,-21.1737],[-42.1588,-21.1736]]]}},{"type":"Feature","properties":{"cod_tema":"RIO_10_A_50","cod_imovel":"RJ-3302304-13140806412C4523A89D511A23480054","ind_status":"AT"},"geometry":{"type":"Polygon","coordinates":[[[-42.1576,-21.1673],[-42.1617,-21.1704],[-42.1507,-21.1609],[-42.1435,-21.1623],[-42.1499,-21.1611],[-42.1567,-21.1665],[-42.1576,-21.1673]]]}},{"type":"Feature","properties":{"cod_tema":"RIO_ATE_10","cod_imovel":"RJ-3302304-23B44C82FF2A4537A0B2BF8029FDA2DC","ind_status":"AT"},"geometry":{"type":"Polygon","coordinates":[[[-42.1201,-21.2751],[-42.1164,-21.275],[-42.12,-21.2757],[-42.1201,-21.2751]]]}},{"type":"Feature","properties":{"cod_tema":"RIO_ATE_10","cod_imovel":"RJ-3302304-5962805311354D1A80BAE2806A80D845","ind_status":"AT"},"geometry":{"type":"Polygon","coordinates":[[[-42.134,-21.2481],[-42.1297,-21.2479],[-42.1343,-21.2478],[-42.134,-21.2481]]]}},{"type":"Feature","properties":{"cod_tema":"RIO_ATE_10","cod_imovel":"RJ-3302304-DD33B40C58104AF8955CA1D21B487DDD","ind_status":"AT"},"geometry":{"type":"Polygon","coordinates":[[[-42.1291,-21.2722],[-42.1291,-21.2686],[-42.1292,-21.272],[-42.1291,-21.2722]]]}},{"type":"Feature","properties":{"cod_tema":"RIO_ATE_10","cod_imovel":"RJ-3302304-52F37E4526A54A5FB1CDB218083675F0","ind_status":"AT"},"geometry":{"type":"Polygon","coordinates":[[[-42.1087,-21.2265],[-42.0994,-21.2252],[-42.1092,-21.2264],[-42.1087,-21.2265]]]}},{"type":"Feature","properties":{"cod_tema":"RIO_ATE_10","cod_imovel":"RJ-3302304-1284D65A4A824FD59724452E37D8E3B9","ind_status":"AT"},"geometry":{"type":"Polygon","coordinates":[[[-42.2101,-21.2736],[-42.2042,-21.2745],[-42.2104,-21.2728],[-42.2101,-21.2736]],[[-42.2118,-21.2776],[-42.2073,-21.2796],[-42.2122,-21.2775],[-42.2118,-21.2776]],[[-42.2121,-21.2743],[-42.2152,-21.2775],[-42.2122,-21.2736],[-42.2121,-21.2743]]]}},{"type":"Feature","properties":{"cod_tema":"RIO_ATE_10","cod_imovel":"RJ-3302304-B8713C1EB7484176B395547D3CE54EF4","ind_status":"AT"},"geometry":{"type":"Polygon","coordinates":[[[-42.1769,-21.188],[-42.1806,-21.1876],[-42.176,-21.1882],[-42.1769,-21.188]]]}},{"type":"Feature","properties":{"cod_tema":"RIO_10_A_50","cod_imovel":"RJ-3302304-EFBCF16364BC444EA4719C2CEA5A5CDC","ind_status":"AT"},"geometry":{"type":"Polygon","coordinates":[[[-42.0562,-21.1974],[-42.0525,-21.1909],[-42.0487,-21.1957],[-42.0559,-21.1978],[-42.0562,-21.1974]],[[-42.0532,-21.1934],[-42.0559,-21.1974],[-42.0504,-21.198],[-42.0529,-21.1933],[-42.0532,-21.1934]]]}},{"type":"Feature","properties":{"cod_tema":"RIO_10_A_50","cod_imovel":"RJ-3302304-CA690044F0E4410080589088A92372DD","ind_status":"AT"},"geometry":{"type":"Polygon","coordinates":[[[-42.0737,-21.1786],[-42.0543,-21.1799],[-42.0744,-21.1793],[-42.0737,-21.1786]]]}},{"type":"Feature","properties":{"cod_tema":"RIO_ATE_10","cod_imovel":"RJ-3302304-55EB5D3218C84DEE85B6748FB741180D","ind_status":"AT"},"geometry":{"type":"Polygon","coordinates":[[[-42.0799,-21.2246],[-42.0743,-21.221],[-42.0803,-21.2247],[-42.0799,-21.2246]]]}},{"type":"Feature","properties":{"cod_tema":"RIO_ATE_10","cod_imovel":"RJ-3302304-8D387505C6654412818DFC2BDFF6ABE3","ind_status":"AT"},"geometry":{"type":"Polygon","coordinates":[[[-42.1999,-21.3078],[-42.2035,-21.3094],[-42.2002,-21.308],[-42.1999,-21.3078]],[[-42.1972,-21.3059],[-42.1953,-21.3031],[-42.1972,-21.306],[-42.1972,-21.3059]]]}},{"type":"Feature","properties":{"cod_tema":"RIO_ATE_10","cod_imovel":"RJ-3302304-C966C5A85A6343E7BF8F661191F0DE83","ind_status":"AT"},"geometry":{"type":"Polygon","coordinates":[[[-42.1399,-21.2443],[-42.1348,-21.2431],[-42.1389,-21.2443],[-42.1399,-21.2443]]]}},{"type":"Feature","properties":{"cod_tema":"RIO_ATE_10","cod_imovel":"RJ-3302304-E4D8D1A4354E4C13B96265EABC5A171E","ind_status":"AT"},"geometry":{"type":"Polygon","coordinates":[[[-42.1595,-21.18],[-42.1535,-21.179],[-42.1597,-21.1801],[-42.1595,-21.18]]]}},{"type":"Feature","properties":{"cod_tema":"RIO_ATE_10","cod_imovel":"RJ-3302304-21550038AC944AAEBDE9FE3C8D06B7D2","ind_status":"AT"},"geometry":{"type":"Polygon","coordinates":[[[-42.2073,-21.2669],[-42.206,-21.2793],[-42.2057,-21.265],[-42.2073,-21.2669]]]}},{"type":"Feature","properties":{"cod_tema":"RIO_ATE_10","cod_imovel":"RJ-3302304-97F87A04E25C4B1D97A26090F8D873C0","ind_status":"AT"},"geometry":{"type":"Polygon","coordinates":[[[-42.2074,-21.2673],[-42.206,-21.2793],[-42.2072,-21.2667],[-42.2074,-21.2673]]]}},{"type":"Feature","properties":{"cod_tema":"RIO_ATE_10","cod_imovel":"RJ-3302304-B5FC89CA92554F348F47297826903141","ind_status":"AT"},"geometry":{"type":"Polygon","coordinates":[[[-42.2216,-21.2773],[-42.2141,-21.2779],[-42.2221,-21.2772],[-42.2216,-21.2773]]]}},{"type":"Feature","properties":{"cod_tema":"RIO_ATE_10","cod_imovel":"RJ-3302304-E3F85FE8B7A248E7A69D740047D7759F","ind_status":"AT"},"geometry":{"type":"Polygon","coordinates":[[[-42.2171,-21.3117],[-42.2116,-21.3109],[-42.2181,-21.3187],[-42.2116,-21.3109],[-42.2175,-21.3117],[-42.2171,-21.3117]]]}},{"type":"Feature","properties":{"cod_tema":"RIO_ATE_10","cod_imovel":"RJ-3302304-EC6AAC1FD69642C889807FDD6669C8E8","ind_status":"AT"},"geometry":{"type":"Polygon","coordinates":[[[-42.1004,-21.2762],[-42.1041,-21.281],[-42.1005,-21.276],[-42.1004,-21.2762]],[[-42.1004,-21.2755],[-42.0989,-21.2693],[-42.1004,-21.2759],[-42.1004,-21.2755]]]}},{"type":"Feature","properties":{"cod_tema":"RIO_ATE_10","cod_imovel":"RJ-3302304-F27C79D4AEE642FB9D363CEFC9CFDCCF","ind_status":"AT"},"geometry":{"type":"Polygon","coordinates":[[[-42.1097,-21.2414],[-42.1156,-21.2436],[-42.1095,-21.2413],[-42.1097,-21.2414]]]}},{"type":"Feature","properties":{"cod_tema":"RIO_ATE_10","cod_imovel":"RJ-3302304-DE1DE2669A1B4CF78E8BAEBBF95B4928","ind_status":"AT"},"geometry":{"type":"Polygon","coordinates":[[[-42.0802,-21.2256],[-42.0814,-21.2299],[-42.0802,-21.2257],[-42.0802,-21.2256]]]}},{"type":"Feature","properties":{"cod_tema":"RIO_ATE_10","cod_imovel":"RJ-3302304-7F5DA85322B1416DA2BE8E017F7EF117","ind_status":"AT"},"geometry":{"type":"Polygon","coordinates":[[[-42.1084,-21.2293],[-42.1066,-21.2266],[-42.1083,-21.2294],[-42.1084,-21.2293]]]}},{"type":"Feature","properties":{"cod_tema":"RIO_ATE_10","cod_imovel":"RJ-3302304-D677DD6F772D4C6198277FEE195C741A","ind_status":"AT"},"geometry":{"type":"Polygon","coordinates":[[[-42.0773,-21.2231],[-42.0801,-21.2248],[-42.0771,-21.2232],[-42.0773,-21.2231]],[[-42.0773,-21.223],[-42.0801,-21.2248],[-42.0771,-21.2231],[-42.0773,-21.223]]]}},{"type":"Feature","properties":{"cod_tema":"RIO_ATE_10","cod_imovel":"RJ-3302304-F9191AD03B48477B9178DAE4B2B414C7","ind_status":"PE"},"geometry":{"type":"Polygon","coordinates":[[[-42.1001,-21.2281],[-42.1066,-21.2266],[-42.1001,-21.2283],[-42.1001,-21.2281]]]}},{"type":"Feature","properties":{"cod_tema":"RIO_ATE_10","cod_imovel":"RJ-3302304-9B2AB804C82849ED94C65617D054CFA1","ind_status":"CA"},"geometry":{"type":"Polygon","coordinates":[[[-42.1331,-21.2668],[-42.1415,-21.2615],[-42.1327,-21.2671],[-42.1331,-21.2668]]]}},{"type":"Feature","properties":{"cod_tema":"RIO_ATE_10","cod_imovel":"RJ-3302304-7F3B7CE852714A60910F24EE70ACAD22","ind_status":"AT"},"geometry":{"type":"Polygon","coordinates":[[[-42.0862,-21.2902],[-42.0838,-21.2854],[-42.0865,-21.2904],[-42.0862,-21.2902]],[[-42.0794,-21.286],[-42.0838,-21.2853],[-42.0859,-21.2753],[-42.0838,-21.2853],[-42.079,-21.2864],[-42.0794,-21.286]]]}},{"type":"Feature","properties":{"cod_tema":"RIO_10_A_50","cod_imovel":"RJ-3302304-3FE0DE8A644D438C9C4C083454E2697D","ind_status":"PE"},"geometry":{"type":"Polygon","coordinates":[[[-42.0927,-21.1917],[-42.0874,-21.1948],[-42.0928,-21.1926],[-42.0927,-21.1917]]]}},{"type":"Feature","properties":{"cod_tema":"RIO_ATE_10","cod_imovel":"RJ-3302304-FFC4A81530F644DF9143B14F6C8C5D3B","ind_status":"AT"},"geometry":{"type":"Polygon","coordinates":[[[-42.0881,-21.3423],[-42.0848,-21.3428],[-42.088,-21.3422],[-42.0881,-21.3423]]]}},{"type":"Feature","properties":{"cod_tema":"RIO_ATE_10","cod_imovel":"RJ-3302304-81EC78DFF63A48E88C264CE9314CF16B","ind_status":"AT"},"geometry":{"type":"Polygon","coordinates":[[[-42.175,-21.1948],[-42.1682,-21.1868],[-42.1754,-21.1954],[-42.175,-21.1948]]]}},{"type":"Feature","properties":{"cod_tema":"RIO_ATE_10","cod_imovel":"RJ-3302304-DE0C3422C323468BA7BF084E717419A3","ind_status":"AT"},"geometry":{"type":"Polygon","coordinates":[[[-42.1401,-21.2123],[-42.1411,-21.2093],[-42.1398,-21.2124],[-42.1401,-21.2123]]]}},{"type":"Feature","properties":{"cod_tema":"RIO_ATE_10","cod_imovel":"RJ-3302304-AF485A807D0F4C5D955432296B4FDBEB","ind_status":"AT"},"geometry":{"type":"Polygon","coordinates":[[[-42.1928,-21.2819],[-42.1969,-21.2787],[-42.1977,-21.2851],[-42.1978,-21.2778],[-42.1928,-21.2819],[-42.1928,-21.2819]]]}},{"type":"Feature","properties":{"cod_tema":"RIO_10_A_50","cod_imovel":"RJ-3302304-4989E8520A1B4A50A7DB3BC80DF3E32F","ind_status":"AT"},"geometry":{"type":"Polygon","coordinates":[[[-42.1003,-21.1869],[-42.0928,-21.1925],[-42.0986,-21.1868],[-42.1003,-21.1869]]]}},{"type":"Feature","properties":{"cod_tema":"RIO_ATE_10","cod_imovel":"RJ-3302304-06E13164B8B442E788FBC0C3B3D39A6B","ind_status":"AT"},"geometry":{"type":"Polygon","coordinates":[[[-42.1047,-21.3223],[-42.1056,-21.3189],[-42.1046,-21.3224],[-42.1047,-21.3223]]]}},{"type":"Feature","properties":{"cod_tema":"RIO_ATE_10","cod_imovel":"RJ-3302304-AFAB9BC63ACC44469D0D6CED7D4DF30A","ind_status":"PE"},"geometry":{"type":"Polygon","coordinates":[[[-42.2051,-21.3105],[-42.1976,-21.3139],[-42.2052,-21.3105],[-42.2051,-21.3105]],[[-42.2113,-21.3109],[-42.2072,-21.3108],[-42.2108,-21.3133],[-42.2084,-21.318],[-42.2115,-21.3109],[-42.2113,-21.3109]]]}}]}