{"type":"FeatureCollection","features":[{"type":"Feature","properties":{"cod_tema":"RIO_ATE_10","cod_imovel":"RJ-3302452-8453D0A08BAD47E6BE19F6BD34D8F1AA","ind_status":"AT"},"geometry":{"type":"Polygon","coordinates":[[[-42.2755,-21.9856],[-42.2698,-21.9841],[-42.2764,-21.986],[-42.2755,-21.9856]]]}},{"type":"Feature","properties":{"cod_tema":"RIO_ATE_10","cod_imovel":"RJ-3302452-2EFBBEF812C7480C9079B26E033E7375","ind_status":"AT"},"geometry":{"type":"Polygon","coordinates":[[[-42.2713,-22.0838],[-42.2685,-22.085],[-42.2713,-22.0838],[-42.2713,-22.0838]]]}},{"type":"Feature","properties":{"cod_tema":"RIO_10_A_50","cod_imovel":"RJ-3302452-2EFBBEF812C7480C9079B26E033E7375","ind_status":"AT"},"geometry":{"type":"Polygon","coordinates":[[[-42.2702,-22.0894],[-42.2655,-22.0801],[-42.2697,-22.0893],[-42.2702,-22.0894]]]}},{"type":"Feature","properties":{"cod_tema":"RIO_ATE_10","cod_imovel":"RJ-3302452-412DD1F7D45442178E0C69242798498D","ind_status":"AT"},"geometry":{"type":"Polygon","coordinates":[[[-42.3097,-21.9902],[-42.3035,-21.9929],[-42.2966,-21.9896],[-42.3029,-21.9939],[-42.3097,-21.9902],[-42.3097,-21.9902]]]}},{"type":"Feature","properties":{"cod_tema":"RIO_ATE_10","cod_imovel":"RJ-3302452-42F38C05030D48269609844B0BCABF9C","ind_status":"AT"},"geometry":{"type":"Polygon","coordinates":[[[-42.2958,-22.0024],[-42.2746,-22.0027],[-42.2872,-21.9977],[-42.2723,-22.0022],[-42.2847,-22.0085],[-42.2793,-22.0041],[-42.2958,-22.0024],[-42.2958,-22.0024]]]}},{"type":"Feature","properties":{"cod_tema":"RIO_ATE_10","cod_imovel":"RJ-3302452-53D62E32D6F54DD8A3994FAAC4CC865C","ind_status":"AT"},"geometry":{"type":"Polygon","coordinates":[[[-42.2755,-22.0678],[-42.2701,-22.0697],[-42.2762,-22.0677],[-42.2755,-22.0678]]]}},{"type":"Feature","properties":{"cod_tema":"RIO_ATE_10","cod_imovel":"RJ-3302452-58CA633BB33F4A41BEEF463D836E9BAC","ind_status":"AT"},"geometry":{"type":"Polygon","coordinates":[[[-42.313,-21.9876],[-42.3085,-21.988],[-42.3132,-21.9876],[-42.313,-21.9876]]]}},{"type":"Feature","properties":{"cod_tema":"RIO_ATE_10","cod_imovel":"RJ-3302452-5C54E671C90C4B34A9B59474A6C972E7","ind_status":"AT"},"geometry":{"type":"Polygon","coordinates":[[[-42.2822,-22.0778],[-42.2711,-22.0728],[-42.2751,-22.0751],[-42.2728,-22.0812],[-42.2751,-22.0751],[-42.2767,-22.0812],[-42.2822,-22.0778],[-42.2822,-22.0778]]]}},{"type":"Feature","properties":{"cod_tema":"RIO_10_A_50","cod_imovel":"RJ-3302452-5C54E671C90C4B34A9B59474A6C972E7","ind_status":"AT"},"geometry":{"type":"Polygon","coordinates":[[[-42.2684,-22.075],[-42.2654,-22.0803],[-42.268,-22.0752],[-42.2684,-22.075]]]}},{"type":"Feature","properties":{"cod_tema":"RIO_ATE_10","cod_imovel":"RJ-3302452-5FCF8BC8F9AE4F73AAEACBF8EC7A0F71","ind_status":"AT"},"geometry":{"type":"Polygon","coordinates":[[[-42.294,-21.995],[-42.2893,-21.9914],[-42.2942,-21.995],[-42.294,-21.995]]]}},{"type":"Feature","properties":{"cod_tema":"RIO_ATE_10","cod_imovel":"RJ-3302452-AE5360F189F64D839ADE14F8788E441F","ind_status":"AT"},"geometry":{"type":"Polygon","coordinates":[[[-42.2726,-22.015],[-42.2672,-22.0134],[-42.2729,-22.0149],[-42.2726,-22.015]]]}},{"type":"Feature","properties":{"cod_tema":"RIO_ATE_10","cod_imovel":"RJ-3302452-D485F7D767C44F098BD5BAEB0F98FB24","ind_status":"AT"},"geometry":{"type":"Polygon","coordinates":[[[-42.2784,-22.0108],[-42.2675,-21.9991],[-42.2887,-21.9909],[-42.2665,-21.9988],[-42.2784,-22.0108],[-42.2784,-22.0108]]]}},{"type":"Feature","properties":{"cod_tema":"RIO_ATE_10","cod_imovel":"RJ-3302452-D9678B8E69EA40C5847B91FD6A119C25","ind_status":"AT"},"geometry":{"type":"Polygon","coordinates":[[[-42.2627,-22.001],[-42.2657,-22.0047],[-42.2627,-22.001],[-42.2627,-22.001]],[[-42.2675,-22.0038],[-42.2634,-22.0003],[-42.2676,-22.004],[-42.2675,-22.0038]]]}},{"type":"Feature","properties":{"cod_tema":"RIO_ATE_10","cod_imovel":"RJ-3302452-E1BC412767974934AFB624EDC6667A55","ind_status":"AT"},"geometry":{"type":"Polygon","coordinates":[[[-42.2692,-22.0152],[-42.2727,-22.0151],[-42.2673,-22.013],[-42.2687,-22.0158],[-42.2692,-22.0152]]]}},{"type":"Feature","properties":{"cod_tema":"RIO_ATE_10","cod_imovel":"RJ-3302452-8DA2322E78B242B09F9AC8272F271ADC","ind_status":"AT"},"geometry":{"type":"Polygon","coordinates":[[[-42.2233,-21.9899],[-42.2213,-22.0087],[-42.2234,-21.9899],[-42.2233,-21.9899]]]}},{"type":"Feature","properties":{"cod_tema":"RIO_ATE_10","cod_imovel":"RJ-3302452-AD7DF91D66D046918DE5E5678F52E3E6","ind_status":"AT"},"geometry":{"type":"Polygon","coordinates":[[[-42.2951,-22.0051],[-42.2985,-22.0033],[-42.2958,-22.0049],[-42.2951,-22.0051]]]}},{"type":"Feature","properties":{"cod_tema":"RIO_ATE_10","cod_imovel":"RJ-3302452-5549D4904EA74C448D2A57E162BA0E5F","ind_status":"AT"},"geometry":{"type":"Polygon","coordinates":[[[-42.3044,-21.9905],[-42.2929,-21.9905],[-42.3041,-21.9908],[-42.3044,-21.9905]]]}},{"type":"Feature","properties":{"cod_tema":"RIO_ATE_10","cod_imovel":"RJ-3302452-78D82DE081E04855B0259BA34816433B","ind_status":"AT"},"geometry":{"type":"Polygon","coordinates":[[[-42.2985,-22.0033],[-42.3002,-21.9979],[-42.2986,-22.003],[-42.2985,-22.0033]]]}},{"type":"Feature","properties":{"cod_tema":"RIO_ATE_10","cod_imovel":"RJ-3302452-E8F43384BE424351BF0B15E8ACCA2DB7","ind_status":"AT"},"geometry":{"type":"Polygon","coordinates":[[[-42.2577,-22.0452],[-42.2487,-22.044],[-42.2402,-22.0331],[-42.2487,-22.044],[-42.2598,-22.0449],[-42.2577,-22.0452]]]}},{"type":"Feature","properties":{"cod_tema":"RIO_ATE_10","cod_imovel":"RJ-3302452-AFB1C2DC2BCA4FDBAA464A203BD3F47C","ind_status":"PE"},"geometry":{"type":"Polygon","coordinates":[[[-42.2902,-22.0416],[-42.2932,-22.044],[-42.2894,-22.0417],[-42.2902,-22.0416]],[[-42.2942,-22.0443],[-42.2964,-22.0474],[-42.2942,-22.0439],[-42.2942,-22.0443]],[[-42.2944,-22.0438],[-42.2884,-22.0472],[-42.2948,-22.0433],[-42.2944,-22.0438]]]}},{"type":"Feature","properties":{"cod_tema":"RIO_ATE_10","cod_imovel":"RJ-3302452-0934586C6A694C9CA01C2D3810EE1A68","ind_status":"AT"},"geometry":{"type":"Polygon","coordinates":[[[-42.2333,-21.9736],[-42.2419,-21.9737],[-42.2306,-21.9747],[-42.2333,-21.9736]]]}},{"type":"Feature","properties":{"cod_tema":"RIO_ATE_10","cod_imovel":"RJ-3302452-3AF0EEC72F2D402D9A7C7E04E9D9F46F","ind_status":"AT"},"geometry":{"type":"Polygon","coordinates":[[[-42.2675,-21.9923],[-42.2642,-21.989],[-42.2652,-21.993],[-42.2701,-21.9915],[-42.2675,-21.9923]]]}},{"type":"Feature","properties":{"cod_tema":"RIO_50_A_200","cod_imovel":"RJ-3302452-0F6AA61639F240ECA213F1D9958BA5A7","ind_status":"AT"},"geometry":{"type":"Polygon","coordinates":[[[-42.2396,-22.0342],[-42.2482,-22.0443],[-42.2606,-22.0456],[-42.2426,-22.0391],[-42.24,-22.0334],[-42.2456,-22.031],[-42.2396,-22.0342],[-42.2396,-22.0342]]]}},{"type":"Feature","properties":{"cod_tema":"RIO_ATE_10","cod_imovel":"RJ-3302452-0484BC63107E478BA634AD1ACF83FF3E","ind_status":"AT"},"geometry":{"type":"Polygon","coordinates":[[[-42.2703,-22.0037],[-42.2695,-21.999],[-42.2731,-22.0058],[-42.2703,-22.0037]]]}},{"type":"Feature","properties":{"cod_tema":"RIO_10_A_50","cod_imovel":"RJ-3302452-C54AB28B2D134268B30FFFA46D320FAA","ind_status":"AT"},"geometry":{"type":"Polygon","coordinates":[[[-42.2276,-22.0186],[-42.2184,-22.0087],[-42.2275,-22.0186],[-42.2276,-22.0186]]]}},{"type":"Feature","properties":{"cod_tema":"RIO_ATE_10","cod_imovel":"RJ-3302452-37647A99D9AF4F59A3689B336A1415B7","ind_status":"AT"},"geometry":{"type":"Polygon","coordinates":[[[-42.2688,-22.0196],[-42.263,-22.021],[-42.2646,-22.025],[-42.2688,-22.0196],[-42.2688,-22.0196]]]}},{"type":"Feature","properties":{"cod_tema":"RIO_10_A_50","cod_imovel":"RJ-3302452-31BDAE6D61FF4D4A98FD8AD7588CAAEA","ind_status":"AT"},"geometry":{"type":"Polygon","coordinates":[[[-42.2283,-22.0184],[-42.2333,-22.0297],[-42.2406,-22.0242],[-42.2336,-22.0294],[-42.2302,-22.0203],[-42.2283,-22.0184]]]}},{"type":"Feature","properties":{"cod_tema":"RIO_ATE_10","cod_imovel":"RJ-3302452-1DD94975922B4AB287B6315B69854B03","ind_status":"PE"},"geometry":{"type":"Polygon","coordinates":[[[-42.3147,-22.0],[-42.3092,-21.9898],[-42.3151,-22.0003],[-42.3147,-22.0]]]}},{"type":"Feature","properties":{"cod_tema":"RIO_10_A_50","cod_imovel":"RJ-3302452-3EAD0E3178AD4F80A02708C17E21C193","ind_status":"AT"},"geometry":{"type":"Polygon","coordinates":[[[-42.2611,-22.0513],[-42.26,-22.0453],[-42.2621,-22.0508],[-42.2611,-22.0513]]]}},{"type":"Feature","properties":{"cod_tema":"RIO_ATE_10","cod_imovel":"RJ-3302452-74218E8903F447E888C5AAAE3CEAC0E3","ind_status":"AT"},"geometry":{"type":"Polygon","coordinates":[[[-42.2493,-22.0119],[-42.2548,-22.0103],[-42.2491,-22.0122],[-42.2493,-22.0119]]]}}]}