{"type":"FeatureCollection","features":[{"type":"Feature","properties":{"cod_tema":"RIO_ATE_10","cod_imovel":"RJ-3302502-F0FCB75E3B2A464990F6DE528129ADBD","ind_status":"AT"},"geometry":{"type":"Polygon","coordinates":[[[-43.1637,-22.6398],[-43.1657,-22.6428],[-43.1594,-22.6355],[-43.1636,-22.6397],[-43.1584,-22.6412],[-43.1637,-22.6398],[-43.1637,-22.6398]]]}},{"type":"Feature","properties":{"cod_tema":"RIO_10_A_50","cod_imovel":"RJ-3302502-F0FCB75E3B2A464990F6DE528129ADBD","ind_status":"AT"},"geometry":{"type":"Polygon","coordinates":[[[-43.1708,-22.6427],[-43.1671,-22.6368],[-43.1708,-22.6427],[-43.1708,-22.6427]]]}},{"type":"Feature","properties":{"cod_tema":"RIO_ATE_10","cod_imovel":"RJ-3302502-F1AA1737F0464198A460051C9F1F111D","ind_status":"AT"},"geometry":{"type":"Polygon","coordinates":[[[-43.1919,-22.6886],[-43.1871,-22.6887],[-43.1919,-22.6886],[-43.1883,-22.6941],[-43.192,-22.6886],[-43.1919,-22.6886]]]}},{"type":"Feature","properties":{"cod_tema":"RIO_ATE_10","cod_imovel":"RJ-3302502-4D447E3E86B24275921E4DB1A034CB84","ind_status":"AT"},"geometry":{"type":"Polygon","coordinates":[[[-43.1681,-22.6468],[-43.161,-22.6468],[-43.1745,-22.649],[-43.1681,-22.6468],[-43.1681,-22.6468]]]}},{"type":"Feature","properties":{"cod_tema":"RIO_ATE_10","cod_imovel":"RJ-3302502-8C912B011AA6481D84B32030333F6E48","ind_status":"AT"},"geometry":{"type":"Polygon","coordinates":[[[-43.053,-22.6153],[-43.0497,-22.6129],[-43.0464,-22.6196],[-43.053,-22.6153],[-43.053,-22.6153]]]}},{"type":"Feature","properties":{"cod_tema":"RIO_ATE_10","cod_imovel":"RJ-3302502-5492238711674441AEA4F07A4A4F8860","ind_status":"PE"},"geometry":{"type":"Polygon","coordinates":[[[-43.1309,-22.6114],[-43.1294,-22.6148],[-43.1315,-22.6121],[-43.1348,-22.6159],[-43.1249,-22.6044],[-43.1309,-22.6114],[-43.1245,-22.6145],[-43.1308,-22.6115],[-43.1309,-22.6114]]]}},{"type":"Feature","properties":{"cod_tema":"RIO_ATE_10","cod_imovel":"RJ-3302502-6F4484BAB63245CAB438CC613D308FCF","ind_status":"AT"},"geometry":{"type":"Polygon","coordinates":[[[-43.0791,-22.623],[-43.0736,-22.6155],[-43.0792,-22.623],[-43.0791,-22.623]]]}},{"type":"Feature","properties":{"cod_tema":"RIO_ATE_10","cod_imovel":"RJ-3302502-D9EBCB33D38D466384CA5FEB004A7178","ind_status":"AT"},"geometry":{"type":"Polygon","coordinates":[[[-43.1593,-22.6348],[-43.1618,-22.638],[-43.1582,-22.6341],[-43.1593,-22.6348]]]}},{"type":"Feature","properties":{"cod_tema":"RIO_ATE_10","cod_imovel":"RJ-3302502-4A635CAECC124330A7AF22206E34B826","ind_status":"AT"},"geometry":{"type":"Polygon","coordinates":[[[-43.1274,-22.6073],[-43.1294,-22.6097],[-43.1273,-22.6072],[-43.1274,-22.6073]]]}},{"type":"Feature","properties":{"cod_tema":"RIO_ATE_10","cod_imovel":"RJ-3302502-66B83F4D05AD4B32B2A481E4D02C922F","ind_status":"AT"},"geometry":{"type":"Polygon","coordinates":[[[-43.0834,-22.6237],[-43.0821,-22.6267],[-43.0833,-22.6236],[-43.0834,-22.6237]],[[-43.0852,-22.6234],[-43.0887,-22.6228],[-43.085,-22.6233],[-43.0852,-22.6234]],[[-43.0934,-22.6096],[-43.086,-22.6181],[-43.0895,-22.6195],[-43.0881,-22.6123],[-43.0934,-22.6097],[-43.0934,-22.6096]]]}},{"type":"Feature","properties":{"cod_tema":"RIO_ATE_10","cod_imovel":"RJ-3302502-67C0F3D082644F9193A45ACEBE34772D","ind_status":"AT"},"geometry":{"type":"Polygon","coordinates":[[[-43.0865,-22.6076],[-43.0911,-22.6073],[-43.0856,-22.6076],[-43.0865,-22.6076]],[[-43.0837,-22.6129],[-43.0881,-22.6151],[-43.089,-22.6117],[-43.0835,-22.6129],[-43.0837,-22.6129]]]}},{"type":"Feature","properties":{"cod_tema":"RIO_ATE_10","cod_imovel":"RJ-3302502-7F8E8C7BE4B6450A8C05D2E80F9BDFE1","ind_status":"AT"},"geometry":{"type":"Polygon","coordinates":[[[-43.0939,-22.6072],[-43.0895,-22.6074],[-43.094,-22.6072],[-43.0939,-22.6072]]]}},{"type":"Feature","properties":{"cod_tema":"RIO_ATE_10","cod_imovel":"RJ-3302502-B3377425D63F4EA49065EB18AAF51534","ind_status":"AT"},"geometry":{"type":"Polygon","coordinates":[[[-43.1338,-22.5872],[-43.1311,-22.5838],[-43.1338,-22.5872],[-43.1338,-22.5872]]]}},{"type":"Feature","properties":{"cod_tema":"RIO_ATE_10","cod_imovel":"RJ-3302502-BDF2DB5C750847539C7126D2921729FF","ind_status":"PE"},"geometry":{"type":"Polygon","coordinates":[[[-43.136,-22.5998],[-43.1402,-22.6079],[-43.141,-22.5942],[-43.1394,-22.6015],[-43.1358,-22.5997],[-43.136,-22.5998]]]}},{"type":"Feature","properties":{"cod_tema":"RIO_ATE_10","cod_imovel":"RJ-3302502-1E6BB0F427AD46E8AFE6223D71447FC5","ind_status":"PE"},"geometry":{"type":"Polygon","coordinates":[[[-43.1401,-22.6078],[-43.1427,-22.6194],[-43.1402,-22.6078],[-43.1401,-22.6078]]]}},{"type":"Feature","properties":{"cod_tema":"RIO_10_A_50","cod_imovel":"RJ-3302502-49FAF85802384410AD3AA2B9ED57DDEA","ind_status":"AT"},"geometry":{"type":"Polygon","coordinates":[[[-43.0421,-22.5969],[-43.0459,-22.5952],[-43.0423,-22.5967],[-43.0421,-22.5969]]]}},{"type":"Feature","properties":{"cod_tema":"RIO_10_A_50","cod_imovel":"RJ-3302502-81E17A9C043E4FF5B338C9A708707483","ind_status":"PE"},"geometry":{"type":"Polygon","coordinates":[[[-43.2203,-22.6693],[-43.2178,-22.6557],[-43.2203,-22.6693],[-43.2203,-22.6693]]]}},{"type":"Feature","properties":{"cod_tema":"RIO_ATE_10","cod_imovel":"RJ-3302502-8DA8DE3A0D784A9786C391985C7969B9","ind_status":"AT"},"geometry":{"type":"Polygon","coordinates":[[[-43.1985,-22.6629],[-43.194,-22.6683],[-43.2044,-22.6591],[-43.1985,-22.6629]]]}},{"type":"Feature","properties":{"cod_tema":"RIO_10_A_50","cod_imovel":"RJ-3302502-8DA8DE3A0D784A9786C391985C7969B9","ind_status":"AT"},"geometry":{"type":"Polygon","coordinates":[[[-43.1938,-22.6681],[-43.2105,-22.6807],[-43.1939,-22.6682],[-43.1938,-22.6681]]]}},{"type":"Feature","properties":{"cod_tema":"RIO_ATE_10","cod_imovel":"RJ-3302502-9CFD358FA5FB4BFAA377E5D743B81626","ind_status":"AT"},"geometry":{"type":"Polygon","coordinates":[[[-43.1714,-22.5687],[-43.169,-22.5716],[-43.1724,-22.5687],[-43.1714,-22.5687]]]}},{"type":"Feature","properties":{"cod_tema":"RIO_ATE_10","cod_imovel":"RJ-3302502-B02C028BD64940A1B7633836DBB6F98B","ind_status":"AT"},"geometry":{"type":"Polygon","coordinates":[[[-43.0861,-22.6181],[-43.0839,-22.6159],[-43.0865,-22.6183],[-43.0861,-22.6181]],[[-43.0843,-22.6246],[-43.0812,-22.6219],[-43.0843,-22.6247],[-43.0843,-22.6246]]]}},{"type":"Feature","properties":{"cod_tema":"RIO_ATE_10","cod_imovel":"RJ-3302502-FEFE975BB8804F2D992E73AAAF917727","ind_status":"AT"},"geometry":{"type":"Polygon","coordinates":[[[-43.1969,-22.6588],[-43.1983,-22.6553],[-43.1969,-22.6588],[-43.1969,-22.6588]]]}},{"type":"Feature","properties":{"cod_tema":"RIO_ATE_10","cod_imovel":"RJ-3302502-6E781D0EC8F0401DBA0F8AEE6F67BC07","ind_status":"AT"},"geometry":{"type":"Polygon","coordinates":[[[-43.1574,-22.5891],[-43.1526,-22.602],[-43.1559,-22.5876],[-43.1522,-22.5943],[-43.1507,-22.5884],[-43.1518,-22.6038],[-43.1576,-22.5887],[-43.1574,-22.5891]]]}},{"type":"Feature","properties":{"cod_tema":"RIO_10_A_50","cod_imovel":"RJ-3302502-5520366CF5B543EF92B4EED0C4B56D36","ind_status":"AT"},"geometry":{"type":"Polygon","coordinates":[[[-43.1302,-22.5806],[-43.1345,-22.5893],[-43.1315,-22.5962],[-43.1347,-22.5894],[-43.1302,-22.5806],[-43.1302,-22.5806]]]}},{"type":"Feature","properties":{"cod_tema":"RIO_ATE_10","cod_imovel":"RJ-3302502-7BFCB7950553432AAD8AE5956C6868CD","ind_status":"AT"},"geometry":{"type":"Polygon","coordinates":[[[-43.0238,-22.5701],[-43.0165,-22.5638],[-43.0216,-22.5679],[-43.0149,-22.5674],[-43.022,-22.5683],[-43.0154,-22.5707],[-43.0238,-22.5701],[-43.0197,-22.5733],[-43.0238,-22.5702],[-43.0351,-22.5741],[-43.0238,-22.5701],[-43.0238,-22.5701]]]}},{"type":"Feature","properties":{"cod_tema":"RIO_ATE_10","cod_imovel":"RJ-3302502-20F67668CCA24E43A61C47E454C36944","ind_status":"AT"},"geometry":{"type":"Polygon","coordinates":[[[-43.0636,-22.6289],[-43.0589,-22.6285],[-43.0639,-22.6258],[-43.0554,-22.6306],[-43.0646,-22.6279],[-43.0636,-22.6289]],[[-43.0567,-22.6249],[-43.0554,-22.6302],[-43.0583,-22.6225],[-43.0567,-22.6249]],[[-43.0855,-22.6305],[-43.0799,-22.6296],[-43.0742,-22.6394],[-43.0688,-22.6218],[-43.0738,-22.6417],[-43.0774,-22.6318],[-43.0859,-22.6307],[-43.0855,-22.6305]],[[-43.0858,-22.6368],[-43.0854,-22.6415],[-43.0853,-22.6354],[-43.0858,-22.6368]],[[-43.1037,-22.6404],[-43.0962,-22.6399],[-43.1051,-22.6404],[-43.1037,-22.6404]],[[-43.1149,-22.6406],[-43.1078,-22.6402],[-43.1066,-22.6356],[-43.1077,-22.6402],[-43.1011,-22.6449],[-43.1051,-22.6404],[-43.1033,-22.645],[-43.1065,-22.6403],[-43.1149,-22.6406],[-43.1149,-22.6406]],[[-43.1021,-22.6379],[-43.1058,-22.6403],[-43.1013,-22.6381],[-43.1021,-22.6379]],[[-43.1088,-22.6444],[-43.1095,-22.6402],[-43.109,-22.6448],[-43.1088,-22.6444]],[[-43.1111,-22.6479],[-43.1168,-22.648],[-43.1109,-22.6479],[-43.1111,-22.6479]]]}},{"type":"Feature","properties":{"cod_tema":"RIO_ATE_10","cod_imovel":"RJ-3302502-A140C44AF86949108815E7839D0A603E","ind_status":"AT"},"geometry":{"type":"Polygon","coordinates":[[[-43.1292,-22.5797],[-43.1308,-22.5828],[-43.1291,-22.5796],[-43.1292,-22.5797]],[[-43.1206,-22.5669],[-43.1233,-22.559],[-43.1206,-22.5667],[-43.1206,-22.5669]],[[-43.1355,-22.5602],[-43.1415,-22.5552],[-43.1354,-22.56],[-43.1401,-22.5515],[-43.1331,-22.5625],[-43.1407,-22.5436],[-43.1329,-22.5553],[-43.1335,-22.5375],[-43.1328,-22.5448],[-43.1316,-22.5377],[-43.1296,-22.5419],[-43.1255,-22.5386],[-43.1344,-22.547],[-43.1327,-22.5622],[-43.1215,-22.5472],[-43.1309,-22.556],[-43.1334,-22.5688],[-43.1205,-22.5513],[-43.1341,-22.5697],[-43.1278,-22.577],[-43.1263,-22.5662],[-43.1248,-22.5726],[-43.1213,-22.5709],[-43.128,-22.5778],[-43.138,-22.5675],[-43.1335,-22.5691],[-43.1355,-22.5602],[-43.1355,-22.5602]]]}},{"type":"Feature","properties":{"cod_tema":"RIO_ATE_10","cod_imovel":"RJ-3302502-839D03046DB84CDD9980753FC3436690","ind_status":"AT"},"geometry":{"type":"Polygon","coordinates":[[[-43.0667,-22.544],[-43.06,-22.5427],[-43.0664,-22.5451],[-43.0639,-22.5469],[-43.0668,-22.5439],[-43.0667,-22.544]]]}},{"type":"Feature","properties":{"cod_tema":"RIO_ATE_10","cod_imovel":"RJ-3302502-12B88442DA994933B8040953E7881664","ind_status":"AT"},"geometry":{"type":"Polygon","coordinates":[[[-43.1257,-22.5778],[-43.1212,-22.5796],[-43.1256,-22.5778],[-43.1257,-22.5778]]]}},{"type":"Feature","properties":{"cod_tema":"RIO_ATE_10","cod_imovel":"RJ-3302502-963D31C2F0AA4970ADFE42735F39E225","ind_status":"AT"},"geometry":{"type":"Polygon","coordinates":[[[-43.1283,-22.5764],[-43.1316,-22.5729],[-43.1283,-22.5764],[-43.1283,-22.5764]]]}},{"type":"Feature","properties":{"cod_tema":"RIO_ATE_10","cod_imovel":"RJ-3302502-53911E2BD2D8414E968CE316CA600B81","ind_status":"AT"},"geometry":{"type":"Polygon","coordinates":[[[-43.1533,-22.6116],[-43.1473,-22.6058],[-43.1534,-22.6115],[-43.1533,-22.6116]]]}},{"type":"Feature","properties":{"cod_tema":"RIO_ATE_10","cod_imovel":"RJ-3302502-2BD934A1BBAF4955919B8911E01D67A4","ind_status":"AT"},"geometry":{"type":"Polygon","coordinates":[[[-43.0406,-22.6368],[-43.0368,-22.6394],[-43.0406,-22.6368],[-43.0406,-22.6368]]]}},{"type":"Feature","properties":{"cod_tema":"RIO_ATE_10","cod_imovel":"RJ-3302502-249FD9D892C5410D96236F3F83DEA33A","ind_status":"PE"},"geometry":{"type":"Polygon","coordinates":[[[-43.0752,-22.5098],[-43.0649,-22.5097],[-43.0623,-22.5167],[-43.0609,-22.5119],[-43.0601,-22.5203],[-43.0527,-22.5223],[-43.0675,-22.5222],[-43.0642,-22.5201],[-43.0696,-22.5165],[-43.0608,-22.5181],[-43.0753,-22.5097],[-43.0752,-22.5098]],[[-43.0582,-22.5325],[-43.0527,-22.5356],[-43.0583,-22.5323],[-43.0582,-22.5325]],[[-43.057,-22.5266],[-43.0527,-22.5231],[-43.0572,-22.5269],[-43.057,-22.5266]],[[-43.0549,-22.5102],[-43.0527,-22.5129],[-43.0618,-22.5098],[-43.0547,-22.5098],[-43.0549,-22.5102]],[[-43.0529,-22.5157],[-43.0527,-22.5218],[-43.0529,-22.5154],[-43.0529,-22.5157]],[[-43.0655,-22.5341],[-43.0665,-22.5379],[-43.0671,-22.5256],[-43.0654,-22.5338],[-43.0662,-22.525],[-43.0642,-22.5322],[-43.0594,-22.5265],[-43.0654,-22.5339],[-43.0655,-22.5341]],[[-43.0616,-22.535],[-43.0653,-22.5379],[-43.0614,-22.535],[-43.0616,-22.535]],[[-43.0869,-22.5174],[-43.083,-22.5194],[-43.0833,-22.5157],[-43.0787,-22.5216],[-43.0814,-22.5166],[-43.0727,-22.527],[-43.0824,-22.5153],[-43.0774,-22.5206],[-43.0816,-22.5138],[-43.0778,-22.5194],[-43.0784,-22.514],[-43.0736,-22.5236],[-43.0764,-22.5144],[-43.0732,-22.5165],[-43.0783,-22.5122],[-43.0743,-22.5143],[-43.0723,-22.526],[-43.0678,-22.523],[-43.0727,-22.527],[-43.0666,-22.5379],[-43.0771,-22.5364],[-43.0695,-22.5359],[-43.0817,-22.5307],[-43.0675,-22.5353],[-43.0751,-22.5295],[-43.0717,-22.5293],[-43.0848,-22.5269],[-43.0718,-22.5293],[-43.0787,-22.5216],[-43.0846,-22.5237],[-43.0796,-22.5215],[-43.0861,-22.5215],[-43.0813,-22.5206],[-43.087,-22.5173],[-43.0869,-22.5174]],[[-43.0793,-22.5349],[-43.0828,-22.5378],[-43.079,-22.5349],[-43.0793,-22.5349]],[[-43.0897,-22.511],[-43.0873,-22.515],[-43.0854,-22.5096],[-43.0802,-22.5097],[-43.0917,-22.5183],[-43.0874,-22.5154],[-43.0898,-22.5108],[-43.0897,-22.511]],[[-43.0921,-22.5326],[-43.088,-22.5339],[-43.0921,-22.5274],[-43.0868,-22.5349],[-43.0869,-22.5216],[-43.0846,-22.5378],[-43.0921,-22.5326],[-43.0921,-22.5326]],[[-43.0889,-22.5197],[-43.0921,-22.5194],[-43.0887,-22.5197],[-43.0889,-22.5197]]]}},{"type":"Feature","properties":{"cod_tema":"RIO_ATE_10","cod_imovel":"RJ-3302502-9C72E0EDE50C4D9FA2265CAD21151275","ind_status":"AT"},"geometry":{"type":"Polygon","coordinates":[[[-43.1212,-22.5885],[-43.1227,-22.5952],[-43.1159,-22.5968],[-43.1227,-22.5952],[-43.1212,-22.5885],[-43.1212,-22.5885]]]}},{"type":"Feature","properties":{"cod_tema":"RIO_ATE_10","cod_imovel":"RJ-3302502-00321FC7994A4E2C83676ED9B7B49C9C","ind_status":"AT"},"geometry":{"type":"Polygon","coordinates":[[[-43.1708,-22.5711],[-43.1675,-22.5788],[-43.1708,-22.571],[-43.1708,-22.5711]]]}},{"type":"Feature","properties":{"cod_tema":"RIO_ATE_10","cod_imovel":"RJ-3302502-874F20950113472991FA3F396B713A9C","ind_status":"AT"},"geometry":{"type":"Polygon","coordinates":[[[-43.1654,-22.5757],[-43.1664,-22.5801],[-43.1654,-22.5755],[-43.1654,-22.5757]]]}},{"type":"Feature","properties":{"cod_tema":"RIO_ATE_10","cod_imovel":"RJ-3302502-AE75BF8DF5944CACBCC5499E7A8DB364","ind_status":"AT"},"geometry":{"type":"Polygon","coordinates":[[[-43.1278,-22.5777],[-43.1231,-22.5819],[-43.1305,-22.5815],[-43.1278,-22.5774],[-43.1278,-22.5777]]]}},{"type":"Feature","properties":{"cod_tema":"RIO_ATE_10","cod_imovel":"RJ-3302502-7275DD91CADE48DAAF9031E1A1A5423B","ind_status":"AT"},"geometry":{"type":"Polygon","coordinates":[[[-43.0573,-22.6078],[-43.0613,-22.5983],[-43.0574,-22.6079],[-43.0573,-22.6078]]]}},{"type":"Feature","properties":{"cod_tema":"RIO_ATE_10","cod_imovel":"RJ-3302502-CB2E61E381644D2BA55EF0E27AE9CB06","ind_status":"AT"},"geometry":{"type":"Polygon","coordinates":[[[-43.1458,-22.6001],[-43.1508,-22.6116],[-43.1458,-22.6001],[-43.1458,-22.6001]]]}},{"type":"Feature","properties":{"cod_tema":"RIO_ATE_10","cod_imovel":"RJ-3302502-AB5BFC66D2734B49ADEFF171CE33651B","ind_status":"AT"},"geometry":{"type":"Polygon","coordinates":[[[-43.1465,-22.5987],[-43.1494,-22.6102],[-43.1465,-22.5987],[-43.1465,-22.5987]]]}},{"type":"Feature","properties":{"cod_tema":"RIO_ATE_10","cod_imovel":"RJ-3302502-2130C0B26AB8448E8932CBC4B3B2935B","ind_status":"PE"},"geometry":{"type":"Polygon","coordinates":[[[-43.0717,-22.4914],[-43.0676,-22.493],[-43.0701,-22.5101],[-43.0677,-22.493],[-43.0774,-22.4871],[-43.0717,-22.4914]],[[-43.0675,-22.5119],[-43.0473,-22.5261],[-43.0579,-22.5219],[-43.0676,-22.5119],[-43.0655,-22.5093],[-43.0675,-22.5119]]]}},{"type":"Feature","properties":{"cod_tema":"RIO_ATE_10","cod_imovel":"RJ-3302502-ECFD9D43C74E407784F9D5A96EFBECAE","ind_status":"AT"},"geometry":{"type":"Polygon","coordinates":[[[-43.1461,-22.587],[-43.144,-22.5934],[-43.1461,-22.5866],[-43.1461,-22.587]],[[-43.1438,-22.5824],[-43.1389,-22.5919],[-43.1438,-22.5824],[-43.1438,-22.5824]]]}},{"type":"Feature","properties":{"cod_tema":"RIO_ATE_10","cod_imovel":"RJ-3302502-932CD7F80B484F3DB66929934EA9F96C","ind_status":"AT"},"geometry":{"type":"Polygon","coordinates":[[[-43.0348,-22.5946],[-43.0389,-22.5961],[-43.035,-22.5946],[-43.0348,-22.5946]]]}},{"type":"Feature","properties":{"cod_tema":"RIO_ATE_10","cod_imovel":"RJ-3302502-E5DF76E456E544A78142D641CC3AF337","ind_status":"AT"},"geometry":{"type":"Polygon","coordinates":[[[-43.0825,-22.6649],[-43.0778,-22.6581],[-43.0828,-22.6647],[-43.0825,-22.6649]]]}},{"type":"Feature","properties":{"cod_tema":"RIO_10_A_50","cod_imovel":"RJ-3302502-E5DF76E456E544A78142D641CC3AF337","ind_status":"AT"},"geometry":{"type":"Polygon","coordinates":[[[-43.0827,-22.665],[-43.0909,-22.6736],[-43.0827,-22.6651],[-43.0827,-22.665]]]}},{"type":"Feature","properties":{"cod_tema":"RIO_ATE_10","cod_imovel":"RJ-3302502-CB98765B71E3492197E2A00BFE2A443F","ind_status":"AT"},"geometry":{"type":"Polygon","coordinates":[[[-43.0326,-22.5708],[-43.0376,-22.5766],[-43.0314,-22.5691],[-43.0326,-22.5708]]]}},{"type":"Feature","properties":{"cod_tema":"RIO_ATE_10","cod_imovel":"RJ-3302502-AA6AFCA3DC6E48EF8DBDB0CC365B0BBA","ind_status":"PE"},"geometry":{"type":"Polygon","coordinates":[[[-43.0953,-22.5694],[-43.0891,-22.5719],[-43.096,-22.5697],[-43.0953,-22.5694]]]}},{"type":"Feature","properties":{"cod_tema":"RIO_ATE_10","cod_imovel":"RJ-3302502-7B8B7004AED84FB7B80F86D002B091E0","ind_status":"PE"},"geometry":{"type":"Polygon","coordinates":[[[-43.1031,-22.574],[-43.1018,-22.5791],[-43.0989,-22.5754],[-43.1017,-22.5796],[-43.1033,-22.5734],[-43.1031,-22.574]]]}},{"type":"Feature","properties":{"cod_tema":"RIO_ATE_10","cod_imovel":"RJ-3302502-66F9E953D6EE47CEB64BA482779957AB","ind_status":"AT"},"geometry":{"type":"Polygon","coordinates":[[[-43.1232,-22.6756],[-43.1197,-22.6761],[-43.1232,-22.6756],[-43.1232,-22.6756]]]}},{"type":"Feature","properties":{"cod_tema":"RIO_ATE_10","cod_imovel":"RJ-3302502-F4F811742AFB4962A3699EBA816AD39C","ind_status":"PE"},"geometry":{"type":"Polygon","coordinates":[[[-43.1401,-22.5952],[-43.1394,-22.6015],[-43.1359,-22.5997],[-43.1386,-22.5952],[-43.1346,-22.5996],[-43.1397,-22.6019],[-43.14,-22.6117],[-43.1402,-22.5952],[-43.1401,-22.5952]],[[-43.1465,-22.5952],[-43.1481,-22.6076],[-43.1466,-22.5952],[-43.1465,-22.5952]]]}},{"type":"Feature","properties":{"cod_tema":"RIO_10_A_50","cod_imovel":"RJ-3302502-9DCFEE1A3D3947F2B834C5C358EB494E","ind_status":"AT"},"geometry":{"type":"Polygon","coordinates":[[[-43.0221,-22.6051],[-43.017,-22.6007],[-43.0221,-22.6054],[-43.0221,-22.6051]]]}},{"type":"Feature","properties":{"cod_tema":"RIO_10_A_50","cod_imovel":"RJ-3302502-B6B34A8813104E7FA363C69EEAB9CFE0","ind_status":"AT"},"geometry":{"type":"Polygon","coordinates":[[[-43.1763,-22.595],[-43.184,-22.5867],[-43.1763,-22.595],[-43.1763,-22.595]]]}},{"type":"Feature","properties":{"cod_tema":"RIO_ATE_10","cod_imovel":"RJ-3302502-0D9D92D7679D4E9798BEB9AFBACF12FA","ind_status":"AT"},"geometry":{"type":"Polygon","coordinates":[[[-43.1273,-22.5763],[-43.1317,-22.5721],[-43.1275,-22.5765],[-43.1273,-22.5763]]]}},{"type":"Feature","properties":{"cod_tema":"RIO_ATE_10","cod_imovel":"RJ-3302502-602926075D57437CB4778281DB3326AA","ind_status":"PE"},"geometry":{"type":"Polygon","coordinates":[[[-43.1001,-22.5991],[-43.0989,-22.6064],[-43.1001,-22.5991],[-43.1001,-22.5991]]]}},{"type":"Feature","properties":{"cod_tema":"RIO_ATE_10","cod_imovel":"RJ-3302502-B008A820AE3442E7AE444508817A5E61","ind_status":"PE"},"geometry":{"type":"Polygon","coordinates":[[[-43.1291,-22.5924],[-43.1236,-22.5973],[-43.1292,-22.5923],[-43.1291,-22.5924]]]}},{"type":"Feature","properties":{"cod_tema":"RIO_ATE_10","cod_imovel":"RJ-3302502-ED487839C4B741D3863AA72D17912C2D","ind_status":"AT"},"geometry":{"type":"Polygon","coordinates":[[[-43.0378,-22.5771],[-43.0413,-22.5847],[-43.0374,-22.5766],[-43.0378,-22.5771]]]}},{"type":"Feature","properties":{"cod_tema":"RIO_ATE_10","cod_imovel":"RJ-3302502-99C13BFB6B9845DF9948D1B99747E91E","ind_status":"PE"},"geometry":{"type":"Polygon","coordinates":[[[-43.124,-22.655],[-43.1198,-22.656],[-43.1245,-22.6553],[-43.124,-22.655]]]}},{"type":"Feature","properties":{"cod_tema":"RIO_10_A_50","cod_imovel":"RJ-3302502-2C17B775BD3544F5AB702496C8DCF776","ind_status":"PE"},"geometry":{"type":"Polygon","coordinates":[[[-43.2218,-22.6712],[-43.2197,-22.6684],[-43.2217,-22.6713],[-43.2218,-22.6712]]]}},{"type":"Feature","properties":{"cod_tema":"RIO_ATE_10","cod_imovel":"RJ-3302502-FA4390D39AF04BF98648637B0A9A39B1","ind_status":"AT"},"geometry":{"type":"Polygon","coordinates":[[[-43.2103,-22.6807],[-43.208,-22.6783],[-43.2109,-22.6805],[-43.2103,-22.6807]],[[-43.2118,-22.6808],[-43.2159,-22.6823],[-43.2111,-22.6806],[-43.2118,-22.6808]]]}},{"type":"Feature","properties":{"cod_tema":"RIO_ATE_10","cod_imovel":"RJ-3302502-514DE3424B5341F6A0D9736629286114","ind_status":"AT"},"geometry":{"type":"Polygon","coordinates":[[[-43.1985,-22.6629],[-43.194,-22.6683],[-43.1995,-22.6622],[-43.1985,-22.6629]],[[-43.1861,-22.6528],[-43.186,-22.6615],[-43.1858,-22.652],[-43.1861,-22.6528]],[[-43.1952,-22.6594],[-43.1902,-22.6656],[-43.1955,-22.6593],[-43.1952,-22.6594]]]}},{"type":"Feature","properties":{"cod_tema":"RIO_10_A_50","cod_imovel":"RJ-3302502-514DE3424B5341F6A0D9736629286114","ind_status":"AT"},"geometry":{"type":"Polygon","coordinates":[[[-43.1941,-22.6683],[-43.1835,-22.6593],[-43.1941,-22.6683],[-43.1941,-22.6683]]]}},{"type":"Feature","properties":{"cod_tema":"RIO_ATE_10","cod_imovel":"RJ-3302502-EEC9252505D14979AEF0ECE468DE5AE9","ind_status":"AT"},"geometry":{"type":"Polygon","coordinates":[[[-43.1159,-22.6117],[-43.1067,-22.6169],[-43.1138,-22.6127],[-43.1189,-22.6188],[-43.1139,-22.6127],[-43.1204,-22.6093],[-43.1162,-22.6115],[-43.1159,-22.6117]],[[-43.1211,-22.6145],[-43.1227,-22.6203],[-43.123,-22.6152],[-43.1309,-22.6114],[-43.1211,-22.6144],[-43.1211,-22.6145]]]}},{"type":"Feature","properties":{"cod_tema":"RIO_ATE_10","cod_imovel":"RJ-3302502-3F787D55746A46EBA5C3315A54F18F89","ind_status":"AT"},"geometry":{"type":"Polygon","coordinates":[[[-43.1234,-22.559],[-43.1204,-22.5682],[-43.1151,-22.5615],[-43.1168,-22.5665],[-43.113,-22.5643],[-43.1162,-22.5664],[-43.1091,-22.5695],[-43.1166,-22.5665],[-43.1247,-22.5731],[-43.1205,-22.5685],[-43.1234,-22.559],[-43.1234,-22.559]]]}},{"type":"Feature","properties":{"cod_tema":"RIO_ATE_10","cod_imovel":"RJ-3302502-0D844E6DC3E94B28827BCB0BF62AE475","ind_status":"AT"},"geometry":{"type":"Polygon","coordinates":[[[-43.1273,-22.5763],[-43.1251,-22.5704],[-43.1283,-22.5784],[-43.1326,-22.5713],[-43.1275,-22.5765],[-43.1273,-22.5763]]]}},{"type":"Feature","properties":{"cod_tema":"RIO_ATE_10","cod_imovel":"RJ-3302502-24399758CE404F81BD3D8E59386140A0","ind_status":"PE"},"geometry":{"type":"Polygon","coordinates":[[[-43.1001,-22.5991],[-43.1002,-22.608],[-43.0955,-22.6073],[-43.1002,-22.608],[-43.1001,-22.5991],[-43.1001,-22.5991]]]}},{"type":"Feature","properties":{"cod_tema":"RIO_ATE_10","cod_imovel":"RJ-3302502-97B89FE275984D30B592C41ABCAD2018","ind_status":"AT"},"geometry":{"type":"Polygon","coordinates":[[[-43.1698,-22.562],[-43.1773,-22.5688],[-43.17,-22.5621],[-43.1698,-22.562]]]}},{"type":"Feature","properties":{"cod_tema":"RIO_10_A_50","cod_imovel":"RJ-3302502-C8E92ACE6FC34807A0B5637A1455314C","ind_status":"AT"},"geometry":{"type":"Polygon","coordinates":[[[-43.1196,-22.68],[-43.118,-22.6762],[-43.1191,-22.68],[-43.1196,-22.68]]]}},{"type":"Feature","properties":{"cod_tema":"RIO_ATE_10","cod_imovel":"RJ-3302502-AA7AFDB67E594163A45DF24F53986757","ind_status":"AT"},"geometry":{"type":"Polygon","coordinates":[[[-43.1223,-22.6241],[-43.1163,-22.6311],[-43.1228,-22.624],[-43.1223,-22.6241]],[[-43.1236,-22.6266],[-43.1215,-22.6289],[-43.124,-22.6261],[-43.1236,-22.6266]],[[-43.1271,-22.6257],[-43.1318,-22.6247],[-43.1271,-22.6257],[-43.1271,-22.6257]]]}},{"type":"Feature","properties":{"cod_tema":"RIO_10_A_50","cod_imovel":"RJ-3302502-8CE65F254CCC41098E9FA3B75FFB2E18","ind_status":"AT"},"geometry":{"type":"Polygon","coordinates":[[[-43.1396,-22.6019],[-43.1405,-22.6152],[-43.1399,-22.6019],[-43.1396,-22.6019]]]}},{"type":"Feature","properties":{"cod_tema":"RIO_ATE_10","cod_imovel":"RJ-3302502-DF6716973BAF43A0909D8A0B010743E7","ind_status":"AT"},"geometry":{"type":"Polygon","coordinates":[[[-43.1162,-22.6316],[-43.1199,-22.637],[-43.1161,-22.6315],[-43.1162,-22.6316]]]}},{"type":"Feature","properties":{"cod_tema":"RIO_ATE_10","cod_imovel":"RJ-3302502-AE327FB189AD4BA1926C684CEDCB3E17","ind_status":"PE"},"geometry":{"type":"Polygon","coordinates":[[[-43.1309,-22.6114],[-43.1291,-22.614],[-43.1325,-22.6132],[-43.1287,-22.6088],[-43.1281,-22.6132],[-43.1308,-22.6115],[-43.1309,-22.6114]]]}},{"type":"Feature","properties":{"cod_tema":"RIO_ATE_10","cod_imovel":"RJ-3302502-E1B8FE65E730439C8B2A1E1CE25B63A2","ind_status":"PE"},"geometry":{"type":"Polygon","coordinates":[[[-43.1416,-22.5929],[-43.1394,-22.6016],[-43.1417,-22.5928],[-43.1416,-22.5929]]]}},{"type":"Feature","properties":{"cod_tema":"RIO_ATE_10","cod_imovel":"RJ-3302502-B97F70A8EFC84D2291D3A6DAA616CCFD","ind_status":"AT"},"geometry":{"type":"Polygon","coordinates":[[[-43.1183,-22.5822],[-43.114,-22.5738],[-43.1183,-22.5822],[-43.1183,-22.5822]]]}},{"type":"Feature","properties":{"cod_tema":"RIO_ATE_10","cod_imovel":"RJ-3302502-2A509F423C12436D8FD86D028EDCD111","ind_status":"AT"},"geometry":{"type":"Polygon","coordinates":[[[-43.0964,-22.5928],[-43.0988,-22.6038],[-43.105,-22.5983],[-43.0992,-22.5996],[-43.0964,-22.5928],[-43.0964,-22.5928]]]}},{"type":"Feature","properties":{"cod_tema":"RIO_ATE_10","cod_imovel":"RJ-3302502-79CFC8C964BE4B85AC54ED7AF4CCDD19","ind_status":"PE"},"geometry":{"type":"Polygon","coordinates":[[[-43.1394,-22.6016],[-43.1403,-22.6136],[-43.1394,-22.6016],[-43.1394,-22.6016]]]}},{"type":"Feature","properties":{"cod_tema":"RIO_ATE_10","cod_imovel":"RJ-3302502-BAE7CD399258434B98F8C4140AE3AD7F","ind_status":"AT"},"geometry":{"type":"Polygon","coordinates":[[[-43.1162,-22.6316],[-43.1199,-22.637],[-43.1161,-22.6315],[-43.1162,-22.6316]]]}},{"type":"Feature","properties":{"cod_tema":"RIO_ATE_10","cod_imovel":"RJ-3302502-7D0092F85E9B40D3A618E91DDEB1A1E5","ind_status":"PE"},"geometry":{"type":"Polygon","coordinates":[[[-43.0668,-22.5878],[-43.0707,-22.5872],[-43.0668,-22.5878],[-43.0668,-22.5878]]]}},{"type":"Feature","properties":{"cod_tema":"RIO_ATE_10","cod_imovel":"RJ-3302502-AF85126E891F4310AD5F84BAE8EE6282","ind_status":"AT"},"geometry":{"type":"Polygon","coordinates":[[[-43.1177,-22.6336],[-43.1195,-22.6362],[-43.1171,-22.6329],[-43.1177,-22.6336]]]}},{"type":"Feature","properties":{"cod_tema":"RIO_ATE_10","cod_imovel":"RJ-3302502-A808D47B618148F4851F97D16C0768D0","ind_status":"AT"},"geometry":{"type":"Polygon","coordinates":[[[-43.0399,-22.5918],[-43.0435,-22.5961],[-43.0393,-22.5914],[-43.0399,-22.5918]],[[-43.047,-22.5891],[-43.0412,-22.5844],[-43.0472,-22.5895],[-43.047,-22.5891]],[[-43.0545,-22.5941],[-43.0458,-22.5955],[-43.0558,-22.5968],[-43.0547,-22.5937],[-43.0545,-22.5941]],[[-43.053,-22.5779],[-43.0578,-22.5831],[-43.0531,-22.5782],[-43.053,-22.5779]],[[-43.0562,-22.5735],[-43.0611,-22.5746],[-43.0556,-22.5735],[-43.0562,-22.5735]],[[-43.0652,-22.5774],[-43.0663,-22.5733],[-43.0623,-22.576],[-43.0701,-22.5769],[-43.0652,-22.5776],[-43.0652,-22.5774]],[[-43.0743,-22.5845],[-43.068,-22.5848],[-43.0653,-22.5806],[-43.0712,-22.5813],[-43.0639,-22.5789],[-43.0694,-22.5872],[-43.0743,-22.5845],[-43.0743,-22.5845]],[[-43.0725,-22.6019],[-43.0686,-22.6042],[-43.0702,-22.6105],[-43.0687,-22.6042],[-43.0729,-22.6012],[-43.0725,-22.6019]]]}},{"type":"Feature","properties":{"cod_tema":"RIO_10_A_50","cod_imovel":"RJ-3302502-A808D47B618148F4851F97D16C0768D0","ind_status":"AT"},"geometry":{"type":"Polygon","coordinates":[[[-43.0404,-22.5983],[-43.0503,-22.5858],[-43.0631,-22.5812],[-43.0594,-22.572],[-43.0629,-22.5812],[-43.0525,-22.5841],[-43.0404,-22.5982],[-43.0404,-22.5983]]]}},{"type":"Feature","properties":{"cod_tema":"RIO_ATE_10","cod_imovel":"RJ-3302502-EBC481BFBEB847229E4FA888896994AA","ind_status":"PE"},"geometry":{"type":"Polygon","coordinates":[[[-43.125,-22.6046],[-43.1309,-22.6114],[-43.124,-22.6034],[-43.125,-22.6046]]]}},{"type":"Feature","properties":{"cod_tema":"RIO_ATE_10","cod_imovel":"RJ-3302502-CD4BAEFB7BBE4B14A35021E102C90EB9","ind_status":"AT"},"geometry":{"type":"Polygon","coordinates":[[[-43.1345,-22.5902],[-43.1322,-22.5934],[-43.1345,-22.5898],[-43.1345,-22.5902]]]}},{"type":"Feature","properties":{"cod_tema":"RIO_10_A_50","cod_imovel":"RJ-3302502-DC422A3776BD4C5A8CFBAB7972A6C832","ind_status":"AT"},"geometry":{"type":"Polygon","coordinates":[[[-43.1335,-22.5716],[-43.1297,-22.5753],[-43.1336,-22.5717],[-43.1335,-22.5716]]]}},{"type":"Feature","properties":{"cod_tema":"RIO_ATE_10","cod_imovel":"RJ-3302502-EAEAB2D27479423088712E027AEC3D0B","ind_status":"AT"},"geometry":{"type":"Polygon","coordinates":[[[-43.0859,-22.6307],[-43.0773,-22.6319],[-43.0859,-22.6307],[-43.0859,-22.6307]]]}},{"type":"Feature","properties":{"cod_tema":"RIO_ATE_10","cod_imovel":"RJ-3302502-B85E3F72E2094CD6921DF6CF81E25220","ind_status":"AT"},"geometry":{"type":"Polygon","coordinates":[[[-43.1063,-22.6496],[-43.1169,-22.648],[-43.1061,-22.6496],[-43.1063,-22.6496]]]}},{"type":"Feature","properties":{"cod_tema":"RIO_ATE_10","cod_imovel":"RJ-3302502-B85E3F72E2094CD6921DF6CF81E25220","ind_status":"AT"},"geometry":{"type":"Polygon","coordinates":[[[-43.1017,-22.6448],[-43.1064,-22.6417],[-43.1013,-22.6449],[-43.1017,-22.6448]]]}},{"type":"Feature","properties":{"cod_tema":"RIO_ATE_10","cod_imovel":"RJ-3302502-B85E3F72E2094CD6921DF6CF81E25220","ind_status":"AT"},"geometry":{"type":"Polygon","coordinates":[[[-43.0939,-22.6493],[-43.0993,-22.6489],[-43.0936,-22.6494],[-43.0939,-22.6493]]]}},{"type":"Feature","properties":{"cod_tema":"RIO_ATE_10","cod_imovel":"RJ-3302502-B85E3F72E2094CD6921DF6CF81E25220","ind_status":"AT"},"geometry":{"type":"Polygon","coordinates":[[[-43.1028,-22.6579],[-43.1072,-22.6619],[-43.1025,-22.6578],[-43.1028,-22.6579]]]}},{"type":"Feature","properties":{"cod_tema":"RIO_ATE_10","cod_imovel":"RJ-3302502-B85E3F72E2094CD6921DF6CF81E25220","ind_status":"AT"},"geometry":{"type":"Polygon","coordinates":[[[-43.0939,-22.6493],[-43.0992,-22.6489],[-43.0936,-22.6494],[-43.0939,-22.6493]]]}},{"type":"Feature","properties":{"cod_tema":"RIO_ATE_10","cod_imovel":"RJ-3302502-B85E3F72E2094CD6921DF6CF81E25220","ind_status":"AT"},"geometry":{"type":"Polygon","coordinates":[[[-43.0914,-22.652],[-43.097,-22.6453],[-43.0913,-22.6523],[-43.0914,-22.652]]]}},{"type":"Feature","properties":{"cod_tema":"RIO_ATE_10","cod_imovel":"RJ-3302502-B85E3F72E2094CD6921DF6CF81E25220","ind_status":"AT"},"geometry":{"type":"Polygon","coordinates":[[[-43.1092,-22.6568],[-43.1083,-22.6619],[-43.1092,-22.6568],[-43.1092,-22.6568]]]}},{"type":"Feature","properties":{"cod_tema":"RIO_ATE_10","cod_imovel":"RJ-3302502-B85E3F72E2094CD6921DF6CF81E25220","ind_status":"AT"},"geometry":{"type":"Polygon","coordinates":[[[-43.0978,-22.6559],[-43.0949,-22.6592],[-43.0981,-22.6556],[-43.0978,-22.6559]]]}},{"type":"Feature","properties":{"cod_tema":"RIO_10_A_50","cod_imovel":"RJ-3302502-B85E3F72E2094CD6921DF6CF81E25220","ind_status":"AT"},"geometry":{"type":"Polygon","coordinates":[[[-43.1195,-22.662],[-43.1177,-22.6419],[-43.1195,-22.6617],[-43.1195,-22.662]]]}},{"type":"Feature","properties":{"cod_tema":"RIO_ATE_10","cod_imovel":"RJ-3302502-CF0E7986908F42239F7E16F101B6500C","ind_status":"AT"},"geometry":{"type":"Polygon","coordinates":[[[-43.1402,-22.6521],[-43.1373,-22.6481],[-43.1418,-22.6545],[-43.1402,-22.6521]]]}},{"type":"Feature","properties":{"cod_tema":"RIO_10_A_50","cod_imovel":"RJ-3302502-CF0E7986908F42239F7E16F101B6500C","ind_status":"AT"},"geometry":{"type":"Polygon","coordinates":[[[-43.142,-22.6544],[-43.1376,-22.6556],[-43.1414,-22.6546],[-43.142,-22.6544]]]}},{"type":"Feature","properties":{"cod_tema":"RIO_ATE_10","cod_imovel":"RJ-3302502-B9AE642FA3D8419CAC5EF99521779647","ind_status":"AT"},"geometry":{"type":"Polygon","coordinates":[[[-43.0735,-22.594],[-43.0662,-22.5926],[-43.0737,-22.5941],[-43.0735,-22.594]]]}},{"type":"Feature","properties":{"cod_tema":"RIO_ATE_10","cod_imovel":"RJ-3302502-2300E9F24AC1424785A72031EE459A7A","ind_status":"PE"},"geometry":{"type":"Polygon","coordinates":[[[-43.125,-22.6046],[-43.1309,-22.6115],[-43.124,-22.6034],[-43.125,-22.6046]]]}},{"type":"Feature","properties":{"cod_tema":"RIO_ATE_10","cod_imovel":"RJ-3302502-ADE9BDA6377C400B9D3BD96F8D1B5495","ind_status":"AT"},"geometry":{"type":"Polygon","coordinates":[[[-43.0294,-22.5478],[-43.0245,-22.5572],[-43.0192,-22.556],[-43.0183,-22.5499],[-43.0307,-22.5446],[-43.0234,-22.5434],[-43.0194,-22.5481],[-43.0203,-22.5439],[-43.0188,-22.5554],[-43.0117,-22.5475],[-43.0107,-22.5401],[-43.0157,-22.5381],[-43.0108,-22.5398],[-43.0103,-22.5328],[-43.0192,-22.5288],[-43.0115,-22.5319],[-43.0129,-22.5271],[-43.0105,-22.5427],[-43.0059,-22.5419],[-43.0108,-22.5432],[-43.0092,-22.5505],[-43.0145,-22.5481],[-43.0127,-22.5536],[-43.016,-22.5511],[-43.0245,-22.5573],[-43.0324,-22.5705],[-43.0293,-22.565],[-43.0323,-22.5559],[-43.0367,-22.5559],[-43.0322,-22.5559],[-43.0291,-22.5658],[-43.0245,-22.5567],[-43.0377,-22.5498],[-43.0262,-22.5548],[-43.0295,-22.5474],[-43.0294,-22.5478]],[[-43.044,-22.5701],[-43.0339,-22.5695],[-43.0433,-22.5616],[-43.0342,-22.5658],[-43.0346,-22.5709],[-43.0447,-22.5701],[-43.044,-22.5701]],[[-43.0461,-22.566],[-43.0508,-22.5647],[-43.0453,-22.566],[-43.0461,-22.566]]]}},{"type":"Feature","properties":{"cod_tema":"RIO_ATE_10","cod_imovel":"RJ-3302502-B00F8ABB53AB47918C363C179FE6A1E2","ind_status":"AT"},"geometry":{"type":"Polygon","coordinates":[[[-43.1751,-22.6531],[-43.1694,-22.652],[-43.1771,-22.6527],[-43.1751,-22.6531]]]}},{"type":"Feature","properties":{"cod_tema":"RIO_ATE_10","cod_imovel":"RJ-3302502-373D0FA4114043619286AF429A58F72E","ind_status":"PE"},"geometry":{"type":"Polygon","coordinates":[[[-43.0378,-22.5771],[-43.0413,-22.5847],[-43.0374,-22.5766],[-43.0378,-22.5771]]]}},{"type":"Feature","properties":{"cod_tema":"RIO_ATE_10","cod_imovel":"RJ-3302502-62642F477A6C43269E0503D541AD1596","ind_status":"PE"},"geometry":{"type":"Polygon","coordinates":[[[-43.0397,-22.5836],[-43.0375,-22.5765],[-43.0395,-22.5837],[-43.0397,-22.5836]]]}},{"type":"Feature","properties":{"cod_tema":"RIO_ATE_10","cod_imovel":"RJ-3302502-DC1A04ADAC9B48E4854DA2D9365A250B","ind_status":"AT"},"geometry":{"type":"Polygon","coordinates":[[[-43.0782,-22.6583],[-43.0806,-22.6632],[-43.0782,-22.6582],[-43.0782,-22.6583]]]}},{"type":"Feature","properties":{"cod_tema":"RIO_ATE_10","cod_imovel":"RJ-3302502-44C7244002E24CA4BE40579D804D9658","ind_status":"AT"},"geometry":{"type":"Polygon","coordinates":[[[-43.1469,-22.5877],[-43.1445,-22.591],[-43.147,-22.5874],[-43.1469,-22.5877]]]}},{"type":"Feature","properties":{"cod_tema":"RIO_ATE_10","cod_imovel":"RJ-3302502-E71B34C59EF04A9784ACDE7A028AC7D5","ind_status":"AT"},"geometry":{"type":"Polygon","coordinates":[[[-43.0617,-22.5423],[-43.0658,-22.5446],[-43.0617,-22.5423],[-43.0617,-22.5423]]]}},{"type":"Feature","properties":{"cod_tema":"RIO_ATE_10","cod_imovel":"RJ-3302502-FFCE93744227465393196552A0F4A960","ind_status":"AT"},"geometry":{"type":"Polygon","coordinates":[[[-43.1289,-22.6483],[-43.1229,-22.6483],[-43.1289,-22.6483],[-43.1289,-22.6483]]]}},{"type":"Feature","properties":{"cod_tema":"RIO_ATE_10","cod_imovel":"RJ-3302502-DF5672FA372D48448A23F99D80D0F302","ind_status":"AT"},"geometry":{"type":"Polygon","coordinates":[[[-43.0569,-22.6394],[-43.0528,-22.6466],[-43.0575,-22.6378],[-43.066,-22.634],[-43.057,-22.6392],[-43.0514,-22.6362],[-43.057,-22.6392],[-43.0569,-22.6394]],[[-43.0535,-22.6317],[-43.0514,-22.6345],[-43.0535,-22.6316],[-43.0535,-22.6317]]]}},{"type":"Feature","properties":{"cod_tema":"RIO_ATE_10","cod_imovel":"RJ-3302502-EFF3A49CD19D4C70AC3CC91CE10E9B2B","ind_status":"AT"},"geometry":{"type":"Polygon","coordinates":[[[-43.0362,-22.5792],[-43.0383,-22.582],[-43.0362,-22.5791],[-43.0362,-22.5792]],[[-43.0278,-22.5798],[-43.0395,-22.5837],[-43.0277,-22.5798],[-43.0278,-22.5798]]]}},{"type":"Feature","properties":{"cod_tema":"RIO_ATE_10","cod_imovel":"RJ-3302502-165E2E28C38642BDB53D635E2A54F4F9","ind_status":"AT"},"geometry":{"type":"Polygon","coordinates":[[[-43.126,-22.5926],[-43.1253,-22.5882],[-43.126,-22.5926],[-43.126,-22.5926]]]}},{"type":"Feature","properties":{"cod_tema":"RIO_ATE_10","cod_imovel":"RJ-3302502-088815E577F64094A4E6756F0DCE4BEA","ind_status":"PE"},"geometry":{"type":"Polygon","coordinates":[[[-43.1894,-22.7118],[-43.1915,-22.7074],[-43.1894,-22.7118],[-43.186,-22.7056],[-43.1892,-22.7125],[-43.1894,-22.7118]]]}},{"type":"Feature","properties":{"cod_tema":"RIO_ATE_10","cod_imovel":"RJ-3302502-C3E77E98C85B4D9B8D26382D33F764DD","ind_status":"AT"},"geometry":{"type":"Polygon","coordinates":[[[-43.1456,-22.6022],[-43.1517,-22.6126],[-43.1457,-22.6022],[-43.1456,-22.6022]]]}},{"type":"Feature","properties":{"cod_tema":"RIO_ATE_10","cod_imovel":"RJ-3302502-22AF3EB42E99414390DE8DB8646D4C68","ind_status":"AT"},"geometry":{"type":"Polygon","coordinates":[[[-43.2007,-22.7149],[-43.2002,-22.7114],[-43.2007,-22.7149],[-43.2007,-22.7149]]]}},{"type":"Feature","properties":{"cod_tema":"RIO_ATE_10","cod_imovel":"RJ-3302502-042BB506D8D9471283A9A3D94ED1B4AE","ind_status":"AT"},"geometry":{"type":"Polygon","coordinates":[[[-43.1179,-22.6414],[-43.1199,-22.637],[-43.1177,-22.6416],[-43.1099,-22.6401],[-43.1178,-22.6417],[-43.1179,-22.6414]]]}},{"type":"Feature","properties":{"cod_tema":"RIO_ATE_10","cod_imovel":"RJ-3302502-93B713E91A1443269EA85926DFD1DEDD","ind_status":"AT"},"geometry":{"type":"Polygon","coordinates":[[[-43.1432,-22.6244],[-43.1402,-22.6113],[-43.1426,-22.6194],[-43.1296,-22.6125],[-43.1347,-22.6158],[-43.1296,-22.6172],[-43.1365,-22.6178],[-43.1347,-22.6247],[-43.1365,-22.6179],[-43.1383,-22.6247],[-43.1398,-22.6187],[-43.1434,-22.6246],[-43.1432,-22.6244]]]}},{"type":"Feature","properties":{"cod_tema":"RIO_ATE_10","cod_imovel":"RJ-3302502-FFEAA16F9C37496BADD2DA9EBE35FA9D","ind_status":"AT"},"geometry":{"type":"Polygon","coordinates":[[[-43.1309,-22.6115],[-43.1294,-22.6148],[-43.1346,-22.6157],[-43.1258,-22.6055],[-43.1309,-22.6114],[-43.1258,-22.614],[-43.1309,-22.6115],[-43.1309,-22.6115]]]}},{"type":"Feature","properties":{"cod_tema":"RIO_ATE_10","cod_imovel":"RJ-3302502-5520721E4DF240BCAC0893AE48E2E0D4","ind_status":"AT"},"geometry":{"type":"Polygon","coordinates":[[[-43.0428,-22.5852],[-43.0401,-22.5838],[-43.0442,-22.586],[-43.0428,-22.5852]]]}},{"type":"Feature","properties":{"cod_tema":"RIO_ATE_10","cod_imovel":"RJ-3302502-56FA7D4A63AB4E83B33E539E2F533BBD","ind_status":"AT"},"geometry":{"type":"Polygon","coordinates":[[[-43.0339,-22.5451],[-43.0275,-22.5467],[-43.0345,-22.5451],[-43.0339,-22.5451]]]}},{"type":"Feature","properties":{"cod_tema":"RIO_ATE_10","cod_imovel":"RJ-3302502-56FA7D4A63AB4E83B33E539E2F533BBD","ind_status":"AT"},"geometry":{"type":"Polygon","coordinates":[[[-43.0315,-22.542],[-43.0234,-22.5454],[-43.0321,-22.5416],[-43.0315,-22.542]]]}},{"type":"Feature","properties":{"cod_tema":"RIO_ATE_10","cod_imovel":"RJ-3302502-56FA7D4A63AB4E83B33E539E2F533BBD","ind_status":"AT"},"geometry":{"type":"Polygon","coordinates":[[[-43.0268,-22.5365],[-43.0204,-22.545],[-43.0272,-22.5365],[-43.0268,-22.5365]]]}},{"type":"Feature","properties":{"cod_tema":"RIO_ATE_10","cod_imovel":"RJ-3302502-56FA7D4A63AB4E83B33E539E2F533BBD","ind_status":"AT"},"geometry":{"type":"Polygon","coordinates":[[[-43.0179,-22.5373],[-43.0207,-22.5445],[-43.0166,-22.5366],[-43.0179,-22.5373]]]}},{"type":"Feature","properties":{"cod_tema":"RIO_ATE_10","cod_imovel":"RJ-3302502-5307D9881D4E47E59F85834FD602570B","ind_status":"AT"},"geometry":{"type":"Polygon","coordinates":[[[-43.0791,-22.623],[-43.0736,-22.6155],[-43.0792,-22.623],[-43.0791,-22.623]]]}},{"type":"Feature","properties":{"cod_tema":"RIO_ATE_10","cod_imovel":"RJ-3302502-F65FC3DA1AFA4D71AB3800E4563CB090","ind_status":"AT"},"geometry":{"type":"Polygon","coordinates":[[[-43.1432,-22.6244],[-43.1403,-22.6137],[-43.1426,-22.6194],[-43.1329,-22.6137],[-43.1319,-22.6172],[-43.1365,-22.6178],[-43.1326,-22.6275],[-43.1369,-22.6275],[-43.1366,-22.6179],[-43.1389,-22.6275],[-43.1398,-22.6187],[-43.1435,-22.6247],[-43.1432,-22.6244]]]}}]}