{"type":"FeatureCollection","features":[{"type":"Feature","properties":{"cod_tema":"RIO_ATE_10","cod_imovel":"RJ-3302908-08C2DA06EFD64088851C3FD1E62B29A1","ind_status":"AT"},"geometry":{"type":"Polygon","coordinates":[[[-43.5092,-22.4624],[-43.5109,-22.4592],[-43.5092,-22.4625],[-43.5092,-22.4624]]]}},{"type":"Feature","properties":{"cod_tema":"RIO_ATE_10","cod_imovel":"RJ-3302908-32F1B4B86C4C4803B1B13B7E688870AD","ind_status":"AT"},"geometry":{"type":"Polygon","coordinates":[[[-43.4251,-22.5138],[-43.4131,-22.5108],[-43.4219,-22.5164],[-43.4142,-22.5093],[-43.4254,-22.514],[-43.4251,-22.5138]]]}},{"type":"Feature","properties":{"cod_tema":"RIO_ATE_10","cod_imovel":"RJ-3302908-088CE217982444D384EE78411EFCA242","ind_status":"AT"},"geometry":{"type":"Polygon","coordinates":[[[-43.4993,-22.4517],[-43.4976,-22.4557],[-43.4993,-22.4518],[-43.4993,-22.4517]]]}},{"type":"Feature","properties":{"cod_tema":"RIO_ATE_10","cod_imovel":"RJ-3302908-1D4F7D1180DA43899399747B58621A45","ind_status":"AT"},"geometry":{"type":"Polygon","coordinates":[[[-43.4813,-22.4876],[-43.48,-22.4918],[-43.4813,-22.4875],[-43.4813,-22.4876]]]}},{"type":"Feature","properties":{"cod_tema":"RIO_ATE_10","cod_imovel":"RJ-3302908-32577CCF1B714D0EB5F6E8668CDA59E8","ind_status":"AT"},"geometry":{"type":"Polygon","coordinates":[[[-43.4994,-22.451],[-43.4947,-22.447],[-43.4994,-22.451],[-43.4994,-22.451]]]}},{"type":"Feature","properties":{"cod_tema":"RIO_ATE_10","cod_imovel":"RJ-3302908-439A14B692824442A553A8F7B0F94E26","ind_status":"AT"},"geometry":{"type":"Polygon","coordinates":[[[-43.4855,-22.5149],[-43.4827,-22.5194],[-43.4861,-22.5145],[-43.4855,-22.5149]]]}},{"type":"Feature","properties":{"cod_tema":"RIO_ATE_10","cod_imovel":"RJ-3302908-6295F88B6446491CBC2A6D90EE71ABA3","ind_status":"AT"},"geometry":{"type":"Polygon","coordinates":[[[-43.3442,-22.4597],[-43.348,-22.4542],[-43.3442,-22.4597],[-43.3442,-22.4597]],[[-43.3402,-22.4593],[-43.3435,-22.4607],[-43.34,-22.4594],[-43.3402,-22.4593]]]}},{"type":"Feature","properties":{"cod_tema":"RIO_ATE_10","cod_imovel":"RJ-3302908-6D1763C9A0E3463294E1031D552F7E53","ind_status":"AT"},"geometry":{"type":"Polygon","coordinates":[[[-43.4857,-22.4953],[-43.4767,-22.4895],[-43.4857,-22.4953],[-43.4857,-22.4953]],[[-43.4858,-22.4895],[-43.4858,-22.4944],[-43.4858,-22.4895],[-43.4858,-22.4895]]]}},{"type":"Feature","properties":{"cod_tema":"RIO_ATE_10","cod_imovel":"RJ-3302908-829532E743DF4DD98590184F5EE2325D","ind_status":"AT"},"geometry":{"type":"Polygon","coordinates":[[[-43.3831,-22.4741],[-43.3811,-22.4706],[-43.3832,-22.4741],[-43.3831,-22.4741]]]}},{"type":"Feature","properties":{"cod_tema":"RIO_ATE_10","cod_imovel":"RJ-3302908-86C3907BA95E4CB6B161DAC63C2C09C6","ind_status":"AT"},"geometry":{"type":"Polygon","coordinates":[[[-43.5348,-22.4481],[-43.5318,-22.4456],[-43.535,-22.4484],[-43.5348,-22.4481]],[[-43.5365,-22.4459],[-43.5337,-22.4437],[-43.5372,-22.4458],[-43.5365,-22.4459]]]}},{"type":"Feature","properties":{"cod_tema":"RIO_ATE_10","cod_imovel":"RJ-3302908-87C9CF4BB8394B99A2FC170B75127D52","ind_status":"AT"},"geometry":{"type":"Polygon","coordinates":[[[-43.4587,-22.4678],[-43.457,-22.4726],[-43.4602,-22.4645],[-43.4532,-22.4674],[-43.4587,-22.4676],[-43.4587,-22.4678]],[[-43.4603,-22.4641],[-43.4561,-22.4651],[-43.4603,-22.4641],[-43.4603,-22.4641]]]}},{"type":"Feature","properties":{"cod_tema":"RIO_ATE_10","cod_imovel":"RJ-3302908-97A0F95E5F5A41849A8EA64C643A973D","ind_status":"AT"},"geometry":{"type":"Polygon","coordinates":[[[-43.4813,-22.4876],[-43.48,-22.4917],[-43.4767,-22.4895],[-43.4857,-22.4953],[-43.4802,-22.4919],[-43.4813,-22.4875],[-43.4813,-22.4876]]]}},{"type":"Feature","properties":{"cod_tema":"RIO_ATE_10","cod_imovel":"RJ-3302908-99CB7C51D4ED41BCBB26C72A14FC8DCB","ind_status":"AT"},"geometry":{"type":"Polygon","coordinates":[[[-43.4933,-22.4274],[-43.4918,-22.4197],[-43.4933,-22.4274],[-43.4933,-22.4274]]]}},{"type":"Feature","properties":{"cod_tema":"RIO_ATE_10","cod_imovel":"RJ-3302908-9B459C65A9EA40DE9F1C149D50B54E64","ind_status":"AT"},"geometry":{"type":"Polygon","coordinates":[[[-43.3065,-22.4722],[-43.3095,-22.4689],[-43.306,-22.4727],[-43.3065,-22.4722]],[[-43.3127,-22.4689],[-43.3228,-22.4733],[-43.3122,-22.4686],[-43.3127,-22.4689]]]}},{"type":"Feature","properties":{"cod_tema":"RIO_ATE_10","cod_imovel":"RJ-3302908-C8FFF4DE7FF24A988CB6ECDBBB6B4D2A","ind_status":"AT"},"geometry":{"type":"Polygon","coordinates":[[[-43.5054,-22.4987],[-43.503,-22.5041],[-43.5054,-22.4985],[-43.5054,-22.4987]],[[-43.5042,-22.5085],[-43.5077,-22.5071],[-43.5037,-22.5086],[-43.5042,-22.5085]],[[-43.5061,-22.5127],[-43.5127,-22.509],[-43.5061,-22.5126],[-43.5061,-22.5127]],[[-43.5101,-22.5188],[-43.507,-22.5148],[-43.5101,-22.5188],[-43.5101,-22.5188]],[[-43.5108,-22.5013],[-43.5101,-22.5067],[-43.5108,-22.5013],[-43.5108,-22.5013]],[[-43.5176,-22.5048],[-43.5131,-22.5032],[-43.5176,-22.5048],[-43.5176,-22.5048]]]}},{"type":"Feature","properties":{"cod_tema":"RIO_10_A_50","cod_imovel":"RJ-3302908-C8FFF4DE7FF24A988CB6ECDBBB6B4D2A","ind_status":"AT"},"geometry":{"type":"Polygon","coordinates":[[[-43.516,-22.5092],[-43.499,-22.5037],[-43.5162,-22.5093],[-43.516,-22.5092]]]}},{"type":"Feature","properties":{"cod_tema":"RIO_ATE_10","cod_imovel":"RJ-3302908-D52C6812F1464345885FE14360B005CE","ind_status":"AT"},"geometry":{"type":"Polygon","coordinates":[[[-43.489,-22.5105],[-43.4857,-22.5151],[-43.4884,-22.5098],[-43.489,-22.5105]]]}},{"type":"Feature","properties":{"cod_tema":"RIO_ATE_10","cod_imovel":"RJ-3302908-EFC47200358F4F04B01A2F988B4E65AE","ind_status":"AT"},"geometry":{"type":"Polygon","coordinates":[[[-43.501,-22.5544],[-43.5061,-22.5619],[-43.501,-22.5543],[-43.501,-22.5544]],[[-43.5137,-22.5555],[-43.5041,-22.5528],[-43.5146,-22.5621],[-43.5137,-22.5555],[-43.5137,-22.5555]]]}},{"type":"Feature","properties":{"cod_tema":"RIO_ATE_10","cod_imovel":"RJ-3302908-FB24DC1216544D0D9D5033326375E700","ind_status":"AT"},"geometry":{"type":"Polygon","coordinates":[[[-43.5248,-22.4922],[-43.5282,-22.494],[-43.5248,-22.4922],[-43.5248,-22.4922]]]}},{"type":"Feature","properties":{"cod_tema":"RIO_ATE_10","cod_imovel":"RJ-3302908-866D2A77BFD14BE4A51747DB16B55885","ind_status":"AT"},"geometry":{"type":"Polygon","coordinates":[[[-43.4493,-22.4757],[-43.447,-22.4723],[-43.4498,-22.4761],[-43.4493,-22.4757]],[[-43.4515,-22.4755],[-43.4497,-22.4703],[-43.451,-22.4761],[-43.4515,-22.4755]]]}},{"type":"Feature","properties":{"cod_tema":"RIO_ATE_10","cod_imovel":"RJ-3302908-905287AFC6DD49858EF763AF591BDD20","ind_status":"PE"},"geometry":{"type":"Polygon","coordinates":[[[-43.3897,-22.4996],[-43.3803,-22.4919],[-43.3897,-22.4996],[-43.3897,-22.4996]],[[-43.389,-22.4934],[-43.3825,-22.4902],[-43.3895,-22.4932],[-43.389,-22.4934]],[[-43.3895,-22.4876],[-43.3849,-22.4844],[-43.3897,-22.4877],[-43.3895,-22.4876]]]}},{"type":"Feature","properties":{"cod_tema":"RIO_ATE_10","cod_imovel":"RJ-3302908-DBE5E1F192BA406FBE2C4C9A010961DE","ind_status":"AT"},"geometry":{"type":"Polygon","coordinates":[[[-43.4502,-22.4762],[-43.4473,-22.4722],[-43.4467,-22.4768],[-43.4502,-22.4762],[-43.4502,-22.4762]],[[-43.4537,-22.473],[-43.4505,-22.4706],[-43.4515,-22.4761],[-43.4541,-22.473],[-43.4537,-22.473]]]}},{"type":"Feature","properties":{"cod_tema":"RIO_ATE_10","cod_imovel":"RJ-3302908-BCE31543CBB54036A0FAFE592EA16941","ind_status":"AT"},"geometry":{"type":"Polygon","coordinates":[[[-43.4954,-22.4294],[-43.4999,-22.4308],[-43.4952,-22.4291],[-43.4954,-22.4294]]]}},{"type":"Feature","properties":{"cod_tema":"RIO_ATE_10","cod_imovel":"RJ-3302908-988F406915E74A9A81A2378703C612ED","ind_status":"AT"},"geometry":{"type":"Polygon","coordinates":[[[-43.5381,-22.4691],[-43.5292,-22.4713],[-43.5412,-22.4708],[-43.5381,-22.4691]]]}},{"type":"Feature","properties":{"cod_tema":"RIO_ATE_10","cod_imovel":"RJ-3302908-5C62DC106C324874BDA160D95C79BC39","ind_status":"AT"},"geometry":{"type":"Polygon","coordinates":[[[-43.5041,-22.5133],[-43.4964,-22.5108],[-43.4993,-22.5118],[-43.4935,-22.5199],[-43.4993,-22.5118],[-43.5047,-22.5134],[-43.5041,-22.5133]],[[-43.5028,-22.5181],[-43.4975,-22.5191],[-43.4999,-22.5218],[-43.4979,-22.5178],[-43.504,-22.518],[-43.5028,-22.5181]]]}},{"type":"Feature","properties":{"cod_tema":"RIO_ATE_10","cod_imovel":"RJ-3302908-4086E85989714CDDA5D6E7DD04603486","ind_status":"AT"},"geometry":{"type":"Polygon","coordinates":[[[-43.4589,-22.4892],[-43.4593,-22.485],[-43.4589,-22.4895],[-43.4589,-22.4892]],[[-43.4645,-22.4842],[-43.4616,-22.4794],[-43.4645,-22.4849],[-43.4645,-22.4842]]]}},{"type":"Feature","properties":{"cod_tema":"RIO_ATE_10","cod_imovel":"RJ-3302908-D228C6D143C0481B817D7E94003321B2","ind_status":"AT"},"geometry":{"type":"Polygon","coordinates":[[[-43.5078,-22.452],[-43.5136,-22.455],[-43.5078,-22.4519],[-43.5078,-22.452]],[[-43.5047,-22.4455],[-43.5004,-22.45],[-43.5048,-22.4454],[-43.5047,-22.4455]]]}},{"type":"Feature","properties":{"cod_tema":"RIO_ATE_10","cod_imovel":"RJ-3302908-37C6FE42333547629F74AA57FF58662B","ind_status":"AT"},"geometry":{"type":"Polygon","coordinates":[[[-43.5415,-22.5687],[-43.5434,-22.5722],[-43.5409,-22.5673],[-43.5415,-22.5687]],[[-43.5511,-22.5657],[-43.5494,-22.5627],[-43.5468,-22.5702],[-43.5423,-22.5667],[-43.5468,-22.5702],[-43.5511,-22.5657],[-43.5511,-22.5657]],[[-43.5446,-22.5595],[-43.5445,-22.564],[-43.5445,-22.5595],[-43.5446,-22.5595]],[[-43.5466,-22.5663],[-43.5491,-22.5627],[-43.5465,-22.5664],[-43.5466,-22.5663]]]}},{"type":"Feature","properties":{"cod_tema":"LAGO_NATURAL","cod_imovel":"RJ-3302908-B1C3E7506347427DA9E335D3563881D0","ind_status":"AT"},"geometry":{"type":"Polygon","coordinates":[[[-43.5218,-22.5593],[-43.5235,-22.5637],[-43.5219,-22.5593],[-43.5218,-22.5593]]]}},{"type":"Feature","properties":{"cod_tema":"RIO_ATE_10","cod_imovel":"RJ-3302908-4976ED13FFD1494B8A719AA7953D812C","ind_status":"AT"},"geometry":{"type":"Polygon","coordinates":[[[-43.4808,-22.5212],[-43.4775,-22.5176],[-43.4808,-22.5212],[-43.4777,-22.5244],[-43.4688,-22.5256],[-43.4732,-22.5273],[-43.4683,-22.5287],[-43.4704,-22.5325],[-43.4731,-22.528],[-43.4736,-22.5349],[-43.4722,-22.5288],[-43.4769,-22.525],[-43.4786,-22.5295],[-43.4805,-22.5212],[-43.4808,-22.5212]]]}},{"type":"Feature","properties":{"cod_tema":"RIO_ATE_10","cod_imovel":"RJ-3302908-60616D581017439D9E0B546516A24862","ind_status":"AT"},"geometry":{"type":"Polygon","coordinates":[[[-43.4902,-22.5071],[-43.494,-22.5008],[-43.4899,-22.5078],[-43.4902,-22.5071]]]}},{"type":"Feature","properties":{"cod_tema":"RIO_10_A_50","cod_imovel":"RJ-3302908-60616D581017439D9E0B546516A24862","ind_status":"AT"},"geometry":{"type":"Polygon","coordinates":[[[-43.4758,-22.503],[-43.4885,-22.4966],[-43.5005,-22.5038],[-43.4888,-22.4965],[-43.4758,-22.5029],[-43.4758,-22.503]]]}},{"type":"Feature","properties":{"cod_tema":"RIO_ATE_10","cod_imovel":"RJ-3302908-EC8CF445B97F4DE6AC5E5C097AFEE0BD","ind_status":"AT"},"geometry":{"type":"Polygon","coordinates":[[[-43.5407,-22.5287],[-43.5483,-22.5275],[-43.5404,-22.5175],[-43.5482,-22.5275],[-43.5334,-22.5264],[-43.5408,-22.5284],[-43.5407,-22.5287]]]}},{"type":"Feature","properties":{"cod_tema":"RIO_ATE_10","cod_imovel":"RJ-3302908-910956C2B0824EEAA027A61D55797B9A","ind_status":"AT"},"geometry":{"type":"Polygon","coordinates":[[[-43.4688,-22.4734],[-43.4758,-22.4685],[-43.4687,-22.4736],[-43.4688,-22.4734]]]}},{"type":"Feature","properties":{"cod_tema":"RIO_ATE_10","cod_imovel":"RJ-3302908-50E5957C05604FB5BAAA97AE64BFD66B","ind_status":"AT"},"geometry":{"type":"Polygon","coordinates":[[[-43.482,-22.5012],[-43.4799,-22.4981],[-43.482,-22.5012],[-43.482,-22.5012]],[[-43.4855,-22.498],[-43.4805,-22.4976],[-43.4857,-22.4979],[-43.4855,-22.498]]]}},{"type":"Feature","properties":{"cod_tema":"RIO_ATE_10","cod_imovel":"RJ-3302908-CACEC53CD91C46FDA0656AB3AA369CD2","ind_status":"AT"},"geometry":{"type":"Polygon","coordinates":[[[-43.3658,-22.5151],[-43.3559,-22.5116],[-43.3529,-22.5204],[-43.3569,-22.5167],[-43.3689,-22.5251],[-43.3559,-22.5116],[-43.3658,-22.5151],[-43.3658,-22.5151]],[[-43.3609,-22.5091],[-43.368,-22.4914],[-43.3609,-22.5091],[-43.3609,-22.5091]],[[-43.3846,-22.5019],[-43.3713,-22.4929],[-43.3766,-22.4954],[-43.3619,-22.5098],[-43.3666,-22.5071],[-43.371,-22.517],[-43.3648,-22.5184],[-43.3701,-22.5229],[-43.3666,-22.5071],[-43.3711,-22.5114],[-43.3674,-22.5052],[-43.3757,-22.4962],[-43.3774,-22.5069],[-43.3719,-22.5201],[-43.3734,-22.513],[-43.3777,-22.5175],[-43.3737,-22.513],[-43.3774,-22.5069],[-43.3838,-22.5124],[-43.3774,-22.5069],[-43.3762,-22.4985],[-43.3846,-22.5019],[-43.3846,-22.5019]],[[-43.3858,-22.5038],[-43.3875,-22.4999],[-43.3858,-22.504],[-43.3858,-22.5038]]]}},{"type":"Feature","properties":{"cod_tema":"RIO_ATE_10","cod_imovel":"RJ-3302908-C9320F5599154AA48F16BDF084254389","ind_status":"AT"},"geometry":{"type":"Polygon","coordinates":[[[-43.3986,-22.4799],[-43.391,-22.4823],[-43.3985,-22.4799],[-43.3986,-22.4799]]]}},{"type":"Feature","properties":{"cod_tema":"RIO_ATE_10","cod_imovel":"RJ-3302908-D6A52BB436E740A8A35251A95D3DFC05","ind_status":"AT"},"geometry":{"type":"Polygon","coordinates":[[[-43.4898,-22.4398],[-43.4924,-22.4378],[-43.4897,-22.44],[-43.4898,-22.4398]]]}},{"type":"Feature","properties":{"cod_tema":"RIO_ATE_10","cod_imovel":"RJ-3302908-8115DEDADD8F452DBFFCC4314818D7D4","ind_status":"AT"},"geometry":{"type":"Polygon","coordinates":[[[-43.5894,-22.5609],[-43.5819,-22.5584],[-43.576,-22.5633],[-43.5819,-22.5584],[-43.5896,-22.5611],[-43.5894,-22.5609]]]}},{"type":"Feature","properties":{"cod_tema":"RIO_ATE_10","cod_imovel":"RJ-3302908-95C8CE12A86044EDA981F0957D920093","ind_status":"AT"},"geometry":{"type":"Polygon","coordinates":[[[-43.4817,-22.4931],[-43.4771,-22.4899],[-43.4817,-22.4931],[-43.4817,-22.4931]]]}},{"type":"Feature","properties":{"cod_tema":"RIO_ATE_10","cod_imovel":"RJ-3302908-676F8AA3C8824543BC17E3063659046E","ind_status":"AT"},"geometry":{"type":"Polygon","coordinates":[[[-43.4457,-22.4911],[-43.449,-22.4876],[-43.4454,-22.4912],[-43.4457,-22.4911]],[[-43.4513,-22.497],[-43.4476,-22.4983],[-43.4513,-22.497],[-43.4513,-22.497]]]}},{"type":"Feature","properties":{"cod_tema":"RIO_ATE_10","cod_imovel":"RJ-3302908-758EC0E54F564CE79AE6812C3B231926","ind_status":"AT"},"geometry":{"type":"Polygon","coordinates":[[[-43.4999,-22.5379],[-43.4946,-22.538],[-43.5005,-22.5374],[-43.4999,-22.5379]]]}},{"type":"Feature","properties":{"cod_tema":"RIO_ATE_10","cod_imovel":"RJ-3302908-D635754DCD6A436F88BA742C87DBC587","ind_status":"AT"},"geometry":{"type":"Polygon","coordinates":[[[-43.4557,-22.4499],[-43.4499,-22.4573],[-43.455,-22.449],[-43.4557,-22.4499]]]}},{"type":"Feature","properties":{"cod_tema":"RIO_ATE_10","cod_imovel":"RJ-3302908-3A53166E27A94F16A7880099805298F9","ind_status":"AT"},"geometry":{"type":"Polygon","coordinates":[[[-43.4633,-22.4725],[-43.467,-22.4628],[-43.4629,-22.4729],[-43.4633,-22.4725]]]}},{"type":"Feature","properties":{"cod_tema":"RIO_ATE_10","cod_imovel":"RJ-3302908-9E05FCE4E19B4FD58CAE0EB0EE4AE6C9","ind_status":"AT"},"geometry":{"type":"Polygon","coordinates":[[[-43.4823,-22.5201],[-43.4859,-22.5145],[-43.4821,-22.5202],[-43.4823,-22.5201]]]}},{"type":"Feature","properties":{"cod_tema":"RIO_ATE_10","cod_imovel":"RJ-3302908-E75ADA14AB6D49BE8E8E71B3E8DF42AA","ind_status":"AT"},"geometry":{"type":"Polygon","coordinates":[[[-43.4813,-22.4876],[-43.48,-22.4918],[-43.4813,-22.4875],[-43.4813,-22.4876]]]}},{"type":"Feature","properties":{"cod_tema":"RIO_ATE_10","cod_imovel":"RJ-3302908-F331876FEAAA4C858856FB83C35273A3","ind_status":"AT"},"geometry":{"type":"Polygon","coordinates":[[[-43.4857,-22.4953],[-43.4802,-22.4919],[-43.4813,-22.4875],[-43.48,-22.4917],[-43.4767,-22.4895],[-43.4857,-22.4953],[-43.4857,-22.4953]]]}},{"type":"Feature","properties":{"cod_tema":"RIO_ATE_10","cod_imovel":"RJ-3302908-14CC867B2DEF4BCDB9DF307E34F3DBAD","ind_status":"AT"},"geometry":{"type":"Polygon","coordinates":[[[-43.4863,-22.4255],[-43.4889,-22.4217],[-43.4862,-22.4255],[-43.4863,-22.4255]]]}},{"type":"Feature","properties":{"cod_tema":"RIO_ATE_10","cod_imovel":"RJ-3302908-B0B009C0C1A648A9BF87B959755AFE30","ind_status":"AT"},"geometry":{"type":"Polygon","coordinates":[[[-43.5151,-22.4712],[-43.5276,-22.47],[-43.5146,-22.4712],[-43.5151,-22.4712]]]}},{"type":"Feature","properties":{"cod_tema":"RIO_ATE_10","cod_imovel":"RJ-3302908-0A2A344369EE465D89C772CE577D8F0A","ind_status":"AT"},"geometry":{"type":"Polygon","coordinates":[[[-43.584,-22.548],[-43.5924,-22.5485],[-43.5831,-22.5476],[-43.584,-22.548]],[[-43.5875,-22.5418],[-43.5878,-22.5455],[-43.5876,-22.5416],[-43.5875,-22.5418]]]}},{"type":"Feature","properties":{"cod_tema":"RIO_10_A_50","cod_imovel":"RJ-3302908-0A2A344369EE465D89C772CE577D8F0A","ind_status":"AT"},"geometry":{"type":"Polygon","coordinates":[[[-43.5924,-22.5481],[-43.5856,-22.5437],[-43.5922,-22.5483],[-43.5924,-22.5481]]]}},{"type":"Feature","properties":{"cod_tema":"RIO_ATE_10","cod_imovel":"RJ-3302908-52E4D164EB0B46789480A3995ACB35F7","ind_status":"AT"},"geometry":{"type":"Polygon","coordinates":[[[-43.4978,-22.4415],[-43.4951,-22.4451],[-43.4982,-22.4413],[-43.4978,-22.4415]],[[-43.4982,-22.4409],[-43.5035,-22.4448],[-43.494,-22.4378],[-43.4979,-22.4401],[-43.4982,-22.4409]],[[-43.4963,-22.4399],[-43.4934,-22.4432],[-43.4965,-22.4396],[-43.4963,-22.4399]]]}},{"type":"Feature","properties":{"cod_tema":"RIO_ATE_10","cod_imovel":"RJ-3302908-38E2D21405A14807B3D49BE651E35AA2","ind_status":"AT"},"geometry":{"type":"Polygon","coordinates":[[[-43.3609,-22.4629],[-43.3646,-22.4608],[-43.3609,-22.4629],[-43.3609,-22.4629]]]}},{"type":"Feature","properties":{"cod_tema":"RIO_10_A_50","cod_imovel":"RJ-3302908-63E145E0100840DAB3AD3A13CBAD6164","ind_status":"AT"},"geometry":{"type":"Polygon","coordinates":[[[-43.6002,-22.5547],[-43.5896,-22.547],[-43.5992,-22.554],[-43.6002,-22.5547]]]}},{"type":"Feature","properties":{"cod_tema":"RIO_ATE_10","cod_imovel":"RJ-3302908-2EB81FCBBE994018A9F15A371A65FD78","ind_status":"AT"},"geometry":{"type":"Polygon","coordinates":[[[-43.5393,-22.4591],[-43.5357,-22.4638],[-43.5393,-22.459],[-43.5393,-22.4591]]]}},{"type":"Feature","properties":{"cod_tema":"RIO_ATE_10","cod_imovel":"RJ-3302908-1ADF895C1E2A446E992796FFD17ED3EF","ind_status":"AT"},"geometry":{"type":"Polygon","coordinates":[[[-43.5156,-22.4594],[-43.5044,-22.4579],[-43.5103,-22.4586],[-43.5042,-22.4632],[-43.5157,-22.4594],[-43.5156,-22.4594]],[[-43.5135,-22.4647],[-43.5102,-22.4669],[-43.5135,-22.4649],[-43.5135,-22.4647]]]}},{"type":"Feature","properties":{"cod_tema":"RIO_ATE_10","cod_imovel":"RJ-3302908-D4319B991B2A4B54B42C899ABCA5E6DA","ind_status":"AT"},"geometry":{"type":"Polygon","coordinates":[[[-43.4359,-22.5046],[-43.4366,-22.5],[-43.4351,-22.5056],[-43.4359,-22.5046]]]}},{"type":"Feature","properties":{"cod_tema":"RIO_ATE_10","cod_imovel":"RJ-3302908-BDDA778BD10845E0B2C6AC367A20BCCA","ind_status":"AT"},"geometry":{"type":"Polygon","coordinates":[[[-43.3817,-22.484],[-43.3833,-22.4881],[-43.3772,-22.4938],[-43.3834,-22.4881],[-43.3809,-22.4841],[-43.3817,-22.484]]]}},{"type":"Feature","properties":{"cod_tema":"RIO_ATE_10","cod_imovel":"RJ-3302908-673AC7375AF44A5B851CCC91C431E2D8","ind_status":"AT"},"geometry":{"type":"Polygon","coordinates":[[[-43.5206,-22.4685],[-43.5153,-22.4711],[-43.5216,-22.4679],[-43.5206,-22.4685]]]}},{"type":"Feature","properties":{"cod_tema":"RIO_ATE_10","cod_imovel":"RJ-3302908-A0AAF53B6A044C2CBD60169E5F403C97","ind_status":"AT"},"geometry":{"type":"Polygon","coordinates":[[[-43.3698,-22.4696],[-43.3669,-22.4731],[-43.3785,-22.4642],[-43.3699,-22.4695],[-43.3698,-22.4696]]]}},{"type":"Feature","properties":{"cod_tema":"RIO_ATE_10","cod_imovel":"RJ-3302908-A4C30D9941694351A6922B849683D068","ind_status":"AT"},"geometry":{"type":"Polygon","coordinates":[[[-43.458,-22.4286],[-43.4604,-22.4327],[-43.4518,-22.4241],[-43.4584,-22.433],[-43.458,-22.4286],[-43.458,-22.4286]],[[-43.4657,-22.4322],[-43.4641,-22.4359],[-43.4657,-22.4318],[-43.4707,-22.4368],[-43.4665,-22.4282],[-43.4657,-22.4317],[-43.4657,-22.4322]]]}},{"type":"Feature","properties":{"cod_tema":"RIO_ATE_10","cod_imovel":"RJ-3302908-7A16B45A56D84CB888D5E2192BD4DBF8","ind_status":"AT"},"geometry":{"type":"Polygon","coordinates":[[[-43.6071,-22.5531],[-43.6022,-22.5569],[-43.6064,-22.5535],[-43.6071,-22.5531]],[[-43.59,-22.5618],[-43.6005,-22.573],[-43.5895,-22.5612],[-43.59,-22.5618]]]}},{"type":"Feature","properties":{"cod_tema":"RIO_10_A_50","cod_imovel":"RJ-3302908-7A16B45A56D84CB888D5E2192BD4DBF8","ind_status":"AT"},"geometry":{"type":"Polygon","coordinates":[[[-43.6148,-22.5707],[-43.5997,-22.5548],[-43.614,-22.5696],[-43.6148,-22.5707]]]}},{"type":"Feature","properties":{"cod_tema":"RIO_ATE_10","cod_imovel":"RJ-3302908-9B5E0774D8ED413EB6C96C0702DE83D7","ind_status":"AT"},"geometry":{"type":"Polygon","coordinates":[[[-43.5441,-22.4725],[-43.5401,-22.4703],[-43.5444,-22.4727],[-43.5441,-22.4725]]]}},{"type":"Feature","properties":{"cod_tema":"RIO_ATE_10","cod_imovel":"RJ-3302908-A76DDEAA9BE146E091BCD8A08C606889","ind_status":"AT"},"geometry":{"type":"Polygon","coordinates":[[[-43.3592,-22.4747],[-43.3532,-22.4723],[-43.3511,-22.4795],[-43.3445,-22.4781],[-43.3513,-22.4826],[-43.3546,-22.4745],[-43.3582,-22.4777],[-43.3596,-22.4747],[-43.3592,-22.4747]],[[-43.3496,-22.4697],[-43.3445,-22.4742],[-43.3496,-22.4697],[-43.3496,-22.4697]],[[-43.3467,-22.4646],[-43.35,-22.4679],[-43.3464,-22.4641],[-43.3467,-22.4646]],[[-43.3507,-22.4692],[-43.3495,-22.4724],[-43.3507,-22.4693],[-43.3507,-22.4692]],[[-43.3516,-22.4637],[-43.3517,-22.4669],[-43.3514,-22.4632],[-43.3516,-22.4637]]]}},{"type":"Feature","properties":{"cod_tema":"RIO_10_A_50","cod_imovel":"RJ-3302908-A76DDEAA9BE146E091BCD8A08C606889","ind_status":"AT"},"geometry":{"type":"Polygon","coordinates":[[[-43.3618,-22.4739],[-43.3537,-22.4671],[-43.3446,-22.4674],[-43.3536,-22.4672],[-43.3617,-22.4739],[-43.3618,-22.4739]]]}},{"type":"Feature","properties":{"cod_tema":"RIO_ATE_10","cod_imovel":"RJ-3302908-F66EA03D57C14182B218F49C43A2B110","ind_status":"AT"},"geometry":{"type":"Polygon","coordinates":[[[-43.4989,-22.5456],[-43.4996,-22.5374],[-43.4948,-22.5387],[-43.4972,-22.5424],[-43.4929,-22.5477],[-43.4853,-22.544],[-43.4925,-22.5479],[-43.4972,-22.5425],[-43.4978,-22.5488],[-43.493,-22.5518],[-43.4978,-22.5485],[-43.4995,-22.553],[-43.4989,-22.5456],[-43.4989,-22.5456]],[[-43.4888,-22.5518],[-43.4912,-22.5486],[-43.4888,-22.5518],[-43.4888,-22.5518]],[[-43.491,-22.5389],[-43.489,-22.5445],[-43.491,-22.5388],[-43.491,-22.5389]]]}},{"type":"Feature","properties":{"cod_tema":"RIO_ATE_10","cod_imovel":"RJ-3302908-8813FBAA57714489BADD402368EBA415","ind_status":"AT"},"geometry":{"type":"Polygon","coordinates":[[[-43.5193,-22.5475],[-43.5155,-22.541],[-43.5113,-22.5456],[-43.5154,-22.5486],[-43.5155,-22.5418],[-43.5194,-22.5481],[-43.5193,-22.5475]],[[-43.5134,-22.5641],[-43.5116,-22.5589],[-43.5147,-22.5646],[-43.5134,-22.5641]],[[-43.5151,-22.5678],[-43.515,-22.5644],[-43.5158,-22.5683],[-43.5151,-22.5678]],[[-43.5198,-22.5423],[-43.5191,-22.5388],[-43.5204,-22.5431],[-43.5198,-22.5423]],[[-43.5231,-22.5399],[-43.5259,-22.536],[-43.5223,-22.5412],[-43.5231,-22.5399]]]}},{"type":"Feature","properties":{"cod_tema":"RIO_ATE_10","cod_imovel":"RJ-3302908-817A685AFDEF45C2A4089C85A55C3594","ind_status":"AT"},"geometry":{"type":"Polygon","coordinates":[[[-43.5655,-22.5257],[-43.5613,-22.5252],[-43.566,-22.5263],[-43.5655,-22.5257]]]}},{"type":"Feature","properties":{"cod_tema":"RIO_ATE_10","cod_imovel":"RJ-3302908-BF6D06626A0B46D9AEE8D95A4D00B148","ind_status":"AT"},"geometry":{"type":"Polygon","coordinates":[[[-43.51,-22.5289],[-43.5067,-22.5279],[-43.5117,-22.5294],[-43.51,-22.5289]],[[-43.4998,-22.5242],[-43.5014,-22.5209],[-43.4978,-22.5259],[-43.4998,-22.5242]],[[-43.5308,-22.5324],[-43.5334,-22.5301],[-43.5308,-22.5335],[-43.5308,-22.5324]],[[-43.5208,-22.5313],[-43.5181,-22.5346],[-43.5227,-22.5308],[-43.5208,-22.5313]],[[-43.5121,-22.5329],[-43.5158,-22.5354],[-43.5118,-22.5313],[-43.5121,-22.5329]],[[-43.5229,-22.5329],[-43.5279,-22.5248],[-43.5224,-22.5348],[-43.5229,-22.5329]],[[-43.5078,-22.5194],[-43.503,-22.5263],[-43.508,-22.5174],[-43.5078,-22.5194]],[[-43.5248,-22.5334],[-43.532,-22.5288],[-43.5239,-22.5342],[-43.5248,-22.5334]],[[-43.5281,-22.5247],[-43.5216,-22.5202],[-43.5102,-22.5317],[-43.4966,-22.5296],[-43.5102,-22.5317],[-43.5216,-22.5203],[-43.5296,-22.5255],[-43.5281,-22.5247]]]}},{"type":"Feature","properties":{"cod_tema":"RIO_ATE_10","cod_imovel":"RJ-3302908-306B5E4F44404ABDB117574D72D2A5B8","ind_status":"AT"},"geometry":{"type":"Polygon","coordinates":[[[-43.5519,-22.534],[-43.5593,-22.5356],[-43.5546,-22.5305],[-43.551,-22.5334],[-43.5519,-22.534]],[[-43.556,-22.5409],[-43.5522,-22.5388],[-43.5568,-22.5415],[-43.556,-22.5409]],[[-43.5564,-22.5393],[-43.5549,-22.5339],[-43.5564,-22.5393],[-43.5564,-22.5393]]]}},{"type":"Feature","properties":{"cod_tema":"RIO_10_A_50","cod_imovel":"RJ-3302908-4D12118BE3594687B90786DA3C16996E","ind_status":"AT"},"geometry":{"type":"Polygon","coordinates":[[[-43.4963,-22.501],[-43.4882,-22.4965],[-43.4754,-22.503],[-43.488,-22.4966],[-43.4963,-22.5011],[-43.4963,-22.501]]]}},{"type":"Feature","properties":{"cod_tema":"RIO_ATE_10","cod_imovel":"RJ-3302908-A1EC30C7DC984F27B2C8B39A23D5BAAA","ind_status":"AT"},"geometry":{"type":"Polygon","coordinates":[[[-43.5067,-22.4503],[-43.5045,-22.4523],[-43.5067,-22.4503],[-43.5067,-22.4503]]]}},{"type":"Feature","properties":{"cod_tema":"RIO_ATE_10","cod_imovel":"RJ-3302908-FF16B4FC28C4441C898BA944E0F33ACE","ind_status":"AT"},"geometry":{"type":"Polygon","coordinates":[[[-43.3849,-22.4788],[-43.3832,-22.4738],[-43.3849,-22.4791],[-43.3756,-22.4756],[-43.3849,-22.4791],[-43.3849,-22.4788]]]}},{"type":"Feature","properties":{"cod_tema":"RIO_ATE_10","cod_imovel":"RJ-3302908-4F2A5E02B536439B92E2D802B0A3AF72","ind_status":"AT"},"geometry":{"type":"Polygon","coordinates":[[[-43.6612,-22.6251],[-43.6598,-22.6282],[-43.6615,-22.6246],[-43.6612,-22.6251]],[[-43.6656,-22.6271],[-43.6582,-22.6165],[-43.6661,-22.6275],[-43.6656,-22.6271]]]}},{"type":"Feature","properties":{"cod_tema":"RIO_ATE_10","cod_imovel":"RJ-3302908-237388EA4C454D329107D2074999243C","ind_status":"AT"},"geometry":{"type":"Polygon","coordinates":[[[-43.3991,-22.5076],[-43.3941,-22.5037],[-43.3983,-22.5073],[-43.3907,-22.5093],[-43.399,-22.5079],[-43.3991,-22.5076]],[[-43.3914,-22.5091],[-43.3963,-22.5084],[-43.3917,-22.5093],[-43.3914,-22.5091]],[[-43.3921,-22.5116],[-43.3986,-22.5076],[-43.3921,-22.5116],[-43.3921,-22.5116]]]}},{"type":"Feature","properties":{"cod_tema":"RIO_ATE_10","cod_imovel":"RJ-3302908-7C6DF986F7764DA9B4C9AD115577324A","ind_status":"AT"},"geometry":{"type":"Polygon","coordinates":[[[-43.3037,-22.4635],[-43.3031,-22.4688],[-43.3037,-22.4635],[-43.3037,-22.4635]]]}},{"type":"Feature","properties":{"cod_tema":"RIO_ATE_10","cod_imovel":"RJ-3302908-5C07BC2AF75C4435A3865C0823FFFDD0","ind_status":"AT"},"geometry":{"type":"Polygon","coordinates":[[[-43.3273,-22.4691],[-43.3293,-22.4716],[-43.3265,-22.4687],[-43.3273,-22.4691]]]}},{"type":"Feature","properties":{"cod_tema":"RIO_ATE_10","cod_imovel":"RJ-3302908-AFEE69666519431981A07532ED424E01","ind_status":"AT"},"geometry":{"type":"Polygon","coordinates":[[[-43.3476,-22.4551],[-43.3457,-22.4575],[-43.348,-22.4546],[-43.3476,-22.4551]]]}},{"type":"Feature","properties":{"cod_tema":"RIO_ATE_10","cod_imovel":"RJ-3302908-44736274711B483494EB265BD94E1385","ind_status":"AT"},"geometry":{"type":"Polygon","coordinates":[[[-43.5135,-22.4485],[-43.51,-22.4495],[-43.5145,-22.4483],[-43.5135,-22.4485]]]}},{"type":"Feature","properties":{"cod_tema":"RIO_ATE_10","cod_imovel":"RJ-3302908-CC97664E27564CBD8ED30A4AEB243404","ind_status":"AT"},"geometry":{"type":"Polygon","coordinates":[[[-43.4457,-22.4704],[-43.4361,-22.4633],[-43.4461,-22.4704],[-43.4457,-22.4704]]]}},{"type":"Feature","properties":{"cod_tema":"RIO_ATE_10","cod_imovel":"RJ-3302908-CC97664E27564CBD8ED30A4AEB243404","ind_status":"AT"},"geometry":{"type":"Polygon","coordinates":[[[-43.4442,-22.4647],[-43.44,-22.4651],[-43.4444,-22.4647],[-43.4442,-22.4647]]]}},{"type":"Feature","properties":{"cod_tema":"RIO_ATE_10","cod_imovel":"RJ-3302908-CC97664E27564CBD8ED30A4AEB243404","ind_status":"AT"},"geometry":{"type":"Polygon","coordinates":[[[-43.4432,-22.4626],[-43.4399,-22.4645],[-43.4432,-22.4626],[-43.4432,-22.4626]]]}},{"type":"Feature","properties":{"cod_tema":"RIO_ATE_10","cod_imovel":"RJ-3302908-CC97664E27564CBD8ED30A4AEB243404","ind_status":"AT"},"geometry":{"type":"Polygon","coordinates":[[[-43.4344,-22.4664],[-43.4324,-22.4637],[-43.4345,-22.4668],[-43.4344,-22.4664]]]}},{"type":"Feature","properties":{"cod_tema":"RIO_ATE_10","cod_imovel":"RJ-3302908-222501A543AA44B787DF15F0938FF9CD","ind_status":"AT"},"geometry":{"type":"Polygon","coordinates":[[[-43.4121,-22.4819],[-43.4253,-22.4844],[-43.4115,-22.4818],[-43.4121,-22.4819]]]}},{"type":"Feature","properties":{"cod_tema":"RIO_ATE_10","cod_imovel":"RJ-3302908-C8756E68F5814244820BD52A1392FD34","ind_status":"AT"},"geometry":{"type":"Polygon","coordinates":[[[-43.535,-22.4664],[-43.5211,-22.4613],[-43.5333,-22.466],[-43.5302,-22.4696],[-43.535,-22.4664],[-43.535,-22.4664]],[[-43.528,-22.4682],[-43.5304,-22.4658],[-43.5279,-22.4685],[-43.528,-22.4682]],[[-43.5334,-22.465],[-43.5316,-22.4603],[-43.5334,-22.466],[-43.5334,-22.465]]]}},{"type":"Feature","properties":{"cod_tema":"RIO_ATE_10","cod_imovel":"RJ-3302908-77DB011EB2644ECEB4EDF79C38388E15","ind_status":"AT"},"geometry":{"type":"Polygon","coordinates":[[[-43.3722,-22.486],[-43.3798,-22.4852],[-43.3686,-22.4867],[-43.3722,-22.486]]]}},{"type":"Feature","properties":{"cod_tema":"RIO_ATE_10","cod_imovel":"RJ-3302908-4C629866D17245A3A0640EE2CFAD8728","ind_status":"AT"},"geometry":{"type":"Polygon","coordinates":[[[-43.4506,-22.4885],[-43.455,-22.4898],[-43.4495,-22.4886],[-43.4506,-22.4843],[-43.4414,-22.4876],[-43.4503,-22.4885],[-43.4506,-22.4885]],[[-43.458,-22.4786],[-43.4526,-22.4829],[-43.452,-22.4797],[-43.4543,-22.4866],[-43.4536,-22.4803],[-43.458,-22.4786],[-43.458,-22.4786]]]}},{"type":"Feature","properties":{"cod_tema":"RIO_ATE_10","cod_imovel":"RJ-3302908-967F9810BF60449AAA816AB5E6B1A7FB","ind_status":"AT"},"geometry":{"type":"Polygon","coordinates":[[[-43.3686,-22.4866],[-43.3485,-22.4894],[-43.3414,-22.481],[-43.3484,-22.4894],[-43.3324,-22.4902],[-43.339,-22.4951],[-43.3372,-22.4912],[-43.348,-22.4897],[-43.3452,-22.4954],[-43.348,-22.4897],[-43.3569,-22.4889],[-43.3528,-22.4967],[-43.3572,-22.4988],[-43.3529,-22.4967],[-43.3592,-22.4955],[-43.3548,-22.4937],[-43.3562,-22.4893],[-43.3686,-22.4866],[-43.3686,-22.4866]]]}},{"type":"Feature","properties":{"cod_tema":"RIO_ATE_10","cod_imovel":"RJ-3302908-90EA4A0BAC8F496280DE962D89E549B4","ind_status":"AT"},"geometry":{"type":"Polygon","coordinates":[[[-43.5205,-22.4674],[-43.5165,-22.4709],[-43.5205,-22.4674],[-43.5205,-22.4674]],[[-43.5158,-22.4652],[-43.5134,-22.4688],[-43.5189,-22.4617],[-43.5158,-22.4649],[-43.5158,-22.4652]]]}},{"type":"Feature","properties":{"cod_tema":"RIO_ATE_10","cod_imovel":"RJ-3302908-C644FEABE44D4A37A8EE19B1F163C1C2","ind_status":"AT"},"geometry":{"type":"Polygon","coordinates":[[[-43.589,-22.5293],[-43.5805,-22.5363],[-43.589,-22.5298],[-43.589,-22.5293]]]}},{"type":"Feature","properties":{"cod_tema":"RIO_10_A_50","cod_imovel":"RJ-3302908-C644FEABE44D4A37A8EE19B1F163C1C2","ind_status":"AT"},"geometry":{"type":"Polygon","coordinates":[[[-43.5856,-22.5437],[-43.5814,-22.5406],[-43.5855,-22.5434],[-43.5856,-22.5437]]]}},{"type":"Feature","properties":{"cod_tema":"RIO_ATE_10","cod_imovel":"RJ-3302908-AD4810A9CCB74EC0A7C3B87C4895C535","ind_status":"AT"},"geometry":{"type":"Polygon","coordinates":[[[-43.6154,-22.5855],[-43.6296,-22.5925],[-43.6658,-22.6273],[-43.6648,-22.6216],[-43.6299,-22.592],[-43.6149,-22.5845],[-43.6124,-22.5806],[-43.617,-22.5722],[-43.608,-22.5627],[-43.6164,-22.5723],[-43.6118,-22.5805],[-43.6152,-22.5853],[-43.6154,-22.5855]]]}},{"type":"Feature","properties":{"cod_tema":"RIO_ATE_10","cod_imovel":"RJ-3302908-4D92FD8DDB94437DBA85630792F5128C","ind_status":"AT"},"geometry":{"type":"Polygon","coordinates":[[[-43.6357,-22.603],[-43.6291,-22.6007],[-43.6356,-22.603],[-43.6288,-22.6043],[-43.6297,-22.6087],[-43.6199,-22.6042],[-43.618,-22.6075],[-43.6327,-22.6058],[-43.6299,-22.6124],[-43.6357,-22.603],[-43.6357,-22.603]],[[-43.6281,-22.5992],[-43.6245,-22.5961],[-43.6236,-22.6006],[-43.6277,-22.5972],[-43.623,-22.6019],[-43.6273,-22.6006],[-43.6234,-22.6043],[-43.6281,-22.5992],[-43.6281,-22.5992]],[[-43.6317,-22.5984],[-43.6284,-22.5991],[-43.6317,-22.5985],[-43.6317,-22.5984]],[[-43.6403,-22.6049],[-43.632,-22.6103],[-43.6351,-22.6081],[-43.6356,-22.6179],[-43.6339,-22.61],[-43.6359,-22.6077],[-43.6367,-22.6125],[-43.6403,-22.6049],[-43.6403,-22.6049]],[[-43.6437,-22.6125],[-43.6424,-22.6078],[-43.6373,-22.6156],[-43.6406,-22.614],[-43.6427,-22.6206],[-43.6404,-22.6135],[-43.6437,-22.6126],[-43.6437,-22.6125]],[[-43.6497,-22.6147],[-43.6487,-22.6109],[-43.6425,-22.615],[-43.6469,-22.6136],[-43.6446,-22.6184],[-43.6497,-22.6146],[-43.6497,-22.6147]],[[-43.6491,-22.6167],[-43.6536,-22.6152],[-43.6477,-22.6162],[-43.6453,-22.625],[-43.6491,-22.6167],[-43.6491,-22.6167]],[[-43.6557,-22.6219],[-43.6564,-22.6184],[-43.6489,-22.6274],[-43.6557,-22.6219],[-43.6557,-22.6219]],[[-43.6535,-22.6173],[-43.6497,-22.6184],[-43.6535,-22.6173],[-43.6535,-22.6173]],[[-43.6516,-22.6302],[-43.6534,-22.6327],[-43.6516,-22.6302],[-43.6516,-22.6302]],[[-43.6587,-22.6285],[-43.6527,-22.6246],[-43.6579,-22.628],[-43.6541,-22.6317],[-43.6587,-22.6285],[-43.6587,-22.6285]],[[-43.6592,-22.6234],[-43.6552,-22.6225],[-43.6592,-22.6234],[-43.6592,-22.6234]],[[-43.6588,-22.6231],[-43.6554,-22.6248],[-43.6588,-22.6231],[-43.6588,-22.6231]]]}},{"type":"Feature","properties":{"cod_tema":"RIO_ATE_10","cod_imovel":"RJ-3302908-AE983FB03BAE42A9B32833247D8CCD4D","ind_status":"AT"},"geometry":{"type":"Polygon","coordinates":[[[-43.4443,-22.5205],[-43.437,-22.5181],[-43.4446,-22.5206],[-43.4443,-22.5205]],[[-43.4446,-22.523],[-43.4483,-22.5221],[-43.4446,-22.5232],[-43.4446,-22.523]],[[-43.4468,-22.5171],[-43.4468,-22.5138],[-43.4466,-22.5174],[-43.4468,-22.5171]],[[-43.4572,-22.5169],[-43.4566,-22.5123],[-43.4633,-22.516],[-43.4545,-22.5106],[-43.4495,-22.5191],[-43.4539,-22.5145],[-43.4573,-22.517],[-43.4572,-22.5169]]]}},{"type":"Feature","properties":{"cod_tema":"RIO_ATE_10","cod_imovel":"RJ-3302908-DDEB2F9AB50F42528C37E49DB8E5EA37","ind_status":"AT"},"geometry":{"type":"Polygon","coordinates":[[[-43.4667,-22.5011],[-43.4582,-22.5086],[-43.4667,-22.5011],[-43.4667,-22.5011]],[[-43.4607,-22.5044],[-43.466,-22.5002],[-43.4607,-22.5044],[-43.4607,-22.5044]],[[-43.4616,-22.5095],[-43.4687,-22.501],[-43.4616,-22.5096],[-43.4616,-22.5095]],[[-43.4673,-22.5057],[-43.4623,-22.5115],[-43.4702,-22.5015],[-43.4673,-22.5057],[-43.4673,-22.5057]],[[-43.4689,-22.5125],[-43.4753,-22.5032],[-43.4648,-22.5126],[-43.4688,-22.5125],[-43.4689,-22.5125]],[[-43.4719,-22.5024],[-43.4697,-22.5054],[-43.4719,-22.5024],[-43.4719,-22.5024]],[[-43.4778,-22.504],[-43.4739,-22.5084],[-43.4778,-22.504],[-43.4778,-22.504]]]}},{"type":"Feature","properties":{"cod_tema":"RIO_ATE_10","cod_imovel":"RJ-3302908-EFAE884D94F04D66AA83CD4E689A289E","ind_status":"AT"},"geometry":{"type":"Polygon","coordinates":[[[-43.426,-22.494],[-43.4227,-22.4977],[-43.4257,-22.4944],[-43.426,-22.494]],[[-43.4208,-22.4964],[-43.423,-22.4938],[-43.4209,-22.496],[-43.4208,-22.4964]],[[-43.4212,-22.4919],[-43.4263,-22.4938],[-43.4216,-22.4923],[-43.4212,-22.4919]]]}},{"type":"Feature","properties":{"cod_tema":"RIO_ATE_10","cod_imovel":"RJ-3302908-7444885DEB354CD384FA9B89FD7A297D","ind_status":"AT"},"geometry":{"type":"Polygon","coordinates":[[[-43.3068,-22.4661],[-43.3261,-22.4725],[-43.3068,-22.4661],[-43.3068,-22.4661]]]}},{"type":"Feature","properties":{"cod_tema":"RIO_10_A_50","cod_imovel":"RJ-3302908-644D1C1937D34E90824E725CCBEF1209","ind_status":"AT"},"geometry":{"type":"Polygon","coordinates":[[[-43.6179,-22.5858],[-43.6324,-22.5954],[-43.6146,-22.5845],[-43.615,-22.5762],[-43.6121,-22.5807],[-43.6178,-22.5858],[-43.6179,-22.5858]]]}},{"type":"Feature","properties":{"cod_tema":"RIO_ATE_10","cod_imovel":"RJ-3302908-C9231219AEB540AB968CAAEE1B7C20D1","ind_status":"PE"},"geometry":{"type":"Polygon","coordinates":[[[-43.4002,-22.5087],[-43.3958,-22.513],[-43.4005,-22.509],[-43.4002,-22.5087]],[[-43.4061,-22.5016],[-43.402,-22.5059],[-43.3989,-22.5031],[-43.4021,-22.506],[-43.4061,-22.5016],[-43.4061,-22.5016]]]}},{"type":"Feature","properties":{"cod_tema":"RIO_ATE_10","cod_imovel":"RJ-3302908-3CEA89DE118A45FF836453AC3BA3A57E","ind_status":"AT"},"geometry":{"type":"Polygon","coordinates":[[[-43.4778,-22.4636],[-43.4789,-22.4684],[-43.4791,-22.4592],[-43.4755,-22.4678],[-43.4778,-22.4636],[-43.4778,-22.4636]]]}},{"type":"Feature","properties":{"cod_tema":"RIO_ATE_10","cod_imovel":"RJ-3303856-CF3F1CCEA78A448F8A72AF27D5820872","ind_status":"AT"},"geometry":{"type":"Polygon","coordinates":[[[-43.4523,-22.4394],[-43.4514,-22.4331],[-43.4528,-22.4402],[-43.4523,-22.4394]],[[-43.4502,-22.4297],[-43.4519,-22.4259],[-43.4496,-22.4301],[-43.4502,-22.4297]],[[-43.4542,-22.438],[-43.4444,-22.4438],[-43.4511,-22.443],[-43.4551,-22.4361],[-43.4542,-22.438]]]}},{"type":"Feature","properties":{"cod_tema":"RIO_ATE_10","cod_imovel":"RJ-3302908-0BE6A39B75424803A4817DE7F7019709","ind_status":"AT"},"geometry":{"type":"Polygon","coordinates":[[[-43.3612,-22.4539],[-43.3571,-22.451],[-43.3612,-22.4539],[-43.3612,-22.4539]]]}},{"type":"Feature","properties":{"cod_tema":"RIO_ATE_10","cod_imovel":"RJ-3302908-F3C14EA97E174B03B6D10314CB4F2666","ind_status":"AT"},"geometry":{"type":"Polygon","coordinates":[[[-43.3486,-22.4501],[-43.3462,-22.4464],[-43.3486,-22.4507],[-43.3486,-22.4501]]]}}]}