{"type":"FeatureCollection","features":[{"type":"Feature","properties":{"cod_tema":"RIO_ATE_10","cod_imovel":"RJ-3303807-F6DBEAD208A24CB08DE32A44C9D6F129","ind_status":"AT"},"geometry":{"type":"Polygon","coordinates":[[[-44.7817,-22.9808],[-44.7809,-22.9908],[-44.781,-22.9789],[-44.7817,-22.9808]]]}},{"type":"Feature","properties":{"cod_tema":"RIO_10_A_50","cod_imovel":"RJ-3303807-17DA118A706942C0B1D7693C308B5131","ind_status":"AT"},"geometry":{"type":"Polygon","coordinates":[[[-44.7345,-22.9934],[-44.7606,-23.0108],[-44.7628,-23.0255],[-44.7608,-23.0107],[-44.7346,-22.9933],[-44.7345,-22.9934]]]}},{"type":"Feature","properties":{"cod_tema":"RIO_ATE_10","cod_imovel":"RJ-3303807-0498D2629F2D4FDAB825D84ED7075B5A","ind_status":"AT"},"geometry":{"type":"Polygon","coordinates":[[[-44.6596,-22.9284],[-44.6737,-22.9186],[-44.6873,-22.9369],[-44.7013,-22.9334],[-44.6874,-22.9369],[-44.6737,-22.9185],[-44.6587,-22.9282],[-44.6596,-22.9284]]]}},{"type":"Feature","properties":{"cod_tema":"RIO_ATE_10","cod_imovel":"RJ-3303807-40840A66E24747FAA6E16059DD528700","ind_status":"AT"},"geometry":{"type":"Polygon","coordinates":[[[-44.7512,-23.3454],[-44.7502,-23.3507],[-44.7513,-23.3455],[-44.7512,-23.3454]]]}},{"type":"Feature","properties":{"cod_tema":"RIO_ATE_10","cod_imovel":"RJ-3303807-64A29C81C0EC4546B5F2D196ECAEBCE1","ind_status":"AT"},"geometry":{"type":"Polygon","coordinates":[[[-44.715,-23.1581],[-44.712,-23.1586],[-44.7151,-23.1581],[-44.715,-23.1581]]]}},{"type":"Feature","properties":{"cod_tema":"RIO_ATE_10","cod_imovel":"RJ-3303807-1DA6D65915A94F97B4723323C6BBB310","ind_status":"AT"},"geometry":{"type":"Polygon","coordinates":[[[-44.6856,-23.2819],[-44.6826,-23.2838],[-44.6856,-23.282],[-44.6856,-23.2819]]]}},{"type":"Feature","properties":{"cod_tema":"RIO_ATE_10","cod_imovel":"RJ-3303807-0088EC53A2D64EFF825013F0C885340B","ind_status":"AT"},"geometry":{"type":"Polygon","coordinates":[[[-44.7022,-23.2501],[-44.7016,-23.2465],[-44.7042,-23.2504],[-44.7022,-23.2501]]]}},{"type":"Feature","properties":{"cod_tema":"RIO_ATE_10","cod_imovel":"RJ-3303807-0A676B38421B4CF8871348E7A6EA2C4F","ind_status":"AT"},"geometry":{"type":"Polygon","coordinates":[[[-44.7322,-23.1087],[-44.7267,-23.1106],[-44.7323,-23.1086],[-44.7322,-23.1087]]]}},{"type":"Feature","properties":{"cod_tema":"RIO_10_A_50","cod_imovel":"RJ-3303807-16C07E21B0484B069935355F40869FCE","ind_status":"AT"},"geometry":{"type":"Polygon","coordinates":[[[-44.7796,-23.1592],[-44.7727,-23.1625],[-44.7798,-23.1598],[-44.7796,-23.1592]]]}},{"type":"Feature","properties":{"cod_tema":"RIO_ATE_10","cod_imovel":"RJ-3303807-1957CB54799E453897F4A3DE89DECA2D","ind_status":"AT"},"geometry":{"type":"Polygon","coordinates":[[[-44.7427,-23.204],[-44.7391,-23.2045],[-44.7429,-23.2039],[-44.7427,-23.204]]]}},{"type":"Feature","properties":{"cod_tema":"RIO_ATE_10","cod_imovel":"RJ-3303807-1DACB9192D774C298F74965B235C97F1","ind_status":"AT"},"geometry":{"type":"Polygon","coordinates":[[[-44.743,-23.0856],[-44.7345,-23.0871],[-44.7436,-23.0851],[-44.743,-23.0856]],[[-44.7358,-23.088],[-44.7436,-23.0882],[-44.7348,-23.0879],[-44.7358,-23.088]],[[-44.7355,-23.0869],[-44.7436,-23.0841],[-44.7347,-23.0869],[-44.7355,-23.0869]]]}},{"type":"Feature","properties":{"cod_tema":"RIO_ATE_10","cod_imovel":"RJ-3303807-1AE45E24CE2346F6B78F8E460B92AF2F","ind_status":"AT"},"geometry":{"type":"Polygon","coordinates":[[[-44.6697,-23.2679],[-44.6667,-23.2661],[-44.6716,-23.2685],[-44.6697,-23.2679]]]}},{"type":"Feature","properties":{"cod_tema":"RIO_ATE_10","cod_imovel":"RJ-3303807-21C32B9136AC415CBF189B4556504F53","ind_status":"AT"},"geometry":{"type":"Polygon","coordinates":[[[-44.69,-23.28],[-44.6914,-23.2827],[-44.6896,-23.2794],[-44.69,-23.28]]]}},{"type":"Feature","properties":{"cod_tema":"RIO_ATE_10","cod_imovel":"RJ-3303807-3372B1EC6A2940E7A6A0F4CC98BCB5F6","ind_status":"AT"},"geometry":{"type":"Polygon","coordinates":[[[-44.5762,-23.0452],[-44.5826,-23.0401],[-44.5761,-23.0452],[-44.5762,-23.0452]]]}},{"type":"Feature","properties":{"cod_tema":"RIO_ATE_10","cod_imovel":"RJ-3303807-39AA0EAE3CB4401FB934BB81CC95B4AA","ind_status":"AT"},"geometry":{"type":"Polygon","coordinates":[[[-44.7258,-23.0854],[-44.731,-23.0802],[-44.7256,-23.0857],[-44.7258,-23.0854]]]}},{"type":"Feature","properties":{"cod_tema":"RIO_ATE_10","cod_imovel":"RJ-3303807-3E6055B769814444A04767E75707E405","ind_status":"AT"},"geometry":{"type":"Polygon","coordinates":[[[-44.6858,-23.2811],[-44.6823,-23.2838],[-44.6858,-23.2811],[-44.6858,-23.2811]]]}},{"type":"Feature","properties":{"cod_tema":"RIO_ATE_10","cod_imovel":"RJ-3303807-42A8AAED98014411907F7796C38F94E8","ind_status":"AT"},"geometry":{"type":"Polygon","coordinates":[[[-44.7409,-23.3037],[-44.7393,-23.3087],[-44.7402,-23.3024],[-44.7409,-23.3037]]]}},{"type":"Feature","properties":{"cod_tema":"RIO_ATE_10","cod_imovel":"RJ-3303807-5577B0FA0B064B22AD6320476E6A0365","ind_status":"AT"},"geometry":{"type":"Polygon","coordinates":[[[-44.5638,-23.0224],[-44.5595,-23.0241],[-44.564,-23.0222],[-44.5638,-23.0224]]]}},{"type":"Feature","properties":{"cod_tema":"RIO_ATE_10","cod_imovel":"RJ-3303807-5EA90911999C4147A59899EA2B297B23","ind_status":"AT"},"geometry":{"type":"Polygon","coordinates":[[[-44.7746,-23.2424],[-44.7672,-23.2404],[-44.7761,-23.2434],[-44.7746,-23.2424]]]}},{"type":"Feature","properties":{"cod_tema":"RIO_ATE_10","cod_imovel":"RJ-3303807-6369011A1276463D9D7FDDDCFD7FA86F","ind_status":"AT"},"geometry":{"type":"Polygon","coordinates":[[[-44.7372,-23.3531],[-44.7315,-23.358],[-44.7386,-23.3524],[-44.7372,-23.3531]]]}},{"type":"Feature","properties":{"cod_tema":"RIO_ATE_10","cod_imovel":"RJ-3303807-67BB5C452966410A93A56D41635BB39D","ind_status":"AT"},"geometry":{"type":"Polygon","coordinates":[[[-44.6815,-23.0335],[-44.6868,-23.0338],[-44.6811,-23.0334],[-44.6815,-23.0335]]]}},{"type":"Feature","properties":{"cod_tema":"RIO_ATE_10","cod_imovel":"RJ-3303807-6E0D5718982445E3826DAE651874B32B","ind_status":"AT"},"geometry":{"type":"Polygon","coordinates":[[[-44.7128,-23.1577],[-44.7109,-23.161],[-44.7129,-23.1575],[-44.7128,-23.1577]]]}},{"type":"Feature","properties":{"cod_tema":"RIO_ATE_10","cod_imovel":"RJ-3303807-7048E312F8E24B9CB9BEF51D949B8804","ind_status":"AT"},"geometry":{"type":"Polygon","coordinates":[[[-44.7786,-23.2307],[-44.7736,-23.2297],[-44.7786,-23.2307],[-44.7786,-23.2307]]]}},{"type":"Feature","properties":{"cod_tema":"RIO_ATE_10","cod_imovel":"RJ-3303807-718006B492864DB9A382BC0C1DD4C3F6","ind_status":"AT"},"geometry":{"type":"Polygon","coordinates":[[[-44.7897,-23.023],[-44.7923,-23.0254],[-44.7895,-23.0226],[-44.7897,-23.023]]]}},{"type":"Feature","properties":{"cod_tema":"RIO_ATE_10","cod_imovel":"RJ-3303807-741975534E0B4DBCB517AE4AB9733ED8","ind_status":"AT"},"geometry":{"type":"Polygon","coordinates":[[[-44.837,-23.1771],[-44.8326,-23.1755],[-44.8373,-23.1774],[-44.837,-23.1771]],[[-44.8384,-23.1788],[-44.8327,-23.1802],[-44.8387,-23.1793],[-44.8384,-23.1788]]]}},{"type":"Feature","properties":{"cod_tema":"RIO_ATE_10","cod_imovel":"RJ-3303807-7E95F7545C17471ABDA731B7647B8495","ind_status":"AT"},"geometry":{"type":"Polygon","coordinates":[[[-44.723,-23.0888],[-44.7343,-23.0884],[-44.7226,-23.0889],[-44.723,-23.0888]]]}},{"type":"Feature","properties":{"cod_tema":"RIO_ATE_10","cod_imovel":"RJ-3303807-7E95F7545C17471ABDA731B7647B8495","ind_status":"AT"},"geometry":{"type":"Polygon","coordinates":[[[-44.7236,-23.0847],[-44.7231,-23.088],[-44.7234,-23.0842],[-44.7236,-23.0847]]]}},{"type":"Feature","properties":{"cod_tema":"RIO_ATE_10","cod_imovel":"RJ-3303807-7FFA863297914307A17B19A26AF98884","ind_status":"AT"},"geometry":{"type":"Polygon","coordinates":[[[-44.6785,-23.2849],[-44.6727,-23.2821],[-44.6785,-23.2849],[-44.6785,-23.2849]]]}},{"type":"Feature","properties":{"cod_tema":"RIO_ATE_10","cod_imovel":"RJ-3303807-856F92A831874E42B86B3712AEE43D73","ind_status":"AT"},"geometry":{"type":"Polygon","coordinates":[[[-44.7118,-23.0698],[-44.7086,-23.0697],[-44.7118,-23.0697],[-44.7118,-23.0698]]]}},{"type":"Feature","properties":{"cod_tema":"RIO_ATE_10","cod_imovel":"RJ-3303807-9005B31E8BEF48FBA85A25A691E60EB1","ind_status":"AT"},"geometry":{"type":"Polygon","coordinates":[[[-44.7104,-23.2418],[-44.7073,-23.2449],[-44.7109,-23.2413],[-44.7104,-23.2418]]]}},{"type":"Feature","properties":{"cod_tema":"RIO_ATE_10","cod_imovel":"RJ-3303807-98A7FACE22F545EFB4A530AC5FAE9752","ind_status":"AT"},"geometry":{"type":"Polygon","coordinates":[[[-44.7998,-23.2346],[-44.7964,-23.2346],[-44.8118,-23.2362],[-44.8,-23.2344],[-44.7998,-23.2346]]]}},{"type":"Feature","properties":{"cod_tema":"RIO_10_A_50","cod_imovel":"RJ-3303807-A419E11B668A4E5FA95B7E9198C15624","ind_status":"AT"},"geometry":{"type":"Polygon","coordinates":[[[-44.7311,-23.0799],[-44.7328,-23.0756],[-44.7296,-23.078],[-44.7328,-23.0806],[-44.7311,-23.0799]]]}},{"type":"Feature","properties":{"cod_tema":"RIO_10_A_50","cod_imovel":"RJ-3303807-AFCF9084ACD0468EBC9D952D12EE6750","ind_status":"AT"},"geometry":{"type":"Polygon","coordinates":[[[-44.7993,-23.2122],[-44.7961,-23.2155],[-44.799,-23.2128],[-44.7993,-23.2122]]]}},{"type":"Feature","properties":{"cod_tema":"RIO_ATE_10","cod_imovel":"RJ-3303807-B01212270D5748E3869A030747341CCD","ind_status":"AT"},"geometry":{"type":"Polygon","coordinates":[[[-44.722,-23.0668],[-44.7176,-23.0683],[-44.7232,-23.0662],[-44.722,-23.0668]]]}},{"type":"Feature","properties":{"cod_tema":"RIO_ATE_10","cod_imovel":"RJ-3303807-B98DC7548B5E47E9B75EA585C6C21CD0","ind_status":"AT"},"geometry":{"type":"Polygon","coordinates":[[[-44.7508,-23.2757],[-44.7458,-23.2747],[-44.753,-23.2753],[-44.7508,-23.2757]]]}},{"type":"Feature","properties":{"cod_tema":"RIO_ATE_10","cod_imovel":"RJ-3303807-CACF58AE4A084E70926AB20A5EA86BFC","ind_status":"AT"},"geometry":{"type":"Polygon","coordinates":[[[-44.7785,-23.2423],[-44.781,-23.2388],[-44.7785,-23.2423],[-44.7785,-23.2423]]]}},{"type":"Feature","properties":{"cod_tema":"RIO_ATE_10","cod_imovel":"RJ-3303807-DBF2AC578B8145888BAD517183E085AA","ind_status":"AT"},"geometry":{"type":"Polygon","coordinates":[[[-44.8211,-23.2021],[-44.8206,-23.2058],[-44.8202,-23.2014],[-44.8211,-23.2021]],[[-44.8226,-23.2051],[-44.8221,-23.2106],[-44.8231,-23.2034],[-44.8226,-23.2051]]]}},{"type":"Feature","properties":{"cod_tema":"RIO_ATE_10","cod_imovel":"RJ-3303807-DCF8CF3A6BE7446EAA90A681569E892E","ind_status":"AT"},"geometry":{"type":"Polygon","coordinates":[[[-44.7497,-23.3392],[-44.7431,-23.3358],[-44.751,-23.3398],[-44.7497,-23.3392]]]}},{"type":"Feature","properties":{"cod_tema":"RIO_ATE_10","cod_imovel":"RJ-3303807-E7D3BED57F5D4F39B2AE9B9B33F1EE8F","ind_status":"AT"},"geometry":{"type":"Polygon","coordinates":[[[-44.7762,-23.243],[-44.7728,-23.2413],[-44.7785,-23.2427],[-44.7762,-23.243]]]}},{"type":"Feature","properties":{"cod_tema":"RIO_ATE_10","cod_imovel":"RJ-3303807-EE07848739C4415D99306A1064F016A9","ind_status":"AT"},"geometry":{"type":"Polygon","coordinates":[[[-44.8111,-23.2458],[-44.8062,-23.2463],[-44.8128,-23.2454],[-44.8111,-23.2458]],[[-44.809,-23.2552],[-44.8049,-23.2543],[-44.8106,-23.2553],[-44.809,-23.2552]]]}},{"type":"Feature","properties":{"cod_tema":"RIO_10_A_50","cod_imovel":"RJ-3303807-F1BF1E6DC30244C1A68120C0ED46098C","ind_status":"AT"},"geometry":{"type":"Polygon","coordinates":[[[-44.6936,-23.2523],[-44.6897,-23.2545],[-44.6927,-23.2527],[-44.6936,-23.2523]]]}},{"type":"Feature","properties":{"cod_tema":"RIO_ATE_10","cod_imovel":"RJ-3303807-F83896DFFF784B8A996988C74B00E6AA","ind_status":"AT"},"geometry":{"type":"Polygon","coordinates":[[[-44.7842,-23.1992],[-44.7775,-23.2049],[-44.7744,-23.2014],[-44.7781,-23.2099],[-44.7768,-23.2052],[-44.7842,-23.1992],[-44.7842,-23.1992]]]}},{"type":"Feature","properties":{"cod_tema":"RIO_ATE_10","cod_imovel":"RJ-3303807-FF3C0A9028324B30B3B420BDADF7887E","ind_status":"AT"},"geometry":{"type":"Polygon","coordinates":[[[-44.7539,-23.2232],[-44.7568,-23.2211],[-44.7538,-23.2229],[-44.7539,-23.2232]]]}},{"type":"Feature","properties":{"cod_tema":"RIO_10_A_50","cod_imovel":"RJ-3303807-08DCD8DEDA4C45DEBB55FC621C12F152","ind_status":"AT"},"geometry":{"type":"Polygon","coordinates":[[[-44.7888,-23.2236],[-44.7846,-23.2234],[-44.7887,-23.2239],[-44.7888,-23.2236]]]}},{"type":"Feature","properties":{"cod_tema":"RIO_ATE_10","cod_imovel":"RJ-3303807-F7FD9AF2CE294DA98ED688030813536A","ind_status":"AT"},"geometry":{"type":"Polygon","coordinates":[[[-44.6339,-23.2078],[-44.6365,-23.2106],[-44.6339,-23.2078],[-44.6339,-23.2078]]]}},{"type":"Feature","properties":{"cod_tema":"RIO_ATE_10","cod_imovel":"RJ-3303807-67511961AB40486FB3038505DDE8945D","ind_status":"PE"},"geometry":{"type":"Polygon","coordinates":[[[-104.6428,-23.2411],[-104.1295,-15.4095],[-102.8368,-8.6639],[-100.4363,-1.1927],[-98.4551,3.2966],[-94.5309,10.0935],[-89.7531,16.32],[-84.2034,21.8697],[-77.9769,26.6474],[-71.18,30.5716],[-63.929,33.5751],[-56.3481,35.6064],[-48.5669,36.6308],[-40.7185,36.6308],[-32.9361,35.6062],[-25.3551,33.5749],[-18.1042,30.5714],[-11.3072,26.6472],[-5.0807,21.8694],[-0.1903,17.0472],[4.688,10.9005],[8.7224,4.1696],[11.8436,-3.0303],[13.9984,-10.576],[15.1499,-18.3384],[15.2783,-26.1847],[14.4671,-33.506],[13.4031,-38.4302],[11.152,-45.2897],[7.7968,-52.3835],[3.5444,-58.9788],[-0.1477,-63.4933],[-5.0811,-68.3523],[-11.3077,-73.1301],[-18.1046,-77.0543],[-25.3555,-80.0578],[-32.9365,-82.0891],[-40.7177,-83.1135],[-48.5661,-83.1135],[-56.3473,-82.0891],[-62.31,-80.5788],[-68.504,-78.2841],[-75.4843,-74.6987],[-81.9369,-70.2328],[-87.7514,-64.9628],[-92.8283,-58.979],[-96.3971,-53.5943],[-99.6851,-47.1028],[-102.3287,-39.7142],[-103.9854,-32.0438],[-104.6267,-24.2227],[-104.6428,-23.2411]],[[-104.6427,-23.2411],[-104.1294,-31.0727],[-102.5982,-38.7702],[-100.0754,-46.2021],[-96.6042,-53.2411],[-93.9717,-57.3832],[-89.0934,-63.5299],[-83.4544,-68.9873],[-77.1514,-73.6619],[-70.2921,-77.4739],[-63.3902,-80.2347],[-57.3069,-81.8817],[-49.5445,-83.0332],[-41.6983,-83.1616],[-33.9023,-82.2647],[-26.2902,-80.358],[-18.9921,-77.474],[-12.1328,-73.662],[-5.8298,-68.9874],[-0.8143,-64.2136],[2.9595,-59.7673],[7.3198,-53.2416],[10.7911,-46.2026],[13.3139,-38.7708],[14.2964,-34.4726],[15.23,-27.1652],[15.23,-19.3168],[14.2056,-11.5356],[12.1743,-3.9546],[9.1708,3.2963],[5.2466,10.0932],[0.4689,16.3197],[-4.3534,21.2101],[-10.5001,26.0885],[-17.2309,30.1228],[-24.4308,33.2441],[-31.9765,35.3989],[-39.74,36.5505],[-47.5863,36.6789],[-55.3822,35.782],[-62.9944,33.8753],[-70.2925,30.9913],[-77.1518,27.1793],[-83.4548,22.5047],[-89.0937,17.0473],[-93.9721,10.9006],[-98.0064,4.1698],[-100.0754,-0.2798],[-102.5982,-7.7116],[-104.0111,-14.5971],[-104.6266,-22.2595],[-104.6427,-23.2411]],[[-74.6428,-23.2411],[-74.0663,-17.388],[-72.3318,-11.7],[-70.6235,-8.2408],[-65.8559,-2.0275],[-59.6427,2.74],[-52.4072,5.737],[-44.6427,6.7593],[-36.8769,5.7368],[-29.6415,2.7398],[-23.4283,-2.0277],[-22.0863,-3.4606],[-17.7353,-9.9723],[-15.2179,-17.3883],[-14.7057,-25.2031],[-15.2109,-29.0511],[-16.2337,-32.8848],[-19.6975,-39.9088],[-23.4287,-44.4552],[-29.6419,-49.2227],[-36.8773,-52.2197],[-44.6419,-53.242],[-52.4065,-52.2197],[-57.911,-50.148],[-64.4227,-45.797],[-69.5864,-39.9089],[-72.3591,-34.7216],[-74.3861,-27.1569],[-74.6428,-23.2411]],[[-74.6427,-23.2411],[-74.386,-27.1569],[-73.6205,-31.0056],[-72.3591,-34.7216],[-70.6234,-38.2411],[-69.5863,-39.9089],[-67.1974,-43.0222],[-64.4226,-45.797],[-61.3094,-48.1859],[-57.9109,-50.148],[-54.2854,-51.6497],[-52.4065,-52.2197],[-48.5577,-52.9852],[-44.6419,-53.2419],[-40.7261,-52.9852],[-36.8773,-52.2197],[-33.1614,-50.9583],[-29.6419,-49.2226],[-26.3791,-47.0425],[-23.4287,-44.4551],[-22.0865,-43.022],[-19.6976,-39.9087],[-17.7355,-36.5103],[-16.2338,-32.8848],[-15.4897,-30.3241],[-15.2109,-29.0511],[-14.9342,-27.3746],[-14.7058,-25.2031],[-14.7058,-21.2789],[-15.218,-17.3883],[-16.2336,-13.5978],[-17.7354,-9.9723],[-19.6974,-6.5739],[-22.0863,-3.4606],[-23.1416,-2.3198],[-23.4283,-2.0278],[-26.3787,0.5596],[-29.6415,2.7397],[-33.161,4.4754],[-36.8769,5.7367],[-40.7269,6.5025],[-44.6427,6.7592],[-48.5584,6.5025],[-52.4072,5.737],[-56.1231,4.4756],[-59.6426,2.7399],[-62.9055,0.5598],[-65.8558,-2.0276],[-68.4432,-4.978],[-70.6234,-8.2408],[-71.5791,-10.0391],[-72.3317,-11.7],[-73.0505,-13.5976],[-74.0662,-17.3881],[-74.386,-19.3253],[-74.6427,-23.2411]],[[-44.65,-23.2417],[-44.6334,-23.2374],[-44.6374,-23.2416],[-44.6469,-23.2381],[-44.65,-23.2418],[-44.65,-23.2417]]]}},{"type":"Feature","properties":{"cod_tema":"RIO_ATE_10","cod_imovel":"RJ-3303807-85BB64EBA4304772B8C5EFDDE08BCB2E","ind_status":"AT"},"geometry":{"type":"Polygon","coordinates":[[[-44.684,-23.2872],[-44.6872,-23.2758],[-44.685,-23.2829],[-44.6782,-23.2838],[-44.6849,-23.283],[-44.6838,-23.2881],[-44.684,-23.2872]]]}},{"type":"Feature","properties":{"cod_tema":"RIO_ATE_10","cod_imovel":"RJ-3303807-6A26BA01239E424684CB652BC6D16840","ind_status":"AT"},"geometry":{"type":"Polygon","coordinates":[[[-44.8102,-23.2555],[-44.805,-23.2525],[-44.8095,-23.2552],[-44.8102,-23.2555]]]}},{"type":"Feature","properties":{"cod_tema":"RIO_ATE_10","cod_imovel":"RJ-3303807-DE9B59B0843A413B84FB931D69A34CE3","ind_status":"AT"},"geometry":{"type":"Polygon","coordinates":[[[-44.6822,-23.2746],[-44.6831,-23.2712],[-44.682,-23.2754],[-44.6822,-23.2746]]]}},{"type":"Feature","properties":{"cod_tema":"RIO_ATE_10","cod_imovel":"RJ-3303807-A0EE49C8A6B04354AF7E6212200650AF","ind_status":"AT"},"geometry":{"type":"Polygon","coordinates":[[[-44.7192,-23.3245],[-44.725,-23.3207],[-44.7184,-23.3251],[-44.7192,-23.3245]]]}},{"type":"Feature","properties":{"cod_tema":"RIO_10_A_50","cod_imovel":"RJ-3303807-A0EE49C8A6B04354AF7E6212200650AF","ind_status":"AT"},"geometry":{"type":"Polygon","coordinates":[[[-44.7166,-23.3216],[-44.7227,-23.3186],[-44.7182,-23.3211],[-44.7166,-23.3216]]]}},{"type":"Feature","properties":{"cod_tema":"RIO_ATE_10","cod_imovel":"RJ-3303807-1A447EFE9AA2497F85FB57CA4E97A4F6","ind_status":"AT"},"geometry":{"type":"Polygon","coordinates":[[[-44.6483,-23.1987],[-44.6444,-23.1958],[-44.6483,-23.1987],[-44.6483,-23.1987]]]}},{"type":"Feature","properties":{"cod_tema":"RIO_ATE_10","cod_imovel":"RJ-3303807-726532FD26994AE7B12AA9D07427FB39","ind_status":"AT"},"geometry":{"type":"Polygon","coordinates":[[[-44.7697,-23.0434],[-44.7607,-23.0227],[-44.7638,-23.0366],[-44.7707,-23.044],[-44.7697,-23.0434]]]}},{"type":"Feature","properties":{"cod_tema":"RIO_ATE_10","cod_imovel":"RJ-3303807-65F4E522224B42DEA849D30BBD602195","ind_status":"AT"},"geometry":{"type":"Polygon","coordinates":[[[-44.7269,-23.3134],[-44.7247,-23.3101],[-44.7269,-23.3134],[-44.7269,-23.3134]]]}},{"type":"Feature","properties":{"cod_tema":"RIO_ATE_10","cod_imovel":"RJ-3303807-7DFF970FE71341EFA984C02BF5FEEC2A","ind_status":"AT"},"geometry":{"type":"Polygon","coordinates":[[[-44.799,-23.2122],[-44.7968,-23.2144],[-44.799,-23.2118],[-44.799,-23.2122]]]}},{"type":"Feature","properties":{"cod_tema":"RIO_ATE_10","cod_imovel":"RJ-3303807-378F6BC8486541EA82E48F669CA3AEC2","ind_status":"AT"},"geometry":{"type":"Polygon","coordinates":[[[-44.7668,-23.3365],[-44.7602,-23.3227],[-44.7668,-23.3367],[-44.7668,-23.3365]]]}},{"type":"Feature","properties":{"cod_tema":"RIO_ATE_10","cod_imovel":"RJ-3303807-63929AD0A1C545288FC0165DD7D93176","ind_status":"AT"},"geometry":{"type":"Polygon","coordinates":[[[-44.7551,-23.3219],[-44.7581,-23.3207],[-44.755,-23.3221],[-44.7551,-23.3219]]]}},{"type":"Feature","properties":{"cod_tema":"RIO_ATE_10","cod_imovel":"RJ-3303807-63929AD0A1C545288FC0165DD7D93176","ind_status":"AT"},"geometry":{"type":"Polygon","coordinates":[[[-44.7565,-23.3228],[-44.7583,-23.3332],[-44.7561,-23.3225],[-44.7565,-23.3228]]]}},{"type":"Feature","properties":{"cod_tema":"RIO_ATE_10","cod_imovel":"RJ-3303807-3ED095759124438DA73830B3DF434D85","ind_status":"AT"},"geometry":{"type":"Polygon","coordinates":[[[-44.5811,-22.9744],[-44.5755,-22.9714],[-44.5812,-22.9747],[-44.5811,-22.9744]],[[-44.5796,-22.9755],[-44.5751,-22.9718],[-44.5798,-22.9756],[-44.5796,-22.9755]]]}},{"type":"Feature","properties":{"cod_tema":"RIO_ATE_10","cod_imovel":"RJ-3303807-A816C18094C04FB6AF6D9DCCD802FDE0","ind_status":"AT"},"geometry":{"type":"Polygon","coordinates":[[[-44.7087,-23.0451],[-44.7056,-23.05],[-44.7106,-23.0416],[-44.7087,-23.0451]]]}},{"type":"Feature","properties":{"cod_tema":"RIO_ATE_10","cod_imovel":"RJ-3303807-5C4DBBE7A91A450E97978470AED7941A","ind_status":"AT"},"geometry":{"type":"Polygon","coordinates":[[[-44.7886,-23.2848],[-44.7846,-23.2871],[-44.789,-23.284],[-44.7886,-23.2848]]]}},{"type":"Feature","properties":{"cod_tema":"RIO_ATE_10","cod_imovel":"RJ-3303807-B7A0BB2536344FD891428129853ABCF3","ind_status":"AT"},"geometry":{"type":"Polygon","coordinates":[[[-44.6975,-23.0673],[-44.6849,-23.0724],[-44.6977,-23.0671],[-44.6975,-23.0673]],[[-44.7141,-23.0543],[-44.6937,-23.0634],[-44.713,-23.0591],[-44.7067,-23.0553],[-44.7141,-23.0543],[-44.7141,-23.0543]],[[-44.7529,-23.0623],[-44.7391,-23.0621],[-44.7528,-23.0587],[-44.7459,-23.0579],[-44.7456,-23.0541],[-44.739,-23.0621],[-44.7298,-23.0591],[-44.7376,-23.054],[-44.7305,-23.0585],[-44.7263,-23.0549],[-44.7221,-23.0675],[-44.7146,-23.0577],[-44.7206,-23.0657],[-44.7169,-23.0706],[-44.7097,-23.0665],[-44.705,-23.0722],[-44.711,-23.064],[-44.6969,-23.0774],[-44.7104,-23.0709],[-44.7153,-23.0791],[-44.7159,-23.0708],[-44.7197,-23.0749],[-44.7229,-23.0678],[-44.7276,-23.073],[-44.7218,-23.0677],[-44.736,-23.0678],[-44.7225,-23.0669],[-44.7295,-23.0631],[-44.7422,-23.0663],[-44.7423,-23.0619],[-44.7529,-23.0623],[-44.7529,-23.0623]],[[-44.7885,-23.0709],[-44.7794,-23.0712],[-44.7824,-23.0658],[-44.7793,-23.0633],[-44.7769,-23.071],[-44.7772,-23.0604],[-44.777,-23.0647],[-44.773,-23.0607],[-44.7769,-23.071],[-44.7701,-23.0704],[-44.7719,-23.0638],[-44.7675,-23.0699],[-44.7679,-23.0628],[-44.7675,-23.0699],[-44.7583,-23.0704],[-44.7583,-23.0622],[-44.7582,-23.0704],[-44.7467,-23.0708],[-44.7473,-23.0668],[-44.7301,-23.078],[-44.7375,-23.0726],[-44.7445,-23.0726],[-44.7475,-23.0775],[-44.7427,-23.0722],[-44.7652,-23.0698],[-44.7805,-23.0762],[-44.7781,-23.0711],[-44.7889,-23.0791],[-44.7781,-23.0711],[-44.7885,-23.0709],[-44.7885,-23.0709]],[[-44.7505,-23.072],[-44.7529,-23.0763],[-44.7504,-23.0713],[-44.7505,-23.072]],[[-44.7712,-23.0593],[-44.7591,-23.0564],[-44.7647,-23.0613],[-44.7626,-23.0577],[-44.7713,-23.0594],[-44.7712,-23.0593]],[[-44.7615,-23.0748],[-44.7636,-23.0792],[-44.7614,-23.0745],[-44.7615,-23.0748]],[[-44.7729,-23.0741],[-44.7647,-23.0792],[-44.7748,-23.0741],[-44.7729,-23.0741]],[[-44.7716,-23.079],[-44.7655,-23.0792],[-44.7719,-23.0792],[-44.7716,-23.079]],[[-44.7769,-23.057],[-44.7782,-23.0541],[-44.7769,-23.0572],[-44.7769,-23.057]],[[-44.8022,-23.0766],[-44.7908,-23.0682],[-44.7829,-23.0541],[-44.7806,-23.0589],[-44.785,-23.0572],[-44.7821,-23.0621],[-44.7856,-23.0591],[-44.7912,-23.0765],[-44.7921,-23.0696],[-44.7978,-23.0792],[-44.8027,-23.0767],[-44.8022,-23.0766]],[[-44.8107,-23.0724],[-44.8024,-23.0717],[-44.8109,-23.0674],[-44.8033,-23.069],[-44.7959,-23.0632],[-44.8052,-23.0603],[-44.7966,-23.0633],[-44.7935,-23.06],[-44.8013,-23.0588],[-44.796,-23.0582],[-44.799,-23.0548],[-44.8077,-23.0581],[-44.8051,-23.0541],[-44.7941,-23.0588],[-44.7893,-23.0541],[-44.7998,-23.0667],[-44.7995,-23.0725],[-44.7998,-23.0667],[-44.805,-23.074],[-44.8106,-23.0763],[-44.8107,-23.0724],[-44.8107,-23.0724]]]}},{"type":"Feature","properties":{"cod_tema":"RIO_10_A_50","cod_imovel":"RJ-3303807-01DA89336D8F4C17BCE256D527DD8195","ind_status":"AT"},"geometry":{"type":"Polygon","coordinates":[[[-44.5602,-22.9717],[-44.5575,-22.964],[-44.5602,-22.9717],[-44.5602,-22.9717]]]}},{"type":"Feature","properties":{"cod_tema":"RIO_10_A_50","cod_imovel":"RJ-3303807-537C406AAD9F4D23AD32D968A6931D9C","ind_status":"AT"},"geometry":{"type":"Polygon","coordinates":[[[-44.5433,-23.0019],[-44.5446,-22.981],[-44.5507,-22.9727],[-44.5551,-22.9758],[-44.5515,-22.9725],[-44.5443,-22.9809],[-44.5458,-22.992],[-44.5404,-22.9957],[-44.5434,-23.0021],[-44.5433,-23.0019]]]}},{"type":"Feature","properties":{"cod_tema":"RIO_ATE_10","cod_imovel":"RJ-3303807-40C6F8814C074210A0F321B2264CA41D","ind_status":"AT"},"geometry":{"type":"Polygon","coordinates":[[[-44.8006,-23.25],[-44.7934,-23.2469],[-44.8027,-23.2507],[-44.8006,-23.25]]]}},{"type":"Feature","properties":{"cod_tema":"RIO_ATE_10","cod_imovel":"RJ-3303807-744DB6170FEE4427B338943491CED349","ind_status":"AT"},"geometry":{"type":"Polygon","coordinates":[[[-44.723,-22.9866],[-44.7574,-23.0123],[-44.7607,-23.0105],[-44.7609,-23.0215],[-44.7608,-23.0104],[-44.7575,-23.0122],[-44.7224,-22.9864],[-44.723,-22.9866]]]}},{"type":"Feature","properties":{"cod_tema":"RIO_ATE_10","cod_imovel":"RJ-3303807-744DB6170FEE4427B338943491CED349","ind_status":"AT"},"geometry":{"type":"Polygon","coordinates":[[[-44.757,-23.0153],[-44.7576,-23.0122],[-44.7567,-23.016],[-44.757,-23.0153]]]}},{"type":"Feature","properties":{"cod_tema":"RIO_ATE_10","cod_imovel":"RJ-3303807-744DB6170FEE4427B338943491CED349","ind_status":"AT"},"geometry":{"type":"Polygon","coordinates":[[[-44.7713,-22.9961],[-44.7728,-23.0],[-44.7605,-23.0105],[-44.7729,-23.0001],[-44.7711,-22.9951],[-44.7713,-22.9961]]]}},{"type":"Feature","properties":{"cod_tema":"RIO_ATE_10","cod_imovel":"RJ-3303807-E72671B40A50433F96F2A2D9A5933D4E","ind_status":"AT"},"geometry":{"type":"Polygon","coordinates":[[[-44.6904,-23.0321],[-44.6851,-23.0349],[-44.6917,-23.0339],[-44.6916,-23.0373],[-44.6861,-23.0355],[-44.6925,-23.0409],[-44.6835,-23.0466],[-44.6778,-23.0327],[-44.6752,-23.0347],[-44.6842,-23.045],[-44.6784,-23.048],[-44.6889,-23.0448],[-44.6935,-23.052],[-44.6905,-23.0465],[-44.698,-23.0505],[-44.6875,-23.0447],[-44.6948,-23.0409],[-44.7039,-23.0446],[-44.7067,-23.0512],[-44.704,-23.0446],[-44.7101,-23.0486],[-44.7077,-23.0449],[-44.7138,-23.0443],[-44.7034,-23.0443],[-44.7098,-23.0406],[-44.7017,-23.0435],[-44.7056,-23.037],[-44.7022,-23.0432],[-44.696,-23.0415],[-44.7004,-23.0332],[-44.6926,-23.0409],[-44.6904,-23.032],[-44.6904,-23.0321]],[[-44.6764,-23.0488],[-44.6782,-23.0436],[-44.6764,-23.0488],[-44.6764,-23.0488]],[[-44.7031,-23.0543],[-44.7023,-23.0588],[-44.6917,-23.0603],[-44.6938,-23.0542],[-44.6857,-23.0636],[-44.7043,-23.0594],[-44.7075,-23.0529],[-44.7031,-23.0542],[-44.7031,-23.0543]],[[-44.7131,-23.0548],[-44.7065,-23.0586],[-44.7133,-23.0548],[-44.7131,-23.0548]]]}},{"type":"Feature","properties":{"cod_tema":"RIO_10_A_50","cod_imovel":"RJ-3303807-E72671B40A50433F96F2A2D9A5933D4E","ind_status":"AT"},"geometry":{"type":"Polygon","coordinates":[[[-44.6785,-23.048],[-44.6735,-23.0515],[-44.6782,-23.0481],[-44.6785,-23.048]]]}},{"type":"Feature","properties":{"cod_tema":"RIO_ATE_10","cod_imovel":"RJ-3303807-DE88128EFCD54FA0994B092A155B9C2E","ind_status":"AT"},"geometry":{"type":"Polygon","coordinates":[[[-44.6953,-23.0588],[-44.6872,-23.0606],[-44.6955,-23.0578],[-44.6953,-23.0588]]]}},{"type":"Feature","properties":{"cod_tema":"RIO_ATE_10","cod_imovel":"RJ-3303807-DC2B11E320BB4026A3297920CEB72621","ind_status":"PE"},"geometry":{"type":"Polygon","coordinates":[[[-44.7675,-23.1212],[-44.7615,-23.121],[-44.7699,-23.1209],[-44.7675,-23.1212]]]}},{"type":"Feature","properties":{"cod_tema":"RIO_ATE_10","cod_imovel":"RJ-3303807-BDF82E98AE9F456E86962050528E7246","ind_status":"AT"},"geometry":{"type":"Polygon","coordinates":[[[-44.7397,-23.271],[-44.7177,-23.2574],[-44.7412,-23.2732],[-44.7397,-23.271]]]}},{"type":"Feature","properties":{"cod_tema":"RIO_ATE_10","cod_imovel":"RJ-3303807-660CD9C9510645CDA62AC9DA7AF6521E","ind_status":"AT"},"geometry":{"type":"Polygon","coordinates":[[[-44.8107,-23.2048],[-44.8079,-23.2081],[-44.8109,-23.2047],[-44.8107,-23.2048]]]}},{"type":"Feature","properties":{"cod_tema":"RIO_ATE_10","cod_imovel":"RJ-3303807-C3561701020046E9888D26A063AD0ABA","ind_status":"AT"},"geometry":{"type":"Polygon","coordinates":[[[-44.7041,-23.0816],[-44.7067,-23.0795],[-44.7041,-23.0816],[-44.7041,-23.0816]],[[-44.7116,-23.0824],[-44.7036,-23.0819],[-44.7116,-23.0824],[-44.7116,-23.0824]]]}},{"type":"Feature","properties":{"cod_tema":"RIO_ATE_10","cod_imovel":"RJ-3303807-3AC9419DC57240F7AEED22986DA6EE99","ind_status":"AT"},"geometry":{"type":"Polygon","coordinates":[[[-44.8055,-23.0593],[-44.8002,-23.0621],[-44.8055,-23.0591],[-44.8055,-23.0593]]]}},{"type":"Feature","properties":{"cod_tema":"RIO_ATE_10","cod_imovel":"RJ-3303807-752A499BFDD145E2AED270D04A82226A","ind_status":"AT"},"geometry":{"type":"Polygon","coordinates":[[[-44.7738,-23.1904],[-44.7693,-23.1935],[-44.7679,-23.1904],[-44.7648,-23.199],[-44.7634,-23.177],[-44.7626,-23.1884],[-44.76,-23.1775],[-44.7566,-23.1806],[-44.7598,-23.1847],[-44.7536,-23.182],[-44.7628,-23.1891],[-44.7634,-23.1937],[-44.7571,-23.1879],[-44.7654,-23.203],[-44.7706,-23.2013],[-44.7652,-23.1994],[-44.7679,-23.1962],[-44.7741,-23.1974],[-44.7683,-23.1956],[-44.7736,-23.1907],[-44.7738,-23.1904]]]}},{"type":"Feature","properties":{"cod_tema":"RIO_ATE_10","cod_imovel":"RJ-3303807-A5610A6CD9474B08A66C436E8CCFF273","ind_status":"AT"},"geometry":{"type":"Polygon","coordinates":[[[-44.7068,-22.9522],[-44.7118,-22.9541],[-44.7032,-22.9489],[-44.7068,-22.9522]],[[-44.71,-22.934],[-44.7132,-22.9367],[-44.7102,-22.9401],[-44.7169,-22.9352],[-44.7096,-22.9336],[-44.71,-22.934]],[[-44.7185,-22.9348],[-44.7129,-22.9304],[-44.7012,-22.9353],[-44.7129,-22.9304],[-44.7206,-22.936],[-44.7185,-22.9348]]]}},{"type":"Feature","properties":{"cod_tema":"RIO_ATE_10","cod_imovel":"RJ-3303807-7057553EE0B54F149068CF5F255CF5A2","ind_status":"PE"},"geometry":{"type":"Polygon","coordinates":[[[-44.6985,-23.0804],[-44.712,-23.0822],[-44.6892,-23.0787],[-44.7032,-23.0852],[-44.6984,-23.0804],[-44.6985,-23.0804]],[[-44.6899,-23.0881],[-44.6997,-23.0881],[-44.6896,-23.0877],[-44.6899,-23.0881]],[[-44.8128,-23.0813],[-44.8011,-23.0886],[-44.7918,-23.0806],[-44.7781,-23.0887],[-44.7643,-23.0798],[-44.7597,-23.0856],[-44.7486,-23.079],[-44.7334,-23.0885],[-44.7362,-23.0844],[-44.7208,-23.0805],[-44.7206,-23.0879],[-44.7131,-23.0959],[-44.7081,-23.0945],[-44.7138,-23.0885],[-44.7097,-23.0883],[-44.6957,-23.1022],[-44.7062,-23.0971],[-44.7158,-23.1027],[-44.718,-23.0959],[-44.7267,-23.1024],[-44.7368,-23.0952],[-44.7275,-23.0886],[-44.7434,-23.1004],[-44.7589,-23.0965],[-44.75,-23.0959],[-44.7641,-23.0894],[-44.7957,-23.0996],[-44.8022,-23.107],[-44.8145,-23.1081],[-44.8066,-23.0988],[-44.7984,-23.0995],[-44.7871,-23.0885],[-44.7981,-23.095],[-44.8054,-23.0883],[-44.8128,-23.0813]],[[-44.7201,-23.0939],[-44.7163,-23.0944],[-44.722,-23.0899],[-44.7201,-23.0939],[-44.7201,-23.0939]],[[-44.7167,-23.0929],[-44.7238,-23.0887],[-44.7167,-23.093],[-44.7167,-23.0929]],[[-44.7321,-23.0889],[-44.739,-23.0891],[-44.7322,-23.089],[-44.7321,-23.0889]],[[-44.8211,-23.1416],[-44.8153,-23.1526],[-44.8046,-23.1552],[-44.7892,-23.1428],[-44.8,-23.1406],[-44.7773,-23.1301],[-44.7769,-23.1263],[-44.8071,-23.1376],[-44.8158,-23.1345],[-44.7869,-23.1229],[-44.8061,-23.1261],[-44.7984,-23.1207],[-44.8072,-23.1215],[-44.8065,-23.1148],[-44.7884,-23.1225],[-44.7843,-23.1126],[-44.7771,-23.1214],[-44.7739,-23.1178],[-44.7599,-23.1202],[-44.7712,-23.1116],[-44.7871,-23.109],[-44.7764,-23.1055],[-44.7661,-23.1153],[-44.7584,-23.1101],[-44.7524,-23.1177],[-44.7436,-23.1073],[-44.734,-23.117],[-44.7376,-23.1065],[-44.7224,-23.1081],[-44.7126,-23.1169],[-44.7197,-23.1054],[-44.716,-23.1037],[-44.7046,-23.1149],[-44.696,-23.109],[-44.7178,-23.1189],[-44.764,-23.1198],[-44.7884,-23.1421],[-44.8207,-23.1521],[-44.8211,-23.1416]],[[-44.715,-23.1171],[-44.719,-23.1124],[-44.7254,-23.1149],[-44.7205,-23.1119],[-44.7354,-23.1178],[-44.7212,-23.1206],[-44.715,-23.1172],[-44.715,-23.1171]],[[-44.7447,-23.1172],[-44.7524,-23.1102],[-44.7446,-23.1174],[-44.7447,-23.1172]],[[-44.7529,-23.1176],[-44.755,-23.1108],[-44.7528,-23.1177],[-44.7529,-23.1176]],[[-44.7739,-23.1193],[-44.7779,-23.1161],[-44.7739,-23.1194],[-44.7739,-23.1193]]]}},{"type":"Feature","properties":{"cod_tema":"RIO_ATE_10","cod_imovel":"RJ-3303807-E107794C79344DA792CF9924BE21E550","ind_status":"AT"},"geometry":{"type":"Polygon","coordinates":[[[-44.6906,-23.0862],[-44.7012,-23.0878],[-44.6906,-23.0862],[-44.6906,-23.0862]],[[-44.7002,-23.0794],[-44.7034,-23.0855],[-44.7003,-23.0795],[-44.7112,-23.0827],[-44.7,-23.0791],[-44.7002,-23.0794]],[[-44.7052,-23.0814],[-44.7089,-23.0822],[-44.7046,-23.0813],[-44.7052,-23.0814]],[[-44.7319,-23.0805],[-44.7365,-23.0869],[-44.7212,-23.0894],[-44.7291,-23.084],[-44.7225,-23.0881],[-44.7215,-23.0804],[-44.723,-23.0871],[-44.7194,-23.084],[-44.7183,-23.0907],[-44.712,-23.0934],[-44.7135,-23.0893],[-44.7083,-23.0863],[-44.7119,-23.0934],[-44.7106,-23.0989],[-44.7061,-23.0971],[-44.7204,-23.1014],[-44.7144,-23.0965],[-44.7261,-23.0964],[-44.7274,-23.1036],[-44.7279,-23.0972],[-44.7334,-23.0996],[-44.7364,-23.0948],[-44.7183,-23.0908],[-44.734,-23.0906],[-44.7423,-23.0838],[-44.7328,-23.0887],[-44.7359,-23.0793],[-44.7303,-23.0776],[-44.7319,-23.0805]],[[-44.7101,-23.0778],[-44.7117,-23.0739],[-44.7101,-23.0778],[-44.7101,-23.0778]],[[-44.7116,-23.1119],[-44.7161,-23.1035],[-44.7116,-23.1119],[-44.7116,-23.1119]],[[-44.7153,-23.0793],[-44.7129,-23.0741],[-44.7153,-23.0793],[-44.7153,-23.0793]],[[-44.7179,-23.0784],[-44.7163,-23.0742],[-44.7179,-23.0784],[-44.7179,-23.0784]],[[-44.7225,-23.1116],[-44.7327,-23.1087],[-44.7276,-23.1106],[-44.7294,-23.1055],[-44.7225,-23.112],[-44.7225,-23.1052],[-44.7223,-23.1112],[-44.7225,-23.1116]],[[-44.724,-23.0755],[-44.7225,-23.0723],[-44.724,-23.0755],[-44.724,-23.0755]],[[-44.7329,-23.1085],[-44.7338,-23.1025],[-44.7329,-23.1085],[-44.7329,-23.1085]]]}},{"type":"Feature","properties":{"cod_tema":"RIO_10_A_50","cod_imovel":"RJ-3303807-E107794C79344DA792CF9924BE21E550","ind_status":"AT"},"geometry":{"type":"Polygon","coordinates":[[[-44.7036,-23.1008],[-44.6957,-23.1021],[-44.7035,-23.101],[-44.7036,-23.1008]]]}},{"type":"Feature","properties":{"cod_tema":"RIO_ACIMA_600","cod_imovel":"RJ-3303807-E107794C79344DA792CF9924BE21E550","ind_status":"AT"},"geometry":{"type":"Polygon","coordinates":[[[-44.6957,-23.1021],[-44.6913,-23.0912],[-44.6873,-23.0911],[-44.6882,-23.0821],[-44.6847,-23.092],[-44.6955,-23.1024],[-44.6957,-23.1021]]]}},{"type":"Feature","properties":{"cod_tema":"RIO_ATE_10","cod_imovel":"RJ-3303807-AA259AC263A84BEFAAD06C8F82EDE946","ind_status":"AT"},"geometry":{"type":"Polygon","coordinates":[[[-44.7812,-23.1844],[-44.7739,-23.1903],[-44.7814,-23.1816],[-44.7812,-23.1844]]]}},{"type":"Feature","properties":{"cod_tema":"RIO_ATE_10","cod_imovel":"RJ-3303807-6BA68BEDB7EE4210AE9713D8D6784CD9","ind_status":"CA"},"geometry":{"type":"Polygon","coordinates":[[[-44.7622,-23.3195],[-44.7593,-23.3203],[-44.7623,-23.3194],[-44.7622,-23.3195]]]}},{"type":"Feature","properties":{"cod_tema":"RIO_ATE_10","cod_imovel":"RJ-3303807-6BA68BEDB7EE4210AE9713D8D6784CD9","ind_status":"CA"},"geometry":{"type":"Polygon","coordinates":[[[-44.7593,-23.3189],[-44.7631,-23.3157],[-44.7593,-23.319],[-44.7593,-23.3189]]]}},{"type":"Feature","properties":{"cod_tema":"RIO_ATE_10","cod_imovel":"RJ-3303807-2C99AFEA426C44DA9471CE73DB12B17D","ind_status":"AT"},"geometry":{"type":"Polygon","coordinates":[[[-44.5855,-23.2512],[-44.5786,-23.2485],[-44.5863,-23.2514],[-44.5855,-23.2512]]]}},{"type":"Feature","properties":{"cod_tema":"RIO_ATE_10","cod_imovel":"RJ-3303807-8F3360C23B0B463EB5AC0DEA6CDCEE04","ind_status":"AT"},"geometry":{"type":"Polygon","coordinates":[[[-44.5731,-22.9693],[-44.5684,-22.9688],[-44.5742,-22.9693],[-44.5731,-22.9693]]]}},{"type":"Feature","properties":{"cod_tema":"RIO_ATE_10","cod_imovel":"RJ-3303807-FE6412E9493246A39A38CC02F60D4B1B","ind_status":"AT"},"geometry":{"type":"Polygon","coordinates":[[[-44.6374,-23.2632],[-44.6387,-23.2602],[-44.6372,-23.2631],[-44.6374,-23.2632]]]}},{"type":"Feature","properties":{"cod_tema":"RIO_ATE_10","cod_imovel":"RJ-3303807-7A9CA45DD1AA4C47A003E8E96C37DC95","ind_status":"AT"},"geometry":{"type":"Polygon","coordinates":[[[-44.7404,-23.2138],[-44.7371,-23.2136],[-44.7408,-23.2139],[-44.7404,-23.2138]],[[-44.7419,-23.204],[-44.7377,-23.2048],[-44.7424,-23.204],[-44.7419,-23.204]],[[-44.7515,-23.2108],[-44.7491,-23.2133],[-44.7423,-23.2074],[-44.7445,-23.2033],[-44.7402,-23.2095],[-44.7433,-23.208],[-44.7474,-23.2151],[-44.7515,-23.2108],[-44.7515,-23.2108]],[[-44.7514,-23.205],[-44.7475,-23.2041],[-44.7515,-23.2082],[-44.7514,-23.205],[-44.7514,-23.205]]]}},{"type":"Feature","properties":{"cod_tema":"RIO_ATE_10","cod_imovel":"RJ-3303807-9305D040ED5B4AD39915036667F02D49","ind_status":"AT"},"geometry":{"type":"Polygon","coordinates":[[[-44.7578,-23.2553],[-44.7452,-23.2511],[-44.7469,-23.2569],[-44.7575,-23.2556],[-44.7578,-23.2553]]]}},{"type":"Feature","properties":{"cod_tema":"RIO_ATE_10","cod_imovel":"RJ-3303807-7FA20F8C06A34D5DBA9B1AECBF8CE686","ind_status":"AT"},"geometry":{"type":"Polygon","coordinates":[[[-44.7677,-23.2596],[-44.7643,-23.2603],[-44.7677,-23.2602],[-44.7677,-23.2596]]]}},{"type":"Feature","properties":{"cod_tema":"RIO_ATE_10","cod_imovel":"RJ-3303807-4FD44FC3AD524F1EB0D5625BE4C1ACC9","ind_status":"PE"},"geometry":{"type":"Polygon","coordinates":[[[-44.7697,-23.2411],[-44.7645,-23.2404],[-44.7705,-23.2413],[-44.7697,-23.2411]]]}},{"type":"Feature","properties":{"cod_tema":"RIO_ATE_10","cod_imovel":"RJ-3303807-600325B3D8994B14A92EEDC575C744C0","ind_status":"PE"},"geometry":{"type":"Polygon","coordinates":[[[-44.7603,-23.1248],[-44.7587,-23.1209],[-44.7606,-23.1253],[-44.7603,-23.1248]]]}},{"type":"Feature","properties":{"cod_tema":"RIO_ATE_10","cod_imovel":"RJ-3303807-359AD8BCDBFA47669347224A15B7312E","ind_status":"PE"},"geometry":{"type":"Polygon","coordinates":[[[-44.7589,-23.1362],[-44.7606,-23.133],[-44.7584,-23.1363],[-44.7589,-23.1362]],[[-44.7628,-23.1394],[-44.7655,-23.1309],[-44.7625,-23.1399],[-44.7628,-23.1394]],[[-44.7608,-23.1381],[-44.7611,-23.1329],[-44.7606,-23.1383],[-44.7608,-23.1381]]]}},{"type":"Feature","properties":{"cod_tema":"RIO_ATE_10","cod_imovel":"RJ-3303807-FE14CF66B2E1443F9B356B6416D5F806","ind_status":"PE"},"geometry":{"type":"Polygon","coordinates":[[[-44.7519,-23.0964],[-44.7427,-23.0977],[-44.761,-23.0967],[-44.7519,-23.0964]]]}},{"type":"Feature","properties":{"cod_tema":"RIO_ATE_10","cod_imovel":"RJ-3303807-8A6A00E539714E61B77BBF2EEAA4BA66","ind_status":"PE"},"geometry":{"type":"Polygon","coordinates":[[[-44.7341,-23.1249],[-44.731,-23.1194],[-44.7347,-23.1242],[-44.7341,-23.1249]]]}},{"type":"Feature","properties":{"cod_tema":"RIO_ATE_10","cod_imovel":"RJ-3303807-0E4B70A31DB54D61AF39DC624D653982","ind_status":"SU"},"geometry":{"type":"Polygon","coordinates":[[[-44.7137,-23.1169],[-44.7092,-23.1161],[-44.7134,-23.1168],[-44.7137,-23.1169]],[[-44.7204,-23.1376],[-44.719,-23.1331],[-44.7061,-23.1356],[-44.719,-23.1331],[-44.7203,-23.1374],[-44.7204,-23.1376]]]}},{"type":"Feature","properties":{"cod_tema":"RESERVATORIO_ARTIFICIAL_DECORRENTE_BARRAMENTO","cod_imovel":"RJ-3303807-0E4B70A31DB54D61AF39DC624D653982","ind_status":"SU"},"geometry":{"type":"Polygon","coordinates":[[[-44.7116,-23.1177],[-44.7101,-23.121],[-44.7124,-23.1181],[-44.7116,-23.1177]]]}},{"type":"Feature","properties":{"cod_tema":"RIO_ATE_10","cod_imovel":"RJ-3303807-3F9CE4C1C2134D0DA419A72EEB7722B3","ind_status":"PE"},"geometry":{"type":"Polygon","coordinates":[[[-44.6097,-23.0448],[-44.6036,-23.0426],[-44.6108,-23.0454],[-44.6097,-23.0448]],[[-44.6107,-23.0204],[-44.6165,-23.0256],[-44.6127,-23.0176],[-44.6096,-23.02],[-44.6107,-23.0204]],[[-44.6125,-23.0384],[-44.6172,-23.0413],[-44.6109,-23.038],[-44.6125,-23.0384]],[[-44.6123,-23.0364],[-44.6172,-23.0424],[-44.6222,-23.0416],[-44.6267,-23.0361],[-44.6222,-23.0415],[-44.6168,-23.0403],[-44.6228,-23.0264],[-44.629,-23.0242],[-44.6228,-23.0263],[-44.6168,-23.0402],[-44.6115,-23.0363],[-44.6123,-23.0364]],[[-44.6183,-23.0188],[-44.6193,-23.0305],[-44.6179,-23.0174],[-44.6183,-23.0188]],[[-44.6242,-23.0187],[-44.6196,-23.023],[-44.6197,-23.0338],[-44.6243,-23.0176],[-44.6242,-23.0187]],[[-44.6287,-23.0301],[-44.6208,-23.0311],[-44.6304,-23.0307],[-44.6287,-23.0301]],[[-44.6275,-23.0196],[-44.621,-23.0214],[-44.6279,-23.018],[-44.6275,-23.0196]],[[-44.63,-23.0341],[-44.6242,-23.0311],[-44.6311,-23.0344],[-44.63,-23.0341]],[[-44.6288,-23.0402],[-44.6287,-23.0372],[-44.6269,-23.0469],[-44.6259,-23.0396],[-44.6298,-23.0405],[-44.6288,-23.0402]],[[-44.6367,-23.0455],[-44.6328,-23.042],[-44.6313,-23.0489],[-44.6373,-23.0447],[-44.6367,-23.0455]],[[-44.6335,-23.0397],[-44.6446,-23.0425],[-44.6323,-23.0389],[-44.6335,-23.0397]],[[-44.6448,-23.031],[-44.6416,-23.0353],[-44.6358,-23.0343],[-44.6417,-23.0354],[-44.6442,-23.046],[-44.6417,-23.0352],[-44.6452,-23.0306],[-44.6448,-23.031]],[[-44.6377,-23.0333],[-44.6419,-23.0348],[-44.637,-23.0327],[-44.6377,-23.0333]],[[-44.6521,-23.0401],[-44.6516,-23.0445],[-44.6509,-23.0396],[-44.6521,-23.0401]],[[-44.6576,-23.0404],[-44.6611,-23.0366],[-44.6564,-23.0402],[-44.6567,-23.0328],[-44.6523,-23.037],[-44.6583,-23.0408],[-44.6576,-23.0404]],[[-44.6586,-23.0358],[-44.6561,-23.039],[-44.6595,-23.0354],[-44.6586,-23.0358]]]}},{"type":"Feature","properties":{"cod_tema":"RIO_ATE_10","cod_imovel":"RJ-3303807-3C065DFEFA024AF08432E462023EFE8A","ind_status":"PE"},"geometry":{"type":"Polygon","coordinates":[[[-44.5582,-22.9835],[-44.5545,-22.978],[-44.5616,-22.982],[-44.5545,-22.9779],[-44.5436,-22.9873],[-44.5512,-22.9812],[-44.5548,-22.9838],[-44.5513,-22.9812],[-44.5543,-22.9791],[-44.5582,-22.9838],[-44.5582,-22.9835]],[[-44.5512,-22.9812],[-44.5456,-22.9869],[-44.5513,-22.9812],[-44.5512,-22.9812]],[[-44.5529,-22.987],[-44.5445,-22.9887],[-44.5531,-22.987],[-44.5529,-22.987]],[[-44.5675,-23.0201],[-44.5564,-23.0248],[-44.5519,-23.0225],[-44.5689,-23.0168],[-44.5594,-23.0176],[-44.5638,-23.0141],[-44.5527,-23.0223],[-44.5462,-23.0206],[-44.5586,-23.0246],[-44.5646,-23.0322],[-44.5669,-23.0289],[-44.5665,-23.0336],[-44.5669,-23.0289],[-44.5581,-23.0244],[-44.5676,-23.02],[-44.5675,-23.0201]],[[-44.5719,-23.0073],[-44.5559,-23.003],[-44.5658,-23.0002],[-44.5682,-23.0036],[-44.5676,-22.9991],[-44.547,-23.0085],[-44.5651,-23.0073],[-44.552,-23.0054],[-44.5559,-23.003],[-44.5653,-23.0053],[-44.5719,-23.0131],[-44.5658,-23.006],[-44.5721,-23.0074],[-44.5719,-23.0073]],[[-44.5613,-23.012],[-44.548,-23.0146],[-44.5615,-23.012],[-44.5613,-23.012]],[[-44.5953,-22.9885],[-44.5889,-22.9911],[-44.5891,-22.9849],[-44.573,-22.998],[-44.5693,-22.995],[-44.5788,-22.9818],[-44.5934,-22.9753],[-44.575,-22.9784],[-44.5729,-22.9904],[-44.5628,-22.9918],[-44.5696,-22.9798],[-44.5507,-23.0028],[-44.5637,-22.9994],[-44.5543,-22.997],[-44.5629,-22.9918],[-44.5771,-22.9977],[-44.575,-23.0024],[-44.5816,-23.0019],[-44.5749,-22.9976],[-44.5904,-22.9963],[-44.5826,-22.9919],[-44.5956,-22.9886],[-44.5917,-22.9814],[-44.5955,-22.9886],[-44.5953,-22.9885]],[[-44.5617,-22.9627],[-44.5577,-22.9631],[-44.562,-22.9626],[-44.5617,-22.9627]],[[-44.5835,-22.973],[-44.5802,-22.9718],[-44.5873,-22.9708],[-44.574,-22.971],[-44.5781,-22.965],[-44.5732,-22.97],[-44.5773,-22.9642],[-44.5731,-22.97],[-44.5586,-22.9649],[-44.5735,-22.9702],[-44.575,-22.9773],[-44.5744,-22.9712],[-44.5836,-22.973],[-44.5835,-22.973]],[[-44.5665,-22.9736],[-44.5633,-22.9726],[-44.5716,-22.9737],[-44.5603,-22.972],[-44.5687,-22.9785],[-44.5626,-22.9746],[-44.5712,-22.9752],[-44.5666,-22.9737],[-44.5665,-22.9736]],[[-44.5738,-22.9633],[-44.562,-22.9593],[-44.5741,-22.9634],[-44.5738,-22.9633]],[[-44.5742,-23.02],[-44.5731,-23.014],[-44.5755,-23.0182],[-44.5711,-23.0184],[-44.5741,-23.02],[-44.5706,-23.0193],[-44.5733,-23.0219],[-44.5704,-23.0246],[-44.5692,-23.0215],[-44.5675,-23.0277],[-44.5661,-23.0239],[-44.5669,-23.0289],[-44.5727,-23.0284],[-44.5742,-23.02],[-44.5742,-23.02]],[[-44.5781,-22.9603],[-44.5746,-22.9556],[-44.5714,-22.9595],[-44.5743,-22.9624],[-44.5739,-22.9565],[-44.5782,-22.9605],[-44.5781,-22.9603]],[[-44.5773,-23.0206],[-44.5771,-23.016],[-44.5748,-23.0241],[-44.5774,-23.0206],[-44.5773,-23.0206]],[[-44.5879,-23.0025],[-44.5838,-22.9983],[-44.586,-23.0019],[-44.5758,-23.005],[-44.5821,-23.0026],[-44.5746,-23.0125],[-44.5818,-23.0045],[-44.5822,-23.0113],[-44.5779,-23.0131],[-44.5822,-23.0113],[-44.5821,-23.0031],[-44.5872,-23.004],[-44.5821,-23.0026],[-44.588,-23.0025],[-44.5879,-23.0025]],[[-44.5788,-22.9592],[-44.5766,-22.9563],[-44.5789,-22.9595],[-44.5788,-22.9592]],[[-44.5772,-23.0144],[-44.5822,-23.0114],[-44.5771,-23.0144],[-44.5772,-23.0144]],[[-44.5824,-23.012],[-44.5803,-23.0156],[-44.5824,-23.012],[-44.5824,-23.012]],[[-44.5939,-22.9701],[-44.586,-22.961],[-44.5947,-22.9755],[-44.5941,-22.9703],[-44.5983,-22.9726],[-44.5941,-22.9702],[-44.5939,-22.9701]],[[-44.5932,-22.9666],[-44.5907,-22.9617],[-44.5932,-22.9668],[-44.5932,-22.9666]],[[-44.5963,-22.9862],[-44.5962,-22.9752],[-44.5963,-22.986],[-44.5963,-22.9862]],[[-44.5986,-22.9706],[-44.5996,-22.9643],[-44.5986,-22.9707],[-44.5986,-22.9706]],[[-44.6035,-22.9731],[-44.6016,-22.9647],[-44.5992,-22.974],[-44.6011,-22.9696],[-44.6014,-22.9754],[-44.6037,-22.9732],[-44.6035,-22.9731]],[[-44.6059,-22.9718],[-44.6052,-22.9663],[-44.606,-22.9721],[-44.6059,-22.9718]],[[-44.607,-22.9703],[-44.6069,-22.9665],[-44.607,-22.9704],[-44.607,-22.9703]]]}},{"type":"Feature","properties":{"cod_tema":"RIO_ATE_10","cod_imovel":"RJ-3303807-17538828017642AB9D8441E1AA1AB5B3","ind_status":"AT"},"geometry":{"type":"Polygon","coordinates":[[[-44.6426,-23.2657],[-44.6398,-23.2644],[-44.6445,-23.2664],[-44.6426,-23.2657]]]}},{"type":"Feature","properties":{"cod_tema":"RIO_ATE_10","cod_imovel":"RJ-3303807-C500E72CA0244FB2BD2347A8F2A332FE","ind_status":"AT"},"geometry":{"type":"Polygon","coordinates":[[[-44.6836,-23.2371],[-44.6805,-23.2395],[-44.6837,-23.237],[-44.6836,-23.2371]]]}},{"type":"Feature","properties":{"cod_tema":"RIO_ATE_10","cod_imovel":"RJ-3303807-6B9B3D0C35E14779AA8DADDFBF758DE4","ind_status":"AT"},"geometry":{"type":"Polygon","coordinates":[[[-44.662,-23.252],[-44.6635,-23.2559],[-44.6645,-23.2502],[-44.6692,-23.2497],[-44.6615,-23.2523],[-44.662,-23.252]]]}},{"type":"Feature","properties":{"cod_tema":"RIO_ATE_10","cod_imovel":"RJ-3303807-DD802BEA295243EF82CFD8EEEF838DE3","ind_status":"AT"},"geometry":{"type":"Polygon","coordinates":[[[-44.6347,-23.2593],[-44.637,-23.257],[-44.6345,-23.2594],[-44.6347,-23.2593]]]}},{"type":"Feature","properties":{"cod_tema":"RIO_ATE_10","cod_imovel":"RJ-3303807-EA6232C69B95427EB2AB404A65A7BE66","ind_status":"AT"},"geometry":{"type":"Polygon","coordinates":[[[-44.6075,-23.3466],[-44.604,-23.3372],[-44.598,-23.3373],[-44.6052,-23.3409],[-44.5985,-23.3393],[-44.6062,-23.3447],[-44.6008,-23.3452],[-44.6072,-23.3464],[-44.6004,-23.3471],[-44.6075,-23.3468],[-44.6075,-23.3466]],[[-44.6036,-23.3563],[-44.608,-23.3556],[-44.602,-23.3524],[-44.6035,-23.3561],[-44.6036,-23.3563]],[[-44.6064,-23.349],[-44.6031,-23.3479],[-44.6063,-23.349],[-44.6064,-23.349]],[[-44.6124,-23.3376],[-44.6089,-23.3376],[-44.613,-23.3338],[-44.6086,-23.3385],[-44.6058,-23.3345],[-44.6089,-23.3423],[-44.6045,-23.336],[-44.6126,-23.3473],[-44.6086,-23.3386],[-44.6125,-23.3378],[-44.6124,-23.3376]],[[-44.6186,-23.34],[-44.6157,-23.3361],[-44.6185,-23.3403],[-44.6136,-23.3388],[-44.6186,-23.3403],[-44.6186,-23.34]],[[-44.6232,-23.3387],[-44.6166,-23.3286],[-44.618,-23.3326],[-44.6146,-23.3316],[-44.62,-23.3353],[-44.6164,-23.3354],[-44.6232,-23.3387],[-44.6232,-23.3387]],[[-44.6387,-23.3191],[-44.6312,-23.3222],[-44.6347,-23.3169],[-44.6315,-23.3206],[-44.629,-23.3168],[-44.63,-23.3262],[-44.6277,-23.3128],[-44.6248,-23.3158],[-44.6315,-23.333],[-44.6237,-23.3205],[-44.6313,-23.3327],[-44.6175,-23.3253],[-44.6311,-23.3327],[-44.6285,-23.3375],[-44.6303,-23.3235],[-44.6387,-23.3191],[-44.6387,-23.3191]],[[-44.6242,-23.3366],[-44.6225,-23.334],[-44.6242,-23.3367],[-44.6242,-23.3366]],[[-44.6404,-23.3246],[-44.637,-23.3228],[-44.6368,-23.3284],[-44.6346,-23.3243],[-44.6378,-23.3316],[-44.6404,-23.3247],[-44.6404,-23.3246]],[[-44.6385,-23.3142],[-44.6352,-23.3105],[-44.6385,-23.3142],[-44.6385,-23.3142]],[[-44.6664,-23.316],[-44.6417,-23.3027],[-44.6412,-23.3074],[-44.6434,-23.3045],[-44.6486,-23.3076],[-44.6404,-23.3108],[-44.647,-23.3091],[-44.6403,-23.3181],[-44.6465,-23.3112],[-44.6516,-23.3188],[-44.6465,-23.3112],[-44.6498,-23.3136],[-44.6497,-23.307],[-44.651,-23.314],[-44.6501,-23.3086],[-44.6543,-23.3122],[-44.6522,-23.3162],[-44.6532,-23.3087],[-44.6659,-23.3205],[-44.6636,-23.3155],[-44.6666,-23.3162],[-44.6664,-23.316]],[[-44.6406,-23.3196],[-44.6437,-23.323],[-44.6403,-23.319],[-44.6406,-23.3196]],[[-44.665,-23.3114],[-44.6562,-23.3067],[-44.6647,-23.3074],[-44.6627,-23.3035],[-44.6556,-23.3069],[-44.6474,-23.3018],[-44.6651,-23.3116],[-44.665,-23.3114]],[[-44.6566,-23.323],[-44.6574,-23.3175],[-44.6564,-23.3233],[-44.6566,-23.323]],[[-44.6621,-23.322],[-44.6602,-23.319],[-44.6621,-23.3221],[-44.6621,-23.322]]]}},{"type":"Feature","properties":{"cod_tema":"RIO_ATE_10","cod_imovel":"RJ-3303807-209BB1A178DF45A3A9DD67D4EF24AFDC","ind_status":"AT"},"geometry":{"type":"Polygon","coordinates":[[[-44.6484,-23.2394],[-44.645,-23.2389],[-44.6484,-23.2395],[-44.6484,-23.2394]]]}},{"type":"Feature","properties":{"cod_tema":"RIO_ATE_10","cod_imovel":"RJ-3303807-C4B461CECD474B33B2A99B885725C183","ind_status":"AT"},"geometry":{"type":"Polygon","coordinates":[[[-44.6272,-23.2471],[-44.633,-23.2485],[-44.6268,-23.2471],[-44.6272,-23.2471]]]}},{"type":"Feature","properties":{"cod_tema":"RIO_ATE_10","cod_imovel":"RJ-3303807-00C29F3C0A4A4B5B8946848B1E75E1EA","ind_status":"AT"},"geometry":{"type":"Polygon","coordinates":[[[-44.6127,-23.3193],[-44.6207,-23.3212],[-44.6124,-23.3188],[-44.6097,-23.3128],[-44.6131,-23.3192],[-44.6127,-23.3193]],[[-44.6336,-23.3087],[-44.6376,-23.3012],[-44.6309,-23.3114],[-44.6335,-23.3082],[-44.6336,-23.3087]],[[-44.6202,-23.3009],[-44.6225,-23.2986],[-44.6101,-23.3031],[-44.6195,-23.3013],[-44.6113,-23.3086],[-44.6196,-23.3013],[-44.6202,-23.3009]],[[-44.618,-23.2989],[-44.6143,-23.2995],[-44.6183,-23.2985],[-44.618,-23.2989]],[[-44.6326,-23.2999],[-44.6367,-23.299],[-44.6277,-23.2989],[-44.6319,-23.3044],[-44.626,-23.311],[-44.6319,-23.3002],[-44.6326,-23.2999]],[[-44.6386,-23.3026],[-44.6402,-23.3075],[-44.6388,-23.3023],[-44.6386,-23.3026]],[[-44.6014,-23.3056],[-44.6105,-23.2983],[-44.601,-23.3062],[-44.6014,-23.3056]],[[-44.6183,-23.3104],[-44.6227,-23.3187],[-44.6182,-23.3101],[-44.6183,-23.3104]],[[-44.6418,-23.2948],[-44.6365,-23.2924],[-44.6418,-23.2948],[-44.6418,-23.2948]]]}},{"type":"Feature","properties":{"cod_tema":"RIO_ATE_10","cod_imovel":"RJ-3303807-8A8F28A3A88C4E28ACE309C8315316F9","ind_status":"AT"},"geometry":{"type":"Polygon","coordinates":[[[-44.6881,-23.2592],[-44.6839,-23.2647],[-44.68,-23.258],[-44.682,-23.2625],[-44.6746,-23.2605],[-44.6777,-23.2627],[-44.6746,-23.264],[-44.6841,-23.2647],[-44.6879,-23.2594],[-44.6881,-23.2592]],[[-44.6914,-23.2594],[-44.6913,-23.2533],[-44.6914,-23.2599],[-44.6914,-23.2594]]]}},{"type":"Feature","properties":{"cod_tema":"RIO_ATE_10","cod_imovel":"RJ-3303807-8F3C30D56F364D3A8346CB06405612E1","ind_status":"AT"},"geometry":{"type":"Polygon","coordinates":[[[-44.6012,-23.3474],[-44.5906,-23.3429],[-44.6011,-23.3474],[-44.5992,-23.3511],[-44.6011,-23.3474],[-44.6012,-23.3474]],[[-44.5977,-23.3387],[-44.5911,-23.3338],[-44.5975,-23.3384],[-44.5977,-23.3387]],[[-44.602,-23.3222],[-44.6031,-23.3129],[-44.601,-23.319],[-44.5973,-23.3129],[-44.6014,-23.3201],[-44.5989,-23.3262],[-44.5956,-23.3137],[-44.5986,-23.3253],[-44.592,-23.3181],[-44.6013,-23.3309],[-44.6031,-23.3235],[-44.6005,-23.3298],[-44.5987,-23.3266],[-44.6033,-23.3167],[-44.6021,-23.3217],[-44.602,-23.3222]],[[-44.5923,-23.3509],[-44.5959,-23.3585],[-44.5922,-23.3505],[-44.5923,-23.3509]],[[-44.5975,-23.3333],[-44.5926,-23.3284],[-44.5974,-23.3331],[-44.5975,-23.3333]],[[-44.594,-23.3505],[-44.5973,-23.3588],[-44.5938,-23.3503],[-44.594,-23.3505]],[[-44.599,-23.3095],[-44.605,-23.31],[-44.5991,-23.3096],[-44.599,-23.3095]],[[-44.6328,-23.2933],[-44.6255,-23.2875],[-44.6281,-23.29],[-44.6243,-23.2928],[-44.6179,-23.2917],[-44.6326,-23.2933],[-44.6075,-23.2958],[-44.5978,-23.3013],[-44.612,-23.2968],[-44.6003,-23.306],[-44.6054,-23.3024],[-44.6064,-23.3073],[-44.6055,-23.3023],[-44.6119,-23.2968],[-44.6213,-23.2966],[-44.6163,-23.2998],[-44.6233,-23.2964],[-44.6078,-23.3057],[-44.6146,-23.3033],[-44.6112,-23.307],[-44.6326,-23.2933],[-44.6328,-23.2933]],[[-44.5989,-23.3516],[-44.6044,-23.3566],[-44.599,-23.3514],[-44.5989,-23.3516]],[[-44.6009,-23.3515],[-44.6037,-23.3541],[-44.6008,-23.3514],[-44.6009,-23.3515]]]}},{"type":"Feature","properties":{"cod_tema":"RIO_ATE_10","cod_imovel":"RJ-3303807-9B729612D1104F4EA9AB898D35ACCD56","ind_status":"AT"},"geometry":{"type":"Polygon","coordinates":[[[-44.6764,-23.256],[-44.6796,-23.2524],[-44.6759,-23.2561],[-44.6764,-23.256]]]}},{"type":"Feature","properties":{"cod_tema":"RIO_ATE_10","cod_imovel":"RJ-3303807-D30FD447B36149C5A7399F768E569972","ind_status":"PE"},"geometry":{"type":"Polygon","coordinates":[[[-44.6246,-22.9887],[-44.5967,-22.988],[-44.5744,-22.9979],[-44.5626,-22.9917],[-44.5483,-23.005],[-44.5627,-22.9917],[-44.5744,-22.998],[-44.5967,-22.9881],[-44.629,-22.9885],[-44.6246,-22.9887]]]}},{"type":"Feature","properties":{"cod_tema":"RIO_ATE_10","cod_imovel":"RJ-3303807-14A7F74E733D434593C77C2B50314C5A","ind_status":"PE"},"geometry":{"type":"Polygon","coordinates":[[[-44.712,-23.3378],[-44.7118,-23.3429],[-44.7122,-23.3374],[-44.712,-23.3378]],[[-44.7153,-23.339],[-44.7129,-23.3431],[-44.7156,-23.3388],[-44.7153,-23.339]],[[-44.7189,-23.3421],[-44.716,-23.3446],[-44.7196,-23.3417],[-44.7189,-23.3421]]]}},{"type":"Feature","properties":{"cod_tema":"RIO_ATE_10","cod_imovel":"RJ-3303807-D59E0A628CC747A6BC39CD6D9EBCE299","ind_status":"AT"},"geometry":{"type":"Polygon","coordinates":[[[-44.7598,-23.2041],[-44.7629,-23.2015],[-44.7598,-23.204],[-44.7598,-23.2041]],[[-44.7649,-23.2162],[-44.7729,-23.2114],[-44.7649,-23.2159],[-44.7649,-23.2162]],[[-44.7638,-23.2177],[-44.7627,-23.2102],[-44.7638,-23.2176],[-44.7638,-23.2177]]]}},{"type":"Feature","properties":{"cod_tema":"RIO_ATE_10","cod_imovel":"RJ-3303807-E0944D368E024E79A84DB81F958816F8","ind_status":"PE"},"geometry":{"type":"Polygon","coordinates":[[[-44.7384,-23.2043],[-44.732,-23.2069],[-44.7389,-23.204],[-44.7384,-23.2043]]]}},{"type":"Feature","properties":{"cod_tema":"RIO_ATE_10","cod_imovel":"RJ-3303807-5966F21035B14B8D8F5F9A8C65D6D690","ind_status":"PE"},"geometry":{"type":"Polygon","coordinates":[[[-44.7507,-23.1184],[-44.7458,-23.1177],[-44.7501,-23.1183],[-44.7498,-23.1246],[-44.7502,-23.1183],[-44.7555,-23.1233],[-44.7508,-23.1184],[-44.7507,-23.1184]]]}},{"type":"Feature","properties":{"cod_tema":"RIO_ATE_10","cod_imovel":"RJ-3303807-65EC36D457014517849D7954232F5187","ind_status":"PE"},"geometry":{"type":"Polygon","coordinates":[[[-44.7446,-23.1244],[-44.7375,-23.1174],[-44.751,-23.1183],[-44.7351,-23.1179],[-44.7448,-23.125],[-44.7446,-23.1244]]]}},{"type":"Feature","properties":{"cod_tema":"RIO_ATE_10","cod_imovel":"RJ-3303807-D61ED71BBFFF453297A4884B784526EB","ind_status":"PE"},"geometry":{"type":"Polygon","coordinates":[[[-44.7486,-23.1118],[-44.7386,-23.1163],[-44.7457,-23.1145],[-44.7486,-23.1118]],[[-44.7537,-23.1048],[-44.7469,-23.1164],[-44.7546,-23.1049],[-44.7537,-23.1048]],[[-44.7601,-23.1188],[-44.7358,-23.118],[-44.7643,-23.1181],[-44.7601,-23.1188]]]}},{"type":"Feature","properties":{"cod_tema":"RIO_10_A_50","cod_imovel":"RJ-3303807-03A012401C674EB5B8285A59280B07B0","ind_status":"PE"},"geometry":{"type":"Polygon","coordinates":[[[-44.7889,-23.1049],[-44.7853,-23.105],[-44.7888,-23.1055],[-44.7889,-23.1049]]]}},{"type":"Feature","properties":{"cod_tema":"RIO_ATE_10","cod_imovel":"RJ-3303807-CBF48C94592C463C970659FDE3A7FA5B","ind_status":"AT"},"geometry":{"type":"Polygon","coordinates":[[[-44.7239,-23.1411],[-44.7307,-23.1485],[-44.724,-23.1411],[-44.7239,-23.1411]]]}},{"type":"Feature","properties":{"cod_tema":"RIO_ATE_10","cod_imovel":"RJ-3303807-79B25EF576A64AA5B6F63C9175076BF5","ind_status":"AT"},"geometry":{"type":"Polygon","coordinates":[[[-44.6478,-23.2671],[-44.6437,-23.266],[-44.648,-23.2671],[-44.6478,-23.2671]]]}},{"type":"Feature","properties":{"cod_tema":"RIO_ATE_10","cod_imovel":"RJ-3303807-6D72B29448604B44B45EB68483A1A320","ind_status":"AT"},"geometry":{"type":"Polygon","coordinates":[[[-44.6683,-23.2677],[-44.6654,-23.2638],[-44.6703,-23.2672],[-44.6683,-23.2677]]]}},{"type":"Feature","properties":{"cod_tema":"RIO_ATE_10","cod_imovel":"RJ-3303807-8C6E171D9FCD4DB3AF7378E108E4241D","ind_status":"AT"},"geometry":{"type":"Polygon","coordinates":[[[-44.7052,-23.0431],[-44.7022,-23.0445],[-44.7052,-23.0429],[-44.7052,-23.0431]]]}},{"type":"Feature","properties":{"cod_tema":"RIO_10_A_50","cod_imovel":"RJ-3303807-E67599C619F44094BAC8F32B4A227E43","ind_status":"AT"},"geometry":{"type":"Polygon","coordinates":[[[-44.5439,-22.9954],[-44.5403,-22.9958],[-44.5451,-23.0069],[-44.5483,-23.0039],[-44.5447,-23.0063],[-44.5406,-22.996],[-44.5442,-22.9959],[-44.5439,-22.9954]]]}},{"type":"Feature","properties":{"cod_tema":"RIO_10_A_50","cod_imovel":"RJ-3303807-76604FE7B05A4F54873D3EF7CDE13977","ind_status":"AT"},"geometry":{"type":"Polygon","coordinates":[[[-44.7791,-23.2263],[-44.7757,-23.2252],[-44.7788,-23.2261],[-44.7791,-23.2263]]]}},{"type":"Feature","properties":{"cod_tema":"RIO_ATE_10","cod_imovel":"RJ-3303807-BBBC608D79FE4640B0D3DACA5E3D75EC","ind_status":"AT"},"geometry":{"type":"Polygon","coordinates":[[[-44.7314,-23.2252],[-44.7575,-23.2405],[-44.7312,-23.225],[-44.7314,-23.2252]]]}},{"type":"Feature","properties":{"cod_tema":"RIO_ATE_10","cod_imovel":"RJ-3303807-DF283ACB229149869CEA14142E86556A","ind_status":"AT"},"geometry":{"type":"Polygon","coordinates":[[[-44.6904,-23.3018],[-44.6869,-23.2998],[-44.6924,-23.3018],[-44.6904,-23.3018]]]}},{"type":"Feature","properties":{"cod_tema":"RIO_ATE_10","cod_imovel":"RJ-3303807-1D2C9A798FE445C5BA9CFD925936E478","ind_status":"AT"},"geometry":{"type":"Polygon","coordinates":[[[-44.7719,-23.2575],[-44.765,-23.2582],[-44.7719,-23.2575],[-44.7719,-23.2575]]]}},{"type":"Feature","properties":{"cod_tema":"RIO_10_A_50","cod_imovel":"RJ-3303807-7071D0827D8B48CAB2126879C477BC18","ind_status":"AT"},"geometry":{"type":"Polygon","coordinates":[[[-44.7471,-23.2211],[-44.7441,-23.22],[-44.747,-23.2212],[-44.7471,-23.2211]]]}},{"type":"Feature","properties":{"cod_tema":"RIO_ATE_10","cod_imovel":"RJ-3303807-F2842A72794A4B2D8BFC22E8DD47DD40","ind_status":"AT"},"geometry":{"type":"Polygon","coordinates":[[[-44.7331,-23.2264],[-44.7432,-23.2312],[-44.733,-23.2263],[-44.7331,-23.2264]]]}},{"type":"Feature","properties":{"cod_tema":"RIO_ATE_10","cod_imovel":"RJ-3303807-7A39F7C9C7FE453F9EE0002900E02B0A","ind_status":"AT"},"geometry":{"type":"Polygon","coordinates":[[[-44.7981,-23.1936],[-44.7962,-23.1891],[-44.799,-23.2011],[-44.7981,-23.1936],[-44.7981,-23.1936]]]}},{"type":"Feature","properties":{"cod_tema":"RIO_10_A_50","cod_imovel":"RJ-3303807-C84DB5AE677B44B59FFA12F0C11AC7C6","ind_status":"PE"},"geometry":{"type":"Polygon","coordinates":[[[-44.7419,-23.2196],[-44.7374,-23.2193],[-44.7423,-23.2196],[-44.7419,-23.2196]]]}},{"type":"Feature","properties":{"cod_tema":"RIO_ATE_10","cod_imovel":"RJ-3303807-AB4E67A1C2684E44BCDFF72A51156DF8","ind_status":"AT"},"geometry":{"type":"Polygon","coordinates":[[[-44.7091,-23.2505],[-44.7046,-23.2513],[-44.7092,-23.2505],[-44.7091,-23.2505]]]}},{"type":"Feature","properties":{"cod_tema":"RIO_ATE_10","cod_imovel":"RJ-3303807-A4FC115CF2A34CD1B785116DA00E953E","ind_status":"AT"},"geometry":{"type":"Polygon","coordinates":[[[-44.7052,-23.2515],[-44.7005,-23.2502],[-44.7055,-23.2515],[-44.7052,-23.2515]],[[-44.712,-23.2512],[-44.7087,-23.2504],[-44.7122,-23.2513],[-44.712,-23.2512]]]}},{"type":"Feature","properties":{"cod_tema":"RIO_ATE_10","cod_imovel":"RJ-3303807-77B7D275E0C84994911A29B343E56561","ind_status":"PE"},"geometry":{"type":"Polygon","coordinates":[[[-44.7609,-23.2401],[-44.7574,-23.2404],[-44.7609,-23.2402],[-44.7609,-23.2401]]]}},{"type":"Feature","properties":{"cod_tema":"RIO_ATE_10","cod_imovel":"RJ-3303807-E6C1DF604A9A469B92205DEAE3D18AAD","ind_status":"AT"},"geometry":{"type":"Polygon","coordinates":[[[-44.7089,-23.0903],[-44.7052,-23.0911],[-44.7103,-23.0898],[-44.7089,-23.0903]]]}},{"type":"Feature","properties":{"cod_tema":"RIO_ATE_10","cod_imovel":"RJ-3303807-5AAAC18F9B8E43E3973E69337004C40C","ind_status":"AT"},"geometry":{"type":"Polygon","coordinates":[[[-44.7197,-23.249],[-44.7164,-23.2473],[-44.7151,-23.2513],[-44.7198,-23.249],[-44.7197,-23.249]]]}},{"type":"Feature","properties":{"cod_tema":"RIO_ATE_10","cod_imovel":"RJ-3303807-5CB961EB63AF4DF0A92F30366A3EB9E5","ind_status":"AT"},"geometry":{"type":"Polygon","coordinates":[[[-44.7039,-23.2512],[-44.7003,-23.2503],[-44.7053,-23.2517],[-44.7039,-23.2512]]]}},{"type":"Feature","properties":{"cod_tema":"RIO_ATE_10","cod_imovel":"RJ-3303807-6B2314292AE340B09FD97BD03FE79D3C","ind_status":"AT"},"geometry":{"type":"Polygon","coordinates":[[[-44.7488,-23.3224],[-44.7407,-23.3295],[-44.736,-23.3267],[-44.7407,-23.3296],[-44.7491,-23.3224],[-44.7488,-23.3224]]]}},{"type":"Feature","properties":{"cod_tema":"RIO_ATE_10","cod_imovel":"RJ-3303807-CB068BA6BC87413D80FB5C9983C4738A","ind_status":"AT"},"geometry":{"type":"Polygon","coordinates":[[[-44.6316,-23.2059],[-44.637,-23.211],[-44.6303,-23.2057],[-44.6316,-23.2059]]]}},{"type":"Feature","properties":{"cod_tema":"RIO_ATE_10","cod_imovel":"RJ-3303807-82DD22E23B7945DD9A46CF81A0F30E6B","ind_status":"AT"},"geometry":{"type":"Polygon","coordinates":[[[-44.716,-23.303],[-44.7121,-23.3011],[-44.7187,-23.3019],[-44.716,-23.303]]]}},{"type":"Feature","properties":{"cod_tema":"RIO_ACIMA_600","cod_imovel":"RJ-3303807-0C800FEBD350423BB6F4BB7567D6ADD2","ind_status":"AT"},"geometry":{"type":"Polygon","coordinates":[[[-44.6409,-23.2746],[-44.6342,-23.2597],[-44.6319,-23.2746],[-44.6409,-23.2746]]]}},{"type":"Feature","properties":{"cod_tema":"RIO_ATE_10","cod_imovel":"RJ-3303807-9E34ABB7628547D3A2DF921B24C15F23","ind_status":"AT"},"geometry":{"type":"Polygon","coordinates":[[[-44.8088,-23.2259],[-44.801,-23.2226],[-44.81,-23.2273],[-44.8088,-23.2259]]]}},{"type":"Feature","properties":{"cod_tema":"RIO_ATE_10","cod_imovel":"RJ-3303807-531BCC0AA1364FBF851D85ABE8BA8B26","ind_status":"AT"},"geometry":{"type":"Polygon","coordinates":[[[-44.8123,-23.2302],[-44.8155,-23.2332],[-44.81,-23.2282],[-44.8123,-23.2302]]]}},{"type":"Feature","properties":{"cod_tema":"RIO_ATE_10","cod_imovel":"RJ-3303807-6C9AF152EE3A45559E19257A9A2F36B7","ind_status":"PE"},"geometry":{"type":"Polygon","coordinates":[[[-44.6591,-23.0484],[-44.656,-23.0523],[-44.6592,-23.048],[-44.6591,-23.0484]]]}},{"type":"Feature","properties":{"cod_tema":"RIO_ATE_10","cod_imovel":"RJ-3303807-F4BE5B547B2C4CEFAA936ECB905DE598","ind_status":"AT"},"geometry":{"type":"Polygon","coordinates":[[[-44.7101,-23.0914],[-44.7141,-23.0883],[-44.7094,-23.0917],[-44.7101,-23.0914]]]}},{"type":"Feature","properties":{"cod_tema":"RIO_ATE_10","cod_imovel":"RJ-3303807-78639FAA047F42588936D8032FF7DC3A","ind_status":"PE"},"geometry":{"type":"Polygon","coordinates":[[[-42.1658,-22.2537],[-42.163,-22.257],[-42.1658,-22.2532],[-42.1658,-22.2537]]]}},{"type":"Feature","properties":{"cod_tema":"RIO_10_A_50","cod_imovel":"RJ-3303807-22BC33FF90FB47F08FC990B6F1F7AD1B","ind_status":"AT"},"geometry":{"type":"Polygon","coordinates":[[[-44.7891,-23.2235],[-44.7838,-23.2248],[-44.7888,-23.2242],[-44.7891,-23.2235]]]}},{"type":"Feature","properties":{"cod_tema":"RIO_ATE_10","cod_imovel":"RJ-3303807-8F3BDB28B03149D983268ECE5705108C","ind_status":"AT"},"geometry":{"type":"Polygon","coordinates":[[[-44.7461,-23.2014],[-44.7401,-23.2019],[-44.7465,-23.201],[-44.7461,-23.2014]]]}},{"type":"Feature","properties":{"cod_tema":"RIO_ATE_10","cod_imovel":"RJ-3303807-6A195F399DEE40B69E1F5D85C45B6959","ind_status":"AT"},"geometry":{"type":"Polygon","coordinates":[[[-44.7831,-23.222],[-44.7763,-23.2247],[-44.7741,-23.2196],[-44.7733,-23.2228],[-44.7831,-23.222],[-44.7831,-23.222]]]}},{"type":"Feature","properties":{"cod_tema":"RIO_10_A_50","cod_imovel":"RJ-3303807-8B075391A5B54F669AF3C5C639920B99","ind_status":"AT"},"geometry":{"type":"Polygon","coordinates":[[[-44.7136,-23.0966],[-44.706,-23.0971],[-44.7138,-23.0967],[-44.7136,-23.0966]]]}},{"type":"Feature","properties":{"cod_tema":"RIO_ATE_10","cod_imovel":"RJ-3303807-8521EAA8C2E844A0BEF80C692D7E2F2B","ind_status":"AT"},"geometry":{"type":"Polygon","coordinates":[[[-44.7003,-23.1352],[-44.7057,-23.1352],[-44.7003,-23.1352],[-44.7003,-23.1352]],[[-44.6963,-23.1091],[-44.7086,-23.1161],[-44.6963,-23.109],[-44.6963,-23.1091]]]}},{"type":"Feature","properties":{"cod_tema":"RIO_ATE_10","cod_imovel":"RJ-3303807-8F00EC290C4B43EA9F213830CD54D4F9","ind_status":"PE"},"geometry":{"type":"Polygon","coordinates":[[[-44.7269,-23.1137],[-44.7306,-23.1159],[-44.7268,-23.1139],[-44.7269,-23.1137]]]}},{"type":"Feature","properties":{"cod_tema":"RIO_ATE_10","cod_imovel":"RJ-3303807-17F62ADDA81C450B91DAB2DD8E4BE96F","ind_status":"AT"},"geometry":{"type":"Polygon","coordinates":[[[-44.7984,-23.2022],[-44.7955,-23.2053],[-44.7997,-23.2009],[-44.7984,-23.2022]]]}},{"type":"Feature","properties":{"cod_tema":"RIO_ATE_10","cod_imovel":"RJ-3303807-6B064CDE1BCE49C88CC66B88D1173690","ind_status":"AT"},"geometry":{"type":"Polygon","coordinates":[[[-44.8151,-23.2109],[-44.8111,-23.2109],[-44.8171,-23.2102],[-44.8151,-23.2109]]]}},{"type":"Feature","properties":{"cod_tema":"RIO_ATE_10","cod_imovel":"RJ-3303807-6B18BAB01CA8422CB222F377EE2C553C","ind_status":"AT"},"geometry":{"type":"Polygon","coordinates":[[[-44.6853,-23.0648],[-44.6909,-23.0594],[-44.685,-23.0652],[-44.6853,-23.0648]]]}},{"type":"Feature","properties":{"cod_tema":"RIO_ATE_10","cod_imovel":"RJ-3303807-760572F35A0B40BAA50B8222268670EC","ind_status":"AT"},"geometry":{"type":"Polygon","coordinates":[[[-44.8138,-23.2101],[-44.8102,-23.2104],[-44.8158,-23.2109],[-44.8138,-23.2101]]]}},{"type":"Feature","properties":{"cod_tema":"RIO_ATE_10","cod_imovel":"RJ-3303807-5C3ACE3AEED247C1B7548860594A347F","ind_status":"PE"},"geometry":{"type":"Polygon","coordinates":[[[-44.7031,-23.0745],[-44.6995,-23.0757],[-44.7034,-23.0732],[-44.7031,-23.0745]]]}},{"type":"Feature","properties":{"cod_tema":"RIO_ATE_10","cod_imovel":"RJ-3303807-D0B18AF943044F78889DF8C8905C2FC0","ind_status":"AT"},"geometry":{"type":"Polygon","coordinates":[[[-44.7716,-23.1619],[-44.7642,-23.1742],[-44.7701,-23.1629],[-44.7789,-23.1615],[-44.7716,-23.1619]]]}},{"type":"Feature","properties":{"cod_tema":"RIO_ATE_10","cod_imovel":"RJ-3303807-59F40A4C558C43D38E97C2B070C36683","ind_status":"AT"},"geometry":{"type":"Polygon","coordinates":[[[-44.7989,-23.2702],[-44.7953,-23.2686],[-44.8002,-23.269],[-44.7989,-23.2702]],[[-44.8013,-23.2509],[-44.7968,-23.2486],[-44.8016,-23.2508],[-44.8013,-23.2509]],[[-44.8022,-23.2463],[-44.7999,-23.2501],[-44.8023,-23.2462],[-44.8022,-23.2463]]]}},{"type":"Feature","properties":{"cod_tema":"RIO_ATE_10","cod_imovel":"RJ-3303807-6CFF36F18EC4443894969F6ED108CE28","ind_status":"AT"},"geometry":{"type":"Polygon","coordinates":[[[-44.5986,-22.9975],[-44.5947,-23.0038],[-44.5991,-22.9963],[-44.5986,-22.9975]],[[-44.5962,-22.9979],[-44.5898,-23.0041],[-44.5957,-23.0024],[-44.5966,-22.9962],[-44.5962,-22.9979]]]}},{"type":"Feature","properties":{"cod_tema":"RIO_ATE_10","cod_imovel":"RJ-3303807-961EE0FB1A5F4F58AA2E685E96588209","ind_status":"AT"},"geometry":{"type":"Polygon","coordinates":[[[-44.7453,-23.1404],[-44.7361,-23.141],[-44.7474,-23.1399],[-44.7453,-23.1404]]]}},{"type":"Feature","properties":{"cod_tema":"RIO_10_A_50","cod_imovel":"RJ-3303807-C9BA6DE188464E088FCD9A95A5D7C02F","ind_status":"AT"},"geometry":{"type":"Polygon","coordinates":[[[-44.7467,-23.2208],[-44.7513,-23.2236],[-44.7469,-23.2205],[-44.7467,-23.2208]]]}},{"type":"Feature","properties":{"cod_tema":"RIO_ATE_10","cod_imovel":"RJ-3303807-4CFA8156E6A147C79AA62F8F9DE9F60F","ind_status":"AT"},"geometry":{"type":"Polygon","coordinates":[[[-44.5592,-22.9936],[-44.5515,-23.001],[-44.5592,-22.9936],[-44.5592,-22.9936]]]}},{"type":"Feature","properties":{"cod_tema":"RIO_ATE_10","cod_imovel":"RJ-3303807-D3E509F4DAB543A9AC58333D62D0FA3F","ind_status":"AT"},"geometry":{"type":"Polygon","coordinates":[[[-44.7227,-23.0889],[-44.7187,-23.0904],[-44.7247,-23.0889],[-44.7227,-23.0889]]]}},{"type":"Feature","properties":{"cod_tema":"RIO_10_A_50","cod_imovel":"RJ-3303807-A9E87074187C4D32BE93C6F19A729BC0","ind_status":"AT"},"geometry":{"type":"Polygon","coordinates":[[[-44.7496,-23.1397],[-44.7415,-23.1412],[-44.749,-23.1395],[-44.7496,-23.1397]]]}},{"type":"Feature","properties":{"cod_tema":"RIO_ATE_10","cod_imovel":"RJ-3303807-B36F1F05E61F4176AF2F7B47F82D4087","ind_status":"AT"},"geometry":{"type":"Polygon","coordinates":[[[-44.7494,-23.3091],[-44.7445,-23.3129],[-44.7495,-23.3094],[-44.7494,-23.3091]]]}},{"type":"Feature","properties":{"cod_tema":"RIO_10_A_50","cod_imovel":"RJ-3303807-B36F1F05E61F4176AF2F7B47F82D4087","ind_status":"AT"},"geometry":{"type":"Polygon","coordinates":[[[-44.7494,-23.3091],[-44.7445,-23.3129],[-44.7495,-23.3094],[-44.7494,-23.3091]]]}},{"type":"Feature","properties":{"cod_tema":"RIO_ATE_10","cod_imovel":"RJ-3303807-89AA527F994647C2B62F4F4F2FF0F500","ind_status":"AT"},"geometry":{"type":"Polygon","coordinates":[[[-44.5718,-23.2747],[-44.5688,-23.2718],[-44.5718,-23.275],[-44.5718,-23.2747]]]}},{"type":"Feature","properties":{"cod_tema":"RIO_ATE_10","cod_imovel":"RJ-3303807-2F95C3BC393F4C389E3E7B9647F57E69","ind_status":"AT"},"geometry":{"type":"Polygon","coordinates":[[[-44.7368,-23.0878],[-44.7326,-23.0887],[-44.7394,-23.0883],[-44.7368,-23.0878]]]}},{"type":"Feature","properties":{"cod_tema":"RIO_ATE_10","cod_imovel":"RJ-3303807-71EE8048C4C24469B58176B702282E87","ind_status":"PE"},"geometry":{"type":"Polygon","coordinates":[[[-44.7347,-23.118],[-44.7281,-23.1183],[-44.736,-23.1174],[-44.7347,-23.118]]]}},{"type":"Feature","properties":{"cod_tema":"RIO_10_A_50","cod_imovel":"RJ-3303807-D73E25D7F14346C4A18E3FF3933354BF","ind_status":"AT"},"geometry":{"type":"Polygon","coordinates":[[[-44.6865,-23.2736],[-44.6795,-23.2692],[-44.6864,-23.2737],[-44.6865,-23.2736]]]}},{"type":"Feature","properties":{"cod_tema":"RIO_ATE_10","cod_imovel":"RJ-3303807-7109CDAB321545B3904FB8E5198DFB24","ind_status":"AT"},"geometry":{"type":"Polygon","coordinates":[[[-44.6947,-23.2529],[-44.6987,-23.255],[-44.6948,-23.2529],[-44.6947,-23.2529]]]}},{"type":"Feature","properties":{"cod_tema":"RIO_ATE_10","cod_imovel":"RJ-3303807-3DD5860F035E4B92A3DB50CAC5ED8AF1","ind_status":"AT"},"geometry":{"type":"Polygon","coordinates":[[[-44.7284,-23.2634],[-44.7236,-23.2625],[-44.7283,-23.2636],[-44.7284,-23.2634]]]}},{"type":"Feature","properties":{"cod_tema":"RIO_ATE_10","cod_imovel":"RJ-3303807-A419785C65AD4936A34D18BB010CE619","ind_status":"AT"},"geometry":{"type":"Polygon","coordinates":[[[-44.6655,-23.2635],[-44.6627,-23.2596],[-44.666,-23.2639],[-44.6655,-23.2635]]]}},{"type":"Feature","properties":{"cod_tema":"RIO_10_A_50","cod_imovel":"RJ-3303807-8E9AE9E68C364590B2DD0074F50764A0","ind_status":"AT"},"geometry":{"type":"Polygon","coordinates":[[[-44.7607,-23.2553],[-44.761,-23.2522],[-44.7604,-23.2554],[-44.7607,-23.2553]]]}},{"type":"Feature","properties":{"cod_tema":"RIO_ATE_10","cod_imovel":"RJ-3303807-442F3923D93F44AC811E83B07C1C2938","ind_status":"AT"},"geometry":{"type":"Polygon","coordinates":[[[-44.5996,-23.246],[-44.5964,-23.2514],[-44.5996,-23.2459],[-44.5996,-23.246]]]}},{"type":"Feature","properties":{"cod_tema":"RIO_ATE_10","cod_imovel":"RJ-3303807-32E0CC44E69441ABB292E6E451F72965","ind_status":"AT"},"geometry":{"type":"Polygon","coordinates":[[[-44.6929,-23.2357],[-44.6964,-23.2365],[-44.6923,-23.2357],[-44.6929,-23.2357]]]}},{"type":"Feature","properties":{"cod_tema":"RIO_ATE_10","cod_imovel":"RJ-3303807-863641709DBC4DC6980F75D59516C51B","ind_status":"AT"},"geometry":{"type":"Polygon","coordinates":[[[-44.7863,-23.228],[-44.7842,-23.2246],[-44.7862,-23.228],[-44.7863,-23.228]]]}},{"type":"Feature","properties":{"cod_tema":"RIO_10_A_50","cod_imovel":"RJ-3303807-863641709DBC4DC6980F75D59516C51B","ind_status":"AT"},"geometry":{"type":"Polygon","coordinates":[[[-44.7889,-23.2235],[-44.7839,-23.2246],[-44.7889,-23.2236],[-44.7889,-23.2235]]]}},{"type":"Feature","properties":{"cod_tema":"RIO_ATE_10","cod_imovel":"RJ-3303807-F6B4991083FC48DAB3EC72A0C5741E8A","ind_status":"AT"},"geometry":{"type":"Polygon","coordinates":[[[-44.5738,-23.2742],[-44.574,-23.2801],[-44.5738,-23.2741],[-44.5738,-23.2742]]]}},{"type":"Feature","properties":{"cod_tema":"RIO_ATE_10","cod_imovel":"RJ-3303807-93F9D17DB29D40DFB9176D39FBD97CCA","ind_status":"SU"},"geometry":{"type":"Polygon","coordinates":[[[-44.7069,-23.0557],[-44.7051,-23.06],[-44.6929,-23.0597],[-44.6788,-23.0664],[-44.6929,-23.0598],[-44.7052,-23.0601],[-44.7067,-23.0556],[-44.7069,-23.0557]]]}},{"type":"Feature","properties":{"cod_tema":"RIO_10_A_50","cod_imovel":"RJ-3303807-93F9D17DB29D40DFB9176D39FBD97CCA","ind_status":"SU"},"geometry":{"type":"Polygon","coordinates":[[[-44.6723,-23.0539],[-44.6756,-23.0562],[-44.6745,-23.0512],[-44.6752,-23.0563],[-44.6683,-23.0541],[-44.6717,-23.0537],[-44.6723,-23.0539]]]}},{"type":"Feature","properties":{"cod_tema":"RIO_ATE_10","cod_imovel":"RJ-3303807-5B6D7786B6CE410C9334588B863778FB","ind_status":"AT"},"geometry":{"type":"Polygon","coordinates":[[[-44.7199,-23.3202],[-44.7191,-23.326],[-44.72,-23.3202],[-44.7199,-23.3202]]]}},{"type":"Feature","properties":{"cod_tema":"RIO_10_A_50","cod_imovel":"RJ-3303807-1312E25CC9DC4611A2A2197FDBF20954","ind_status":"PE"},"geometry":{"type":"Polygon","coordinates":[[[-44.7934,-23.1045],[-44.7897,-23.1049],[-44.7933,-23.1051],[-44.7934,-23.1045]]]}},{"type":"Feature","properties":{"cod_tema":"RIO_ATE_10","cod_imovel":"RJ-3303807-50926FD6A0F440B7B5D6EF62A7D66BDC","ind_status":"AT"},"geometry":{"type":"Polygon","coordinates":[[[-44.6495,-23.2431],[-44.6467,-23.2383],[-44.6494,-23.2432],[-44.6495,-23.2431]]]}},{"type":"Feature","properties":{"cod_tema":"RIO_10_A_50","cod_imovel":"RJ-3303807-ED9A59206ABE4AEA85B086DFB725AB21","ind_status":"AT"},"geometry":{"type":"Polygon","coordinates":[[[-44.6363,-23.2925],[-44.6286,-23.2948],[-44.6366,-23.2926],[-44.6363,-23.2925]]]}},{"type":"Feature","properties":{"cod_tema":"RIO_ATE_10","cod_imovel":"RJ-3303807-575FAFB3562B4E91A22756622E940FED","ind_status":"AT"},"geometry":{"type":"Polygon","coordinates":[[[-44.73,-23.254],[-44.7185,-23.2513],[-44.7312,-23.2535],[-44.73,-23.254]]]}},{"type":"Feature","properties":{"cod_tema":"RIO_ATE_10","cod_imovel":"RJ-3303807-80F8BC8C9E514972992BB6A0FBDEBB78","ind_status":"AT"},"geometry":{"type":"Polygon","coordinates":[[[-44.5859,-23.0027],[-44.5808,-23.0051],[-44.5864,-23.0028],[-44.5859,-23.0027]]]}},{"type":"Feature","properties":{"cod_tema":"RIO_10_A_50","cod_imovel":"RJ-3303807-86160E35C35442558C66023A01727624","ind_status":"AT"},"geometry":{"type":"Polygon","coordinates":[[[-44.7409,-23.3303],[-44.7433,-23.3329],[-44.7412,-23.3301],[-44.7409,-23.3303]]]}},{"type":"Feature","properties":{"cod_tema":"RIO_ATE_10","cod_imovel":"RJ-3303807-49C246350CFC42BB98F3CA48400E0447","ind_status":"AT"},"geometry":{"type":"Polygon","coordinates":[[[-44.7359,-23.156],[-44.7316,-23.1583],[-44.7366,-23.1555],[-44.7359,-23.156]],[[-44.7339,-23.1537],[-44.7376,-23.1561],[-44.7337,-23.1531],[-44.7339,-23.1537]]]}},{"type":"Feature","properties":{"cod_tema":"RIO_ATE_10","cod_imovel":"RJ-3303807-2B0F327CF9AA450ABAEB1630C86AAA9A","ind_status":"AT"},"geometry":{"type":"Polygon","coordinates":[[[-44.6658,-23.2644],[-44.6632,-23.2613],[-44.6665,-23.2653],[-44.6658,-23.2644]]]}},{"type":"Feature","properties":{"cod_tema":"RIO_ATE_10","cod_imovel":"RJ-3303807-3A4FF01D418E44E4BFE36347E609D16B","ind_status":"AT"},"geometry":{"type":"Polygon","coordinates":[[[-44.6894,-23.3009],[-44.6862,-23.2972],[-44.6904,-23.3012],[-44.6894,-23.3009]]]}},{"type":"Feature","properties":{"cod_tema":"RIO_ATE_10","cod_imovel":"RJ-3303807-C58AB5D4DFA54ADA917D904E26A5C607","ind_status":"AT"},"geometry":{"type":"Polygon","coordinates":[[[-44.7077,-23.2853],[-44.7045,-23.2846],[-44.7119,-23.2896],[-44.7077,-23.2853]]]}},{"type":"Feature","properties":{"cod_tema":"RIO_ATE_10","cod_imovel":"RJ-3303807-EDAD186488374843A5EEFF817196F0D1","ind_status":"AT"},"geometry":{"type":"Polygon","coordinates":[[[-44.7195,-23.2591],[-44.7114,-23.2513],[-44.7195,-23.2591],[-44.7195,-23.2591]]]}},{"type":"Feature","properties":{"cod_tema":"RIO_ATE_10","cod_imovel":"RJ-3303807-C6ADA59A99FE4F4A91D97E15BC4CB64E","ind_status":"AT"},"geometry":{"type":"Polygon","coordinates":[[[-44.6893,-23.2838],[-44.6855,-23.2831],[-44.6903,-23.2835],[-44.6893,-23.2838]]]}},{"type":"Feature","properties":{"cod_tema":"RIO_ATE_10","cod_imovel":"RJ-3303807-F892FA59CB01404486AE7DBC5F03C6C6","ind_status":"AT"},"geometry":{"type":"Polygon","coordinates":[[[-44.7979,-23.1012],[-44.8041,-23.1053],[-44.7972,-23.1003],[-44.7979,-23.1012]]]}},{"type":"Feature","properties":{"cod_tema":"RIO_ATE_10","cod_imovel":"RJ-3303807-9E1DB2F6235040C7B7353D4BCB917751","ind_status":"SU"},"geometry":{"type":"Polygon","coordinates":[[[-44.7123,-22.9479],[-44.7164,-22.948],[-44.7123,-22.9479],[-44.7123,-22.9479]],[[-44.7251,-22.9407],[-44.72,-22.9477],[-44.7251,-22.9407],[-44.7251,-22.9407]],[[-44.7106,-22.939],[-44.7062,-22.94],[-44.7106,-22.939],[-44.7106,-22.939]],[[-44.7036,-22.936],[-44.7066,-22.932],[-44.7115,-22.9349],[-44.7065,-22.9317],[-44.7017,-22.9356],[-44.7066,-22.9374],[-44.7038,-22.936],[-44.7036,-22.936]],[[-44.7159,-22.9401],[-44.7217,-22.9365],[-44.7159,-22.9401],[-44.7159,-22.9401]],[[-44.7208,-22.9357],[-44.7255,-22.94],[-44.721,-22.9358],[-44.7208,-22.9357]]]}},{"type":"Feature","properties":{"cod_tema":"RIO_ATE_10","cod_imovel":"RJ-3303807-1E5259427D55456CAB743B37AC8F17BB","ind_status":"PE"},"geometry":{"type":"Polygon","coordinates":[[[-44.7439,-23.1071],[-44.7369,-23.1161],[-44.7423,-23.1098],[-44.7439,-23.1071]]]}},{"type":"Feature","properties":{"cod_tema":"RIO_ATE_10","cod_imovel":"RJ-3303807-CF85E57216704709A9E82663389C91F6","ind_status":"AT"},"geometry":{"type":"Polygon","coordinates":[[[-44.6629,-23.2606],[-44.6595,-23.2544],[-44.6641,-23.2626],[-44.6629,-23.2606]]]}},{"type":"Feature","properties":{"cod_tema":"RIO_ACIMA_600","cod_imovel":"RJ-3303807-71F9B8DD30E04969B0B48A35EFB070DB","ind_status":"AT"},"geometry":{"type":"Polygon","coordinates":[[[-44.8177,-23.142],[-44.8197,-23.1496],[-44.8182,-23.1423],[-44.8177,-23.142]]]}},{"type":"Feature","properties":{"cod_tema":"RIO_ATE_10","cod_imovel":"RJ-3303807-7BB198B5A65B4E0985C10EAD767B0736","ind_status":"AT"},"geometry":{"type":"Polygon","coordinates":[[[-44.7434,-23.0719],[-44.7404,-23.0729],[-44.7444,-23.0713],[-44.7434,-23.0719]]]}},{"type":"Feature","properties":{"cod_tema":"RIO_ATE_10","cod_imovel":"RJ-3303807-F380F8C4716F42B0A1F844E9E13286E1","ind_status":"AT"},"geometry":{"type":"Polygon","coordinates":[[[-44.7396,-23.0726],[-44.7361,-23.0736],[-44.7406,-23.073],[-44.7396,-23.0726]]]}},{"type":"Feature","properties":{"cod_tema":"RIO_ATE_10","cod_imovel":"RJ-3303807-B515C1B8EFEB43C9AD9B2F1659805581","ind_status":"AT"},"geometry":{"type":"Polygon","coordinates":[[[-44.6987,-23.2552],[-44.6942,-23.2516],[-44.6986,-23.2556],[-44.6987,-23.2552]]]}},{"type":"Feature","properties":{"cod_tema":"RIO_10_A_50","cod_imovel":"RJ-3303807-B515C1B8EFEB43C9AD9B2F1659805581","ind_status":"AT"},"geometry":{"type":"Polygon","coordinates":[[[-44.7,-23.2502],[-44.694,-23.2511],[-44.6997,-23.2501],[-44.7,-23.2502]]]}},{"type":"Feature","properties":{"cod_tema":"RIO_ATE_10","cod_imovel":"RJ-3303807-25DE741096854A05AA5A07147FE2E545","ind_status":"AT"},"geometry":{"type":"Polygon","coordinates":[[[-44.6095,-23.0035],[-44.606,-23.0048],[-44.6105,-23.0038],[-44.6095,-23.0035]],[[-44.6114,-23.0032],[-44.6076,-23.0056],[-44.6123,-23.0024],[-44.6114,-23.0032]]]}},{"type":"Feature","properties":{"cod_tema":"RIO_ATE_10","cod_imovel":"RJ-3303807-F97A89A45A04413A8F9D9B376DD233D0","ind_status":"AT"},"geometry":{"type":"Polygon","coordinates":[[[-44.6835,-23.2319],[-44.6878,-23.2342],[-44.6826,-23.232],[-44.6835,-23.2319]]]}},{"type":"Feature","properties":{"cod_tema":"RIO_ATE_10","cod_imovel":"RJ-3303807-EF7FE4286CBA4617938EB77C46255FB2","ind_status":"AT"},"geometry":{"type":"Polygon","coordinates":[[[-44.7326,-23.3373],[-44.7284,-23.3391],[-44.7334,-23.3367],[-44.7326,-23.3373]]]}},{"type":"Feature","properties":{"cod_tema":"RIO_ATE_10","cod_imovel":"RJ-3303807-9FD55B89329B4E89A537482CCBE9AD68","ind_status":"AT"},"geometry":{"type":"Polygon","coordinates":[[[-44.6078,-23.0357],[-44.6056,-23.0388],[-44.6027,-23.0347],[-44.6028,-23.0406],[-44.6059,-23.0418],[-44.6078,-23.0357],[-44.6078,-23.0357]]]}},{"type":"Feature","properties":{"cod_tema":"RIO_ATE_10","cod_imovel":"RJ-3303807-A2D8ED3088CA47AC8200E467F79C308C","ind_status":"AT"},"geometry":{"type":"Polygon","coordinates":[[[-44.5298,-23.2869],[-44.5388,-23.2836],[-44.5305,-23.2861],[-44.5359,-23.2813],[-44.5296,-23.2871],[-44.5298,-23.2869]],[[-44.5349,-23.2915],[-44.5374,-23.2864],[-44.5349,-23.292],[-44.5349,-23.2915]],[[-44.5418,-23.2887],[-44.5461,-23.2872],[-44.5403,-23.2892],[-44.5408,-23.2841],[-44.5358,-23.2921],[-44.5463,-23.2922],[-44.5412,-23.2885],[-44.5418,-23.2887]],[[-44.5374,-23.2937],[-44.5444,-23.2944],[-44.537,-23.2937],[-44.5374,-23.2937]],[[-44.544,-23.3019],[-44.5463,-23.298],[-44.5439,-23.3021],[-44.544,-23.3019]],[[-44.5575,-23.2985],[-44.5577,-23.2917],[-44.5571,-23.301],[-44.5519,-23.3026],[-44.5558,-23.2984],[-44.5528,-23.3014],[-44.5512,-23.289],[-44.5513,-23.3036],[-44.5647,-23.2942],[-44.5612,-23.2903],[-44.5649,-23.2959],[-44.5575,-23.2986],[-44.5575,-23.2985]],[[-44.5657,-23.2989],[-44.5735,-23.2909],[-44.5654,-23.2971],[-44.5708,-23.2882],[-44.5572,-23.3061],[-44.5657,-23.2989],[-44.5657,-23.2989]],[[-44.5972,-23.3082],[-44.5861,-23.3053],[-44.5986,-23.3038],[-44.5956,-23.3027],[-44.5828,-23.3046],[-44.588,-23.2997],[-44.579,-23.3032],[-44.5867,-23.299],[-44.567,-23.3021],[-44.5776,-23.293],[-44.5714,-23.301],[-44.573,-23.2928],[-44.5695,-23.3013],[-44.5574,-23.3064],[-44.5711,-23.316],[-44.5686,-23.312],[-44.581,-23.3133],[-44.5722,-23.3144],[-44.5765,-23.3125],[-44.5643,-23.3079],[-44.5747,-23.3087],[-44.5598,-23.3059],[-44.566,-23.3051],[-44.5627,-23.3032],[-44.5755,-23.3025],[-44.5849,-23.3151],[-44.5821,-23.3085],[-44.5938,-23.3141],[-44.5755,-23.3025],[-44.5937,-23.3121],[-44.5885,-23.3066],[-44.5964,-23.3082],[-44.5972,-23.3082]],[[-44.5583,-23.3082],[-44.5623,-23.3095],[-44.558,-23.3083],[-44.5583,-23.3082]],[[-44.5627,-23.3123],[-44.5668,-23.3144],[-44.5624,-23.3121],[-44.5627,-23.3123]],[[-44.5649,-23.3247],[-44.5669,-23.329],[-44.5648,-23.3246],[-44.5649,-23.3247]],[[-44.5828,-23.3235],[-44.5893,-23.3178],[-44.5861,-23.3209],[-44.5853,-23.3158],[-44.5861,-23.3209],[-44.5764,-23.3268],[-44.5817,-23.3197],[-44.5742,-23.3279],[-44.5662,-23.325],[-44.5768,-23.3214],[-44.565,-23.3244],[-44.5871,-23.3385],[-44.5804,-23.3317],[-44.5889,-23.3318],[-44.5744,-23.3288],[-44.589,-23.3296],[-44.5719,-23.328],[-44.59,-23.3222],[-44.5827,-23.3236],[-44.5828,-23.3235]],[[-44.5655,-23.3347],[-44.5706,-23.3346],[-44.5654,-23.3348],[-44.5655,-23.3347]],[[-44.5665,-23.323],[-44.5829,-23.3159],[-44.5662,-23.323],[-44.5665,-23.323]],[[-44.5818,-23.3428],[-44.586,-23.341],[-44.5764,-23.3382],[-44.5817,-23.3395],[-44.5773,-23.3383],[-44.5806,-23.3366],[-44.5684,-23.3386],[-44.5817,-23.3427],[-44.5818,-23.3428]],[[-44.5843,-23.3467],[-44.5906,-23.3463],[-44.5841,-23.346],[-44.5791,-23.3516],[-44.591,-23.3477],[-44.5854,-23.3512],[-44.584,-23.3468],[-44.5843,-23.3467]],[[-44.5864,-23.3593],[-44.5886,-23.3513],[-44.5862,-23.3595],[-44.5864,-23.3593]],[[-44.5906,-23.3429],[-44.5871,-23.3396],[-44.5915,-23.3434],[-44.5906,-23.3429]],[[-44.5896,-23.2961],[-44.5971,-23.3014],[-44.5895,-23.2957],[-44.5896,-23.2961]],[[-44.593,-23.3286],[-44.5896,-23.3265],[-44.5932,-23.3288],[-44.593,-23.3286]],[[-44.591,-23.2965],[-44.5968,-23.3001],[-44.5908,-23.2962],[-44.591,-23.2965]]]}},{"type":"Feature","properties":{"cod_tema":"RIO_ATE_10","cod_imovel":"RJ-3303807-DA31D18BA0C04E379C3A4130E2573C68","ind_status":"AT"},"geometry":{"type":"Polygon","coordinates":[[[-44.6484,-23.2394],[-44.6449,-23.2389],[-44.6484,-23.2395],[-44.6484,-23.2394]]]}},{"type":"Feature","properties":{"cod_tema":"RIO_ATE_10","cod_imovel":"RJ-3303807-E6A68CF5291748CCB25C2C549555FDE3","ind_status":"AT"},"geometry":{"type":"Polygon","coordinates":[[[-44.7504,-23.1555],[-44.7429,-23.1596],[-44.7522,-23.1546],[-44.7504,-23.1555]]]}},{"type":"Feature","properties":{"cod_tema":"RIO_ATE_10","cod_imovel":"RJ-3303807-1BC1BC34C67E4742892202087F1BD717","ind_status":"AT"},"geometry":{"type":"Polygon","coordinates":[[[-44.7473,-23.1639],[-44.7482,-23.1679],[-44.7465,-23.162],[-44.7473,-23.1639]],[[-44.7493,-23.1625],[-44.745,-23.1604],[-44.7505,-23.1634],[-44.7493,-23.1625]]]}},{"type":"Feature","properties":{"cod_tema":"RIO_ATE_10","cod_imovel":"RJ-3303807-876F008CE784432CB4F67D66321CA7F4","ind_status":"AT"},"geometry":{"type":"Polygon","coordinates":[[[-44.7879,-23.1974],[-44.7934,-23.1932],[-44.7889,-23.1968],[-44.7879,-23.1974]]]}},{"type":"Feature","properties":{"cod_tema":"RIO_ATE_10","cod_imovel":"RJ-3303807-D6842F3A26D74514B8394056DE64DE50","ind_status":"AT"},"geometry":{"type":"Polygon","coordinates":[[[-44.7855,-23.2448],[-44.781,-23.2445],[-44.7865,-23.2449],[-44.7855,-23.2448]]]}},{"type":"Feature","properties":{"cod_tema":"RIO_ATE_10","cod_imovel":"RJ-3303807-EC876A0AD7304DCDAE344843CC957F0C","ind_status":"PE"},"geometry":{"type":"Polygon","coordinates":[[[-44.7442,-23.2201],[-44.7409,-23.2192],[-44.7455,-23.2201],[-44.7442,-23.2201]]]}},{"type":"Feature","properties":{"cod_tema":"RIO_ATE_10","cod_imovel":"RJ-3303807-595651EFF8EA41C3AC8656B90A75CB0D","ind_status":"AT"},"geometry":{"type":"Polygon","coordinates":[[[-44.6071,-23.0278],[-44.6008,-23.0283],[-44.607,-23.0279],[-44.6071,-23.0278]]]}},{"type":"Feature","properties":{"cod_tema":"RIO_ATE_10","cod_imovel":"RJ-3303807-99BFFF0DD7944A9FBE18880FBDEE6A05","ind_status":"AT"},"geometry":{"type":"Polygon","coordinates":[[[-44.7146,-23.3171],[-44.7167,-23.314],[-44.7144,-23.3171],[-44.7146,-23.3171]]]}},{"type":"Feature","properties":{"cod_tema":"RIO_ATE_10","cod_imovel":"RJ-3303807-824328D5663E4C3B908A15D41E51F005","ind_status":"AT"},"geometry":{"type":"Polygon","coordinates":[[[-44.6621,-23.2594],[-44.661,-23.2633],[-44.6622,-23.2597],[-44.6663,-23.2651],[-44.6612,-23.2585],[-44.6621,-23.2594]]]}},{"type":"Feature","properties":{"cod_tema":"RIO_ATE_10","cod_imovel":"RJ-3303807-504B3138A52D4F8BA04C526CD186449F","ind_status":"AT"},"geometry":{"type":"Polygon","coordinates":[[[-44.6252,-23.2407],[-44.6212,-23.242],[-44.6252,-23.2407],[-44.6252,-23.2407]]]}},{"type":"Feature","properties":{"cod_tema":"RIO_ATE_10","cod_imovel":"RJ-3303807-9C163693B06841A088A92696C70941E6","ind_status":"AT"},"geometry":{"type":"Polygon","coordinates":[[[-44.7366,-23.1409],[-44.7299,-23.1416],[-44.7495,-23.1396],[-44.7368,-23.141],[-44.7366,-23.1409]]]}},{"type":"Feature","properties":{"cod_tema":"RIO_ATE_10","cod_imovel":"RJ-3303807-6E02BA4507814CE0B82BF1817CF19EDD","ind_status":"AT"},"geometry":{"type":"Polygon","coordinates":[[[-44.7028,-23.2782],[-44.6903,-23.2726],[-44.7035,-23.2781],[-44.7028,-23.2782]]]}},{"type":"Feature","properties":{"cod_tema":"RIO_ATE_10","cod_imovel":"RJ-3303807-C9A8AA177E4D4B5C8A15E443F2022827","ind_status":"AT"},"geometry":{"type":"Polygon","coordinates":[[[-44.608,-23.2751],[-44.6042,-23.2663],[-44.583,-23.2686],[-44.5771,-23.2766],[-44.583,-23.272],[-44.5796,-23.2851],[-44.5838,-23.2862],[-44.5832,-23.2933],[-44.5879,-23.2887],[-44.5896,-23.2962],[-44.5975,-23.2967],[-44.5827,-23.2814],[-44.5814,-23.2743],[-44.5849,-23.2797],[-44.5831,-23.2721],[-44.5911,-23.2746],[-44.5955,-23.2931],[-44.596,-23.2894],[-44.6021,-23.2906],[-44.5947,-23.2863],[-44.5935,-23.2761],[-44.6028,-23.2817],[-44.5816,-23.2708],[-44.5895,-23.2719],[-44.586,-23.2679],[-44.608,-23.2751],[-44.608,-23.2751]],[[-44.5903,-23.2574],[-44.5815,-23.2577],[-44.5914,-23.2573],[-44.5903,-23.2574]],[[-44.5847,-23.2595],[-44.5817,-23.2598],[-44.585,-23.2595],[-44.5847,-23.2595]],[[-44.5928,-23.2579],[-44.5835,-23.2633],[-44.5936,-23.2571],[-44.5928,-23.2579]],[[-44.5953,-23.2605],[-44.5847,-23.2653],[-44.5953,-23.2605],[-44.5953,-23.2605]]]}},{"type":"Feature","properties":{"cod_tema":"RIO_ATE_10","cod_imovel":"RJ-3303807-01EB217B02094CC78F3A5673563D09CF","ind_status":"AT"},"geometry":{"type":"Polygon","coordinates":[[[-44.7366,-23.1409],[-44.7299,-23.1416],[-44.7427,-23.1405],[-44.7368,-23.141],[-44.7366,-23.1409]]]}},{"type":"Feature","properties":{"cod_tema":"RIO_ATE_10","cod_imovel":"RJ-3303807-8C4ED31B4BE345ADACFF386172EA120B","ind_status":"AT"},"geometry":{"type":"Polygon","coordinates":[[[-44.7291,-23.3243],[-44.7266,-23.327],[-44.7291,-23.3243],[-44.7291,-23.3243]]]}},{"type":"Feature","properties":{"cod_tema":"RIO_ATE_10","cod_imovel":"RJ-3303807-D87D0A85F1FC409FAB83D6451C90601F","ind_status":"AT"},"geometry":{"type":"Polygon","coordinates":[[[-44.7607,-23.3399],[-44.758,-23.3347],[-44.748,-23.3366],[-44.7399,-23.3306],[-44.7453,-23.3369],[-44.7607,-23.3399],[-44.7607,-23.3399]]]}},{"type":"Feature","properties":{"cod_tema":"RIO_ATE_10","cod_imovel":"RJ-3303807-19C4AA475E4B4823A9745544AD2C25FE","ind_status":"AT"},"geometry":{"type":"Polygon","coordinates":[[[-44.7062,-23.2713],[-44.705,-23.2648],[-44.7064,-23.2721],[-44.7062,-23.2713]]]}},{"type":"Feature","properties":{"cod_tema":"RIO_ATE_10","cod_imovel":"RJ-3303807-CBB5C8D1564E4BE985DFEEB9334D7938","ind_status":"AT"},"geometry":{"type":"Polygon","coordinates":[[[-44.8119,-23.2048],[-44.8095,-23.208],[-44.8121,-23.2044],[-44.8119,-23.2048]]]}},{"type":"Feature","properties":{"cod_tema":"RIO_ATE_10","cod_imovel":"RJ-3303807-0B298FF76B8F4872BDB68732E2462DB6","ind_status":"AT"},"geometry":{"type":"Polygon","coordinates":[[[-44.6436,-23.2084],[-44.6464,-23.2122],[-44.6432,-23.208],[-44.6436,-23.2084]]]}},{"type":"Feature","properties":{"cod_tema":"RIO_ATE_10","cod_imovel":"RJ-3303807-F23518257CB9485B985C7DA9D3FD9263","ind_status":"AT"},"geometry":{"type":"Polygon","coordinates":[[[-44.7268,-23.3283],[-44.7291,-23.3255],[-44.7265,-23.3288],[-44.7268,-23.3283]]]}},{"type":"Feature","properties":{"cod_tema":"RIO_ATE_10","cod_imovel":"RJ-3303807-DDECD0A7FE424351A88A8B047CBF1D85","ind_status":"AT"},"geometry":{"type":"Polygon","coordinates":[[[-44.6952,-23.2506],[-44.6988,-23.2495],[-44.6953,-23.2506],[-44.6952,-23.2506]]]}},{"type":"Feature","properties":{"cod_tema":"RIO_ATE_10","cod_imovel":"RJ-3303807-6D90E55C24DB4811816CC0CE1561CA2D","ind_status":"AT"},"geometry":{"type":"Polygon","coordinates":[[[-44.7359,-23.3146],[-44.7432,-23.3145],[-44.7358,-23.3145],[-44.7359,-23.3146]],[[-44.7385,-23.3133],[-44.7422,-23.3116],[-44.7384,-23.3133],[-44.7385,-23.3133]]]}},{"type":"Feature","properties":{"cod_tema":"RIO_ATE_10","cod_imovel":"RJ-3303807-1477A231F58C40FC87A5F8109F87C50E","ind_status":"AT"},"geometry":{"type":"Polygon","coordinates":[[[-44.702,-23.2625],[-44.7002,-23.2595],[-44.702,-23.2625],[-44.702,-23.2625]]]}},{"type":"Feature","properties":{"cod_tema":"RIO_ATE_10","cod_imovel":"RJ-3303807-581EB2EA1BC44108973E8F252A4BF8ED","ind_status":"AT"},"geometry":{"type":"Polygon","coordinates":[[[-44.7197,-23.2484],[-44.7167,-23.2507],[-44.7183,-23.2442],[-44.7152,-23.2513],[-44.7193,-23.2483],[-44.7197,-23.2484]]]}},{"type":"Feature","properties":{"cod_tema":"RIO_200_A_600","cod_imovel":"RJ-3303807-14D81C6DC7444A468F1AB4413D5D706D","ind_status":"AT"},"geometry":{"type":"Polygon","coordinates":[[[-44.8124,-23.1989],[-44.8075,-23.2012],[-44.8117,-23.1992],[-44.8124,-23.1989]]]}},{"type":"Feature","properties":{"cod_tema":"RIO_ATE_10","cod_imovel":"RJ-3303807-D01A320C236E4FB7BAA186961B191B18","ind_status":"AT"},"geometry":{"type":"Polygon","coordinates":[[[-44.7497,-23.3116],[-44.7543,-23.3116],[-44.747,-23.3114],[-44.7497,-23.3116]]]}},{"type":"Feature","properties":{"cod_tema":"RIO_ATE_10","cod_imovel":"RJ-3303807-B622D2C64F7442749ACF9161C37C6035","ind_status":"AT"},"geometry":{"type":"Polygon","coordinates":[[[-44.6774,-23.2778],[-44.6822,-23.2751],[-44.6772,-23.2779],[-44.6774,-23.2778]],[[-44.6829,-23.2838],[-44.6796,-23.2842],[-44.6831,-23.2838],[-44.6829,-23.2838]]]}},{"type":"Feature","properties":{"cod_tema":"RIO_ATE_10","cod_imovel":"RJ-3303807-209DD4ED8D4845F8B67215A36E30CA79","ind_status":"AT"},"geometry":{"type":"Polygon","coordinates":[[[-44.7399,-23.178],[-44.7451,-23.1655],[-44.7407,-23.1763],[-44.7399,-23.178]]]}},{"type":"Feature","properties":{"cod_tema":"RIO_10_A_50","cod_imovel":"RJ-3303807-209DD4ED8D4845F8B67215A36E30CA79","ind_status":"AT"},"geometry":{"type":"Polygon","coordinates":[[[-44.7581,-23.1654],[-44.7403,-23.1651],[-44.7576,-23.1668],[-44.7581,-23.1654]]]}},{"type":"Feature","properties":{"cod_tema":"RIO_ATE_10","cod_imovel":"RJ-3303807-D284EBACC6374787A296D0B7971789D1","ind_status":"AT"},"geometry":{"type":"Polygon","coordinates":[[[-44.7024,-23.3355],[-44.6996,-23.3375],[-44.706,-23.3329],[-44.7024,-23.3355]]]}},{"type":"Feature","properties":{"cod_tema":"RIO_ATE_10","cod_imovel":"RJ-3303807-0419A203AC46480F9095316ABBA0F438","ind_status":"AT"},"geometry":{"type":"Polygon","coordinates":[[[-44.7648,-23.2162],[-44.7638,-23.2197],[-44.7648,-23.2162],[-44.7648,-23.2162]]]}},{"type":"Feature","properties":{"cod_tema":"RIO_10_A_50","cod_imovel":"RJ-3303807-BB47A46D32944294B84382765F203895","ind_status":"AT"},"geometry":{"type":"Polygon","coordinates":[[[-44.8135,-23.2301],[-44.8274,-23.2376],[-44.8759,-23.231],[-44.8274,-23.2374],[-44.8136,-23.23],[-44.8135,-23.2301]]]}},{"type":"Feature","properties":{"cod_tema":"RIO_ATE_10","cod_imovel":"RJ-3303807-C3321BF922DC4D3E929873E0CE593298","ind_status":"AT"},"geometry":{"type":"Polygon","coordinates":[[[-44.7318,-23.3136],[-44.7357,-23.3146],[-44.7318,-23.3132],[-44.7318,-23.3136]]]}},{"type":"Feature","properties":{"cod_tema":"RIO_ATE_10","cod_imovel":"RJ-3303807-D12CAB2E2F634508A5EFD2CCFC3391DB","ind_status":"AT"},"geometry":{"type":"Polygon","coordinates":[[[-44.7853,-23.1813],[-44.7794,-23.1858],[-44.7859,-23.1808],[-44.7853,-23.1813]]]}},{"type":"Feature","properties":{"cod_tema":"RIO_ATE_10","cod_imovel":"RJ-3303807-1AC79BC8EFC5405AA2739A540F22F434","ind_status":"AT"},"geometry":{"type":"Polygon","coordinates":[[[-44.726,-23.3162],[-44.722,-23.3166],[-44.7267,-23.316],[-44.726,-23.3162]]]}},{"type":"Feature","properties":{"cod_tema":"RIO_ATE_10","cod_imovel":"RJ-3303807-B68B2C66040542149CA5A78B3D2082C0","ind_status":"AT"},"geometry":{"type":"Polygon","coordinates":[[[-44.6764,-23.2853],[-44.6798,-23.2843],[-44.6752,-23.2857],[-44.6764,-23.2853]]]}},{"type":"Feature","properties":{"cod_tema":"RIO_ATE_10","cod_imovel":"RJ-3303807-3EACC6EA112E434B900A42EF91FCDEB7","ind_status":"AT"},"geometry":{"type":"Polygon","coordinates":[[[-44.723,-23.2621],[-44.7205,-23.259],[-44.7231,-23.2622],[-44.723,-23.2621]]]}},{"type":"Feature","properties":{"cod_tema":"RIO_ATE_10","cod_imovel":"RJ-3303807-3EACC6EA112E434B900A42EF91FCDEB7","ind_status":"AT"},"geometry":{"type":"Polygon","coordinates":[[[-44.7207,-23.259],[-44.7248,-23.2594],[-44.7206,-23.259],[-44.7207,-23.259]]]}},{"type":"Feature","properties":{"cod_tema":"RIO_ATE_10","cod_imovel":"RJ-3303807-3A1B6B3325EB48368EE40FD4901FD5EF","ind_status":"AT"},"geometry":{"type":"Polygon","coordinates":[[[-44.705,-23.3085],[-44.7007,-23.313],[-44.705,-23.3085],[-44.705,-23.3085]]]}},{"type":"Feature","properties":{"cod_tema":"RIO_ATE_10","cod_imovel":"RJ-3303807-03ED183D3E254FC286A8D748F7261B10","ind_status":"AT"},"geometry":{"type":"Polygon","coordinates":[[[-44.7391,-23.3358],[-44.7373,-23.3383],[-44.7403,-23.3344],[-44.7391,-23.3358]]]}},{"type":"Feature","properties":{"cod_tema":"RIO_ATE_10","cod_imovel":"RJ-3303807-52279B5D752F4EB9855440F5A81F058D","ind_status":"AT"},"geometry":{"type":"Polygon","coordinates":[[[-44.6593,-23.2701],[-44.6615,-23.2615],[-44.6581,-23.2741],[-44.6593,-23.2701]]]}},{"type":"Feature","properties":{"cod_tema":"RIO_ATE_10","cod_imovel":"RJ-3303807-1A4C1A6887E84D67A4263B84FBFE0242","ind_status":"AT"},"geometry":{"type":"Polygon","coordinates":[[[-44.6724,-23.2865],[-44.6753,-23.2851],[-44.6722,-23.2865],[-44.6724,-23.2865]]]}},{"type":"Feature","properties":{"cod_tema":"RIO_ATE_10","cod_imovel":"RJ-3303807-35B2FB8F430E4AC1BF4CD407A6693EDB","ind_status":"AT"},"geometry":{"type":"Polygon","coordinates":[[[-44.7048,-23.3131],[-44.7058,-23.3086],[-44.7048,-23.3133],[-44.7048,-23.3131]]]}},{"type":"Feature","properties":{"cod_tema":"RIO_ATE_10","cod_imovel":"RJ-3303807-B04179E1A6E8439BAD27D3176404A540","ind_status":"AT"},"geometry":{"type":"Polygon","coordinates":[[[-44.7664,-23.2603],[-44.7656,-23.2637],[-44.7706,-23.2622],[-44.7657,-23.2635],[-44.7668,-23.2601],[-44.7664,-23.2603]]]}},{"type":"Feature","properties":{"cod_tema":"RIO_ATE_10","cod_imovel":"RJ-3303807-B0076D6040B94E1EBCA75C3F1D9BA07A","ind_status":"AT"},"geometry":{"type":"Polygon","coordinates":[[[-44.7274,-23.312],[-44.7327,-23.3126],[-44.727,-23.3123],[-44.7274,-23.312]]]}}]}