{"type":"FeatureCollection","features":[{"type":"Feature","properties":{"cod_tema":"RIO_ATE_10","cod_imovel":"RJ-3303955-73DFF6C1BBE3418987AD65715B74418C","ind_status":"AT"},"geometry":{"type":"Polygon","coordinates":[[[-43.9841,-22.5212],[-43.9823,-22.5242],[-43.9842,-22.521],[-43.9841,-22.5212]]]}},{"type":"Feature","properties":{"cod_tema":"RIO_ATE_10","cod_imovel":"RJ-3303955-0B27ECC8735040CF8D7AEF919ED7E309","ind_status":"AT"},"geometry":{"type":"Polygon","coordinates":[[[-44.0163,-22.533],[-44.0198,-22.5293],[-44.0161,-22.533],[-44.0163,-22.533]]]}},{"type":"Feature","properties":{"cod_tema":"RIO_ATE_10","cod_imovel":"RJ-3303955-0B27ECC8735040CF8D7AEF919ED7E309","ind_status":"AT"},"geometry":{"type":"Polygon","coordinates":[[[-44.0242,-22.5331],[-44.0215,-22.5303],[-44.0241,-22.5332],[-44.0242,-22.5331]]]}},{"type":"Feature","properties":{"cod_tema":"RIO_ATE_10","cod_imovel":"RJ-3303955-0B27ECC8735040CF8D7AEF919ED7E309","ind_status":"AT"},"geometry":{"type":"Polygon","coordinates":[[[-44.0134,-22.5328],[-44.0145,-22.5371],[-44.0134,-22.5328],[-44.0134,-22.5328]]]}},{"type":"Feature","properties":{"cod_tema":"RIO_ATE_10","cod_imovel":"RJ-3303955-0B27ECC8735040CF8D7AEF919ED7E309","ind_status":"AT"},"geometry":{"type":"Polygon","coordinates":[[[-44.0136,-22.53],[-44.0123,-22.5343],[-44.0136,-22.53],[-44.0136,-22.53]]]}},{"type":"Feature","properties":{"cod_tema":"RIO_ATE_10","cod_imovel":"RJ-3303955-0B27ECC8735040CF8D7AEF919ED7E309","ind_status":"AT"},"geometry":{"type":"Polygon","coordinates":[[[-44.0123,-22.5268],[-44.0131,-22.5302],[-44.0122,-22.5267],[-44.0123,-22.5268]]]}},{"type":"Feature","properties":{"cod_tema":"RIO_ATE_10","cod_imovel":"RJ-3303955-0B27ECC8735040CF8D7AEF919ED7E309","ind_status":"AT"},"geometry":{"type":"Polygon","coordinates":[[[-44.0254,-22.5403],[-44.0239,-22.5349],[-44.0257,-22.5426],[-44.0254,-22.5403]]]}},{"type":"Feature","properties":{"cod_tema":"RIO_ATE_10","cod_imovel":"RJ-3303955-0B27ECC8735040CF8D7AEF919ED7E309","ind_status":"AT"},"geometry":{"type":"Polygon","coordinates":[[[-44.0216,-22.5412],[-44.0239,-22.5349],[-44.0215,-22.5419],[-44.0216,-22.5412]]]}},{"type":"Feature","properties":{"cod_tema":"RIO_ATE_10","cod_imovel":"RJ-3303955-0B27ECC8735040CF8D7AEF919ED7E309","ind_status":"AT"},"geometry":{"type":"Polygon","coordinates":[[[-44.017,-22.5377],[-44.0187,-22.5346],[-44.017,-22.5377],[-44.017,-22.5377]]]}},{"type":"Feature","properties":{"cod_tema":"RIO_ATE_10","cod_imovel":"RJ-3303955-0B27ECC8735040CF8D7AEF919ED7E309","ind_status":"AT"},"geometry":{"type":"Polygon","coordinates":[[[-44.02,-22.5334],[-44.0206,-22.5289],[-44.02,-22.5334],[-44.02,-22.5334]]]}},{"type":"Feature","properties":{"cod_tema":"RIO_ATE_10","cod_imovel":"RJ-3303955-0B27ECC8735040CF8D7AEF919ED7E309","ind_status":"AT"},"geometry":{"type":"Polygon","coordinates":[[[-44.0364,-22.5399],[-44.032,-22.5386],[-44.0365,-22.5399],[-44.0364,-22.5399]]]}},{"type":"Feature","properties":{"cod_tema":"RIO_ATE_10","cod_imovel":"RJ-3303955-0B27ECC8735040CF8D7AEF919ED7E309","ind_status":"AT"},"geometry":{"type":"Polygon","coordinates":[[[-44.032,-22.5387],[-44.0291,-22.5428],[-44.032,-22.5387],[-44.032,-22.5387]]]}},{"type":"Feature","properties":{"cod_tema":"RIO_ATE_10","cod_imovel":"RJ-3303955-6AA7E2F453E84FE780494ED0D585BBC5","ind_status":"AT"},"geometry":{"type":"Polygon","coordinates":[[[-44.0069,-22.579],[-44.0123,-22.5784],[-44.0065,-22.5792],[-44.0069,-22.579]]]}},{"type":"Feature","properties":{"cod_tema":"RIO_ATE_10","cod_imovel":"RJ-3303955-1276131E0E2445E5BD5EC550C6F0C130","ind_status":"AT"},"geometry":{"type":"Polygon","coordinates":[[[-43.958,-22.5333],[-43.9497,-22.5338],[-43.958,-22.5333],[-43.958,-22.5333]],[[-43.9537,-22.5369],[-43.959,-22.5379],[-43.9537,-22.5368],[-43.9537,-22.5369]],[[-43.9617,-22.5491],[-43.9582,-22.5429],[-43.9617,-22.5493],[-43.9617,-22.5491]],[[-43.9626,-22.5477],[-43.9641,-22.5435],[-43.9626,-22.5478],[-43.9626,-22.5477]],[[-43.9646,-22.5549],[-43.9629,-22.5614],[-43.9646,-22.5546],[-43.9646,-22.5549]],[[-43.975,-22.5447],[-43.9694,-22.5427],[-43.9753,-22.5448],[-43.975,-22.5447]],[[-43.9725,-22.5505],[-43.9705,-22.5455],[-43.9724,-22.5505],[-43.9725,-22.5505]],[[-43.9757,-22.5476],[-43.98,-22.5462],[-43.9756,-22.5475],[-43.9757,-22.5476]]]}},{"type":"Feature","properties":{"cod_tema":"RIO_ATE_10","cod_imovel":"RJ-3303955-DF1B4EF5D399428B8ADE6CDA62C936D3","ind_status":"AT"},"geometry":{"type":"Polygon","coordinates":[[[-44.0126,-22.5565],[-44.0109,-22.5526],[-44.0127,-22.5567],[-44.0126,-22.5565]],[[-44.026,-22.5522],[-44.0118,-22.5493],[-44.0148,-22.5555],[-44.0186,-22.5531],[-44.013,-22.5496],[-44.0262,-22.5522],[-44.026,-22.5522]],[[-44.0144,-22.5589],[-44.0125,-22.5621],[-44.0143,-22.5588],[-44.0144,-22.5589]],[[-44.0155,-22.5571],[-44.0157,-22.5636],[-44.0154,-22.557],[-44.0155,-22.5571]],[[-44.0174,-22.5642],[-44.0241,-22.5599],[-44.0174,-22.5642],[-44.0174,-22.5642]],[[-44.0314,-22.5681],[-44.0263,-22.5664],[-44.0315,-22.5678],[-44.0314,-22.5681]],[[-44.0378,-22.5683],[-44.0314,-22.5636],[-44.0264,-22.566],[-44.0315,-22.5636],[-44.038,-22.5685],[-44.0378,-22.5683]],[[-44.0278,-22.5554],[-44.0268,-22.5617],[-44.0278,-22.5554],[-44.0278,-22.5554]],[[-44.0348,-22.5691],[-44.0307,-22.5716],[-44.0349,-22.569],[-44.0348,-22.5691]],[[-44.0494,-22.5657],[-44.0418,-22.5632],[-44.0449,-22.5598],[-44.0407,-22.5624],[-44.0309,-22.5567],[-44.046,-22.5646],[-44.0437,-22.5703],[-44.0494,-22.5656],[-44.0494,-22.5657]],[[-44.0412,-22.5623],[-44.0367,-22.5611],[-44.0412,-22.5623],[-44.0412,-22.5623]],[[-44.0378,-22.5693],[-44.035,-22.5731],[-44.038,-22.5693],[-44.0378,-22.5693]],[[-44.0387,-22.5728],[-44.0413,-22.5688],[-44.0388,-22.5728],[-44.0387,-22.5728]],[[-44.0448,-22.572],[-44.0411,-22.5742],[-44.0448,-22.5718],[-44.0448,-22.572]]]}},{"type":"Feature","properties":{"cod_tema":"LAGO_NATURAL","cod_imovel":"RJ-3303955-DF1B4EF5D399428B8ADE6CDA62C936D3","ind_status":"AT"},"geometry":{"type":"Polygon","coordinates":[[[-44.0194,-22.5534],[-44.0159,-22.5532],[-44.0194,-22.5538],[-44.0194,-22.5534]]]}},{"type":"Feature","properties":{"cod_tema":"RIO_ATE_10","cod_imovel":"RJ-3303955-C15D2EBAD4CC46C7835C860B099FA595","ind_status":"AT"},"geometry":{"type":"Polygon","coordinates":[[[-43.9812,-22.5283],[-43.9764,-22.527],[-43.9812,-22.5283],[-43.9812,-22.5283]]]}},{"type":"Feature","properties":{"cod_tema":"RIO_ATE_10","cod_imovel":"RJ-3303955-37355A9A65D74F2CA0A02BA71DB5712F","ind_status":"AT"},"geometry":{"type":"Polygon","coordinates":[[[-44.0314,-22.5681],[-44.026,-22.5662],[-44.0314,-22.5636],[-44.0179,-22.5652],[-44.0315,-22.5678],[-44.0314,-22.5681]],[[-44.0244,-22.575],[-44.0216,-22.5707],[-44.0307,-22.5717],[-44.02,-22.5691],[-44.0185,-22.5751],[-44.0244,-22.575],[-44.0244,-22.575]]]}},{"type":"Feature","properties":{"cod_tema":"RIO_50_A_200","cod_imovel":"RJ-3303955-34D8A3307DBC4F26B966772CDE8911EA","ind_status":"AT"},"geometry":{"type":"Polygon","coordinates":[[[-43.9583,-22.5189],[-43.9492,-22.5192],[-43.9587,-22.5196],[-43.9583,-22.5189]]]}},{"type":"Feature","properties":{"cod_tema":"RIO_ATE_10","cod_imovel":"RJ-3303955-C01ECBDB8D0B4416B3596B38CD1F2E31","ind_status":"PE"},"geometry":{"type":"Polygon","coordinates":[[[-44.0203,-22.5697],[-44.0134,-22.5635],[-44.0204,-22.5698],[-44.0203,-22.5697]]]}},{"type":"Feature","properties":{"cod_tema":"RIO_ATE_10","cod_imovel":"RJ-3303955-867480B6E6724166B583088386CAAA62","ind_status":"AT"},"geometry":{"type":"Polygon","coordinates":[[[-44.0202,-22.5697],[-44.0176,-22.5646],[-44.0203,-22.5697],[-44.0202,-22.5697]]]}},{"type":"Feature","properties":{"cod_tema":"RIO_ATE_10","cod_imovel":"RJ-3303955-B5193B0BC077434980EA409D9F6593A8","ind_status":"AT"},"geometry":{"type":"Polygon","coordinates":[[[-44.0161,-22.5403],[-44.0099,-22.5388],[-44.0166,-22.5401],[-44.0161,-22.5403]]]}},{"type":"Feature","properties":{"cod_tema":"RIO_ATE_10","cod_imovel":"RJ-3303955-18BF82706A51424BAD8FDDF02741A0DB","ind_status":"AT"},"geometry":{"type":"Polygon","coordinates":[[[-44.0005,-22.5465],[-43.9983,-22.5486],[-44.0006,-22.5466],[-44.0005,-22.5465]],[[-44.0023,-22.549],[-43.9993,-22.5506],[-44.0023,-22.5492],[-44.0023,-22.549]]]}},{"type":"Feature","properties":{"cod_tema":"RIO_ATE_10","cod_imovel":"RJ-3303955-BE4B8D15344F40AC9EF98E6B29D878AB","ind_status":"AT"},"geometry":{"type":"Polygon","coordinates":[[[-44.0193,-22.5258],[-44.0172,-22.5236],[-44.0194,-22.526],[-44.0193,-22.5258]]]}},{"type":"Feature","properties":{"cod_tema":"RIO_ATE_10","cod_imovel":"RJ-3303955-21FEF4C8A6D740B3B3441756AF9FD2F0","ind_status":"AT"},"geometry":{"type":"Polygon","coordinates":[[[-44.0051,-22.5523],[-44.0084,-22.5506],[-44.005,-22.5523],[-44.0051,-22.5523]]]}},{"type":"Feature","properties":{"cod_tema":"RIO_ATE_10","cod_imovel":"RJ-3303955-F615854A36E148CCA447AE577F092117","ind_status":"AT"},"geometry":{"type":"Polygon","coordinates":[[[-44.0294,-22.5796],[-44.0267,-22.5771],[-44.0294,-22.5798],[-44.0294,-22.5796]]]}},{"type":"Feature","properties":{"cod_tema":"RIO_ATE_10","cod_imovel":"RJ-3303955-D22920C2C0EC4690A48CC4E466D9EF74","ind_status":"AT"},"geometry":{"type":"Polygon","coordinates":[[[-44.0524,-22.5586],[-44.0498,-22.5568],[-44.0528,-22.5587],[-44.0524,-22.5586]]]}},{"type":"Feature","properties":{"cod_tema":"RIO_ATE_10","cod_imovel":"RJ-3303955-94082BDC7AFC4C3D8B945C879A361A60","ind_status":"AT"},"geometry":{"type":"Polygon","coordinates":[[[-44.0674,-22.5684],[-44.0495,-22.5657],[-44.0675,-22.5683],[-44.0674,-22.5684]],[[-44.0701,-22.5638],[-44.0661,-22.5604],[-44.0643,-22.5659],[-44.0701,-22.5638],[-44.0701,-22.5638]]]}},{"type":"Feature","properties":{"cod_tema":"RIO_ATE_10","cod_imovel":"RJ-3303955-05C027C6457B4D6AADD67BAF59750B5A","ind_status":"AT"},"geometry":{"type":"Polygon","coordinates":[[[-44.0522,-22.5807],[-44.0466,-22.5775],[-44.0522,-22.5807],[-44.0522,-22.5807]],[[-44.051,-22.573],[-44.049,-22.5677],[-44.0492,-22.5763],[-44.051,-22.573],[-44.051,-22.573]]]}},{"type":"Feature","properties":{"cod_tema":"RIO_ATE_10","cod_imovel":"RJ-3303955-2687187ACD0E4D48A53E8C7FD91208DE","ind_status":"AT"},"geometry":{"type":"Polygon","coordinates":[[[-44.0608,-22.5766],[-44.0556,-22.5684],[-44.0525,-22.5746],[-44.0568,-22.5705],[-44.058,-22.5742],[-44.0522,-22.578],[-44.0608,-22.5766],[-44.0608,-22.5766]],[[-44.0621,-22.5752],[-44.0633,-22.5707],[-44.0621,-22.5755],[-44.0621,-22.5752]]]}},{"type":"Feature","properties":{"cod_tema":"RIO_ATE_10","cod_imovel":"RJ-3303955-AFAF30C262954B8CAD9B433899CBEC9B","ind_status":"AT"},"geometry":{"type":"Polygon","coordinates":[[[-43.9811,-22.5282],[-43.9764,-22.527],[-43.9812,-22.5283],[-43.9811,-22.5282]]]}},{"type":"Feature","properties":{"cod_tema":"RIO_ATE_10","cod_imovel":"RJ-3303955-37E8FC9338F7480D95EBC6DFE2FA8492","ind_status":"AT"},"geometry":{"type":"Polygon","coordinates":[[[-43.9686,-22.535],[-43.9678,-22.5307],[-43.9682,-22.5353],[-43.9686,-22.535]],[[-43.9616,-22.5273],[-43.9592,-22.5312],[-43.9617,-22.5273],[-43.9616,-22.5273]]]}},{"type":"Feature","properties":{"cod_tema":"RIO_ATE_10","cod_imovel":"RJ-3303955-853F711254B642BD8951D5F547B31FC2","ind_status":"AT"},"geometry":{"type":"Polygon","coordinates":[[[-43.9744,-22.5297],[-43.9687,-22.5305],[-43.9754,-22.5344],[-43.9747,-22.5292],[-43.9744,-22.5297]],[[-43.9773,-22.5349],[-43.9793,-22.5318],[-43.9772,-22.5349],[-43.9773,-22.5349]],[[-43.9764,-22.5271],[-43.9693,-22.5223],[-43.9688,-22.5301],[-43.9704,-22.5228],[-43.9765,-22.5271],[-43.9764,-22.5271]]]}},{"type":"Feature","properties":{"cod_tema":"RIO_ATE_10","cod_imovel":"RJ-3303955-E41C0308F96A4E03BD4B68104D155C78","ind_status":"AT"},"geometry":{"type":"Polygon","coordinates":[[[-44.0206,-22.529],[-44.0193,-22.5259],[-44.0206,-22.5292],[-44.0206,-22.529]]]}},{"type":"Feature","properties":{"cod_tema":"RIO_ATE_10","cod_imovel":"RJ-3304003-EF636D1AE68E4668BA6EDBB11AF4EC72","ind_status":"AT"},"geometry":{"type":"Polygon","coordinates":[[[-43.9575,-22.5575],[-43.9608,-22.5618],[-43.9576,-22.5574],[-43.9575,-22.5575]],[[-43.9545,-22.5591],[-43.9515,-22.56],[-43.9545,-22.5591],[-43.9545,-22.5591]],[[-43.9544,-22.5493],[-43.9518,-22.5568],[-43.9562,-22.5567],[-43.9539,-22.5466],[-43.9485,-22.5509],[-43.9544,-22.5493]]]}},{"type":"Feature","properties":{"cod_tema":"RIO_ATE_10","cod_imovel":"RJ-3303955-8B1C402317F44D99974544E59C2F2CBA","ind_status":"AT"},"geometry":{"type":"Polygon","coordinates":[[[-43.9496,-22.5266],[-43.9527,-22.5206],[-43.9496,-22.5267],[-43.9496,-22.5266]],[[-43.9613,-22.5244],[-43.9599,-22.5312],[-43.9499,-22.5299],[-43.9599,-22.5312],[-43.9613,-22.5244],[-43.9613,-22.5244]],[[-43.9533,-22.5274],[-43.9532,-22.5209],[-43.9529,-22.5279],[-43.9533,-22.5274]],[[-43.956,-22.5266],[-43.9602,-22.524],[-43.956,-22.5266],[-43.956,-22.5266]]]}},{"type":"Feature","properties":{"cod_tema":"RIO_ATE_10","cod_imovel":"RJ-3303955-DB80C5819D9E403BA82BEC00EF1713E9","ind_status":"AT"},"geometry":{"type":"Polygon","coordinates":[[[-44.0667,-22.5674],[-44.0598,-22.5659],[-44.0676,-22.568],[-44.0667,-22.5674]]]}},{"type":"Feature","properties":{"cod_tema":"RIO_ATE_10","cod_imovel":"RJ-3303955-DB80C5819D9E403BA82BEC00EF1713E9","ind_status":"AT"},"geometry":{"type":"Polygon","coordinates":[[[-44.0531,-22.5813],[-44.0467,-22.5772],[-44.0533,-22.5815],[-44.0531,-22.5813]]]}},{"type":"Feature","properties":{"cod_tema":"RIO_ATE_10","cod_imovel":"RJ-3303955-DB80C5819D9E403BA82BEC00EF1713E9","ind_status":"AT"},"geometry":{"type":"Polygon","coordinates":[[[-44.0527,-22.5778],[-44.0607,-22.5764],[-44.0522,-22.5779],[-44.0527,-22.5778]]]}},{"type":"Feature","properties":{"cod_tema":"RIO_ATE_10","cod_imovel":"RJ-3303955-DB80C5819D9E403BA82BEC00EF1713E9","ind_status":"AT"},"geometry":{"type":"Polygon","coordinates":[[[-44.0654,-22.5615],[-44.0701,-22.5641],[-44.0657,-22.5602],[-44.0654,-22.5615]]]}},{"type":"Feature","properties":{"cod_tema":"RIO_ATE_10","cod_imovel":"RJ-3303955-DB80C5819D9E403BA82BEC00EF1713E9","ind_status":"AT"},"geometry":{"type":"Polygon","coordinates":[[[-44.0493,-22.5757],[-44.0498,-22.5656],[-44.0641,-22.5669],[-44.0497,-22.5656],[-44.0496,-22.5764],[-44.0493,-22.5757]]]}},{"type":"Feature","properties":{"cod_tema":"RIO_ATE_10","cod_imovel":"RJ-3303955-DB80C5819D9E403BA82BEC00EF1713E9","ind_status":"AT"},"geometry":{"type":"Polygon","coordinates":[[[-44.0552,-22.5727],[-44.059,-22.5726],[-44.0549,-22.5733],[-44.0552,-22.5727]]]}},{"type":"Feature","properties":{"cod_tema":"RIO_ATE_10","cod_imovel":"RJ-3303955-DB80C5819D9E403BA82BEC00EF1713E9","ind_status":"AT"},"geometry":{"type":"Polygon","coordinates":[[[-44.0574,-22.5695],[-44.0545,-22.5677],[-44.0575,-22.5699],[-44.0574,-22.5695]]]}},{"type":"Feature","properties":{"cod_tema":"RIO_ATE_10","cod_imovel":"RJ-3303955-DB80C5819D9E403BA82BEC00EF1713E9","ind_status":"AT"},"geometry":{"type":"Polygon","coordinates":[[[-44.0647,-22.5708],[-44.0618,-22.5755],[-44.0654,-22.5709],[-44.0647,-22.5708]]]}},{"type":"Feature","properties":{"cod_tema":"RIO_ATE_10","cod_imovel":"RJ-3303955-DB80C5819D9E403BA82BEC00EF1713E9","ind_status":"AT"},"geometry":{"type":"Polygon","coordinates":[[[-44.0683,-22.5667],[-44.0647,-22.5652],[-44.0695,-22.5669],[-44.0683,-22.5667]]]}},{"type":"Feature","properties":{"cod_tema":"RIO_ATE_10","cod_imovel":"RJ-3303955-E1C189AE1052485B9BE5E43AEAA6450B","ind_status":"AT"},"geometry":{"type":"Polygon","coordinates":[[[-44.052,-22.5803],[-44.0466,-22.5773],[-44.0529,-22.5811],[-44.052,-22.5803]],[[-44.0491,-22.575],[-44.0495,-22.5656],[-44.0489,-22.575],[-44.0491,-22.575]],[[-44.0608,-22.5765],[-44.0496,-22.5653],[-44.051,-22.5707],[-44.0549,-22.5672],[-44.0572,-22.5704],[-44.0525,-22.5745],[-44.0569,-22.5705],[-44.0581,-22.5735],[-44.0522,-22.5779],[-44.0608,-22.5765],[-44.0608,-22.5765]],[[-44.0701,-22.5637],[-44.0662,-22.5604],[-44.0642,-22.5658],[-44.0577,-22.5653],[-44.0673,-22.5684],[-44.0646,-22.5641],[-44.0701,-22.5637],[-44.0701,-22.5637]],[[-44.0622,-22.5751],[-44.0652,-22.5707],[-44.0622,-22.5753],[-44.0622,-22.5751]]]}},{"type":"Feature","properties":{"cod_tema":"RIO_ATE_10","cod_imovel":"RJ-3303955-4BF3CD693FEE403FA34C2839E0024B9D","ind_status":"AT"},"geometry":{"type":"Polygon","coordinates":[[[-43.9812,-22.5285],[-43.968,-22.519],[-43.9811,-22.5284],[-43.9812,-22.5285]]]}},{"type":"Feature","properties":{"cod_tema":"RIO_ATE_10","cod_imovel":"RJ-3303955-B27DF7A0105248B8BE609DA3D2F83B10","ind_status":"AT"},"geometry":{"type":"Polygon","coordinates":[[[-43.9971,-22.5398],[-43.9919,-22.5348],[-43.9978,-22.528],[-43.9807,-22.5156],[-43.9867,-22.5173],[-43.9864,-22.5254],[-43.9889,-22.5222],[-43.991,-22.5276],[-43.9871,-22.5272],[-43.9958,-22.5286],[-43.9935,-22.5338],[-43.9845,-22.5317],[-43.9842,-22.5353],[-43.9921,-22.5344],[-43.9894,-22.538],[-43.9919,-22.5347],[-43.9962,-22.5386],[-43.9925,-22.5401],[-43.9971,-22.5398],[-43.9971,-22.5398]]]}},{"type":"Feature","properties":{"cod_tema":"RIO_50_A_200","cod_imovel":"RJ-3303955-B27DF7A0105248B8BE609DA3D2F83B10","ind_status":"AT"},"geometry":{"type":"Polygon","coordinates":[[[-43.9862,-22.5165],[-43.9898,-22.5173],[-43.9752,-22.516],[-43.986,-22.5164],[-43.9862,-22.5165]]]}}]}