{"type":"FeatureCollection","features":[{"type":"Feature","properties":{"cod_tema":"RIO_ATE_10","cod_imovel":"RJ-3304003-40EA57D5B94F49268B5E766A093FCB29","ind_status":"AT"},"geometry":{"type":"Polygon","coordinates":[[[-43.9147,-22.6732],[-43.8978,-22.6704],[-43.9147,-22.6732],[-43.9147,-22.6732]],[[-43.9114,-22.6771],[-43.9069,-22.678],[-43.9115,-22.6772],[-43.9114,-22.6771]]]}},{"type":"Feature","properties":{"cod_tema":"RIO_ATE_10","cod_imovel":"RJ-3304003-0473871480A74CE9BF40B4856DC70546","ind_status":"AT"},"geometry":{"type":"Polygon","coordinates":[[[-44.0047,-22.5991],[-44.0091,-22.6001],[-44.0073,-22.6043],[-44.0091,-22.6001],[-44.0046,-22.5991],[-44.0047,-22.5991]],[[-44.0143,-22.605],[-44.0127,-22.6016],[-44.0143,-22.6051],[-44.0143,-22.605]]]}},{"type":"Feature","properties":{"cod_tema":"RIO_ATE_10","cod_imovel":"RJ-3304003-9040426BA250497E957ED24920602D84","ind_status":"AT"},"geometry":{"type":"Polygon","coordinates":[[[-43.9574,-22.6494],[-43.953,-22.6543],[-43.9575,-22.6491],[-43.9574,-22.6494]],[[-43.9604,-22.6453],[-43.9573,-22.6474],[-43.9626,-22.6472],[-43.9598,-22.6417],[-43.9605,-22.6452],[-43.9604,-22.6453]],[[-43.9634,-22.6383],[-43.9657,-22.6418],[-43.9669,-22.6363],[-43.9633,-22.638],[-43.9634,-22.6383]],[[-43.9619,-22.6387],[-43.9642,-22.644],[-43.9617,-22.6385],[-43.9619,-22.6387]],[[-43.9473,-22.6472],[-43.9561,-22.646],[-43.9473,-22.6472],[-43.9473,-22.6472]]]}},{"type":"Feature","properties":{"cod_tema":"RIO_10_A_50","cod_imovel":"RJ-3304003-9040426BA250497E957ED24920602D84","ind_status":"AT"},"geometry":{"type":"Polygon","coordinates":[[[-43.947,-22.6467],[-43.9537,-22.6563],[-43.9473,-22.6472],[-43.947,-22.6467]]]}},{"type":"Feature","properties":{"cod_tema":"RIO_ATE_10","cod_imovel":"RJ-3304003-5FD576C69A2F45F8AA93D8E89B5E89E0","ind_status":"AT"},"geometry":{"type":"Polygon","coordinates":[[[-44.059,-22.6118],[-44.0541,-22.6101],[-44.059,-22.6118],[-44.059,-22.6118]]]}},{"type":"Feature","properties":{"cod_tema":"RIO_ATE_10","cod_imovel":"RJ-3304003-14D93655978242B6ADA04FFA38F2CB0A","ind_status":"AT"},"geometry":{"type":"Polygon","coordinates":[[[-43.8506,-22.6412],[-43.8545,-22.6402],[-43.8469,-22.6376],[-43.8515,-22.6401],[-43.8459,-22.6458],[-43.8506,-22.6412],[-43.8512,-22.6478],[-43.8507,-22.6413],[-43.8506,-22.6412]]]}},{"type":"Feature","properties":{"cod_tema":"RIO_ATE_10","cod_imovel":"RJ-3304003-114791FE0D7742BCA15BD92373083808","ind_status":"AT"},"geometry":{"type":"Polygon","coordinates":[[[-44.0502,-22.5891],[-44.0475,-22.5855],[-44.0509,-22.5896],[-44.0502,-22.5891]]]}},{"type":"Feature","properties":{"cod_tema":"RIO_ATE_10","cod_imovel":"RJ-3304003-1082BC55C1DA4E85AC0C7370F9B5A0CA","ind_status":"AT"},"geometry":{"type":"Polygon","coordinates":[[[-43.9291,-22.6815],[-43.9287,-22.6846],[-43.9289,-22.6811],[-43.9291,-22.6815]]]}},{"type":"Feature","properties":{"cod_tema":"RIO_ATE_10","cod_imovel":"RJ-3304003-1A22DF357D364104A15F9C850B2D3A19","ind_status":"AT"},"geometry":{"type":"Polygon","coordinates":[[[-43.8582,-22.538],[-43.8558,-22.542],[-43.8595,-22.5429],[-43.8582,-22.5378],[-43.8582,-22.538]],[[-43.8597,-22.5375],[-43.8631,-22.5342],[-43.8598,-22.5389],[-43.8778,-22.5465],[-43.8591,-22.5379],[-43.8597,-22.5375]]]}},{"type":"Feature","properties":{"cod_tema":"RIO_ATE_10","cod_imovel":"RJ-3304003-211836155605417A8AC22B7E6EA7DE9A","ind_status":"AT"},"geometry":{"type":"Polygon","coordinates":[[[-43.8315,-22.633],[-43.8284,-22.6289],[-43.8315,-22.633],[-43.8315,-22.633]]]}},{"type":"Feature","properties":{"cod_tema":"RIO_ATE_10","cod_imovel":"RJ-3304003-211836155605417A8AC22B7E6EA7DE9A","ind_status":"AT"},"geometry":{"type":"Polygon","coordinates":[[[-43.822,-22.6211],[-43.8182,-22.6247],[-43.8216,-22.6215],[-43.822,-22.6211]]]}},{"type":"Feature","properties":{"cod_tema":"RIO_ATE_10","cod_imovel":"RJ-3304003-211836155605417A8AC22B7E6EA7DE9A","ind_status":"AT"},"geometry":{"type":"Polygon","coordinates":[[[-43.8223,-22.6235],[-43.8257,-22.6253],[-43.8216,-22.6235],[-43.8223,-22.6235]]]}},{"type":"Feature","properties":{"cod_tema":"RIO_ATE_10","cod_imovel":"RJ-3304003-211836155605417A8AC22B7E6EA7DE9A","ind_status":"AT"},"geometry":{"type":"Polygon","coordinates":[[[-43.8223,-22.6235],[-43.8257,-22.6253],[-43.8216,-22.6235],[-43.8223,-22.6235]]]}},{"type":"Feature","properties":{"cod_tema":"RIO_ATE_10","cod_imovel":"RJ-3304003-211836155605417A8AC22B7E6EA7DE9A","ind_status":"AT"},"geometry":{"type":"Polygon","coordinates":[[[-43.8315,-22.633],[-43.8284,-22.6289],[-43.8315,-22.633],[-43.8315,-22.633]]]}},{"type":"Feature","properties":{"cod_tema":"RIO_ATE_10","cod_imovel":"RJ-3304003-211836155605417A8AC22B7E6EA7DE9A","ind_status":"AT"},"geometry":{"type":"Polygon","coordinates":[[[-43.822,-22.6211],[-43.8182,-22.6247],[-43.8216,-22.6215],[-43.822,-22.6211]]]}},{"type":"Feature","properties":{"cod_tema":"LAGO_NATURAL","cod_imovel":"RJ-3304003-211836155605417A8AC22B7E6EA7DE9A","ind_status":"AT"},"geometry":{"type":"Polygon","coordinates":[[[620670.0195,7497818.3774],[620671.1195,7497812.0983],[620673.3197,7497801.4238],[620676.6519,7497777.9269],[620683.7197,7497756.7471],[620692.3579,7497738.705],[620699.1117,7497733.0574],[620704.0299,7497719.8573],[620691.8869,7497719.2512],[620666.1287,7497719.722],[620658.4329,7497720.8202],[620656.5481,7497726.7817],[620662.0453,7497741.6859],[620664.7153,7497752.3543],[620666.4177,7497764.3883],[620662.5111,7497782.3689],[620662.5111,7497795.3749],[620661.7267,7497817.9396],[620665.1477,7497819.3192],[620670.0195,7497818.3774]]]}},{"type":"Feature","properties":{"cod_tema":"LAGO_NATURAL","cod_imovel":"RJ-3304003-211836155605417A8AC22B7E6EA7DE9A","ind_status":"AT"},"geometry":{"type":"Polygon","coordinates":[[[620670.0195,7497818.3774],[620671.1195,7497812.0983],[620673.3197,7497801.4238],[620676.6519,7497777.9269],[620683.7197,7497756.7471],[620692.3579,7497738.705],[620699.1117,7497733.0574],[620704.0299,7497719.8573],[620691.8869,7497719.2512],[620666.1287,7497719.722],[620658.4329,7497720.8202],[620656.5481,7497726.7817],[620662.0453,7497741.6859],[620664.7153,7497752.3543],[620666.4177,7497764.3883],[620662.5111,7497782.3689],[620662.5111,7497795.3749],[620661.7267,7497817.9396],[620665.1477,7497819.3192],[620670.0195,7497818.3774]]]}},{"type":"Feature","properties":{"cod_tema":"RIO_ATE_10","cod_imovel":"RJ-3304003-20E8F51FBABE4B18B210393F9A7781C0","ind_status":"AT"},"geometry":{"type":"Polygon","coordinates":[[[-43.9558,-22.5656],[-43.9546,-22.5689],[-43.956,-22.5657],[-43.9558,-22.5656]]]}},{"type":"Feature","properties":{"cod_tema":"RIO_ATE_10","cod_imovel":"RJ-3304003-286CEA586C484484BFA35C9863569C61","ind_status":"AT"},"geometry":{"type":"Polygon","coordinates":[[[-43.9774,-22.575],[-43.9746,-22.5735],[-43.9774,-22.575],[-43.9774,-22.575]]]}},{"type":"Feature","properties":{"cod_tema":"RIO_ATE_10","cod_imovel":"RJ-3304003-29D6E31CC94B41A599277100F0382B34","ind_status":"AT"},"geometry":{"type":"Polygon","coordinates":[[[-43.8577,-22.6327],[-43.8646,-22.6372],[-43.8576,-22.6327],[-43.8577,-22.6327]],[[-43.8728,-22.6318],[-43.8679,-22.6313],[-43.8697,-22.6356],[-43.8617,-22.6311],[-43.8713,-22.6378],[-43.8728,-22.6318],[-43.8728,-22.6318]]]}},{"type":"Feature","properties":{"cod_tema":"RIO_ATE_10","cod_imovel":"RJ-3304003-2DC80D47E3AD446BB621AFDB095EB9F4","ind_status":"AT"},"geometry":{"type":"Polygon","coordinates":[[[-43.8518,-22.5596],[-43.8547,-22.5613],[-43.8507,-22.5568],[-43.8518,-22.5596]],[[-43.8439,-22.5394],[-43.8376,-22.5374],[-43.846,-22.5404],[-43.8439,-22.5394]],[[-43.8503,-22.5478],[-43.8475,-22.5499],[-43.8514,-22.5476],[-43.8503,-22.5478]],[[-43.8591,-22.5429],[-43.8586,-22.5489],[-43.862,-22.5476],[-43.8573,-22.541],[-43.8591,-22.5429]],[[-43.8428,-22.5493],[-43.8366,-22.547],[-43.8431,-22.5497],[-43.8428,-22.5493]],[[-43.8423,-22.5402],[-43.8417,-22.5456],[-43.8425,-22.5394],[-43.8423,-22.5402]],[[-43.8482,-22.5402],[-43.8445,-22.5462],[-43.8485,-22.5395],[-43.8482,-22.5402]],[[-43.8568,-22.5416],[-43.8509,-22.5417],[-43.8496,-22.5526],[-43.8509,-22.5417],[-43.8573,-22.5404],[-43.8568,-22.5416]],[[-43.8593,-22.5543],[-43.8536,-22.5531],[-43.8539,-22.5575],[-43.8382,-22.5536],[-43.8539,-22.5575],[-43.8536,-22.5531],[-43.8593,-22.5543],[-43.8593,-22.5543]]]}},{"type":"Feature","properties":{"cod_tema":"RIO_ATE_10","cod_imovel":"RJ-3304003-327C5D8FFC2F4DA09B37FFF5F3556E5C","ind_status":"AT"},"geometry":{"type":"Polygon","coordinates":[[[-43.8197,-22.6047],[-43.8145,-22.6037],[-43.8199,-22.6049],[-43.8197,-22.6047]]]}},{"type":"Feature","properties":{"cod_tema":"RIO_ATE_10","cod_imovel":"RJ-3304003-354080214B4D4E74BCAEBD7861674A90","ind_status":"AT"},"geometry":{"type":"Polygon","coordinates":[[[-43.824,-22.7073],[-43.8287,-22.7033],[-43.8239,-22.7072],[-43.824,-22.7073]]]}},{"type":"Feature","properties":{"cod_tema":"RIO_10_A_50","cod_imovel":"RJ-3304003-354080214B4D4E74BCAEBD7861674A90","ind_status":"AT"},"geometry":{"type":"Polygon","coordinates":[[[-43.8238,-22.7005],[-43.8295,-22.7039],[-43.8239,-22.7005],[-43.8238,-22.7005]]]}},{"type":"Feature","properties":{"cod_tema":"RIO_ATE_10","cod_imovel":"RJ-3304003-3A25356751F14D5195FB86818188DA17","ind_status":"AT"},"geometry":{"type":"Polygon","coordinates":[[[-44.0064,-22.6095],[-44.0002,-22.608],[-44.0067,-22.6095],[-44.0064,-22.6095]]]}},{"type":"Feature","properties":{"cod_tema":"RIO_ATE_10","cod_imovel":"RJ-3304003-3FF5A0549B64469190D0502816A312BD","ind_status":"AT"},"geometry":{"type":"Polygon","coordinates":[[[-43.8198,-22.6316],[-43.8185,-22.6358],[-43.8197,-22.6318],[-43.8236,-22.6368],[-43.8197,-22.6318],[-43.8198,-22.6316]],[[-43.8225,-22.6297],[-43.8213,-22.6337],[-43.8224,-22.6282],[-43.8225,-22.6297]]]}},{"type":"Feature","properties":{"cod_tema":"RIO_ATE_10","cod_imovel":"RJ-3304003-4F050F96A4D04E0BA98D1E68C08E0DC7","ind_status":"AT"},"geometry":{"type":"Polygon","coordinates":[[[-44.0906,-22.6214],[-44.0872,-22.6243],[-44.0906,-22.6213],[-44.0954,-22.6243],[-44.0888,-22.6184],[-44.0906,-22.6213],[-44.0906,-22.6214]]]}},{"type":"Feature","properties":{"cod_tema":"RIO_ATE_10","cod_imovel":"RJ-3304003-59353787CE6242118C0BE9304FEB3679","ind_status":"AT"},"geometry":{"type":"Polygon","coordinates":[[[-43.8904,-22.5899],[-43.8857,-22.5914],[-43.8846,-22.5839],[-43.8882,-22.5963],[-43.8907,-22.5881],[-43.8904,-22.5899]],[[-43.9158,-22.5995],[-43.9072,-22.5983],[-43.9116,-22.5922],[-43.9034,-22.5986],[-43.9045,-22.5925],[-43.8982,-22.5849],[-43.9044,-22.5925],[-43.903,-22.5965],[-43.8998,-22.5932],[-43.9033,-22.5986],[-43.8942,-22.5972],[-43.8947,-22.5866],[-43.8959,-22.5956],[-43.8902,-22.5974],[-43.9158,-22.5995],[-43.9158,-22.5995]],[[-43.8946,-22.5755],[-43.893,-22.5726],[-43.8946,-22.5762],[-43.8946,-22.5755]],[[-43.9097,-22.5897],[-43.9108,-22.5847],[-43.8951,-22.5704],[-43.9107,-22.5848],[-43.9086,-22.5903],[-43.9097,-22.5897]],[[-43.9045,-22.5697],[-43.9141,-22.5731],[-43.9032,-22.565],[-43.9044,-22.5701],[-43.9045,-22.5697]],[[-43.9275,-22.5755],[-43.9184,-22.5687],[-43.9163,-22.5605],[-43.912,-22.5647],[-43.9151,-22.5627],[-43.9143,-22.569],[-43.9164,-22.5653],[-43.9252,-22.5734],[-43.9234,-22.5784],[-43.9253,-22.5734],[-43.9274,-22.5769],[-43.9275,-22.5755]],[[-43.9158,-22.6071],[-43.9195,-22.6126],[-43.9156,-22.6068],[-43.9158,-22.6071]],[[-43.9162,-22.5759],[-43.9259,-22.5877],[-43.9159,-22.5756],[-43.9162,-22.5759]],[[-43.9217,-22.563],[-43.9233,-22.5591],[-43.9213,-22.5638],[-43.9217,-22.563]],[[-43.9272,-22.6024],[-43.9217,-22.6056],[-43.925,-22.6135],[-43.9218,-22.6056],[-43.9275,-22.6019],[-43.9272,-22.6024]],[[-43.9288,-22.5653],[-43.9255,-22.5597],[-43.9287,-22.5658],[-43.9288,-22.5653]],[[-43.9413,-22.5763],[-43.9419,-22.5716],[-43.9319,-22.5727],[-43.9329,-22.5777],[-43.927,-22.5805],[-43.9308,-22.579],[-43.9316,-22.5834],[-43.9374,-22.573],[-43.9381,-22.5782],[-43.9395,-22.573],[-43.9411,-22.577],[-43.9413,-22.5763]],[[-43.9354,-22.5929],[-43.9443,-22.5887],[-43.9287,-22.5866],[-43.9382,-22.5883],[-43.9346,-22.5934],[-43.9354,-22.5929]],[[-43.9379,-22.5798],[-43.9425,-22.5834],[-43.938,-22.5794],[-43.9379,-22.5798]],[[-43.9462,-22.5939],[-43.9477,-22.5913],[-43.9457,-22.5944],[-43.9462,-22.5939]]]}},{"type":"Feature","properties":{"cod_tema":"RIO_ATE_10","cod_imovel":"RJ-3304003-6469815E2A3847AFAA531E2806621D10","ind_status":"AT"},"geometry":{"type":"Polygon","coordinates":[[[-44.0354,-22.6301],[-44.0283,-22.6204],[-44.0354,-22.6301],[-44.0354,-22.6301]],[[-44.0499,-22.6274],[-44.0333,-22.6184],[-44.0401,-22.623],[-44.0354,-22.6257],[-44.04,-22.625],[-44.042,-22.6312],[-44.0477,-22.6323],[-44.0401,-22.6237],[-44.0499,-22.6274],[-44.0499,-22.6274]]]}},{"type":"Feature","properties":{"cod_tema":"RIO_ATE_10","cod_imovel":"RJ-3304003-72D3F64E429B460282BAD8AD991E1F84","ind_status":"AT"},"geometry":{"type":"Polygon","coordinates":[[[-43.8839,-22.546],[-43.881,-22.5479],[-43.8838,-22.5364],[-43.8807,-22.545],[-43.8743,-22.539],[-43.8774,-22.535],[-43.8741,-22.5369],[-43.8812,-22.5461],[-43.8762,-22.5462],[-43.8853,-22.5543],[-43.8817,-22.5477],[-43.8893,-22.5491],[-43.8839,-22.5462],[-43.8839,-22.546]]]}},{"type":"Feature","properties":{"cod_tema":"RIO_ATE_10","cod_imovel":"RJ-3304003-751A55E6C8524E439B8E4A9935722F97","ind_status":"AT"},"geometry":{"type":"Polygon","coordinates":[[[-43.8031,-22.6181],[-43.8124,-22.613],[-43.8026,-22.6184],[-43.8031,-22.6181]]]}},{"type":"Feature","properties":{"cod_tema":"RIO_ATE_10","cod_imovel":"RJ-3304003-7640B90AFCFA462683B5E9A9A16ECDD0","ind_status":"AT"},"geometry":{"type":"Polygon","coordinates":[[[-43.9796,-22.5696],[-43.9849,-22.5646],[-43.9793,-22.57],[-43.9796,-22.5696]]]}},{"type":"Feature","properties":{"cod_tema":"RIO_ATE_10","cod_imovel":"RJ-3304003-7640B90AFCFA462683B5E9A9A16ECDD0","ind_status":"AT"},"geometry":{"type":"Polygon","coordinates":[[[-43.9804,-22.5589],[-43.9846,-22.5616],[-43.9867,-22.5582],[-43.9846,-22.5615],[-43.9801,-22.5583],[-43.9804,-22.5589]]]}},{"type":"Feature","properties":{"cod_tema":"RIO_ATE_10","cod_imovel":"RJ-3304003-7640B90AFCFA462683B5E9A9A16ECDD0","ind_status":"AT"},"geometry":{"type":"Polygon","coordinates":[[[-43.9775,-22.5598],[-43.9888,-22.5652],[-43.9774,-22.5588],[-43.9775,-22.5598]]]}},{"type":"Feature","properties":{"cod_tema":"RIO_ATE_10","cod_imovel":"RJ-3304003-7640B90AFCFA462683B5E9A9A16ECDD0","ind_status":"AT"},"geometry":{"type":"Polygon","coordinates":[[[-43.9885,-22.5658],[-43.9816,-22.5696],[-43.9888,-22.5654],[-43.9885,-22.5658]]]}},{"type":"Feature","properties":{"cod_tema":"RIO_ATE_10","cod_imovel":"RJ-3304003-7640B90AFCFA462683B5E9A9A16ECDD0","ind_status":"AT"},"geometry":{"type":"Polygon","coordinates":[[[-43.9849,-22.5688],[-43.9823,-22.572],[-43.9855,-22.5686],[-43.9849,-22.5688]]]}},{"type":"Feature","properties":{"cod_tema":"RIO_ATE_10","cod_imovel":"RJ-3304003-7640B90AFCFA462683B5E9A9A16ECDD0","ind_status":"AT"},"geometry":{"type":"Polygon","coordinates":[[[-43.9858,-22.5722],[-43.989,-22.5724],[-43.9855,-22.5727],[-43.9858,-22.5722]]]}},{"type":"Feature","properties":{"cod_tema":"RIO_ATE_10","cod_imovel":"RJ-3304003-7640B90AFCFA462683B5E9A9A16ECDD0","ind_status":"AT"},"geometry":{"type":"Polygon","coordinates":[[[-43.9752,-22.5626],[-43.965,-22.5614],[-43.9759,-22.5625],[-43.9752,-22.5626]]]}},{"type":"Feature","properties":{"cod_tema":"RIO_ATE_10","cod_imovel":"RJ-3304003-7640B90AFCFA462683B5E9A9A16ECDD0","ind_status":"AT"},"geometry":{"type":"Polygon","coordinates":[[[-43.9675,-22.5606],[-43.9695,-22.5578],[-43.9663,-22.5611],[-43.9675,-22.5606]]]}},{"type":"Feature","properties":{"cod_tema":"RIO_ATE_10","cod_imovel":"RJ-3304003-7640B90AFCFA462683B5E9A9A16ECDD0","ind_status":"AT"},"geometry":{"type":"Polygon","coordinates":[[[-43.9738,-22.5669],[-43.9629,-22.5616],[-43.9738,-22.5671],[-43.9738,-22.5669]]]}},{"type":"Feature","properties":{"cod_tema":"RIO_ATE_10","cod_imovel":"RJ-3304003-7640B90AFCFA462683B5E9A9A16ECDD0","ind_status":"AT"},"geometry":{"type":"Polygon","coordinates":[[[-43.9748,-22.5654],[-43.97,-22.564],[-43.9756,-22.5657],[-43.9748,-22.5654]]]}},{"type":"Feature","properties":{"cod_tema":"RIO_ATE_10","cod_imovel":"RJ-3304003-7640B90AFCFA462683B5E9A9A16ECDD0","ind_status":"AT"},"geometry":{"type":"Polygon","coordinates":[[[-43.9756,-22.5645],[-43.9685,-22.5639],[-43.9763,-22.5647],[-43.9756,-22.5645]]]}},{"type":"Feature","properties":{"cod_tema":"RIO_ATE_10","cod_imovel":"RJ-3304003-922440C342924A1296C14C214754EB85","ind_status":"AT"},"geometry":{"type":"Polygon","coordinates":[[[-43.8706,-22.5748],[-43.8613,-22.5724],[-43.8722,-22.5756],[-43.8706,-22.5748]],[[-43.8669,-22.5776],[-43.858,-22.5767],[-43.8693,-22.5758],[-43.8669,-22.5776]],[[-43.8565,-22.5841],[-43.8591,-22.588],[-43.8627,-22.5851],[-43.8567,-22.5799],[-43.8563,-22.5847],[-43.8565,-22.5841]]]}},{"type":"Feature","properties":{"cod_tema":"RIO_ATE_10","cod_imovel":"RJ-3304003-787AD7D66E504DF6AE561082A60998AF","ind_status":"AT"},"geometry":{"type":"Polygon","coordinates":[[[-43.8323,-22.5213],[-43.8365,-22.5233],[-43.833,-22.5206],[-43.8323,-22.5213]],[[-43.8326,-22.5198],[-43.8282,-22.5166],[-43.8384,-22.5187],[-43.8323,-22.5199],[-43.8326,-22.5198]]]}},{"type":"Feature","properties":{"cod_tema":"LAGO_NATURAL","cod_imovel":"RJ-3304003-837E47B1EC7F4925A8B64AA5848C7C85","ind_status":"AT"},"geometry":{"type":"Polygon","coordinates":[[[-43.9155,-22.5759],[-43.9139,-22.573],[-43.9154,-22.5757],[-43.9155,-22.5759]]]}},{"type":"Feature","properties":{"cod_tema":"RIO_ATE_10","cod_imovel":"RJ-3304003-84F055317EFA4D2E82B1ECD5AEA09ED9","ind_status":"AT"},"geometry":{"type":"Polygon","coordinates":[[[-43.9819,-22.6443],[-43.9747,-22.6433],[-43.982,-22.6443],[-43.9819,-22.6443]],[[-43.9835,-22.6321],[-43.9786,-22.6412],[-43.9814,-22.6385],[-43.9937,-22.6437],[-43.9807,-22.6385],[-43.9835,-22.6321],[-43.9835,-22.6321]]]}},{"type":"Feature","properties":{"cod_tema":"RIO_ATE_10","cod_imovel":"RJ-3304003-8985240610ED424D90AA99EE2C526ACB","ind_status":"AT"},"geometry":{"type":"Polygon","coordinates":[[[-44.0042,-22.6375],[-43.9984,-22.6477],[-43.9986,-22.6436],[-44.0033,-22.6441],[-44.0052,-22.6502],[-44.0042,-22.6368],[-44.0042,-22.6375]]]}},{"type":"Feature","properties":{"cod_tema":"RIO_ATE_10","cod_imovel":"RJ-3304003-91DED29F60164D4D903F309FC9AD8B42","ind_status":"AT"},"geometry":{"type":"Polygon","coordinates":[[[-43.8515,-22.7334],[-43.8476,-22.7323],[-43.8516,-22.7335],[-43.8515,-22.7334]],[[-43.8527,-22.7373],[-43.8472,-22.7392],[-43.8528,-22.7373],[-43.8527,-22.7373]]]}},{"type":"Feature","properties":{"cod_tema":"RIO_10_A_50","cod_imovel":"RJ-3304003-91DED29F60164D4D903F309FC9AD8B42","ind_status":"AT"},"geometry":{"type":"Polygon","coordinates":[[[-43.8535,-22.7379],[-43.8521,-22.733],[-43.8534,-22.7379],[-43.8535,-22.7379]]]}},{"type":"Feature","properties":{"cod_tema":"RIO_ATE_10","cod_imovel":"RJ-3304003-93C12B257DB54C08929B1F505570B400","ind_status":"AT"},"geometry":{"type":"Polygon","coordinates":[[[-43.9652,-22.5818],[-43.9547,-22.5699],[-43.9494,-22.5687],[-43.9524,-22.5706],[-43.9453,-22.5761],[-43.9504,-22.5799],[-43.9451,-22.5772],[-43.9524,-22.5706],[-43.9525,-22.58],[-43.9525,-22.5701],[-43.9571,-22.574],[-43.9532,-22.5877],[-43.9571,-22.574],[-43.9552,-22.5838],[-43.9589,-22.5762],[-43.9575,-22.5837],[-43.9598,-22.5774],[-43.9643,-22.5819],[-43.9603,-22.5845],[-43.9652,-22.5818],[-43.9652,-22.5818]],[[-43.9565,-22.5933],[-43.9536,-22.5888],[-43.9517,-22.592],[-43.9565,-22.5933],[-43.9565,-22.5933]]]}},{"type":"Feature","properties":{"cod_tema":"RIO_ATE_10","cod_imovel":"RJ-3304003-9A237BDC6CD94D18A426A4E47835665E","ind_status":"AT"},"geometry":{"type":"Polygon","coordinates":[[[-43.9875,-22.597],[-43.9931,-22.5983],[-43.9869,-22.5971],[-43.9875,-22.597]]]}},{"type":"Feature","properties":{"cod_tema":"RIO_ATE_10","cod_imovel":"RJ-3304003-9A237BDC6CD94D18A426A4E47835665E","ind_status":"AT"},"geometry":{"type":"Polygon","coordinates":[[[-44.0117,-22.5888],[-44.0075,-22.5906],[-44.0118,-22.5887],[-44.0117,-22.5888]]]}},{"type":"Feature","properties":{"cod_tema":"RIO_ATE_10","cod_imovel":"RJ-3304003-9A237BDC6CD94D18A426A4E47835665E","ind_status":"AT"},"geometry":{"type":"Polygon","coordinates":[[[-44.0097,-22.5872],[-44.0064,-22.5948],[-44.0097,-22.5872],[-44.0097,-22.5872]]]}},{"type":"Feature","properties":{"cod_tema":"RIO_ATE_10","cod_imovel":"RJ-3304003-9A237BDC6CD94D18A426A4E47835665E","ind_status":"AT"},"geometry":{"type":"Polygon","coordinates":[[[-44.0048,-22.5914],[-43.9827,-22.5872],[-43.9791,-22.5904],[-43.9826,-22.5873],[-44.0049,-22.5911],[-44.0048,-22.5914]]]}},{"type":"Feature","properties":{"cod_tema":"RIO_ATE_10","cod_imovel":"RJ-3304003-9A237BDC6CD94D18A426A4E47835665E","ind_status":"AT"},"geometry":{"type":"Polygon","coordinates":[[[-43.9825,-22.5962],[-43.9852,-22.593],[-43.9939,-22.5962],[-44.0001,-22.5906],[-43.9939,-22.5961],[-43.9852,-22.5929],[-43.9819,-22.5972],[-43.9825,-22.5962]]]}},{"type":"Feature","properties":{"cod_tema":"RIO_ATE_10","cod_imovel":"RJ-3304003-9A237BDC6CD94D18A426A4E47835665E","ind_status":"AT"},"geometry":{"type":"Polygon","coordinates":[[[-43.9981,-22.6001],[-43.9939,-22.5961],[-43.9989,-22.6008],[-43.9981,-22.6001]]]}},{"type":"Feature","properties":{"cod_tema":"RIO_ATE_10","cod_imovel":"RJ-3304003-9A237BDC6CD94D18A426A4E47835665E","ind_status":"AT"},"geometry":{"type":"Polygon","coordinates":[[[-43.9848,-22.5856],[-43.9877,-22.5841],[-43.9849,-22.5858],[-43.9848,-22.5856]]]}},{"type":"Feature","properties":{"cod_tema":"RIO_ATE_10","cod_imovel":"RJ-3304003-9A237BDC6CD94D18A426A4E47835665E","ind_status":"AT"},"geometry":{"type":"Polygon","coordinates":[[[-43.9811,-22.5806],[-43.9847,-22.5818],[-43.9802,-22.5801],[-43.9811,-22.5806]]]}},{"type":"Feature","properties":{"cod_tema":"RIO_ATE_10","cod_imovel":"RJ-3304003-A01679D0F502423EA348D617C1452569","ind_status":"AT"},"geometry":{"type":"Polygon","coordinates":[[[-43.8553,-22.5948],[-43.8523,-22.5947],[-43.8555,-22.5945],[-43.8553,-22.5948]],[[-43.8611,-22.5966],[-43.8584,-22.5936],[-43.8612,-22.5971],[-43.8611,-22.5966]],[[-43.878,-22.5849],[-43.8716,-22.5824],[-43.8767,-22.5823],[-43.8758,-22.5792],[-43.8691,-22.5803],[-43.8712,-22.5765],[-43.8621,-22.5848],[-43.8736,-22.59],[-43.8652,-22.5854],[-43.8716,-22.584],[-43.8679,-22.5806],[-43.8781,-22.5846],[-43.878,-22.5849]],[[-43.8704,-22.5902],[-43.8688,-22.5934],[-43.8704,-22.5901],[-43.8704,-22.5902]],[[-43.8816,-22.5782],[-43.8715,-22.5724],[-43.8817,-22.5784],[-43.8816,-22.5782]]]}},{"type":"Feature","properties":{"cod_tema":"RIO_50_A_200","cod_imovel":"RJ-3304003-A01679D0F502423EA348D617C1452569","ind_status":"AT"},"geometry":{"type":"Polygon","coordinates":[[[-43.8505,-22.5974],[-43.8544,-22.6012],[-43.8618,-22.5984],[-43.8506,-22.5975],[-43.8505,-22.5974]]]}},{"type":"Feature","properties":{"cod_tema":"RIO_ATE_10","cod_imovel":"RJ-3304003-A393C20C06364791A67CCD63865DC85C","ind_status":"AT"},"geometry":{"type":"Polygon","coordinates":[[[-43.9208,-22.6125],[-43.9154,-22.6097],[-43.9208,-22.6126],[-43.9208,-22.6125]]]}},{"type":"Feature","properties":{"cod_tema":"RIO_ATE_10","cod_imovel":"RJ-3304003-AB7D548F0E4049C9BE7BAA3466A513AC","ind_status":"AT"},"geometry":{"type":"Polygon","coordinates":[[[-43.8615,-22.5465],[-43.8594,-22.5429],[-43.8564,-22.5454],[-43.8616,-22.5467],[-43.8615,-22.5465]],[[-43.8744,-22.5517],[-43.8643,-22.5432],[-43.861,-22.5488],[-43.8665,-22.5574],[-43.8654,-22.5509],[-43.8701,-22.5565],[-43.8637,-22.5456],[-43.8774,-22.5547],[-43.8744,-22.5517],[-43.8744,-22.5517]],[[-43.8671,-22.5584],[-43.865,-22.5606],[-43.8671,-22.5582],[-43.8671,-22.5584]],[[-43.8753,-22.5592],[-43.8651,-22.5607],[-43.8717,-22.5655],[-43.8706,-22.5613],[-43.8754,-22.5591],[-43.8753,-22.5592]],[[-43.8798,-22.5611],[-43.8763,-22.5614],[-43.879,-22.5576],[-43.8738,-22.5665],[-43.8762,-22.5625],[-43.8791,-22.572],[-43.8763,-22.5615],[-43.88,-22.5611],[-43.8798,-22.5611]],[[-43.8766,-22.5496],[-43.8772,-22.5467],[-43.8765,-22.5498],[-43.8766,-22.5496]],[[-43.8815,-22.5535],[-43.8795,-22.5574],[-43.8815,-22.5534],[-43.8815,-22.5535]],[[-43.8875,-22.5666],[-43.8831,-22.5567],[-43.883,-22.5684],[-43.8841,-22.5615],[-43.8875,-22.5666],[-43.8875,-22.5666]]]}},{"type":"Feature","properties":{"cod_tema":"RIO_ATE_10","cod_imovel":"RJ-3304003-B523D87488224AD19CE1BC4D64D40A26","ind_status":"AT"},"geometry":{"type":"Polygon","coordinates":[[[-43.8944,-22.5824],[-43.8971,-22.5842],[-43.8938,-22.5816],[-43.8944,-22.5824]]]}},{"type":"Feature","properties":{"cod_tema":"RIO_ATE_10","cod_imovel":"RJ-3304003-BBCC4220E2EE42D68FE9A0EFBFFE4856","ind_status":"AT"},"geometry":{"type":"Polygon","coordinates":[[[-43.8326,-22.7847],[-43.8351,-22.7828],[-43.8327,-22.7854],[-43.8326,-22.7847]],[[-43.8308,-22.7844],[-43.8359,-22.7821],[-43.8301,-22.7845],[-43.8308,-22.7844]]]}},{"type":"Feature","properties":{"cod_tema":"RIO_ATE_10","cod_imovel":"RJ-3304003-B88FD7D95FDE47F6BFCDA3B022CBACD4","ind_status":"AT"},"geometry":{"type":"Polygon","coordinates":[[[-43.8718,-22.5962],[-43.8705,-22.5914],[-43.8688,-22.5957],[-43.8643,-22.5924],[-43.8674,-22.5959],[-43.8623,-22.5978],[-43.8719,-22.5961],[-43.8718,-22.5962]],[[-43.883,-22.5996],[-43.8734,-22.5935],[-43.8792,-22.5993],[-43.8761,-22.6042],[-43.8802,-22.6068],[-43.8759,-22.6089],[-43.8857,-22.6048],[-43.8774,-22.6022],[-43.883,-22.5996],[-43.883,-22.5996]]]}},{"type":"Feature","properties":{"cod_tema":"RIO_ATE_10","cod_imovel":"RJ-3304003-B98EB164C55542D1970DE8038F651972","ind_status":"AT"},"geometry":{"type":"Polygon","coordinates":[[[-43.9258,-22.6874],[-43.9219,-22.6808],[-43.9258,-22.6874],[-43.9258,-22.6874]],[[-43.9296,-22.6843],[-43.9248,-22.679],[-43.9291,-22.6848],[-43.9296,-22.6843]]]}},{"type":"Feature","properties":{"cod_tema":"RIO_ATE_10","cod_imovel":"RJ-3304003-BE5DCDB6C5BB48019674C70344219694","ind_status":"AT"},"geometry":{"type":"Polygon","coordinates":[[[-43.8232,-22.6018],[-43.8263,-22.6021],[-43.8229,-22.6019],[-43.8232,-22.6018]]]}},{"type":"Feature","properties":{"cod_tema":"RIO_ATE_10","cod_imovel":"RJ-3304003-BE5DCDB6C5BB48019674C70344219694","ind_status":"AT"},"geometry":{"type":"Polygon","coordinates":[[[-43.8217,-22.6041],[-43.8239,-22.6019],[-43.8211,-22.605],[-43.8217,-22.6041]]]}},{"type":"Feature","properties":{"cod_tema":"RIO_ATE_10","cod_imovel":"RJ-3304003-C258FA68D97B4E05B3D1F3AF51A5E4F4","ind_status":"AT"},"geometry":{"type":"Polygon","coordinates":[[[-43.8473,-22.5306],[-43.8456,-22.5331],[-43.8473,-22.5305],[-43.8473,-22.5306]]]}},{"type":"Feature","properties":{"cod_tema":"RIO_ATE_10","cod_imovel":"RJ-3304003-C6F478276CC0448B84973A120AD59731","ind_status":"AT"},"geometry":{"type":"Polygon","coordinates":[[[-43.8581,-22.5376],[-43.8548,-22.5362],[-43.858,-22.5374],[-43.8581,-22.5376]],[[-43.8548,-22.542],[-43.8513,-22.5416],[-43.8558,-22.542],[-43.8548,-22.542]]]}},{"type":"Feature","properties":{"cod_tema":"RIO_ATE_10","cod_imovel":"RJ-3304003-D1A8F4A6D5C04EDEB70C82A3089FD3A9","ind_status":"AT"},"geometry":{"type":"Polygon","coordinates":[[[-43.8136,-22.6126],[-43.8196,-22.6085],[-43.8123,-22.613],[-43.8136,-22.6126]],[[-43.8145,-22.6089],[-43.8127,-22.6054],[-43.8139,-22.6095],[-43.8145,-22.6089]]]}},{"type":"Feature","properties":{"cod_tema":"RIO_ATE_10","cod_imovel":"RJ-3304003-D6D06CD780DB4424A76061B62F8F9C7B","ind_status":"AT"},"geometry":{"type":"Polygon","coordinates":[[[-44.0009,-22.6194],[-43.9981,-22.6179],[-44.0008,-22.6195],[-44.0009,-22.6194]]]}},{"type":"Feature","properties":{"cod_tema":"RIO_ATE_10","cod_imovel":"RJ-3304003-E6133B7829234C4BA2047DC02B46C1D0","ind_status":"AT"},"geometry":{"type":"Polygon","coordinates":[[[-43.9663,-22.6201],[-43.9646,-22.6143],[-43.9642,-22.6181],[-43.9584,-22.6151],[-43.9663,-22.6201],[-43.9663,-22.6201]]]}},{"type":"Feature","properties":{"cod_tema":"RIO_ATE_10","cod_imovel":"RJ-3304003-E8CDFF4BE0BC46E29AB70B45F68EEA7C","ind_status":"AT"},"geometry":{"type":"Polygon","coordinates":[[[-43.9382,-22.5734],[-43.9334,-22.576],[-43.9388,-22.5736],[-43.9382,-22.5734]],[[-43.9258,-22.5601],[-43.9296,-22.5672],[-43.9255,-22.5596],[-43.9258,-22.5601]],[[-43.9412,-22.5735],[-43.9412,-22.5766],[-43.9412,-22.5729],[-43.9412,-22.5735]],[[-43.9432,-22.5621],[-43.9534,-22.5652],[-43.9426,-22.5622],[-43.9432,-22.5621]],[[-43.9472,-22.5731],[-43.9412,-22.5725],[-43.9476,-22.5736],[-43.9472,-22.5731]]]}},{"type":"Feature","properties":{"cod_tema":"RESERVATORIO_ARTIFICIAL_DECORRENTE_BARRAMENTO","cod_imovel":"RJ-3304003-E8CDFF4BE0BC46E29AB70B45F68EEA7C","ind_status":"AT"},"geometry":{"type":"Polygon","coordinates":[[[-43.9402,-22.5584],[-43.9365,-22.5599],[-43.9398,-22.562],[-43.9402,-22.5584],[-43.9402,-22.5584]]]}},{"type":"Feature","properties":{"cod_tema":"RIO_ATE_10","cod_imovel":"RJ-3304003-EF9266A6F3354F8AB3DF889659005949","ind_status":"AT"},"geometry":{"type":"Polygon","coordinates":[[[-43.8931,-22.5453],[-43.8901,-22.5493],[-43.894,-22.5434],[-43.8931,-22.5453]],[[-43.8961,-22.5434],[-43.8943,-22.5514],[-43.8966,-22.5411],[-43.8961,-22.5434]]]}},{"type":"Feature","properties":{"cod_tema":"RIO_ATE_10","cod_imovel":"RJ-3304003-F07619D2B83B41FA9F2F8CC50989D138","ind_status":"AT"},"geometry":{"type":"Polygon","coordinates":[[[-43.7943,-22.5547],[-43.7911,-22.5544],[-43.7942,-22.5546],[-43.7943,-22.5547]],[[-43.7877,-22.5571],[-43.7888,-22.5528],[-43.7876,-22.5572],[-43.7877,-22.5571]]]}},{"type":"Feature","properties":{"cod_tema":"RIO_ATE_10","cod_imovel":"RJ-3304003-F1B6B0551EB747658449C2B42A69CAB5","ind_status":"AT"},"geometry":{"type":"Polygon","coordinates":[[[-43.8509,-22.5571],[-43.8451,-22.555],[-43.8509,-22.5574],[-43.8509,-22.5571]],[[-43.8545,-22.5604],[-43.8508,-22.5576],[-43.855,-22.561],[-43.8545,-22.5604]]]}},{"type":"Feature","properties":{"cod_tema":"RIO_ATE_10","cod_imovel":"RJ-3304003-FC86C4B74C32408DB116F3CF79972385","ind_status":"AT"},"geometry":{"type":"Polygon","coordinates":[[[-44.0282,-22.5941],[-44.028,-22.5987],[-44.0282,-22.5941],[-44.0282,-22.5941]]]}},{"type":"Feature","properties":{"cod_tema":"RIO_50_A_200","cod_imovel":"RJ-3304003-FEB330A9CB1D4A16BD2309B06ACAA487","ind_status":"AT"},"geometry":{"type":"Polygon","coordinates":[[[-43.8377,-22.5695],[-43.8374,-22.5654],[-43.831,-22.5652],[-43.8375,-22.5689],[-43.8377,-22.5695]],[[-43.831,-22.569],[-43.8324,-22.5731],[-43.831,-22.5683],[-43.831,-22.569]]]}},{"type":"Feature","properties":{"cod_tema":"RIO_ATE_10","cod_imovel":"RJ-3304003-F4A6024411CC4964BF0E518A4656E9D7","ind_status":"AT"},"geometry":{"type":"Polygon","coordinates":[[[-44.0173,-22.6243],[-44.0091,-22.626],[-44.0049,-22.6194],[-44.0102,-22.6273],[-44.0033,-22.625],[-44.0063,-22.6291],[-44.0147,-22.6247],[-44.0119,-22.6291],[-44.0173,-22.6243],[-44.0173,-22.6243]],[[-44.0087,-22.6224],[-44.0162,-22.6122],[-44.0087,-22.6225],[-44.0087,-22.6224]]]}},{"type":"Feature","properties":{"cod_tema":"RIO_ATE_10","cod_imovel":"RJ-3304003-FB9BC9AC2124469CA840038580759CD3","ind_status":"AT"},"geometry":{"type":"Polygon","coordinates":[[[-44.0391,-22.6077],[-44.0428,-22.6079],[-44.0391,-22.6077],[-44.0391,-22.6077]]]}},{"type":"Feature","properties":{"cod_tema":"RIO_ATE_10","cod_imovel":"RJ-3304003-0B10A5E97DBB46DA9EBF97C670E50B9E","ind_status":"AT"},"geometry":{"type":"Polygon","coordinates":[[[-43.8546,-22.6691],[-43.8556,-22.6737],[-43.8583,-22.6675],[-43.8522,-22.6677],[-43.8534,-22.6737],[-43.8545,-22.6691],[-43.8546,-22.6691]]]}},{"type":"Feature","properties":{"cod_tema":"RIO_ATE_10","cod_imovel":"RJ-3304003-420A124984E04104B3FD11890ADD2866","ind_status":"AT"},"geometry":{"type":"Polygon","coordinates":[[[-44.0722,-22.6508],[-44.0685,-22.6511],[-44.0722,-22.6508],[-44.0722,-22.6508]]]}},{"type":"Feature","properties":{"cod_tema":"RIO_ATE_10","cod_imovel":"RJ-3304003-FA00428EA39247778805ABDBFCC53331","ind_status":"AT"},"geometry":{"type":"Polygon","coordinates":[[[-43.8263,-22.7721],[-43.8193,-22.7703],[-43.8247,-22.7735],[-43.822,-22.7747],[-43.8263,-22.7721],[-43.8263,-22.7721]],[[-43.8233,-22.7756],[-43.8193,-22.775],[-43.8236,-22.7756],[-43.8233,-22.7756]],[[-43.824,-22.7687],[-43.8208,-22.7691],[-43.8243,-22.7691],[-43.824,-22.7687]],[[-43.8327,-22.7803],[-43.8252,-22.7778],[-43.8328,-22.7803],[-43.8327,-22.7803]]]}},{"type":"Feature","properties":{"cod_tema":"RIO_ATE_10","cod_imovel":"RJ-3304003-9C150A162D3E4D3EAAC97CA38D27F6C4","ind_status":"AT"},"geometry":{"type":"Polygon","coordinates":[[[-43.8376,-22.7015],[-43.8318,-22.7009],[-43.8321,-22.6956],[-43.8306,-22.7018],[-43.8237,-22.7005],[-43.8341,-22.7077],[-43.8261,-22.7021],[-43.8377,-22.7015],[-43.8376,-22.7015]]]}},{"type":"Feature","properties":{"cod_tema":"RIO_ATE_10","cod_imovel":"RJ-3304003-9258059E8C56443BA6FC0DA8A258C5FC","ind_status":"AT"},"geometry":{"type":"Polygon","coordinates":[[[-43.9797,-22.6684],[-43.9728,-22.6636],[-43.9891,-22.669],[-44.0032,-22.6585],[-44.004,-22.6517],[-43.9963,-22.6638],[-43.9809,-22.6693],[-43.9797,-22.6684]]]}},{"type":"Feature","properties":{"cod_tema":"RIO_ATE_10","cod_imovel":"RJ-3304003-290AB990858644FEB62E2F6B60771CCA","ind_status":"AT"},"geometry":{"type":"Polygon","coordinates":[[[-44.0005,-22.6218],[-44.0033,-22.6242],[-44.0006,-22.6218],[-44.0005,-22.6218]],[[-43.9993,-22.6229],[-43.9988,-22.6261],[-43.9993,-22.6228],[-43.9993,-22.6229]]]}},{"type":"Feature","properties":{"cod_tema":"RIO_ATE_10","cod_imovel":"RJ-3304003-C0989C20E6F841869CBE4CF29E9F8AAB","ind_status":"AT"},"geometry":{"type":"Polygon","coordinates":[[[-44.0568,-22.6136],[-44.0624,-22.6155],[-44.0568,-22.6136],[-44.0568,-22.6136]],[[-44.0657,-22.614],[-44.0564,-22.6126],[-44.0657,-22.6141],[-44.0657,-22.614]],[[-44.0624,-22.6083],[-44.066,-22.6091],[-44.0624,-22.6082],[-44.0624,-22.6083]],[[-44.0607,-22.6076],[-44.0571,-22.6074],[-44.0608,-22.6076],[-44.0607,-22.6076]]]}},{"type":"Feature","properties":{"cod_tema":"RIO_ATE_10","cod_imovel":"RJ-3303609-18C4495C75364B6698472C9411A86818","ind_status":"AT"},"geometry":{"type":"Polygon","coordinates":[[[-43.8272,-22.6604],[-43.8192,-22.6555],[-43.8272,-22.6605],[-43.8272,-22.6604]]]}},{"type":"Feature","properties":{"cod_tema":"RIO_ATE_10","cod_imovel":"RJ-3304003-0EED8B6F73034D518ED262D1EFC91F09","ind_status":"AT"},"geometry":{"type":"Polygon","coordinates":[[[-43.925,-22.6861],[-43.927,-22.6902],[-43.9252,-22.6863],[-43.925,-22.6861]],[[-43.9549,-22.6849],[-43.9467,-22.682],[-43.9523,-22.6856],[-43.9469,-22.6888],[-43.9316,-22.6767],[-43.946,-22.688],[-43.9421,-22.691],[-43.9487,-22.6899],[-43.9445,-22.6951],[-43.9371,-22.6916],[-43.9338,-22.6958],[-43.9445,-22.6951],[-43.9549,-22.6849],[-43.9549,-22.6849]],[[-43.9401,-22.6786],[-43.9439,-22.6792],[-43.941,-22.6741],[-43.9401,-22.6786],[-43.9401,-22.6786]]]}},{"type":"Feature","properties":{"cod_tema":"RIO_ATE_10","cod_imovel":"RJ-3304003-08EAD8F8B1434DFA9871411096A6D272","ind_status":"AT"},"geometry":{"type":"Polygon","coordinates":[[[-43.8581,-22.7314],[-43.8513,-22.734],[-43.8582,-22.7314],[-43.8581,-22.7314]]]}},{"type":"Feature","properties":{"cod_tema":"RIO_ATE_10","cod_imovel":"RJ-3304003-8ACE982879044EAE86AFAA17879DFA3E","ind_status":"AT"},"geometry":{"type":"Polygon","coordinates":[[[-43.7963,-22.5599],[-43.794,-22.5625],[-43.797,-22.5594],[-43.7963,-22.5599]],[[-43.7961,-22.5588],[-43.793,-22.5599],[-43.7965,-22.559],[-43.7961,-22.5588]]]}},{"type":"Feature","properties":{"cod_tema":"RIO_ATE_10","cod_imovel":"RJ-3304003-0C154CDD4C774E4BB4736C14A2E68F9B","ind_status":"AT"},"geometry":{"type":"Polygon","coordinates":[[[-44.073,-22.6392],[-44.0698,-22.6403],[-44.0746,-22.6432],[-44.073,-22.6389],[-44.073,-22.6392]],[[-44.0716,-22.6501],[-44.0689,-22.6477],[-44.0716,-22.6501],[-44.0716,-22.6501]],[[-44.074,-22.6438],[-44.0754,-22.6485],[-44.0704,-22.6458],[-44.0767,-22.6492],[-44.074,-22.6436],[-44.074,-22.6438]]]}},{"type":"Feature","properties":{"cod_tema":"RIO_ATE_10","cod_imovel":"RJ-3304003-BBC4F491284D4BE5A6C14B03DFD2E883","ind_status":"AT"},"geometry":{"type":"Polygon","coordinates":[[[-44.0209,-22.6188],[-44.013,-22.6216],[-44.0209,-22.6188],[-44.0209,-22.6188]]]}},{"type":"Feature","properties":{"cod_tema":"RIO_ATE_10","cod_imovel":"RJ-3304003-1FAB62C0291648D7B481D7B50566096F","ind_status":"AT"},"geometry":{"type":"Polygon","coordinates":[[[-43.9449,-22.6224],[-43.948,-22.6261],[-43.9449,-22.6219],[-43.9449,-22.6224]],[[-43.9474,-22.6268],[-43.9445,-22.6284],[-43.9477,-22.6268],[-43.9474,-22.6268]]]}},{"type":"Feature","properties":{"cod_tema":"RIO_10_A_50","cod_imovel":"RJ-3304003-3087F019EE8D467CB839A9C25C96B134","ind_status":"AT"},"geometry":{"type":"Polygon","coordinates":[[[-43.9402,-22.6361],[-43.9339,-22.6353],[-43.94,-22.6362],[-43.9402,-22.6361]]]}},{"type":"Feature","properties":{"cod_tema":"RIO_ATE_10","cod_imovel":"RJ-3304003-DAD0FF0FDD9A4AFEB79C5D44C032FD6E","ind_status":"AT"},"geometry":{"type":"Polygon","coordinates":[[[-43.8647,-22.7325],[-43.8623,-22.7307],[-43.8609,-22.737],[-43.8649,-22.7326],[-43.8647,-22.7325]]]}},{"type":"Feature","properties":{"cod_tema":"RIO_ATE_10","cod_imovel":"RJ-3304003-11AE8BD9274148F5AB51C51E520E808E","ind_status":"AT"},"geometry":{"type":"Polygon","coordinates":[[[-43.8284,-22.5704],[-43.8289,-22.5653],[-43.8286,-22.5708],[-43.8284,-22.5704]],[[-43.8282,-22.5648],[-43.8238,-22.5647],[-43.8284,-22.5651],[-43.8282,-22.5648]]]}},{"type":"Feature","properties":{"cod_tema":"RIO_ATE_10","cod_imovel":"RJ-3304003-AD7ED56BA37A42F28BD8EF0C54502D20","ind_status":"AT"},"geometry":{"type":"Polygon","coordinates":[[[-44.0587,-22.6363],[-44.0557,-22.6344],[-44.0595,-22.6366],[-44.0587,-22.6363]],[[-44.0696,-22.6602],[-44.0592,-22.6517],[-44.0695,-22.6607],[-44.0696,-22.6602]],[[-44.067,-22.6504],[-44.0592,-22.6445],[-44.0672,-22.6504],[-44.067,-22.6504]],[[-44.0715,-22.6411],[-44.0621,-22.6341],[-44.0688,-22.6324],[-44.0602,-22.6312],[-44.0677,-22.6441],[-44.065,-22.6377],[-44.0715,-22.6411],[-44.0715,-22.6411]],[[-44.0692,-22.6541],[-44.0683,-22.6509],[-44.0691,-22.6542],[-44.0692,-22.6541]]]}},{"type":"Feature","properties":{"cod_tema":"RIO_ATE_10","cod_imovel":"RJ-3304003-458C09FCE042410AAE897BC993FDF5A6","ind_status":"AT"},"geometry":{"type":"Polygon","coordinates":[[[-44.0653,-22.6476],[-44.0512,-22.6373],[-44.0653,-22.6476],[-44.0653,-22.6476]],[[-44.0551,-22.6464],[-44.0582,-22.6426],[-44.0534,-22.643],[-44.057,-22.6424],[-44.055,-22.6464],[-44.0551,-22.6464]]]}},{"type":"Feature","properties":{"cod_tema":"RIO_ATE_10","cod_imovel":"RJ-3304003-8389E1AB18024668AF3545D3E8053D73","ind_status":"AT"},"geometry":{"type":"Polygon","coordinates":[[[-43.9019,-22.8072],[-43.8916,-22.7979],[-43.8842,-22.7979],[-43.902,-22.8073],[-43.9019,-22.8072]],[[-43.887,-22.7898],[-43.8862,-22.7866],[-43.8846,-22.7918],[-43.8871,-22.7897],[-43.887,-22.7898]],[[-43.8934,-22.791],[-43.89,-22.7934],[-43.8933,-22.791],[-43.8934,-22.791]],[[-43.9028,-22.8],[-43.8923,-22.7953],[-43.8992,-22.8026],[-43.9028,-22.8],[-43.9028,-22.8]],[[-43.9025,-22.7952],[-43.9004,-22.7901],[-43.9001,-22.7945],[-43.8938,-22.7913],[-43.9025,-22.7952],[-43.9025,-22.7952]],[[-43.898,-22.7888],[-43.8968,-22.7915],[-43.8981,-22.7887],[-43.898,-22.7888]]]}},{"type":"Feature","properties":{"cod_tema":"RIO_ATE_10","cod_imovel":"RJ-3304003-99CA6E3756F34C209F2AB9C63763412D","ind_status":"AT"},"geometry":{"type":"Polygon","coordinates":[[[-43.958,-22.6154],[-43.9498,-22.616],[-43.9582,-22.6155],[-43.958,-22.6154]]]}},{"type":"Feature","properties":{"cod_tema":"RIO_ATE_10","cod_imovel":"RJ-3304003-A7FD15931B494645AAAEA8C7CDA63DDC","ind_status":"AT"},"geometry":{"type":"Polygon","coordinates":[[[-43.8452,-22.7401],[-43.8484,-22.7389],[-43.8451,-22.7401],[-43.8452,-22.7401]]]}},{"type":"Feature","properties":{"cod_tema":"RIO_ATE_10","cod_imovel":"RJ-3304003-A7FD15931B494645AAAEA8C7CDA63DDC","ind_status":"AT"},"geometry":{"type":"Polygon","coordinates":[[[-43.8467,-22.7328],[-43.844,-22.7349],[-43.8467,-22.7328],[-43.8467,-22.7328]]]}},{"type":"Feature","properties":{"cod_tema":"RIO_ATE_10","cod_imovel":"RJ-3304003-3286FDA62138448E8E868307CE5A56B4","ind_status":"AT"},"geometry":{"type":"Polygon","coordinates":[[[-43.8338,-22.731],[-43.8393,-22.7324],[-43.8338,-22.7311],[-43.8338,-22.731]],[[-43.8365,-22.7271],[-43.8414,-22.7293],[-43.8363,-22.7271],[-43.8365,-22.7271]],[[-43.8389,-22.7205],[-43.8394,-22.7175],[-43.8389,-22.7206],[-43.8389,-22.7205]],[[-43.8422,-22.7259],[-43.8439,-22.7216],[-43.839,-22.7258],[-43.8429,-22.7222],[-43.8423,-22.726],[-43.8422,-22.7259]]]}},{"type":"Feature","properties":{"cod_tema":"RIO_ATE_10","cod_imovel":"RJ-3304003-FC52F5F76DFF4F52A14AC9E122F6BF17","ind_status":"AT"},"geometry":{"type":"Polygon","coordinates":[[[-43.8352,-22.7316],[-43.8386,-22.7323],[-43.8352,-22.7316],[-43.8352,-22.7316]],[[-43.836,-22.7363],[-43.8394,-22.7385],[-43.8359,-22.7363],[-43.836,-22.7363]]]}},{"type":"Feature","properties":{"cod_tema":"RIO_ATE_10","cod_imovel":"RJ-3304003-43A60BD696144BEAB41044C3AE7C5EEB","ind_status":"AT"},"geometry":{"type":"Polygon","coordinates":[[[-43.8511,-22.7811],[-43.8555,-22.7797],[-43.8503,-22.7809],[-43.8511,-22.7811]],[[-43.8526,-22.7763],[-43.8564,-22.7784],[-43.8525,-22.776],[-43.8526,-22.7763]]]}},{"type":"Feature","properties":{"cod_tema":"RIO_ATE_10","cod_imovel":"RJ-3304003-43B3EBEC2026480380A8DDE79E345A36","ind_status":"AT"},"geometry":{"type":"Polygon","coordinates":[[[-43.8341,-22.7644],[-43.8403,-22.7626],[-43.8341,-22.7647],[-43.8341,-22.7644]]]}},{"type":"Feature","properties":{"cod_tema":"RIO_ATE_10","cod_imovel":"RJ-3304003-2FB6291CB5DB4FEFAEF0407920891ECB","ind_status":"AT"},"geometry":{"type":"Polygon","coordinates":[[[-43.8362,-22.7167],[-43.8357,-22.7108],[-43.8362,-22.7167],[-43.8362,-22.7167]]]}},{"type":"Feature","properties":{"cod_tema":"RIO_ATE_10","cod_imovel":"RJ-3304003-099CD5444DC4421C9F0EAC9598DE9D0F","ind_status":"AT"},"geometry":{"type":"Polygon","coordinates":[[[-43.7953,-22.5946],[-43.7918,-22.5925],[-43.792,-22.5973],[-43.7953,-22.5946],[-43.7953,-22.5946]]]}},{"type":"Feature","properties":{"cod_tema":"RESERVATORIO_ARTIFICIAL_DECORRENTE_BARRAMENTO","cod_imovel":"RJ-3304003-7BD40F7D14BD49D6B70B871A813D7082","ind_status":"AT"},"geometry":{"type":"Polygon","coordinates":[[[-43.8701,-22.6407],[-43.8708,-22.6451],[-43.8767,-22.6442],[-43.8711,-22.648],[-43.8784,-22.6446],[-43.8877,-22.6555],[-43.8852,-22.6638],[-43.8898,-22.6531],[-43.8817,-22.6459],[-43.8873,-22.646],[-43.8764,-22.6407],[-43.8701,-22.6407]]]}},{"type":"Feature","properties":{"cod_tema":"RIO_ATE_10","cod_imovel":"RJ-3304003-73D5AB80F3364059A54D1F35B4A0A9B9","ind_status":"AT"},"geometry":{"type":"Polygon","coordinates":[[[-43.8427,-22.594],[-43.836,-22.5928],[-43.8393,-22.5947],[-43.8354,-22.5975],[-43.8427,-22.594],[-43.8427,-22.594]]]}},{"type":"Feature","properties":{"cod_tema":"RIO_ATE_10","cod_imovel":"RJ-3304003-817D68EBB7574C52B3A8678E278058FF","ind_status":"AT"},"geometry":{"type":"Polygon","coordinates":[[[-43.9306,-22.6118],[-43.9268,-22.6125],[-43.9307,-22.6117],[-43.9306,-22.6118]],[[-43.9266,-22.6073],[-43.9238,-22.6102],[-43.9266,-22.6073],[-43.9266,-22.6073]],[[-43.9311,-22.6023],[-43.9325,-22.6077],[-43.931,-22.6022],[-43.9311,-22.6023]]]}},{"type":"Feature","properties":{"cod_tema":"RIO_ATE_10","cod_imovel":"RJ-3304003-6D226490B4BE4705BD4BD28DB24F1AA2","ind_status":"AT"},"geometry":{"type":"Polygon","coordinates":[[[-43.92,-22.6011],[-43.9237,-22.6042],[-43.9196,-22.6012],[-43.92,-22.6011]]]}},{"type":"Feature","properties":{"cod_tema":"RIO_ATE_10","cod_imovel":"RJ-3304003-030366C79A7B4080BA53E6B74000E125","ind_status":"AT"},"geometry":{"type":"Polygon","coordinates":[[[-44.0201,-22.6208],[-44.0168,-22.6243],[-44.0201,-22.6214],[-44.0201,-22.6208]]]}},{"type":"Feature","properties":{"cod_tema":"RIO_ATE_10","cod_imovel":"RJ-3304003-CE30CFEA665A4163957957CBF9E74204","ind_status":"AT"},"geometry":{"type":"Polygon","coordinates":[[[-43.907,-22.6043],[-43.9045,-22.602],[-43.9074,-22.6047],[-43.907,-22.6043]]]}},{"type":"Feature","properties":{"cod_tema":"RIO_ATE_10","cod_imovel":"RJ-3304003-DB8F680035EC4398859FB3B411029564","ind_status":"AT"},"geometry":{"type":"Polygon","coordinates":[[[-43.8602,-22.7036],[-43.8587,-22.7068],[-43.8609,-22.7028],[-43.8602,-22.7036]]]}},{"type":"Feature","properties":{"cod_tema":"RIO_ATE_10","cod_imovel":"RJ-3304003-F91336A187404B6598901F255E6D0977","ind_status":"AT"},"geometry":{"type":"Polygon","coordinates":[[[-44.0454,-22.6081],[-44.0419,-22.5993],[-44.0454,-22.6081],[-44.0454,-22.6081]]]}},{"type":"Feature","properties":{"cod_tema":"RIO_ATE_10","cod_imovel":"RJ-3304003-ADC9B7D94A634DB9ABC25DBCE9E4D5D5","ind_status":"AT"},"geometry":{"type":"Polygon","coordinates":[[[-43.8589,-22.5586],[-43.8523,-22.557],[-43.8592,-22.5588],[-43.8589,-22.5586]]]}},{"type":"Feature","properties":{"cod_tema":"RIO_ATE_10","cod_imovel":"RJ-3304003-4E17624F2229472E9CE897AE62F13685","ind_status":"AT"},"geometry":{"type":"Polygon","coordinates":[[[-43.802,-22.5685],[-43.7911,-22.565],[-43.8025,-22.569],[-43.802,-22.5685]]]}},{"type":"Feature","properties":{"cod_tema":"RIO_10_A_50","cod_imovel":"RJ-3304003-E338BCBB2C604C98AB868F7547F3802B","ind_status":"AT"},"geometry":{"type":"Polygon","coordinates":[[[-43.8524,-22.5784],[-43.8487,-22.5792],[-43.8524,-22.5785],[-43.8524,-22.5784]]]}},{"type":"Feature","properties":{"cod_tema":"RIO_ATE_10","cod_imovel":"RJ-3304003-20F6F03C317A479FBA4EA68FCEF8BF57","ind_status":"AT"},"geometry":{"type":"Polygon","coordinates":[[[-44.0038,-22.6161],[-44.0065,-22.6103],[-44.0036,-22.6164],[-44.0038,-22.6161]],[[-44.0088,-22.6175],[-44.0095,-22.6135],[-44.0088,-22.6177],[-44.0088,-22.6175]]]}},{"type":"Feature","properties":{"cod_tema":"RIO_ATE_10","cod_imovel":"RJ-3304003-25FBE00C24C2454CB370A9BA6237CAB4","ind_status":"AT"},"geometry":{"type":"Polygon","coordinates":[[[-43.9215,-22.6153],[-43.923,-22.6205],[-43.9215,-22.6152],[-43.9215,-22.6153]]]}},{"type":"Feature","properties":{"cod_tema":"RIO_ATE_10","cod_imovel":"RJ-3304003-804E0BAB50EB43BDBB1B023FD8FF0B28","ind_status":"AT"},"geometry":{"type":"Polygon","coordinates":[[[-44.0456,-22.5936],[-44.0398,-22.5922],[-44.0457,-22.5934],[-44.0456,-22.5936]]]}},{"type":"Feature","properties":{"cod_tema":"RIO_ATE_10","cod_imovel":"RJ-3304003-6BD83A9D4FEE41DBB673A687748D2991","ind_status":"AT"},"geometry":{"type":"Polygon","coordinates":[[[-43.8859,-22.5984],[-43.8817,-22.5998],[-43.8861,-22.5984],[-43.8859,-22.5984]]]}},{"type":"Feature","properties":{"cod_tema":"RIO_ATE_10","cod_imovel":"RJ-3304003-3903EBC20B85472B9513942B8E0E9AD8","ind_status":"AT"},"geometry":{"type":"Polygon","coordinates":[[[-43.9223,-22.5269],[-43.9171,-22.5242],[-43.9197,-22.5325],[-43.9226,-22.5266],[-43.9223,-22.5269]]]}},{"type":"Feature","properties":{"cod_tema":"RIO_ATE_10","cod_imovel":"RJ-3304003-E8DA18DA23504BA3A0ADE093EAC3EE55","ind_status":"AT"},"geometry":{"type":"Polygon","coordinates":[[[-43.7896,-22.5705],[-43.7842,-22.5764],[-43.7893,-22.5706],[-43.7896,-22.5705]]]}},{"type":"Feature","properties":{"cod_tema":"RIO_ATE_10","cod_imovel":"RJ-3304003-55136B88120F4EA3A4368CA77777DD87","ind_status":"AT"},"geometry":{"type":"Polygon","coordinates":[[[-43.9431,-22.6305],[-43.9388,-22.6343],[-43.9432,-22.6303],[-43.9431,-22.6305]]]}},{"type":"Feature","properties":{"cod_tema":"RIO_ATE_10","cod_imovel":"RJ-3304003-C62CB4590FC0441F914815A05ABC563F","ind_status":"AT"},"geometry":{"type":"Polygon","coordinates":[[[-43.8534,-22.5709],[-43.8524,-22.5674],[-43.8513,-22.5722],[-43.8487,-22.568],[-43.8447,-22.5704],[-43.8534,-22.5709],[-43.8534,-22.5709]],[[-43.8577,-22.5657],[-43.8529,-22.567],[-43.858,-22.5658],[-43.8577,-22.5657]],[[-43.8624,-22.5681],[-43.857,-22.5689],[-43.8625,-22.5683],[-43.8624,-22.5681]],[[-43.8701,-22.5694],[-43.8606,-22.561],[-43.8652,-22.5607],[-43.8632,-22.5581],[-43.8587,-22.5588],[-43.8668,-22.5716],[-43.8703,-22.5692],[-43.8701,-22.5694]],[[-43.8655,-22.573],[-43.8596,-22.5724],[-43.8658,-22.5732],[-43.8655,-22.573]]]}},{"type":"Feature","properties":{"cod_tema":"RIO_ATE_10","cod_imovel":"RJ-3304003-D8DDE67F83DB4B21A83016E04AE2DA95","ind_status":"AT"},"geometry":{"type":"Polygon","coordinates":[[[-43.9382,-22.6453],[-43.933,-22.6468],[-43.938,-22.6453],[-43.9382,-22.6453]],[[-43.9408,-22.6414],[-43.9384,-22.647],[-43.9405,-22.6416],[-43.9408,-22.6414]],[[-43.9521,-22.6379],[-43.9581,-22.6356],[-43.9401,-22.6379],[-43.9488,-22.6382],[-43.9426,-22.6417],[-43.9515,-22.6382],[-43.9521,-22.6379]],[[-43.9483,-22.6437],[-43.9403,-22.6387],[-43.9479,-22.6441],[-43.9483,-22.6437]],[[-43.9501,-22.6437],[-43.9523,-22.6392],[-43.9478,-22.6441],[-43.9543,-22.6438],[-43.9528,-22.6406],[-43.9497,-22.6437],[-43.9501,-22.6437]],[[-43.9521,-22.6379],[-43.9571,-22.6392],[-43.9523,-22.6382],[-43.9521,-22.6379]],[[-43.9609,-22.6323],[-43.958,-22.6346],[-43.9609,-22.6325],[-43.9609,-22.6323]],[[-43.9631,-22.6385],[-43.9593,-22.6384],[-43.9626,-22.6391],[-43.9631,-22.6385]]]}},{"type":"Feature","properties":{"cod_tema":"RIO_ATE_10","cod_imovel":"RJ-3304003-3B104979E21749CAB1BF9C78916F9D5B","ind_status":"AT"},"geometry":{"type":"Polygon","coordinates":[[[-43.9999,-22.6158],[-44.0035,-22.6094],[-43.9999,-22.6162],[-43.9999,-22.6158]]]}},{"type":"Feature","properties":{"cod_tema":"RIO_ATE_10","cod_imovel":"RJ-3304003-1257ACBAAE5042DD8267754BB7AD3BE5","ind_status":"AT"},"geometry":{"type":"Polygon","coordinates":[[[-43.8235,-22.569],[-43.8201,-22.5713],[-43.8236,-22.5686],[-43.8235,-22.569]]]}},{"type":"Feature","properties":{"cod_tema":"RIO_ATE_10","cod_imovel":"RJ-3304003-C0241F4496744682B2D86A92605D79D6","ind_status":"AT"},"geometry":{"type":"Polygon","coordinates":[[[-43.8229,-22.5782],[-43.8145,-22.5751],[-43.8234,-22.5784],[-43.8229,-22.5782]]]}},{"type":"Feature","properties":{"cod_tema":"RIO_ATE_10","cod_imovel":"RJ-3304003-BEE0EF41D7C44DBE98AF5F93A0DF3E00","ind_status":"AT"},"geometry":{"type":"Polygon","coordinates":[[[-44.0485,-22.6214],[-44.0451,-22.6175],[-44.0484,-22.6214],[-44.0485,-22.6214]]]}},{"type":"Feature","properties":{"cod_tema":"RIO_ATE_10","cod_imovel":"RJ-3304003-E8E9FDDB24DF4845B192519AE621CB56","ind_status":"AT"},"geometry":{"type":"Polygon","coordinates":[[[-44.064,-22.6155],[-44.0673,-22.6131],[-44.0619,-22.6132],[-44.0639,-22.6156],[-44.064,-22.6155]]]}},{"type":"Feature","properties":{"cod_tema":"RIO_ATE_10","cod_imovel":"RJ-3304003-F0518BABAACD42DF99EDC91D7A8E34BF","ind_status":"AT"},"geometry":{"type":"Polygon","coordinates":[[[-43.9333,-22.6217],[-43.9282,-22.6253],[-43.9343,-22.6211],[-43.9333,-22.6217]],[[-43.9382,-22.6249],[-43.9314,-22.6293],[-43.9317,-22.6245],[-43.9314,-22.6293],[-43.9382,-22.6249],[-43.9382,-22.6249]]]}},{"type":"Feature","properties":{"cod_tema":"RIO_ATE_10","cod_imovel":"RJ-3304003-E19035B72B3F4D9DB4F67E934365F2AB","ind_status":"AT"},"geometry":{"type":"Polygon","coordinates":[[[-43.7988,-22.608],[-43.8068,-22.6018],[-43.7926,-22.6054],[-43.7991,-22.6082],[-43.7988,-22.608]],[[-43.7971,-22.6108],[-43.7971,-22.615],[-43.7944,-22.607],[-43.7972,-22.6107],[-43.7971,-22.6108]],[[-43.7908,-22.6106],[-43.7918,-22.6051],[-43.7909,-22.6107],[-43.7908,-22.6106]]]}},{"type":"Feature","properties":{"cod_tema":"RIO_ATE_10","cod_imovel":"RJ-3304003-15FD3798765444DF97DFBA9830B30B09","ind_status":"AT"},"geometry":{"type":"Polygon","coordinates":[[[-44.0533,-22.5953],[-44.0519,-22.5916],[-44.0533,-22.5953],[-44.0533,-22.5953]],[[-44.053,-22.5907],[-44.0502,-22.5891],[-44.0531,-22.5907],[-44.053,-22.5907]]]}},{"type":"Feature","properties":{"cod_tema":"RIO_ATE_10","cod_imovel":"RJ-3304003-1CD74E722B2B4B0FB2096725ECE3D92B","ind_status":"AT"},"geometry":{"type":"Polygon","coordinates":[[[-43.9537,-22.6082],[-43.9446,-22.6163],[-43.9537,-22.6081],[-43.9537,-22.6082]],[[-43.9446,-22.621],[-43.9453,-22.6281],[-43.9446,-22.621],[-43.9446,-22.621]],[[-43.9758,-22.5982],[-43.9706,-22.601],[-43.9665,-22.5983],[-43.971,-22.5957],[-43.9664,-22.5983],[-43.9505,-22.5913],[-43.9556,-22.5927],[-43.956,-22.601],[-43.956,-22.5934],[-43.9688,-22.5993],[-43.9718,-22.6077],[-43.9704,-22.601],[-43.9759,-22.5982],[-43.9758,-22.5982]],[[-43.9602,-22.6015],[-43.9659,-22.6172],[-43.9514,-22.6144],[-43.9645,-22.6182],[-43.9603,-22.6014],[-43.9602,-22.6015]],[[-43.9981,-22.6074],[-43.9918,-22.613],[-43.9959,-22.6091],[-43.9953,-22.6137],[-43.9959,-22.6092],[-44.0014,-22.6085],[-43.9769,-22.6036],[-43.9911,-22.6049],[-43.9804,-22.6127],[-43.9885,-22.6124],[-43.9851,-22.6095],[-43.9897,-22.6047],[-43.998,-22.6073],[-43.9981,-22.6074]],[[-43.9905,-22.6153],[-43.9922,-22.6206],[-43.9862,-22.6223],[-44.0014,-22.6227],[-43.9922,-22.6206],[-43.9905,-22.6151],[-43.9905,-22.6153]]]}},{"type":"Feature","properties":{"cod_tema":"RIO_ATE_10","cod_imovel":"RJ-3304003-B30CACDE95744692BE573E0D9E4B3DE9","ind_status":"AT"},"geometry":{"type":"Polygon","coordinates":[[[-43.8327,-22.6096],[-43.83,-22.6081],[-43.8331,-22.6099],[-43.8327,-22.6096]],[[-43.8309,-22.603],[-43.8355,-22.5976],[-43.8303,-22.6035],[-43.8309,-22.603]]]}},{"type":"Feature","properties":{"cod_tema":"RIO_ATE_10","cod_imovel":"RJ-3304003-5DFCEC729468496787DBC88CA24FE840","ind_status":"AT"},"geometry":{"type":"Polygon","coordinates":[[[-43.8178,-22.6198],[-43.8242,-22.6145],[-43.8167,-22.6205],[-43.8178,-22.6198]]]}},{"type":"Feature","properties":{"cod_tema":"RIO_ATE_10","cod_imovel":"RJ-3304003-3C6B7C9AC99945F7911DF7F576474DB9","ind_status":"AT"},"geometry":{"type":"Polygon","coordinates":[[[-44.0497,-22.6016],[-44.0474,-22.5996],[-44.0497,-22.6016],[-44.0497,-22.6016]]]}},{"type":"Feature","properties":{"cod_tema":"RIO_ATE_10","cod_imovel":"RJ-3304003-6530F51ADAC7467F94D9923A89A4C157","ind_status":"AT"},"geometry":{"type":"Polygon","coordinates":[[[-44.0519,-22.5868],[-44.0474,-22.5846],[-44.0526,-22.5869],[-44.0519,-22.5868]]]}},{"type":"Feature","properties":{"cod_tema":"RIO_ATE_10","cod_imovel":"RJ-3304003-E289D95631C44AEE876D0D12A6FFD144","ind_status":"AT"},"geometry":{"type":"Polygon","coordinates":[[[-43.8687,-22.6154],[-43.8638,-22.6128],[-43.863,-22.6184],[-43.8687,-22.6154],[-43.8687,-22.6154]],[[-43.8723,-22.6294],[-43.8689,-22.6308],[-43.866,-22.6244],[-43.8692,-22.6304],[-43.865,-22.6302],[-43.8723,-22.6292],[-43.8723,-22.6294]],[[-43.8661,-22.611],[-43.8683,-22.6136],[-43.8683,-22.609],[-43.8659,-22.6109],[-43.8661,-22.611]],[[-43.8755,-22.6193],[-43.8676,-22.6215],[-43.8711,-22.6248],[-43.8755,-22.6193],[-43.8755,-22.6193]],[[-43.8702,-22.6148],[-43.8711,-22.6116],[-43.8703,-22.6148],[-43.8702,-22.6148]],[[-43.8732,-22.627],[-43.8761,-22.6281],[-43.8731,-22.6268],[-43.8732,-22.627]],[[-43.8784,-22.6223],[-43.8737,-22.6245],[-43.8783,-22.6259],[-43.8784,-22.6223],[-43.8784,-22.6223]],[[-43.8753,-22.6149],[-43.878,-22.6192],[-43.8753,-22.6146],[-43.8753,-22.6149]],[[-43.8785,-22.6222],[-43.8798,-22.6189],[-43.8784,-22.6223],[-43.8785,-22.6222]]]}},{"type":"Feature","properties":{"cod_tema":"RIO_ATE_10","cod_imovel":"RJ-3304003-08C65D1A4F7046948DD063CB91B8CAD5","ind_status":"AT"},"geometry":{"type":"Polygon","coordinates":[[[-44.0419,-22.5954],[-44.0397,-22.5922],[-44.042,-22.5955],[-44.0419,-22.5954]]]}},{"type":"Feature","properties":{"cod_tema":"RIO_ATE_10","cod_imovel":"RJ-3304003-D6E334820508445AAE9884DC53539111","ind_status":"AT"},"geometry":{"type":"Polygon","coordinates":[[[-44.0499,-22.6274],[-44.0422,-22.6242],[-44.0499,-22.6274],[-44.0499,-22.6274]]]}},{"type":"Feature","properties":{"cod_tema":"RIO_ATE_10","cod_imovel":"RJ-3304003-668995D5851546429579229FAE436F3B","ind_status":"AT"},"geometry":{"type":"Polygon","coordinates":[[[-44.0354,-22.6301],[-44.0275,-22.6186],[-44.0354,-22.6301],[-44.0354,-22.6301]],[[-44.042,-22.6287],[-44.0412,-22.6213],[-44.0333,-22.6184],[-44.0401,-22.623],[-44.0354,-22.6257],[-44.0419,-22.6286],[-44.042,-22.6287]]]}},{"type":"Feature","properties":{"cod_tema":"RIO_ATE_10","cod_imovel":"RJ-3304003-CAC6C9E4DFB347729489C3711C06B0AF","ind_status":"AT"},"geometry":{"type":"Polygon","coordinates":[[[-43.931,-22.6645],[-43.9318,-22.6695],[-43.9313,-22.6637],[-43.931,-22.6645]]]}},{"type":"Feature","properties":{"cod_tema":"RIO_ATE_10","cod_imovel":"RJ-3304003-11D3E1852C444CEFA04B4EE5DAA594D7","ind_status":"AT"},"geometry":{"type":"Polygon","coordinates":[[[-43.9405,-22.667],[-43.9419,-22.6609],[-43.9412,-22.6673],[-43.9405,-22.667]],[[-43.9346,-22.665],[-43.9361,-22.6597],[-43.9344,-22.6653],[-43.9346,-22.665]]]}},{"type":"Feature","properties":{"cod_tema":"RESERVATORIO_ARTIFICIAL_DECORRENTE_BARRAMENTO","cod_imovel":"RJ-3304003-510C6A1AE8F54A73AE51B93DE3AAD8B2","ind_status":"AT"},"geometry":{"type":"Polygon","coordinates":[[[-43.8794,-22.6665],[-43.8829,-22.6676],[-43.8794,-22.6666],[-43.8794,-22.6665]]]}},{"type":"Feature","properties":{"cod_tema":"RESERVATORIO_ARTIFICIAL_DECORRENTE_BARRAMENTO","cod_imovel":"RJ-3304003-38E3D96AED3E434C836CFAB9B08DC850","ind_status":"AT"},"geometry":{"type":"Polygon","coordinates":[[[-43.8907,-22.6642],[-43.8895,-22.6594],[-43.8905,-22.6643],[-43.8907,-22.6642]]]}},{"type":"Feature","properties":{"cod_tema":"RESERVATORIO_ARTIFICIAL_DECORRENTE_BARRAMENTO","cod_imovel":"RJ-3304003-55D7409EA1B14021BE00652135B20A8E","ind_status":"AT"},"geometry":{"type":"Polygon","coordinates":[[[-43.8951,-22.6457],[-43.8901,-22.6428],[-43.8954,-22.6408],[-43.8898,-22.6427],[-43.8951,-22.646],[-43.8951,-22.6457]]]}},{"type":"Feature","properties":{"cod_tema":"RIO_ATE_10","cod_imovel":"RJ-3304003-25C76360A7B84F08BE68E27A2DE98DC9","ind_status":"AT"},"geometry":{"type":"Polygon","coordinates":[[[-43.9029,-22.6469],[-43.9057,-22.65],[-43.9023,-22.6458],[-43.9029,-22.6469]],[[-43.901,-22.6438],[-43.8987,-22.6402],[-43.901,-22.6443],[-43.901,-22.6438]]]}},{"type":"Feature","properties":{"cod_tema":"LAGO_NATURAL","cod_imovel":"RJ-3304003-BEA903C88FAE4362890FF379E7E90134","ind_status":"AT"},"geometry":{"type":"Polygon","coordinates":[[[-43.8949,-22.6465],[-43.8911,-22.6486],[-43.8944,-22.6475],[-43.8949,-22.6465]]]}},{"type":"Feature","properties":{"cod_tema":"RIO_ATE_10","cod_imovel":"RJ-3304003-85FDB0E61CD447508E232D602AE0AB76","ind_status":"AT"},"geometry":{"type":"Polygon","coordinates":[[[-43.8492,-22.5736],[-43.8574,-22.5759],[-43.8492,-22.5736],[-43.8492,-22.5736]]]}},{"type":"Feature","properties":{"cod_tema":"RIO_10_A_50","cod_imovel":"RJ-3304003-2CCC95DE46FD4EDDAED05A0C78FF2667","ind_status":"AT"},"geometry":{"type":"Polygon","coordinates":[[[-43.9925,-22.6837],[-43.9971,-22.6853],[-43.9925,-22.6837],[-43.9925,-22.6837]]]}},{"type":"Feature","properties":{"cod_tema":"RIO_ATE_10","cod_imovel":"RJ-3304003-FCF8983A06E14ABC93842EBDEEF070DA","ind_status":"AT"},"geometry":{"type":"Polygon","coordinates":[[[-44.0151,-22.6115],[-44.0193,-22.6179],[-44.0203,-22.6108],[-44.0147,-22.6114],[-44.0151,-22.6115]]]}},{"type":"Feature","properties":{"cod_tema":"RIO_ATE_10","cod_imovel":"RJ-3304003-C0D48E540C624AE8B6EB435DA1D2D501","ind_status":"AT"},"geometry":{"type":"Polygon","coordinates":[[[-44.0543,-22.6012],[-44.05,-22.6008],[-44.0548,-22.6015],[-44.0543,-22.6012]]]}},{"type":"Feature","properties":{"cod_tema":"RIO_ATE_10","cod_imovel":"RJ-3304003-338C40A4976D40668CFF82907B4A6672","ind_status":"AT"},"geometry":{"type":"Polygon","coordinates":[[[-43.8428,-22.7409],[-43.8341,-22.7405],[-43.8422,-22.7451],[-43.8428,-22.7409],[-43.8428,-22.7409]]]}},{"type":"Feature","properties":{"cod_tema":"RIO_ATE_10","cod_imovel":"RJ-3304003-3EBE9EADE0CE42A380B4475B8A73E71A","ind_status":"AT"},"geometry":{"type":"Polygon","coordinates":[[[-44.0729,-22.6326],[-44.0729,-22.6373],[-44.0728,-22.6324],[-44.0729,-22.6326]]]}},{"type":"Feature","properties":{"cod_tema":"RIO_ATE_10","cod_imovel":"RJ-3304003-2D346E37C2434335B7499667A0121A87","ind_status":"AT"},"geometry":{"type":"Polygon","coordinates":[[[-43.8317,-22.6995],[-43.8343,-22.7017],[-43.8317,-22.6995],[-43.8317,-22.6995]]]}},{"type":"Feature","properties":{"cod_tema":"RIO_ATE_10","cod_imovel":"RJ-3304003-65EFF1A20F6E452F8C7D228A5FEC345E","ind_status":"AT"},"geometry":{"type":"Polygon","coordinates":[[[-43.911,-22.6163],[-43.9127,-22.6129],[-43.9054,-22.6161],[-43.9112,-22.6164],[-43.911,-22.6163]],[[-43.9107,-22.6213],[-43.9132,-22.6188],[-43.9107,-22.6214],[-43.9107,-22.6213]],[[-43.9154,-22.6152],[-43.9132,-22.6177],[-43.9155,-22.6149],[-43.9154,-22.6152]]]}},{"type":"Feature","properties":{"cod_tema":"RIO_ATE_10","cod_imovel":"RJ-3304003-CF2951DEE020492A9E37F1CA73D498F2","ind_status":"AT"},"geometry":{"type":"Polygon","coordinates":[[[-43.8942,-22.5435],[-43.8877,-22.5488],[-43.8942,-22.5437],[-43.8942,-22.5435]]]}},{"type":"Feature","properties":{"cod_tema":"RIO_ATE_10","cod_imovel":"RJ-3304003-EF43C5BB22AB4C5A8E551317268F0EB2","ind_status":"AT"},"geometry":{"type":"Polygon","coordinates":[[[-43.8375,-22.5432],[-43.8353,-22.541],[-43.8375,-22.5433],[-43.8375,-22.5432]],[[-43.8415,-22.5382],[-43.8376,-22.5366],[-43.8416,-22.5382],[-43.8415,-22.5382]]]}},{"type":"Feature","properties":{"cod_tema":"RIO_ATE_10","cod_imovel":"RJ-3304003-1FFD3E72597248B3B210A3F1C20EA691","ind_status":"AT"},"geometry":{"type":"Polygon","coordinates":[[[-43.8375,-22.5432],[-43.8353,-22.541],[-43.8375,-22.5433],[-43.8375,-22.5432]],[[-43.8415,-22.5382],[-43.8376,-22.5366],[-43.8416,-22.5382],[-43.8415,-22.5382]]]}},{"type":"Feature","properties":{"cod_tema":"RIO_ATE_10","cod_imovel":"RJ-3304003-9AEF956CBE4441C8BF908C273B70C6C4","ind_status":"AT"},"geometry":{"type":"Polygon","coordinates":[[[-43.8037,-22.5992],[-43.7995,-22.5975],[-43.8037,-22.5992],[-43.8037,-22.5992]],[[-43.8029,-22.5999],[-43.8007,-22.602],[-43.8058,-22.6014],[-43.8029,-22.6],[-43.8029,-22.5999]],[[-43.8086,-22.596],[-43.8115,-22.5936],[-43.8044,-22.5923],[-43.8057,-22.6003],[-43.806,-22.594],[-43.8087,-22.596],[-43.8086,-22.596]],[[-43.8065,-22.59],[-43.8116,-22.5928],[-43.8064,-22.59],[-43.8065,-22.59]]]}},{"type":"Feature","properties":{"cod_tema":"RIO_ATE_10","cod_imovel":"RJ-3304003-CD4BB4BEFC474B0DBCDEA558BEF7D308","ind_status":"AT"},"geometry":{"type":"Polygon","coordinates":[[[-43.9054,-22.6523],[-43.9,-22.6503],[-43.9055,-22.6524],[-43.9054,-22.6523]],[[-43.9007,-22.6577],[-43.9058,-22.6554],[-43.9027,-22.6535],[-43.9007,-22.6577],[-43.9007,-22.6577]],[[-43.9069,-22.6517],[-43.9046,-22.6497],[-43.907,-22.6518],[-43.9069,-22.6517]],[[-43.9138,-22.6511],[-43.9084,-22.645],[-43.9087,-22.6501],[-43.9138,-22.6511],[-43.9138,-22.6511]]]}},{"type":"Feature","properties":{"cod_tema":"RIO_ATE_10","cod_imovel":"RJ-3304003-5306C1C2CA4A4D0A9C8ABA487F7FC458","ind_status":"AT"},"geometry":{"type":"Polygon","coordinates":[[[-43.8661,-22.7475],[-43.8559,-22.7452],[-43.8665,-22.7478],[-43.8661,-22.7475]]]}},{"type":"Feature","properties":{"cod_tema":"RIO_ATE_10","cod_imovel":"RJ-3304003-AEAE14AA6EFA432D89E9C39BD14C81EA","ind_status":"AT"},"geometry":{"type":"Polygon","coordinates":[[[-44.0154,-22.6402],[-44.0129,-22.6436],[-44.0056,-22.6397],[-44.0127,-22.6435],[-44.0095,-22.6483],[-44.0154,-22.6402],[-44.0154,-22.6402]],[[-44.0123,-22.6351],[-44.0142,-22.6386],[-44.0109,-22.6313],[-44.0125,-22.6349],[-44.0123,-22.6351]],[[-44.0174,-22.6388],[-44.0172,-22.6268],[-44.017,-22.6391],[-44.0174,-22.6388]],[[-44.0224,-22.6491],[-44.017,-22.6415],[-44.0224,-22.6491],[-44.0224,-22.6491]],[[-44.0271,-22.6449],[-44.0359,-22.6459],[-44.0274,-22.6445],[-44.0271,-22.6449]],[[-44.037,-22.6515],[-44.0284,-22.6471],[-44.037,-22.6515],[-44.037,-22.6515]]]}},{"type":"Feature","properties":{"cod_tema":"LAGO_NATURAL","cod_imovel":"RJ-3304003-AEAE14AA6EFA432D89E9C39BD14C81EA","ind_status":"AT"},"geometry":{"type":"Polygon","coordinates":[[[-44.0391,-22.6475],[-44.042,-22.6509],[-44.0395,-22.6478],[-44.0391,-22.6475]]]}},{"type":"Feature","properties":{"cod_tema":"RIO_ATE_10","cod_imovel":"RJ-3304003-069D0F275A044AFDB49471C7B84555E4","ind_status":"AT"},"geometry":{"type":"Polygon","coordinates":[[[-43.8637,-22.7729],[-43.8555,-22.7791],[-43.862,-22.7783],[-43.8593,-22.7756],[-43.8636,-22.773],[-43.8637,-22.7729]],[[-43.8663,-22.7678],[-43.866,-22.771],[-43.8663,-22.7678],[-43.8663,-22.7678]]]}},{"type":"Feature","properties":{"cod_tema":"RIO_ATE_10","cod_imovel":"RJ-3304003-E71F2AB7893C4BB9A79CF696D0F2AC1A","ind_status":"AT"},"geometry":{"type":"Polygon","coordinates":[[[-43.8629,-22.7169],[-43.8501,-22.7177],[-43.8461,-22.7129],[-43.8569,-22.7119],[-43.8476,-22.7136],[-43.8435,-22.7104],[-43.8505,-22.7084],[-43.8429,-22.7092],[-43.8563,-22.7245],[-43.8498,-22.7179],[-43.8629,-22.7168],[-43.8629,-22.7169]]]}},{"type":"Feature","properties":{"cod_tema":"RIO_ATE_10","cod_imovel":"RJ-3304003-7320C2BECBA14BA8832D03C6206C635E","ind_status":"PE"},"geometry":{"type":"Polygon","coordinates":[[[-43.9007,-22.616],[-43.8979,-22.6204],[-43.891,-22.6066],[-43.8979,-22.6205],[-43.894,-22.6253],[-43.9021,-22.6212],[-43.8989,-22.6185],[-43.9044,-22.6199],[-43.8977,-22.6122],[-43.9007,-22.616],[-43.9007,-22.616]],[[-43.9086,-22.616],[-43.8989,-22.612],[-43.9048,-22.6187],[-43.9089,-22.6161],[-43.9086,-22.616]]]}},{"type":"Feature","properties":{"cod_tema":"RIO_ATE_10","cod_imovel":"RJ-3304003-C8CB08A464B5488C9B0996C0A014A27A","ind_status":"AT"},"geometry":{"type":"Polygon","coordinates":[[[-43.8662,-22.7701],[-43.865,-22.765],[-43.8662,-22.7705],[-43.8662,-22.7701]]]}},{"type":"Feature","properties":{"cod_tema":"RIO_ATE_10","cod_imovel":"RJ-3304003-6E981BBAB6BF4CBDA8CA4546F8A62886","ind_status":"AT"},"geometry":{"type":"Polygon","coordinates":[[[-43.8818,-22.7534],[-43.8643,-22.7452],[-43.8678,-22.7509],[-43.8616,-22.7576],[-43.8646,-22.7633],[-43.8642,-22.7583],[-43.8684,-22.7627],[-43.8635,-22.7562],[-43.8717,-22.7601],[-43.8649,-22.7555],[-43.8665,-22.7516],[-43.88,-22.7576],[-43.8674,-22.7529],[-43.8661,-22.7478],[-43.8819,-22.7534],[-43.8818,-22.7534]],[[-43.8715,-22.7456],[-43.8658,-22.7452],[-43.8715,-22.7456],[-43.8715,-22.7456]],[[-43.8733,-22.7373],[-43.8729,-22.7412],[-43.8733,-22.7373],[-43.8733,-22.7373]],[[-43.8886,-22.7489],[-43.8905,-22.7461],[-43.8775,-22.7413],[-43.8859,-22.7427],[-43.8758,-22.7398],[-43.8817,-22.737],[-43.8752,-22.738],[-43.8804,-22.7462],[-43.8854,-22.7501],[-43.877,-22.7409],[-43.8887,-22.749],[-43.8886,-22.7489]],[[-43.8811,-22.7321],[-43.878,-22.7331],[-43.8822,-22.7366],[-43.8813,-22.7321],[-43.8811,-22.7321]]]}},{"type":"Feature","properties":{"cod_tema":"RIO_ATE_10","cod_imovel":"RJ-3304003-DFF65847755243C291E39DF8C86C2F89","ind_status":"AT"},"geometry":{"type":"Polygon","coordinates":[[[-43.8066,-22.7126],[-43.8102,-22.7106],[-43.8066,-22.7131],[-43.8066,-22.7126]]]}},{"type":"Feature","properties":{"cod_tema":"RIO_ATE_10","cod_imovel":"RJ-3304003-E6BE9EDF6D83476084213C25F815D048","ind_status":"AT"},"geometry":{"type":"Polygon","coordinates":[[[-43.883,-22.6113],[-43.8776,-22.6085],[-43.8831,-22.6113],[-43.883,-22.6113]]]}},{"type":"Feature","properties":{"cod_tema":"RIO_ATE_10","cod_imovel":"RJ-3304003-3C1EC87B169B44C6A718CAB097AE7B31","ind_status":"AT"},"geometry":{"type":"Polygon","coordinates":[[[-43.8933,-22.6123],[-43.8809,-22.6113],[-43.8934,-22.6124],[-43.8933,-22.6123]],[[-43.8911,-22.615],[-43.8833,-22.6181],[-43.8912,-22.615],[-43.8911,-22.615]],[[-43.8879,-22.6032],[-43.8834,-22.6047],[-43.8879,-22.6031],[-43.8879,-22.6032]],[[-43.8893,-22.6164],[-43.8854,-22.6198],[-43.8913,-22.6188],[-43.8895,-22.6164],[-43.8893,-22.6164]],[[-43.9009,-22.6103],[-43.8907,-22.6071],[-43.8979,-22.6205],[-43.8938,-22.6256],[-43.901,-22.6188],[-43.8989,-22.612],[-43.8988,-22.6199],[-43.8956,-22.6182],[-43.8954,-22.6121],[-43.9012,-22.6101],[-43.9009,-22.6103]]]}},{"type":"Feature","properties":{"cod_tema":"RIO_ATE_10","cod_imovel":"RJ-3304003-C2FD36B554254B068BFE1A38D70C81F1","ind_status":"AT"},"geometry":{"type":"Polygon","coordinates":[[[-43.8787,-22.5851],[-43.8708,-22.5812],[-43.8763,-22.5823],[-43.8768,-22.5771],[-43.8745,-22.5813],[-43.8686,-22.5803],[-43.8727,-22.575],[-43.8623,-22.5849],[-43.8734,-22.5902],[-43.8652,-22.5854],[-43.8718,-22.584],[-43.8681,-22.5805],[-43.8787,-22.5851],[-43.8787,-22.5851]],[[-43.8802,-22.5769],[-43.8721,-22.5738],[-43.8806,-22.577],[-43.8802,-22.5769]]]}},{"type":"Feature","properties":{"cod_tema":"RIO_ATE_10","cod_imovel":"RJ-3304003-4AA43014BA4C4C858970E711A79FDFA8","ind_status":"AT"},"geometry":{"type":"Polygon","coordinates":[[[-43.8227,-22.6366],[-43.8387,-22.644],[-43.8226,-22.6365],[-43.8227,-22.6366]]]}},{"type":"Feature","properties":{"cod_tema":"RIO_ATE_10","cod_imovel":"RJ-3304003-6FE2B5513C614AEBB351596070EA2BCB","ind_status":"AT"},"geometry":{"type":"Polygon","coordinates":[[[-43.8405,-22.6115],[-43.8348,-22.6101],[-43.8409,-22.611],[-43.8405,-22.6115]],[[-43.8482,-22.6042],[-43.8421,-22.6102],[-43.8485,-22.604],[-43.8482,-22.6042]]]}},{"type":"Feature","properties":{"cod_tema":"RIO_ATE_10","cod_imovel":"RJ-3304003-24C2875CE97C4528BF01E51E58164A82","ind_status":"AT"},"geometry":{"type":"Polygon","coordinates":[[[-43.8547,-22.5366],[-43.8519,-22.5351],[-43.8549,-22.5364],[-43.8547,-22.5366]]]}},{"type":"Feature","properties":{"cod_tema":"RIO_ATE_10","cod_imovel":"RJ-3304003-F0C2C5486F5546A9A7C712D1328007DB","ind_status":"AT"},"geometry":{"type":"Polygon","coordinates":[[[-43.8493,-22.7452],[-43.8432,-22.7471],[-43.8493,-22.7452],[-43.8493,-22.7452]]]}},{"type":"Feature","properties":{"cod_tema":"RIO_ATE_10","cod_imovel":"RJ-3304003-FCCB2E8991B44C89AE9C9CB3E14FE0F2","ind_status":"AT"},"geometry":{"type":"Polygon","coordinates":[[[-43.8503,-22.7445],[-43.8493,-22.7492],[-43.8544,-22.7425],[-43.8502,-22.7446],[-43.8503,-22.7445]]]}},{"type":"Feature","properties":{"cod_tema":"RIO_ATE_10","cod_imovel":"RJ-3304003-85E80B07EC7843F994991295E345EB09","ind_status":"AT"},"geometry":{"type":"Polygon","coordinates":[[[-43.8561,-22.7396],[-43.8542,-22.7349],[-43.8531,-22.7414],[-43.8562,-22.7396],[-43.8561,-22.7396]]]}},{"type":"Feature","properties":{"cod_tema":"RIO_ATE_10","cod_imovel":"RJ-3304003-F54E502C4B2C465B852B153EED613D95","ind_status":"AT"},"geometry":{"type":"Polygon","coordinates":[[[-43.8589,-22.7901],[-43.8602,-22.7806],[-43.859,-22.7903],[-43.8589,-22.7901]]]}},{"type":"Feature","properties":{"cod_tema":"RIO_ATE_10","cod_imovel":"RJ-3304003-605CCB1E3C2343E9B8AA24E12F67BAD9","ind_status":"AT"},"geometry":{"type":"Polygon","coordinates":[[[-43.895,-22.7856],[-43.8972,-22.7832],[-43.8946,-22.7857],[-43.895,-22.7856]]]}},{"type":"Feature","properties":{"cod_tema":"RIO_ATE_10","cod_imovel":"RJ-3304003-C7273189C86E41FE9BE811770193F2EA","ind_status":"AT"},"geometry":{"type":"Polygon","coordinates":[[[-43.9146,-22.6643],[-43.9114,-22.6597],[-43.9145,-22.6657],[-43.9146,-22.6643]]]}},{"type":"Feature","properties":{"cod_tema":"RIO_ATE_10","cod_imovel":"RJ-3304003-E96B1955CD0D483989BF4FF084AB7C75","ind_status":"AT"},"geometry":{"type":"Polygon","coordinates":[[[-43.8506,-22.7234],[-43.8468,-22.7255],[-43.8507,-22.7235],[-43.8506,-22.7234]]]}},{"type":"Feature","properties":{"cod_tema":"RIO_ATE_10","cod_imovel":"RJ-3304003-2F6CE86CA23F4C93948BBC0DF24642E8","ind_status":"AT"},"geometry":{"type":"Polygon","coordinates":[[[-43.8584,-22.7309],[-43.8512,-22.7339],[-43.8585,-22.7311],[-43.8559,-22.7242],[-43.8584,-22.7308],[-43.8584,-22.7309]]]}},{"type":"Feature","properties":{"cod_tema":"RIO_ATE_10","cod_imovel":"RJ-3304003-36AE0840535540ACB6F6A87E8F2C04C3","ind_status":"AT"},"geometry":{"type":"Polygon","coordinates":[[[-43.9768,-22.6262],[-43.9745,-22.6291],[-43.977,-22.626],[-43.9768,-22.6262]],[[-43.9827,-22.6239],[-43.977,-22.6227],[-43.9828,-22.6238],[-43.9827,-22.6239]]]}},{"type":"Feature","properties":{"cod_tema":"RIO_ATE_10","cod_imovel":"RJ-3304003-DED72BEA848D42FD92E6C09FCFB9BF71","ind_status":"AT"},"geometry":{"type":"Polygon","coordinates":[[[-43.8363,-22.7661],[-43.8284,-22.7699],[-43.8359,-22.7666],[-43.8363,-22.7661]]]}},{"type":"Feature","properties":{"cod_tema":"RIO_ATE_10","cod_imovel":"RJ-3304003-2B7535DE22914A4EA5422C3FEF95E065","ind_status":"AT"},"geometry":{"type":"Polygon","coordinates":[[[-43.8558,-22.7412],[-43.8565,-22.7458],[-43.8556,-22.7413],[-43.8558,-22.7412]]]}},{"type":"Feature","properties":{"cod_tema":"RIO_ATE_10","cod_imovel":"RJ-3304003-49DD80DED2464AEE866CE4A7621262F6","ind_status":"AT"},"geometry":{"type":"Polygon","coordinates":[[[-43.8214,-22.7108],[-43.8167,-22.7119],[-43.8219,-22.7106],[-43.8214,-22.7108]],[[-43.8177,-22.7169],[-43.8155,-22.714],[-43.8177,-22.7173],[-43.8177,-22.7169]]]}},{"type":"Feature","properties":{"cod_tema":"RIO_ATE_10","cod_imovel":"RJ-3304003-18D27403EAAD4188AD5F994111E0D912","ind_status":"AT"},"geometry":{"type":"Polygon","coordinates":[[[-43.8664,-22.7126],[-43.8584,-22.7111],[-43.8674,-22.7129],[-43.8664,-22.7126]]]}},{"type":"Feature","properties":{"cod_tema":"RIO_ATE_10","cod_imovel":"RJ-3304003-8E45204154B74B08BF3EDF4B43670A33","ind_status":"AT"},"geometry":{"type":"Polygon","coordinates":[[[-43.8469,-22.7737],[-43.8466,-22.7674],[-43.8467,-22.7735],[-43.8469,-22.7737]]]}},{"type":"Feature","properties":{"cod_tema":"LAGO_NATURAL","cod_imovel":"RJ-3304003-9407D2903C1A40CF9EBCAA2D49A249CB","ind_status":"AT"},"geometry":{"type":"Polygon","coordinates":[[[-43.847,-22.659],[-43.8531,-22.6581],[-43.846,-22.6584],[-43.847,-22.659]]]}},{"type":"Feature","properties":{"cod_tema":"RIO_ATE_10","cod_imovel":"RJ-3304003-F0A7B7DDF34F4888901311FF945D7AC1","ind_status":"AT"},"geometry":{"type":"Polygon","coordinates":[[[-43.8779,-22.7331],[-43.8682,-22.7325],[-43.8782,-22.732],[-43.8779,-22.7331]]]}},{"type":"Feature","properties":{"cod_tema":"RIO_ATE_10","cod_imovel":"RJ-3304003-B68219C85DDA49408D1989985CD78313","ind_status":"AT"},"geometry":{"type":"Polygon","coordinates":[[[-43.7728,-22.5999],[-43.771,-22.6067],[-43.7742,-22.5997],[-43.7703,-22.5969],[-43.7667,-22.6006],[-43.7663,-22.5965],[-43.7626,-22.5975],[-43.7653,-22.595],[-43.7572,-22.5978],[-43.7725,-22.5998],[-43.7728,-22.5999]],[[-43.7648,-22.5904],[-43.768,-22.587],[-43.7645,-22.591],[-43.7648,-22.5904]],[[-43.7685,-22.6039],[-43.7656,-22.6059],[-43.769,-22.6036],[-43.7685,-22.6039]],[[-43.7741,-22.5971],[-43.7688,-22.5871],[-43.766,-22.5927],[-43.7699,-22.589],[-43.7668,-22.5938],[-43.7699,-22.5896],[-43.7741,-22.5971],[-43.7741,-22.5971]],[[-43.7763,-22.5883],[-43.7719,-22.5892],[-43.7764,-22.5887],[-43.7763,-22.5883]],[[-43.7786,-22.5975],[-43.7826,-22.595],[-43.7739,-22.5918],[-43.7779,-22.5956],[-43.7754,-22.5995],[-43.7789,-22.5979],[-43.7786,-22.5975]]]}},{"type":"Feature","properties":{"cod_tema":"RESERVATORIO_ARTIFICIAL_DECORRENTE_BARRAMENTO","cod_imovel":"RJ-3304003-B68219C85DDA49408D1989985CD78313","ind_status":"AT"},"geometry":{"type":"Polygon","coordinates":[[[-43.7687,-22.5997],[-43.7702,-22.5968],[-43.7687,-22.5997],[-43.7687,-22.5997]]]}},{"type":"Feature","properties":{"cod_tema":"RIO_ATE_10","cod_imovel":"RJ-3304003-F47906129A154E56855D6879AF60A322","ind_status":"AT"},"geometry":{"type":"Polygon","coordinates":[[[-43.9182,-22.6473],[-43.922,-22.6396],[-43.9182,-22.6474],[-43.9182,-22.6473]],[[-43.931,-22.6575],[-43.9275,-22.6497],[-43.9329,-22.6508],[-43.9245,-22.6459],[-43.9261,-22.6427],[-43.921,-22.6497],[-43.9241,-22.6533],[-43.9243,-22.645],[-43.9274,-22.6584],[-43.9282,-22.6538],[-43.931,-22.6575],[-43.931,-22.6575]]]}},{"type":"Feature","properties":{"cod_tema":"RIO_ATE_10","cod_imovel":"RJ-3304003-58E9ADFD7108426EA4957328C30A1B21","ind_status":"AT"},"geometry":{"type":"Polygon","coordinates":[[[-43.8664,-22.7927],[-43.8624,-22.7947],[-43.8665,-22.7927],[-43.8606,-22.791],[-43.865,-22.7922],[-43.8664,-22.7927]],[[-43.8596,-22.7978],[-43.8653,-22.7999],[-43.8678,-22.7932],[-43.8601,-22.798],[-43.8596,-22.7978]]]}},{"type":"Feature","properties":{"cod_tema":"RIO_ATE_10","cod_imovel":"RJ-3304003-97C9DC2171F0491EBEC5A460E29C2B85","ind_status":"AT"},"geometry":{"type":"Polygon","coordinates":[[[-43.9253,-22.663],[-43.9206,-22.6579],[-43.9233,-22.6544],[-43.9202,-22.6578],[-43.9166,-22.652],[-43.9253,-22.663],[-43.9253,-22.663]],[[-43.9196,-22.6635],[-43.9167,-22.6652],[-43.9197,-22.6635],[-43.9196,-22.6635]],[[-43.9225,-22.6654],[-43.9197,-22.6635],[-43.9273,-22.6648],[-43.9227,-22.6655],[-43.9225,-22.6654]]]}},{"type":"Feature","properties":{"cod_tema":"RIO_ATE_10","cod_imovel":"RJ-3304003-0E08CE79C71B43FC8845E1C7040A5DD0","ind_status":"AT"},"geometry":{"type":"Polygon","coordinates":[[[-43.7775,-22.5865],[-43.784,-22.5887],[-43.7903,-22.5833],[-43.7839,-22.5887],[-43.7771,-22.5868],[-43.7775,-22.5865]],[[-43.7837,-22.5922],[-43.7908,-22.589],[-43.7838,-22.5922],[-43.7837,-22.5922]]]}},{"type":"Feature","properties":{"cod_tema":"RIO_ATE_10","cod_imovel":"RJ-3304003-271283DCAA814F028FE86468F998B9E3","ind_status":"AT"},"geometry":{"type":"Polygon","coordinates":[[[-43.8865,-22.5747],[-43.8867,-22.5637],[-43.8867,-22.5748],[-43.8865,-22.5747]],[[-43.8901,-22.5563],[-43.8857,-22.5594],[-43.8901,-22.5563],[-43.8901,-22.5563]],[[-43.891,-22.5543],[-43.8921,-22.5507],[-43.891,-22.5543],[-43.891,-22.5543]],[[-43.8948,-22.5686],[-43.8977,-22.567],[-43.8962,-22.5724],[-43.9049,-22.5818],[-43.8948,-22.5686],[-43.8948,-22.5686]]]}},{"type":"Feature","properties":{"cod_tema":"RIO_ATE_10","cod_imovel":"RJ-3304003-2CC7C6D24AF244F8B71A5F2B080636F5","ind_status":"AT"},"geometry":{"type":"Polygon","coordinates":[[[-43.8137,-22.6272],[-43.8165,-22.6205],[-43.8035,-22.6249],[-43.8067,-22.6234],[-43.8053,-22.6276],[-43.8094,-22.6213],[-43.8133,-22.6231],[-43.8098,-22.6277],[-43.814,-22.6273],[-43.8137,-22.6272]]]}},{"type":"Feature","properties":{"cod_tema":"RIO_ATE_10","cod_imovel":"RJ-3304003-D09F40CAC37F40B091F7A1BF1FA0EC35","ind_status":"AT"},"geometry":{"type":"Polygon","coordinates":[[[-43.8145,-22.6276],[-43.8176,-22.6299],[-43.8142,-22.6272],[-43.8145,-22.6276]]]}},{"type":"Feature","properties":{"cod_tema":"RIO_ATE_10","cod_imovel":"RJ-3304003-F807C371B5B44C148F355313E59DFC95","ind_status":"AT"},"geometry":{"type":"Polygon","coordinates":[[[-43.8002,-22.6202],[-43.8026,-22.6183],[-43.7998,-22.62],[-43.8002,-22.6202]]]}},{"type":"Feature","properties":{"cod_tema":"RIO_ATE_10","cod_imovel":"RJ-3304003-034F206BA1A84DAFBDA5A0867A1E2E60","ind_status":"AT"},"geometry":{"type":"Polygon","coordinates":[[[-43.7963,-22.6942],[-43.7996,-22.6918],[-43.7963,-22.6942],[-43.7963,-22.6942]],[[-43.8236,-22.7004],[-43.8201,-22.6948],[-43.8237,-22.7004],[-43.8236,-22.7004]],[[-43.8077,-22.7101],[-43.7927,-22.6974],[-43.8077,-22.7102],[-43.8077,-22.7101]]]}},{"type":"Feature","properties":{"cod_tema":"RIO_ATE_10","cod_imovel":"RJ-3304003-7B1C28C5D9B74AC6A3D9F6DE487B5151","ind_status":"AT"},"geometry":{"type":"Polygon","coordinates":[[[-43.8512,-22.7373],[-43.8482,-22.7388],[-43.8512,-22.7373],[-43.8512,-22.7373]]]}},{"type":"Feature","properties":{"cod_tema":"RIO_ATE_10","cod_imovel":"RJ-3304003-5BBF34F4859B4FD0834BF0ED79F63B6A","ind_status":"AT"},"geometry":{"type":"Polygon","coordinates":[[[-44.0142,-22.6001],[-44.0139,-22.5967],[-44.0143,-22.6001],[-44.0142,-22.6001]]]}},{"type":"Feature","properties":{"cod_tema":"RIO_ATE_10","cod_imovel":"RJ-3304003-E256D2D5226B437AA672CA22A9D2D669","ind_status":"AT"},"geometry":{"type":"Polygon","coordinates":[[[-44.0789,-22.6511],[-44.076,-22.6488],[-44.079,-22.6512],[-44.0789,-22.6511]],[[-44.0823,-22.6475],[-44.0784,-22.6475],[-44.0822,-22.6473],[-44.0823,-22.6475]]]}},{"type":"Feature","properties":{"cod_tema":"RIO_ATE_10","cod_imovel":"RJ-3304003-A2E1B9B806FE48FEBF22706305F06AF5","ind_status":"AT"},"geometry":{"type":"Polygon","coordinates":[[[-44.0204,-22.6107],[-44.0172,-22.6176],[-44.0204,-22.6105],[-44.0276,-22.619],[-44.0199,-22.6062],[-44.0204,-22.6105],[-44.0204,-22.6107]]]}},{"type":"Feature","properties":{"cod_tema":"RIO_ATE_10","cod_imovel":"RJ-3304003-0ED8DF25001F480FAE977600EAB200F3","ind_status":"AT"},"geometry":{"type":"Polygon","coordinates":[[[-43.7954,-22.5999],[-43.7916,-22.6045],[-43.7891,-22.6012],[-43.7926,-22.5988],[-43.7891,-22.6012],[-43.7828,-22.5949],[-43.7849,-22.5984],[-43.7788,-22.6023],[-43.7782,-22.6097],[-43.7818,-22.6112],[-43.778,-22.6059],[-43.7814,-22.6007],[-43.7896,-22.6114],[-43.7812,-22.6042],[-43.7869,-22.5995],[-43.7844,-22.6064],[-43.7876,-22.5998],[-43.791,-22.6039],[-43.7881,-22.609],[-43.7918,-22.6048],[-43.7897,-22.6102],[-43.7954,-22.5999],[-43.7954,-22.5999]],[[-43.8008,-22.5982],[-43.794,-22.5934],[-43.792,-22.5969],[-43.7947,-22.599],[-43.7941,-22.5934],[-43.8008,-22.5982],[-43.8008,-22.5982]],[[-43.8082,-22.5896],[-43.7993,-22.5885],[-43.7963,-22.5925],[-43.8007,-22.5905],[-43.7992,-22.596],[-43.804,-22.5907],[-43.8013,-22.5958],[-43.8082,-22.5896],[-43.8082,-22.5896]]]}},{"type":"Feature","properties":{"cod_tema":"RIO_ATE_10","cod_imovel":"RJ-3304003-C2C008863A3B407487E194E9DDA7CBEC","ind_status":"AT"},"geometry":{"type":"Polygon","coordinates":[[[-44.0462,-22.6071],[-44.0426,-22.6083],[-44.0463,-22.6064],[-44.0462,-22.6071]]]}},{"type":"Feature","properties":{"cod_tema":"RIO_ATE_10","cod_imovel":"RJ-3304003-01AAB4F65C2843C8AB6CA6558D5F241F","ind_status":"AT"},"geometry":{"type":"Polygon","coordinates":[[[-44.0436,-22.608],[-44.0464,-22.6062],[-44.0436,-22.6081],[-44.0436,-22.608]],[[-44.0461,-22.6049],[-44.0437,-22.6028],[-44.046,-22.6048],[-44.0461,-22.6049]]]}},{"type":"Feature","properties":{"cod_tema":"RIO_ATE_10","cod_imovel":"RJ-3304003-72EE4EB07CAF485B9060E20706AFF153","ind_status":"AT"},"geometry":{"type":"Polygon","coordinates":[[[-44.0728,-22.6166],[-44.0678,-22.6116],[-44.0731,-22.6107],[-44.0624,-22.6082],[-44.068,-22.6129],[-44.0565,-22.6126],[-44.0641,-22.6132],[-44.0643,-22.6201],[-44.0651,-22.6171],[-44.0728,-22.6199],[-44.0643,-22.6139],[-44.0729,-22.6166],[-44.0728,-22.6166]],[[-44.0609,-22.62],[-44.0569,-22.6136],[-44.0624,-22.6155],[-44.0565,-22.6136],[-44.0568,-22.62],[-44.0609,-22.62],[-44.0609,-22.62]],[[-44.0607,-22.6076],[-44.0565,-22.6068],[-44.0608,-22.6075],[-44.0607,-22.6076]]]}},{"type":"Feature","properties":{"cod_tema":"RIO_ATE_10","cod_imovel":"RJ-3304003-51887078A0E1484DAB2DEB38521C6791","ind_status":"AT"},"geometry":{"type":"Polygon","coordinates":[[[-43.9041,-22.5522],[-43.8984,-22.551],[-43.8984,-22.557],[-43.903,-22.5525],[-43.9056,-22.5589],[-43.9049,-22.5467],[-43.9041,-22.5522],[-43.9041,-22.5522]],[[-43.903,-22.5383],[-43.9045,-22.5291],[-43.903,-22.5383],[-43.903,-22.5383]],[[-43.9134,-22.5288],[-43.9089,-22.5343],[-43.9134,-22.529],[-43.9168,-22.5443],[-43.907,-22.5418],[-43.9167,-22.5444],[-43.9106,-22.5493],[-43.9172,-22.5529],[-43.913,-22.5561],[-43.9145,-22.5615],[-43.9083,-22.5603],[-43.9151,-22.5627],[-43.9143,-22.569],[-43.9156,-22.5611],[-43.9188,-22.5644],[-43.9174,-22.5532],[-43.9238,-22.5579],[-43.9224,-22.5654],[-43.9277,-22.5586],[-43.9173,-22.5531],[-43.9175,-22.5405],[-43.9362,-22.5505],[-43.9349,-22.5469],[-43.9274,-22.5477],[-43.932,-22.5425],[-43.9267,-22.5456],[-43.9247,-22.5394],[-43.9201,-22.5418],[-43.9261,-22.5348],[-43.9175,-22.5404],[-43.9202,-22.535],[-43.9133,-22.5312],[-43.9139,-22.5232],[-43.9134,-22.5287],[-43.9134,-22.5288]],[[-43.9175,-22.5235],[-43.9262,-22.5301],[-43.9175,-22.5235],[-43.9175,-22.5235]],[[-43.9313,-22.5534],[-43.929,-22.5565],[-43.9327,-22.5587],[-43.9363,-22.553],[-43.932,-22.556],[-43.9312,-22.5527],[-43.9313,-22.5534]],[[-43.9368,-22.5322],[-43.9313,-22.5358],[-43.9368,-22.5323],[-43.9372,-22.5385],[-43.9326,-22.5403],[-43.9386,-22.5376],[-43.9368,-22.5313],[-43.9368,-22.5322]],[[-43.9392,-22.548],[-43.9422,-22.5497],[-43.9363,-22.545],[-43.9392,-22.548],[-43.9392,-22.548]],[[-43.946,-22.5372],[-43.942,-22.5429],[-43.9486,-22.5394],[-43.946,-22.5372],[-43.946,-22.5372]],[[-43.9425,-22.5405],[-43.9446,-22.5326],[-43.9425,-22.5405],[-43.9425,-22.5405]]]}},{"type":"Feature","properties":{"cod_tema":"RIO_ATE_10","cod_imovel":"RJ-3304003-139C9A67DDC14D2B9E0974AE1D945B1D","ind_status":"AT"},"geometry":{"type":"Polygon","coordinates":[[[-43.8354,-22.6224],[-43.8373,-22.6257],[-43.8331,-22.6279],[-43.8373,-22.6257],[-43.8354,-22.6224],[-43.8354,-22.6224]],[[-43.8399,-22.6305],[-43.8427,-22.6222],[-43.8399,-22.6305],[-43.8399,-22.6305]]]}}]}