{"type":"FeatureCollection","features":[{"type":"Feature","properties":{"cod_tema":"RIO_ATE_10","cod_imovel":"RJ-3304508-10BCF13EA8E247D8B15879E6BEC52CF1","ind_status":"AT"},"geometry":{"type":"Polygon","coordinates":[[[-43.5207,-22.136],[-43.52,-22.1316],[-43.5204,-22.1367],[-43.5207,-22.136]],[[-43.5281,-22.1351],[-43.5244,-22.1327],[-43.5232,-22.1366],[-43.5281,-22.1351],[-43.5281,-22.1351]]]}},{"type":"Feature","properties":{"cod_tema":"RIO_ATE_10","cod_imovel":"RJ-3304508-50DA908229C84D709E8B811A4CD69127","ind_status":"AT"},"geometry":{"type":"Polygon","coordinates":[[[-43.5041,-22.1625],[-43.5063,-22.168],[-43.5037,-22.1622],[-43.5041,-22.1625]]]}},{"type":"Feature","properties":{"cod_tema":"RIO_ATE_10","cod_imovel":"RJ-3304508-5D5114028241432EA1CC3E19B07E634E","ind_status":"AT"},"geometry":{"type":"Polygon","coordinates":[[[-43.5835,-22.0862],[-43.5832,-22.0905],[-43.5834,-22.0862],[-43.5835,-22.0862]]]}},{"type":"Feature","properties":{"cod_tema":"RIO_ATE_10","cod_imovel":"RJ-3304508-CA5C689EC621467EB727B2027996A65F","ind_status":"AT"},"geometry":{"type":"Polygon","coordinates":[[[-43.4643,-22.1946],[-43.4656,-22.1908],[-43.4614,-22.1947],[-43.4646,-22.1947],[-43.4643,-22.1946]]]}},{"type":"Feature","properties":{"cod_tema":"RIO_ATE_10","cod_imovel":"RJ-3304508-6EBBAC84C5094AA1BAC430EE9E652310","ind_status":"AT"},"geometry":{"type":"Polygon","coordinates":[[[-43.5076,-22.1834],[-43.5081,-22.1915],[-43.5074,-22.1833],[-43.5076,-22.1834]],[[-43.5215,-22.1858],[-43.5202,-22.1777],[-43.5119,-22.1773],[-43.5163,-22.1792],[-43.5103,-22.1824],[-43.5188,-22.1798],[-43.521,-22.1835],[-43.5159,-22.1847],[-43.5239,-22.1887],[-43.5216,-22.1859],[-43.5215,-22.1858]]]}},{"type":"Feature","properties":{"cod_tema":"RIO_ATE_10","cod_imovel":"RJ-3304508-423C9538C4FC4105AEC78D3649EE926A","ind_status":"AT"},"geometry":{"type":"Polygon","coordinates":[[[-43.5082,-22.1844],[-43.5082,-22.1914],[-43.5082,-22.1843],[-43.5082,-22.1844]],[[-43.5215,-22.1858],[-43.5202,-22.1777],[-43.5119,-22.1773],[-43.5163,-22.1792],[-43.5103,-22.1824],[-43.5188,-22.1798],[-43.521,-22.1835],[-43.5159,-22.1847],[-43.5239,-22.1887],[-43.5216,-22.1859],[-43.5215,-22.1858]]]}},{"type":"Feature","properties":{"cod_tema":"RIO_ATE_10","cod_imovel":"RJ-3304508-A73EFBE1FA2C4A629C73F6EDEEE6013B","ind_status":"AT"},"geometry":{"type":"Polygon","coordinates":[[[-43.645,-22.1894],[-43.6418,-22.1896],[-43.6453,-22.1894],[-43.645,-22.1894]]]}},{"type":"Feature","properties":{"cod_tema":"RIO_ATE_10","cod_imovel":"RJ-3304508-0448B81C25C34A22A01C002B5991A461","ind_status":"AT"},"geometry":{"type":"Polygon","coordinates":[[[-43.4598,-22.1474],[-43.4439,-22.1391],[-43.4554,-22.1513],[-43.4492,-22.1419],[-43.4594,-22.1461],[-43.4582,-22.1502],[-43.4598,-22.1474],[-43.4598,-22.1474]],[[-43.4496,-22.1516],[-43.4516,-22.1459],[-43.4494,-22.152],[-43.4496,-22.1516]],[[-43.4644,-22.1485],[-43.4598,-22.1474],[-43.4642,-22.1484],[-43.4624,-22.154],[-43.4642,-22.1485],[-43.4644,-22.1485]]]}},{"type":"Feature","properties":{"cod_tema":"RIO_ATE_10","cod_imovel":"RJ-3304508-063DAA19CA3345DCBCB53FEB70FDE070","ind_status":"AT"},"geometry":{"type":"Polygon","coordinates":[[[-43.608,-22.108],[-43.5973,-22.113],[-43.5969,-22.107],[-43.6017,-22.1048],[-43.5972,-22.1024],[-43.5956,-22.1107],[-43.5807,-22.1144],[-43.585,-22.1142],[-43.5826,-22.1189],[-43.5855,-22.1131],[-43.5901,-22.1145],[-43.5843,-22.1261],[-43.5893,-22.1236],[-43.5927,-22.1107],[-43.5997,-22.1136],[-43.6143,-22.1039],[-43.6081,-22.108],[-43.608,-22.108]],[[-43.5892,-22.1251],[-43.5866,-22.1277],[-43.5895,-22.1253],[-43.5892,-22.1251]],[[-43.5919,-22.1082],[-43.592,-22.1028],[-43.5879,-22.1113],[-43.592,-22.1084],[-43.5919,-22.1082]],[[-43.6203,-22.0976],[-43.6152,-22.096],[-43.6176,-22.1011],[-43.6114,-22.101],[-43.6209,-22.1024],[-43.6176,-22.1011],[-43.6208,-22.0977],[-43.6203,-22.0976]],[[-43.6181,-22.0921],[-43.6236,-22.092],[-43.6181,-22.0921],[-43.6181,-22.0921]],[[-43.6237,-22.0932],[-43.6213,-22.0962],[-43.6236,-22.0933],[-43.625,-22.097],[-43.6236,-22.0933],[-43.6237,-22.0932]]]}},{"type":"Feature","properties":{"cod_tema":"RIO_ATE_10","cod_imovel":"RJ-3304508-065516E04D284AF787048B50397654C4","ind_status":"AT"},"geometry":{"type":"Polygon","coordinates":[[[-43.4466,-22.2134],[-43.4412,-22.2129],[-43.4468,-22.2179],[-43.4468,-22.2132],[-43.4466,-22.2134]]]}},{"type":"Feature","properties":{"cod_tema":"RIO_ATE_10","cod_imovel":"RJ-3304508-095130AAEBAB41F19EBCC5A8BF3A1869","ind_status":"AT"},"geometry":{"type":"Polygon","coordinates":[[[-43.499,-22.1657],[-43.4936,-22.166],[-43.4982,-22.1554],[-43.4936,-22.166],[-43.5,-22.166],[-43.499,-22.1657]],[[-43.4973,-22.1534],[-43.501,-22.1525],[-43.4967,-22.1533],[-43.4973,-22.1534]],[[-43.5127,-22.1601],[-43.514,-22.1551],[-43.5059,-22.1552],[-43.511,-22.1584],[-43.5059,-22.1615],[-43.5127,-22.1601],[-43.5127,-22.1601]]]}},{"type":"Feature","properties":{"cod_tema":"RIO_ATE_10","cod_imovel":"RJ-3304508-06B30CB402244BCE98223A0AB2307889","ind_status":"AT"},"geometry":{"type":"Polygon","coordinates":[[[-43.547,-22.1177],[-43.5522,-22.1123],[-43.5425,-22.1087],[-43.5472,-22.1114],[-43.5383,-22.1175],[-43.5501,-22.1117],[-43.5469,-22.1178],[-43.547,-22.1177]],[[-43.5408,-22.1093],[-43.5374,-22.1076],[-43.541,-22.1091],[-43.5408,-22.1093]]]}},{"type":"Feature","properties":{"cod_tema":"RIO_ATE_10","cod_imovel":"RJ-3304508-0B152FA4B260440FBCA992C3C27251D3","ind_status":"AT"},"geometry":{"type":"Polygon","coordinates":[[[-43.6149,-22.2375],[-43.6143,-22.2414],[-43.6098,-22.2362],[-43.6158,-22.2423],[-43.615,-22.2374],[-43.6149,-22.2375]]]}},{"type":"Feature","properties":{"cod_tema":"RIO_ATE_10","cod_imovel":"RJ-3304508-2AAF8ED384D64079BEB963F6FD5919CB","ind_status":"AT"},"geometry":{"type":"Polygon","coordinates":[[[-43.6123,-22.0882],[-43.615,-22.0847],[-43.6123,-22.089],[-43.6123,-22.0882]]]}},{"type":"Feature","properties":{"cod_tema":"RIO_ATE_10","cod_imovel":"RJ-3304508-2AAF8ED384D64079BEB963F6FD5919CB","ind_status":"AT"},"geometry":{"type":"Polygon","coordinates":[[[-43.6058,-22.0931],[-43.6001,-22.0901],[-43.6063,-22.0937],[-43.6058,-22.0931]]]}},{"type":"Feature","properties":{"cod_tema":"RIO_ATE_10","cod_imovel":"RJ-3304508-2AAF8ED384D64079BEB963F6FD5919CB","ind_status":"AT"},"geometry":{"type":"Polygon","coordinates":[[[-43.6066,-22.09],[-43.6022,-22.0905],[-43.6075,-22.0889],[-43.6066,-22.09]]]}},{"type":"Feature","properties":{"cod_tema":"RIO_ATE_10","cod_imovel":"RJ-3304508-2AAF8ED384D64079BEB963F6FD5919CB","ind_status":"AT"},"geometry":{"type":"Polygon","coordinates":[[[-43.6084,-22.0877],[-43.6069,-22.0841],[-43.6081,-22.0882],[-43.6084,-22.0877]]]}},{"type":"Feature","properties":{"cod_tema":"RIO_ATE_10","cod_imovel":"RJ-3304508-2AAF8ED384D64079BEB963F6FD5919CB","ind_status":"AT"},"geometry":{"type":"Polygon","coordinates":[[[-43.6125,-22.0912],[-43.6177,-22.0917],[-43.6126,-22.0903],[-43.6125,-22.0912]]]}},{"type":"Feature","properties":{"cod_tema":"RIO_ATE_10","cod_imovel":"RJ-3304508-2AAF8ED384D64079BEB963F6FD5919CB","ind_status":"AT"},"geometry":{"type":"Polygon","coordinates":[[[-43.6025,-22.0868],[-43.6017,-22.0904],[-43.6026,-22.0859],[-43.6025,-22.0868]]]}},{"type":"Feature","properties":{"cod_tema":"RIO_ATE_10","cod_imovel":"RJ-3304508-142D33FF6DF94F1E9626C35E08B017EB","ind_status":"AT"},"geometry":{"type":"Polygon","coordinates":[[[-43.5669,-22.1848],[-43.5671,-22.1794],[-43.5666,-22.1851],[-43.5669,-22.1848]],[[-43.5568,-22.1719],[-43.5622,-22.175],[-43.5568,-22.1719],[-43.5568,-22.1719]]]}},{"type":"Feature","properties":{"cod_tema":"RIO_ATE_10","cod_imovel":"RJ-3304508-144BEFFE5DE548A7B27B92073986BF1B","ind_status":"AT"},"geometry":{"type":"Polygon","coordinates":[[[-43.5491,-22.1756],[-43.5535,-22.17],[-43.5491,-22.176],[-43.5491,-22.1756]]]}},{"type":"Feature","properties":{"cod_tema":"RIO_ATE_10","cod_imovel":"RJ-3304508-144BEFFE5DE548A7B27B92073986BF1B","ind_status":"AT"},"geometry":{"type":"Polygon","coordinates":[[[-43.5279,-22.1674],[-43.5309,-22.168],[-43.5277,-22.1673],[-43.5279,-22.1674]]]}},{"type":"Feature","properties":{"cod_tema":"RIO_ATE_10","cod_imovel":"RJ-3304508-144BEFFE5DE548A7B27B92073986BF1B","ind_status":"AT"},"geometry":{"type":"Polygon","coordinates":[[[-43.531,-22.1659],[-43.5314,-22.1726],[-43.5311,-22.1658],[-43.531,-22.1659]]]}},{"type":"Feature","properties":{"cod_tema":"RIO_ATE_10","cod_imovel":"RJ-3304508-144BEFFE5DE548A7B27B92073986BF1B","ind_status":"AT"},"geometry":{"type":"Polygon","coordinates":[[[-43.5455,-22.1691],[-43.5451,-22.1749],[-43.5455,-22.1686],[-43.5455,-22.1691]]]}},{"type":"Feature","properties":{"cod_tema":"RIO_ATE_10","cod_imovel":"RJ-3304508-144BEFFE5DE548A7B27B92073986BF1B","ind_status":"AT"},"geometry":{"type":"Polygon","coordinates":[[[-43.5368,-22.1672],[-43.5418,-22.1685],[-43.5367,-22.1669],[-43.5368,-22.1672]]]}},{"type":"Feature","properties":{"cod_tema":"RIO_ATE_10","cod_imovel":"RJ-3304508-1456A9EF012449EAAB487372C0615A75","ind_status":"AT"},"geometry":{"type":"Polygon","coordinates":[[[-43.4376,-22.1894],[-43.4395,-22.1827],[-43.4395,-22.1896],[-43.4329,-22.1895],[-43.4376,-22.1894]]]}},{"type":"Feature","properties":{"cod_tema":"RIO_ATE_10","cod_imovel":"RJ-3304508-22B500F7387547C69357FC4A6633E1A5","ind_status":"AT"},"geometry":{"type":"Polygon","coordinates":[[[-43.572,-22.1712],[-43.5742,-22.1691],[-43.5662,-22.171],[-43.5718,-22.1712],[-43.572,-22.1712]]]}},{"type":"Feature","properties":{"cod_tema":"RIO_ATE_10","cod_imovel":"RJ-3304508-22875CF8D2BC42A6B3D871C4C920CF57","ind_status":"AT"},"geometry":{"type":"Polygon","coordinates":[[[-43.4892,-22.1907],[-43.486,-22.1952],[-43.4885,-22.1902],[-43.4892,-22.1907]],[[-43.4834,-22.201],[-43.4883,-22.2035],[-43.483,-22.2002],[-43.4834,-22.201]],[[-43.4842,-22.1871],[-43.4915,-22.1875],[-43.4826,-22.1911],[-43.4915,-22.1875],[-43.4831,-22.1866],[-43.4842,-22.1871]]]}},{"type":"Feature","properties":{"cod_tema":"RIO_ATE_10","cod_imovel":"RJ-3304508-2CF607DE905043A280B65F1EC7E985C2","ind_status":"AT"},"geometry":{"type":"Polygon","coordinates":[[[-43.4935,-22.0907],[-43.4875,-22.0738],[-43.4868,-22.0782],[-43.4831,-22.0759],[-43.4841,-22.0837],[-43.4868,-22.0782],[-43.4874,-22.086],[-43.4891,-22.083],[-43.4937,-22.0908],[-43.4935,-22.0907]]]}},{"type":"Feature","properties":{"cod_tema":"RIO_ATE_10","cod_imovel":"RJ-3304508-2E775B60A73A4C3BAC53F3AD97ECB48B","ind_status":"AT"},"geometry":{"type":"Polygon","coordinates":[[[-43.5641,-22.128],[-43.5661,-22.1317],[-43.5417,-22.1429],[-43.5576,-22.1357],[-43.5563,-22.1423],[-43.5577,-22.1357],[-43.5651,-22.1319],[-43.57,-22.1368],[-43.5641,-22.1278],[-43.5641,-22.128]],[[-43.5547,-22.1303],[-43.5583,-22.1281],[-43.5545,-22.1306],[-43.5547,-22.1303]],[[-43.5429,-22.1336],[-43.5461,-22.1293],[-43.5427,-22.1336],[-43.5429,-22.1336]],[[-43.5438,-22.1359],[-43.5353,-22.139],[-43.5442,-22.1361],[-43.5438,-22.1359]]]}},{"type":"Feature","properties":{"cod_tema":"RIO_ATE_10","cod_imovel":"RJ-3304508-316781BB488E44838DCBD90910B17D81","ind_status":"AT"},"geometry":{"type":"Polygon","coordinates":[[[-43.4809,-22.143],[-43.4714,-22.1447],[-43.4728,-22.1403],[-43.4701,-22.1467],[-43.4864,-22.1473],[-43.4806,-22.145],[-43.4809,-22.143]],[[-43.4883,-22.1495],[-43.4758,-22.1514],[-43.4773,-22.1482],[-43.4715,-22.1527],[-43.4721,-22.1595],[-43.4796,-22.1573],[-43.4736,-22.1572],[-43.4757,-22.1515],[-43.4834,-22.1557],[-43.4818,-22.1518],[-43.4883,-22.1495],[-43.4883,-22.1495]],[[-43.4793,-22.1611],[-43.4729,-22.1625],[-43.4804,-22.1611],[-43.4793,-22.1611]],[[-43.4889,-22.1632],[-43.4895,-22.1568],[-43.4894,-22.1648],[-43.482,-22.1633],[-43.49,-22.1666],[-43.4943,-22.1558],[-43.4891,-22.1638],[-43.4889,-22.1632]],[[-43.4974,-22.1459],[-43.4931,-22.1476],[-43.4971,-22.1463],[-43.4968,-22.1504],[-43.4972,-22.1463],[-43.4974,-22.1459]],[[-43.5075,-22.1527],[-43.5074,-22.1474],[-43.5072,-22.1525],[-43.4994,-22.1526],[-43.5073,-22.1526],[-43.5075,-22.1527]]]}},{"type":"Feature","properties":{"cod_tema":"RIO_ATE_10","cod_imovel":"RJ-3304508-3328A4557D5541CF95A8A4265CB8F513","ind_status":"AT"},"geometry":{"type":"Polygon","coordinates":[[[-43.5888,-22.1718],[-43.5888,-22.1767],[-43.5795,-22.1797],[-43.5889,-22.1768],[-43.5888,-22.1716],[-43.5888,-22.1718]]]}},{"type":"Feature","properties":{"cod_tema":"RIO_ATE_10","cod_imovel":"RJ-3304508-447942D64F08416796E8617177F2D864","ind_status":"AT"},"geometry":{"type":"Polygon","coordinates":[[[-43.5971,-22.178],[-43.5938,-22.1803],[-43.5971,-22.178],[-43.5971,-22.178]]]}},{"type":"Feature","properties":{"cod_tema":"RIO_ATE_10","cod_imovel":"RJ-3304508-3D2CEFDB514147FCA529680192C2389B","ind_status":"AT"},"geometry":{"type":"Polygon","coordinates":[[[-43.6135,-22.124],[-43.6102,-22.1213],[-43.6136,-22.124],[-43.6135,-22.124]]]}},{"type":"Feature","properties":{"cod_tema":"RIO_ATE_10","cod_imovel":"RJ-3304508-44B84D5C3B3A4C3385819C927FE5D7F8","ind_status":"AT"},"geometry":{"type":"Polygon","coordinates":[[[-43.6204,-22.0997],[-43.6176,-22.1008],[-43.6206,-22.0996],[-43.6204,-22.0997]],[[-43.6207,-22.1022],[-43.6176,-22.1008],[-43.621,-22.1023],[-43.6207,-22.1022]],[[-43.6177,-22.0919],[-43.6236,-22.092],[-43.6172,-22.092],[-43.6177,-22.0919]]]}},{"type":"Feature","properties":{"cod_tema":"RIO_ATE_10","cod_imovel":"RJ-3304508-46EE3BAD8FDF415AB2D9D5698C310DD9","ind_status":"AT"},"geometry":{"type":"Polygon","coordinates":[[[-43.4657,-22.1829],[-43.4623,-22.1897],[-43.4657,-22.1828],[-43.4657,-22.1829]]]}},{"type":"Feature","properties":{"cod_tema":"RIO_ATE_10","cod_imovel":"RJ-3304508-4A0BDDC190CA4DAA8CA604AB1789B9E4","ind_status":"AT"},"geometry":{"type":"Polygon","coordinates":[[[-43.6225,-22.0803],[-43.6255,-22.082],[-43.6211,-22.0753],[-43.6225,-22.0802],[-43.6225,-22.0803]],[[-43.6283,-22.0899],[-43.6247,-22.0919],[-43.6283,-22.0904],[-43.6316,-22.0958],[-43.6283,-22.0898],[-43.6283,-22.0899]],[[-43.625,-22.0832],[-43.6284,-22.0896],[-43.625,-22.0832],[-43.625,-22.0832]],[[-43.6309,-22.0811],[-43.6256,-22.0822],[-43.631,-22.0811],[-43.6309,-22.0811]],[[-43.6457,-22.0762],[-43.6379,-22.0797],[-43.6298,-22.0771],[-43.6313,-22.0807],[-43.636,-22.077],[-43.6379,-22.0821],[-43.6457,-22.0762],[-43.6457,-22.0762]],[[-43.6303,-22.0822],[-43.6319,-22.0865],[-43.6302,-22.0822],[-43.6303,-22.0822]],[[-43.6344,-22.0818],[-43.631,-22.0826],[-43.6347,-22.0851],[-43.6344,-22.0817],[-43.6344,-22.0818]],[[-43.6337,-22.0734],[-43.631,-22.0749],[-43.6337,-22.0734],[-43.6337,-22.0734]],[[-43.6437,-22.0855],[-43.6397,-22.0931],[-43.632,-22.094],[-43.6398,-22.0931],[-43.6437,-22.0856],[-43.6437,-22.0855]],[[-43.6371,-22.0885],[-43.6354,-22.0941],[-43.6371,-22.0884],[-43.6371,-22.0885]],[[-43.6407,-22.0848],[-43.638,-22.083],[-43.6408,-22.0848],[-43.6407,-22.0848]],[[-43.64,-22.0763],[-43.6402,-22.0703],[-43.64,-22.0764],[-43.64,-22.0763]],[[-43.6432,-22.0791],[-43.6435,-22.0836],[-43.6431,-22.079],[-43.6432,-22.0791]]]}},{"type":"Feature","properties":{"cod_tema":"RIO_50_A_200","cod_imovel":"RJ-3304508-4A0BDDC190CA4DAA8CA604AB1789B9E4","ind_status":"AT"},"geometry":{"type":"Polygon","coordinates":[[[-43.6073,-22.0725],[-43.6116,-22.0721],[-43.6117,-22.0819],[-43.6197,-22.0845],[-43.6208,-22.0754],[-43.6279,-22.0776],[-43.6383,-22.0678],[-43.6478,-22.0653],[-43.6549,-22.0712],[-43.6478,-22.0648],[-43.6377,-22.0675],[-43.6277,-22.0771],[-43.6205,-22.0751],[-43.62,-22.0841],[-43.6122,-22.0816],[-43.6109,-22.0707],[-43.6073,-22.0721],[-43.6073,-22.0725]]]}},{"type":"Feature","properties":{"cod_tema":"RIO_ATE_10","cod_imovel":"RJ-3304508-9134ED15F7F7448190F47BA814D4C98C","ind_status":"AT"},"geometry":{"type":"Polygon","coordinates":[[[-43.5976,-22.0835],[-43.5997,-22.0795],[-43.5973,-22.0838],[-43.5976,-22.0835]],[[-43.594,-22.0835],[-43.5955,-22.0763],[-43.5939,-22.0838],[-43.594,-22.0835]]]}},{"type":"Feature","properties":{"cod_tema":"RIO_ATE_10","cod_imovel":"RJ-3304508-4F18DB544F504594ADC9E04A92C1963D","ind_status":"AT"},"geometry":{"type":"Polygon","coordinates":[[[-43.655,-22.1862],[-43.6579,-22.1831],[-43.6492,-22.1857],[-43.6551,-22.1863],[-43.655,-22.1862]]]}},{"type":"Feature","properties":{"cod_tema":"RIO_ATE_10","cod_imovel":"RJ-3304508-53023AE40E7549C38D1E8F79B5AE095D","ind_status":"AT"},"geometry":{"type":"Polygon","coordinates":[[[-43.5597,-22.0875],[-43.5658,-22.0883],[-43.5598,-22.0871],[-43.5597,-22.0875]],[[-43.5394,-22.1021],[-43.5428,-22.1009],[-43.539,-22.102],[-43.5394,-22.1021]],[[-43.5424,-22.1038],[-43.5433,-22.099],[-43.5457,-22.1011],[-43.5399,-22.0954],[-43.5419,-22.104],[-43.5424,-22.1038]],[[-43.5553,-22.0912],[-43.5557,-22.0861],[-43.5551,-22.0916],[-43.5553,-22.0912]],[[-43.5378,-22.106],[-43.5318,-22.1047],[-43.5384,-22.1059],[-43.5378,-22.106]],[[-43.5339,-22.1133],[-43.5255,-22.1079],[-43.5339,-22.1138],[-43.5339,-22.1133]],[[-43.5479,-22.1044],[-43.5459,-22.089],[-43.55,-22.0995],[-43.5475,-22.1053],[-43.5479,-22.1044]]]}},{"type":"Feature","properties":{"cod_tema":"RIO_10_A_50","cod_imovel":"RJ-3304508-53023AE40E7549C38D1E8F79B5AE095D","ind_status":"AT"},"geometry":{"type":"Polygon","coordinates":[[[-43.5597,-22.0872],[-43.5658,-22.0884],[-43.5604,-22.0873],[-43.5597,-22.0872]]]}},{"type":"Feature","properties":{"cod_tema":"RIO_ATE_10","cod_imovel":"RJ-3304508-53C181558AEC492C9817614EFCFA6A07","ind_status":"AT"},"geometry":{"type":"Polygon","coordinates":[[[-43.6262,-22.1512],[-43.6303,-22.1492],[-43.6351,-22.1545],[-43.6304,-22.1492],[-43.6339,-22.144],[-43.6261,-22.1514],[-43.6262,-22.1512]]]}},{"type":"Feature","properties":{"cod_tema":"RIO_ATE_10","cod_imovel":"RJ-3304508-64053CC43AB74FA0B3AEDA52D2248077","ind_status":"AT"},"geometry":{"type":"Polygon","coordinates":[[[-43.4474,-22.1928],[-43.4434,-22.1915],[-43.4472,-22.1932],[-43.4474,-22.1928]],[[-43.4448,-22.1921],[-43.4475,-22.1848],[-43.4447,-22.1922],[-43.4448,-22.1921]],[[-43.4543,-22.1882],[-43.4518,-22.1823],[-43.4543,-22.1882],[-43.4543,-22.1882]]]}},{"type":"Feature","properties":{"cod_tema":"RIO_ATE_10","cod_imovel":"RJ-3304508-6727C54F7E1F414FBFB9F09E9B7FE1C6","ind_status":"AT"},"geometry":{"type":"Polygon","coordinates":[[[-43.5709,-22.1003],[-43.5615,-22.0971],[-43.5619,-22.0885],[-43.5598,-22.1086],[-43.5549,-22.1138],[-43.5593,-22.1035],[-43.5633,-22.1036],[-43.5593,-22.1035],[-43.5592,-22.096],[-43.5709,-22.1003],[-43.5709,-22.1003]]]}},{"type":"Feature","properties":{"cod_tema":"RIO_ATE_10","cod_imovel":"RJ-3304508-6AC5FFD16EFF451AAABE0DA2BBAC1DD3","ind_status":"AT"},"geometry":{"type":"Polygon","coordinates":[[[-43.6385,-22.1166],[-43.6357,-22.1189],[-43.6386,-22.1164],[-43.6385,-22.1166]],[[-43.6355,-22.114],[-43.6301,-22.1258],[-43.6356,-22.1137],[-43.6355,-22.114]],[[-43.63,-22.1257],[-43.6233,-22.1238],[-43.6301,-22.1258],[-43.63,-22.1257]]]}},{"type":"Feature","properties":{"cod_tema":"RIO_ATE_10","cod_imovel":"RJ-3304508-782E0A76D20C48A69BC368E07D016318","ind_status":"AT"},"geometry":{"type":"Polygon","coordinates":[[[-43.6666,-22.1473],[-43.653,-22.1378],[-43.6455,-22.1454],[-43.653,-22.1378],[-43.6647,-22.1464],[-43.6628,-22.1515],[-43.6666,-22.1473],[-43.6666,-22.1473]]]}},{"type":"Feature","properties":{"cod_tema":"RIO_ATE_10","cod_imovel":"RJ-3304508-85D5059F2E6E4EC7A8163A5C687BF41B","ind_status":"AT"},"geometry":{"type":"Polygon","coordinates":[[[-43.6477,-22.1701],[-43.6434,-22.172],[-43.6489,-22.1731],[-43.6476,-22.1699],[-43.6477,-22.1701]]]}},{"type":"Feature","properties":{"cod_tema":"RIO_ATE_10","cod_imovel":"RJ-3304508-908B78495D7D4E7D8552D32C72428E86","ind_status":"AT"},"geometry":{"type":"Polygon","coordinates":[[[-43.4794,-22.123],[-43.4773,-22.1036],[-43.4799,-22.1218],[-43.4794,-22.123]],[[-43.503,-22.0842],[-43.5009,-22.0885],[-43.5029,-22.0843],[-43.503,-22.0842]],[[-43.5047,-22.0843],[-43.5029,-22.0756],[-43.5046,-22.0841],[-43.5047,-22.0843]],[[-43.4964,-22.0969],[-43.4851,-22.0963],[-43.4936,-22.1013],[-43.4964,-22.0969],[-43.4964,-22.0969]],[[-43.5057,-22.0849],[-43.5061,-22.0881],[-43.5107,-22.0834],[-43.5057,-22.0849],[-43.5057,-22.0849]],[[-43.5061,-22.0884],[-43.5018,-22.0971],[-43.5061,-22.0884],[-43.5061,-22.0884]],[[-43.4766,-22.1259],[-43.4785,-22.1346],[-43.4747,-22.1224],[-43.4772,-22.1038],[-43.4751,-22.131],[-43.4761,-22.1265],[-43.4766,-22.1259]],[[-43.5103,-22.1279],[-43.4986,-22.1069],[-43.5033,-22.1005],[-43.4891,-22.108],[-43.4836,-22.0963],[-43.4847,-22.1013],[-43.4803,-22.1016],[-43.4859,-22.1017],[-43.4853,-22.1128],[-43.4876,-22.1069],[-43.4934,-22.1143],[-43.4919,-22.123],[-43.4832,-22.1235],[-43.4856,-22.1271],[-43.4919,-22.123],[-43.4944,-22.13],[-43.4897,-22.108],[-43.4953,-22.1056],[-43.5085,-22.1216],[-43.5027,-22.1265],[-43.5103,-22.1278],[-43.4973,-22.1463],[-43.5086,-22.1288],[-43.5074,-22.1464],[-43.5102,-22.1399],[-43.5168,-22.144],[-43.5102,-22.1399],[-43.5088,-22.1287],[-43.5103,-22.1279]]]}},{"type":"Feature","properties":{"cod_tema":"RIO_ATE_10","cod_imovel":"RJ-3304508-8D9134AD19C64B94B46C2667CD3D768C","ind_status":"AT"},"geometry":{"type":"Polygon","coordinates":[[[-43.5367,-22.1304],[-43.5331,-22.125],[-43.5303,-22.1324],[-43.5334,-22.1273],[-43.5371,-22.1308],[-43.5367,-22.1304]]]}},{"type":"Feature","properties":{"cod_tema":"RIO_ATE_10","cod_imovel":"RJ-3304508-96973C18867B49D1A0D696C7B2C45F27","ind_status":"AT"},"geometry":{"type":"Polygon","coordinates":[[[-43.4594,-22.1843],[-43.462,-22.187],[-43.4594,-22.1843],[-43.4594,-22.1843]]]}},{"type":"Feature","properties":{"cod_tema":"RIO_ATE_10","cod_imovel":"RJ-3304508-A553DE5686B642AC9D3FBE5BF82F1696","ind_status":"AT"},"geometry":{"type":"Polygon","coordinates":[[[-43.5253,-22.0946],[-43.5301,-22.0882],[-43.5268,-22.0939],[-43.5222,-22.0929],[-43.5257,-22.0952],[-43.5253,-22.0946]],[[-43.5336,-22.1014],[-43.5405,-22.1022],[-43.5327,-22.1013],[-43.5336,-22.1014]],[[-43.5219,-22.0974],[-43.5344,-22.1065],[-43.5219,-22.0961],[-43.5219,-22.0974]],[[-43.5297,-22.0978],[-43.5406,-22.0956],[-43.5324,-22.0945],[-43.5326,-22.0891],[-43.5293,-22.099],[-43.5297,-22.0978]],[[-43.5399,-22.094],[-43.5378,-22.0908],[-43.5397,-22.0946],[-43.5399,-22.094]],[[-43.5454,-22.0876],[-43.5447,-22.0842],[-43.546,-22.0875],[-43.5454,-22.0876]]]}},{"type":"Feature","properties":{"cod_tema":"RIO_ATE_10","cod_imovel":"RJ-3304508-A79F479DDE12482FB25A305CCF846A04","ind_status":"AT"},"geometry":{"type":"Polygon","coordinates":[[[-43.5971,-22.1906],[-43.5947,-22.1924],[-43.5975,-22.1904],[-43.5971,-22.1906]],[[-43.5973,-22.1942],[-43.5997,-22.1886],[-43.5974,-22.1947],[-43.5973,-22.1942]]]}},{"type":"Feature","properties":{"cod_tema":"RIO_ATE_10","cod_imovel":"RJ-3304508-ADAFBDDD811547B7B7D3566FFBDC3FBA","ind_status":"AT"},"geometry":{"type":"Polygon","coordinates":[[[-43.5773,-22.1618],[-43.5804,-22.1603],[-43.5772,-22.162],[-43.5773,-22.1618]],[[-43.5782,-22.1537],[-43.5629,-22.1641],[-43.5786,-22.1536],[-43.5782,-22.1537]]]}},{"type":"Feature","properties":{"cod_tema":"RIO_ATE_10","cod_imovel":"RJ-3304508-A53C23A4147744AC9C4E45864F316BFF","ind_status":"AT"},"geometry":{"type":"Polygon","coordinates":[[[-43.5162,-22.0933],[-43.5126,-22.0803],[-43.5141,-22.0887],[-43.5058,-22.0961],[-43.5114,-22.0899],[-43.5107,-22.0979],[-43.5123,-22.0923],[-43.5155,-22.096],[-43.514,-22.0887],[-43.5161,-22.0932],[-43.5162,-22.0933]],[[-43.5192,-22.0862],[-43.5148,-22.0895],[-43.5192,-22.086],[-43.5192,-22.0862]],[[-43.5214,-22.097],[-43.5179,-22.0964],[-43.5217,-22.0971],[-43.5214,-22.097]],[[-43.5279,-22.0928],[-43.5223,-22.0928],[-43.5225,-22.0842],[-43.5223,-22.0928],[-43.528,-22.0927],[-43.5279,-22.0928]]]}},{"type":"Feature","properties":{"cod_tema":"RIO_ATE_10","cod_imovel":"RJ-3304508-BCDFC22B4A114DCEBF90F14E130809B5","ind_status":"AT"},"geometry":{"type":"Polygon","coordinates":[[[-43.6207,-22.1831],[-43.6175,-22.1807],[-43.6207,-22.1831],[-43.6207,-22.1831]]]}},{"type":"Feature","properties":{"cod_tema":"RIO_ATE_10","cod_imovel":"RJ-3304508-B3B21A4B5E2A41EEBEF5D43241081A43","ind_status":"AT"},"geometry":{"type":"Polygon","coordinates":[[[-43.4374,-22.1088],[-43.4445,-22.0968],[-43.4372,-22.1097],[-43.4374,-22.1088]]]}},{"type":"Feature","properties":{"cod_tema":"RIO_ATE_10","cod_imovel":"RJ-3304508-BB7D59504D284B46AFEE4B062C87CEEA","ind_status":"AT"},"geometry":{"type":"Polygon","coordinates":[[[-43.564,-22.1272],[-43.5606,-22.1167],[-43.5647,-22.1279],[-43.564,-22.1272]]]}},{"type":"Feature","properties":{"cod_tema":"RIO_ATE_10","cod_imovel":"RJ-3304508-BBAE9E83896B42FD94EE293BC1384F48","ind_status":"AT"},"geometry":{"type":"Polygon","coordinates":[[[-43.6372,-22.1649],[-43.6467,-22.1599],[-43.6382,-22.1603],[-43.6371,-22.1656],[-43.6372,-22.1649]]]}},{"type":"Feature","properties":{"cod_tema":"RIO_ATE_10","cod_imovel":"RJ-3304508-BF2D0C4D18054EC3AAEED12B5CD9DCEE","ind_status":"AT"},"geometry":{"type":"Polygon","coordinates":[[[-43.6412,-22.1759],[-43.6371,-22.1809],[-43.6413,-22.1758],[-43.6412,-22.1759]],[[-43.6388,-22.1852],[-43.643,-22.1795],[-43.6387,-22.1853],[-43.6388,-22.1852]]]}},{"type":"Feature","properties":{"cod_tema":"RIO_ATE_10","cod_imovel":"RJ-3304508-C162BC5A3F7A4EF2BF6C4832CD667713","ind_status":"AT"},"geometry":{"type":"Polygon","coordinates":[[[-43.5887,-22.2633],[-43.596,-22.2604],[-43.5879,-22.2585],[-43.5918,-22.2592],[-43.5871,-22.2635],[-43.5887,-22.2633]]]}},{"type":"Feature","properties":{"cod_tema":"RIO_ATE_10","cod_imovel":"RJ-3304508-C4558398B8D04553ABB94F9EF36E3732","ind_status":"AT"},"geometry":{"type":"Polygon","coordinates":[[[-43.4706,-22.1764],[-43.4666,-22.1752],[-43.4729,-22.1799],[-43.4656,-22.1811],[-43.4734,-22.18],[-43.4706,-22.1765],[-43.4706,-22.1764]]]}},{"type":"Feature","properties":{"cod_tema":"RIO_ATE_10","cod_imovel":"RJ-3304508-CD13DAB182FF44EF830A977EFE484286","ind_status":"AT"},"geometry":{"type":"Polygon","coordinates":[[[-43.6218,-22.1488],[-43.6254,-22.1454],[-43.6216,-22.1489],[-43.6218,-22.1488]],[[-43.6253,-22.1451],[-43.6279,-22.1403],[-43.6255,-22.1453],[-43.6253,-22.1451]]]}},{"type":"Feature","properties":{"cod_tema":"RIO_ATE_10","cod_imovel":"RJ-3304508-CFBB0BFEF3384C199325944ABA9D7B36","ind_status":"AT"},"geometry":{"type":"Polygon","coordinates":[[[-43.6201,-22.1728],[-43.6234,-22.1723],[-43.6137,-22.1696],[-43.6208,-22.1736],[-43.6201,-22.1728]]]}},{"type":"Feature","properties":{"cod_tema":"RIO_ATE_10","cod_imovel":"RJ-3304508-D3426DBD4B9F4F03B7EE0F85E9CB2778","ind_status":"AT"},"geometry":{"type":"Polygon","coordinates":[[[-43.5731,-22.0857],[-43.5684,-22.0861],[-43.5732,-22.0856],[-43.5731,-22.0857]],[[-43.5761,-22.0893],[-43.575,-22.0851],[-43.5762,-22.0895],[-43.5761,-22.0893]],[[-43.5799,-22.0855],[-43.584,-22.0863],[-43.58,-22.0855],[-43.5799,-22.0855]],[[-43.5802,-22.0886],[-43.5789,-22.0947],[-43.5803,-22.0883],[-43.5802,-22.0886]],[[-43.584,-22.0873],[-43.5832,-22.0905],[-43.5839,-22.0874],[-43.584,-22.0873]],[[-43.5874,-22.0899],[-43.5838,-22.0966],[-43.5875,-22.0896],[-43.5874,-22.0899]]]}},{"type":"Feature","properties":{"cod_tema":"RIO_10_A_50","cod_imovel":"RJ-3304508-D3426DBD4B9F4F03B7EE0F85E9CB2778","ind_status":"AT"},"geometry":{"type":"Polygon","coordinates":[[[-43.5823,-22.0982],[-43.5677,-22.0904],[-43.5827,-22.0979],[-43.5823,-22.0982]]]}},{"type":"Feature","properties":{"cod_tema":"RIO_ATE_10","cod_imovel":"RJ-3304508-D45BE8D9B1EC4EE3A7AAD81CD72633F8","ind_status":"AT"},"geometry":{"type":"Polygon","coordinates":[[[-43.654,-22.1832],[-43.6568,-22.1817],[-43.6538,-22.1832],[-43.654,-22.1832]],[[-43.6595,-22.1787],[-43.6541,-22.1795],[-43.6597,-22.1788],[-43.6595,-22.1787]]]}},{"type":"Feature","properties":{"cod_tema":"RIO_ATE_10","cod_imovel":"RJ-3304508-E0CDA0B0C2CF4A00B0E802C441E882BC","ind_status":"AT"},"geometry":{"type":"Polygon","coordinates":[[[-43.6298,-22.1824],[-43.6322,-22.1796],[-43.6299,-22.1826],[-43.6298,-22.1824]],[[-43.6323,-22.1762],[-43.6249,-22.1792],[-43.6324,-22.1761],[-43.6323,-22.1762]]]}},{"type":"Feature","properties":{"cod_tema":"RIO_ATE_10","cod_imovel":"RJ-3304508-DCE224FFF6804D4A8BCC2A20648013AB","ind_status":"AT"},"geometry":{"type":"Polygon","coordinates":[[[-43.6554,-22.1746],[-43.65,-22.1742],[-43.6555,-22.1748],[-43.6554,-22.1746]]]}},{"type":"Feature","properties":{"cod_tema":"RIO_ATE_10","cod_imovel":"RJ-3304508-DFA75FE0B01F422F85A3BCDDD603AA44","ind_status":"AT"},"geometry":{"type":"Polygon","coordinates":[[[-43.6292,-22.1281],[-43.6279,-22.125],[-43.6293,-22.1282],[-43.6292,-22.1281]]]}},{"type":"Feature","properties":{"cod_tema":"RIO_ATE_10","cod_imovel":"RJ-3304508-E6EBC0D45D2F428192CA3156B1D283CA","ind_status":"AT"},"geometry":{"type":"Polygon","coordinates":[[[-43.4892,-22.1834],[-43.4841,-22.1869],[-43.4793,-22.1825],[-43.4842,-22.187],[-43.491,-22.1867],[-43.4893,-22.1833],[-43.4892,-22.1834]]]}},{"type":"Feature","properties":{"cod_tema":"RIO_ATE_10","cod_imovel":"RJ-3304508-EE5FEEE272DD48ACBD18CFDE229D82E6","ind_status":"AT"},"geometry":{"type":"Polygon","coordinates":[[[-43.6285,-22.1964],[-43.6246,-22.1999],[-43.6287,-22.1963],[-43.6285,-22.1964]]]}},{"type":"Feature","properties":{"cod_tema":"RIO_ATE_10","cod_imovel":"RJ-3304508-EE74EE7F000542438A9E7F513F166CE8","ind_status":"AT"},"geometry":{"type":"Polygon","coordinates":[[[-43.5175,-22.1946],[-43.5123,-22.2024],[-43.5203,-22.1956],[-43.5175,-22.1945],[-43.5175,-22.1946]]]}},{"type":"Feature","properties":{"cod_tema":"RIO_ATE_10","cod_imovel":"RJ-3304508-F971783CBB8D4681853D690150351452","ind_status":"AT"},"geometry":{"type":"Polygon","coordinates":[[[-43.5634,-22.1636],[-43.5692,-22.161],[-43.5627,-22.1647],[-43.5634,-22.1636]]]}},{"type":"Feature","properties":{"cod_tema":"RIO_ATE_10","cod_imovel":"RJ-3304508-FAF50BEB9BA94772936919200AB4C8A9","ind_status":"AT"},"geometry":{"type":"Polygon","coordinates":[[[-43.6277,-22.1986],[-43.6227,-22.2013],[-43.6291,-22.1983],[-43.6277,-22.1986]]]}},{"type":"Feature","properties":{"cod_tema":"RIO_ATE_10","cod_imovel":"RJ-3304508-4FCFABFDB2E645089BC1096C0647C771","ind_status":"AT"},"geometry":{"type":"Polygon","coordinates":[[[-43.4714,-22.2116],[-43.4695,-22.215],[-43.4714,-22.2115],[-43.4714,-22.2116]],[[-43.4672,-22.214],[-43.4666,-22.2094],[-43.4672,-22.214],[-43.4672,-22.214]]]}},{"type":"Feature","properties":{"cod_tema":"RIO_50_A_200","cod_imovel":"RJ-3304508-4FCFABFDB2E645089BC1096C0647C771","ind_status":"AT"},"geometry":{"type":"Polygon","coordinates":[[[-43.4702,-22.2258],[-43.4734,-22.2178],[-43.468,-22.2141],[-43.452,-22.22],[-43.452,-22.2257],[-43.4672,-22.2154],[-43.4716,-22.217],[-43.4701,-22.2255],[-43.4702,-22.2258]]]}},{"type":"Feature","properties":{"cod_tema":"RIO_ATE_10","cod_imovel":"RJ-3304508-C741F4D38445457B81D4712BF1F7635E","ind_status":"AT"},"geometry":{"type":"Polygon","coordinates":[[[-43.4253,-22.1312],[-43.4335,-22.1343],[-43.4253,-22.1312],[-43.4253,-22.1312]]]}},{"type":"Feature","properties":{"cod_tema":"RIO_ATE_10","cod_imovel":"RJ-3304508-48073640B90347268F75D1352CF90B49","ind_status":"AT"},"geometry":{"type":"Polygon","coordinates":[[[-43.5209,-22.2447],[-43.5195,-22.2415],[-43.521,-22.245],[-43.5209,-22.2447]]]}},{"type":"Feature","properties":{"cod_tema":"RIO_ATE_10","cod_imovel":"RJ-3304508-BD455A3EC61D4521B665DABCEF0868F4","ind_status":"AT"},"geometry":{"type":"Polygon","coordinates":[[[-43.5461,-22.2052],[-43.5491,-22.2103],[-43.5463,-22.2055],[-43.5573,-22.2079],[-43.5463,-22.2055],[-43.5461,-22.2052]],[[-43.5673,-22.2131],[-43.5633,-22.2087],[-43.5693,-22.2094],[-43.5639,-22.2081],[-43.5547,-22.2187],[-43.5497,-22.2172],[-43.5567,-22.2114],[-43.5462,-22.22],[-43.5635,-22.2112],[-43.5675,-22.2136],[-43.5673,-22.2131]],[[-43.5519,-22.1989],[-43.5596,-22.2048],[-43.5521,-22.199],[-43.5519,-22.1989]],[[-43.5585,-22.2266],[-43.5595,-22.2224],[-43.5585,-22.2265],[-43.5522,-22.2252],[-43.5585,-22.2265],[-43.5585,-22.2266]],[[-43.5596,-22.1972],[-43.5532,-22.1956],[-43.5594,-22.1971],[-43.5596,-22.1972]],[[-43.5659,-22.2314],[-43.563,-22.2256],[-43.562,-22.232],[-43.5662,-22.2314],[-43.5659,-22.2314]],[[-43.564,-22.218],[-43.5678,-22.2272],[-43.5652,-22.2201],[-43.5684,-22.2167],[-43.5639,-22.2178],[-43.564,-22.218]],[[-43.571,-22.2171],[-43.5719,-22.2274],[-43.5709,-22.2164],[-43.571,-22.2171]],[[-43.5804,-22.2238],[-43.5772,-22.2179],[-43.5769,-22.2295],[-43.5809,-22.2239],[-43.5804,-22.2238]],[[-43.5829,-22.223],[-43.5818,-22.2293],[-43.5827,-22.2235],[-43.5829,-22.223]]]}},{"type":"Feature","properties":{"cod_tema":"RIO_ATE_10","cod_imovel":"RJ-3304508-E1259285C8A3402FA45DF4C482C377CA","ind_status":"AT"},"geometry":{"type":"Polygon","coordinates":[[[-43.5394,-22.1264],[-43.5357,-22.1207],[-43.5333,-22.1246],[-43.5394,-22.1264],[-43.5394,-22.1264]]]}},{"type":"Feature","properties":{"cod_tema":"RIO_ATE_10","cod_imovel":"RJ-3304508-D1C39051F8834145888CF0AF17CA4005","ind_status":"AT"},"geometry":{"type":"Polygon","coordinates":[[[-43.6455,-22.1849],[-43.6469,-22.1885],[-43.6455,-22.1849],[-43.6455,-22.1849]]]}},{"type":"Feature","properties":{"cod_tema":"RIO_ATE_10","cod_imovel":"RJ-3304508-E84EE919302C4DB48F33C65361FE9FB0","ind_status":"PE"},"geometry":{"type":"Polygon","coordinates":[[[-43.5094,-22.102],[-43.5008,-22.104],[-43.5104,-22.1017],[-43.5094,-22.102]],[[-43.5147,-22.1147],[-43.5166,-22.1022],[-43.5236,-22.108],[-43.5194,-22.1155],[-43.5237,-22.108],[-43.516,-22.0961],[-43.5143,-22.1156],[-43.5147,-22.1147]]]}},{"type":"Feature","properties":{"cod_tema":"RIO_ATE_10","cod_imovel":"RJ-3304508-7891D8CDE0CD47F2AF001D9B744CDED9","ind_status":"AT"},"geometry":{"type":"Polygon","coordinates":[[[-43.6204,-22.1301],[-43.6186,-22.1266],[-43.6203,-22.1303],[-43.6204,-22.1301]]]}},{"type":"Feature","properties":{"cod_tema":"RIO_ATE_10","cod_imovel":"RJ-3304508-0C2181FB2AA045A48CE16863790A09B8","ind_status":"AT"},"geometry":{"type":"Polygon","coordinates":[[[-43.6188,-22.141],[-43.6171,-22.1374],[-43.6127,-22.1425],[-43.6165,-22.1401],[-43.6168,-22.1451],[-43.617,-22.1388],[-43.6188,-22.1412],[-43.6188,-22.141]]]}},{"type":"Feature","properties":{"cod_tema":"RIO_ATE_10","cod_imovel":"RJ-3304508-0A46F17090104D488F28A1483DBA1BF9","ind_status":"AT"},"geometry":{"type":"Polygon","coordinates":[[[-43.605,-22.1485],[-43.6063,-22.1517],[-43.605,-22.1485],[-43.605,-22.1485]]]}},{"type":"Feature","properties":{"cod_tema":"RIO_ATE_10","cod_imovel":"RJ-3304508-7C130A1CFCE74D2E885BAEC715C78323","ind_status":"AT"},"geometry":{"type":"Polygon","coordinates":[[[-43.6461,-22.1497],[-43.6489,-22.1485],[-43.6459,-22.1499],[-43.6461,-22.1497]],[[-43.6495,-22.1555],[-43.6489,-22.1484],[-43.6494,-22.1558],[-43.6495,-22.1555]]]}},{"type":"Feature","properties":{"cod_tema":"RIO_ATE_10","cod_imovel":"RJ-3304508-A1EAF050CF1A4E6DB69D30331E655235","ind_status":"AT"},"geometry":{"type":"Polygon","coordinates":[[[-43.5124,-22.1179],[-43.5087,-22.1209],[-43.5129,-22.1175],[-43.5124,-22.1179]],[[-43.5229,-22.1189],[-43.5254,-22.1166],[-43.5226,-22.1191],[-43.5229,-22.1189]],[[-43.5165,-22.1201],[-43.5187,-22.1166],[-43.5164,-22.1203],[-43.5165,-22.1201]],[[-43.5237,-22.1196],[-43.5199,-22.1165],[-43.5237,-22.1197],[-43.5237,-22.1196]]]}},{"type":"Feature","properties":{"cod_tema":"RIO_ATE_10","cod_imovel":"RJ-3304508-096BC15340234A12BFCBDB93448AB74B","ind_status":"AT"},"geometry":{"type":"Polygon","coordinates":[[[-43.6168,-22.1959],[-43.6129,-22.1986],[-43.617,-22.1958],[-43.6168,-22.1959]]]}},{"type":"Feature","properties":{"cod_tema":"RIO_ATE_10","cod_imovel":"RJ-3304508-461CED4BD6204CE4B58F2C9AFAC9E57C","ind_status":"AT"},"geometry":{"type":"Polygon","coordinates":[[[-43.5939,-22.1802],[-43.5981,-22.1779],[-43.5938,-22.1803],[-43.5939,-22.1802]]]}},{"type":"Feature","properties":{"cod_tema":"RIO_ATE_10","cod_imovel":"RJ-3304508-889F8DFB728147AC80C5362282DD8F14","ind_status":"AT"},"geometry":{"type":"Polygon","coordinates":[[[-43.6079,-22.1981],[-43.6048,-22.1921],[-43.608,-22.1981],[-43.6079,-22.1981]]]}},{"type":"Feature","properties":{"cod_tema":"RIO_ATE_10","cod_imovel":"RJ-3304508-7035768F3029446BBA1FB16E16B51CF8","ind_status":"AT"},"geometry":{"type":"Polygon","coordinates":[[[-43.5797,-22.2307],[-43.5718,-22.2276],[-43.5717,-22.2334],[-43.5671,-22.2256],[-43.569,-22.2313],[-43.564,-22.2319],[-43.5631,-22.2273],[-43.562,-22.2319],[-43.5693,-22.2312],[-43.5783,-22.2403],[-43.5717,-22.2328],[-43.5797,-22.2307],[-43.5797,-22.2307]],[[-43.565,-22.2393],[-43.5688,-22.237],[-43.5649,-22.2394],[-43.565,-22.2393]],[[-43.5665,-22.241],[-43.5707,-22.2393],[-43.5664,-22.2411],[-43.5665,-22.241]],[[-43.5726,-22.2436],[-43.5753,-22.2408],[-43.5725,-22.2437],[-43.5726,-22.2436]],[[-43.5773,-22.2452],[-43.5779,-22.2417],[-43.5779,-22.2502],[-43.5773,-22.2453],[-43.5871,-22.2395],[-43.5772,-22.2453],[-43.5773,-22.2452]],[[-43.5861,-22.2443],[-43.5824,-22.2527],[-43.5889,-22.2406],[-43.5862,-22.2444],[-43.5861,-22.2443]],[[-43.5864,-22.2555],[-43.5883,-22.2516],[-43.5864,-22.2556],[-43.5864,-22.2555]]]}},{"type":"Feature","properties":{"cod_tema":"RIO_ATE_10","cod_imovel":"RJ-3304508-AD5CA6BA8961478B9BF3E7E43D75DDDB","ind_status":"AT"},"geometry":{"type":"Polygon","coordinates":[[[-43.5219,-22.2702],[-43.5188,-22.2628],[-43.5221,-22.2705],[-43.5219,-22.2702]]]}},{"type":"Feature","properties":{"cod_tema":"RIO_ATE_10","cod_imovel":"RJ-3304508-74BFD08950EA4E44946129A47480D69B","ind_status":"AT"},"geometry":{"type":"Polygon","coordinates":[[[-43.5177,-22.2569],[-43.5188,-22.2627],[-43.5176,-22.2563],[-43.5177,-22.2569]]]}},{"type":"Feature","properties":{"cod_tema":"RIO_ATE_10","cod_imovel":"RJ-3304508-D32570379328463DA39D38E965F72299","ind_status":"AT"},"geometry":{"type":"Polygon","coordinates":[[[-43.4826,-22.2106],[-43.4801,-22.2133],[-43.4854,-22.2096],[-43.4826,-22.2106]],[[-43.4783,-22.2125],[-43.4817,-22.2075],[-43.4781,-22.2129],[-43.4783,-22.2125]]]}},{"type":"Feature","properties":{"cod_tema":"RIO_ATE_10","cod_imovel":"RJ-3304508-77B1C767C7A645628C4D5FAF890D12BD","ind_status":"AT"},"geometry":{"type":"Polygon","coordinates":[[[-43.6152,-22.1591],[-43.6118,-22.1617],[-43.6155,-22.159],[-43.6152,-22.1591]]]}},{"type":"Feature","properties":{"cod_tema":"RIO_ATE_10","cod_imovel":"RJ-3304508-5817F6E09AAA442882BE06B516A75F54","ind_status":"PE"},"geometry":{"type":"Polygon","coordinates":[[[-43.4649,-22.1031],[-43.4706,-22.0963],[-43.4647,-22.1032],[-43.4649,-22.1031]]]}},{"type":"Feature","properties":{"cod_tema":"RIO_ATE_10","cod_imovel":"RJ-3304508-5817F6E09AAA442882BE06B516A75F54","ind_status":"PE"},"geometry":{"type":"Polygon","coordinates":[[[-43.4517,-22.0901],[-43.4506,-22.0956],[-43.4646,-22.1032],[-43.4628,-22.1086],[-43.4647,-22.1032],[-43.4506,-22.0955],[-43.452,-22.0894],[-43.4517,-22.0901]]]}},{"type":"Feature","properties":{"cod_tema":"RIO_ATE_10","cod_imovel":"RJ-3304508-5817F6E09AAA442882BE06B516A75F54","ind_status":"PE"},"geometry":{"type":"Polygon","coordinates":[[[-43.4505,-22.0958],[-43.444,-22.0964],[-43.4505,-22.0956],[-43.4505,-22.0958]]]}},{"type":"Feature","properties":{"cod_tema":"RIO_ATE_10","cod_imovel":"RJ-3304508-B4C84DE955F74166ADCC1B8A17D520DF","ind_status":"AT"},"geometry":{"type":"Polygon","coordinates":[[[-43.5348,-22.1871],[-43.5312,-22.1866],[-43.5313,-22.1726],[-43.5316,-22.1885],[-43.5254,-22.1881],[-43.5269,-22.1811],[-43.5221,-22.195],[-43.5243,-22.188],[-43.5349,-22.1872],[-43.5348,-22.1871]],[[-43.5515,-22.1811],[-43.5495,-22.1758],[-43.5496,-22.1808],[-43.544,-22.1801],[-43.5448,-22.1749],[-43.544,-22.18],[-43.5403,-22.179],[-43.5414,-22.175],[-43.5354,-22.1846],[-43.5402,-22.179],[-43.5515,-22.1811],[-43.5515,-22.1811]]]}},{"type":"Feature","properties":{"cod_tema":"RIO_ATE_10","cod_imovel":"RJ-3304508-8A143352A2D141AE81BD99C303D475DD","ind_status":"AT"},"geometry":{"type":"Polygon","coordinates":[[[-43.5207,-22.1779],[-43.5138,-22.1785],[-43.5207,-22.1779],[-43.5207,-22.1779]],[[-43.5231,-22.1873],[-43.5195,-22.1807],[-43.5213,-22.1847],[-43.5156,-22.1846],[-43.5231,-22.1873],[-43.5231,-22.1873]]]}},{"type":"Feature","properties":{"cod_tema":"RIO_ATE_10","cod_imovel":"RJ-3304508-1B420C9D557545B684EBC555D3F42E8B","ind_status":"AT"},"geometry":{"type":"Polygon","coordinates":[[[-43.5886,-22.1395],[-43.5879,-22.1429],[-43.5886,-22.1393],[-43.5886,-22.1395]],[[-43.5953,-22.1433],[-43.5919,-22.1466],[-43.5956,-22.1431],[-43.5953,-22.1433]],[[-43.6097,-22.1425],[-43.6067,-22.132],[-43.6074,-22.137],[-43.6019,-22.1382],[-43.6071,-22.14],[-43.6006,-22.1418],[-43.6071,-22.14],[-43.6096,-22.1446],[-43.6026,-22.1498],[-43.6097,-22.1425],[-43.6097,-22.1425]]]}},{"type":"Feature","properties":{"cod_tema":"RIO_ATE_10","cod_imovel":"RJ-3304508-CEE580A673234C8F850B98554C64EEFA","ind_status":"AT"},"geometry":{"type":"Polygon","coordinates":[[[-43.584,-22.1352],[-43.5677,-22.1332],[-43.5731,-22.1422],[-43.5695,-22.1358],[-43.584,-22.1352],[-43.584,-22.1352]]]}},{"type":"Feature","properties":{"cod_tema":"RIO_ATE_10","cod_imovel":"RJ-3304508-53651F4B6A8C48BABFE15E923B15371F","ind_status":"AT"},"geometry":{"type":"Polygon","coordinates":[[[-43.5945,-22.164],[-43.594,-22.1686],[-43.597,-22.1646],[-43.5887,-22.1645],[-43.5945,-22.164],[-43.5945,-22.164]]]}},{"type":"Feature","properties":{"cod_tema":"RIO_ATE_10","cod_imovel":"RJ-3304508-11B25A26164F4467A4D6452AE242F2DC","ind_status":"AT"},"geometry":{"type":"Polygon","coordinates":[[[-43.4559,-22.2034],[-43.4543,-22.1971],[-43.4473,-22.1946],[-43.452,-22.1986],[-43.4495,-22.2028],[-43.452,-22.1986],[-43.4559,-22.2034],[-43.4559,-22.2034]]]}},{"type":"Feature","properties":{"cod_tema":"RIO_ATE_10","cod_imovel":"RJ-3304508-25F21C629FB7406099DC726E8402EFF1","ind_status":"AT"},"geometry":{"type":"Polygon","coordinates":[[[-43.6622,-22.1211],[-43.6447,-22.1185],[-43.6629,-22.1216],[-43.6622,-22.1211]]]}},{"type":"Feature","properties":{"cod_tema":"RIO_ATE_10","cod_imovel":"RJ-3304508-25F21C629FB7406099DC726E8402EFF1","ind_status":"AT"},"geometry":{"type":"Polygon","coordinates":[[[-43.653,-22.1175],[-43.651,-22.1201],[-43.6541,-22.1166],[-43.653,-22.1175]]]}},{"type":"Feature","properties":{"cod_tema":"RIO_ATE_10","cod_imovel":"RJ-3304508-25F21C629FB7406099DC726E8402EFF1","ind_status":"AT"},"geometry":{"type":"Polygon","coordinates":[[[-43.6541,-22.1234],[-43.6544,-22.12],[-43.6537,-22.1243],[-43.6541,-22.1234]]]}},{"type":"Feature","properties":{"cod_tema":"RIO_ATE_10","cod_imovel":"RJ-3304508-25F21C629FB7406099DC726E8402EFF1","ind_status":"AT"},"geometry":{"type":"Polygon","coordinates":[[[-43.6608,-22.1248],[-43.6564,-22.1265],[-43.6615,-22.1241],[-43.6608,-22.1248]]]}},{"type":"Feature","properties":{"cod_tema":"RIO_ATE_10","cod_imovel":"RJ-3304508-25F21C629FB7406099DC726E8402EFF1","ind_status":"AT"},"geometry":{"type":"Polygon","coordinates":[[[-43.6628,-22.1269],[-43.6611,-22.1303],[-43.6635,-22.1262],[-43.6628,-22.1269]]]}},{"type":"Feature","properties":{"cod_tema":"RIO_ATE_10","cod_imovel":"RJ-3304508-0D869E9016C34D558C2A2E6CDB801757","ind_status":"AT"},"geometry":{"type":"Polygon","coordinates":[[[-43.5849,-22.154],[-43.5805,-22.1556],[-43.5841,-22.151],[-43.5771,-22.1504],[-43.5844,-22.1476],[-43.577,-22.1504],[-43.5738,-22.1428],[-43.5808,-22.1565],[-43.5855,-22.1546],[-43.5849,-22.154]],[[-43.5877,-22.1428],[-43.5761,-22.1421],[-43.5878,-22.1428],[-43.5877,-22.1428]]]}},{"type":"Feature","properties":{"cod_tema":"RIO_ATE_10","cod_imovel":"RJ-3304508-2A95283A497E4E33A552E20378105861","ind_status":"AT"},"geometry":{"type":"Polygon","coordinates":[[[-43.6416,-22.1363],[-43.6412,-22.1436],[-43.6472,-22.1457],[-43.6485,-22.1425],[-43.6413,-22.1436],[-43.6412,-22.1363],[-43.6416,-22.1363]]]}},{"type":"Feature","properties":{"cod_tema":"RIO_ATE_10","cod_imovel":"RJ-3304508-EEAAADF8D52749ACB126AF2EA0A1FFFD","ind_status":"AT"},"geometry":{"type":"Polygon","coordinates":[[[-43.5686,-22.0838],[-43.5719,-22.0826],[-43.5684,-22.0838],[-43.5686,-22.0838]],[[-43.58,-22.0857],[-43.5833,-22.0858],[-43.5755,-22.0824],[-43.5694,-22.086],[-43.5799,-22.0855],[-43.58,-22.0857]],[[-43.573,-22.0787],[-43.5754,-22.0821],[-43.573,-22.0786],[-43.573,-22.0787]],[[-43.5775,-22.0749],[-43.5798,-22.0793],[-43.5774,-22.0749],[-43.5775,-22.0749]],[[-43.5865,-22.0785],[-43.5832,-22.0811],[-43.5895,-22.0819],[-43.5843,-22.0733],[-43.5866,-22.0779],[-43.5865,-22.0785]]]}},{"type":"Feature","properties":{"cod_tema":"RIO_10_A_50","cod_imovel":"RJ-3304508-EEAAADF8D52749ACB126AF2EA0A1FFFD","ind_status":"AT"},"geometry":{"type":"Polygon","coordinates":[[[-43.5818,-22.0705],[-43.5724,-22.0779],[-43.5817,-22.0709],[-43.5818,-22.0705]]]}},{"type":"Feature","properties":{"cod_tema":"RIO_ATE_10","cod_imovel":"RJ-3304508-86EED95E91914494A4B0B83F9F4A2B31","ind_status":"AT"},"geometry":{"type":"Polygon","coordinates":[[[-43.5872,-22.0983],[-43.5898,-22.0896],[-43.5871,-22.0984],[-43.5872,-22.0983]],[[-43.5997,-22.0904],[-43.5949,-22.0889],[-43.5876,-22.0999],[-43.5934,-22.1008],[-43.5948,-22.0968],[-43.5932,-22.1008],[-43.59,-22.0981],[-43.5995,-22.0904],[-43.5996,-22.0951],[-43.5996,-22.0904],[-43.5997,-22.0904]]]}},{"type":"Feature","properties":{"cod_tema":"RIO_10_A_50","cod_imovel":"RJ-3304508-86EED95E91914494A4B0B83F9F4A2B31","ind_status":"AT"},"geometry":{"type":"Polygon","coordinates":[[[-43.5932,-22.1017],[-43.5837,-22.0984],[-43.5924,-22.1016],[-43.5932,-22.1017]]]}},{"type":"Feature","properties":{"cod_tema":"RIO_ATE_10","cod_imovel":"RJ-3304508-124BD1229AEE4ECC8677EAD2B7451C12","ind_status":"AT"},"geometry":{"type":"Polygon","coordinates":[[[-43.6152,-22.2109],[-43.6044,-22.2159],[-43.5942,-22.2127],[-43.602,-22.2174],[-43.6147,-22.2111],[-43.6152,-22.2109]]]}},{"type":"Feature","properties":{"cod_tema":"RIO_ATE_10","cod_imovel":"RJ-3304508-7D39139CA85B4EE886BAC042F6627B9C","ind_status":"AT"},"geometry":{"type":"Polygon","coordinates":[[[-43.6355,-22.1286],[-43.6432,-22.122],[-43.6354,-22.1283],[-43.6355,-22.1286]],[[-43.6487,-22.1275],[-43.6414,-22.135],[-43.649,-22.1274],[-43.6487,-22.1275]]]}},{"type":"Feature","properties":{"cod_tema":"RIO_10_A_50","cod_imovel":"RJ-3304508-7D39139CA85B4EE886BAC042F6627B9C","ind_status":"AT"},"geometry":{"type":"Polygon","coordinates":[[[-43.6302,-22.1286],[-43.6405,-22.1335],[-43.6391,-22.1383],[-43.642,-22.136],[-43.6307,-22.1288],[-43.6302,-22.1286]]]}},{"type":"Feature","properties":{"cod_tema":"RIO_ATE_10","cod_imovel":"RJ-3304508-BAA85A1F7AD146EAA7AAA4566C4982AD","ind_status":"AT"},"geometry":{"type":"Polygon","coordinates":[[[-43.5976,-22.1061],[-43.6056,-22.0963],[-43.5976,-22.1029],[-43.5905,-22.1016],[-43.5904,-22.1062],[-43.5952,-22.1011],[-43.5988,-22.1037],[-43.5967,-22.1094],[-43.5976,-22.1061],[-43.5976,-22.1061]],[[-43.5908,-22.1001],[-43.5948,-22.0968],[-43.5905,-22.1],[-43.5908,-22.1001]],[[-43.6065,-22.0904],[-43.5949,-22.089],[-43.5905,-22.0974],[-43.5995,-22.0904],[-43.5992,-22.0965],[-43.6001,-22.0902],[-43.6061,-22.0949],[-43.6021,-22.0904],[-43.6066,-22.0905],[-43.6065,-22.0904]],[[-43.6179,-22.0999],[-43.6152,-22.096],[-43.6176,-22.101],[-43.6117,-22.101],[-43.6125,-22.0954],[-43.6074,-22.1045],[-43.6088,-22.0953],[-43.6049,-22.1094],[-43.6179,-22.0999],[-43.6179,-22.0999]],[[-43.6183,-22.0924],[-43.6178,-22.0892],[-43.6088,-22.0918],[-43.6184,-22.0925],[-43.6183,-22.0924]]]}},{"type":"Feature","properties":{"cod_tema":"RIO_ATE_10","cod_imovel":"RJ-3304508-AFC685B952FF46B8B489952730616273","ind_status":"AT"},"geometry":{"type":"Polygon","coordinates":[[[-43.5929,-22.1537],[-43.6004,-22.1534],[-43.5927,-22.1537],[-43.5929,-22.1537]]]}},{"type":"Feature","properties":{"cod_tema":"RIO_ATE_10","cod_imovel":"RJ-3304508-61946F78769E42F8A5EFFAB7BAB87D23","ind_status":"AT"},"geometry":{"type":"Polygon","coordinates":[[[-43.6054,-22.1566],[-43.6012,-22.1536],[-43.6054,-22.1568],[-43.6054,-22.1566]]]}},{"type":"Feature","properties":{"cod_tema":"RIO_ATE_10","cod_imovel":"RJ-3304508-1C2C43D8CBFF4E3E817FB7E46CFAAFBA","ind_status":"AT"},"geometry":{"type":"Polygon","coordinates":[[[-43.5646,-22.1859],[-43.5678,-22.1823],[-43.5641,-22.1766],[-43.5678,-22.1823],[-43.5638,-22.1859],[-43.5646,-22.1859]]]}},{"type":"Feature","properties":{"cod_tema":"RIO_ATE_10","cod_imovel":"RJ-3304508-053316C8287A491D8311DB12DD1208EF","ind_status":"AT"},"geometry":{"type":"Polygon","coordinates":[[[-43.6119,-22.139],[-43.6149,-22.1362],[-43.6119,-22.1391],[-43.6119,-22.139]],[[-43.6171,-22.1372],[-43.6151,-22.1333],[-43.6171,-22.1374],[-43.6171,-22.1372]]]}},{"type":"Feature","properties":{"cod_tema":"RIO_ATE_10","cod_imovel":"RJ-3304508-0E6D717660864F619E91AAED548E4E5E","ind_status":"AT"},"geometry":{"type":"Polygon","coordinates":[[[-43.6186,-22.19],[-43.6197,-22.1932],[-43.6228,-22.1899],[-43.6202,-22.1928],[-43.6178,-22.1893],[-43.6186,-22.19]]]}},{"type":"Feature","properties":{"cod_tema":"RIO_ATE_10","cod_imovel":"RJ-3304508-B51773E2E2BB4431A1F3E47D0A968276","ind_status":"AT"},"geometry":{"type":"Polygon","coordinates":[[[-43.638,-22.1357],[-43.6409,-22.1345],[-43.636,-22.1367],[-43.638,-22.1357]],[[-43.6299,-22.1318],[-43.636,-22.1304],[-43.6418,-22.1357],[-43.6291,-22.1282],[-43.631,-22.1335],[-43.6299,-22.1318]]]}},{"type":"Feature","properties":{"cod_tema":"RIO_ATE_10","cod_imovel":"RJ-3304508-1A21BCB773AF47CBB54D415BA4210CB8","ind_status":"AT"},"geometry":{"type":"Polygon","coordinates":[[[-43.5519,-22.1669],[-43.5534,-22.17],[-43.5518,-22.1668],[-43.5519,-22.1669]],[[-43.545,-22.165],[-43.5454,-22.1692],[-43.5449,-22.1648],[-43.545,-22.165]]]}},{"type":"Feature","properties":{"cod_tema":"RIO_ATE_10","cod_imovel":"RJ-3304508-635AC63D102A47E8996A7A8B4FB2F4D6","ind_status":"AT"},"geometry":{"type":"Polygon","coordinates":[[[-43.6081,-22.1637],[-43.6043,-22.1697],[-43.6083,-22.1635],[-43.6081,-22.1637]]]}},{"type":"Feature","properties":{"cod_tema":"RIO_ATE_10","cod_imovel":"RJ-3304508-FAC9DDDAE7A3404D968D6B03CF02B1A8","ind_status":"AT"},"geometry":{"type":"Polygon","coordinates":[[[-43.4813,-22.1746],[-43.4825,-22.1809],[-43.4814,-22.1744],[-43.4813,-22.1746]]]}},{"type":"Feature","properties":{"cod_tema":"RIO_ATE_10","cod_imovel":"RJ-3304508-A291BDA1E659406F950CF592CA82CC4C","ind_status":"AT"},"geometry":{"type":"Polygon","coordinates":[[[-43.6216,-22.2016],[-43.6129,-22.203],[-43.6085,-22.1985],[-43.616,-22.2086],[-43.614,-22.2022],[-43.6217,-22.2015],[-43.6216,-22.2016]]]}},{"type":"Feature","properties":{"cod_tema":"RIO_ATE_10","cod_imovel":"RJ-3304508-699AF7BB872A4782B8FDB67CC7F44260","ind_status":"AT"},"geometry":{"type":"Polygon","coordinates":[[[-43.5669,-22.2657],[-43.5704,-22.2649],[-43.5669,-22.2657],[-43.5669,-22.2657]]]}},{"type":"Feature","properties":{"cod_tema":"RIO_ATE_10","cod_imovel":"RJ-3304508-699AF7BB872A4782B8FDB67CC7F44260","ind_status":"AT"},"geometry":{"type":"Polygon","coordinates":[[[-43.566,-22.2593],[-43.5638,-22.2463],[-43.5683,-22.2645],[-43.566,-22.2594],[-43.566,-22.2593]]]}},{"type":"Feature","properties":{"cod_tema":"RIO_ATE_10","cod_imovel":"RJ-3304508-699AF7BB872A4782B8FDB67CC7F44260","ind_status":"AT"},"geometry":{"type":"Polygon","coordinates":[[[-43.5737,-22.255],[-43.5654,-22.2586],[-43.5724,-22.2616],[-43.5655,-22.2583],[-43.574,-22.2549],[-43.5716,-22.25],[-43.5739,-22.2548],[-43.5737,-22.255]]]}},{"type":"Feature","properties":{"cod_tema":"RIO_ATE_10","cod_imovel":"RJ-3304508-699AF7BB872A4782B8FDB67CC7F44260","ind_status":"AT"},"geometry":{"type":"Polygon","coordinates":[[[-43.5637,-22.2463],[-43.5613,-22.2435],[-43.5637,-22.2462],[-43.5637,-22.2463]]]}},{"type":"Feature","properties":{"cod_tema":"RIO_ATE_10","cod_imovel":"RJ-3304508-7BDA78E3AB234D18A83B8CC2C1EF0190","ind_status":"AT"},"geometry":{"type":"Polygon","coordinates":[[[-43.4727,-22.0919],[-43.4772,-22.0934],[-43.4719,-22.0913],[-43.4727,-22.0919]]]}},{"type":"Feature","properties":{"cod_tema":"RIO_ATE_10","cod_imovel":"RJ-3304508-7BDA78E3AB234D18A83B8CC2C1EF0190","ind_status":"AT"},"geometry":{"type":"Polygon","coordinates":[[[-43.4747,-22.0819],[-43.4756,-22.0764],[-43.478,-22.0795],[-43.4742,-22.082],[-43.4747,-22.0819]]]}},{"type":"Feature","properties":{"cod_tema":"RIO_ATE_10","cod_imovel":"RJ-3304508-7BDA78E3AB234D18A83B8CC2C1EF0190","ind_status":"AT"},"geometry":{"type":"Polygon","coordinates":[[[-43.4761,-22.0962],[-43.4807,-22.0931],[-43.4762,-22.0965],[-43.4761,-22.0962]]]}},{"type":"Feature","properties":{"cod_tema":"RIO_ATE_10","cod_imovel":"RJ-3304508-E5DAC6444C0747349B9F0D9BC25526EA","ind_status":"AT"},"geometry":{"type":"Polygon","coordinates":[[[-43.596,-22.1732],[-43.592,-22.174],[-43.596,-22.173],[-43.596,-22.1732]]]}},{"type":"Feature","properties":{"cod_tema":"RIO_ATE_10","cod_imovel":"RJ-3304508-F3B24FFE26DB4B49979AC208F3AD80B0","ind_status":"AT"},"geometry":{"type":"Polygon","coordinates":[[[-43.551,-22.1157],[-43.5539,-22.1135],[-43.5513,-22.1152],[-43.551,-22.1157]],[[-43.5546,-22.1182],[-43.545,-22.1228],[-43.5546,-22.1182],[-43.5458,-22.1293],[-43.5546,-22.1258],[-43.5549,-22.1175],[-43.5546,-22.1182]]]}},{"type":"Feature","properties":{"cod_tema":"RIO_ATE_10","cod_imovel":"RJ-3304508-280D58831E8141F79AA082B667F3C067","ind_status":"AT"},"geometry":{"type":"Polygon","coordinates":[[[-43.6527,-22.1681],[-43.6542,-22.1729],[-43.6528,-22.1671],[-43.6527,-22.1681]]]}},{"type":"Feature","properties":{"cod_tema":"RIO_ATE_10","cod_imovel":"RJ-3304508-6CDDFC5027364A37BE845B459084A8AC","ind_status":"AT"},"geometry":{"type":"Polygon","coordinates":[[[-43.5293,-22.1927],[-43.5257,-22.1924],[-43.5295,-22.1927],[-43.5293,-22.1927]],[[-43.5556,-22.1881],[-43.5351,-22.1872],[-43.5348,-22.1947],[-43.5408,-22.1973],[-43.5361,-22.1878],[-43.5432,-22.187],[-43.5472,-22.193],[-43.543,-22.1963],[-43.5471,-22.1935],[-43.5538,-22.2004],[-43.5458,-22.1906],[-43.5558,-22.188],[-43.5556,-22.1881]],[[-43.5577,-22.1827],[-43.5568,-22.1792],[-43.5516,-22.1812],[-43.5577,-22.1827],[-43.5577,-22.1827]]]}},{"type":"Feature","properties":{"cod_tema":"RIO_ATE_10","cod_imovel":"RJ-3304508-1D5392F537054A8794AA51B602BFAF78","ind_status":"AT"},"geometry":{"type":"Polygon","coordinates":[[[-43.5804,-22.2005],[-43.5794,-22.195],[-43.5804,-22.2005],[-43.5804,-22.2005]],[[-43.5814,-22.2021],[-43.5889,-22.2042],[-43.5814,-22.2022],[-43.5814,-22.2021]]]}},{"type":"Feature","properties":{"cod_tema":"RIO_ATE_10","cod_imovel":"RJ-3304508-76ED36340DE24863BF8570D6E50A47CB","ind_status":"AT"},"geometry":{"type":"Polygon","coordinates":[[[-43.6339,-22.1808],[-43.6364,-22.1781],[-43.6334,-22.1812],[-43.6339,-22.1808]]]}},{"type":"Feature","properties":{"cod_tema":"RIO_ATE_10","cod_imovel":"RJ-3304508-4D11E3935CEF4A1A8E7F1A82A1E56C55","ind_status":"AT"},"geometry":{"type":"Polygon","coordinates":[[[-43.5451,-22.1653],[-43.545,-22.1701],[-43.5449,-22.165],[-43.5451,-22.1653]]]}},{"type":"Feature","properties":{"cod_tema":"RIO_ATE_10","cod_imovel":"RJ-3304508-AC8CE258B82C4BC09907D89540CD7933","ind_status":"AT"},"geometry":{"type":"Polygon","coordinates":[[[-43.6126,-22.1984],[-43.6097,-22.1994],[-43.6129,-22.1984],[-43.6126,-22.1984]]]}},{"type":"Feature","properties":{"cod_tema":"RIO_ATE_10","cod_imovel":"RJ-3304508-88054C2A800649AC8ABF4C7612835E6B","ind_status":"AT"},"geometry":{"type":"Polygon","coordinates":[[[-43.5547,-22.1097],[-43.5518,-22.1055],[-43.5511,-22.1099],[-43.5452,-22.1079],[-43.5547,-22.1097],[-43.5547,-22.1097]],[[-43.5496,-22.1115],[-43.554,-22.1122],[-43.5491,-22.1114],[-43.5496,-22.1115]]]}},{"type":"Feature","properties":{"cod_tema":"RIO_ATE_10","cod_imovel":"RJ-3304508-7525E411441A4A1EBF2106DF683551CB","ind_status":"AT"},"geometry":{"type":"Polygon","coordinates":[[[-43.6653,-22.174],[-43.6613,-22.173],[-43.6653,-22.1742],[-43.6653,-22.174]]]}},{"type":"Feature","properties":{"cod_tema":"RIO_ATE_10","cod_imovel":"RJ-3304508-E3A610113DCF40FD992437B38B2DA142","ind_status":"AT"},"geometry":{"type":"Polygon","coordinates":[[[-43.5781,-22.1936],[-43.5794,-22.1992],[-43.5782,-22.1939],[-43.5781,-22.1936]],[[-43.5772,-22.1939],[-43.5741,-22.1974],[-43.5772,-22.1941],[-43.5772,-22.1939]],[[-43.5757,-22.2035],[-43.5783,-22.2002],[-43.5706,-22.2052],[-43.5757,-22.2035],[-43.5757,-22.2035]]]}},{"type":"Feature","properties":{"cod_tema":"RIO_ATE_10","cod_imovel":"RJ-3304508-F5634349552A4E8D906AB6EDE2561E3B","ind_status":"AT"},"geometry":{"type":"Polygon","coordinates":[[[-43.5918,-22.1766],[-43.5949,-22.1835],[-43.5918,-22.1766],[-43.5918,-22.1766]]]}},{"type":"Feature","properties":{"cod_tema":"RIO_ATE_10","cod_imovel":"RJ-3304508-B365F31499A846C890822B028A65D52E","ind_status":"AT"},"geometry":{"type":"Polygon","coordinates":[[[-43.6036,-22.1849],[-43.5976,-22.1853],[-43.6039,-22.1847],[-43.6036,-22.1849]]]}},{"type":"Feature","properties":{"cod_tema":"RIO_ATE_10","cod_imovel":"RJ-3304508-EB2624E03BB041AAA7E8B44EA39259FA","ind_status":"AT"},"geometry":{"type":"Polygon","coordinates":[[[-43.6312,-22.1687],[-43.6273,-22.171],[-43.63,-22.1656],[-43.6316,-22.1684],[-43.6312,-22.1687]]]}},{"type":"Feature","properties":{"cod_tema":"RIO_ATE_10","cod_imovel":"RJ-3304508-28D61B04BC354270B8B45DFB76D0A528","ind_status":"AT"},"geometry":{"type":"Polygon","coordinates":[[[-43.6583,-22.141],[-43.6554,-22.1392],[-43.6605,-22.1399],[-43.6604,-22.1348],[-43.6585,-22.141],[-43.6583,-22.141]]]}},{"type":"Feature","properties":{"cod_tema":"RIO_ATE_10","cod_imovel":"RJ-3304508-6D91379CD09B4FC1B8DFE6DF133153E5","ind_status":"AT"},"geometry":{"type":"Polygon","coordinates":[[[-43.5226,-22.1615],[-43.5189,-22.158],[-43.5126,-22.1602],[-43.523,-22.1618],[-43.5226,-22.1615]]]}},{"type":"Feature","properties":{"cod_tema":"RIO_ATE_10","cod_imovel":"RJ-3304508-53DD6A4DFBBF401889CE523629C97D0C","ind_status":"AT"},"geometry":{"type":"Polygon","coordinates":[[[-43.638,-22.1178],[-43.6393,-22.1138],[-43.638,-22.1178],[-43.638,-22.1178]],[[-43.6388,-22.1199],[-43.643,-22.119],[-43.6388,-22.1199],[-43.6388,-22.1199]]]}},{"type":"Feature","properties":{"cod_tema":"RIO_ATE_10","cod_imovel":"RJ-3304508-74304036C5604FA2A25057423D453695","ind_status":"AT"},"geometry":{"type":"Polygon","coordinates":[[[-43.6064,-22.2095],[-43.6127,-22.2102],[-43.6056,-22.211],[-43.6064,-22.2095]]]}},{"type":"Feature","properties":{"cod_tema":"RIO_ATE_10","cod_imovel":"RJ-3304508-CF4ADA1BD30B4DE69730727E748F20EB","ind_status":"AT"},"geometry":{"type":"Polygon","coordinates":[[[-43.5031,-22.0768],[-43.5045,-22.0795],[-43.5031,-22.0761],[-43.5031,-22.0768]]]}},{"type":"Feature","properties":{"cod_tema":"RIO_ATE_10","cod_imovel":"RJ-3304508-C77969DF8A254A138008A4DD83208941","ind_status":"AT"},"geometry":{"type":"Polygon","coordinates":[[[-43.6322,-22.1402],[-43.6306,-22.1377],[-43.6324,-22.1404],[-43.6322,-22.1402]]]}},{"type":"Feature","properties":{"cod_tema":"RIO_ATE_10","cod_imovel":"RJ-3304508-598EEE26EC854E069B50FC0B974E3BA6","ind_status":"AT"},"geometry":{"type":"Polygon","coordinates":[[[-43.4388,-22.0796],[-43.4428,-22.0756],[-43.4388,-22.0795],[-43.4388,-22.0796]]]}},{"type":"Feature","properties":{"cod_tema":"RIO_ATE_10","cod_imovel":"RJ-3304508-FD0E9A425F8B4DA5902C3E13DCE01C74","ind_status":"AT"},"geometry":{"type":"Polygon","coordinates":[[[-43.5356,-22.2051],[-43.5387,-22.2045],[-43.5347,-22.2059],[-43.5356,-22.2051]]]}},{"type":"Feature","properties":{"cod_tema":"RIO_ATE_10","cod_imovel":"RJ-3304508-4096A68948234A0DB83E9671E16B900F","ind_status":"AT"},"geometry":{"type":"Polygon","coordinates":[[[-43.6362,-22.191],[-43.6424,-22.1899],[-43.6357,-22.1913],[-43.6362,-22.191]]]}},{"type":"Feature","properties":{"cod_tema":"RIO_ATE_10","cod_imovel":"RJ-3304508-7B30003B657A4AACB71DE3CD4A6898BD","ind_status":"AT"},"geometry":{"type":"Polygon","coordinates":[[[-43.6512,-22.1802],[-43.65,-22.1756],[-43.6514,-22.1804],[-43.6512,-22.1802]],[[-43.6462,-22.1819],[-43.65,-22.1751],[-43.6461,-22.1819],[-43.6462,-22.1819]]]}},{"type":"Feature","properties":{"cod_tema":"RIO_ATE_10","cod_imovel":"RJ-3304508-973DE108D6D441B188DDD2C0BE9D5CB8","ind_status":"AT"},"geometry":{"type":"Polygon","coordinates":[[[-43.6333,-22.1846],[-43.6308,-22.1906],[-43.6332,-22.1848],[-43.6333,-22.1846]]]}},{"type":"Feature","properties":{"cod_tema":"RIO_ATE_10","cod_imovel":"RJ-3304508-9245C24555D04ACDA37B65DD68550474","ind_status":"AT"},"geometry":{"type":"Polygon","coordinates":[[[-43.4789,-22.1973],[-43.4831,-22.2002],[-43.4787,-22.1969],[-43.4789,-22.1973]]]}},{"type":"Feature","properties":{"cod_tema":"RIO_ATE_10","cod_imovel":"RJ-3304508-A9D50A4F68DE4A6EAF5EBB588924DE08","ind_status":"AT"},"geometry":{"type":"Polygon","coordinates":[[[-43.5777,-22.1018],[-43.5804,-22.0975],[-43.5931,-22.1016],[-43.5659,-22.0879],[-43.5836,-22.0965],[-43.5774,-22.1021],[-43.5777,-22.1018]],[[-43.5834,-22.11],[-43.5814,-22.0986],[-43.5831,-22.11],[-43.5834,-22.11]],[[-43.5755,-22.112],[-43.5725,-22.101],[-43.5611,-22.0963],[-43.5725,-22.101],[-43.5752,-22.1124],[-43.5755,-22.112]]]}},{"type":"Feature","properties":{"cod_tema":"RIO_ATE_10","cod_imovel":"RJ-3304508-79E04BD5EF7C47CAB9A2276568182D6B","ind_status":"AT"},"geometry":{"type":"Polygon","coordinates":[[[-43.5755,-22.112],[-43.5725,-22.101],[-43.5598,-22.0933],[-43.5598,-22.1086],[-43.5544,-22.1113],[-43.5639,-22.1199],[-43.5668,-22.1321],[-43.5639,-22.1199],[-43.5549,-22.114],[-43.5555,-22.1097],[-43.563,-22.1153],[-43.5615,-22.1116],[-43.5698,-22.11],[-43.5562,-22.1106],[-43.5633,-22.1036],[-43.5593,-22.1035],[-43.5592,-22.096],[-43.5725,-22.101],[-43.5752,-22.1124],[-43.5755,-22.112]],[[-43.5652,-22.1078],[-43.5596,-22.1089],[-43.5652,-22.1073],[-43.5652,-22.1078]],[[-43.5708,-22.1217],[-43.5645,-22.1213],[-43.5709,-22.1216],[-43.5708,-22.1217]],[[-43.5718,-22.1172],[-43.5667,-22.113],[-43.572,-22.1179],[-43.5718,-22.1172]],[[-43.5704,-22.1068],[-43.5691,-22.0999],[-43.5706,-22.1073],[-43.5704,-22.1068]],[[-43.5814,-22.1214],[-43.5834,-22.1178],[-43.5813,-22.1215],[-43.5814,-22.1214]]]}},{"type":"Feature","properties":{"cod_tema":"RIO_ATE_10","cod_imovel":"RJ-3304508-FDF3BBBE87EB48F08F585DF00C23E8C2","ind_status":"AT"},"geometry":{"type":"Polygon","coordinates":[[[-43.6388,-22.1084],[-43.6368,-22.1123],[-43.6347,-22.1041],[-43.6355,-22.1175],[-43.6429,-22.1077],[-43.6372,-22.1119],[-43.6392,-22.1072],[-43.6388,-22.1084]]]}},{"type":"Feature","properties":{"cod_tema":"RIO_ATE_10","cod_imovel":"RJ-3304508-C3ABFB6E73774086A5C0D164A580FF11","ind_status":"AT"},"geometry":{"type":"Polygon","coordinates":[[[-43.6493,-22.1266],[-43.654,-22.1262],[-43.6417,-22.1207],[-43.6488,-22.1273],[-43.6493,-22.1266]]]}},{"type":"Feature","properties":{"cod_tema":"RIO_ATE_10","cod_imovel":"RJ-3304508-686283368B994BB3A75C798AD5BF0EF8","ind_status":"AT"},"geometry":{"type":"Polygon","coordinates":[[[-43.5954,-22.1837],[-43.5995,-22.1889],[-43.5891,-22.1943],[-43.5996,-22.189],[-43.5955,-22.1837],[-43.5954,-22.1837]]]}},{"type":"Feature","properties":{"cod_tema":"RIO_ATE_10","cod_imovel":"RJ-3304508-CBD0351929B940E485321D250D6B8EC9","ind_status":"AT"},"geometry":{"type":"Polygon","coordinates":[[[-43.6243,-22.1316],[-43.6241,-22.1352],[-43.6242,-22.1316],[-43.6243,-22.1316]]]}},{"type":"Feature","properties":{"cod_tema":"RIO_ATE_10","cod_imovel":"RJ-3304508-74C55FD49727403E956E06DABBE9A2F6","ind_status":"AT"},"geometry":{"type":"Polygon","coordinates":[[[-43.6281,-22.183],[-43.6211,-22.1827],[-43.6283,-22.1828],[-43.6281,-22.183]]]}},{"type":"Feature","properties":{"cod_tema":"RIO_ATE_10","cod_imovel":"RJ-3304508-995C6E987A8945EDA8B7819576D70147","ind_status":"AT"},"geometry":{"type":"Polygon","coordinates":[[[-43.619,-22.1933],[-43.6172,-22.196],[-43.6197,-22.1931],[-43.619,-22.1933]]]}},{"type":"Feature","properties":{"cod_tema":"RIO_ATE_10","cod_imovel":"RJ-3304508-19AFF259697F433E97BFC190AA72173B","ind_status":"AT"},"geometry":{"type":"Polygon","coordinates":[[[-43.6478,-22.1573],[-43.6506,-22.1526],[-43.648,-22.1588],[-43.6478,-22.1573]],[[-43.632,-22.1599],[-43.6357,-22.1544],[-43.6305,-22.16],[-43.632,-22.1599]]]}},{"type":"Feature","properties":{"cod_tema":"RIO_ATE_10","cod_imovel":"RJ-3304508-DF8531A3F8D04F18ABA2A40A7DC27459","ind_status":"AT"},"geometry":{"type":"Polygon","coordinates":[[[-43.62,-22.1652],[-43.6125,-22.1677],[-43.6213,-22.1644],[-43.62,-22.1652]]]}},{"type":"Feature","properties":{"cod_tema":"RIO_ATE_10","cod_imovel":"RJ-3304508-4865C1C7E2324850AFE966D0EA1BA8A0","ind_status":"AT"},"geometry":{"type":"Polygon","coordinates":[[[-43.5528,-22.1534],[-43.5427,-22.1528],[-43.5545,-22.1573],[-43.5751,-22.1481],[-43.5532,-22.1539],[-43.5528,-22.1534]],[[-43.231,-21.8204],[-43.219,-21.8142],[-43.2336,-21.822],[-43.231,-21.8204],[-43.231,-21.8204]],[[-43.2228,-21.818],[-43.2195,-21.8187],[-43.2228,-21.8182],[-43.2228,-21.818]],[[-43.2244,-21.8173],[-43.2218,-21.8143],[-43.2244,-21.817],[-43.2244,-21.8173]],[[-43.2403,-21.8208],[-43.2355,-21.8265],[-43.2403,-21.8208],[-43.2403,-21.8208]],[[-43.2394,-21.8315],[-43.24,-21.8373],[-43.2396,-21.8317],[-43.2394,-21.8315]],[[-43.5459,-22.1598],[-43.5514,-22.156],[-43.5459,-22.1598],[-43.5459,-22.1598]],[[-43.5597,-22.1461],[-43.5738,-22.1444],[-43.5597,-22.1461],[-43.5597,-22.1461]],[[-43.5626,-22.1429],[-43.5704,-22.1392],[-43.5626,-22.1429],[-43.5626,-22.1429]]]}},{"type":"Feature","properties":{"cod_tema":"RIO_ATE_10","cod_imovel":"RJ-3304508-38CD788ADE7F46A2961687E3BBD21533","ind_status":"AT"},"geometry":{"type":"Polygon","coordinates":[[[-43.5898,-22.1307],[-43.5928,-22.13],[-43.5893,-22.1308],[-43.5898,-22.1307]],[[-43.5887,-22.1247],[-43.5897,-22.1197],[-43.5886,-22.1249],[-43.5887,-22.1247]],[[-43.5931,-22.1216],[-43.6,-22.1154],[-43.5929,-22.122],[-43.5931,-22.1216]],[[-43.5923,-22.1321],[-43.6014,-22.1168],[-43.5923,-22.1324],[-43.5923,-22.1321]]]}},{"type":"Feature","properties":{"cod_tema":"RIO_ATE_10","cod_imovel":"RJ-3304508-28814938433145B6815D386BF5DFB291","ind_status":"AT"},"geometry":{"type":"Polygon","coordinates":[[[-43.4864,-22.0897],[-43.4876,-22.0865],[-43.4867,-22.09],[-43.4864,-22.0897]],[[-43.4886,-22.093],[-43.4833,-22.0903],[-43.489,-22.0929],[-43.4886,-22.093]],[[-43.4842,-22.0986],[-43.4839,-22.0837],[-43.4843,-22.0989],[-43.4842,-22.0986]]]}},{"type":"Feature","properties":{"cod_tema":"RIO_ATE_10","cod_imovel":"RJ-3304508-E2F6CF1577EC49A580400D6520070EF7","ind_status":"AT"},"geometry":{"type":"Polygon","coordinates":[[[-43.5247,-22.1204],[-43.5201,-22.1316],[-43.525,-22.1206],[-43.5247,-22.1204]],[[-43.5165,-22.1248],[-43.5165,-22.1202],[-43.5165,-22.1256],[-43.5165,-22.1248]]]}},{"type":"Feature","properties":{"cod_tema":"RIO_ATE_10","cod_imovel":"RJ-3304508-C4595ADE68754D4EADE915D00F47FB9F","ind_status":"AT"},"geometry":{"type":"Polygon","coordinates":[[[-43.4957,-22.0847],[-43.4953,-22.0753],[-43.4972,-22.0903],[-43.4957,-22.0847],[-43.4957,-22.0847]],[[-43.5008,-22.0903],[-43.5014,-22.0872],[-43.4999,-22.0913],[-43.5008,-22.0903]]]}},{"type":"Feature","properties":{"cod_tema":"RIO_ATE_10","cod_imovel":"RJ-3304508-318150B15A7642BBB6FE9FDCD8D2433E","ind_status":"AT"},"geometry":{"type":"Polygon","coordinates":[[[-43.5161,-22.0651],[-43.5203,-22.0646],[-43.5149,-22.0649],[-43.5161,-22.0651]]]}},{"type":"Feature","properties":{"cod_tema":"RIO_10_A_50","cod_imovel":"RJ-3304508-318150B15A7642BBB6FE9FDCD8D2433E","ind_status":"AT"},"geometry":{"type":"Polygon","coordinates":[[[-43.521,-22.0684],[-43.519,-22.0608],[-43.5127,-22.0589],[-43.5047,-22.0653],[-43.5122,-22.0597],[-43.5182,-22.0612],[-43.5205,-22.0679],[-43.521,-22.0684]]]}},{"type":"Feature","properties":{"cod_tema":"RIO_ATE_10","cod_imovel":"RJ-3304508-83AE0E7172E548F6A50670432879757A","ind_status":"AT"},"geometry":{"type":"Polygon","coordinates":[[[-43.4333,-22.1342],[-43.4282,-22.1344],[-43.4333,-22.1342],[-43.4333,-22.1342]]]}},{"type":"Feature","properties":{"cod_tema":"RIO_ATE_10","cod_imovel":"RJ-3304508-EB907B204BB3465C88F8FFFDB91D9F1A","ind_status":"AT"},"geometry":{"type":"Polygon","coordinates":[[[-43.585,-22.1649],[-43.5835,-22.1621],[-43.585,-22.1649],[-43.585,-22.1649]]]}},{"type":"Feature","properties":{"cod_tema":"RIO_ATE_10","cod_imovel":"RJ-3304508-AACA4549E12D49A7ADA0452012630A8E","ind_status":"AT"},"geometry":{"type":"Polygon","coordinates":[[[-43.6184,-22.1317],[-43.6146,-22.1334],[-43.6187,-22.1315],[-43.6184,-22.1317]]]}},{"type":"Feature","properties":{"cod_tema":"RIO_ATE_10","cod_imovel":"RJ-3304508-20D8F20440624D8283FE1BE42841DE49","ind_status":"AT"},"geometry":{"type":"Polygon","coordinates":[[[-43.581,-22.1434],[-43.5891,-22.1426],[-43.5809,-22.1434],[-43.581,-22.1434]]]}},{"type":"Feature","properties":{"cod_tema":"RIO_ATE_10","cod_imovel":"RJ-3304508-C1E6F8DFAA1D44B08BE539A553FF9BC2","ind_status":"AT"},"geometry":{"type":"Polygon","coordinates":[[[-43.6617,-22.124],[-43.6564,-22.1265],[-43.6617,-22.124],[-43.6617,-22.124]],[[-43.663,-22.1217],[-43.6593,-22.1177],[-43.651,-22.1203],[-43.6536,-22.1166],[-43.651,-22.1203],[-43.6447,-22.1185],[-43.6541,-22.1201],[-43.6536,-22.1243],[-43.6541,-22.1201],[-43.663,-22.1217],[-43.663,-22.1217]]]}},{"type":"Feature","properties":{"cod_tema":"RIO_ATE_10","cod_imovel":"RJ-3304508-7203E03AD06B4B51AF7C564859543A2A","ind_status":"AT"},"geometry":{"type":"Polygon","coordinates":[[[-43.5101,-22.1999],[-43.5097,-22.2041],[-43.51,-22.1997],[-43.5101,-22.1999]]]}},{"type":"Feature","properties":{"cod_tema":"RIO_ATE_10","cod_imovel":"RJ-3304508-67D2E88F7F07466F9DC952587B6A4549","ind_status":"AT"},"geometry":{"type":"Polygon","coordinates":[[[-43.6338,-22.1597],[-43.6362,-22.1568],[-43.6333,-22.1604],[-43.6338,-22.1597]]]}},{"type":"Feature","properties":{"cod_tema":"RIO_ATE_10","cod_imovel":"RJ-3304508-3446A630B10E4F05BE297C82239AADAB","ind_status":"AT"},"geometry":{"type":"Polygon","coordinates":[[[-43.6538,-22.0748],[-43.6564,-22.0734],[-43.6521,-22.0761],[-43.6538,-22.0748]],[[-43.6585,-22.077],[-43.6614,-22.0737],[-43.6574,-22.0798],[-43.6585,-22.077]],[[-43.6626,-22.0782],[-43.662,-22.0738],[-43.6625,-22.0805],[-43.6626,-22.0782]]]}},{"type":"Feature","properties":{"cod_tema":"RIO_50_A_200","cod_imovel":"RJ-3304508-3446A630B10E4F05BE297C82239AADAB","ind_status":"AT"},"geometry":{"type":"Polygon","coordinates":[[[-43.6375,-22.0681],[-43.6529,-22.0669],[-43.6561,-22.0731],[-43.666,-22.075],[-43.6657,-22.0829],[-43.6659,-22.0738],[-43.6562,-22.0724],[-43.6525,-22.0661],[-43.6366,-22.0677],[-43.6375,-22.0681]]]}},{"type":"Feature","properties":{"cod_tema":"RIO_ATE_10","cod_imovel":"RJ-3304508-FBD950AEFF2E44469AC6D0FB4F92C24C","ind_status":"AT"},"geometry":{"type":"Polygon","coordinates":[[[-43.5637,-22.1861],[-43.5677,-22.181],[-43.5626,-22.1752],[-43.5678,-22.1821],[-43.5633,-22.188],[-43.5637,-22.1861]]]}},{"type":"Feature","properties":{"cod_tema":"RIO_ATE_10","cod_imovel":"RJ-3304508-904F27D4E29C4BD0BAFD9ABB37DD033F","ind_status":"AT"},"geometry":{"type":"Polygon","coordinates":[[[-43.6069,-22.1781],[-43.6069,-22.1822],[-43.6069,-22.1781],[-43.6118,-22.1789],[-43.6039,-22.176],[-43.6065,-22.1779],[-43.6069,-22.1781]]]}},{"type":"Feature","properties":{"cod_tema":"RIO_ATE_10","cod_imovel":"RJ-3304508-0B5D43B1494C46EE9158678AD4AC3F71","ind_status":"AT"},"geometry":{"type":"Polygon","coordinates":[[[-43.5881,-22.0672],[-43.5934,-22.0719],[-43.5881,-22.0672],[-43.5881,-22.0672]],[[-43.595,-22.0731],[-43.5955,-22.0763],[-43.598,-22.0671],[-43.5951,-22.0731],[-43.595,-22.0731]],[[-43.6022,-22.0712],[-43.5996,-22.0748],[-43.6022,-22.0712],[-43.6022,-22.0712]],[[-43.6021,-22.08],[-43.6018,-22.0769],[-43.6022,-22.0801],[-43.6021,-22.08]],[[-43.6043,-22.0737],[-43.6045,-22.0792],[-43.6043,-22.0736],[-43.6043,-22.0737]],[[-43.6071,-22.078],[-43.6067,-22.0747],[-43.6071,-22.0781],[-43.6071,-22.078]],[[-43.6068,-22.0826],[-43.6073,-22.0793],[-43.6068,-22.0826],[-43.6068,-22.0826]]]}},{"type":"Feature","properties":{"cod_tema":"RIO_50_A_200","cod_imovel":"RJ-3304508-0B5D43B1494C46EE9158678AD4AC3F71","ind_status":"AT"},"geometry":{"type":"Polygon","coordinates":[[[-43.5836,-22.0695],[-43.5847,-22.0617],[-43.5835,-22.0694],[-43.5836,-22.0695]],[[-43.5986,-22.0617],[-43.6027,-22.0725],[-43.6103,-22.0707],[-43.6116,-22.0818],[-43.6182,-22.0832],[-43.6122,-22.0816],[-43.6109,-22.0707],[-43.6033,-22.0723],[-43.5992,-22.0617],[-43.5986,-22.0617]]]}},{"type":"Feature","properties":{"cod_tema":"RIO_ATE_10","cod_imovel":"RJ-3304508-9233D3FAFBB5409392EB2BC87638A644","ind_status":"AT"},"geometry":{"type":"Polygon","coordinates":[[[-43.6507,-22.085],[-43.6507,-22.0894],[-43.649,-22.0841],[-43.6507,-22.085]],[[-43.6484,-22.0732],[-43.6514,-22.0862],[-43.6519,-22.0754],[-43.6475,-22.0739],[-43.6484,-22.0732]]]}},{"type":"Feature","properties":{"cod_tema":"RIO_ATE_10","cod_imovel":"RJ-3304508-3C93FF895B6E48D19897ED126E2D0881","ind_status":"AT"},"geometry":{"type":"Polygon","coordinates":[[[-43.474,-22.1946],[-43.4753,-22.1894],[-43.474,-22.1948],[-43.474,-22.1946]]]}},{"type":"Feature","properties":{"cod_tema":"RIO_ATE_10","cod_imovel":"RJ-3304508-F8531E64A38441758C04BA3A45B7A875","ind_status":"AT"},"geometry":{"type":"Polygon","coordinates":[[[-43.5776,-22.1277],[-43.5736,-22.1287],[-43.5781,-22.1278],[-43.5776,-22.1277]],[[-43.5781,-22.1245],[-43.5817,-22.121],[-43.5778,-22.1243],[-43.5781,-22.1245]]]}},{"type":"Feature","properties":{"cod_tema":"RIO_ATE_10","cod_imovel":"RJ-3304508-0FB2D6222DBD4634868E2CE4762D7D73","ind_status":"AT"},"geometry":{"type":"Polygon","coordinates":[[[-43.6032,-22.1243],[-43.6031,-22.1206],[-43.5962,-22.1346],[-43.6032,-22.1244],[-43.605,-22.1292],[-43.6001,-22.1362],[-43.605,-22.1295],[-43.6032,-22.1244],[-43.6032,-22.1243]],[[-43.606,-22.1212],[-43.6082,-22.1188],[-43.6058,-22.1213],[-43.606,-22.1212]],[[-43.6127,-22.127],[-43.6134,-22.1241],[-43.6065,-22.1322],[-43.6076,-22.1367],[-43.6127,-22.127],[-43.6127,-22.127]]]}},{"type":"Feature","properties":{"cod_tema":"RIO_ATE_10","cod_imovel":"RJ-3304508-57C6B14C290C4E8BAC97F22924A2E222","ind_status":"AT"},"geometry":{"type":"Polygon","coordinates":[[[-43.5903,-22.0616],[-43.5842,-22.0593],[-43.5905,-22.0618],[-43.5903,-22.0616]],[[-43.5981,-22.0649],[-43.5929,-22.0664],[-43.5981,-22.0649],[-43.5981,-22.0649]]]}},{"type":"Feature","properties":{"cod_tema":"RIO_50_A_200","cod_imovel":"RJ-3304508-57C6B14C290C4E8BAC97F22924A2E222","ind_status":"AT"},"geometry":{"type":"Polygon","coordinates":[[[-43.6001,-22.0672],[-43.5997,-22.0591],[-43.5948,-22.0604],[-43.5849,-22.0515],[-43.5841,-22.0678],[-43.5854,-22.0518],[-43.5944,-22.0606],[-43.5989,-22.059],[-43.5994,-22.0672],[-43.6001,-22.0672]]]}},{"type":"Feature","properties":{"cod_tema":"RIO_ATE_10","cod_imovel":"RJ-3304508-E59599C848EF4906ABF1F190EB8F823D","ind_status":"AT"},"geometry":{"type":"Polygon","coordinates":[[[-43.5595,-22.1273],[-43.5643,-22.1278],[-43.5602,-22.1163],[-43.5646,-22.1215],[-43.5577,-22.1284],[-43.5595,-22.1273]]]}},{"type":"Feature","properties":{"cod_tema":"RIO_ATE_10","cod_imovel":"RJ-3304508-9A137F1A7B824B13A1D95DC8870411AC","ind_status":"AT"},"geometry":{"type":"Polygon","coordinates":[[[-43.6241,-22.123],[-43.6308,-22.1181],[-43.6241,-22.123],[-43.6292,-22.1167],[-43.6236,-22.122],[-43.6253,-22.1172],[-43.6229,-22.1211],[-43.6212,-22.1175],[-43.624,-22.1229],[-43.6241,-22.123]],[[-43.6318,-22.1155],[-43.6281,-22.1138],[-43.633,-22.1054],[-43.6213,-22.1172],[-43.6319,-22.1158],[-43.6318,-22.1155]]]}},{"type":"Feature","properties":{"cod_tema":"RIO_ATE_10","cod_imovel":"RJ-3304508-D776F38559C744FBBE2AB10196465A2D","ind_status":"AT"},"geometry":{"type":"Polygon","coordinates":[[[-43.6101,-22.2017],[-43.608,-22.1981],[-43.6047,-22.2031],[-43.5909,-22.2046],[-43.5936,-22.2076],[-43.603,-22.2023],[-43.5994,-22.2069],[-43.608,-22.1993],[-43.6108,-22.2021],[-43.6101,-22.2017]]]}},{"type":"Feature","properties":{"cod_tema":"RIO_ATE_10","cod_imovel":"RJ-3304508-36E86D5E512444568C44C575F0CDDD7F","ind_status":"AT"},"geometry":{"type":"Polygon","coordinates":[[[-43.5165,-22.2049],[-43.5093,-22.2054],[-43.5195,-22.2086],[-43.5166,-22.2046],[-43.5165,-22.2049]]]}},{"type":"Feature","properties":{"cod_tema":"RIO_ATE_10","cod_imovel":"RJ-3304508-E4D2BF6030F146CCAD50EF1F82A3574B","ind_status":"AT"},"geometry":{"type":"Polygon","coordinates":[[[-43.588,-22.2786],[-43.5859,-22.2755],[-43.5849,-22.2828],[-43.588,-22.2786],[-43.588,-22.2786]]]}},{"type":"Feature","properties":{"cod_tema":"RIO_50_A_200","cod_imovel":"RJ-3304508-BC6F73364A7B4CA9A6D97ABE22F842A1","ind_status":"AT"},"geometry":{"type":"Polygon","coordinates":[[[-43.5188,-22.2627],[-43.5155,-22.2562],[-43.5169,-22.2637],[-43.5188,-22.2627]]]}},{"type":"Feature","properties":{"cod_tema":"RIO_ATE_10","cod_imovel":"RJ-3304508-D3DC653758054EB7BC6ED443D317B03E","ind_status":"AT"},"geometry":{"type":"Polygon","coordinates":[[[-43.5395,-22.1595],[-43.5343,-22.1657],[-43.5297,-22.1621],[-43.5307,-22.1665],[-43.5381,-22.1656],[-43.5343,-22.1657],[-43.5395,-22.1595],[-43.5395,-22.1595]]]}},{"type":"Feature","properties":{"cod_tema":"RIO_ATE_10","cod_imovel":"RJ-3304508-CF027837DE9A4BF9899EE19D9123B202","ind_status":"AT"},"geometry":{"type":"Polygon","coordinates":[[[-43.5789,-22.2155],[-43.5714,-22.2118],[-43.5772,-22.2188],[-43.5789,-22.2154],[-43.5789,-22.2155]],[[-43.5792,-22.1993],[-43.5768,-22.2011],[-43.5794,-22.1992],[-43.5792,-22.1993]],[[-43.5879,-22.21],[-43.5815,-22.2074],[-43.5794,-22.1989],[-43.582,-22.2035],[-43.5778,-22.2097],[-43.5815,-22.2057],[-43.5853,-22.212],[-43.5879,-22.21],[-43.5879,-22.21]],[[-43.5858,-22.2183],[-43.582,-22.224],[-43.5859,-22.2183],[-43.5858,-22.2183]],[[-43.5891,-22.2167],[-43.5862,-22.2181],[-43.5918,-22.2193],[-43.5894,-22.2167],[-43.5891,-22.2167]]]}},{"type":"Feature","properties":{"cod_tema":"RIO_ATE_10","cod_imovel":"RJ-3304508-EBBA42A81A4B430591225770AD49849A","ind_status":"AT"},"geometry":{"type":"Polygon","coordinates":[[[-43.6043,-22.2423],[-43.6055,-22.235],[-43.6024,-22.2455],[-43.5977,-22.2366],[-43.5976,-22.2248],[-43.6017,-22.2456],[-43.6103,-22.24],[-43.6047,-22.2434],[-43.6043,-22.2423]],[[-43.6,-22.2347],[-43.6028,-22.2312],[-43.5999,-22.2348],[-43.6,-22.2347]],[[-43.604,-22.2242],[-43.6076,-22.2235],[-43.6039,-22.2241],[-43.604,-22.2242]],[[-43.6121,-22.2238],[-43.6245,-22.2209],[-43.6083,-22.2238],[-43.6125,-22.2244],[-43.6121,-22.2238]]]}},{"type":"Feature","properties":{"cod_tema":"RIO_ATE_10","cod_imovel":"RJ-3304508-94D65057FF3B4116B6681C241AE7A9DC","ind_status":"AT"},"geometry":{"type":"Polygon","coordinates":[[[-43.6506,-22.089],[-43.6515,-22.0927],[-43.6509,-22.0882],[-43.6506,-22.089]]]}},{"type":"Feature","properties":{"cod_tema":"RIO_ATE_10","cod_imovel":"RJ-3304508-D4EE568D26974DDA89FDDE3C8A79C3D6","ind_status":"AT"},"geometry":{"type":"Polygon","coordinates":[[[-43.6523,-22.1064],[-43.6511,-22.1029],[-43.6521,-22.107],[-43.6523,-22.1064]]]}},{"type":"Feature","properties":{"cod_tema":"RIO_ATE_10","cod_imovel":"RJ-3304508-509386D9DCB14E1283275DA9EF3B513E","ind_status":"AT"},"geometry":{"type":"Polygon","coordinates":[[[-43.4993,-22.1745],[-43.4981,-22.1701],[-43.4924,-22.1753],[-43.4996,-22.1742],[-43.4993,-22.1745]]]}},{"type":"Feature","properties":{"cod_tema":"RIO_ATE_10","cod_imovel":"RJ-3304508-8FD08367102249A980EE8261511A5F61","ind_status":"AT"},"geometry":{"type":"Polygon","coordinates":[[[-43.5188,-22.1435],[-43.5154,-22.1427],[-43.5216,-22.1512],[-43.519,-22.1433],[-43.5188,-22.1435]],[[-43.5173,-22.1545],[-43.5128,-22.1556],[-43.5178,-22.1543],[-43.5173,-22.1545]],[[-43.5271,-22.1594],[-43.5292,-22.162],[-43.5271,-22.1593],[-43.5271,-22.1594]]]}},{"type":"Feature","properties":{"cod_tema":"RIO_ATE_10","cod_imovel":"RJ-3304508-B3A503DA1DCE4732B68B74E9B8FD26AB","ind_status":"AT"},"geometry":{"type":"Polygon","coordinates":[[[-43.6178,-22.2009],[-43.6147,-22.2008],[-43.6186,-22.2009],[-43.6178,-22.2009]]]}},{"type":"Feature","properties":{"cod_tema":"RIO_ATE_10","cod_imovel":"RJ-3304508-3FE2363002914F4BB2667C9F0E900E6A","ind_status":"AT"},"geometry":{"type":"Polygon","coordinates":[[[-43.518,-22.2513],[-43.5309,-22.2549],[-43.5182,-22.2519],[-43.5217,-22.2455],[-43.5358,-22.2514],[-43.5189,-22.2414],[-43.5181,-22.2514],[-43.518,-22.2513]],[[-43.5232,-22.2554],[-43.517,-22.2539],[-43.5236,-22.2554],[-43.5232,-22.2554]]]}},{"type":"Feature","properties":{"cod_tema":"RIO_10_A_50","cod_imovel":"RJ-3304508-3FE2363002914F4BB2667C9F0E900E6A","ind_status":"AT"},"geometry":{"type":"Polygon","coordinates":[[[-43.5176,-22.2564],[-43.5184,-22.2462],[-43.5173,-22.2566],[-43.5176,-22.2564]]]}},{"type":"Feature","properties":{"cod_tema":"RIO_ATE_10","cod_imovel":"RJ-3304508-E1D32688FA0D42E896B120E5C839B65B","ind_status":"AT"},"geometry":{"type":"Polygon","coordinates":[[[-43.537,-22.1514],[-43.5305,-22.1343],[-43.5316,-22.1429],[-43.5241,-22.1409],[-43.5316,-22.143],[-43.5284,-22.1484],[-43.5322,-22.1441],[-43.537,-22.1514],[-43.537,-22.1514]]]}},{"type":"Feature","properties":{"cod_tema":"RIO_ATE_10","cod_imovel":"RJ-3304508-BD3DAAB6A7FF4396B622ACEB415E3551","ind_status":"AT"},"geometry":{"type":"Polygon","coordinates":[[[-43.6438,-22.1894],[-43.6412,-22.1863],[-43.6439,-22.1897],[-43.6438,-22.1894]]]}},{"type":"Feature","properties":{"cod_tema":"RIO_ATE_10","cod_imovel":"RJ-3304508-99E3E8BA056142C98D10064EE34B2E55","ind_status":"AT"},"geometry":{"type":"Polygon","coordinates":[[[-43.459,-22.1915],[-43.4592,-22.1969],[-43.4622,-22.1895],[-43.4611,-22.1934],[-43.4591,-22.191],[-43.459,-22.1915]]]}},{"type":"Feature","properties":{"cod_tema":"RIO_ATE_10","cod_imovel":"RJ-3304508-1D52638D507F4335883A21B1305E6D1F","ind_status":"AT"},"geometry":{"type":"Polygon","coordinates":[[[-43.434,-22.1153],[-43.4284,-22.1123],[-43.435,-22.1159],[-43.434,-22.1153]]]}},{"type":"Feature","properties":{"cod_tema":"RIO_ATE_10","cod_imovel":"RJ-3304508-2CA04AB1447747C8B5D96EFFF46C0753","ind_status":"AT"},"geometry":{"type":"Polygon","coordinates":[[[-43.5933,-22.2662],[-43.5729,-22.2612],[-43.5937,-22.2662],[-43.5933,-22.2662]]]}},{"type":"Feature","properties":{"cod_tema":"RIO_ATE_10","cod_imovel":"RJ-3304508-1D970CD28D3A409AB93FF31EFCF5D854","ind_status":"AT"},"geometry":{"type":"Polygon","coordinates":[[[-43.536,-22.1571],[-43.5302,-22.1615],[-43.5361,-22.157],[-43.536,-22.1571]]]}},{"type":"Feature","properties":{"cod_tema":"RIO_10_A_50","cod_imovel":"RJ-3304508-F8498DBAD2E641B49E53BB61A1008203","ind_status":"AT"},"geometry":{"type":"Polygon","coordinates":[[[-43.4548,-22.2165],[-43.4591,-22.2146],[-43.4548,-22.2165],[-43.4548,-22.2165]]]}},{"type":"Feature","properties":{"cod_tema":"RIO_ATE_10","cod_imovel":"RJ-3304508-B9210CD8189F49F3922B82306AC4417C","ind_status":"AT"},"geometry":{"type":"Polygon","coordinates":[[[-43.4618,-22.2138],[-43.4566,-22.2038],[-43.4619,-22.2147],[-43.4618,-22.2138]]]}},{"type":"Feature","properties":{"cod_tema":"RIO_ATE_10","cod_imovel":"RJ-3304508-BE1A77EA5F8D467D9C2EF58C99403E16","ind_status":"AT"},"geometry":{"type":"Polygon","coordinates":[[[-43.5023,-22.1798],[-43.4899,-22.1788],[-43.4932,-22.175],[-43.4899,-22.1668],[-43.4931,-22.175],[-43.4821,-22.1816],[-43.5024,-22.1798],[-43.5023,-22.1798]],[[-43.4935,-22.2053],[-43.4881,-22.2037],[-43.4935,-22.2053],[-43.4935,-22.2053]],[[-43.5031,-22.1839],[-43.4906,-22.1916],[-43.4954,-22.1931],[-43.4913,-22.1984],[-43.4953,-22.2045],[-43.5002,-22.2014],[-43.5034,-22.2055],[-43.5001,-22.1978],[-43.498,-22.2028],[-43.4946,-22.199],[-43.5032,-22.1837],[-43.5031,-22.1839]],[[-43.4953,-22.1816],[-43.4915,-22.1874],[-43.4954,-22.1815],[-43.4953,-22.1816]],[[-43.5015,-22.1953],[-43.5043,-22.1976],[-43.5014,-22.1952],[-43.5015,-22.1953]],[[-43.5133,-22.1894],[-43.5083,-22.1846],[-43.5082,-22.1914],[-43.505,-22.185],[-43.5078,-22.1928],[-43.5133,-22.1894],[-43.5133,-22.1894]]]}},{"type":"Feature","properties":{"cod_tema":"RIO_ATE_10","cod_imovel":"RJ-3304508-050E1749D9394FBB9050D9CA112F2F94","ind_status":"AT"},"geometry":{"type":"Polygon","coordinates":[[[-43.6363,-22.0992],[-43.6379,-22.096],[-43.636,-22.1],[-43.6363,-22.0992]],[[-43.6448,-22.0974],[-43.6371,-22.0945],[-43.6444,-22.0984],[-43.6448,-22.0974]]]}},{"type":"Feature","properties":{"cod_tema":"RIO_ATE_10","cod_imovel":"RJ-3304508-A521CE8664FF41039AE80B60EEE7C708","ind_status":"PE"},"geometry":{"type":"Polygon","coordinates":[[[-43.5074,-22.1764],[-43.5104,-22.1777],[-43.507,-22.1761],[-43.5074,-22.1764]]]}},{"type":"Feature","properties":{"cod_tema":"RIO_ATE_10","cod_imovel":"RJ-3304508-A521CE8664FF41039AE80B60EEE7C708","ind_status":"PE"},"geometry":{"type":"Polygon","coordinates":[[[-43.5135,-22.1738],[-43.512,-22.1771],[-43.5135,-22.1737],[-43.5135,-22.1738]]]}},{"type":"Feature","properties":{"cod_tema":"RIO_ATE_10","cod_imovel":"RJ-3304508-A521CE8664FF41039AE80B60EEE7C708","ind_status":"PE"},"geometry":{"type":"Polygon","coordinates":[[[-43.514,-22.1736],[-43.5172,-22.172],[-43.5136,-22.1738],[-43.514,-22.1736]]]}},{"type":"Feature","properties":{"cod_tema":"RIO_ATE_10","cod_imovel":"RJ-3304508-A521CE8664FF41039AE80B60EEE7C708","ind_status":"PE"},"geometry":{"type":"Polygon","coordinates":[[[-43.5191,-22.1679],[-43.5171,-22.172],[-43.5223,-22.1716],[-43.5172,-22.1719],[-43.5193,-22.1668],[-43.5191,-22.1679]]]}},{"type":"Feature","properties":{"cod_tema":"RIO_ATE_10","cod_imovel":"RJ-3304508-A521CE8664FF41039AE80B60EEE7C708","ind_status":"PE"},"geometry":{"type":"Polygon","coordinates":[[[-43.5153,-22.1634],[-43.5115,-22.1715],[-43.5154,-22.1632],[-43.5153,-22.1634]]]}},{"type":"Feature","properties":{"cod_tema":"RIO_ATE_10","cod_imovel":"RJ-3304508-A521CE8664FF41039AE80B60EEE7C708","ind_status":"PE"},"geometry":{"type":"Polygon","coordinates":[[[-43.5124,-22.1627],[-43.5153,-22.1635],[-43.5121,-22.1626],[-43.5124,-22.1627]]]}},{"type":"Feature","properties":{"cod_tema":"RIO_10_A_50","cod_imovel":"RJ-3304508-CFDBEB2A930745C09314BCCE141DD82C","ind_status":"AT"},"geometry":{"type":"Polygon","coordinates":[[[-43.4672,-22.2142],[-43.4716,-22.217],[-43.4715,-22.2354],[-43.4765,-22.2371],[-43.4802,-22.2499],[-43.4962,-22.2451],[-43.4808,-22.2491],[-43.472,-22.2308],[-43.4733,-22.2174],[-43.4672,-22.2142],[-43.4672,-22.2142]],[[-43.4705,-22.2307],[-43.4706,-22.2264],[-43.4706,-22.2305],[-43.4705,-22.2307]],[[-43.4732,-22.2341],[-43.4717,-22.2308],[-43.4732,-22.234],[-43.4732,-22.2341]],[[-43.4865,-22.2466],[-43.4899,-22.2447],[-43.4864,-22.2467],[-43.4865,-22.2466]]]}},{"type":"Feature","properties":{"cod_tema":"RIO_ATE_10","cod_imovel":"RJ-3304508-5563EBC457D94B5AB10153FD2BED4FC0","ind_status":"AT"},"geometry":{"type":"Polygon","coordinates":[[[-43.4316,-22.234],[-43.4284,-22.2339],[-43.4321,-22.2337],[-43.4316,-22.234]]]}},{"type":"Feature","properties":{"cod_tema":"RIO_ATE_10","cod_imovel":"RJ-3304508-B4A940C2A27245DE9BB634E8CFE09BD3","ind_status":"AT"},"geometry":{"type":"Polygon","coordinates":[[[-43.441,-22.2127],[-43.4377,-22.2093],[-43.4412,-22.2128],[-43.441,-22.2127]]]}},{"type":"Feature","properties":{"cod_tema":"RIO_ATE_10","cod_imovel":"RJ-3304508-EF668539834D481BB6FADABD1560C576","ind_status":"AT"},"geometry":{"type":"Polygon","coordinates":[[[-43.5047,-22.2244],[-43.5091,-22.2164],[-43.5063,-22.207],[-43.509,-22.2164],[-43.5045,-22.2258],[-43.5047,-22.2244]]]}},{"type":"Feature","properties":{"cod_tema":"RIO_ATE_10","cod_imovel":"RJ-3304508-6039E64A0A8A4D889660940018164FE4","ind_status":"AT"},"geometry":{"type":"Polygon","coordinates":[[[-43.51,-22.2378],[-43.5059,-22.2297],[-43.51,-22.2249],[-43.5058,-22.2297],[-43.5099,-22.2366],[-43.51,-22.2378]],[[-43.5227,-22.2299],[-43.5142,-22.2243],[-43.5228,-22.2296],[-43.5184,-22.2336],[-43.516,-22.23],[-43.5154,-22.2355],[-43.512,-22.2327],[-43.5153,-22.2359],[-43.5227,-22.2299],[-43.5227,-22.2299]],[[-43.5173,-22.2402],[-43.5284,-22.2375],[-43.5184,-22.2403],[-43.5173,-22.2402]]]}},{"type":"Feature","properties":{"cod_tema":"RIO_10_A_50","cod_imovel":"RJ-3304508-6039E64A0A8A4D889660940018164FE4","ind_status":"AT"},"geometry":{"type":"Polygon","coordinates":[[[-43.5214,-22.2436],[-43.5142,-22.2354],[-43.4979,-22.2423],[-43.5138,-22.2366],[-43.519,-22.2442],[-43.5214,-22.2436]]]}},{"type":"Feature","properties":{"cod_tema":"RIO_ATE_10","cod_imovel":"RJ-3304508-971753BEE03D4F9F9C410A6212C94C89","ind_status":"AT"},"geometry":{"type":"Polygon","coordinates":[[[-43.5498,-22.2387],[-43.5474,-22.2241],[-43.5501,-22.2391],[-43.5498,-22.2387]],[[-43.5603,-22.243],[-43.56,-22.2285],[-43.5613,-22.2441],[-43.5603,-22.243]]]}}]}