{"type":"FeatureCollection","features":[{"type":"Feature","properties":{"cod_tema":"RIO_ATE_10","cod_imovel":"RJ-3304524-14D5C70E4D11482F90A62269A3474E06","ind_status":"AT"},"geometry":{"type":"Polygon","coordinates":[[[-41.8838,-22.4468],[-41.8713,-22.4386],[-41.877,-22.446],[-41.8845,-22.4469],[-41.8838,-22.4468]],[[-41.8784,-22.4334],[-41.8752,-22.4337],[-41.8789,-22.4334],[-41.8784,-22.4334]],[[-41.8878,-22.4434],[-41.8826,-22.4388],[-41.8871,-22.4343],[-41.8814,-22.43],[-41.8852,-22.4353],[-41.8801,-22.4393],[-41.8874,-22.4444],[-41.8878,-22.4434]],[[-41.8866,-22.4526],[-41.8964,-22.456],[-41.8859,-22.4521],[-41.8866,-22.4526]],[[-41.918,-22.4595],[-41.9119,-22.4489],[-41.9161,-22.4387],[-41.913,-22.4344],[-41.916,-22.4387],[-41.9119,-22.4489],[-41.9056,-22.438],[-41.9079,-22.4429],[-41.8976,-22.4408],[-41.8868,-22.4475],[-41.8976,-22.4409],[-41.9079,-22.443],[-41.9106,-22.4483],[-41.9035,-22.4453],[-41.9126,-22.4493],[-41.918,-22.4595],[-41.918,-22.4595]],[[-41.8906,-22.4474],[-41.9013,-22.451],[-41.8991,-22.4548],[-41.9012,-22.4516],[-41.8984,-22.4445],[-41.9013,-22.4509],[-41.8901,-22.4474],[-41.8906,-22.4474]],[[-41.8987,-22.4337],[-41.8915,-22.4245],[-41.8997,-22.4339],[-41.8987,-22.4337]],[[-41.9101,-22.4223],[-41.9072,-22.4269],[-41.9006,-22.4255],[-41.9064,-22.4229],[-41.8935,-22.4228],[-41.903,-22.4333],[-41.9001,-22.4256],[-41.9072,-22.427],[-41.9058,-22.4372],[-41.907,-22.43],[-41.9103,-22.4354],[-41.907,-22.4302],[-41.9097,-22.4221],[-41.9101,-22.4223]],[[-41.8955,-22.4239],[-41.9012,-22.4305],[-41.8956,-22.4245],[-41.8955,-22.4239]],[[-41.9163,-22.4148],[-41.9082,-22.4151],[-41.9139,-22.409],[-41.9046,-22.416],[-41.9095,-22.4155],[-41.9075,-22.4219],[-41.9094,-22.4153],[-41.9132,-22.4198],[-41.9163,-22.4148],[-41.9163,-22.4148]],[[-41.9558,-22.4262],[-41.9298,-22.425],[-41.9329,-22.4196],[-41.9434,-22.419],[-41.9378,-22.4154],[-41.9549,-22.411],[-41.952,-22.4161],[-41.9549,-22.4109],[-41.9451,-22.4015],[-41.9512,-22.4111],[-41.9432,-22.4101],[-41.9284,-22.4228],[-41.9256,-22.4191],[-41.9312,-22.404],[-41.9296,-22.4094],[-41.9189,-22.3999],[-41.9277,-22.4154],[-41.9189,-22.4079],[-41.9338,-22.4302],[-41.9192,-22.4276],[-41.9253,-22.4253],[-41.9298,-22.4319],[-41.9213,-22.4303],[-41.9216,-22.4362],[-41.9168,-22.4333],[-41.9216,-22.4363],[-41.9299,-22.432],[-41.9353,-22.4436],[-41.9315,-22.4382],[-41.9346,-22.4333],[-41.9433,-22.4358],[-41.9398,-22.4415],[-41.9429,-22.4321],[-41.9381,-22.4302],[-41.9334,-22.4368],[-41.9303,-22.4242],[-41.9373,-22.4248],[-41.9429,-22.4314],[-41.9423,-22.4277],[-41.9493,-22.4249],[-41.9558,-22.4262]],[[-41.9425,-22.3958],[-41.9387,-22.3953],[-41.9403,-22.3873],[-41.9386,-22.3952],[-41.9373,-22.3883],[-41.9362,-22.3947],[-41.9237,-22.3963],[-41.9425,-22.3958],[-41.9425,-22.3958]],[[-41.9239,-22.4534],[-41.9252,-22.4416],[-41.924,-22.4545],[-41.9239,-22.4534]],[[-41.9425,-22.4414],[-41.9381,-22.4461],[-41.9436,-22.4415],[-41.9425,-22.4414]],[[-41.9534,-22.4022],[-41.9466,-22.3919],[-41.9534,-22.4025],[-41.9534,-22.4022]],[[-41.9574,-22.4025],[-41.9626,-22.4096],[-41.9575,-22.4017],[-41.9574,-22.4025]]]}},{"type":"Feature","properties":{"cod_tema":"RIO_ATE_10","cod_imovel":"RJ-3304524-16CB4595D9AE4CEC81F043E163494F3E","ind_status":"AT"},"geometry":{"type":"Polygon","coordinates":[[[-41.9648,-22.4483],[-41.9561,-22.4496],[-41.9547,-22.4399],[-41.9561,-22.4496],[-41.9512,-22.4513],[-41.9485,-22.4468],[-41.9475,-22.4544],[-41.9648,-22.4483],[-41.9648,-22.4483]],[[-41.9574,-22.4587],[-41.9607,-22.4606],[-41.9571,-22.4585],[-41.9574,-22.4587]],[[-41.9699,-22.4496],[-41.9675,-22.4415],[-41.9699,-22.4496],[-41.9699,-22.4496]]]}},{"type":"Feature","properties":{"cod_tema":"RIO_ATE_10","cod_imovel":"RJ-3304524-59FE73B6819841DBA3D1B1B678818D33","ind_status":"PE"},"geometry":{"type":"Polygon","coordinates":[[[-41.9199,-22.3955],[-41.9026,-22.4055],[-41.92,-22.3956],[-41.9199,-22.3955]]]}},{"type":"Feature","properties":{"cod_tema":"RIO_ATE_10","cod_imovel":"RJ-3304524-5C0142BB81F5406D98B365CAD4E8DC71","ind_status":"AT"},"geometry":{"type":"Polygon","coordinates":[[[-41.9642,-22.4939],[-41.9597,-22.4927],[-41.9648,-22.4942],[-41.9642,-22.4939]]]}},{"type":"Feature","properties":{"cod_tema":"RIO_10_A_50","cod_imovel":"RJ-3304524-6387254D1CF04120858380D3F2AC10C5","ind_status":"PE"},"geometry":{"type":"Polygon","coordinates":[[[-41.9318,-22.4845],[-41.9237,-22.4877],[-41.9317,-22.4846],[-41.9318,-22.4845]]]}},{"type":"Feature","properties":{"cod_tema":"RIO_ATE_10","cod_imovel":"RJ-3304524-A8658424CB7844438EF6D35FDA72FCD9","ind_status":"AT"},"geometry":{"type":"Polygon","coordinates":[[[-41.941,-22.4605],[-41.9308,-22.4576],[-41.9241,-22.4665],[-41.9305,-22.4581],[-41.9375,-22.4686],[-41.936,-22.4623],[-41.9409,-22.4648],[-41.9357,-22.461],[-41.9411,-22.4602],[-41.941,-22.4605]],[[-41.9463,-22.456],[-41.9357,-22.4554],[-41.9452,-22.4519],[-41.9331,-22.4555],[-41.9478,-22.4541],[-41.9463,-22.456]],[[-41.9447,-22.4698],[-41.9424,-22.4724],[-41.9454,-22.4693],[-41.9447,-22.4698]],[[-41.952,-22.4592],[-41.9489,-22.4624],[-41.9524,-22.4679],[-41.9489,-22.4624],[-41.953,-22.4586],[-41.952,-22.4592]],[[-41.9542,-22.4616],[-41.9563,-22.4641],[-41.953,-22.4616],[-41.9542,-22.4616]]]}},{"type":"Feature","properties":{"cod_tema":"RIO_ATE_10","cod_imovel":"RJ-3304524-B0021F5F511343B98E45C6B87B471DA7","ind_status":"AT"},"geometry":{"type":"Polygon","coordinates":[[[-41.954,-22.5009],[-41.9503,-22.5002],[-41.9543,-22.5011],[-41.954,-22.5009]]]}},{"type":"Feature","properties":{"cod_tema":"RIO_ATE_10","cod_imovel":"RJ-3304524-DE378D3682B4426EBA7EF789AD7A47BE","ind_status":"AT"},"geometry":{"type":"Polygon","coordinates":[[[-41.9531,-22.4854],[-41.9634,-22.483],[-41.9855,-22.4961],[-41.9635,-22.4829],[-41.9535,-22.4853],[-41.9531,-22.4854]]]}},{"type":"Feature","properties":{"cod_tema":"RIO_ATE_10","cod_imovel":"RJ-3304524-3F4590CDF1344A899791AE273C8B0A5F","ind_status":"AT"},"geometry":{"type":"Polygon","coordinates":[[[-41.9389,-22.4726],[-41.9338,-22.4841],[-41.9394,-22.4746],[-41.9485,-22.4762],[-41.9386,-22.4723],[-41.9389,-22.4726]]]}},{"type":"Feature","properties":{"cod_tema":"RIO_ATE_10","cod_imovel":"RJ-3304524-3454750DD8FB4E2AA9479F3EC98C3758","ind_status":"AT"},"geometry":{"type":"Polygon","coordinates":[[[-42.0035,-22.4224],[-41.9942,-22.4247],[-42.004,-22.4219],[-42.0035,-22.4224]]]}},{"type":"Feature","properties":{"cod_tema":"RIO_ATE_10","cod_imovel":"RJ-3304524-30C77C130D5B44B6A2C3F6DEBD8F1017","ind_status":"AT"},"geometry":{"type":"Polygon","coordinates":[[[-41.8651,-22.4646],[-41.861,-22.4655],[-41.8654,-22.4644],[-41.8651,-22.4646]],[[-41.8702,-22.4707],[-41.8672,-22.4753],[-41.8674,-22.4673],[-41.8661,-22.4774],[-41.8701,-22.4699],[-41.8702,-22.4707]],[[-41.8882,-22.4636],[-41.8801,-22.4597],[-41.8814,-22.4735],[-41.8751,-22.4717],[-41.8716,-22.4641],[-41.8823,-22.476],[-41.8864,-22.4711],[-41.8814,-22.4734],[-41.8851,-22.4678],[-41.8805,-22.4706],[-41.8793,-22.4654],[-41.8882,-22.4636],[-41.8882,-22.4636]],[[-41.8776,-22.4609],[-41.8798,-22.465],[-41.8775,-22.4607],[-41.8776,-22.4609]],[[-41.8912,-22.4731],[-41.8854,-22.4789],[-41.8911,-22.4731],[-41.8912,-22.4731]],[[-41.8886,-22.4849],[-41.8963,-22.4895],[-41.8882,-22.4847],[-41.8886,-22.4849]],[[-41.9039,-22.4748],[-41.8978,-22.4689],[-41.8996,-22.4647],[-41.8978,-22.4688],[-41.8952,-22.4634],[-41.8954,-22.4674],[-41.8884,-22.4638],[-41.9039,-22.4748],[-41.9039,-22.4748]],[[-41.8969,-22.479],[-41.8886,-22.483],[-41.8966,-22.4792],[-41.8969,-22.479]]]}},{"type":"Feature","properties":{"cod_tema":"LAGO_NATURAL","cod_imovel":"RJ-3304524-30C77C130D5B44B6A2C3F6DEBD8F1017","ind_status":"AT"},"geometry":{"type":"Polygon","coordinates":[[[-41.9021,-22.4886],[-41.8962,-22.4899],[-41.9022,-22.4887],[-41.9021,-22.4886]],[[-41.8883,-22.4827],[-41.8829,-22.4851],[-41.8875,-22.4793],[-41.8822,-22.4772],[-41.8825,-22.4854],[-41.8886,-22.483],[-41.8883,-22.4827]]]}},{"type":"Feature","properties":{"cod_tema":"RIO_ATE_10","cod_imovel":"RJ-3304524-9B76E460702746DAAC1183E1AE47BED7","ind_status":"PE"},"geometry":{"type":"Polygon","coordinates":[[[-42.0122,-22.4611],[-42.003,-22.4681],[-41.9952,-22.4898],[-41.9897,-22.4938],[-41.9952,-22.4898],[-42.0031,-22.4681],[-42.0127,-22.4611],[-42.0122,-22.4611]]]}},{"type":"Feature","properties":{"cod_tema":"RIO_ATE_10","cod_imovel":"RJ-3304524-9B76E460702746DAAC1183E1AE47BED7","ind_status":"PE"},"geometry":{"type":"Polygon","coordinates":[[[-41.9752,-22.4581],[-41.9593,-22.4794],[-41.9752,-22.4582],[-41.9752,-22.4581]]]}},{"type":"Feature","properties":{"cod_tema":"RIO_ATE_10","cod_imovel":"RJ-3304524-A5713242972045A3B81BB33D7F04741C","ind_status":"AT"},"geometry":{"type":"Polygon","coordinates":[[[-41.9924,-22.4216],[-41.989,-22.4204],[-41.9899,-22.4315],[-41.9859,-22.4236],[-41.9881,-22.4289],[-41.9793,-22.4284],[-41.9893,-22.4309],[-41.9807,-22.4317],[-41.9894,-22.4309],[-41.9904,-22.4364],[-41.9925,-22.4215],[-41.9924,-22.4216]],[[-41.9984,-22.4329],[-41.9918,-22.4336],[-41.9952,-22.426],[-41.9913,-22.4373],[-41.9988,-22.4329],[-41.9984,-22.4329]]]}},{"type":"Feature","properties":{"cod_tema":"RIO_ATE_10","cod_imovel":"RJ-3304524-80E997367CA2430588CDA37D2B67F5BF","ind_status":"AT"},"geometry":{"type":"Polygon","coordinates":[[[-41.971,-22.5163],[-41.9833,-22.5148],[-41.971,-22.5162],[-41.971,-22.5163]]]}},{"type":"Feature","properties":{"cod_tema":"RIO_ATE_10","cod_imovel":"RJ-3304524-237B2B91E5284AC5975B2EC9460B2B65","ind_status":"AT"},"geometry":{"type":"Polygon","coordinates":[[[-41.9005,-22.406],[-41.8895,-22.4144],[-41.871,-22.4193],[-41.9026,-22.4055],[-41.9005,-22.406]]]}},{"type":"Feature","properties":{"cod_tema":"RIO_ATE_10","cod_imovel":"RJ-3304524-6241F9A6131D4576BC76277F5E5F00E0","ind_status":"AT"},"geometry":{"type":"Polygon","coordinates":[[[-42.0014,-22.4386],[-42.0045,-22.4381],[-42.0011,-22.4387],[-42.0014,-22.4386]],[[-41.9934,-22.4401],[-41.9972,-22.4438],[-41.9934,-22.4401],[-41.9993,-22.4346],[-41.9934,-22.4401],[-41.9934,-22.4401]],[[-42.001,-22.4343],[-42.0047,-22.4365],[-42.0008,-22.4341],[-42.001,-22.4343]],[[-41.9973,-22.436],[-41.9937,-22.4367],[-41.9973,-22.4356],[-41.9973,-22.436]]]}},{"type":"Feature","properties":{"cod_tema":"RIO_10_A_50","cod_imovel":"RJ-3304524-1637329EAF004005BCE8C6E5803F103E","ind_status":"AT"},"geometry":{"type":"Polygon","coordinates":[[[-41.9665,-22.4854],[-41.9798,-22.4948],[-41.9665,-22.4853],[-41.9665,-22.4854]]]}},{"type":"Feature","properties":{"cod_tema":"RIO_ATE_10","cod_imovel":"RJ-3304524-3E7BBE96B8E140A98BC9C8DCE5908779","ind_status":"AT"},"geometry":{"type":"Polygon","coordinates":[[[-41.9588,-22.5036],[-41.9504,-22.4998],[-41.9606,-22.5035],[-41.9588,-22.5036]],[[-41.9607,-22.5102],[-41.9504,-22.5067],[-41.9646,-22.5109],[-41.9607,-22.5102]]]}},{"type":"Feature","properties":{"cod_tema":"RIO_ATE_10","cod_imovel":"RJ-3304524-2EF32D7547CA45699C41984A9EE92245","ind_status":"AT"},"geometry":{"type":"Polygon","coordinates":[[[-41.9671,-22.5143],[-41.9609,-22.5108],[-41.9624,-22.5077],[-41.9565,-22.5114],[-41.9602,-22.5064],[-41.9564,-22.5114],[-41.9501,-22.5092],[-41.963,-22.5133],[-41.9622,-22.5203],[-41.9609,-22.5108],[-41.9671,-22.5143],[-41.9671,-22.5143]],[[-41.9588,-22.5036],[-41.9501,-22.4998],[-41.9606,-22.5035],[-41.9588,-22.5036]],[[-41.9709,-22.5011],[-41.9676,-22.4958],[-41.973,-22.4971],[-41.9547,-22.4906],[-41.9676,-22.4958],[-41.9639,-22.5018],[-41.9675,-22.4966],[-41.9718,-22.5012],[-41.9709,-22.5011]]]}},{"type":"Feature","properties":{"cod_tema":"RIO_ATE_10","cod_imovel":"RJ-3304524-6C4286DF3F7F4D3FA4496FE8CB048834","ind_status":"AT"},"geometry":{"type":"Polygon","coordinates":[[[-41.8314,-22.4225],[-41.8281,-22.4189],[-41.837,-22.4198],[-41.8283,-22.4191],[-41.8258,-22.4138],[-41.8294,-22.425],[-41.8357,-22.423],[-41.8314,-22.4225]],[[-41.8383,-22.4155],[-41.8415,-22.421],[-41.8382,-22.4154],[-41.8383,-22.4155]],[[-41.8487,-22.4189],[-41.8514,-22.4124],[-41.8487,-22.4189],[-41.8487,-22.4189]],[[-41.8527,-22.4145],[-41.8539,-22.4181],[-41.8527,-22.4145],[-41.8527,-22.4145]]]}},{"type":"Feature","properties":{"cod_tema":"LAGO_NATURAL","cod_imovel":"RJ-3304524-6C4286DF3F7F4D3FA4496FE8CB048834","ind_status":"AT"},"geometry":{"type":"Polygon","coordinates":[[[-41.8137,-22.4117],[-41.8195,-22.417],[-41.8344,-22.4122],[-41.8369,-22.4158],[-41.855,-22.4084],[-41.839,-22.4102],[-41.8275,-22.4049],[-41.8137,-22.4084],[-41.8137,-22.4117]]]}},{"type":"Feature","properties":{"cod_tema":"RIO_ATE_10","cod_imovel":"RJ-3304524-148F816063F144CD97381B69A116F2EC","ind_status":"AT"},"geometry":{"type":"Polygon","coordinates":[[[-41.9344,-22.4462],[-41.9321,-22.439],[-41.9337,-22.4531],[-41.9281,-22.4611],[-41.9344,-22.4462],[-41.9344,-22.4462]]]}},{"type":"Feature","properties":{"cod_tema":"RIO_ATE_10","cod_imovel":"RJ-3304524-5D5764CAEF3B42FBAF76D3F414B08A20","ind_status":"AT"},"geometry":{"type":"Polygon","coordinates":[[[-41.9896,-22.4181],[-41.9962,-22.4149],[-41.9891,-22.4181],[-41.9896,-22.4181]]]}},{"type":"Feature","properties":{"cod_tema":"RIO_ATE_10","cod_imovel":"RJ-3304524-86917B3C1BF04479AFE7164EB580B485","ind_status":"AT"},"geometry":{"type":"Polygon","coordinates":[[[-41.9239,-22.4664],[-41.9284,-22.4606],[-41.9239,-22.4543],[-41.9284,-22.4606],[-41.9198,-22.461],[-41.9262,-22.4635],[-41.9239,-22.4664]]]}},{"type":"Feature","properties":{"cod_tema":"RIO_ATE_10","cod_imovel":"RJ-3304524-DB84431B65804835983F6BBE90A9E341","ind_status":"AT"},"geometry":{"type":"Polygon","coordinates":[[[-41.9732,-22.4533],[-41.975,-22.4577],[-41.9732,-22.4533],[-41.9732,-22.4533]]]}},{"type":"Feature","properties":{"cod_tema":"LAGO_NATURAL","cod_imovel":"RJ-3304524-DB84431B65804835983F6BBE90A9E341","ind_status":"AT"},"geometry":{"type":"Polygon","coordinates":[[[-41.9777,-22.4554],[-41.9822,-22.4567],[-41.9782,-22.4555],[-41.9777,-22.4554]]]}},{"type":"Feature","properties":{"cod_tema":"RIO_10_A_50","cod_imovel":"RJ-3304524-3FA31374480541BD87D8362954E6E80F","ind_status":"AT"},"geometry":{"type":"Polygon","coordinates":[[[-41.8465,-22.4293],[-41.8355,-22.423],[-41.8465,-22.4293],[-41.8465,-22.4293]]]}},{"type":"Feature","properties":{"cod_tema":"RIO_10_A_50","cod_imovel":"RJ-3304524-4D0193C1BF82489788602B790865B28F","ind_status":"AT"},"geometry":{"type":"Polygon","coordinates":[[[-41.943,-22.5072],[-41.9446,-22.4968],[-41.9361,-22.4841],[-41.9443,-22.4969],[-41.9428,-22.507],[-41.943,-22.5072]]]}},{"type":"Feature","properties":{"cod_tema":"RIO_ATE_10","cod_imovel":"RJ-3304524-9EA88AEC2FC349E0934CBDDE705A4F06","ind_status":"AT"},"geometry":{"type":"Polygon","coordinates":[[[-41.9574,-22.4316],[-41.955,-22.4403],[-41.9551,-22.43],[-41.9529,-22.4336],[-41.955,-22.4403],[-41.9575,-22.4313],[-41.9574,-22.4316]],[[-41.959,-22.4324],[-41.9584,-22.4413],[-41.9592,-22.4321],[-41.959,-22.4324]]]}},{"type":"Feature","properties":{"cod_tema":"RIO_ATE_10","cod_imovel":"RJ-3304524-D33195AA70234EA69680B3BCB64CCCC4","ind_status":"AT"},"geometry":{"type":"Polygon","coordinates":[[[-41.954,-22.4106],[-41.9526,-22.4157],[-41.9533,-22.4102],[-41.954,-22.4106]],[[-41.9749,-22.4063],[-41.9628,-22.4086],[-41.9575,-22.4039],[-41.9633,-22.4019],[-41.9615,-22.3978],[-41.9633,-22.4019],[-41.9575,-22.4038],[-41.9704,-22.4245],[-41.9628,-22.4086],[-41.9755,-22.4065],[-41.9749,-22.4063]],[[-41.9701,-22.4215],[-41.9744,-22.4226],[-41.9691,-22.4212],[-41.9701,-22.4215]],[[-41.9886,-22.4113],[-41.9836,-22.4088],[-41.9849,-22.4184],[-41.9887,-22.4108],[-41.9886,-22.4113]]]}},{"type":"Feature","properties":{"cod_tema":"RIO_ATE_10","cod_imovel":"RJ-3304524-F57D3D59B1264895A7AFE281EC064957","ind_status":"AT"},"geometry":{"type":"Polygon","coordinates":[[[-41.951,-22.4919],[-41.9464,-22.4963],[-41.9512,-22.4918],[-41.951,-22.4919]]]}}]}