{"type":"FeatureCollection","features":[{"type":"Feature","properties":{"cod_tema":"RIO_10_A_50","cod_imovel":"RJ-3304557-5E611816036146CB9590A369708A83E6","ind_status":"AT"},"geometry":{"type":"Polygon","coordinates":[[[-43.6017,-22.9753],[-43.5976,-22.9691],[-43.6012,-22.9752],[-43.6017,-22.9753]]]}},{"type":"Feature","properties":{"cod_tema":"RIO_ATE_10","cod_imovel":"RJ-3304557-7CF5F4E1A47A45B3BAE41ADFC8A29C12","ind_status":"PE"},"geometry":{"type":"Polygon","coordinates":[[[-43.547,-22.8514],[-43.5434,-22.8521],[-43.5472,-22.8514],[-43.547,-22.8514]]]}},{"type":"Feature","properties":{"cod_tema":"RIO_ATE_10","cod_imovel":"RJ-3304557-71F3D219B3434A4788AFDDCA82EBFFE3","ind_status":"AT"},"geometry":{"type":"Polygon","coordinates":[[[-43.5172,-23.0052],[-43.5133,-23.005],[-43.5174,-23.0051],[-43.5172,-23.0052]]]}},{"type":"Feature","properties":{"cod_tema":"RIO_ATE_10","cod_imovel":"RJ-3304557-BE5D95129F7147B0A0F6F6363D1BAB99","ind_status":"AT"},"geometry":{"type":"Polygon","coordinates":[[[-43.5121,-22.9702],[-43.511,-22.9668],[-43.5121,-22.9702],[-43.5121,-22.9702]]]}},{"type":"Feature","properties":{"cod_tema":"RIO_ATE_10","cod_imovel":"RJ-3304557-FD1210D7427F4000ADBB81B74DB7F643","ind_status":"AT"},"geometry":{"type":"Polygon","coordinates":[[[-43.2854,-22.9192],[-43.2837,-22.9168],[-43.2868,-22.9252],[-43.2856,-22.9195],[-43.2854,-22.9192]],[[-43.2855,-22.9252],[-43.2851,-22.9219],[-43.2855,-22.9257],[-43.2855,-22.9252]],[[-43.2895,-22.9217],[-43.2858,-22.9195],[-43.2901,-22.9218],[-43.2895,-22.9217]]]}},{"type":"Feature","properties":{"cod_tema":"RIO_ATE_10","cod_imovel":"RJ-3304557-86BBD5B8E6B44682ACE64859921E740E","ind_status":"AT"},"geometry":{"type":"Polygon","coordinates":[[[-43.6067,-22.9939],[-43.584,-22.9987],[-43.5827,-22.9919],[-43.5839,-22.9989],[-43.5677,-22.9964],[-43.5804,-22.9996],[-43.5683,-23.0026],[-43.581,-22.9995],[-43.5813,-23.0113],[-43.581,-23.0045],[-43.5862,-23.0045],[-43.5835,-23.0103],[-43.5863,-23.0044],[-43.5941,-23.0053],[-43.6029,-23.0169],[-43.594,-23.0053],[-43.6014,-23.005],[-43.5968,-23.0047],[-43.5997,-22.9948],[-43.6069,-22.9939],[-43.6067,-22.9939]],[[-43.5898,-22.9974],[-43.5864,-23.0044],[-43.581,-23.0045],[-43.581,-22.9995],[-43.5898,-22.9974],[-43.5898,-22.9974]],[[-43.5911,-23.0056],[-43.5864,-23.0044],[-43.5899,-22.9973],[-43.597,-22.9942],[-43.5925,-23.0054],[-43.5905,-22.9998],[-43.5911,-23.0056],[-43.5911,-23.0056]],[[-43.6,-22.9943],[-43.5974,-23.0043],[-43.5925,-23.0054],[-43.5939,-22.9967],[-43.5999,-22.9943],[-43.6,-22.9943]],[[-43.6108,-22.9992],[-43.6149,-22.9896],[-43.611,-22.9991],[-43.6108,-22.9992]]]}},{"type":"Feature","properties":{"cod_tema":"RIO_10_A_50","cod_imovel":"RJ-3304557-86BBD5B8E6B44682ACE64859921E740E","ind_status":"AT"},"geometry":{"type":"Polygon","coordinates":[[[-43.6117,-22.9999],[-43.6067,-22.9935],[-43.6116,-23.0001],[-43.6117,-22.9999]]]}},{"type":"Feature","properties":{"cod_tema":"RIO_ATE_10","cod_imovel":"RJ-3304557-DAB47B3EA74F4DAA9276B61F830836E8","ind_status":"AT"},"geometry":{"type":"Polygon","coordinates":[[[-43.5,-22.9095],[-43.4956,-22.9087],[-43.499,-22.9138],[-43.4941,-22.9129],[-43.5024,-22.9156],[-43.5,-22.9094],[-43.5,-22.9095]]]}},{"type":"Feature","properties":{"cod_tema":"RIO_ATE_10","cod_imovel":"RJ-3304557-5E9A981374714B43BE150B847E29F90B","ind_status":"AT"},"geometry":{"type":"Polygon","coordinates":[[[-43.6764,-22.9719],[-43.6716,-22.9707],[-43.676,-22.972],[-43.6744,-22.9768],[-43.6764,-22.9721],[-43.6764,-22.9719]]]}},{"type":"Feature","properties":{"cod_tema":"RIO_10_A_50","cod_imovel":"RJ-3304557-3333AAC0CAEB48188B577869E5A437FA","ind_status":"AT"},"geometry":{"type":"Polygon","coordinates":[[[-43.5947,-22.9544],[-43.5977,-22.9615],[-43.5948,-22.9542],[-43.5947,-22.9544]]]}},{"type":"Feature","properties":{"cod_tema":"RIO_ATE_10","cod_imovel":"RJ-3304557-BBD6AE47FD9C4367AAE40A8C5E5EF63B","ind_status":"AT"},"geometry":{"type":"Polygon","coordinates":[[[-43.5342,-22.8395],[-43.5353,-22.8349],[-43.5345,-22.8383],[-43.5342,-22.8395]]]}},{"type":"Feature","properties":{"cod_tema":"RIO_ATE_10","cod_imovel":"RJ-3304557-0BE41C5D67C34B7580F05F937CB2A5D8","ind_status":"AT"},"geometry":{"type":"Polygon","coordinates":[[[-43.5928,-22.9337],[-43.5961,-22.9345],[-43.5928,-22.9337],[-43.5928,-22.9337]],[[-43.5989,-22.9304],[-43.5921,-22.9296],[-43.6,-22.9336],[-43.5989,-22.9305],[-43.5989,-22.9304]],[[-43.5979,-22.9364],[-43.5934,-22.9362],[-43.5971,-22.9396],[-43.5979,-22.9363],[-43.5979,-22.9364]],[[-43.6069,-22.9382],[-43.6001,-22.9341],[-43.6069,-22.9382],[-43.6069,-22.9382]]]}},{"type":"Feature","properties":{"cod_tema":"RIO_10_A_50","cod_imovel":"RJ-3304557-D3407C76C03F49E099805A6019D8963B","ind_status":"AT"},"geometry":{"type":"Polygon","coordinates":[[[-43.7042,-22.8732],[-43.6954,-22.8701],[-43.7041,-22.8734],[-43.7042,-22.8732]]]}},{"type":"Feature","properties":{"cod_tema":"RIO_ATE_10","cod_imovel":"RJ-3304557-A3532CFA0E304348A86B03BE588511BB","ind_status":"AT"},"geometry":{"type":"Polygon","coordinates":[[[-43.5236,-22.9078],[-43.5219,-22.9027],[-43.5236,-22.9079],[-43.5236,-22.9078]]]}},{"type":"Feature","properties":{"cod_tema":"RIO_ATE_10","cod_imovel":"RJ-3304557-78D79A87F0074DC2AD9276D92A893E92","ind_status":"PE"},"geometry":{"type":"Polygon","coordinates":[[[-43.5545,-22.8541],[-43.5523,-22.8519],[-43.5546,-22.8542],[-43.5545,-22.8541]]]}},{"type":"Feature","properties":{"cod_tema":"RIO_ATE_10","cod_imovel":"RJ-3304557-A9FB8DBCD6E444A8A1687141264F1946","ind_status":"AT"},"geometry":{"type":"Polygon","coordinates":[[[-43.4549,-22.9522],[-43.4609,-22.9555],[-43.4547,-22.952],[-43.4549,-22.9522]]]}},{"type":"Feature","properties":{"cod_tema":"RIO_ATE_10","cod_imovel":"RJ-3304557-53FF07C3349B446B8627C19B6D0B2702","ind_status":"CA"},"geometry":{"type":"Polygon","coordinates":[[[-43.5964,-22.9559],[-43.5973,-22.9597],[-43.596,-22.9555],[-43.5964,-22.9559]]]}},{"type":"Feature","properties":{"cod_tema":"RIO_10_A_50","cod_imovel":"RJ-3304557-E59309615F494E50A901726F78577B6C","ind_status":"CA"},"geometry":{"type":"Polygon","coordinates":[[[-43.5976,-22.9646],[-43.5976,-22.9691],[-43.5979,-22.9646],[-43.5976,-22.9646]]]}},{"type":"Feature","properties":{"cod_tema":"RIO_ATE_10","cod_imovel":"RJ-3304557-67EBD9D78F2C4BB99B1DD1F03D81E780","ind_status":"AT"},"geometry":{"type":"Polygon","coordinates":[[[-43.532,-23.0074],[-43.5286,-23.0073],[-43.532,-23.0075],[-43.532,-23.0074]]]}},{"type":"Feature","properties":{"cod_tema":"RIO_ATE_10","cod_imovel":"RJ-3304557-D6607E03934D4278910441220DD68F9A","ind_status":"AT"},"geometry":{"type":"Polygon","coordinates":[[[-43.3154,-22.932],[-43.3033,-22.9417],[-43.3155,-22.9321],[-43.3154,-22.932]]]}},{"type":"Feature","properties":{"cod_tema":"RIO_ATE_10","cod_imovel":"RJ-3304557-833891A276334AC3A71B8C082DE76F2B","ind_status":"AT"},"geometry":{"type":"Polygon","coordinates":[[[-43.5167,-22.9974],[-43.5114,-23.0025],[-43.5192,-22.9964],[-43.5167,-22.9974]]]}},{"type":"Feature","properties":{"cod_tema":"RIO_ATE_10","cod_imovel":"RJ-3304557-C0C8FF008A3B49AAAEE7215B35AD51B1","ind_status":"AT"},"geometry":{"type":"Polygon","coordinates":[[[-43.5356,-23.0083],[-43.532,-23.0075],[-43.5359,-23.0083],[-43.5356,-23.0083]]]}}]}