{"type":"FeatureCollection","features":[{"type":"Feature","properties":{"cod_tema":"RIO_ATE_10","cod_imovel":"RJ-3305158-D10B5948BC4E44BFBDF3ADA7DDB23666","ind_status":"AT"},"geometry":{"type":"Polygon","coordinates":[[[-42.9804,-22.1669],[-42.9827,-22.1644],[-42.9805,-22.1669],[-42.9804,-22.1669]]]}},{"type":"Feature","properties":{"cod_tema":"RIO_ATE_10","cod_imovel":"RJ-3305158-050B6BA473D342CDA155B10FF7D80BCC","ind_status":"AT"},"geometry":{"type":"Polygon","coordinates":[[[-42.9613,-22.2065],[-42.9682,-22.2048],[-42.9611,-22.2067],[-42.9613,-22.2065]]]}},{"type":"Feature","properties":{"cod_tema":"RIO_ATE_10","cod_imovel":"RJ-3305158-301C73F0F8DC431E9250CD98CE7D93BC","ind_status":"PE"},"geometry":{"type":"Polygon","coordinates":[[[-42.9647,-22.2433],[-42.969,-22.2365],[-42.9647,-22.2433],[-42.9647,-22.2433]]]}},{"type":"Feature","properties":{"cod_tema":"RIO_ATE_10","cod_imovel":"RJ-3305158-0271778C4D974D48A041791CB332216F","ind_status":"AT"},"geometry":{"type":"Polygon","coordinates":[[[-42.9466,-22.1029],[-42.9482,-22.0999],[-42.9464,-22.103],[-42.9466,-22.1029]]]}},{"type":"Feature","properties":{"cod_tema":"RIO_ATE_10","cod_imovel":"RJ-3305158-10CC8891CE644F058D1C6023759993AC","ind_status":"AT"},"geometry":{"type":"Polygon","coordinates":[[[-42.9699,-22.1026],[-42.9676,-22.1049],[-42.9699,-22.1023],[-42.9699,-22.1026]]]}},{"type":"Feature","properties":{"cod_tema":"RIO_ATE_10","cod_imovel":"RJ-3305158-126E9BEF904D48379F4101867DFB5C12","ind_status":"AT"},"geometry":{"type":"Polygon","coordinates":[[[-42.8841,-22.1396],[-42.8871,-22.1378],[-42.8841,-22.1397],[-42.8841,-22.1396]]]}},{"type":"Feature","properties":{"cod_tema":"RIO_ATE_10","cod_imovel":"RJ-3305158-13F3137EAA734514891E3F851F52A1FD","ind_status":"AT"},"geometry":{"type":"Polygon","coordinates":[[[-42.7981,-22.147],[-42.802,-22.1491],[-42.798,-22.147],[-42.7981,-22.147]]]}},{"type":"Feature","properties":{"cod_tema":"RIO_ATE_10","cod_imovel":"RJ-3305158-1F8F44540559458B87CF80FC87DD9E8F","ind_status":"AT"},"geometry":{"type":"Polygon","coordinates":[[[-42.9467,-22.168],[-42.9496,-22.1694],[-42.9465,-22.1681],[-42.9467,-22.168]]]}},{"type":"Feature","properties":{"cod_tema":"RIO_10_A_50","cod_imovel":"RJ-3305158-1F8F44540559458B87CF80FC87DD9E8F","ind_status":"AT"},"geometry":{"type":"Polygon","coordinates":[[[-42.9532,-22.1668],[-42.951,-22.1632],[-42.9457,-22.1655],[-42.953,-22.1664],[-42.9532,-22.1668]]]}},{"type":"Feature","properties":{"cod_tema":"RIO_ATE_10","cod_imovel":"RJ-3305158-4223D248643143D59A77719245DBD36A","ind_status":"AT"},"geometry":{"type":"Polygon","coordinates":[[[-42.9338,-22.1673],[-42.9332,-22.1637],[-42.9339,-22.1673],[-42.9338,-22.1673]]]}},{"type":"Feature","properties":{"cod_tema":"RIO_ATE_10","cod_imovel":"RJ-3305158-4CEF4A17F58746928260F897B80C0883","ind_status":"AT"},"geometry":{"type":"Polygon","coordinates":[[[-43.0404,-22.2007],[-43.0429,-22.1975],[-43.0404,-22.2008],[-43.0404,-22.2007]]]}},{"type":"Feature","properties":{"cod_tema":"RIO_ATE_10","cod_imovel":"RJ-3305158-4BF6478DFC804F359105F9CF1494A7F8","ind_status":"AT"},"geometry":{"type":"Polygon","coordinates":[[[-42.968,-22.0974],[-42.9725,-22.0989],[-42.9665,-22.0971],[-42.968,-22.0974]],[[-42.9735,-22.0964],[-42.9712,-22.0908],[-42.9738,-22.0978],[-42.9735,-22.0964]]]}},{"type":"Feature","properties":{"cod_tema":"RIO_ATE_10","cod_imovel":"RJ-3305158-6627C76101574D4D855CB11C4E0589C8","ind_status":"AT"},"geometry":{"type":"Polygon","coordinates":[[[-42.9882,-22.1641],[-42.9837,-22.1653],[-42.9883,-22.164],[-42.9882,-22.1641]]]}},{"type":"Feature","properties":{"cod_tema":"RIO_ATE_10","cod_imovel":"RJ-3305158-6B4CD6B386BC41C59E26A181BE6014CE","ind_status":"AT"},"geometry":{"type":"Polygon","coordinates":[[[-42.77,-22.132],[-42.7661,-22.129],[-42.7702,-22.132],[-42.77,-22.132]]]}},{"type":"Feature","properties":{"cod_tema":"RIO_ATE_10","cod_imovel":"RJ-3305158-851C649EDEBB45D0866523E58EBEA589","ind_status":"AT"},"geometry":{"type":"Polygon","coordinates":[[[-42.9183,-22.2019],[-42.9222,-22.2087],[-42.9184,-22.2016],[-42.9183,-22.2019]]]}},{"type":"Feature","properties":{"cod_tema":"RIO_ATE_10","cod_imovel":"RJ-3305158-7E276F1067544848885FCCB691D27E1B","ind_status":"AT"},"geometry":{"type":"Polygon","coordinates":[[[-42.9774,-22.1873],[-42.9831,-22.1864],[-42.9773,-22.1872],[-42.9774,-22.1873]]]}},{"type":"Feature","properties":{"cod_tema":"RIO_ATE_10","cod_imovel":"RJ-3305158-7D3A9A6ECE954EBA9C1CD55031C896D0","ind_status":"AT"},"geometry":{"type":"Polygon","coordinates":[[[-42.9194,-22.1112],[-42.9108,-22.1121],[-42.9146,-22.1023],[-42.9013,-22.1226],[-42.9108,-22.1121],[-42.9224,-22.1094],[-42.9194,-22.1112]],[[-42.9148,-22.1022],[-42.9048,-22.1012],[-42.917,-22.1034],[-42.9148,-22.1022]],[[-42.916,-22.12],[-42.9125,-22.1223],[-42.9188,-22.1197],[-42.916,-22.12]]]}},{"type":"Feature","properties":{"cod_tema":"RIO_ATE_10","cod_imovel":"RJ-3305158-91561D36618641B3AA0AC2212AB006F9","ind_status":"AT"},"geometry":{"type":"Polygon","coordinates":[[[-42.9535,-22.0995],[-42.9511,-22.0958],[-42.9536,-22.0997],[-42.9535,-22.0995]]]}},{"type":"Feature","properties":{"cod_tema":"RIO_ATE_10","cod_imovel":"RJ-3305158-938E056BDE99440A9ABF9EAB87EAC99A","ind_status":"AT"},"geometry":{"type":"Polygon","coordinates":[[[-42.9572,-22.2155],[-42.9561,-22.2121],[-42.9569,-22.2157],[-42.9488,-22.2175],[-42.957,-22.2155],[-42.9572,-22.2155]]]}},{"type":"Feature","properties":{"cod_tema":"RIO_ATE_10","cod_imovel":"RJ-3305158-9FE8E7CEAB4A4A5788AA9A1DA99AF6E8","ind_status":"AT"},"geometry":{"type":"Polygon","coordinates":[[[-42.892,-22.1326],[-42.9014,-22.1332],[-42.8906,-22.1318],[-42.892,-22.1326]]]}},{"type":"Feature","properties":{"cod_tema":"RIO_ATE_10","cod_imovel":"RJ-3305158-B9B9ACB05B2D4CDDB083544091C814C0","ind_status":"AT"},"geometry":{"type":"Polygon","coordinates":[[[-42.9273,-22.1773],[-42.9171,-22.1777],[-42.9274,-22.1773],[-42.9273,-22.1773]]]}},{"type":"Feature","properties":{"cod_tema":"RIO_ATE_10","cod_imovel":"RJ-3305158-B7C12C3393844A5D85EC2A73C3E31ED0","ind_status":"AT"},"geometry":{"type":"Polygon","coordinates":[[[-42.9594,-22.1492],[-42.9573,-22.1515],[-42.9594,-22.1491],[-42.9594,-22.1492]]]}},{"type":"Feature","properties":{"cod_tema":"RIO_ATE_10","cod_imovel":"RJ-3305158-AA45C3AF360745AEBFE4137989E7E21C","ind_status":"AT"},"geometry":{"type":"Polygon","coordinates":[[[-42.952,-22.1724],[-42.952,-22.1758],[-42.952,-22.1723],[-42.952,-22.1724]]]}},{"type":"Feature","properties":{"cod_tema":"RIO_ATE_10","cod_imovel":"RJ-3305158-C8ED33A0FFE24B37BC73D4A3F1C36B6E","ind_status":"AT"},"geometry":{"type":"Polygon","coordinates":[[[-42.9396,-22.1422],[-42.9362,-22.1402],[-42.9404,-22.1421],[-42.9396,-22.1422]]]}},{"type":"Feature","properties":{"cod_tema":"RIO_ATE_10","cod_imovel":"RJ-3305158-CAED26C155734808996DE2A8189490A7","ind_status":"AT"},"geometry":{"type":"Polygon","coordinates":[[[-42.7951,-22.1454],[-42.7909,-22.1421],[-42.795,-22.1454],[-42.7951,-22.1454]]]}},{"type":"Feature","properties":{"cod_tema":"RIO_ATE_10","cod_imovel":"RJ-3305158-CAED26C155734808996DE2A8189490A7","ind_status":"AT"},"geometry":{"type":"Polygon","coordinates":[[[-42.8001,-22.1479],[-42.793,-22.1462],[-42.8003,-22.1479],[-42.8001,-22.1479]]]}},{"type":"Feature","properties":{"cod_tema":"RIO_ATE_10","cod_imovel":"RJ-3305158-CD148459280743428B67B8FBB3DB53F9","ind_status":"AT"},"geometry":{"type":"Polygon","coordinates":[[[-42.8845,-22.1474],[-42.8829,-22.1534],[-42.8847,-22.1474],[-42.8845,-22.1474]]]}},{"type":"Feature","properties":{"cod_tema":"RIO_ATE_10","cod_imovel":"RJ-3305158-D6EB95F6944C45C1902938369CE042BE","ind_status":"AT"},"geometry":{"type":"Polygon","coordinates":[[[-42.9807,-22.2394],[-42.9843,-22.2408],[-42.9801,-22.2393],[-42.9807,-22.2394]]]}},{"type":"Feature","properties":{"cod_tema":"RIO_10_A_50","cod_imovel":"RJ-3305158-E7BA6828B20745EE854EA594E4ECDB85","ind_status":"AT"},"geometry":{"type":"Polygon","coordinates":[[[-42.9485,-22.1631],[-42.9461,-22.1684],[-42.9486,-22.1633],[-42.9485,-22.1631]]]}},{"type":"Feature","properties":{"cod_tema":"RIO_ATE_10","cod_imovel":"RJ-3305158-E816B49354164065B37481F1EF228DF9","ind_status":"AT"},"geometry":{"type":"Polygon","coordinates":[[[-42.8796,-22.1356],[-42.8762,-22.1278],[-42.8803,-22.1364],[-42.8796,-22.1356]],[[-42.8746,-22.1324],[-42.8725,-22.1295],[-42.8748,-22.1326],[-42.8746,-22.1324]],[[-42.8713,-22.1261],[-42.8714,-22.1223],[-42.8714,-22.1264],[-42.8713,-22.1261]],[[-42.8687,-22.1125],[-42.8643,-22.1276],[-42.8692,-22.1379],[-42.8644,-22.1276],[-42.8689,-22.1117],[-42.8687,-22.1125]]]}},{"type":"Feature","properties":{"cod_tema":"RIO_ATE_10","cod_imovel":"RJ-3305158-EEB0EE3643544639A264E5003D9D7B7B","ind_status":"AT"},"geometry":{"type":"Polygon","coordinates":[[[-42.9308,-22.2231],[-42.92,-22.2195],[-42.9305,-22.2232],[-42.9308,-22.2231]]]}},{"type":"Feature","properties":{"cod_tema":"RIO_ATE_10","cod_imovel":"RJ-3305158-F4F1BCCC3F9F41BA8B3E77D94EDA60A2","ind_status":"AT"},"geometry":{"type":"Polygon","coordinates":[[[-42.9921,-22.1713],[-42.9906,-22.1786],[-42.9921,-22.171],[-42.9921,-22.1713]]]}},{"type":"Feature","properties":{"cod_tema":"RIO_ATE_10","cod_imovel":"RJ-3305158-F4F6EF9737DF41CC92155EA1F0EFF4B8","ind_status":"AT"},"geometry":{"type":"Polygon","coordinates":[[[-42.923,-22.1949],[-42.9203,-22.1968],[-42.9232,-22.1947],[-42.923,-22.1949]]]}},{"type":"Feature","properties":{"cod_tema":"RIO_ATE_10","cod_imovel":"RJ-3305158-F96C50F596A647BBB6C0A7A185042E8C","ind_status":"AT"},"geometry":{"type":"Polygon","coordinates":[[[-43.0179,-22.2221],[-43.012,-22.2202],[-43.0185,-22.2233],[-43.012,-22.2268],[-43.0179,-22.2247],[-43.0197,-22.2171],[-43.0179,-22.222],[-43.0179,-22.2221]]]}},{"type":"Feature","properties":{"cod_tema":"RIO_ATE_10","cod_imovel":"RJ-3305158-FE7DF0C1ADAE427EAE3AC150F038A37E","ind_status":"AT"},"geometry":{"type":"Polygon","coordinates":[[[-42.9939,-22.1872],[-42.9959,-22.1829],[-42.9938,-22.1872],[-42.9939,-22.1872]]]}},{"type":"Feature","properties":{"cod_tema":"RIO_ATE_10","cod_imovel":"RJ-3305158-FF71509657454DA08922A8339D98909F","ind_status":"AT"},"geometry":{"type":"Polygon","coordinates":[[[-42.9176,-22.2016],[-42.9186,-22.1982],[-42.9173,-22.2018],[-42.9176,-22.2016]]]}},{"type":"Feature","properties":{"cod_tema":"RIO_ATE_10","cod_imovel":"RJ-3305158-71597A10A04F4B36AE8B65D47A5E49E3","ind_status":"AT"},"geometry":{"type":"Polygon","coordinates":[[[-42.9703,-22.229],[-42.9688,-22.2361],[-42.9705,-22.2291],[-42.9772,-22.2348],[-42.9705,-22.2291],[-42.9703,-22.229]],[[-42.9708,-22.2237],[-42.9689,-22.2212],[-42.9709,-22.2237],[-42.9708,-22.2237]],[[-42.9709,-22.2154],[-42.9713,-22.2119],[-42.9708,-22.2154],[-42.9709,-22.2154]],[[-42.982,-22.2228],[-42.9789,-22.2189],[-42.9712,-22.2279],[-42.975,-22.2248],[-42.9811,-22.2305],[-42.975,-22.2248],[-42.9765,-22.2215],[-42.9817,-22.2258],[-42.9766,-22.2215],[-42.979,-22.2189],[-42.982,-22.2228],[-42.982,-22.2228]],[[-42.9735,-22.2127],[-42.9732,-22.2057],[-42.9715,-22.2171],[-42.9735,-22.2127],[-42.9735,-22.2127]],[[-42.9811,-22.1992],[-42.984,-22.1945],[-42.9755,-22.1985],[-42.9811,-22.1991],[-42.9794,-22.2045],[-42.9811,-22.1992],[-42.9811,-22.1992]],[[-42.9774,-22.2122],[-42.9783,-22.2086],[-42.9774,-22.2123],[-42.9774,-22.2122]],[[-42.9836,-22.2102],[-42.9789,-22.2127],[-42.9835,-22.2103],[-42.9836,-22.2102]]]}},{"type":"Feature","properties":{"cod_tema":"RIO_ATE_10","cod_imovel":"RJ-3305158-68CF41DE62204B3B83C7611DE83B7A4A","ind_status":"AT"},"geometry":{"type":"Polygon","coordinates":[[[-42.9231,-22.1467],[-42.9207,-22.1488],[-42.9231,-22.1465],[-42.9231,-22.1467]]]}},{"type":"Feature","properties":{"cod_tema":"RIO_ATE_10","cod_imovel":"RJ-3305158-0848829A9CCA477F9229A139381135F7","ind_status":"AT"},"geometry":{"type":"Polygon","coordinates":[[[-42.9436,-22.2214],[-42.9405,-22.2217],[-42.9441,-22.2215],[-42.9436,-22.2214]],[[-42.9434,-22.2227],[-42.94,-22.2234],[-42.944,-22.2227],[-42.9434,-22.2227]]]}},{"type":"Feature","properties":{"cod_tema":"RIO_ATE_10","cod_imovel":"RJ-3305158-AF2C9645722844C3837B6B8BD6B54F74","ind_status":"AT"},"geometry":{"type":"Polygon","coordinates":[[[-42.9247,-22.1366],[-42.9279,-22.1343],[-42.9245,-22.1367],[-42.9247,-22.1366]]]}},{"type":"Feature","properties":{"cod_tema":"RIO_ATE_10","cod_imovel":"RJ-3305158-80E99302540143BE9D717A99D8558CDD","ind_status":"AT"},"geometry":{"type":"Polygon","coordinates":[[[-42.9789,-22.1588],[-42.9816,-22.1565],[-42.9788,-22.159],[-42.9789,-22.1588]]]}},{"type":"Feature","properties":{"cod_tema":"RIO_ATE_10","cod_imovel":"RJ-3305158-F94EAA5A6BFD436CB7A1E1251A4DADB7","ind_status":"AT"},"geometry":{"type":"Polygon","coordinates":[[[-42.9274,-22.1345],[-42.9305,-22.1321],[-42.9274,-22.1348],[-42.9274,-22.1345]]]}},{"type":"Feature","properties":{"cod_tema":"RIO_ATE_10","cod_imovel":"RJ-3305158-9028BF9A3D0E41628A9AE023994ADC37","ind_status":"AT"},"geometry":{"type":"Polygon","coordinates":[[[-42.9027,-22.1262],[-42.9029,-22.13],[-42.9026,-22.1261],[-42.9027,-22.1262]]]}},{"type":"Feature","properties":{"cod_tema":"RIO_10_A_50","cod_imovel":"RJ-3305158-1532B40672ED4B138A57661648081F55","ind_status":"AT"},"geometry":{"type":"Polygon","coordinates":[[[-42.8862,-22.1773],[-42.8851,-22.1661],[-42.8861,-22.1772],[-42.8862,-22.1773]]]}},{"type":"Feature","properties":{"cod_tema":"RIO_ATE_10","cod_imovel":"RJ-3305158-FB24884475224E9DA5910708BBF6BD7B","ind_status":"AT"},"geometry":{"type":"Polygon","coordinates":[[[-42.9308,-22.1255],[-42.9325,-22.1212],[-42.9309,-22.1258],[-42.9308,-22.1255]]]}},{"type":"Feature","properties":{"cod_tema":"RIO_ATE_10","cod_imovel":"RJ-3305158-3708D5AFABAE41E4B5CDF2C20A59F34D","ind_status":"PE"},"geometry":{"type":"Polygon","coordinates":[[[-42.9369,-22.1285],[-42.9339,-22.1306],[-42.9372,-22.1285],[-42.9369,-22.1285]]]}},{"type":"Feature","properties":{"cod_tema":"RIO_ATE_10","cod_imovel":"RJ-3305158-173AD63EC5E1494BA47F23384D2EA27E","ind_status":"PE"},"geometry":{"type":"Polygon","coordinates":[[[-42.9832,-22.231],[-42.9803,-22.2303],[-42.9835,-22.2312],[-42.9832,-22.231]],[[-42.9808,-22.2352],[-42.9894,-22.2378],[-42.9841,-22.2314],[-42.9855,-22.2346],[-42.9804,-22.2353],[-42.9808,-22.2352]],[[-42.9823,-22.2243],[-42.9809,-22.2213],[-42.9823,-22.2245],[-42.9823,-22.2243]],[[-42.9825,-22.2186],[-42.9822,-22.2153],[-42.9821,-22.2187],[-42.9825,-22.2186]],[[-42.984,-22.227],[-42.9958,-22.2181],[-43.0056,-22.2173],[-42.9958,-22.2181],[-42.9839,-22.2272],[-42.984,-22.227]],[[-43.005,-22.221],[-42.9852,-22.2302],[-42.9959,-22.2285],[-42.9964,-22.2317],[-42.9852,-22.2325],[-42.9964,-22.2318],[-42.9922,-22.2376],[-42.9965,-22.2317],[-42.9975,-22.2355],[-42.996,-22.2257],[-43.005,-22.221],[-43.005,-22.221]],[[-42.9971,-22.2011],[-42.9919,-22.2036],[-42.9953,-22.1977],[-42.9858,-22.1984],[-42.9925,-22.2064],[-42.9895,-22.2118],[-42.991,-22.203],[-42.9956,-22.2066],[-42.9919,-22.2036],[-42.9972,-22.201],[-42.9971,-22.2011]],[[-43.0074,-22.2073],[-42.9991,-22.211],[-43.0012,-22.2031],[-42.9877,-22.2179],[-42.9976,-22.2107],[-42.996,-22.216],[-42.9986,-22.2101],[-43.0057,-22.2143],[-43.0026,-22.2123],[-43.0077,-22.2068],[-43.0074,-22.2073]]]}},{"type":"Feature","properties":{"cod_tema":"RIO_ATE_10","cod_imovel":"RJ-3305158-8C27DA8CDDA0484A80E649E9F8131E7E","ind_status":"AT"},"geometry":{"type":"Polygon","coordinates":[[[-42.9751,-22.241],[-42.9713,-22.2392],[-42.9674,-22.2463],[-42.9713,-22.2392],[-42.9751,-22.2411],[-42.9751,-22.241]]]}},{"type":"Feature","properties":{"cod_tema":"RIO_ATE_10","cod_imovel":"RJ-3305158-58D2F5596EBA4ECDB43B59F84CB9ABD4","ind_status":"AT"},"geometry":{"type":"Polygon","coordinates":[[[-42.9751,-22.241],[-42.9688,-22.2362],[-42.9706,-22.2297],[-42.9647,-22.2434],[-42.9666,-22.2369],[-42.9665,-22.2447],[-42.9692,-22.2368],[-42.9691,-22.2447],[-42.9713,-22.2392],[-42.9751,-22.2411],[-42.9751,-22.241]]]}},{"type":"Feature","properties":{"cod_tema":"RIO_ATE_10","cod_imovel":"RJ-3305158-CAF643636CAF4EFAAA05E123A439E2B8","ind_status":"PE"},"geometry":{"type":"Polygon","coordinates":[[[-42.9427,-22.1239],[-42.9402,-22.1198],[-42.9426,-22.1242],[-42.9427,-22.1239]]]}},{"type":"Feature","properties":{"cod_tema":"RIO_ATE_10","cod_imovel":"RJ-3305158-7EE774FA3C9A4097A10127B9771C6C7B","ind_status":"AT"},"geometry":{"type":"Polygon","coordinates":[[[-42.8382,-22.1661],[-42.8392,-22.1702],[-42.8385,-22.1663],[-42.8382,-22.1661]]]}},{"type":"Feature","properties":{"cod_tema":"RIO_ATE_10","cod_imovel":"RJ-3305158-D1FD05698B8D4EFBA481628561F9F237","ind_status":"AT"},"geometry":{"type":"Polygon","coordinates":[[[-43.0179,-22.2221],[-43.012,-22.2202],[-43.0185,-22.2233],[-43.012,-22.2268],[-43.0179,-22.2247],[-43.0212,-22.2152],[-43.0179,-22.222],[-43.0179,-22.2221]]]}},{"type":"Feature","properties":{"cod_tema":"RIO_ATE_10","cod_imovel":"RJ-3305158-72E69378620E491CA953B86DE676BE3F","ind_status":"AT"},"geometry":{"type":"Polygon","coordinates":[[[-42.9664,-22.2322],[-42.9669,-22.229],[-42.9649,-22.2323],[-42.9664,-22.2322]],[[-42.9588,-22.2454],[-42.9624,-22.2423],[-42.9592,-22.2371],[-42.9608,-22.2448],[-42.9504,-22.242],[-42.9605,-22.2468],[-42.9588,-22.2454]]]}},{"type":"Feature","properties":{"cod_tema":"RIO_ATE_10","cod_imovel":"RJ-3305158-990F7E66014549E790EBEE23D1F177B6","ind_status":"AT"},"geometry":{"type":"Polygon","coordinates":[[[-42.9378,-22.2287],[-42.9329,-22.2241],[-42.938,-22.2289],[-42.9378,-22.2287]],[[-42.9412,-22.2288],[-42.9459,-22.2266],[-42.9412,-22.2262],[-42.9399,-22.2335],[-42.9412,-22.2262],[-42.945,-22.2269],[-42.941,-22.2289],[-42.9412,-22.2288]],[[-42.9418,-22.2368],[-42.9521,-22.2346],[-42.9513,-22.2392],[-42.9536,-22.2328],[-42.9414,-22.2368],[-42.9418,-22.2368]],[[-42.9535,-22.2389],[-42.9585,-22.2369],[-42.9534,-22.239],[-42.9535,-22.2389]],[[-42.9438,-22.2349],[-42.953,-22.2324],[-42.9436,-22.2349],[-42.9438,-22.2349]]]}},{"type":"Feature","properties":{"cod_tema":"RIO_ATE_10","cod_imovel":"RJ-3305158-490798294F664B5AADDD8CB21C41010E","ind_status":"AT"},"geometry":{"type":"Polygon","coordinates":[[[-42.9231,-22.2167],[-42.9264,-22.2161],[-42.923,-22.2168],[-42.9231,-22.2167]]]}},{"type":"Feature","properties":{"cod_tema":"RIO_ATE_10","cod_imovel":"RJ-3305158-4BD728F7F2EB4E29A11FBE2D34DE6087","ind_status":"AT"},"geometry":{"type":"Polygon","coordinates":[[[-42.9663,-22.214],[-42.9681,-22.2053],[-42.9655,-22.2154],[-42.9663,-22.214]]]}},{"type":"Feature","properties":{"cod_tema":"RIO_ATE_10","cod_imovel":"RJ-3305158-D8A99B21A37748978E4F551995114A2B","ind_status":"AT"},"geometry":{"type":"Polygon","coordinates":[[[-42.8602,-22.1688],[-42.8556,-22.1746],[-42.8625,-22.1715],[-42.8584,-22.1729],[-42.8627,-22.1674],[-42.8602,-22.1692],[-42.8602,-22.1688]]]}},{"type":"Feature","properties":{"cod_tema":"RIO_ATE_10","cod_imovel":"RJ-3305158-22F05D55381C42C9B11D8705D44012C9","ind_status":"AT"},"geometry":{"type":"Polygon","coordinates":[[[-43.0188,-22.2194],[-43.0217,-22.2141],[-43.0187,-22.2197],[-43.0188,-22.2194]]]}},{"type":"Feature","properties":{"cod_tema":"RIO_ATE_10","cod_imovel":"RJ-3305158-1E92852326794AC3AFFC801692C6F551","ind_status":"PE"},"geometry":{"type":"Polygon","coordinates":[[[-42.9858,-22.2079],[-42.9892,-22.2085],[-42.9836,-22.2053],[-42.9856,-22.1999],[-42.9836,-22.2051],[-42.976,-22.2054],[-42.9858,-22.208],[-42.9858,-22.2079]]]}},{"type":"Feature","properties":{"cod_tema":"RIO_ATE_10","cod_imovel":"RJ-3305158-DA792441571E466DA018A9F41369B396","ind_status":"AT"},"geometry":{"type":"Polygon","coordinates":[[[-42.9614,-22.0877],[-42.9541,-22.0857],[-42.9618,-22.0878],[-42.9614,-22.0877]]]}},{"type":"Feature","properties":{"cod_tema":"RIO_ATE_10","cod_imovel":"RJ-3305158-3DE21F37589B40FA88AC4653DC0CE3C9","ind_status":"AT"},"geometry":{"type":"Polygon","coordinates":[[[-42.9093,-22.1664],[-42.9115,-22.1636],[-42.908,-22.1675],[-42.9093,-22.1664]],[[-42.9125,-22.1689],[-42.9101,-22.1659],[-42.9126,-22.1695],[-42.9125,-22.1689]]]}},{"type":"Feature","properties":{"cod_tema":"RIO_ATE_10","cod_imovel":"RJ-3305158-CCB4D6703B8B470C86ED94520AEB64D5","ind_status":"AT"},"geometry":{"type":"Polygon","coordinates":[[[-42.9296,-22.0972],[-42.9326,-22.0969],[-42.929,-22.1035],[-42.9204,-22.1011],[-42.9247,-22.1151],[-42.9195,-22.1214],[-42.9248,-22.1151],[-42.9204,-22.1011],[-42.9288,-22.1036],[-42.9292,-22.1096],[-42.934,-22.0966],[-42.9295,-22.0971],[-42.9296,-22.0972]],[[-42.9242,-22.0949],[-42.9303,-22.0922],[-42.9241,-22.095],[-42.9242,-22.0949]],[[-42.9314,-22.1135],[-42.9243,-22.1216],[-42.9278,-22.1147],[-42.934,-22.1167],[-42.9314,-22.1133],[-42.9314,-22.1135]],[[-42.9266,-22.0989],[-42.9318,-22.0996],[-42.9266,-22.099],[-42.9266,-22.0989]],[[-42.9415,-22.1106],[-42.9335,-22.1065],[-42.9369,-22.1062],[-42.9333,-22.1046],[-42.9361,-22.0979],[-42.9335,-22.1063],[-42.9405,-22.1197],[-42.9415,-22.1106],[-42.9415,-22.1106]]]}},{"type":"Feature","properties":{"cod_tema":"RIO_ATE_10","cod_imovel":"RJ-3305158-1D72083D58154979BE7AAB0C05D406DA","ind_status":"AT"},"geometry":{"type":"Polygon","coordinates":[[[-42.9586,-22.118],[-42.9646,-22.1149],[-42.9584,-22.1181],[-42.9586,-22.118]],[[-42.9587,-22.1136],[-42.9626,-22.1106],[-42.9587,-22.1137],[-42.9587,-22.1136]]]}},{"type":"Feature","properties":{"cod_tema":"RIO_ATE_10","cod_imovel":"RJ-3305158-0A0D89707F6F490EAA2706EE6FEE5381","ind_status":"AT"},"geometry":{"type":"Polygon","coordinates":[[[-42.9379,-22.1546],[-42.9421,-22.1568],[-42.9378,-22.1545],[-42.9379,-22.1546]]]}},{"type":"Feature","properties":{"cod_tema":"RIO_ATE_10","cod_imovel":"RJ-3305158-EB008DF9541940238F5320CAE7DF966F","ind_status":"AT"},"geometry":{"type":"Polygon","coordinates":[[[-42.9423,-22.1573],[-42.9406,-22.1603],[-42.9422,-22.1573],[-42.9423,-22.1573]]]}},{"type":"Feature","properties":{"cod_tema":"RIO_ATE_10","cod_imovel":"RJ-3305158-25A2AC7F673940E3BE85021828199A53","ind_status":"AT"},"geometry":{"type":"Polygon","coordinates":[[[-42.8856,-22.1879],[-42.8772,-22.1861],[-42.8856,-22.1879],[-42.8856,-22.1879]]]}},{"type":"Feature","properties":{"cod_tema":"RIO_ATE_10","cod_imovel":"RJ-3305158-036F22E0845B45E085D99C8111C25410","ind_status":"AT"},"geometry":{"type":"Polygon","coordinates":[[[-42.9017,-22.1543],[-42.9072,-22.1572],[-42.9083,-22.15],[-42.9049,-22.1581],[-42.9007,-22.1526],[-42.9017,-22.1543]]]}},{"type":"Feature","properties":{"cod_tema":"RIO_ATE_10","cod_imovel":"RJ-3305158-8876B3FCA4BB4611A1CE26FF9B903E2F","ind_status":"AT"},"geometry":{"type":"Polygon","coordinates":[[[-43.0395,-22.2045],[-43.0321,-22.2031],[-43.0399,-22.2046],[-43.0395,-22.2045]]]}},{"type":"Feature","properties":{"cod_tema":"RIO_ATE_10","cod_imovel":"RJ-3305158-FC310EF234614EBAB11EA87FF4F24D9E","ind_status":"AT"},"geometry":{"type":"Polygon","coordinates":[[[-43.0025,-22.1999],[-43.0033,-22.1969],[-43.0023,-22.1999],[-43.0025,-22.1999]]]}},{"type":"Feature","properties":{"cod_tema":"RIO_ATE_10","cod_imovel":"RJ-3305158-358C231D949A4324B5A4CD9FBE80DED4","ind_status":"AT"},"geometry":{"type":"Polygon","coordinates":[[[-42.9404,-22.1757],[-42.9443,-22.1684],[-42.9401,-22.176],[-42.9404,-22.1757]]]}},{"type":"Feature","properties":{"cod_tema":"RIO_ATE_10","cod_imovel":"RJ-3305158-EE47F35519E0483F939098A9BE9F2628","ind_status":"AT"},"geometry":{"type":"Polygon","coordinates":[[[-42.9691,-22.1545],[-42.9744,-22.1549],[-42.977,-22.1476],[-42.9737,-22.146],[-42.9686,-22.1544],[-42.9691,-22.1545]],[[-42.9796,-22.1398],[-42.9776,-22.1532],[-42.9665,-22.162],[-42.9776,-22.1532],[-42.9765,-22.1435],[-42.9818,-22.1399],[-42.9796,-22.1398]]]}},{"type":"Feature","properties":{"cod_tema":"RIO_ATE_10","cod_imovel":"RJ-3305158-27699F702C9340A1BDC1BF089687D49B","ind_status":"AT"},"geometry":{"type":"Polygon","coordinates":[[[-42.9304,-22.2],[-42.9336,-22.2002],[-42.9276,-22.1982],[-42.9304,-22.2002],[-42.9304,-22.2]]]}},{"type":"Feature","properties":{"cod_tema":"RIO_ATE_10","cod_imovel":"RJ-3305158-736D942B52ED42AD8D0B946577BAF43D","ind_status":"AT"},"geometry":{"type":"Polygon","coordinates":[[[-42.9888,-22.168],[-42.9879,-22.1772],[-42.9888,-22.1676],[-42.9888,-22.168]]]}},{"type":"Feature","properties":{"cod_tema":"RIO_ATE_10","cod_imovel":"RJ-3305158-E08B19A8323045A8B43459A0F992C050","ind_status":"AT"},"geometry":{"type":"Polygon","coordinates":[[[-42.856,-22.1632],[-42.8543,-22.1742],[-42.8559,-22.1624],[-42.856,-22.1632]]]}},{"type":"Feature","properties":{"cod_tema":"RIO_ATE_10","cod_imovel":"RJ-3305158-D8FDB08A7F404A77B1BD539DC0C07DFC","ind_status":"AT"},"geometry":{"type":"Polygon","coordinates":[[[-42.9885,-22.1821],[-42.9898,-22.1784],[-42.9882,-22.1825],[-42.9885,-22.1821]]]}},{"type":"Feature","properties":{"cod_tema":"LAGO_NATURAL","cod_imovel":"RJ-3305158-DE77269DB3A14B30B580BA6FDE431F7C","ind_status":"AT"},"geometry":{"type":"Polygon","coordinates":[[[-43.0309,-22.1946],[-43.0287,-22.202],[-43.0311,-22.1949],[-43.0309,-22.1946]]]}},{"type":"Feature","properties":{"cod_tema":"RIO_ATE_10","cod_imovel":"RJ-3305158-DB7E9A628A4B45F7A504B83C3CB79375","ind_status":"AT"},"geometry":{"type":"Polygon","coordinates":[[[-42.8959,-22.1177],[-42.9018,-22.1126],[-42.8958,-22.1181],[-42.8959,-22.1177]],[[-42.8769,-22.1122],[-42.903,-22.1114],[-42.8768,-22.1124],[-42.8769,-22.1122]]]}},{"type":"Feature","properties":{"cod_tema":"RIO_ATE_10","cod_imovel":"RJ-3305158-50E6442202E94C2AB2370D079C8E9A21","ind_status":"AT"},"geometry":{"type":"Polygon","coordinates":[[[-42.9383,-22.178],[-42.9375,-22.1811],[-42.9384,-22.1779],[-42.9383,-22.178]]]}},{"type":"Feature","properties":{"cod_tema":"RIO_ATE_10","cod_imovel":"RJ-3305158-0D7C1C4BDEE844F8ADB57A7688A8EDDD","ind_status":"AT"},"geometry":{"type":"Polygon","coordinates":[[[-43.0239,-22.2096],[-43.0216,-22.2142],[-43.0241,-22.2094],[-43.0239,-22.2096]],[[-43.0158,-22.2099],[-43.0211,-22.2107],[-43.0158,-22.2099],[-43.0158,-22.2099]]]}},{"type":"Feature","properties":{"cod_tema":"RIO_ATE_10","cod_imovel":"RJ-3305158-633CF680FE9648398EB3AA70CDF1E4DD","ind_status":"AT"},"geometry":{"type":"Polygon","coordinates":[[[-42.9634,-22.0884],[-42.9714,-22.0903],[-42.9627,-22.0882],[-42.9634,-22.0884]]]}},{"type":"Feature","properties":{"cod_tema":"RIO_ATE_10","cod_imovel":"RJ-3305158-D1ED13B60B8A423E9C0E02CA2231BA35","ind_status":"AT"},"geometry":{"type":"Polygon","coordinates":[[[-42.9787,-22.1631],[-42.979,-22.1584],[-42.9786,-22.1633],[-42.9787,-22.1631]]]}},{"type":"Feature","properties":{"cod_tema":"RIO_ATE_10","cod_imovel":"RJ-3305158-3F124554E73C48978EDF5F47CA0D447D","ind_status":"AT"},"geometry":{"type":"Polygon","coordinates":[[[-42.974,-22.0971],[-42.972,-22.0918],[-42.9739,-22.0971],[-42.9679,-22.1043],[-42.9757,-22.0983],[-42.9804,-22.1239],[-42.9707,-22.1314],[-42.9688,-22.139],[-42.9707,-22.1314],[-42.9804,-22.1239],[-42.9742,-22.0973],[-42.974,-22.0971]],[[-42.9571,-22.135],[-42.9662,-22.1165],[-42.9567,-22.136],[-42.9571,-22.135]]]}},{"type":"Feature","properties":{"cod_tema":"RIO_ATE_10","cod_imovel":"RJ-3305158-AC2681DA4E9840E2BB9EAA26658AE02F","ind_status":"AT"},"geometry":{"type":"Polygon","coordinates":[[[-42.8797,-22.151],[-42.883,-22.1484],[-42.8794,-22.1515],[-42.8797,-22.151]]]}},{"type":"Feature","properties":{"cod_tema":"RIO_ATE_10","cod_imovel":"RJ-3305158-39C1E131EFA74C36A77D402B9EBAB2BF","ind_status":"AT"},"geometry":{"type":"Polygon","coordinates":[[[-42.9358,-22.1767],[-42.9382,-22.1797],[-42.9406,-22.1752],[-42.9357,-22.1765],[-42.9358,-22.1767]]]}},{"type":"Feature","properties":{"cod_tema":"RIO_ATE_10","cod_imovel":"RJ-3305158-473D2F362A554371BC5341483FB3F1FA","ind_status":"SU"},"geometry":{"type":"Polygon","coordinates":[[[-42.9688,-22.2287],[-42.9582,-22.2233],[-42.9555,-22.2263],[-42.9577,-22.2287],[-42.9582,-22.2234],[-42.9696,-22.2289],[-42.9688,-22.2287]]]}},{"type":"Feature","properties":{"cod_tema":"RIO_ATE_10","cod_imovel":"RJ-3305158-4CCBA4F5FA9B40018528F753864D517C","ind_status":"AT"},"geometry":{"type":"Polygon","coordinates":[[[-42.9802,-22.2633],[-42.9779,-22.2556],[-42.9748,-22.2606],[-42.9779,-22.2586],[-42.9802,-22.2634],[-42.9802,-22.2633]]]}},{"type":"Feature","properties":{"cod_tema":"RIO_ATE_10","cod_imovel":"RJ-3305158-B908B74915FE4D9FAF238CB2A8EDF08D","ind_status":"AT"},"geometry":{"type":"Polygon","coordinates":[[[-42.9521,-22.1615],[-42.9574,-22.1512],[-42.9525,-22.1611],[-42.9521,-22.1615]]]}},{"type":"Feature","properties":{"cod_tema":"RIO_10_A_50","cod_imovel":"RJ-3305158-B908B74915FE4D9FAF238CB2A8EDF08D","ind_status":"AT"},"geometry":{"type":"Polygon","coordinates":[[[-42.966,-22.1704],[-42.9596,-22.1715],[-42.9477,-22.1633],[-42.9594,-22.1718],[-42.9657,-22.1707],[-42.966,-22.1704]]]}},{"type":"Feature","properties":{"cod_tema":"RIO_ATE_10","cod_imovel":"RJ-3305158-79CBD1D522364A3F9D0823F89FAAD859","ind_status":"AT"},"geometry":{"type":"Polygon","coordinates":[[[-42.9662,-22.2199],[-42.9616,-22.2208],[-42.9694,-22.2217],[-42.9664,-22.2199],[-42.9662,-22.2199]],[[-42.9598,-22.2087],[-42.9598,-22.2125],[-42.962,-22.2064],[-42.9563,-22.2064],[-42.9597,-22.2082],[-42.9598,-22.2087]]]}},{"type":"Feature","properties":{"cod_tema":"RIO_ATE_10","cod_imovel":"RJ-3305158-6ACAD2C101814A0CBB117CD6975D873F","ind_status":"AT"},"geometry":{"type":"Polygon","coordinates":[[[-42.9559,-22.2123],[-42.957,-22.209],[-42.956,-22.213],[-42.9559,-22.2123]]]}},{"type":"Feature","properties":{"cod_tema":"RIO_ATE_10","cod_imovel":"RJ-3305158-790A16B0B3CF42A5BA5436B86B687299","ind_status":"AT"},"geometry":{"type":"Polygon","coordinates":[[[-42.9523,-22.2093],[-42.9543,-22.206],[-42.9512,-22.2101],[-42.9523,-22.2093]]]}},{"type":"Feature","properties":{"cod_tema":"RIO_10_A_50","cod_imovel":"RJ-3305158-FC7AEA0C31084AF5A06BE541923CF3B5","ind_status":"AT"},"geometry":{"type":"Polygon","coordinates":[[[-42.899,-22.149],[-42.8957,-22.1476],[-42.8989,-22.1488],[-42.899,-22.149]]]}},{"type":"Feature","properties":{"cod_tema":"RIO_ATE_10","cod_imovel":"RJ-3305158-C7191896C25D448CABA5728928D32EB5","ind_status":"AT"},"geometry":{"type":"Polygon","coordinates":[[[-43.0371,-22.1849],[-43.0388,-22.1882],[-43.0363,-22.1843],[-43.0371,-22.1849]]]}},{"type":"Feature","properties":{"cod_tema":"RIO_ATE_10","cod_imovel":"RJ-3305158-B4CD8987798D4D1B9783580A4CC8640E","ind_status":"AT"},"geometry":{"type":"Polygon","coordinates":[[[-43.0327,-22.1789],[-43.0352,-22.182],[-43.0323,-22.1777],[-43.0327,-22.1789]]]}},{"type":"Feature","properties":{"cod_tema":"RIO_ATE_10","cod_imovel":"RJ-3305158-B70A6A894839444E93C996508EC09B1D","ind_status":"AT"},"geometry":{"type":"Polygon","coordinates":[[[-42.8979,-22.2045],[-42.9015,-22.2117],[-42.8991,-22.2067],[-42.9087,-22.2026],[-42.8991,-22.2066],[-42.8974,-22.2031],[-42.8979,-22.2045]]]}},{"type":"Feature","properties":{"cod_tema":"RIO_ATE_10","cod_imovel":"RJ-3305158-0544F55254074F72B22E08E4EC957914","ind_status":"AT"},"geometry":{"type":"Polygon","coordinates":[[[-42.9118,-22.2223],[-42.9162,-22.2188],[-42.9111,-22.2231],[-42.9118,-22.2223]]]}},{"type":"Feature","properties":{"cod_tema":"RIO_ATE_10","cod_imovel":"RJ-3305158-A3F1583747A340D3B071EF82FDB5883F","ind_status":"AT"},"geometry":{"type":"Polygon","coordinates":[[[-42.9578,-22.2278],[-42.9436,-22.2349],[-42.9542,-22.2325],[-42.9493,-22.2372],[-42.9414,-22.2368],[-42.9521,-22.2346],[-42.9513,-22.2392],[-42.9578,-22.2278],[-42.9578,-22.2278]],[[-42.9579,-22.2372],[-42.9607,-22.2387],[-42.9551,-22.2403],[-42.9609,-22.2383],[-42.9571,-22.2329],[-42.959,-22.2365],[-42.9534,-22.239],[-42.9579,-22.2372],[-42.9579,-22.2372]]]}},{"type":"Feature","properties":{"cod_tema":"RIO_ATE_10","cod_imovel":"RJ-3305158-98470B91D50C4EFDAE0A73C826E3D156","ind_status":"AT"},"geometry":{"type":"Polygon","coordinates":[[[-42.9716,-22.1924],[-42.9582,-22.2036],[-42.9716,-22.1924],[-42.9716,-22.1924]],[[-42.9772,-22.1877],[-42.9701,-22.187],[-42.9654,-22.1928],[-42.9701,-22.187],[-42.9772,-22.1877],[-42.9772,-22.1877]]]}},{"type":"Feature","properties":{"cod_tema":"RIO_ATE_10","cod_imovel":"RJ-3305158-1A4F149828E94366BFF93431ADB1CB6F","ind_status":"AT"},"geometry":{"type":"Polygon","coordinates":[[[-42.9527,-22.2236],[-42.9385,-22.2228],[-42.9499,-22.2238],[-42.9414,-22.226],[-42.9487,-22.2259],[-42.9461,-22.228],[-42.9526,-22.2237],[-42.9527,-22.2236]]]}},{"type":"Feature","properties":{"cod_tema":"RIO_ATE_10","cod_imovel":"RJ-3305158-6C98F151E14D4E39A536B8231FFA1F52","ind_status":"AT"},"geometry":{"type":"Polygon","coordinates":[[[-42.9688,-22.1119],[-42.9699,-22.1153],[-42.9684,-22.1117],[-42.9688,-22.1119]]]}},{"type":"Feature","properties":{"cod_tema":"RIO_ATE_10","cod_imovel":"RJ-3305158-B82675F7DF454399B56B4474AE236CF3","ind_status":"AT"},"geometry":{"type":"Polygon","coordinates":[[[-42.8788,-22.1794],[-42.8859,-22.1783],[-42.8786,-22.1794],[-42.8788,-22.1794]]]}},{"type":"Feature","properties":{"cod_tema":"RIO_10_A_50","cod_imovel":"RJ-3305158-B82675F7DF454399B56B4474AE236CF3","ind_status":"AT"},"geometry":{"type":"Polygon","coordinates":[[[-42.8848,-22.1727],[-42.8904,-22.185],[-42.8862,-22.1882],[-42.891,-22.1852],[-42.8852,-22.1725],[-42.8848,-22.1727]]]}},{"type":"Feature","properties":{"cod_tema":"RIO_ATE_10","cod_imovel":"RJ-3305158-9840A669874F4AD0A35D6F00B09AD960","ind_status":"AT"},"geometry":{"type":"Polygon","coordinates":[[[-42.9423,-22.2013],[-42.9462,-22.1996],[-42.9421,-22.2013],[-42.9423,-22.2013]]]}},{"type":"Feature","properties":{"cod_tema":"RIO_ATE_10","cod_imovel":"RJ-3305158-975E5FC528B845CEB80CAFE88B5AE8BE","ind_status":"AT"},"geometry":{"type":"Polygon","coordinates":[[[-42.9408,-22.1681],[-42.9294,-22.1702],[-42.941,-22.1679],[-42.9408,-22.1681]]]}}]}