{"type":"FeatureCollection","features":[{"type":"Feature","properties":{"cod_tema":"RIO_ACIMA_600","cod_imovel":"RJ-3305000-5CF56B1B62684A11A884C1CF6D7F89B0","ind_status":"PE"},"geometry":{"type":"Polygon","coordinates":[[[-41.1086,-21.6818],[-41.1131,-21.6794],[-41.1086,-21.6816],[-41.1086,-21.6818]],[[-41.1317,-21.6794],[-41.1362,-21.6876],[-41.1362,-21.6794],[-41.1317,-21.6794]],[[-41.1086,-21.6802],[-41.1126,-21.6794],[-41.1086,-21.6794],[-41.1086,-21.6802]]]}},{"type":"Feature","properties":{"cod_tema":"LAGO_NATURAL","cod_imovel":"RJ-3305000-DFFE7D22DBE34093B36DF99B8CCFBB84","ind_status":"AT"},"geometry":{"type":"Polygon","coordinates":[[[-41.1375,-21.7912],[-41.1424,-21.788],[-41.1335,-21.7867],[-41.1378,-21.7911],[-41.1375,-21.7912]]]}},{"type":"Feature","properties":{"cod_tema":"LAGO_NATURAL","cod_imovel":"RJ-3305000-1289C46B166C4967B3D32A0CB0F9B513","ind_status":"AT"},"geometry":{"type":"Polygon","coordinates":[[[-41.0118,-21.8994],[-41.007,-21.9042],[-41.0113,-21.9062],[-41.0046,-21.9071],[-41.0061,-21.911],[-41.0008,-21.9139],[-41.0118,-21.9139],[-41.0118,-21.8994]]]}},{"type":"Feature","properties":{"cod_tema":"LAGO_NATURAL","cod_imovel":"RJ-3305000-D8AE4800763447D7908766761EC602ED","ind_status":"AT"},"geometry":{"type":"Polygon","coordinates":[[[-41.0376,-21.723],[-41.0364,-21.7386],[-41.0416,-21.7527],[-41.057,-21.7577],[-41.0629,-21.7669],[-41.0592,-21.7549],[-41.0439,-21.7507],[-41.038,-21.723],[-41.0376,-21.723]],[[-41.0251,-21.7376],[-41.0289,-21.7545],[-41.0207,-21.8015],[-41.0272,-21.8067],[-41.0393,-21.8044],[-41.0407,-21.8188],[-41.0447,-21.8055],[-41.0248,-21.8012],[-41.0225,-21.793],[-41.0307,-21.7493],[-41.0291,-21.7381],[-41.0252,-21.7378],[-41.0251,-21.7376]]]}},{"type":"Feature","properties":{"cod_tema":"RIO_50_A_200","cod_imovel":"RJ-3305000-5905171CF115404EB704A4EC0E36828B","ind_status":"PE"},"geometry":{"type":"Polygon","coordinates":[[[-41.099,-21.6683],[-41.0954,-21.6576],[-41.0979,-21.6683],[-41.099,-21.6683]]]}},{"type":"Feature","properties":{"cod_tema":"RIO_200_A_600","cod_imovel":"RJ-3305000-5905171CF115404EB704A4EC0E36828B","ind_status":"PE"},"geometry":{"type":"Polygon","coordinates":[[[-41.0962,-21.6594],[-41.0942,-21.6676],[-41.0979,-21.6683],[-41.0961,-21.6597],[-41.0962,-21.6594]]]}},{"type":"Feature","properties":{"cod_tema":"RIO_50_A_200","cod_imovel":"RJ-3305000-99BD922A18DB4226871FB4E7161A1200","ind_status":"CA"},"geometry":{"type":"Polygon","coordinates":[[[-41.0433,-21.7445],[-41.0431,-21.7537],[-41.0577,-21.7585],[-41.0606,-21.7674],[-41.078,-21.7601],[-41.0709,-21.757],[-41.0629,-21.7664],[-41.0591,-21.7557],[-41.0455,-21.7529],[-41.044,-21.7458],[-41.0433,-21.7445]]]}},{"type":"Feature","properties":{"cod_tema":"RIO_ATE_10","cod_imovel":"RJ-3305000-4920F91F087445F1BEE99EEB87D15E71","ind_status":"AT"},"geometry":{"type":"Polygon","coordinates":[[[-41.0271,-21.6428],[-41.0264,-21.6393],[-41.0272,-21.6435],[-41.0271,-21.6428]]]}},{"type":"Feature","properties":{"cod_tema":"RIO_ACIMA_600","cod_imovel":"RJ-3305000-3799C014FB9A41DB9DC6CFEF2B9193FA","ind_status":"AT"},"geometry":{"type":"Polygon","coordinates":[[[-41.1614,-21.7007],[-41.1506,-21.7002],[-41.1614,-21.7097],[-41.1614,-21.7021],[-41.1614,-21.7007]]]}},{"type":"Feature","properties":{"cod_tema":"RIO_ACIMA_600","cod_imovel":"RJ-3305000-C1FA2C95E0504C73981F5B4D5D99135A","ind_status":"PE"},"geometry":{"type":"Polygon","coordinates":[[[-41.1614,-21.7007],[-41.1459,-21.6906],[-41.1378,-21.6906],[-41.1614,-21.7097],[-41.1614,-21.7021],[-41.1614,-21.7007]],[[-41.1606,-21.7007],[-41.1576,-21.6994],[-41.1608,-21.7007],[-41.1606,-21.7007]]]}},{"type":"Feature","properties":{"cod_tema":"RIO_ATE_10","cod_imovel":"RJ-3305000-FA14E079B12B4A6EA2C57A1924B8BD4B","ind_status":"PE"},"geometry":{"type":"Polygon","coordinates":[[[-41.0414,-21.6388],[-41.0392,-21.6359],[-41.0416,-21.6388],[-41.0414,-21.6388]]]}},{"type":"Feature","properties":{"cod_tema":"RIO_200_A_600","cod_imovel":"RJ-3305000-3662B0E352A54A0CB653879C71053C51","ind_status":"PE"},"geometry":{"type":"Polygon","coordinates":[[[-41.1352,-21.6877],[-41.141,-21.6958],[-41.141,-21.6877],[-41.1352,-21.6877]]]}},{"type":"Feature","properties":{"cod_tema":"RIO_200_A_600","cod_imovel":"RJ-3305000-6ACEC36D785B46CDAC022DA61B2DE362","ind_status":"AT"},"geometry":{"type":"Polygon","coordinates":[[[-41.1285,-21.6756],[-41.1358,-21.6884],[-41.1355,-21.6756],[-41.1285,-21.6756]]]}},{"type":"Feature","properties":{"cod_tema":"RIO_ATE_10","cod_imovel":"RJ-3305000-7875D2F77DEF411F9B8A8BF76F30097B","ind_status":"PE"},"geometry":{"type":"Polygon","coordinates":[[[-41.0868,-21.6483],[-41.0832,-21.6444],[-41.0879,-21.6496],[-41.0868,-21.6483]]]}},{"type":"Feature","properties":{"cod_tema":"RIO_200_A_600","cod_imovel":"RJ-3305000-7875D2F77DEF411F9B8A8BF76F30097B","ind_status":"PE"},"geometry":{"type":"Polygon","coordinates":[[[-41.0877,-21.6538],[-41.0915,-21.6473],[-41.0815,-21.6405],[-41.0806,-21.6491],[-41.0844,-21.6444],[-41.0878,-21.6512],[-41.0877,-21.6538]]]}},{"type":"Feature","properties":{"cod_tema":"LAGO_NATURAL","cod_imovel":"RJ-3305000-3C4BD65CF9074F92B34CC00B85DED0E4","ind_status":"PE"},"geometry":{"type":"Polygon","coordinates":[[[-41.0382,-21.7286],[-41.0373,-21.7323],[-41.0381,-21.729],[-41.0382,-21.7286]]]}},{"type":"Feature","properties":{"cod_tema":"RIO_50_A_200","cod_imovel":"RJ-3305000-73740D87ACB944358C3568D650031C1E","ind_status":"PE"},"geometry":{"type":"Polygon","coordinates":[[[-41.098,-21.6537],[-41.0979,-21.6687],[-41.0983,-21.6537],[-41.098,-21.6537]]]}},{"type":"Feature","properties":{"cod_tema":"RIO_ACIMA_600","cod_imovel":"RJ-3305000-9B4B734F3811490AA3F693380EA1EE2C","ind_status":"PE"},"geometry":{"type":"Polygon","coordinates":[[[-41.169,-21.7167],[-41.1744,-21.7078],[-41.1678,-21.7059],[-41.1641,-21.71],[-41.1688,-21.7163],[-41.169,-21.7167]]]}},{"type":"Feature","properties":{"cod_tema":"RIO_10_A_50","cod_imovel":"RJ-3305000-3BA404A0A8F24622A6736ECB536936D0","ind_status":"PE"},"geometry":{"type":"Polygon","coordinates":[[[-41.1113,-21.8501],[-41.1133,-21.8429],[-41.1118,-21.8481],[-41.1113,-21.8501]]]}},{"type":"Feature","properties":{"cod_tema":"RIO_ACIMA_600","cod_imovel":"RJ-3305000-D2FE6D2EDBAD4D2481C7B89C3E84EF9C","ind_status":"PE"},"geometry":{"type":"Polygon","coordinates":[[[-41.163,-21.7015],[-41.1599,-21.7015],[-41.163,-21.7023],[-41.163,-21.7015]],[[-41.1525,-21.7015],[-41.163,-21.7107],[-41.163,-21.7049],[-41.1539,-21.7015],[-41.1525,-21.7015]]]}},{"type":"Feature","properties":{"cod_tema":"RIO_ACIMA_600","cod_imovel":"RJ-3305000-FE73F59CD25745F8B9BCFFA8205AAEC8","ind_status":"AT"},"geometry":{"type":"Polygon","coordinates":[[[-41.0288,-21.6222],[-41.0448,-21.6313],[-41.0379,-21.6244],[-41.0448,-21.6264],[-41.0288,-21.6221],[-41.0288,-21.6222]],[[-41.0381,-21.6204],[-41.0448,-21.6248],[-41.0433,-21.6204],[-41.0381,-21.6204]]]}},{"type":"Feature","properties":{"cod_tema":"RIO_50_A_200","cod_imovel":"RJ-3305000-34B7CC65645145528BFF5786A232CD16","ind_status":"AT"},"geometry":{"type":"Polygon","coordinates":[[[-41.0781,-21.6502],[-41.0748,-21.6473],[-41.0775,-21.6499],[-41.0781,-21.6502]]]}},{"type":"Feature","properties":{"cod_tema":"LAGO_NATURAL","cod_imovel":"RJ-3305000-34B7CC65645145528BFF5786A232CD16","ind_status":"AT"},"geometry":{"type":"Polygon","coordinates":[[[-41.0747,-21.6521],[-41.0711,-21.6501],[-41.0746,-21.652],[-41.0747,-21.6521]]]}},{"type":"Feature","properties":{"cod_tema":"RIO_ATE_10","cod_imovel":"RJ-3305000-54E6B656FAFF48208CACADDBC93C349F","ind_status":"AT"},"geometry":{"type":"Polygon","coordinates":[[[-41.0592,-21.7201],[-41.0626,-21.7218],[-41.0582,-21.7196],[-41.0592,-21.7201]]]}},{"type":"Feature","properties":{"cod_tema":"RIO_ATE_10","cod_imovel":"RJ-3305000-C8B02FAD30E543B3B979A558E496C228","ind_status":"AT"},"geometry":{"type":"Polygon","coordinates":[[[-41.1424,-21.7383],[-41.1418,-21.7413],[-41.1431,-21.7359],[-41.1424,-21.7383]]]}},{"type":"Feature","properties":{"cod_tema":"RIO_ATE_10","cod_imovel":"RJ-3305000-C8B02FAD30E543B3B979A558E496C228","ind_status":"AT"},"geometry":{"type":"Polygon","coordinates":[[[-41.1359,-21.7386],[-41.1383,-21.7419],[-41.1356,-21.7378],[-41.1359,-21.7386]]]}},{"type":"Feature","properties":{"cod_tema":"RIO_10_A_50","cod_imovel":"RJ-3305000-282EC619E50D4F78A5B62AF887096A3D","ind_status":"AT"},"geometry":{"type":"Polygon","coordinates":[[[-41.1632,-21.793],[-41.1774,-21.7769],[-41.1736,-21.7586],[-41.1772,-21.7768],[-41.1664,-21.7893],[-41.1632,-21.793]]]}},{"type":"Feature","properties":{"cod_tema":"LAGO_NATURAL","cod_imovel":"RJ-3305000-282EC619E50D4F78A5B62AF887096A3D","ind_status":"AT"},"geometry":{"type":"Polygon","coordinates":[[[-41.144,-21.7833],[-41.1368,-21.7729],[-41.1399,-21.7902],[-41.1439,-21.7834],[-41.144,-21.7833]]]}},{"type":"Feature","properties":{"cod_tema":"LAGO_NATURAL","cod_imovel":"RJ-3305000-FE16B4BC7AA44320AE18A4283F46C674","ind_status":"CA"},"geometry":{"type":"Polygon","coordinates":[[[-41.1365,-21.781],[-41.1417,-21.7793],[-41.1367,-21.7807],[-41.1365,-21.781]]]}},{"type":"Feature","properties":{"cod_tema":"LAGO_NATURAL","cod_imovel":"RJ-3305000-A02C96D531C242ACBD1FDCC588012BB7","ind_status":"AT"},"geometry":{"type":"Polygon","coordinates":[[[-41.1398,-21.7772],[-41.137,-21.7729],[-41.1363,-21.7837],[-41.1416,-21.7876],[-41.1263,-21.7998],[-41.1258,-21.8064],[-41.1313,-21.81],[-41.1302,-21.8013],[-41.1435,-21.7862],[-41.1406,-21.7783],[-41.1398,-21.7772]]]}},{"type":"Feature","properties":{"cod_tema":"LAGO_NATURAL","cod_imovel":"RJ-3305000-2DA3889BA33E4DE295FC34A222D4A805","ind_status":"PE"},"geometry":{"type":"Polygon","coordinates":[[[-41.0379,-21.717],[-41.038,-21.7218],[-41.0381,-21.7171],[-41.0379,-21.717]]]}},{"type":"Feature","properties":{"cod_tema":"RIO_10_A_50","cod_imovel":"RJ-3305000-DCADAAB588334C67A36D2741987733FE","ind_status":"PE"},"geometry":{"type":"Polygon","coordinates":[[[-41.0746,-21.891],[-41.0724,-21.8968],[-41.0738,-21.8924],[-41.0746,-21.891]]]}},{"type":"Feature","properties":{"cod_tema":"LAGO_NATURAL","cod_imovel":"RJ-3305000-890999236C1B4AB89D5BF0F675AAF333","ind_status":"PE"},"geometry":{"type":"Polygon","coordinates":[[[-41.1401,-21.7922],[-41.1411,-21.7894],[-41.1376,-21.7913],[-41.1401,-21.7922]]]}},{"type":"Feature","properties":{"cod_tema":"LAGO_NATURAL","cod_imovel":"RJ-3305000-AD4AAE19CF2245509B09B625FE385127","ind_status":"AT"},"geometry":{"type":"Polygon","coordinates":[[[-41.0222,-21.7859],[-41.0217,-21.8033],[-41.0413,-21.8053],[-41.0401,-21.802],[-41.0321,-21.8065],[-41.0217,-21.8012],[-41.0253,-21.7968],[-41.0235,-21.7859],[-41.0222,-21.7859]],[[-41.0036,-21.8395],[-41.0034,-21.8448],[-41.0106,-21.8182],[-41.0037,-21.8394],[-41.0036,-21.8395]]]}},{"type":"Feature","properties":{"cod_tema":"LAGO_NATURAL","cod_imovel":"RJ-3305000-AC06B0D8080F4CD3AA7753AB4E8D5860","ind_status":"AT"},"geometry":{"type":"Polygon","coordinates":[[[-41.0256,-21.9018],[-41.0212,-21.9007],[-41.0243,-21.903],[-41.0256,-21.9018]]]}},{"type":"Feature","properties":{"cod_tema":"RIO_ACIMA_600","cod_imovel":"RJ-3305000-D74D1D174F98469683BDCE8CB967D645","ind_status":"AT"},"geometry":{"type":"Polygon","coordinates":[[[-41.018,-21.912],[-41.0198,-21.9078],[-41.0109,-21.9034],[-41.0176,-21.9123],[-41.018,-21.912]]]}},{"type":"Feature","properties":{"cod_tema":"LAGO_NATURAL","cod_imovel":"RJ-3305000-3C8B8AAC32154623AF17F570DAD3B3A3","ind_status":"AT"},"geometry":{"type":"Polygon","coordinates":[[[-41.1307,-21.8024],[-41.1251,-21.8018],[-41.1306,-21.8032],[-41.1307,-21.8024]]]}},{"type":"Feature","properties":{"cod_tema":"RIO_ATE_10","cod_imovel":"RJ-3305000-DE74EA54688F43DDA5E01E54F82990B8","ind_status":"PE"},"geometry":{"type":"Polygon","coordinates":[[[-41.1401,-21.6957],[-41.1346,-21.7021],[-41.1403,-21.6999],[-41.1399,-21.6952],[-41.1401,-21.6957]]]}},{"type":"Feature","properties":{"cod_tema":"RIO_200_A_600","cod_imovel":"RJ-3305000-C8158591896246958FDA15808D2C1DF5","ind_status":"AT"},"geometry":{"type":"Polygon","coordinates":[[[-41.1264,-21.8],[-41.1319,-21.8004],[-41.1264,-21.7997],[-41.1264,-21.8]]]}},{"type":"Feature","properties":{"cod_tema":"RIO_200_A_600","cod_imovel":"RJ-3305000-C08C4A0C2FF64CC38B0FD5D867E4B500","ind_status":"PE"},"geometry":{"type":"Polygon","coordinates":[[[-41.127,-21.6731],[-41.1298,-21.6773],[-41.1284,-21.6731],[-41.127,-21.6731]]]}},{"type":"Feature","properties":{"cod_tema":"RIO_50_A_200","cod_imovel":"RJ-3305000-9619821E52E041B18218211BEE5F22A7","ind_status":"PE"},"geometry":{"type":"Polygon","coordinates":[[[-41.0823,-21.6492],[-41.0777,-21.65],[-41.0821,-21.6495],[-41.0823,-21.6492]]]}},{"type":"Feature","properties":{"cod_tema":"RIO_ATE_10","cod_imovel":"RJ-3305000-B0E0FB9E4F2A49FCB5E7F43E03B07363","ind_status":"AT"},"geometry":{"type":"Polygon","coordinates":[[[-41.1475,-21.7148],[-41.1387,-21.7109],[-41.132,-21.7144],[-41.1387,-21.7109],[-41.1475,-21.7149],[-41.1475,-21.7148]]]}},{"type":"Feature","properties":{"cod_tema":"RIO_50_A_200","cod_imovel":"RJ-3305000-BE0EE289806C41029B3222876FF48450","ind_status":"PE"},"geometry":{"type":"Polygon","coordinates":[[[-41.0816,-21.641],[-41.0755,-21.6383],[-41.0809,-21.6423],[-41.0816,-21.641]]]}},{"type":"Feature","properties":{"cod_tema":"LAGO_NATURAL","cod_imovel":"RJ-3305000-F74B9CBECC3F466AB7D99F3F036C302D","ind_status":"PE"},"geometry":{"type":"Polygon","coordinates":[[[-41.1376,-21.7911],[-41.1335,-21.7926],[-41.1376,-21.7957],[-41.1385,-21.7908],[-41.1376,-21.7911]]]}},{"type":"Feature","properties":{"cod_tema":"RIO_ATE_10","cod_imovel":"RJ-3305000-02A4AF85F8EA41E391B15BE5BAA1F977","ind_status":"PE"},"geometry":{"type":"Polygon","coordinates":[[[-41.1181,-21.8295],[-41.121,-21.8218],[-41.118,-21.8294],[-41.1181,-21.8295]]]}},{"type":"Feature","properties":{"cod_tema":"RIO_ACIMA_600","cod_imovel":"RJ-3305000-53BA0BAF7CF346B3923995CF49FFD004","ind_status":"PE"},"geometry":{"type":"Polygon","coordinates":[[[-41.1337,-21.6852],[-41.137,-21.6897],[-41.1443,-21.6881],[-41.1407,-21.6817],[-41.1337,-21.6852]]]}},{"type":"Feature","properties":{"cod_tema":"RIO_50_A_200","cod_imovel":"RJ-3305000-3D75F168426E427FA22124BD00A3BB36","ind_status":"PE"},"geometry":{"type":"Polygon","coordinates":[[[-41.0385,-21.7283],[-41.0385,-21.724],[-41.0377,-21.7282],[-41.0385,-21.7283]]]}}]}