{"type":"FeatureCollection","features":[{"type":"Feature","properties":{"cod_tema":"RIO_ATE_10","cod_imovel":"RJ-3305554-FF09336671E14D03B369147BD92F7C72","ind_status":"AT"},"geometry":{"type":"Polygon","coordinates":[[[-43.6781,-22.7773],[-43.6921,-22.7555],[-43.6757,-22.7811],[-43.6818,-22.7974],[-43.6916,-22.8057],[-43.6783,-22.7915],[-43.6778,-22.7777],[-43.6781,-22.7773]],[[-43.67,-22.7697],[-43.6689,-22.7607],[-43.6712,-22.7713],[-43.67,-22.7697]],[[-43.7019,-22.7577],[-43.7049,-22.7525],[-43.6844,-22.7989],[-43.7014,-22.7594],[-43.7019,-22.7577]],[[-43.675,-22.7819],[-43.6698,-22.7789],[-43.6712,-22.7716],[-43.6699,-22.7794],[-43.6753,-22.782],[-43.675,-22.7819]]]}},{"type":"Feature","properties":{"cod_tema":"RIO_ATE_10","cod_imovel":"RJ-3305554-125B904666114556990654CE94037102","ind_status":"AT"},"geometry":{"type":"Polygon","coordinates":[[[-43.6968,-22.8049],[-43.6915,-22.8057],[-43.6967,-22.8046],[-43.6968,-22.8049]],[[-43.6978,-22.8109],[-43.6955,-22.8078],[-43.6979,-22.8109],[-43.6978,-22.8109]]]}},{"type":"Feature","properties":{"cod_tema":"RIO_ATE_10","cod_imovel":"RJ-3305554-320F06A11EA746E4BE1706093F1A31A0","ind_status":"AT"},"geometry":{"type":"Polygon","coordinates":[[[-43.7392,-22.7891],[-43.7356,-22.7945],[-43.7393,-22.789],[-43.7392,-22.7891]]]}},{"type":"Feature","properties":{"cod_tema":"RIO_ATE_10","cod_imovel":"RJ-3305554-59933D45BE0D48BE9ED70FB539A835F0","ind_status":"PE"},"geometry":{"type":"Polygon","coordinates":[[[-43.7305,-22.8148],[-43.731,-22.811],[-43.7298,-22.8156],[-43.7305,-22.8148]]]}},{"type":"Feature","properties":{"cod_tema":"RIO_ATE_10","cod_imovel":"RJ-3305554-607987D0763C4106873BB3B6C50371A4","ind_status":"SU"},"geometry":{"type":"Polygon","coordinates":[[[-43.717,-22.8061],[-43.7147,-22.8001],[-43.717,-22.8061],[-43.717,-22.8061]]]}},{"type":"Feature","properties":{"cod_tema":"RIO_ATE_10","cod_imovel":"RJ-3305554-EE9DEF47E54646D3992D3113CBA9E3E1","ind_status":"PE"},"geometry":{"type":"Polygon","coordinates":[[[-43.7368,-22.8165],[-43.7341,-22.8195],[-43.7371,-22.8163],[-43.7368,-22.8165]]]}},{"type":"Feature","properties":{"cod_tema":"RIO_ATE_10","cod_imovel":"RJ-3305554-85D4E61A08924ECBB4E0B93367EF7AB9","ind_status":"AT"},"geometry":{"type":"Polygon","coordinates":[[[-43.6623,-22.6612],[-43.6563,-22.6645],[-43.6623,-22.6612],[-43.6623,-22.6612]]]}},{"type":"Feature","properties":{"cod_tema":"RIO_50_A_200","cod_imovel":"RJ-3305554-85D4E61A08924ECBB4E0B93367EF7AB9","ind_status":"AT"},"geometry":{"type":"Polygon","coordinates":[[[-43.6614,-22.6599],[-43.6638,-22.6571],[-43.6614,-22.66],[-43.6614,-22.6599]]]}},{"type":"Feature","properties":{"cod_tema":"RIO_ATE_10","cod_imovel":"RJ-3305554-FAB8F89D6C654DB4A44F195FCEC2380E","ind_status":"AT"},"geometry":{"type":"Polygon","coordinates":[[[-43.7209,-22.7774],[-43.7201,-22.7809],[-43.7237,-22.7753],[-43.7209,-22.7774],[-43.7209,-22.7774]]]}},{"type":"Feature","properties":{"cod_tema":"RIO_ATE_10","cod_imovel":"RJ-3305554-EAC883AC54514FB78B2FA668F058F1CF","ind_status":"PE"},"geometry":{"type":"Polygon","coordinates":[[[-43.6988,-22.8472],[-43.6961,-22.8433],[-43.6997,-22.8476],[-43.6988,-22.8472]]]}},{"type":"Feature","properties":{"cod_tema":"RIO_ATE_10","cod_imovel":"RJ-3305554-9320CC9139F840CF8A12F413D545FF3B","ind_status":"AT"},"geometry":{"type":"Polygon","coordinates":[[[-43.7333,-22.7433],[-43.7392,-22.746],[-43.7327,-22.7432],[-43.7333,-22.7433]],[[-43.7473,-22.7489],[-43.7408,-22.7581],[-43.7276,-22.7559],[-43.7214,-22.7593],[-43.7408,-22.7581],[-43.7483,-22.7483],[-43.7473,-22.7489]]]}},{"type":"Feature","properties":{"cod_tema":"RIO_ATE_10","cod_imovel":"RJ-3305554-F827D91FDA2B4720A0DCE4A5EBECE788","ind_status":"AT"},"geometry":{"type":"Polygon","coordinates":[[[-43.7689,-22.7711],[-43.7606,-22.7649],[-43.7691,-22.7711],[-43.7689,-22.7711]],[[-43.7627,-22.7702],[-43.7606,-22.7678],[-43.7628,-22.7702],[-43.7627,-22.7702]],[[-43.7743,-22.7848],[-43.7759,-22.7762],[-43.7733,-22.7818],[-43.7606,-22.7728],[-43.7742,-22.7848],[-43.7681,-22.7962],[-43.7696,-22.783],[-43.7626,-22.7786],[-43.7696,-22.783],[-43.7668,-22.8007],[-43.7743,-22.7848],[-43.7743,-22.7848]],[[-43.7622,-22.7814],[-43.7607,-22.7842],[-43.7621,-22.7812],[-43.7622,-22.7814]],[[-43.7636,-22.7883],[-43.7607,-22.7912],[-43.7636,-22.7882],[-43.7636,-22.7883]],[[-43.7629,-22.794],[-43.7616,-22.8007],[-43.7629,-22.7938],[-43.7629,-22.794]],[[-43.7704,-22.7687],[-43.7637,-22.7646],[-43.7705,-22.7689],[-43.7704,-22.7687]],[[-43.7657,-22.7958],[-43.7643,-22.8007],[-43.7657,-22.7957],[-43.7657,-22.7958]],[[-43.7691,-22.7973],[-43.7681,-22.8007],[-43.7691,-22.7972],[-43.7691,-22.7973]],[[-43.775,-22.7678],[-43.7799,-22.7645],[-43.7746,-22.7679],[-43.775,-22.7678]],[[-43.7856,-22.7778],[-43.788,-22.7731],[-43.7816,-22.7833],[-43.7779,-22.7793],[-43.7815,-22.7834],[-43.7788,-22.7921],[-43.7763,-22.7849],[-43.7778,-22.8006],[-43.7792,-22.7858],[-43.7856,-22.7778],[-43.7856,-22.7778]],[[-43.7803,-22.7936],[-43.7806,-22.8006],[-43.7812,-22.7902],[-43.7804,-22.7936],[-43.7803,-22.7936]],[[-43.7899,-22.7881],[-43.7871,-22.7936],[-43.788,-22.7851],[-43.7848,-22.7919],[-43.7859,-22.7837],[-43.7835,-22.8006],[-43.7923,-22.7949],[-43.7863,-22.7957],[-43.7899,-22.788],[-43.7899,-22.7881]],[[-43.7854,-22.7695],[-43.7864,-22.7645],[-43.7854,-22.7696],[-43.7854,-22.7695]],[[-43.7894,-22.7658],[-43.7875,-22.7696],[-43.7923,-22.7677],[-43.7895,-22.7659],[-43.7894,-22.7658]],[[-43.7922,-22.7702],[-43.7876,-22.7703],[-43.7922,-22.7702],[-43.7922,-22.7702]],[[-43.7921,-22.789],[-43.7886,-22.7795],[-43.7921,-22.7889],[-43.7921,-22.789]],[[-43.7919,-22.7709],[-43.7889,-22.7717],[-43.7918,-22.7709],[-43.7919,-22.7709]],[[-43.7919,-22.7753],[-43.7895,-22.7734],[-43.7921,-22.7755],[-43.7919,-22.7753]]]}},{"type":"Feature","properties":{"cod_tema":"RIO_10_A_50","cod_imovel":"RJ-3305554-361AE39225FE49779962426DD995D99B","ind_status":"AT"},"geometry":{"type":"Polygon","coordinates":[[[-43.6759,-22.8544],[-43.6698,-22.8527],[-43.6763,-22.8548],[-43.6759,-22.8544]]]}},{"type":"Feature","properties":{"cod_tema":"RIO_ATE_10","cod_imovel":"RJ-3305554-3116E22FAB304A6C850CC3AAA51029BF","ind_status":"AT"},"geometry":{"type":"Polygon","coordinates":[[[-43.6838,-22.6765],[-43.687,-22.6777],[-43.6838,-22.6765],[-43.6838,-22.6765]]]}},{"type":"Feature","properties":{"cod_tema":"RIO_ATE_10","cod_imovel":"RJ-3305554-612615D2AAAE4AF5A6D6A65BE766DF12","ind_status":"AT"},"geometry":{"type":"Polygon","coordinates":[[[-43.7385,-22.7033],[-43.7332,-22.7006],[-43.7393,-22.7037],[-43.7385,-22.7033]]]}},{"type":"Feature","properties":{"cod_tema":"RIO_ATE_10","cod_imovel":"RJ-3305554-58B91541FAEB4250AC77CD3DCA980A25","ind_status":"AT"},"geometry":{"type":"Polygon","coordinates":[[[-43.7385,-22.6998],[-43.742,-22.7026],[-43.7385,-22.6997],[-43.7385,-22.6998]]]}},{"type":"Feature","properties":{"cod_tema":"RIO_ATE_10","cod_imovel":"RJ-3305554-79EF3B80215A4260BAD575064E8B4B26","ind_status":"PE"},"geometry":{"type":"Polygon","coordinates":[[[-43.7689,-22.8026],[-43.7674,-22.8068],[-43.7695,-22.8026],[-43.7689,-22.8026]]]}},{"type":"Feature","properties":{"cod_tema":"RIO_ATE_10","cod_imovel":"RJ-3305554-62E480EEACBB4657A4F4EF0F9F7451AA","ind_status":"AT"},"geometry":{"type":"Polygon","coordinates":[[[-43.6446,-22.7188],[-43.6394,-22.7213],[-43.6446,-22.7188],[-43.6446,-22.7188]],[[-43.6409,-22.7261],[-43.6525,-22.7203],[-43.6408,-22.726],[-43.6409,-22.7261]]]}},{"type":"Feature","properties":{"cod_tema":"RIO_10_A_50","cod_imovel":"RJ-3305554-62E480EEACBB4657A4F4EF0F9F7451AA","ind_status":"AT"},"geometry":{"type":"Polygon","coordinates":[[[-43.6405,-22.7257],[-43.6377,-22.7144],[-43.6405,-22.7257],[-43.6405,-22.7257]]]}},{"type":"Feature","properties":{"cod_tema":"RIO_10_A_50","cod_imovel":"RJ-3305554-D0420722194A45A9BF86A1214B1B8C63","ind_status":"AT"},"geometry":{"type":"Polygon","coordinates":[[[-43.7016,-22.8496],[-43.6992,-22.8519],[-43.7039,-22.855],[-43.7017,-22.8498],[-43.7016,-22.8496]]]}},{"type":"Feature","properties":{"cod_tema":"RIO_ATE_10","cod_imovel":"RJ-3305554-3333167ED4E84D22A66E167627EDB176","ind_status":"CA"},"geometry":{"type":"Polygon","coordinates":[[[-43.7691,-22.7873],[-43.7694,-22.7911],[-43.7691,-22.7873],[-43.7691,-22.7873]],[[-43.7621,-22.7984],[-43.763,-22.7936],[-43.7621,-22.7984],[-43.7621,-22.7984]],[[-43.7637,-22.801],[-43.7659,-22.7955],[-43.7638,-22.8009],[-43.7637,-22.801]],[[-43.7674,-22.7884],[-43.7657,-22.8015],[-43.7692,-22.8021],[-43.7678,-22.7879],[-43.7674,-22.7884]]]}},{"type":"Feature","properties":{"cod_tema":"RIO_ATE_10","cod_imovel":"RJ-3305554-E39FB17832264626A62DB46126CB3B95","ind_status":"PE"},"geometry":{"type":"Polygon","coordinates":[[[-43.7839,-22.7997],[-43.7856,-22.797],[-43.7839,-22.7997],[-43.7839,-22.7997]]]}},{"type":"Feature","properties":{"cod_tema":"RIO_ATE_10","cod_imovel":"RJ-3305554-92914DFE4B254637B9BD12942F15DC3A","ind_status":"AT"},"geometry":{"type":"Polygon","coordinates":[[[-43.6773,-22.8423],[-43.6731,-22.8412],[-43.6777,-22.8424],[-43.6773,-22.8423]]]}},{"type":"Feature","properties":{"cod_tema":"RIO_ATE_10","cod_imovel":"RJ-3305554-11F0CAEFCE2B449CAB817E83549DA9E7","ind_status":"PE"},"geometry":{"type":"Polygon","coordinates":[[[-43.6724,-22.8319],[-43.6695,-22.8306],[-43.6742,-22.8315],[-43.6724,-22.8319]]]}},{"type":"Feature","properties":{"cod_tema":"RIO_10_A_50","cod_imovel":"RJ-3305554-F2D0E67FCE244D0A9E9649CC25CFCC66","ind_status":"PE"},"geometry":{"type":"Polygon","coordinates":[[[-43.7016,-22.8496],[-43.6992,-22.8519],[-43.7039,-22.855],[-43.7017,-22.8498],[-43.7016,-22.8496]]]}},{"type":"Feature","properties":{"cod_tema":"RIO_ATE_10","cod_imovel":"RJ-3305554-A48F852B1D1143688CCD4A38D33FD07D","ind_status":"PE"},"geometry":{"type":"Polygon","coordinates":[[[-43.7347,-22.7853],[-43.7333,-22.7891],[-43.7347,-22.7849],[-43.7347,-22.7853]]]}},{"type":"Feature","properties":{"cod_tema":"RIO_ATE_10","cod_imovel":"RJ-3305554-A6EBA6597C67447084D899524B206A80","ind_status":"AT"},"geometry":{"type":"Polygon","coordinates":[[[-43.7621,-22.7984],[-43.763,-22.7936],[-43.7621,-22.7984],[-43.7621,-22.7984]],[[-43.764,-22.8004],[-43.7659,-22.7955],[-43.764,-22.8004],[-43.764,-22.8004]]]}},{"type":"Feature","properties":{"cod_tema":"RIO_ATE_10","cod_imovel":"RJ-3305554-6C0CFB7B765C4DED9CF00F5E723F6579","ind_status":"PE"},"geometry":{"type":"Polygon","coordinates":[[[-43.7552,-22.7789],[-43.7538,-22.7826],[-43.7551,-22.7788],[-43.7552,-22.7789]]]}},{"type":"Feature","properties":{"cod_tema":"RIO_ATE_10","cod_imovel":"RJ-3305554-973950F3D9AC40FD90E5D3CB9B991EAF","ind_status":"PE"},"geometry":{"type":"Polygon","coordinates":[[[-43.679,-22.7448],[-43.6827,-22.7457],[-43.6787,-22.7447],[-43.679,-22.7448]]]}},{"type":"Feature","properties":{"cod_tema":"RIO_ATE_10","cod_imovel":"RJ-3305554-058A2610B2374A7F91AF91DFECD9C4AC","ind_status":"PE"},"geometry":{"type":"Polygon","coordinates":[[[-43.6633,-22.8448],[-43.66,-22.8462],[-43.6643,-22.8443],[-43.6633,-22.8448]]]}},{"type":"Feature","properties":{"cod_tema":"RIO_10_A_50","cod_imovel":"RJ-3305554-B805760758F6464C8AE21861C8FA2D39","ind_status":"PE"},"geometry":{"type":"Polygon","coordinates":[[[-43.6554,-22.8081],[-43.6627,-22.8186],[-43.6554,-22.8081],[-43.6554,-22.8081]]]}},{"type":"Feature","properties":{"cod_tema":"RESERVATORIO_ARTIFICIAL_DECORRENTE_BARRAMENTO","cod_imovel":"RJ-3305554-B775149A4E7744C5855B4B004722CD99","ind_status":"PE"},"geometry":{"type":"Polygon","coordinates":[[[-43.6589,-22.8024],[-43.6545,-22.8036],[-43.6562,-22.8082],[-43.659,-22.8025],[-43.6589,-22.8024]]]}},{"type":"Feature","properties":{"cod_tema":"RIO_ATE_10","cod_imovel":"RJ-3305554-C9B0C0CA413D41CAAAE75EC2C4F658EE","ind_status":"PE"},"geometry":{"type":"Polygon","coordinates":[[[-43.6787,-22.8429],[-43.68,-22.8466],[-43.6776,-22.8425],[-43.6787,-22.8429]]]}},{"type":"Feature","properties":{"cod_tema":"RIO_10_A_50","cod_imovel":"RJ-3305554-06B58EABC24944F7805AD663E3C42DF5","ind_status":"AT"},"geometry":{"type":"Polygon","coordinates":[[[-43.6574,-22.8106],[-43.6597,-22.8147],[-43.6577,-22.8109],[-43.6574,-22.8106]]]}},{"type":"Feature","properties":{"cod_tema":"RIO_10_A_50","cod_imovel":"RJ-3305554-EACF377EBC1C4CCB9E0F9C819F0E10A5","ind_status":"AT"},"geometry":{"type":"Polygon","coordinates":[[[-43.6574,-22.8106],[-43.6597,-22.8147],[-43.6577,-22.8109],[-43.6574,-22.8106]]]}},{"type":"Feature","properties":{"cod_tema":"RIO_ATE_10","cod_imovel":"RJ-3305554-5ECDFEE6FEAF425AAB227871C3D97FF8","ind_status":"PE"},"geometry":{"type":"Polygon","coordinates":[[[-43.7223,-22.7853],[-43.7244,-22.7892],[-43.7214,-22.7837],[-43.7223,-22.7853]]]}},{"type":"Feature","properties":{"cod_tema":"RIO_ATE_10","cod_imovel":"RJ-3305554-7119618830444ED5855E3377D630634E","ind_status":"PE"},"geometry":{"type":"Polygon","coordinates":[[[-43.7179,-22.7691],[-43.7187,-22.7784],[-43.718,-22.7685],[-43.7179,-22.7691]]]}},{"type":"Feature","properties":{"cod_tema":"RIO_ATE_10","cod_imovel":"RJ-3305554-4DA5CC1E73BE4AF0BD4F8EE6C51F8473","ind_status":"PE"},"geometry":{"type":"Polygon","coordinates":[[[-43.6965,-22.8451],[-43.6946,-22.8402],[-43.6965,-22.8452],[-43.6965,-22.8451]]]}},{"type":"Feature","properties":{"cod_tema":"RIO_10_A_50","cod_imovel":"RJ-3305554-A90903B4F9E54D838B4BC06CCA80B40B","ind_status":"AT"},"geometry":{"type":"Polygon","coordinates":[[[-43.6643,-22.6571],[-43.6752,-22.6505],[-43.6641,-22.6566],[-43.6643,-22.6571]]]}},{"type":"Feature","properties":{"cod_tema":"RIO_ATE_10","cod_imovel":"RJ-3305554-4AF95389BDA74EF5A02CA089760ECF3D","ind_status":"AT"},"geometry":{"type":"Polygon","coordinates":[[[-43.7659,-22.8017],[-43.7634,-22.804],[-43.7659,-22.8017],[-43.7659,-22.8017]],[[-43.7677,-22.8064],[-43.7635,-22.8087],[-43.7688,-22.802],[-43.7678,-22.8063],[-43.7677,-22.8064]],[[-43.7695,-22.809],[-43.7727,-22.805],[-43.7695,-22.8089],[-43.7695,-22.809]]]}},{"type":"Feature","properties":{"cod_tema":"RIO_ATE_10","cod_imovel":"RJ-3305554-276115945E714505B92F559245F72E0D","ind_status":"AT"},"geometry":{"type":"Polygon","coordinates":[[[-43.7116,-22.8145],[-43.7154,-22.8176],[-43.709,-22.8103],[-43.7116,-22.8145],[-43.7116,-22.8145]]]}},{"type":"Feature","properties":{"cod_tema":"RIO_ATE_10","cod_imovel":"RJ-3305554-65ED473FB73A440697A9D60348EDBD55","ind_status":"AT"},"geometry":{"type":"Polygon","coordinates":[[[-43.7276,-22.7238],[-43.7238,-22.7222],[-43.728,-22.7243],[-43.7276,-22.7238]]]}},{"type":"Feature","properties":{"cod_tema":"RIO_ATE_10","cod_imovel":"RJ-3305554-A866D290F4D947D1BFDF7E29D8561701","ind_status":"PE"},"geometry":{"type":"Polygon","coordinates":[[[-43.7716,-22.7928],[-43.7727,-22.7883],[-43.7717,-22.7928],[-43.7716,-22.7928]],[[-43.7786,-22.792],[-43.7768,-22.7982],[-43.7752,-22.7915],[-43.7753,-22.8023],[-43.7786,-22.792],[-43.7786,-22.792]]]}}]}