{"type":"FeatureCollection","features":[{"type":"Feature","properties":{"cod_tema":"RIO_ATE_10","cod_imovel":"RJ-3306206-74B4783FFA584637A9CDB72F49D312EF","ind_status":"AT"},"geometry":{"type":"Polygon","coordinates":[[[-43.6598,-22.3322],[-43.6613,-22.3364],[-43.6609,-22.3315],[-43.6598,-22.3322]]]}},{"type":"Feature","properties":{"cod_tema":"RIO_50_A_200","cod_imovel":"RJ-3306206-74B4783FFA584637A9CDB72F49D312EF","ind_status":"AT"},"geometry":{"type":"Polygon","coordinates":[[[-43.6615,-22.3376],[-43.6681,-22.3353],[-43.661,-22.3373],[-43.6615,-22.3376]]]}},{"type":"Feature","properties":{"cod_tema":"RIO_ATE_10","cod_imovel":"RJ-3306206-C5DB71EC31714D839EC09D1F9264B502","ind_status":"AT"},"geometry":{"type":"Polygon","coordinates":[[[-43.3932,-22.2227],[-43.3868,-22.2173],[-43.3938,-22.2235],[-43.3932,-22.2227]],[[-43.3944,-22.2237],[-43.4038,-22.2161],[-43.394,-22.2237],[-43.3944,-22.2237]]]}},{"type":"Feature","properties":{"cod_tema":"RIO_50_A_200","cod_imovel":"RJ-3306206-C5DB71EC31714D839EC09D1F9264B502","ind_status":"AT"},"geometry":{"type":"Polygon","coordinates":[[[-43.3922,-22.2216],[-43.3992,-22.2168],[-43.3928,-22.221],[-43.3922,-22.2216]],[[-43.4093,-22.2199],[-43.4007,-22.214],[-43.3875,-22.2164],[-43.4012,-22.2145],[-43.4087,-22.2195],[-43.4093,-22.2199]]]}},{"type":"Feature","properties":{"cod_tema":"RIO_ATE_10","cod_imovel":"RJ-3306206-F605929812EF4905815C095CF98DF072","ind_status":"AT"},"geometry":{"type":"Polygon","coordinates":[[[-43.5766,-22.3511],[-43.5726,-22.3494],[-43.5768,-22.3512],[-43.5766,-22.3511]],[[-43.5801,-22.3449],[-43.5855,-22.348],[-43.58,-22.3448],[-43.5801,-22.3449]]]}},{"type":"Feature","properties":{"cod_tema":"RIO_ATE_10","cod_imovel":"RJ-3306206-BC65AEB5B419452CBBA2FEBC56F29764","ind_status":"AT"},"geometry":{"type":"Polygon","coordinates":[[[-43.6011,-22.4172],[-43.5971,-22.4179],[-43.6092,-22.4175],[-43.5982,-22.4135],[-43.6022,-22.4162],[-43.6011,-22.4172]],[[-43.605,-22.4127],[-43.5992,-22.4125],[-43.6121,-22.4141],[-43.5998,-22.4079],[-43.6064,-22.4117],[-43.605,-22.4127]],[[-43.6129,-22.4132],[-43.6021,-22.4218],[-43.6085,-22.4214],[-43.6075,-22.4299],[-43.6071,-22.4197],[-43.6129,-22.4132],[-43.6129,-22.4132]],[[-43.6241,-22.4311],[-43.6096,-22.4174],[-43.6217,-22.4292],[-43.6058,-22.4322],[-43.6025,-22.4377],[-43.6059,-22.4322],[-43.6114,-22.4369],[-43.6069,-22.4321],[-43.6147,-22.4315],[-43.6133,-22.4357],[-43.6166,-22.4323],[-43.6153,-22.4372],[-43.6169,-22.432],[-43.6241,-22.4311],[-43.6241,-22.4311]],[[-43.605,-22.4374],[-43.605,-22.4339],[-43.6045,-22.4385],[-43.605,-22.4374]],[[-43.6096,-22.4403],[-43.6068,-22.4427],[-43.6138,-22.443],[-43.609,-22.4382],[-43.6096,-22.4403]],[[-43.6123,-22.4259],[-43.6145,-22.4231],[-43.6113,-22.4272],[-43.6123,-22.4259]],[[-43.6153,-22.4289],[-43.6189,-22.4279],[-43.6147,-22.4289],[-43.6153,-22.4289]]]}},{"type":"Feature","properties":{"cod_tema":"RIO_ATE_10","cod_imovel":"RJ-3306206-94D3615593764E23B6DD191F64797DD4","ind_status":"AT"},"geometry":{"type":"Polygon","coordinates":[[[-43.644,-22.435],[-43.6402,-22.4327],[-43.6482,-22.4382],[-43.6439,-22.4351],[-43.644,-22.435]],[[-43.639,-22.4409],[-43.6356,-22.4382],[-43.6391,-22.4412],[-43.639,-22.4409]],[[-43.6346,-22.444],[-43.6366,-22.4394],[-43.6343,-22.4443],[-43.6346,-22.444]]]}},{"type":"Feature","properties":{"cod_tema":"RIO_ATE_10","cod_imovel":"RJ-3306206-A452377AC1B5426E9B28577CF23A2253","ind_status":"AT"},"geometry":{"type":"Polygon","coordinates":[[[-43.5792,-22.4229],[-43.5765,-22.4212],[-43.5795,-22.4229],[-43.5792,-22.4229]],[[-43.5718,-22.4304],[-43.5679,-22.4257],[-43.5724,-22.4308],[-43.5718,-22.4304]],[[-43.5791,-22.4262],[-43.575,-22.4195],[-43.5797,-22.4267],[-43.5791,-22.4262]]]}},{"type":"Feature","properties":{"cod_tema":"RIO_ATE_10","cod_imovel":"RJ-3306206-778AF5F985B645A983C95E1D8BA287BB","ind_status":"AT"},"geometry":{"type":"Polygon","coordinates":[[[-43.6339,-22.4237],[-43.6357,-22.4298],[-43.6336,-22.4236],[-43.6339,-22.4237]]]}},{"type":"Feature","properties":{"cod_tema":"RIO_ATE_10","cod_imovel":"RJ-3306206-23AC239C2EDA4352B7374DC3AE031610","ind_status":"AT"},"geometry":{"type":"Polygon","coordinates":[[[-43.5059,-22.2976],[-43.5068,-22.2945],[-43.5056,-22.2981],[-43.5059,-22.2976]],[[-43.5025,-22.2956],[-43.5057,-22.2938],[-43.502,-22.2952],[-43.5025,-22.2956]]]}},{"type":"Feature","properties":{"cod_tema":"RIO_ATE_10","cod_imovel":"RJ-3306206-0AA34461201D4B08B88941FCFC8E9139","ind_status":"AT"},"geometry":{"type":"Polygon","coordinates":[[[-43.543,-22.3547],[-43.5392,-22.3566],[-43.5427,-22.3548],[-43.543,-22.3547]],[[-43.5386,-22.3581],[-43.5407,-22.3624],[-43.5387,-22.3581],[-43.5386,-22.3581]],[[-43.5392,-22.3622],[-43.5345,-22.3597],[-43.5392,-22.3622],[-43.5392,-22.3622]]]}},{"type":"Feature","properties":{"cod_tema":"RIO_ATE_10","cod_imovel":"RJ-3306206-007B30996FAD45D3B01A159FDFD655D0","ind_status":"AT"},"geometry":{"type":"Polygon","coordinates":[[[-43.6845,-22.4087],[-43.6854,-22.4051],[-43.6818,-22.4106],[-43.6844,-22.4085],[-43.6845,-22.4087]]]}},{"type":"Feature","properties":{"cod_tema":"RIO_ATE_10","cod_imovel":"RJ-3306206-021AC21DDED6428B85E14FF60EE04B68","ind_status":"AT"},"geometry":{"type":"Polygon","coordinates":[[[-43.6417,-22.3988],[-43.6393,-22.3915],[-43.6368,-22.3987],[-43.6381,-22.3955],[-43.6417,-22.3988],[-43.6417,-22.3988]]]}},{"type":"Feature","properties":{"cod_tema":"RIO_ATE_10","cod_imovel":"RJ-3306206-0311CE4077DE4B38A662C648F59D269F","ind_status":"AT"},"geometry":{"type":"Polygon","coordinates":[[[-43.5689,-22.3532],[-43.5603,-22.3596],[-43.5638,-22.3618],[-43.5683,-22.3564],[-43.5689,-22.3616],[-43.5689,-22.3532],[-43.5689,-22.3532]],[[-43.5643,-22.3561],[-43.5616,-22.3603],[-43.564,-22.3565],[-43.5643,-22.3561]],[[-43.5746,-22.3559],[-43.5694,-22.3533],[-43.5748,-22.3567],[-43.5746,-22.3559]]]}},{"type":"Feature","properties":{"cod_tema":"RIO_ATE_10","cod_imovel":"RJ-3306206-07F0578B9B1F483AB275E3916FDF23B0","ind_status":"AT"},"geometry":{"type":"Polygon","coordinates":[[[-43.5246,-22.3772],[-43.5252,-22.3735],[-43.5211,-22.3814],[-43.5248,-22.3775],[-43.5246,-22.3772]]]}},{"type":"Feature","properties":{"cod_tema":"RIO_ATE_10","cod_imovel":"RJ-3306206-14899A47C9E74078BE67F64A85187319","ind_status":"AT"},"geometry":{"type":"Polygon","coordinates":[[[-43.5802,-22.3201],[-43.5695,-22.3137],[-43.5736,-22.318],[-43.5707,-22.3231],[-43.5736,-22.318],[-43.5805,-22.3205],[-43.5802,-22.3201]],[[-43.5736,-22.3174],[-43.5804,-22.3124],[-43.5736,-22.3178],[-43.5736,-22.3174]],[[-43.58,-22.3191],[-43.5815,-22.3157],[-43.5794,-22.3195],[-43.58,-22.3191]]]}},{"type":"Feature","properties":{"cod_tema":"RIO_ATE_10","cod_imovel":"RJ-3306206-0EFA6017984947CFA7FF5F6F2F987B8D","ind_status":"AT"},"geometry":{"type":"Polygon","coordinates":[[[-43.413,-22.251],[-43.4016,-22.2444],[-43.4055,-22.2504],[-43.4012,-22.2558],[-43.4097,-22.257],[-43.4021,-22.2533],[-43.4096,-22.2532],[-43.4051,-22.2509],[-43.4066,-22.2468],[-43.4138,-22.2515],[-43.413,-22.251]],[[-43.4149,-22.2422],[-43.4126,-22.2332],[-43.4096,-22.243],[-43.4131,-22.2457],[-43.4119,-22.2388],[-43.415,-22.2428],[-43.4149,-22.2422]]]}},{"type":"Feature","properties":{"cod_tema":"RIO_ATE_10","cod_imovel":"RJ-3306206-11C29EE76BD543299D11C9B1DE3296CF","ind_status":"AT"},"geometry":{"type":"Polygon","coordinates":[[[-43.4668,-22.3],[-43.4696,-22.3018],[-43.4667,-22.3],[-43.4668,-22.3]]]}},{"type":"Feature","properties":{"cod_tema":"RIO_ATE_10","cod_imovel":"RJ-3306206-150C13EE327445008B9ED6A68C30C41E","ind_status":"AT"},"geometry":{"type":"Polygon","coordinates":[[[-43.5431,-22.3269],[-43.5478,-22.3284],[-43.5298,-22.3158],[-43.5437,-22.326],[-43.5431,-22.3269]],[[-43.5481,-22.3223],[-43.5447,-22.3218],[-43.5486,-22.3226],[-43.5481,-22.3223]]]}},{"type":"Feature","properties":{"cod_tema":"RIO_ATE_10","cod_imovel":"RJ-3306206-151FDA667CC643FBA2C96B353CE0C58C","ind_status":"AT"},"geometry":{"type":"Polygon","coordinates":[[[-43.6252,-22.4425],[-43.6274,-22.4459],[-43.6247,-22.4422],[-43.6252,-22.4425]],[[-43.6369,-22.4525],[-43.6366,-22.4474],[-43.6293,-22.4498],[-43.6374,-22.4528],[-43.6369,-22.4525]],[[-43.6321,-22.445],[-43.6297,-22.441],[-43.6326,-22.4448],[-43.6321,-22.445]],[[-43.6481,-22.4499],[-43.6392,-22.441],[-43.6481,-22.4499],[-43.6481,-22.4499]],[[-43.6435,-22.4457],[-43.6457,-22.4431],[-43.6433,-22.4458],[-43.6435,-22.4457]],[[-43.6484,-22.4389],[-43.6453,-22.4411],[-43.648,-22.4383],[-43.6484,-22.4389]]]}},{"type":"Feature","properties":{"cod_tema":"RIO_ATE_10","cod_imovel":"RJ-3306206-19EBA4A35DEC480196CEEF8461F3AF97","ind_status":"AT"},"geometry":{"type":"Polygon","coordinates":[[[-43.5469,-22.3615],[-43.5526,-22.3631],[-43.5465,-22.3608],[-43.5469,-22.3615]],[[-43.5388,-22.3663],[-43.5402,-22.3631],[-43.5382,-22.3667],[-43.5388,-22.3663]],[[-43.5538,-22.3706],[-43.5493,-22.3662],[-43.5545,-22.3753],[-43.5569,-22.367],[-43.5543,-22.3706],[-43.5538,-22.3706]],[[-43.545,-22.358],[-43.5437,-22.3614],[-43.5447,-22.3573],[-43.545,-22.358]],[[-43.5513,-22.3697],[-43.5431,-22.364],[-43.5517,-22.3696],[-43.549,-22.3741],[-43.5517,-22.3696],[-43.5513,-22.3697]]]}},{"type":"Feature","properties":{"cod_tema":"RIO_ATE_10","cod_imovel":"RJ-3306206-211880CAA38F489BBD199EDA6EBAE3F8","ind_status":"AT"},"geometry":{"type":"Polygon","coordinates":[[[-43.5279,-22.2927],[-43.5386,-22.2936],[-43.5279,-22.2912],[-43.5279,-22.2927]],[[-43.5351,-22.2948],[-43.53,-22.2915],[-43.535,-22.2952],[-43.5351,-22.2948]],[[-43.5328,-22.2875],[-43.5344,-22.2909],[-43.5308,-22.2875],[-43.5328,-22.2875]],[[-43.5384,-22.3],[-43.5346,-22.3053],[-43.5377,-22.3108],[-43.5346,-22.3053],[-43.5395,-22.2991],[-43.5384,-22.3]],[[-43.538,-22.3048],[-43.543,-22.3018],[-43.5393,-22.2938],[-43.5419,-22.3015],[-43.5377,-22.3054],[-43.538,-22.3048]],[[-43.5427,-22.284],[-43.5406,-22.2877],[-43.5395,-22.2843],[-43.5407,-22.2951],[-43.5437,-22.2832],[-43.5427,-22.284]],[[-43.5508,-22.2889],[-43.5405,-22.2773],[-43.551,-22.2893],[-43.5508,-22.2889]]]}},{"type":"Feature","properties":{"cod_tema":"RIO_ATE_10","cod_imovel":"RJ-3306206-233548FF3FE1407792A3C8F9D05E6725","ind_status":"AT"},"geometry":{"type":"Polygon","coordinates":[[[-43.5083,-22.3972],[-43.5043,-22.3998],[-43.5085,-22.3969],[-43.5083,-22.3972]],[[-43.5116,-22.3937],[-43.5081,-22.3997],[-43.5152,-22.39],[-43.5121,-22.3936],[-43.5116,-22.3937]]]}},{"type":"Feature","properties":{"cod_tema":"RIO_ATE_10","cod_imovel":"RJ-3306206-249BFB8ED0FF4E67BBC86A5BE58AAA21","ind_status":"AT"},"geometry":{"type":"Polygon","coordinates":[[[-43.3998,-22.2633],[-43.3933,-22.255],[-43.3999,-22.2634],[-43.3998,-22.2633]]]}},{"type":"Feature","properties":{"cod_tema":"RIO_ATE_10","cod_imovel":"RJ-3306206-24CC574442784D96B85B73268CFCD0ED","ind_status":"AT"},"geometry":{"type":"Polygon","coordinates":[[[-43.5723,-22.3986],[-43.5674,-22.3982],[-43.5723,-22.3985],[-43.5723,-22.3986]]]}},{"type":"Feature","properties":{"cod_tema":"RIO_ATE_10","cod_imovel":"RJ-3306206-2F97A8B3EAF14ED495CAF7F0BEC38C35","ind_status":"AT"},"geometry":{"type":"Polygon","coordinates":[[[-43.5143,-22.3365],[-43.5158,-22.3327],[-43.5136,-22.3366],[-43.5143,-22.3365]]]}},{"type":"Feature","properties":{"cod_tema":"RIO_ATE_10","cod_imovel":"RJ-3306206-361B3E0B2C7A42ED9A708934A76F5DFE","ind_status":"AT"},"geometry":{"type":"Polygon","coordinates":[[[-43.734,-22.4274],[-43.7382,-22.4318],[-43.7341,-22.4271],[-43.734,-22.4274]]]}},{"type":"Feature","properties":{"cod_tema":"RIO_ATE_10","cod_imovel":"RJ-3306206-3634A908BA274437BBA366ABF6FA1ADC","ind_status":"AT"},"geometry":{"type":"Polygon","coordinates":[[[-43.4342,-22.2617],[-43.4382,-22.2592],[-43.4341,-22.262],[-43.4342,-22.2617]]]}},{"type":"Feature","properties":{"cod_tema":"RIO_ATE_10","cod_imovel":"RJ-3306206-39F641F112244B87BE8A1F5F9DAA502F","ind_status":"AT"},"geometry":{"type":"Polygon","coordinates":[[[-43.7569,-22.4402],[-43.7647,-22.4381],[-43.7559,-22.4409],[-43.7569,-22.4402]]]}},{"type":"Feature","properties":{"cod_tema":"RIO_ATE_10","cod_imovel":"RJ-3306206-3F2B6454CEA24D11AEB2B75634EF8AD4","ind_status":"AT"},"geometry":{"type":"Polygon","coordinates":[[[-43.6217,-22.3543],[-43.6184,-22.3556],[-43.6072,-22.3443],[-43.6128,-22.3483],[-43.6104,-22.3535],[-43.6132,-22.3498],[-43.6144,-22.3553],[-43.615,-22.3513],[-43.6173,-22.3534],[-43.6154,-22.3598],[-43.618,-22.355],[-43.6214,-22.3606],[-43.6219,-22.3541],[-43.6217,-22.3543]],[[-43.6257,-22.3704],[-43.62,-22.3624],[-43.6261,-22.3705],[-43.6257,-22.3704]],[[-43.6428,-22.3599],[-43.6346,-22.3592],[-43.6374,-22.356],[-43.6321,-22.3587],[-43.6286,-22.3503],[-43.6365,-22.3516],[-43.6264,-22.3488],[-43.6285,-22.3562],[-43.6224,-22.3623],[-43.6269,-22.3611],[-43.6279,-22.3664],[-43.6272,-22.3601],[-43.6322,-22.3633],[-43.6326,-22.3694],[-43.6325,-22.3637],[-43.6369,-22.3635],[-43.6276,-22.3609],[-43.6285,-22.3556],[-43.6428,-22.3599],[-43.6428,-22.3599]],[[-43.6389,-22.3733],[-43.6344,-22.371],[-43.6389,-22.3733],[-43.6389,-22.3733]]]}},{"type":"Feature","properties":{"cod_tema":"RIO_ATE_10","cod_imovel":"RJ-3306206-4282D8C1A50F4D019AD147083A9D21A8","ind_status":"AT"},"geometry":{"type":"Polygon","coordinates":[[[-43.7124,-22.4369],[-43.6996,-22.4308],[-43.7124,-22.4369],[-43.7124,-22.4369]]]}},{"type":"Feature","properties":{"cod_tema":"RIO_ATE_10","cod_imovel":"RJ-3306206-4A4DCDB913BB4CC294EA4BA4216CFFAC","ind_status":"AT"},"geometry":{"type":"Polygon","coordinates":[[[-43.6291,-22.456],[-43.6257,-22.4527],[-43.6294,-22.4563],[-43.6291,-22.456]]]}},{"type":"Feature","properties":{"cod_tema":"LAGO_NATURAL","cod_imovel":"RJ-3306206-4A4DCDB913BB4CC294EA4BA4216CFFAC","ind_status":"AT"},"geometry":{"type":"Polygon","coordinates":[[[-43.6338,-22.4591],[-43.6294,-22.4563],[-43.6335,-22.4589],[-43.6338,-22.4591]]]}},{"type":"Feature","properties":{"cod_tema":"RIO_ATE_10","cod_imovel":"RJ-3306206-506288E1260E459F809B7FBB4F9584CB","ind_status":"AT"},"geometry":{"type":"Polygon","coordinates":[[[-43.4051,-22.2485],[-43.4026,-22.2536],[-43.4072,-22.2519],[-43.4051,-22.2483],[-43.4051,-22.2485]]]}},{"type":"Feature","properties":{"cod_tema":"RIO_ATE_10","cod_imovel":"RJ-3306206-51E709E7D22744C59C91D52FC7E7B278","ind_status":"AT"},"geometry":{"type":"Polygon","coordinates":[[[-43.54,-22.4431],[-43.5372,-22.4459],[-43.5402,-22.4429],[-43.54,-22.4431]]]}},{"type":"Feature","properties":{"cod_tema":"RIO_ATE_10","cod_imovel":"RJ-3306206-54064A90316E452FA01270D8DE1970B1","ind_status":"AT"},"geometry":{"type":"Polygon","coordinates":[[[-43.5339,-22.4437],[-43.5338,-22.4387],[-43.5342,-22.444],[-43.5339,-22.4437]]]}},{"type":"Feature","properties":{"cod_tema":"RIO_ATE_10","cod_imovel":"RJ-3306206-54064A90316E452FA01270D8DE1970B1","ind_status":"AT"},"geometry":{"type":"Polygon","coordinates":[[[-43.5316,-22.4419],[-43.5284,-22.4428],[-43.5317,-22.4418],[-43.5316,-22.4419]]]}},{"type":"Feature","properties":{"cod_tema":"RIO_ATE_10","cod_imovel":"RJ-3306206-5F765C7445C94FF4B65D571C4A7114EE","ind_status":"AT"},"geometry":{"type":"Polygon","coordinates":[[[-43.6402,-22.4102],[-43.642,-22.4071],[-43.6399,-22.416],[-43.642,-22.4069],[-43.6401,-22.4102],[-43.6402,-22.4102]]]}},{"type":"Feature","properties":{"cod_tema":"RIO_ATE_10","cod_imovel":"RJ-3306206-5A5DB2471C5E4B5C82DE6DD8A3632E47","ind_status":"AT"},"geometry":{"type":"Polygon","coordinates":[[[-43.5447,-22.4649],[-43.5441,-22.4609],[-43.5447,-22.4649],[-43.5447,-22.4649]]]}},{"type":"Feature","properties":{"cod_tema":"RIO_ATE_10","cod_imovel":"RJ-3306206-666DF65AD6914C1BA9F1D3248A9F1D7D","ind_status":"AT"},"geometry":{"type":"Polygon","coordinates":[[[-43.7141,-22.4314],[-43.709,-22.4356],[-43.7145,-22.4311],[-43.7141,-22.4314]]]}},{"type":"Feature","properties":{"cod_tema":"RIO_ATE_10","cod_imovel":"RJ-3306206-6D973F7959B2485FAC1C4B1F3661CDD9","ind_status":"AT"},"geometry":{"type":"Polygon","coordinates":[[[-43.5381,-22.3364],[-43.539,-22.3406],[-43.542,-22.3355],[-43.5292,-22.3291],[-43.5354,-22.3331],[-43.5309,-22.3365],[-43.5344,-22.3331],[-43.5375,-22.3363],[-43.5323,-22.3397],[-43.5375,-22.3363],[-43.5381,-22.3364]],[[-43.5401,-22.3464],[-43.5468,-22.341],[-43.5397,-22.3466],[-43.5401,-22.3464]]]}},{"type":"Feature","properties":{"cod_tema":"RIO_ATE_10","cod_imovel":"RJ-3306206-6DE5DE67AE40475BA4BA5A29B3962209","ind_status":"AT"},"geometry":{"type":"Polygon","coordinates":[[[-43.5757,-22.4124],[-43.578,-22.4153],[-43.5754,-22.4121],[-43.5757,-22.4124]],[[-43.5788,-22.4114],[-43.5742,-22.4106],[-43.5793,-22.4114],[-43.5788,-22.4114]]]}},{"type":"Feature","properties":{"cod_tema":"RIO_ATE_10","cod_imovel":"RJ-3306206-71CF376F3E8D41F9BC1C37A2E9F1D994","ind_status":"AT"},"geometry":{"type":"Polygon","coordinates":[[[-43.5799,-22.4229],[-43.5831,-22.4226],[-43.5795,-22.4226],[-43.5799,-22.4229]]]}},{"type":"Feature","properties":{"cod_tema":"RIO_ATE_10","cod_imovel":"RJ-3306206-748409E063B54534BE263B8DF0AA2D49","ind_status":"AT"},"geometry":{"type":"Polygon","coordinates":[[[-43.499,-22.3086],[-43.5027,-22.3104],[-43.4988,-22.3084],[-43.499,-22.3086]]]}},{"type":"Feature","properties":{"cod_tema":"RIO_ATE_10","cod_imovel":"RJ-3306206-760F9513EDB543638A74FC6ECDBB5BA8","ind_status":"AT"},"geometry":{"type":"Polygon","coordinates":[[[-43.5177,-22.4097],[-43.5203,-22.4055],[-43.5166,-22.4105],[-43.5177,-22.4097]],[[-43.5207,-22.4286],[-43.5183,-22.4324],[-43.522,-22.4278],[-43.5207,-22.4286]],[[-43.5073,-22.4297],[-43.5081,-22.4263],[-43.507,-22.4304],[-43.5073,-22.4297]],[[-43.5203,-22.4222],[-43.5141,-22.4275],[-43.5233,-22.4238],[-43.5192,-22.4205],[-43.5134,-22.425],[-43.5209,-22.4219],[-43.5203,-22.4222]],[[-43.5223,-22.4087],[-43.5171,-22.4169],[-43.5226,-22.4084],[-43.5223,-22.4087]],[[-43.5268,-22.4118],[-43.5224,-22.4178],[-43.5268,-22.4115],[-43.5268,-22.4118]]]}},{"type":"Feature","properties":{"cod_tema":"RIO_ATE_10","cod_imovel":"RJ-3306206-76C608C313014D138BA7923A3D55F74F","ind_status":"AT"},"geometry":{"type":"Polygon","coordinates":[[[-43.5682,-22.4203],[-43.569,-22.4146],[-43.568,-22.4208],[-43.5682,-22.4203]]]}},{"type":"Feature","properties":{"cod_tema":"RIO_ATE_10","cod_imovel":"RJ-3306206-76C608C313014D138BA7923A3D55F74F","ind_status":"AT"},"geometry":{"type":"Polygon","coordinates":[[[-43.5674,-22.4253],[-43.5628,-22.4239],[-43.5679,-22.4257],[-43.5674,-22.4253]]]}},{"type":"Feature","properties":{"cod_tema":"RIO_ATE_10","cod_imovel":"RJ-3306206-7DB219F4B84544BD9AD9B72C962159F4","ind_status":"AT"},"geometry":{"type":"Polygon","coordinates":[[[-43.3919,-22.2556],[-43.3925,-22.2517],[-43.392,-22.2557],[-43.3919,-22.2556]]]}},{"type":"Feature","properties":{"cod_tema":"RIO_ATE_10","cod_imovel":"RJ-3306206-880A5945E804490194735AAE3ECDB467","ind_status":"AT"},"geometry":{"type":"Polygon","coordinates":[[[-43.528,-22.2811],[-43.5324,-22.2843],[-43.5279,-22.2805],[-43.528,-22.2811]],[[-43.5304,-22.2878],[-43.5249,-22.2833],[-43.531,-22.2875],[-43.5304,-22.2878]]]}},{"type":"Feature","properties":{"cod_tema":"RIO_ATE_10","cod_imovel":"RJ-3306206-892DFFA621E94C38B35169C1775E5C62","ind_status":"AT"},"geometry":{"type":"Polygon","coordinates":[[[-43.6334,-22.3785],[-43.6308,-22.3767],[-43.6336,-22.3786],[-43.6334,-22.3785]]]}},{"type":"Feature","properties":{"cod_tema":"RIO_ATE_10","cod_imovel":"RJ-3306206-91B3BB7AEFAB49F2826C35E0FFB0AFCB","ind_status":"AT"},"geometry":{"type":"Polygon","coordinates":[[[-43.6705,-22.4639],[-43.6716,-22.4595],[-43.6721,-22.4655],[-43.6705,-22.4639]],[[-43.6582,-22.4563],[-43.6654,-22.4568],[-43.6645,-22.4518],[-43.6719,-22.4444],[-43.6645,-22.4518],[-43.6654,-22.4568],[-43.6579,-22.4561],[-43.6582,-22.4563]]]}},{"type":"Feature","properties":{"cod_tema":"RIO_ATE_10","cod_imovel":"RJ-3306206-9C20CB8ED8C146CEB8CFDDC909304EDE","ind_status":"AT"},"geometry":{"type":"Polygon","coordinates":[[[-43.676,-22.3868],[-43.6689,-22.3825],[-43.6715,-22.3891],[-43.6647,-22.3833],[-43.6714,-22.3894],[-43.676,-22.3868],[-43.676,-22.3868]]]}},{"type":"Feature","properties":{"cod_tema":"RIO_ATE_10","cod_imovel":"RJ-3306206-A98847A2F39348C1B068A0B84E1C6F4E","ind_status":"AT"},"geometry":{"type":"Polygon","coordinates":[[[-43.6836,-22.3992],[-43.6825,-22.4053],[-43.6869,-22.3981],[-43.6795,-22.3947],[-43.6836,-22.3991],[-43.6836,-22.3992]],[[-43.6791,-22.401],[-43.6816,-22.4045],[-43.6791,-22.4009],[-43.6791,-22.401]],[[-43.694,-22.4003],[-43.6844,-22.4085],[-43.6892,-22.4038],[-43.6902,-22.4085],[-43.6892,-22.4029],[-43.6928,-22.4008],[-43.6942,-22.4044],[-43.6937,-22.4],[-43.694,-22.4003]]]}},{"type":"Feature","properties":{"cod_tema":"RIO_ATE_10","cod_imovel":"RJ-3306206-BDE9041521C140E1AE1E35FB2152B278","ind_status":"AT"},"geometry":{"type":"Polygon","coordinates":[[[-43.7075,-22.4481],[-43.7036,-22.4443],[-43.7028,-22.4497],[-43.7058,-22.4465],[-43.711,-22.4504],[-43.7075,-22.4481],[-43.7075,-22.4481]],[[-43.7124,-22.4489],[-43.7098,-22.4464],[-43.7124,-22.4489],[-43.7124,-22.4489]]]}},{"type":"Feature","properties":{"cod_tema":"RIO_ATE_10","cod_imovel":"RJ-3306206-C721584F923F4B9FA7D78A040DC09F58","ind_status":"AT"},"geometry":{"type":"Polygon","coordinates":[[[-43.6422,-22.3994],[-43.6373,-22.4029],[-43.6422,-22.3993],[-43.6422,-22.3994]]]}},{"type":"Feature","properties":{"cod_tema":"RIO_ATE_10","cod_imovel":"RJ-3306206-CAE068A2F21E4A0EA26DB0CD2B554098","ind_status":"AT"},"geometry":{"type":"Polygon","coordinates":[[[-43.562,-22.4019],[-43.563,-22.3983],[-43.5623,-22.4021],[-43.562,-22.4019]]]}},{"type":"Feature","properties":{"cod_tema":"RIO_ATE_10","cod_imovel":"RJ-3306206-CA0A9EE02D15489E857481BE642F186D","ind_status":"AT"},"geometry":{"type":"Polygon","coordinates":[[[-43.391,-22.2475],[-43.3867,-22.2409],[-43.3911,-22.2476],[-43.391,-22.2475]]]}},{"type":"Feature","properties":{"cod_tema":"RIO_ATE_10","cod_imovel":"RJ-3306206-CC68FC77D1F840A6A9F571F8C8D2513F","ind_status":"AT"},"geometry":{"type":"Polygon","coordinates":[[[-43.5183,-22.3151],[-43.5121,-22.3127],[-43.5189,-22.3153],[-43.5183,-22.3151]]]}},{"type":"Feature","properties":{"cod_tema":"RIO_ATE_10","cod_imovel":"RJ-3306206-D594CC24765E4301B1D1A33E9351D1E9","ind_status":"AT"},"geometry":{"type":"Polygon","coordinates":[[[-43.5934,-22.4566],[-43.5876,-22.4546],[-43.595,-22.4581],[-43.5937,-22.453],[-43.5936,-22.4568],[-43.5934,-22.4566]],[[-43.6001,-22.4528],[-43.5968,-22.454],[-43.6005,-22.4528],[-43.6001,-22.4528]],[[-43.6027,-22.4569],[-43.6023,-22.4491],[-43.6003,-22.4523],[-43.6005,-22.4479],[-43.5972,-22.4492],[-43.6027,-22.4569],[-43.6027,-22.4569]]]}},{"type":"Feature","properties":{"cod_tema":"RIO_ATE_10","cod_imovel":"RJ-3306206-D6884C59E53A4B5A9696F93C77C6978C","ind_status":"AT"},"geometry":{"type":"Polygon","coordinates":[[[-43.687,-22.394],[-43.6819,-22.389],[-43.6773,-22.3919],[-43.6872,-22.3942],[-43.687,-22.394]]]}},{"type":"Feature","properties":{"cod_tema":"RIO_ATE_10","cod_imovel":"RJ-3306206-D6C155EFF72C4ED6822063084652EE41","ind_status":"AT"},"geometry":{"type":"Polygon","coordinates":[[[-43.578,-22.4187],[-43.5819,-22.4158],[-43.5789,-22.4142],[-43.5778,-22.4191],[-43.578,-22.4187]]]}},{"type":"Feature","properties":{"cod_tema":"RIO_ATE_10","cod_imovel":"RJ-3306206-D8100DA158D140ED8B04E31D275EC82A","ind_status":"AT"},"geometry":{"type":"Polygon","coordinates":[[[-43.5116,-22.3621],[-43.5081,-22.3584],[-43.5117,-22.3625],[-43.5116,-22.3621]]]}},{"type":"Feature","properties":{"cod_tema":"RIO_ATE_10","cod_imovel":"RJ-3306206-E4840059E3BD4C11A196F30CD96CDFB8","ind_status":"AT"},"geometry":{"type":"Polygon","coordinates":[[[-43.5484,-22.4444],[-43.5495,-22.4397],[-43.5482,-22.4445],[-43.5484,-22.4444]]]}},{"type":"Feature","properties":{"cod_tema":"RIO_ATE_10","cod_imovel":"RJ-3306206-E736A27BE33C49E3B05CE2EBD24AC560","ind_status":"AT"},"geometry":{"type":"Polygon","coordinates":[[[-43.6277,-22.3674],[-43.6326,-22.3693],[-43.6272,-22.3677],[-43.6277,-22.3674]],[[-43.6326,-22.3746],[-43.6391,-22.3787],[-43.6396,-22.3752],[-43.6391,-22.3787],[-43.6319,-22.3743],[-43.6326,-22.3746]],[[-43.6522,-22.3762],[-43.6471,-22.3804],[-43.6384,-22.3721],[-43.6442,-22.3758],[-43.6407,-22.3821],[-43.6444,-22.3786],[-43.6495,-22.3811],[-43.6526,-22.3761],[-43.6522,-22.3762]],[[-43.6407,-22.3722],[-43.6436,-22.365],[-43.6402,-22.3729],[-43.6407,-22.3722]],[[-43.6462,-22.3679],[-43.6437,-22.3744],[-43.6466,-22.3668],[-43.6462,-22.3679]],[[-43.6537,-22.3697],[-43.6442,-22.3763],[-43.6549,-22.3694],[-43.6537,-22.3697]],[[-43.646,-22.3612],[-43.6512,-22.3479],[-43.6446,-22.3627],[-43.646,-22.3612]],[[-43.6535,-22.3562],[-43.652,-22.3479],[-43.6553,-22.3593],[-43.6535,-22.3562]],[[-43.6581,-22.3669],[-43.6607,-22.3745],[-43.6544,-22.3636],[-43.6581,-22.3669]],[[-43.6562,-22.3763],[-43.6697,-22.3745],[-43.6548,-22.3772],[-43.6562,-22.3763]],[[-43.6549,-22.3799],[-43.6589,-22.3813],[-43.6549,-22.3795],[-43.6549,-22.3799]],[[-43.6609,-22.355],[-43.6745,-22.3515],[-43.6581,-22.3576],[-43.6609,-22.355]],[[-43.6589,-22.3522],[-43.6668,-22.3524],[-43.659,-22.353],[-43.6589,-22.3522]],[[-43.6638,-22.3714],[-43.6692,-22.371],[-43.6737,-22.36],[-43.6692,-22.371],[-43.6618,-22.3701],[-43.6638,-22.3714]]]}},{"type":"Feature","properties":{"cod_tema":"RIO_ATE_10","cod_imovel":"RJ-3306206-E760B29AECB046379F84AFDB67D87D6B","ind_status":"AT"},"geometry":{"type":"Polygon","coordinates":[[[-43.7302,-22.4701],[-43.7272,-22.4723],[-43.7301,-22.4697],[-43.7302,-22.4701]],[[-43.7285,-22.4685],[-43.7253,-22.4707],[-43.7289,-22.4688],[-43.7285,-22.4685]]]}},{"type":"Feature","properties":{"cod_tema":"RIO_ATE_10","cod_imovel":"RJ-3306206-EF9A9821AFB34DFB97EAE69D5FA933BB","ind_status":"AT"},"geometry":{"type":"Polygon","coordinates":[[[-43.5654,-22.3021],[-43.5573,-22.3021],[-43.562,-22.3066],[-43.5575,-22.3021],[-43.5648,-22.3066],[-43.5654,-22.3021],[-43.5654,-22.3021]]]}},{"type":"Feature","properties":{"cod_tema":"RIO_ATE_10","cod_imovel":"RJ-3306206-F240984104D04DC8864442E3CF7A3864","ind_status":"AT"},"geometry":{"type":"Polygon","coordinates":[[[-43.4995,-22.305],[-43.4958,-22.3021],[-43.4993,-22.2995],[-43.4933,-22.2997],[-43.4993,-22.3048],[-43.4995,-22.305]],[[-43.4983,-22.3034],[-43.5012,-22.3026],[-43.4981,-22.3035],[-43.4983,-22.3034]]]}},{"type":"Feature","properties":{"cod_tema":"RIO_ATE_10","cod_imovel":"RJ-3306206-F3904E7939F54E7EB1EC354BACFC197B","ind_status":"AT"},"geometry":{"type":"Polygon","coordinates":[[[-43.5088,-22.3198],[-43.507,-22.3171],[-43.509,-22.3202],[-43.5088,-22.3198]]]}},{"type":"Feature","properties":{"cod_tema":"RIO_ATE_10","cod_imovel":"RJ-3306206-0CA50D65C2474A2F90F74490424D848A","ind_status":"AT"},"geometry":{"type":"Polygon","coordinates":[[[-43.639,-22.4559],[-43.6374,-22.4528],[-43.6388,-22.4561],[-43.639,-22.4559]]]}},{"type":"Feature","properties":{"cod_tema":"RIO_ATE_10","cod_imovel":"RJ-3306206-32DC5A06430846E99A46FED58686FD6B","ind_status":"AT"},"geometry":{"type":"Polygon","coordinates":[[[-43.548,-22.3033],[-43.5424,-22.3018],[-43.5396,-22.3092],[-43.5479,-22.3033],[-43.548,-22.3033]]]}},{"type":"Feature","properties":{"cod_tema":"RIO_ATE_10","cod_imovel":"RJ-3306206-9AEC64CD930E48C8B869182FEC365B49","ind_status":"AT"},"geometry":{"type":"Polygon","coordinates":[[[-43.7215,-22.4315],[-43.7138,-22.4251],[-43.721,-22.4308],[-43.7215,-22.4315]],[[-43.7252,-22.4419],[-43.7198,-22.437],[-43.721,-22.4422],[-43.7175,-22.4409],[-43.7152,-22.4346],[-43.7199,-22.4423],[-43.716,-22.4443],[-43.7252,-22.4419],[-43.7252,-22.4419]]]}},{"type":"Feature","properties":{"cod_tema":"RIO_ATE_10","cod_imovel":"RJ-3306206-92F111A08ABE4D55981F2B574BC9DB9E","ind_status":"AT"},"geometry":{"type":"Polygon","coordinates":[[[-43.5649,-22.4374],[-43.5594,-22.4345],[-43.5649,-22.4371],[-43.5649,-22.4374]]]}},{"type":"Feature","properties":{"cod_tema":"RIO_ATE_10","cod_imovel":"RJ-3306206-FC1CF81872C34D74BE45065E3E5370AF","ind_status":"AT"},"geometry":{"type":"Polygon","coordinates":[[[-43.6589,-22.4524],[-43.6543,-22.449],[-43.6634,-22.4476],[-43.6515,-22.4508],[-43.6512,-22.4461],[-43.6518,-22.4536],[-43.6543,-22.449],[-43.6593,-22.4523],[-43.6589,-22.4524]],[[-43.6659,-22.4509],[-43.6655,-22.4556],[-43.6662,-22.4507],[-43.6659,-22.4509]]]}},{"type":"Feature","properties":{"cod_tema":"RIO_ATE_10","cod_imovel":"RJ-3306206-E69B644087C24AD8820F2D2ABCB45C28","ind_status":"AT"},"geometry":{"type":"Polygon","coordinates":[[[-43.5564,-22.3141],[-43.561,-22.3132],[-43.5564,-22.3147],[-43.5564,-22.3141]]]}},{"type":"Feature","properties":{"cod_tema":"RIO_ATE_10","cod_imovel":"RJ-3306206-E69B644087C24AD8820F2D2ABCB45C28","ind_status":"AT"},"geometry":{"type":"Polygon","coordinates":[[[-43.5554,-22.3135],[-43.5445,-22.2977],[-43.556,-22.3143],[-43.5554,-22.3135]]]}},{"type":"Feature","properties":{"cod_tema":"RIO_ATE_10","cod_imovel":"RJ-3306206-E69B644087C24AD8820F2D2ABCB45C28","ind_status":"AT"},"geometry":{"type":"Polygon","coordinates":[[[-43.5536,-22.3064],[-43.559,-22.3057],[-43.5528,-22.3066],[-43.5536,-22.3064]]]}},{"type":"Feature","properties":{"cod_tema":"RIO_ATE_10","cod_imovel":"RJ-3306206-E69B644087C24AD8820F2D2ABCB45C28","ind_status":"AT"},"geometry":{"type":"Polygon","coordinates":[[[-43.5571,-22.3033],[-43.5485,-22.3014],[-43.5572,-22.3038],[-43.5571,-22.3033]]]}},{"type":"Feature","properties":{"cod_tema":"RIO_ATE_10","cod_imovel":"RJ-3306206-E69B644087C24AD8820F2D2ABCB45C28","ind_status":"AT"},"geometry":{"type":"Polygon","coordinates":[[[-43.5574,-22.2912],[-43.5624,-22.285],[-43.5574,-22.2916],[-43.5574,-22.2912]]]}},{"type":"Feature","properties":{"cod_tema":"RIO_ATE_10","cod_imovel":"RJ-3306206-E69B644087C24AD8820F2D2ABCB45C28","ind_status":"AT"},"geometry":{"type":"Polygon","coordinates":[[[-43.5555,-22.3024],[-43.5531,-22.2917],[-43.5555,-22.3027],[-43.5555,-22.3024]]]}},{"type":"Feature","properties":{"cod_tema":"RIO_ATE_10","cod_imovel":"RJ-3306206-E69B644087C24AD8820F2D2ABCB45C28","ind_status":"AT"},"geometry":{"type":"Polygon","coordinates":[[[-43.5534,-22.2913],[-43.5514,-22.2888],[-43.5536,-22.2917],[-43.5534,-22.2913]]]}},{"type":"Feature","properties":{"cod_tema":"RIO_ATE_10","cod_imovel":"RJ-3306206-E69B644087C24AD8820F2D2ABCB45C28","ind_status":"AT"},"geometry":{"type":"Polygon","coordinates":[[[-43.5538,-22.2909],[-43.5603,-22.2821],[-43.5533,-22.2913],[-43.5538,-22.2909]]]}},{"type":"Feature","properties":{"cod_tema":"RIO_ATE_10","cod_imovel":"RJ-3306206-9216914D0F414E5C84BA446A782B2B57","ind_status":"AT"},"geometry":{"type":"Polygon","coordinates":[[[-43.5268,-22.277],[-43.5151,-22.2608],[-43.519,-22.2444],[-43.5148,-22.2374],[-43.4904,-22.2448],[-43.5147,-22.2375],[-43.5189,-22.2444],[-43.5151,-22.2608],[-43.5277,-22.277],[-43.5268,-22.277]]]}},{"type":"Feature","properties":{"cod_tema":"RIO_ATE_10","cod_imovel":"RJ-3306206-B02731A1B48F48D0BEA126F893DE26AF","ind_status":"AT"},"geometry":{"type":"Polygon","coordinates":[[[-43.5433,-22.4712],[-43.5446,-22.4671],[-43.5434,-22.4712],[-43.5433,-22.4712]]]}},{"type":"Feature","properties":{"cod_tema":"RIO_ATE_10","cod_imovel":"RJ-3306206-5E93A1D0D8924A699F6665589CF7736B","ind_status":"AT"},"geometry":{"type":"Polygon","coordinates":[[[-43.5809,-22.2876],[-43.5776,-22.2841],[-43.5808,-22.2876],[-43.5809,-22.2876]]]}},{"type":"Feature","properties":{"cod_tema":"RIO_ATE_10","cod_imovel":"RJ-3306206-3A55243FCF6B40B48A8BD1B14B55952C","ind_status":"AT"},"geometry":{"type":"Polygon","coordinates":[[[-43.5365,-22.2741],[-43.5412,-22.2776],[-43.5363,-22.2739],[-43.5365,-22.2741]]]}},{"type":"Feature","properties":{"cod_tema":"RIO_50_A_200","cod_imovel":"RJ-3306206-3A55243FCF6B40B48A8BD1B14B55952C","ind_status":"AT"},"geometry":{"type":"Polygon","coordinates":[[[-43.5325,-22.2743],[-43.5365,-22.2738],[-43.5324,-22.2736],[-43.5325,-22.2743]]]}},{"type":"Feature","properties":{"cod_tema":"RIO_50_A_200","cod_imovel":"RJ-3306206-9BA3F156D82F4B64912D37C2A74B342D","ind_status":"AT"},"geometry":{"type":"Polygon","coordinates":[[[-43.5721,-22.2754],[-43.5755,-22.2767],[-43.5623,-22.2636],[-43.5527,-22.2675],[-43.5606,-22.2656],[-43.5712,-22.2745],[-43.5721,-22.2754]]]}},{"type":"Feature","properties":{"cod_tema":"RIO_50_A_200","cod_imovel":"RJ-3306206-ABFDB95D21C347A79EA2CEBDCB834A36","ind_status":"AT"},"geometry":{"type":"Polygon","coordinates":[[[-43.4072,-22.2185],[-43.4007,-22.2142],[-43.3978,-22.2175],[-43.4055,-22.2171],[-43.3933,-22.2233],[-43.4024,-22.2163],[-43.4071,-22.2184],[-43.4072,-22.2185]]]}},{"type":"Feature","properties":{"cod_tema":"RIO_ATE_10","cod_imovel":"RJ-3306206-712B6FC61976407BBDAD541AE0911C6B","ind_status":"AT"},"geometry":{"type":"Polygon","coordinates":[[[-43.5837,-22.4061],[-43.5699,-22.3992],[-43.5837,-22.4061],[-43.5837,-22.4061]]]}},{"type":"Feature","properties":{"cod_tema":"RIO_ATE_10","cod_imovel":"RJ-3306206-8327D2093C5642F3AFBC621CDBCF79CC","ind_status":"AT"},"geometry":{"type":"Polygon","coordinates":[[[-43.5696,-22.3992],[-43.5604,-22.3941],[-43.5699,-22.3992],[-43.5696,-22.3992]]]}},{"type":"Feature","properties":{"cod_tema":"RIO_ATE_10","cod_imovel":"RJ-3306206-C2444F9D7345474DA3AEA6C251B1EA24","ind_status":"AT"},"geometry":{"type":"Polygon","coordinates":[[[-43.544,-22.3494],[-43.5473,-22.3508],[-43.544,-22.3491],[-43.544,-22.3494]],[[-43.5469,-22.3512],[-43.5387,-22.3497],[-43.5473,-22.3508],[-43.5469,-22.3512]]]}},{"type":"Feature","properties":{"cod_tema":"RIO_ATE_10","cod_imovel":"RJ-3306206-FBF5BBE9E8D04E058B92AB166B6D2EFD","ind_status":"AT"},"geometry":{"type":"Polygon","coordinates":[[[-43.6923,-22.4345],[-43.6894,-22.4359],[-43.6929,-22.4343],[-43.6923,-22.4345]]]}},{"type":"Feature","properties":{"cod_tema":"RIO_ATE_10","cod_imovel":"RJ-3306206-8C392AB4C4104CE6A1B8FCBCFBE1763B","ind_status":"AT"},"geometry":{"type":"Polygon","coordinates":[[[-43.5724,-22.4034],[-43.5714,-22.4001],[-43.5726,-22.4035],[-43.5724,-22.4034]]]}},{"type":"Feature","properties":{"cod_tema":"RIO_ATE_10","cod_imovel":"RJ-3306206-19316D9A88F24EF3AE5A0FC43701BFAD","ind_status":"AT"},"geometry":{"type":"Polygon","coordinates":[[[-43.5297,-22.3664],[-43.5346,-22.3687],[-43.5277,-22.3639],[-43.5277,-22.3692],[-43.5292,-22.3662],[-43.5297,-22.3664]]]}},{"type":"Feature","properties":{"cod_tema":"RIO_ATE_10","cod_imovel":"RJ-3306206-BA3B7015D7B54B79A147D486F9A0E8E3","ind_status":"AT"},"geometry":{"type":"Polygon","coordinates":[[[-43.5317,-22.2964],[-43.5284,-22.2939],[-43.5317,-22.2975],[-43.5317,-22.2964]],[[-43.529,-22.3003],[-43.5226,-22.2962],[-43.5304,-22.3011],[-43.529,-22.3003]],[[-43.5214,-22.3013],[-43.5247,-22.2978],[-43.5206,-22.3019],[-43.5214,-22.3013]],[[-43.5216,-22.3097],[-43.5184,-22.3023],[-43.5242,-22.3101],[-43.5216,-22.3097]],[[-43.526,-22.3049],[-43.5261,-22.2991],[-43.526,-22.3056],[-43.526,-22.3049]],[[-43.5342,-22.3101],[-43.5328,-22.3074],[-43.5341,-22.3107],[-43.5342,-22.3101]],[[-43.5284,-22.3048],[-43.5282,-22.3001],[-43.5276,-22.3055],[-43.5284,-22.3048]],[[-43.5216,-22.2921],[-43.517,-22.2906],[-43.5222,-22.2917],[-43.5216,-22.2921]],[[-43.512,-22.3118],[-43.5021,-22.3066],[-43.5124,-22.3125],[-43.512,-22.3118]]]}},{"type":"Feature","properties":{"cod_tema":"RIO_ATE_10","cod_imovel":"RJ-3306206-067C9F9C120C4903AC0D8C26E6EDB218","ind_status":"AT"},"geometry":{"type":"Polygon","coordinates":[[[-43.4848,-22.2929],[-43.4839,-22.2981],[-43.4849,-22.2929],[-43.4848,-22.2929]]]}},{"type":"Feature","properties":{"cod_tema":"RIO_ATE_10","cod_imovel":"RJ-3306206-68D43FE41AB34FFF95B1EC649989A7C0","ind_status":"AT"},"geometry":{"type":"Polygon","coordinates":[[[-43.6357,-22.4078],[-43.6323,-22.4063],[-43.6359,-22.408],[-43.6357,-22.4078]]]}},{"type":"Feature","properties":{"cod_tema":"RIO_ATE_10","cod_imovel":"RJ-3306206-90BCC3D968CA4C86BF47BB00082E417E","ind_status":"AT"},"geometry":{"type":"Polygon","coordinates":[[[-43.5672,-22.3202],[-43.5642,-22.3165],[-43.5675,-22.3141],[-43.5606,-22.3125],[-43.5597,-22.3219],[-43.5633,-22.3152],[-43.5669,-22.3272],[-43.5672,-22.3202],[-43.5672,-22.3202]],[[-43.5697,-22.3213],[-43.5696,-22.3182],[-43.5699,-22.3214],[-43.5697,-22.3213]]]}},{"type":"Feature","properties":{"cod_tema":"RIO_ATE_10","cod_imovel":"RJ-3306206-F6329B25A57F49BBBC9FB542C75B44F0","ind_status":"AT"},"geometry":{"type":"Polygon","coordinates":[[[-43.7157,-22.4471],[-43.7175,-22.4506],[-43.7157,-22.4471],[-43.7157,-22.4471]],[[-43.7288,-22.4563],[-43.7192,-22.4444],[-43.7262,-22.4524],[-43.7216,-22.4552],[-43.7278,-22.4543],[-43.7265,-22.4614],[-43.7292,-22.4572],[-43.7288,-22.4563]],[[-43.7206,-22.4536],[-43.7233,-22.4501],[-43.7196,-22.4542],[-43.7206,-22.4536]]]}},{"type":"Feature","properties":{"cod_tema":"RIO_ATE_10","cod_imovel":"RJ-3306206-D8BEA530F957452D8B23D96E0E8C58EA","ind_status":"AT"},"geometry":{"type":"Polygon","coordinates":[[[-43.4905,-22.355],[-43.4942,-22.3524],[-43.4933,-22.3573],[-43.4942,-22.3524],[-43.4903,-22.355],[-43.4905,-22.355]],[[-43.5168,-22.3557],[-43.5215,-22.3549],[-43.5076,-22.3531],[-43.5145,-22.3522],[-43.5164,-22.349],[-43.5109,-22.3516],[-43.5141,-22.3475],[-43.5065,-22.3535],[-43.4988,-22.3522],[-43.5085,-22.3459],[-43.5037,-22.3462],[-43.5055,-22.3403],[-43.5041,-22.3482],[-43.4951,-22.3502],[-43.5212,-22.358],[-43.5168,-22.3558],[-43.5168,-22.3557]],[[-43.5047,-22.3608],[-43.4988,-22.3533],[-43.4987,-22.3648],[-43.4984,-22.3558],[-43.5045,-22.3598],[-43.5028,-22.3638],[-43.5047,-22.3609],[-43.5047,-22.3608]],[[-43.5154,-22.3398],[-43.5114,-22.3426],[-43.5154,-22.3398],[-43.5154,-22.3398]],[[-43.5144,-22.3468],[-43.5168,-22.3433],[-43.5144,-22.3469],[-43.5144,-22.3468]],[[-43.5219,-22.3504],[-43.5175,-22.3489],[-43.5219,-22.3504],[-43.5219,-22.3504]]]}},{"type":"Feature","properties":{"cod_tema":"RIO_ATE_10","cod_imovel":"RJ-3306206-FBC7B692CF604A02AF068D7A3C0EBDD8","ind_status":"AT"},"geometry":{"type":"Polygon","coordinates":[[[-43.7711,-22.4425],[-43.7657,-22.444],[-43.7656,-22.4489],[-43.7588,-22.4463],[-43.7589,-22.4531],[-43.7614,-22.4487],[-43.7677,-22.4533],[-43.7657,-22.4441],[-43.7709,-22.4425],[-43.7711,-22.4425]],[[-43.7684,-22.4486],[-43.7723,-22.4449],[-43.7683,-22.4487],[-43.7684,-22.4486]],[[-43.7688,-22.4461],[-43.7713,-22.4433],[-43.7687,-22.4461],[-43.7688,-22.4461]],[[-43.7694,-22.4533],[-43.7739,-22.4464],[-43.7694,-22.4533],[-43.7694,-22.4533]],[[-43.7746,-22.4504],[-43.7708,-22.4553],[-43.7746,-22.4504],[-43.7746,-22.4504]]]}},{"type":"Feature","properties":{"cod_tema":"RIO_ATE_10","cod_imovel":"RJ-3306206-4EC138820C5940A6AC3590CC860DBD8C","ind_status":"AT"},"geometry":{"type":"Polygon","coordinates":[[[-43.3756,-22.2828],[-43.3747,-22.2745],[-43.3813,-22.2694],[-43.3702,-22.2822],[-43.375,-22.2798],[-43.3761,-22.2837],[-43.3756,-22.2828]]]}},{"type":"Feature","properties":{"cod_tema":"RIO_ATE_10","cod_imovel":"RJ-3306206-50DA2B01BE064D529593051565743756","ind_status":"AT"},"geometry":{"type":"Polygon","coordinates":[[[-43.5297,-22.33],[-43.5224,-22.3325],[-43.5297,-22.3301],[-43.5221,-22.3347],[-43.5223,-22.3473],[-43.523,-22.3349],[-43.5297,-22.3301],[-43.5297,-22.33]],[[-43.5253,-22.3599],[-43.5211,-22.3581],[-43.5254,-22.3599],[-43.5253,-22.3599]],[[-43.5266,-22.3566],[-43.5214,-22.3549],[-43.5266,-22.3567],[-43.5266,-22.3566]],[[-43.5344,-22.3564],[-43.5216,-22.3502],[-43.5329,-22.3554],[-43.5268,-22.3599],[-43.5344,-22.3564],[-43.5344,-22.3564]],[[-43.5308,-22.3595],[-43.5274,-22.364],[-43.5309,-22.3595],[-43.5308,-22.3595]],[[-43.5377,-22.3498],[-43.5313,-22.3467],[-43.5291,-22.3504],[-43.5313,-22.3467],[-43.5377,-22.3498],[-43.5344,-22.3534],[-43.5377,-22.3498],[-43.5377,-22.3498]],[[-43.5342,-22.3483],[-43.5386,-22.35],[-43.5341,-22.3482],[-43.5342,-22.3483]],[[-43.5315,-22.3608],[-43.5345,-22.36],[-43.5314,-22.3608],[-43.5315,-22.3608]],[[-43.5345,-22.3431],[-43.5356,-22.3392],[-43.5344,-22.3432],[-43.5345,-22.3431]],[[-43.5374,-22.3663],[-43.5363,-22.3619],[-43.5373,-22.3663],[-43.5374,-22.3663]]]}},{"type":"Feature","properties":{"cod_tema":"RIO_ATE_10","cod_imovel":"RJ-3306206-6F1EA6A89ECF453F847B1A5E53DEB750","ind_status":"PE"},"geometry":{"type":"Polygon","coordinates":[[[-43.5648,-22.372],[-43.5594,-22.3658],[-43.5651,-22.3722],[-43.5648,-22.372]],[[-43.5554,-22.3751],[-43.5628,-22.3798],[-43.5605,-22.3845],[-43.5628,-22.3798],[-43.5553,-22.3752],[-43.5554,-22.3751]]]}},{"type":"Feature","properties":{"cod_tema":"RIO_ATE_10","cod_imovel":"RJ-3306206-A596CF0753404F30B5E7F4211E021D58","ind_status":"AT"},"geometry":{"type":"Polygon","coordinates":[[[-43.6962,-22.4635],[-43.6932,-22.4663],[-43.6967,-22.4632],[-43.6962,-22.4635]],[[-43.692,-22.4624],[-43.6898,-22.4665],[-43.6922,-22.4618],[-43.692,-22.4624]],[[-43.6983,-22.4697],[-43.6963,-22.4726],[-43.6983,-22.4692],[-43.6983,-22.4697]],[[-43.6959,-22.4593],[-43.6864,-22.4638],[-43.6966,-22.4597],[-43.6959,-22.4593]],[[-43.701,-22.46],[-43.6973,-22.457],[-43.7,-22.4715],[-43.6967,-22.4633],[-43.7013,-22.4609],[-43.701,-22.46]]]}},{"type":"Feature","properties":{"cod_tema":"RIO_ATE_10","cod_imovel":"RJ-3306206-70E0694C19CB4820A817AABB60709E52","ind_status":"AT"},"geometry":{"type":"Polygon","coordinates":[[[-43.5592,-22.4015],[-43.5515,-22.3952],[-43.5592,-22.4016],[-43.5592,-22.4015]],[[-43.5586,-22.4018],[-43.549,-22.4047],[-43.559,-22.4017],[-43.5586,-22.4018]]]}},{"type":"Feature","properties":{"cod_tema":"RIO_ATE_10","cod_imovel":"RJ-3306206-38C7E03B36A049FA8489A3830B405624","ind_status":"AT"},"geometry":{"type":"Polygon","coordinates":[[[-43.508,-22.3631],[-43.5051,-22.362],[-43.5081,-22.3632],[-43.508,-22.3631]]]}},{"type":"Feature","properties":{"cod_tema":"RIO_ATE_10","cod_imovel":"RJ-3306206-A998C6EE1953472AA4A5E4DA79468375","ind_status":"AT"},"geometry":{"type":"Polygon","coordinates":[[[-43.6577,-22.3199],[-43.6487,-22.3177],[-43.6576,-22.3198],[-43.6577,-22.3199]],[[-43.6489,-22.3196],[-43.6555,-22.3226],[-43.6489,-22.3196],[-43.6489,-22.3196]]]}},{"type":"Feature","properties":{"cod_tema":"RIO_10_A_50","cod_imovel":"RJ-3306206-A998C6EE1953472AA4A5E4DA79468375","ind_status":"AT"},"geometry":{"type":"Polygon","coordinates":[[[-43.6566,-22.314],[-43.6602,-22.3173],[-43.6566,-22.3141],[-43.6566,-22.314]],[[-43.6516,-22.3153],[-43.6484,-22.3167],[-43.6517,-22.3152],[-43.6516,-22.3153]]]}},{"type":"Feature","properties":{"cod_tema":"RIO_ATE_10","cod_imovel":"RJ-3306206-E1E31821815C49A39AA598DA5229D2CA","ind_status":"PE"},"geometry":{"type":"Polygon","coordinates":[[[-43.5716,-22.3284],[-43.5793,-22.3296],[-43.5761,-22.3363],[-43.5793,-22.3297],[-43.5868,-22.335],[-43.57,-22.3221],[-43.5719,-22.3295],[-43.5716,-22.3284]],[[-43.5691,-22.3357],[-43.5652,-22.3332],[-43.5695,-22.3359],[-43.5691,-22.3357]],[[-43.5703,-22.342],[-43.5593,-22.336],[-43.5721,-22.345],[-43.5707,-22.342],[-43.5703,-22.342]],[[-43.5614,-22.3437],[-43.5579,-22.3463],[-43.5625,-22.3428],[-43.5614,-22.3437]]]}},{"type":"Feature","properties":{"cod_tema":"RIO_ATE_10","cod_imovel":"RJ-3306206-DA7990A9E1054D3FBFC0FB6F302A0AAF","ind_status":"AT"},"geometry":{"type":"Polygon","coordinates":[[[-43.7197,-22.4631],[-43.7175,-22.4591],[-43.7218,-22.4573],[-43.7171,-22.4571],[-43.7205,-22.4557],[-43.7075,-22.454],[-43.7023,-22.4562],[-43.7121,-22.4569],[-43.7099,-22.4614],[-43.6999,-22.4598],[-43.6971,-22.4639],[-43.6985,-22.4689],[-43.6982,-22.461],[-43.7036,-22.46],[-43.702,-22.4673],[-43.7079,-22.4671],[-43.7043,-22.4697],[-43.708,-22.4675],[-43.7047,-22.4621],[-43.7117,-22.4595],[-43.7124,-22.4631],[-43.7111,-22.4576],[-43.7152,-22.4552],[-43.7197,-22.4632],[-43.7197,-22.4631]],[[-43.7189,-22.4623],[-43.7135,-22.4658],[-43.7193,-22.4622],[-43.7189,-22.4623]],[[-43.7196,-22.4616],[-43.7224,-22.4604],[-43.7192,-22.4618],[-43.7196,-22.4616]]]}},{"type":"Feature","properties":{"cod_tema":"RIO_ATE_10","cod_imovel":"RJ-3306206-6F7650DAC0EE4CF3B73852D70EA71B89","ind_status":"AT"},"geometry":{"type":"Polygon","coordinates":[[[-43.5612,-22.3477],[-43.5575,-22.3471],[-43.5618,-22.3477],[-43.5612,-22.3477]]]}},{"type":"Feature","properties":{"cod_tema":"RIO_ATE_10","cod_imovel":"RJ-3306206-D9EA08C49F6E4D8E94E3E0B6B770018F","ind_status":"AT"},"geometry":{"type":"Polygon","coordinates":[[[-43.5574,-22.3498],[-43.5657,-22.3487],[-43.5551,-22.346],[-43.5572,-22.3503],[-43.5574,-22.3498]]]}},{"type":"Feature","properties":{"cod_tema":"LAGO_NATURAL","cod_imovel":"RJ-3306206-6524C0A9769341B99C93A8160B9E9B9D","ind_status":"AT"},"geometry":{"type":"Polygon","coordinates":[[[-43.6312,-22.4297],[-43.6349,-22.4296],[-43.6313,-22.4297],[-43.6312,-22.4297]]]}},{"type":"Feature","properties":{"cod_tema":"RIO_10_A_50","cod_imovel":"RJ-3306206-CCAFB3192B944B8884F5DBC2C6F029FB","ind_status":"AT"},"geometry":{"type":"Polygon","coordinates":[[[-43.5397,-22.2722],[-43.5365,-22.2736],[-43.5398,-22.2726],[-43.5397,-22.2722]]]}},{"type":"Feature","properties":{"cod_tema":"RIO_50_A_200","cod_imovel":"RJ-3306206-CCAFB3192B944B8884F5DBC2C6F029FB","ind_status":"AT"},"geometry":{"type":"Polygon","coordinates":[[[-43.5437,-22.2699],[-43.5391,-22.2711],[-43.5433,-22.27],[-43.5437,-22.2699]]]}},{"type":"Feature","properties":{"cod_tema":"RIO_ATE_10","cod_imovel":"RJ-3306206-82A39A6762414042B1EA2CAD45FE5487","ind_status":"AT"},"geometry":{"type":"Polygon","coordinates":[[[-43.7366,-22.4612],[-43.7376,-22.4648],[-43.7366,-22.461],[-43.7366,-22.4612]],[[-43.7371,-22.4654],[-43.7413,-22.4678],[-43.7338,-22.4648],[-43.7369,-22.4655],[-43.7371,-22.4654]]]}},{"type":"Feature","properties":{"cod_tema":"RIO_ATE_10","cod_imovel":"RJ-3306206-AA62334B9E904372AF92C0B0E629016E","ind_status":"AT"},"geometry":{"type":"Polygon","coordinates":[[[-43.5044,-22.3911],[-43.5019,-22.3894],[-43.506,-22.3923],[-43.5044,-22.3911]]]}},{"type":"Feature","properties":{"cod_tema":"RIO_ATE_10","cod_imovel":"RJ-3306206-62E08A0D2BFB44778F3C58E3EE7069BA","ind_status":"AT"},"geometry":{"type":"Polygon","coordinates":[[[-43.7394,-22.4138],[-43.7424,-22.4105],[-43.739,-22.4143],[-43.7394,-22.4138]]]}},{"type":"Feature","properties":{"cod_tema":"RIO_ATE_10","cod_imovel":"RJ-3306206-8942C0A529234AB094898D7DA0E597CA","ind_status":"AT"},"geometry":{"type":"Polygon","coordinates":[[[-43.7494,-22.4622],[-43.7413,-22.4571],[-43.7475,-22.4523],[-43.7413,-22.4571],[-43.7332,-22.4554],[-43.7488,-22.4625],[-43.7467,-22.4661],[-43.7494,-22.4622],[-43.7494,-22.4622]],[[-43.7401,-22.4557],[-43.7375,-22.4518],[-43.7405,-22.4567],[-43.7401,-22.4557]],[[-43.7406,-22.4488],[-43.7446,-22.4505],[-43.747,-22.4449],[-43.7404,-22.4492],[-43.7406,-22.4488]],[[-43.7422,-22.465],[-43.7448,-22.4607],[-43.7414,-22.4651],[-43.7422,-22.465]],[[-43.7448,-22.4659],[-43.7469,-22.4617],[-43.745,-22.4664],[-43.7448,-22.4659]],[[-43.75,-22.47],[-43.7473,-22.4724],[-43.7503,-22.4696],[-43.75,-22.47]],[[-43.7508,-22.4425],[-43.7488,-22.4458],[-43.7552,-22.4443],[-43.7511,-22.4426],[-43.7544,-22.4384],[-43.7513,-22.442],[-43.7508,-22.4425]],[[-43.7515,-22.4655],[-43.7507,-22.4697],[-43.7505,-22.4655],[-43.7515,-22.4655]],[[-43.7577,-22.4516],[-43.7521,-22.4532],[-43.7583,-22.4515],[-43.7577,-22.4516]],[[-43.7541,-22.4476],[-43.7592,-22.4465],[-43.754,-22.448],[-43.7541,-22.4476]],[[-43.7576,-22.4398],[-43.7641,-22.4379],[-43.7576,-22.4435],[-43.7647,-22.4379],[-43.7573,-22.4402],[-43.7576,-22.4398]]]}},{"type":"Feature","properties":{"cod_tema":"RIO_ATE_10","cod_imovel":"RJ-3306206-8B2391E4D22A4BE59CC11F545925878B","ind_status":"PE"},"geometry":{"type":"Polygon","coordinates":[[[-43.4128,-22.2725],[-43.4104,-22.2772],[-43.4129,-22.2722],[-43.4128,-22.2725]]]}},{"type":"Feature","properties":{"cod_tema":"RIO_ATE_10","cod_imovel":"RJ-3306206-3E39406552D34A8BAF488124D1D7733A","ind_status":"AT"},"geometry":{"type":"Polygon","coordinates":[[[-43.5967,-22.4491],[-43.5906,-22.4448],[-43.5969,-22.4493],[-43.5967,-22.4491]],[[-43.5844,-22.4479],[-43.5942,-22.4477],[-43.5842,-22.448],[-43.5844,-22.4479]]]}},{"type":"Feature","properties":{"cod_tema":"RIO_ATE_10","cod_imovel":"RJ-3306206-7C722162A6764794A604ED6618CBF163","ind_status":"AT"},"geometry":{"type":"Polygon","coordinates":[[[-43.518,-22.2952],[-43.5217,-22.2953],[-43.5185,-22.2946],[-43.518,-22.2952]],[[-43.5186,-22.2982],[-43.5152,-22.298],[-43.5184,-22.3],[-43.5213,-22.2955],[-43.5191,-22.2983],[-43.5186,-22.2982]]]}},{"type":"Feature","properties":{"cod_tema":"RIO_ATE_10","cod_imovel":"RJ-3306206-4DA67D499E6F4C1B8424237EC85322D8","ind_status":"AT"},"geometry":{"type":"Polygon","coordinates":[[[-43.5665,-22.3679],[-43.566,-22.3636],[-43.5666,-22.3685],[-43.5665,-22.3679]],[[-43.5678,-22.3643],[-43.5642,-22.3623],[-43.5681,-22.3642],[-43.5678,-22.3643]],[[-43.5759,-22.3714],[-43.5761,-22.3778],[-43.5756,-22.3711],[-43.5759,-22.3714]]]}},{"type":"Feature","properties":{"cod_tema":"RIO_ATE_10","cod_imovel":"RJ-3306206-03BEAAAED25A43D1A280A773C8F22945","ind_status":"AT"},"geometry":{"type":"Polygon","coordinates":[[[-43.639,-22.4499],[-43.6418,-22.452],[-43.6389,-22.4496],[-43.639,-22.4499]]]}},{"type":"Feature","properties":{"cod_tema":"RIO_ATE_10","cod_imovel":"RJ-3306206-E1A12F934AC34F11905DBB7F91D37BE9","ind_status":"AT"},"geometry":{"type":"Polygon","coordinates":[[[-43.7138,-22.4662],[-43.7053,-22.4721],[-43.7107,-22.4709],[-43.7072,-22.4753],[-43.7111,-22.4678],[-43.7201,-22.4678],[-43.7133,-22.4668],[-43.7138,-22.4662]],[[-43.718,-22.4791],[-43.7099,-22.4779],[-43.7186,-22.4789],[-43.718,-22.4791]],[[-43.7192,-22.4709],[-43.715,-22.4717],[-43.7194,-22.4708],[-43.7192,-22.4709]],[[-43.7218,-22.4835],[-43.7256,-22.4794],[-43.7161,-22.4836],[-43.7218,-22.4835],[-43.7218,-22.4835]],[[-43.7231,-22.4774],[-43.7255,-22.4753],[-43.7182,-22.4761],[-43.7231,-22.4774],[-43.7231,-22.4774]],[[-43.7206,-22.4654],[-43.7237,-22.4641],[-43.7206,-22.4654],[-43.7206,-22.4654]],[[-43.7266,-22.4793],[-43.7225,-22.4789],[-43.7266,-22.4793],[-43.7266,-22.4793]]]}},{"type":"Feature","properties":{"cod_tema":"RIO_ATE_10","cod_imovel":"RJ-3306206-4F10A17BE8B44F5FB9B8D9A21B395916","ind_status":"AT"},"geometry":{"type":"Polygon","coordinates":[[[-43.5219,-22.3637],[-43.5174,-22.3662],[-43.5219,-22.3636],[-43.5219,-22.3637]]]}},{"type":"Feature","properties":{"cod_tema":"RIO_ATE_10","cod_imovel":"RJ-3306206-09D16D4349D94182AC334B5357881B90","ind_status":"AT"},"geometry":{"type":"Polygon","coordinates":[[[-43.6915,-22.4465],[-43.6873,-22.4435],[-43.6906,-22.4405],[-43.6851,-22.4418],[-43.6819,-22.451],[-43.6778,-22.4513],[-43.6805,-22.4531],[-43.6864,-22.4427],[-43.6856,-22.4479],[-43.6877,-22.4442],[-43.6915,-22.4465],[-43.6915,-22.4465]],[[-43.6866,-22.4535],[-43.6856,-22.4505],[-43.6865,-22.4536],[-43.6866,-22.4535]],[[-43.6911,-22.4505],[-43.6878,-22.4534],[-43.6916,-22.4469],[-43.6912,-22.4504],[-43.6911,-22.4505]],[[-43.7031,-22.4444],[-43.6976,-22.4455],[-43.6922,-22.4387],[-43.6993,-22.4489],[-43.7031,-22.4444],[-43.7031,-22.4444]],[[-43.7056,-22.4463],[-43.7025,-22.4491],[-43.7058,-22.4462],[-43.7056,-22.4463]]]}},{"type":"Feature","properties":{"cod_tema":"RESERVATORIO_ARTIFICIAL_DECORRENTE_BARRAMENTO","cod_imovel":"RJ-3306206-09D16D4349D94182AC334B5357881B90","ind_status":"AT"},"geometry":{"type":"Polygon","coordinates":[[[-43.6961,-22.4466],[-43.6913,-22.4467],[-43.6959,-22.4466],[-43.6961,-22.4466]]]}},{"type":"Feature","properties":{"cod_tema":"RIO_ATE_10","cod_imovel":"RJ-3306206-F141B4EED1A846C997F173FC66322379","ind_status":"AT"},"geometry":{"type":"Polygon","coordinates":[[[-43.7539,-22.461],[-43.7492,-22.4587],[-43.75,-22.4533],[-43.7482,-22.4576],[-43.7539,-22.461],[-43.7539,-22.461]],[[-43.7568,-22.4575],[-43.7518,-22.4537],[-43.7576,-22.4581],[-43.7488,-22.4625],[-43.7576,-22.4581],[-43.7568,-22.4575]]]}},{"type":"Feature","properties":{"cod_tema":"RIO_ATE_10","cod_imovel":"RJ-3306206-DF11D19AAF814F308E9D801E79D8324B","ind_status":"AT"},"geometry":{"type":"Polygon","coordinates":[[[-43.5501,-22.4361],[-43.5424,-22.4447],[-43.5486,-22.4392],[-43.5479,-22.4449],[-43.5501,-22.4361],[-43.5501,-22.4361]],[[-43.5468,-22.4459],[-43.5436,-22.4504],[-43.5468,-22.4459],[-43.5468,-22.4459]]]}},{"type":"Feature","properties":{"cod_tema":"RIO_ATE_10","cod_imovel":"RJ-3306206-2D481E0CD7A148D7A46B82080EB0044D","ind_status":"AT"},"geometry":{"type":"Polygon","coordinates":[[[-43.5584,-22.4059],[-43.5555,-22.4008],[-43.5595,-22.4004],[-43.5468,-22.3922],[-43.5594,-22.4004],[-43.5555,-22.4007],[-43.5587,-22.4067],[-43.5584,-22.4059]],[[-43.563,-22.4077],[-43.5601,-22.4068],[-43.5671,-22.4119],[-43.5628,-22.4082],[-43.5722,-22.4079],[-43.5632,-22.4081],[-43.563,-22.4077]],[[-43.5684,-22.4059],[-43.5618,-22.4013],[-43.5695,-22.4071],[-43.5684,-22.4059]],[[-43.5508,-22.4074],[-43.5564,-22.4124],[-43.5499,-22.4078],[-43.5508,-22.4074]],[[-43.5522,-22.388],[-43.5593,-22.3933],[-43.5507,-22.3885],[-43.5522,-22.388]],[[-43.5559,-22.4191],[-43.549,-22.4137],[-43.5562,-22.4193],[-43.5559,-22.4191]]]}},{"type":"Feature","properties":{"cod_tema":"RIO_ATE_10","cod_imovel":"RJ-3306206-7DF6F29831374E03999264887B581E02","ind_status":"AT"},"geometry":{"type":"Polygon","coordinates":[[[-43.7531,-22.4245],[-43.7572,-22.4239],[-43.7529,-22.4242],[-43.7531,-22.4245]]]}},{"type":"Feature","properties":{"cod_tema":"RIO_ATE_10","cod_imovel":"RJ-3306206-1C50900781AF45948C09FD250E6AA52A","ind_status":"AT"},"geometry":{"type":"Polygon","coordinates":[[[-43.4886,-22.2965],[-43.4919,-22.2983],[-43.4885,-22.2963],[-43.4886,-22.2965]]]}},{"type":"Feature","properties":{"cod_tema":"RIO_ATE_10","cod_imovel":"RJ-3306206-32A8D48EC0DF4B1480EC8CAF4C2A5D89","ind_status":"AT"},"geometry":{"type":"Polygon","coordinates":[[[-43.6285,-22.4623],[-43.6319,-22.4621],[-43.6283,-22.4624],[-43.6285,-22.4623]],[[-43.625,-22.461],[-43.6287,-22.456],[-43.625,-22.4611],[-43.625,-22.461]],[[-43.6083,-22.4635],[-43.6059,-22.4598],[-43.6084,-22.4636],[-43.6083,-22.4635]]]}},{"type":"Feature","properties":{"cod_tema":"RIO_ATE_10","cod_imovel":"RJ-3306206-21D9F90F5F3E4427BBA320500F906FF4","ind_status":"AT"},"geometry":{"type":"Polygon","coordinates":[[[-43.6975,-22.3855],[-43.6913,-22.3895],[-43.6975,-22.3856],[-43.6975,-22.3855]],[[-43.6968,-22.3801],[-43.6921,-22.3832],[-43.6968,-22.38],[-43.6968,-22.3801]],[[-43.6834,-22.387],[-43.6931,-22.3784],[-43.6832,-22.3869],[-43.6834,-22.387]]]}},{"type":"Feature","properties":{"cod_tema":"RIO_ATE_10","cod_imovel":"RJ-3306206-DB71EF8F1245456CB3077BD91F3012B6","ind_status":"AT"},"geometry":{"type":"Polygon","coordinates":[[[-43.7139,-22.4225],[-43.7214,-22.4307],[-43.7139,-22.4225],[-43.7139,-22.4225]],[[-43.7227,-22.4201],[-43.7205,-22.4238],[-43.7377,-22.4229],[-43.7285,-22.4252],[-43.7229,-22.42],[-43.7227,-22.4201]],[[-43.7306,-22.4342],[-43.7258,-22.4267],[-43.7283,-22.4311],[-43.7226,-22.4285],[-43.7303,-22.4349],[-43.7208,-22.4313],[-43.7326,-22.4375],[-43.7306,-22.4342],[-43.7306,-22.4342]],[[-43.7257,-22.4206],[-43.7296,-22.4169],[-43.7256,-22.4208],[-43.7257,-22.4206]],[[-43.7298,-22.4221],[-43.7324,-22.4196],[-43.7294,-22.4223],[-43.7298,-22.4221]]]}},{"type":"Feature","properties":{"cod_tema":"RIO_ATE_10","cod_imovel":"RJ-3306206-0C332C3EDB2E423F8E046CFB3BB07B92","ind_status":"AT"},"geometry":{"type":"Polygon","coordinates":[[[-43.5092,-22.3595],[-43.5146,-22.3654],[-43.509,-22.3593],[-43.5092,-22.3595]]]}},{"type":"Feature","properties":{"cod_tema":"RIO_ATE_10","cod_imovel":"RJ-3306206-FA1AFF6EA2A84D29B18EB312D9F74F98","ind_status":"AT"},"geometry":{"type":"Polygon","coordinates":[[[-43.6297,-22.4326],[-43.627,-22.4341],[-43.6301,-22.4328],[-43.6297,-22.4326]]]}},{"type":"Feature","properties":{"cod_tema":"RIO_ATE_10","cod_imovel":"RJ-3306206-0DDCCB56F5AD49A8ACD78EF6281A87DA","ind_status":"AT"},"geometry":{"type":"Polygon","coordinates":[[[-43.73,-22.424],[-43.7326,-22.4197],[-43.7298,-22.4241],[-43.73,-22.424]],[[-43.7308,-22.4257],[-43.7406,-22.4245],[-43.7304,-22.4257],[-43.7308,-22.4257]]]}},{"type":"Feature","properties":{"cod_tema":"RIO_ATE_10","cod_imovel":"RJ-3306206-C0C99EBADB3B4E2E9A4AD2A0D1400DBE","ind_status":"AT"},"geometry":{"type":"Polygon","coordinates":[[[-43.5453,-22.3444],[-43.5467,-22.3414],[-43.5453,-22.3448],[-43.5453,-22.3444]]]}},{"type":"Feature","properties":{"cod_tema":"RIO_ATE_10","cod_imovel":"RJ-3306206-52506CAC1CBD437C87CE0ED46229FD77","ind_status":"AT"},"geometry":{"type":"Polygon","coordinates":[[[-43.7019,-22.4411],[-43.6988,-22.446],[-43.7023,-22.4408],[-43.7019,-22.4411]]]}},{"type":"Feature","properties":{"cod_tema":"RIO_ATE_10","cod_imovel":"RJ-3306206-F168F990E5254B6A833935C179272B1F","ind_status":"AT"},"geometry":{"type":"Polygon","coordinates":[[[-43.5312,-22.3723],[-43.5271,-22.3715],[-43.5313,-22.3724],[-43.5312,-22.3723]]]}},{"type":"Feature","properties":{"cod_tema":"RIO_ATE_10","cod_imovel":"RJ-3306206-790D994553A147BCB909C7236803309A","ind_status":"AT"},"geometry":{"type":"Polygon","coordinates":[[[-43.6177,-22.4225],[-43.6155,-22.4193],[-43.6175,-22.4229],[-43.6177,-22.4225]],[[-43.6141,-22.4224],[-43.6175,-22.4257],[-43.6139,-22.422],[-43.6141,-22.4224]]]}},{"type":"Feature","properties":{"cod_tema":"RIO_ATE_10","cod_imovel":"RJ-3306206-2028F30283E94DCEB9BAC4EE2E08B3CF","ind_status":"AT"},"geometry":{"type":"Polygon","coordinates":[[[-43.5522,-22.4384],[-43.5468,-22.4322],[-43.5482,-22.4393],[-43.5523,-22.439],[-43.5522,-22.4384]],[[-43.5554,-22.4255],[-43.5516,-22.426],[-43.5556,-22.4257],[-43.5554,-22.4255]],[[-43.5578,-22.4341],[-43.5536,-22.4318],[-43.5581,-22.4342],[-43.5578,-22.4341]]]}},{"type":"Feature","properties":{"cod_tema":"RIO_ATE_10","cod_imovel":"RJ-3306206-71C322469B8247A295F650C14B0621C1","ind_status":"AT"},"geometry":{"type":"Polygon","coordinates":[[[-43.5612,-22.4298],[-43.5555,-22.4257],[-43.5612,-22.4299],[-43.5612,-22.4298]]]}},{"type":"Feature","properties":{"cod_tema":"RIO_10_A_50","cod_imovel":"RJ-3306206-E378E125D95B4D4490DEE33B07F19042","ind_status":"AT"},"geometry":{"type":"Polygon","coordinates":[[[-43.5241,-22.4309],[-43.5195,-22.4337],[-43.5244,-22.4309],[-43.5241,-22.4309]]]}},{"type":"Feature","properties":{"cod_tema":"RIO_ATE_10","cod_imovel":"RJ-3306206-67B29F7905AD4B1E8DE64CAE670C4F75","ind_status":"AT"},"geometry":{"type":"Polygon","coordinates":[[[-43.5281,-22.4276],[-43.5301,-22.4249],[-43.5279,-22.428],[-43.5281,-22.4276]],[[-43.5312,-22.4303],[-43.5343,-22.4271],[-43.5308,-22.4306],[-43.5312,-22.4303]]]}},{"type":"Feature","properties":{"cod_tema":"RIO_ATE_10","cod_imovel":"RJ-3306206-0AD7EF7B485F4A039FE241B875CDDB3E","ind_status":"AT"},"geometry":{"type":"Polygon","coordinates":[[[-43.401,-22.2516],[-43.3968,-22.2486],[-43.401,-22.2516],[-43.401,-22.2516]]]}},{"type":"Feature","properties":{"cod_tema":"RIO_ATE_10","cod_imovel":"RJ-3306206-185C92E947204242B5D2EDA8A730FCA2","ind_status":"AT"},"geometry":{"type":"Polygon","coordinates":[[[-43.7276,-22.4157],[-43.724,-22.4181],[-43.7275,-22.4158],[-43.7276,-22.4157]]]}},{"type":"Feature","properties":{"cod_tema":"RIO_ATE_10","cod_imovel":"RJ-3306206-C46DDA16B8D8476DB5AA1EF0DFFE37B6","ind_status":"AT"},"geometry":{"type":"Polygon","coordinates":[[[-43.6575,-22.4558],[-43.6519,-22.4533],[-43.658,-22.456],[-43.6575,-22.4558]]]}},{"type":"Feature","properties":{"cod_tema":"RIO_ATE_10","cod_imovel":"RJ-3306206-449463AB0E6D44AA8DE95999B7EDF2B2","ind_status":"AT"},"geometry":{"type":"Polygon","coordinates":[[[-43.6407,-22.382],[-43.6432,-22.3858],[-43.6407,-22.3819],[-43.6407,-22.382]]]}},{"type":"Feature","properties":{"cod_tema":"RIO_ATE_10","cod_imovel":"RJ-3306206-F6E7033D28D943D4A9A00CE86E1EA750","ind_status":"AT"},"geometry":{"type":"Polygon","coordinates":[[[-43.559,-22.3659],[-43.5616,-22.3603],[-43.5597,-22.3655],[-43.559,-22.3659]]]}},{"type":"Feature","properties":{"cod_tema":"RIO_ATE_10","cod_imovel":"RJ-3306206-CDD978771E134636998C2BE2EFF6903D","ind_status":"AT"},"geometry":{"type":"Polygon","coordinates":[[[-43.6415,-22.3837],[-43.6439,-22.3855],[-43.6414,-22.3835],[-43.6415,-22.3837]]]}},{"type":"Feature","properties":{"cod_tema":"RIO_ATE_10","cod_imovel":"RJ-3306206-F5C123D97B8E428EBC4658619BB59EAF","ind_status":"AT"},"geometry":{"type":"Polygon","coordinates":[[[-43.5607,-22.418],[-43.5585,-22.4206],[-43.5611,-22.4178],[-43.5607,-22.418]],[[-43.5688,-22.4141],[-43.5632,-22.4091],[-43.569,-22.4146],[-43.5688,-22.4141]],[[-43.5624,-22.4236],[-43.5564,-22.4192],[-43.5628,-22.4238],[-43.5624,-22.4236]]]}},{"type":"Feature","properties":{"cod_tema":"RIO_ATE_10","cod_imovel":"RJ-3306206-1CAE9A7F761848E29D2840BC661752B2","ind_status":"AT"},"geometry":{"type":"Polygon","coordinates":[[[-43.5603,-22.4474],[-43.5577,-22.4454],[-43.5603,-22.4474],[-43.5603,-22.4474]]]}},{"type":"Feature","properties":{"cod_tema":"RIO_ATE_10","cod_imovel":"RJ-3306206-716B7AAE53BA4E478E0E18D3657CBDD7","ind_status":"AT"},"geometry":{"type":"Polygon","coordinates":[[[-43.5426,-22.4289],[-43.5443,-22.4368],[-43.5416,-22.4278],[-43.5426,-22.4289]]]}},{"type":"Feature","properties":{"cod_tema":"RIO_ATE_10","cod_imovel":"RJ-3306206-8F48BC36DC634496872D8E30428F586F","ind_status":"AT"},"geometry":{"type":"Polygon","coordinates":[[[-43.3823,-22.2636],[-43.3841,-22.2595],[-43.3823,-22.2671],[-43.3822,-22.2637],[-43.3823,-22.2636]]]}},{"type":"Feature","properties":{"cod_tema":"RIO_ATE_10","cod_imovel":"RJ-3306206-58C8798DF33A406EA6700AD22011248D","ind_status":"AT"},"geometry":{"type":"Polygon","coordinates":[[[-43.5138,-22.3647],[-43.5119,-22.3618],[-43.5143,-22.3652],[-43.5138,-22.3647]]]}},{"type":"Feature","properties":{"cod_tema":"RIO_ATE_10","cod_imovel":"RJ-3306206-DDCF09F26C0949DBA03EC4C72A38B5C8","ind_status":"AT"},"geometry":{"type":"Polygon","coordinates":[[[-43.349,-22.2679],[-43.3451,-22.2644],[-43.3493,-22.2683],[-43.349,-22.2679]]]}},{"type":"Feature","properties":{"cod_tema":"RIO_ATE_10","cod_imovel":"RJ-3306206-6BE6015C57794046808958FD1F304E7B","ind_status":"AT"},"geometry":{"type":"Polygon","coordinates":[[[-43.6135,-22.4222],[-43.6101,-22.4197],[-43.6135,-22.4222],[-43.6135,-22.4222]]]}},{"type":"Feature","properties":{"cod_tema":"RIO_ATE_10","cod_imovel":"RJ-3306206-66C4B0E19BE64F0C98FDF51D24B522B0","ind_status":"AT"},"geometry":{"type":"Polygon","coordinates":[[[-43.728,-22.3973],[-43.7281,-22.3925],[-43.728,-22.3973],[-43.728,-22.3973]]]}},{"type":"Feature","properties":{"cod_tema":"RIO_ATE_10","cod_imovel":"RJ-3306206-3E1C7B2AAECC4509866FB02E70F8AB12","ind_status":"AT"},"geometry":{"type":"Polygon","coordinates":[[[-43.6864,-22.4372],[-43.6835,-22.4406],[-43.679,-22.4368],[-43.6839,-22.4315],[-43.6771,-22.4352],[-43.6787,-22.4381],[-43.6657,-22.4333],[-43.6727,-22.4366],[-43.6679,-22.4405],[-43.6769,-22.4376],[-43.6691,-22.4418],[-43.6799,-22.4376],[-43.6828,-22.4404],[-43.6782,-22.4422],[-43.6851,-22.4419],[-43.6866,-22.437],[-43.6864,-22.4372]]]}},{"type":"Feature","properties":{"cod_tema":"RIO_ATE_10","cod_imovel":"RJ-3306206-906B03E73FCF4E84A5BABB3443BA2032","ind_status":"AT"},"geometry":{"type":"Polygon","coordinates":[[[-43.445,-22.2868],[-43.4477,-22.2849],[-43.4447,-22.287],[-43.445,-22.2868]],[[-43.4438,-22.2934],[-43.4442,-22.2873],[-43.4443,-22.294],[-43.4438,-22.2934]]]}},{"type":"Feature","properties":{"cod_tema":"RIO_ATE_10","cod_imovel":"RJ-3306206-077FB7518B9D4D87A197C76A2D79EC8C","ind_status":"AT"},"geometry":{"type":"Polygon","coordinates":[[[-43.4501,-22.2819],[-43.4481,-22.2849],[-43.4501,-22.2819],[-43.4501,-22.2819]],[[-43.4544,-22.2845],[-43.45,-22.2885],[-43.4549,-22.2837],[-43.4544,-22.2845]]]}},{"type":"Feature","properties":{"cod_tema":"RIO_ATE_10","cod_imovel":"RJ-3306206-82B806148EE041EFAB13946FB15CEEDE","ind_status":"AT"},"geometry":{"type":"Polygon","coordinates":[[[-43.6554,-22.4259],[-43.6585,-22.4289],[-43.6542,-22.4248],[-43.6554,-22.4259]]]}},{"type":"Feature","properties":{"cod_tema":"RIO_ATE_10","cod_imovel":"RJ-3306206-6C69832200B548E885851469D70872B7","ind_status":"AT"},"geometry":{"type":"Polygon","coordinates":[[[-43.7289,-22.4019],[-43.7278,-22.3952],[-43.7289,-22.4019],[-43.7289,-22.4019]]]}},{"type":"Feature","properties":{"cod_tema":"RIO_ATE_10","cod_imovel":"RJ-3306206-A9EE07E19838492A9EF9D6A749012246","ind_status":"AT"},"geometry":{"type":"Polygon","coordinates":[[[-43.5596,-22.3646],[-43.5525,-22.3629],[-43.5571,-22.3674],[-43.5596,-22.3646],[-43.5596,-22.3646]],[[-43.5605,-22.3601],[-43.5545,-22.3594],[-43.5609,-22.3598],[-43.5605,-22.3601]]]}},{"type":"Feature","properties":{"cod_tema":"RIO_ATE_10","cod_imovel":"RJ-3306206-9D14135EAFD64F0E9070C587EA7E58BE","ind_status":"AT"},"geometry":{"type":"Polygon","coordinates":[[[-43.5305,-22.3296],[-43.5339,-22.3314],[-43.5312,-22.3292],[-43.5305,-22.3296]]]}},{"type":"Feature","properties":{"cod_tema":"RIO_ATE_10","cod_imovel":"RJ-3306206-3CBCB060E9E34163B3E0392897E2FFFA","ind_status":"AT"},"geometry":{"type":"Polygon","coordinates":[[[-43.496,-22.4214],[-43.4978,-22.4163],[-43.4962,-22.4215],[-43.496,-22.4214]]]}},{"type":"Feature","properties":{"cod_tema":"RIO_ATE_10","cod_imovel":"RJ-3306206-8859371FFB574C5BACA157B5941C9401","ind_status":"AT"},"geometry":{"type":"Polygon","coordinates":[[[-43.6565,-22.4265],[-43.651,-22.4222],[-43.6566,-22.4267],[-43.6565,-22.4265]]]}},{"type":"Feature","properties":{"cod_tema":"RIO_ATE_10","cod_imovel":"RJ-3306206-FA42EED15FF042BB985562A1C4CA0007","ind_status":"AT"},"geometry":{"type":"Polygon","coordinates":[[[-43.5526,-22.4299],[-43.5545,-22.4267],[-43.553,-22.4298],[-43.5526,-22.4299]]]}},{"type":"Feature","properties":{"cod_tema":"RIO_ATE_10","cod_imovel":"RJ-3306206-25004B38CB0342F997D6B3BF2FAD6A3B","ind_status":"AT"},"geometry":{"type":"Polygon","coordinates":[[[-43.6638,-22.4761],[-43.6622,-22.4732],[-43.6638,-22.4762],[-43.6638,-22.4761]]]}},{"type":"Feature","properties":{"cod_tema":"RIO_ATE_10","cod_imovel":"RJ-3306206-CF08D0EB06E4452899D814FE9D722E58","ind_status":"AT"},"geometry":{"type":"Polygon","coordinates":[[[-43.4338,-22.2736],[-43.4251,-22.2682],[-43.4343,-22.274],[-43.4338,-22.2736]],[[-43.4406,-22.2759],[-43.4256,-22.2655],[-43.4411,-22.2761],[-43.4406,-22.2759]],[[-43.4338,-22.2807],[-43.4184,-22.2712],[-43.4344,-22.281],[-43.4338,-22.2807]]]}},{"type":"Feature","properties":{"cod_tema":"RIO_ATE_10","cod_imovel":"RJ-3306206-17B71FC5D0924FFC99F7E2BC8AFFB7BD","ind_status":"AT"},"geometry":{"type":"Polygon","coordinates":[[[-43.7381,-22.4405],[-43.7469,-22.4451],[-43.7335,-22.4384],[-43.7383,-22.4401],[-43.7381,-22.4405]],[[-43.7437,-22.4313],[-43.7383,-22.4368],[-43.7336,-22.4346],[-43.7372,-22.4395],[-43.7439,-22.4305],[-43.7437,-22.4313]],[[-43.7416,-22.4341],[-43.7462,-22.4406],[-43.7409,-22.434],[-43.7416,-22.4341]],[[-43.7467,-22.4414],[-43.7535,-22.4328],[-43.7481,-22.4449],[-43.7544,-22.4368],[-43.749,-22.4292],[-43.7535,-22.4328],[-43.7465,-22.442],[-43.7467,-22.4414]],[[-43.7466,-22.4299],[-43.7466,-22.4352],[-43.7466,-22.4294],[-43.7466,-22.4299]],[[-43.7504,-22.4319],[-43.7468,-22.4365],[-43.7506,-22.4313],[-43.7504,-22.4319]]]}},{"type":"Feature","properties":{"cod_tema":"RIO_ATE_10","cod_imovel":"RJ-3306206-7277B46AF5354DC083B6341A239BBF87","ind_status":"AT"},"geometry":{"type":"Polygon","coordinates":[[[-43.4996,-22.4123],[-43.4975,-22.4166],[-43.4995,-22.4127],[-43.4996,-22.4123]],[[-43.5027,-22.4153],[-43.4997,-22.4125],[-43.5029,-22.4158],[-43.5027,-22.4153]]]}},{"type":"Feature","properties":{"cod_tema":"RIO_ATE_10","cod_imovel":"RJ-3306206-6CFC854A275342D3A630D8874E91638F","ind_status":"AT"},"geometry":{"type":"Polygon","coordinates":[[[-43.564,-22.396],[-43.5612,-22.3938],[-43.5642,-22.3963],[-43.564,-22.396]],[[-43.5624,-22.3976],[-43.561,-22.3937],[-43.5625,-22.3977],[-43.5624,-22.3976]]]}},{"type":"Feature","properties":{"cod_tema":"RIO_ATE_10","cod_imovel":"RJ-3306206-56ABBC27F3F140558C4DFCF9F2721587","ind_status":"AT"},"geometry":{"type":"Polygon","coordinates":[[[-43.6833,-22.4181],[-43.6771,-22.4144],[-43.6834,-22.4182],[-43.6833,-22.4181]]]}},{"type":"Feature","properties":{"cod_tema":"RIO_ATE_10","cod_imovel":"RJ-3306206-F0EFC45F8D1C45948FFDDE109F692A0E","ind_status":"AT"},"geometry":{"type":"Polygon","coordinates":[[[-43.4982,-22.3732],[-43.4966,-22.3669],[-43.4873,-22.3729],[-43.4953,-22.3854],[-43.4874,-22.3729],[-43.4933,-22.3682],[-43.4989,-22.373],[-43.4982,-22.3732]]]}},{"type":"Feature","properties":{"cod_tema":"RIO_ATE_10","cod_imovel":"RJ-3306206-DB16CA0F336C4810B919D075496FCEE0","ind_status":"AT"},"geometry":{"type":"Polygon","coordinates":[[[-43.6357,-22.4381],[-43.63,-22.4328],[-43.6298,-22.4412],[-43.6326,-22.4352],[-43.6357,-22.4381],[-43.6357,-22.4381]],[[-43.6401,-22.4319],[-43.6424,-22.4293],[-43.6343,-22.4298],[-43.6391,-22.4309],[-43.6401,-22.4319]]]}},{"type":"Feature","properties":{"cod_tema":"RIO_ATE_10","cod_imovel":"RJ-3306206-6BFE9ADFF2454065A8F8CBE74BA6DBE8","ind_status":"AT"},"geometry":{"type":"Polygon","coordinates":[[[-43.3834,-22.2716],[-43.3805,-22.2748],[-43.3837,-22.2719],[-43.3834,-22.2716]]]}},{"type":"Feature","properties":{"cod_tema":"RIO_ATE_10","cod_imovel":"RJ-3306206-3D53C81B0079484D95D91769C202D5FB","ind_status":"AT"},"geometry":{"type":"Polygon","coordinates":[[[-43.5274,-22.4473],[-43.5318,-22.4473],[-43.5274,-22.4473],[-43.5274,-22.4473]],[[-43.5348,-22.4483],[-43.5322,-22.445],[-43.535,-22.4485],[-43.5348,-22.4483]]]}},{"type":"Feature","properties":{"cod_tema":"RIO_ATE_10","cod_imovel":"RJ-3306206-C956CA3CAA2A437684CA3FAB268418D7","ind_status":"AT"},"geometry":{"type":"Polygon","coordinates":[[[-43.5582,-22.4547],[-43.5537,-22.4561],[-43.5586,-22.4543],[-43.5582,-22.4547]],[[-43.5605,-22.4557],[-43.5549,-22.4599],[-43.5619,-22.4545],[-43.5605,-22.4557]],[[-43.5567,-22.4359],[-43.5576,-22.4408],[-43.557,-22.4351],[-43.5567,-22.4359]],[[-43.5655,-22.4501],[-43.5579,-22.4537],[-43.571,-22.4597],[-43.5618,-22.4542],[-43.5667,-22.4497],[-43.5655,-22.4501]],[[-43.568,-22.444],[-43.5681,-22.436],[-43.558,-22.4337],[-43.5652,-22.4374],[-43.5658,-22.4476],[-43.568,-22.444],[-43.568,-22.444]],[[-43.5735,-22.4619],[-43.5656,-22.4585],[-43.5607,-22.4622],[-43.5656,-22.4585],[-43.564,-22.4622],[-43.5656,-22.4585],[-43.5733,-22.4619],[-43.5666,-22.4651],[-43.5735,-22.4619],[-43.5735,-22.4619]],[[-43.5648,-22.4382],[-43.562,-22.4423],[-43.5649,-22.4375],[-43.5648,-22.4382]],[[-43.5672,-22.4412],[-43.5701,-22.4397],[-43.5667,-22.4414],[-43.5672,-22.4412]],[[-43.5673,-22.4619],[-43.5686,-22.4586],[-43.5669,-22.4624],[-43.5673,-22.4619]],[[-43.5674,-22.4524],[-43.5673,-22.4559],[-43.5677,-22.4516],[-43.5674,-22.4524]],[[-43.5727,-22.4416],[-43.5784,-22.4354],[-43.572,-22.4414],[-43.5727,-22.4416]],[[-43.5795,-22.4366],[-43.5746,-22.4326],[-43.5804,-22.4376],[-43.5795,-22.4366]],[[-43.5796,-22.4428],[-43.5816,-22.4366],[-43.5793,-22.4433],[-43.5796,-22.4428]]]}},{"type":"Feature","properties":{"cod_tema":"RIO_ATE_10","cod_imovel":"RJ-3306206-A90A94A014C547B8B3EC3992D38B00A6","ind_status":"AT"},"geometry":{"type":"Polygon","coordinates":[[[-43.5762,-22.4467],[-43.5735,-22.4504],[-43.5765,-22.446],[-43.5762,-22.4467]]]}},{"type":"Feature","properties":{"cod_tema":"RIO_ATE_10","cod_imovel":"RJ-3306206-0FCD1000638E46978EC3AE1AD24A28D1","ind_status":"AT"},"geometry":{"type":"Polygon","coordinates":[[[-43.548,-22.46],[-43.5558,-22.4605],[-43.5476,-22.4605],[-43.548,-22.46]]]}},{"type":"Feature","properties":{"cod_tema":"RIO_ATE_10","cod_imovel":"RJ-3306206-F93BB9F3204641FA8394F90642B7855B","ind_status":"AT"},"geometry":{"type":"Polygon","coordinates":[[[-43.4387,-22.2552],[-43.4401,-22.2506],[-43.4269,-22.2403],[-43.44,-22.2507],[-43.4388,-22.2554],[-43.4387,-22.2552]]]}},{"type":"Feature","properties":{"cod_tema":"RIO_ATE_10","cod_imovel":"RJ-3306206-285A38899917473D8FAFF5E6FD2FB7D9","ind_status":"AT"},"geometry":{"type":"Polygon","coordinates":[[[-43.5619,-22.4346],[-43.5648,-22.438],[-43.5641,-22.4311],[-43.5615,-22.4344],[-43.5619,-22.4346]],[[-43.5737,-22.4367],[-43.5705,-22.4341],[-43.5736,-22.437],[-43.5737,-22.4367]]]}},{"type":"Feature","properties":{"cod_tema":"RIO_ATE_10","cod_imovel":"RJ-3306206-97A8770139BB4DA79BFED6F91859D2D5","ind_status":"AT"},"geometry":{"type":"Polygon","coordinates":[[[-43.6253,-22.3449],[-43.6228,-22.341],[-43.6251,-22.3451],[-43.6253,-22.3449]]]}},{"type":"Feature","properties":{"cod_tema":"RIO_ATE_10","cod_imovel":"RJ-3306206-97A8770139BB4DA79BFED6F91859D2D5","ind_status":"AT"},"geometry":{"type":"Polygon","coordinates":[[[-43.6195,-22.3502],[-43.6184,-22.345],[-43.6129,-22.348],[-43.6184,-22.3451],[-43.6195,-22.3503],[-43.6195,-22.3502]]]}},{"type":"Feature","properties":{"cod_tema":"RIO_ATE_10","cod_imovel":"RJ-3306206-97A8770139BB4DA79BFED6F91859D2D5","ind_status":"AT"},"geometry":{"type":"Polygon","coordinates":[[[-43.6246,-22.3369],[-43.629,-22.3394],[-43.6241,-22.3368],[-43.6246,-22.3369]]]}},{"type":"Feature","properties":{"cod_tema":"RIO_ATE_10","cod_imovel":"RJ-3306206-97A8770139BB4DA79BFED6F91859D2D5","ind_status":"AT"},"geometry":{"type":"Polygon","coordinates":[[[-43.6413,-22.3348],[-43.6387,-22.3364],[-43.6412,-22.3345],[-43.6413,-22.3348]]]}},{"type":"Feature","properties":{"cod_tema":"RIO_ATE_10","cod_imovel":"RJ-3306206-97A8770139BB4DA79BFED6F91859D2D5","ind_status":"AT"},"geometry":{"type":"Polygon","coordinates":[[[-43.6421,-22.3382],[-43.6363,-22.3427],[-43.6424,-22.3379],[-43.6421,-22.3382]]]}},{"type":"Feature","properties":{"cod_tema":"RIO_ATE_10","cod_imovel":"RJ-3306206-97A8770139BB4DA79BFED6F91859D2D5","ind_status":"AT"},"geometry":{"type":"Polygon","coordinates":[[[-43.644,-22.3403],[-43.6407,-22.3431],[-43.6446,-22.34],[-43.644,-22.3403]]]}},{"type":"Feature","properties":{"cod_tema":"RIO_ATE_10","cod_imovel":"RJ-3306206-97A8770139BB4DA79BFED6F91859D2D5","ind_status":"AT"},"geometry":{"type":"Polygon","coordinates":[[[-43.6392,-22.3325],[-43.6443,-22.3421],[-43.6347,-22.3493],[-43.6342,-22.345],[-43.6343,-22.3493],[-43.6444,-22.3421],[-43.639,-22.3324],[-43.6392,-22.3325]]]}},{"type":"Feature","properties":{"cod_tema":"RIO_ATE_10","cod_imovel":"RJ-3306206-97A8770139BB4DA79BFED6F91859D2D5","ind_status":"AT"},"geometry":{"type":"Polygon","coordinates":[[[-43.6319,-22.3437],[-43.6296,-22.3497],[-43.632,-22.343],[-43.6319,-22.3437]]]}},{"type":"Feature","properties":{"cod_tema":"RIO_ATE_10","cod_imovel":"RJ-3306206-97A8770139BB4DA79BFED6F91859D2D5","ind_status":"AT"},"geometry":{"type":"Polygon","coordinates":[[[-43.6297,-22.3494],[-43.6359,-22.3522],[-43.6297,-22.3494],[-43.6297,-22.3494]]]}},{"type":"Feature","properties":{"cod_tema":"RIO_ATE_10","cod_imovel":"RJ-3306206-97A8770139BB4DA79BFED6F91859D2D5","ind_status":"AT"},"geometry":{"type":"Polygon","coordinates":[[[-43.6272,-22.3495],[-43.6214,-22.3462],[-43.6212,-22.334],[-43.6213,-22.3463],[-43.6276,-22.3498],[-43.6272,-22.3495]]]}},{"type":"Feature","properties":{"cod_tema":"RIO_ATE_10","cod_imovel":"RJ-3306206-97A8770139BB4DA79BFED6F91859D2D5","ind_status":"AT"},"geometry":{"type":"Polygon","coordinates":[[[-43.624,-22.3483],[-43.6233,-22.352],[-43.6241,-22.3482],[-43.624,-22.3483]]]}},{"type":"Feature","properties":{"cod_tema":"RIO_ATE_10","cod_imovel":"RJ-3306206-97A8770139BB4DA79BFED6F91859D2D5","ind_status":"AT"},"geometry":{"type":"Polygon","coordinates":[[[-43.6187,-22.3408],[-43.6169,-22.3451],[-43.6187,-22.3406],[-43.6187,-22.3408]]]}},{"type":"Feature","properties":{"cod_tema":"RIO_ATE_10","cod_imovel":"RJ-3306206-97A8770139BB4DA79BFED6F91859D2D5","ind_status":"AT"},"geometry":{"type":"Polygon","coordinates":[[[-43.6133,-22.3436],[-43.6147,-22.3384],[-43.6132,-22.3439],[-43.6133,-22.3436]]]}},{"type":"Feature","properties":{"cod_tema":"RIO_ATE_10","cod_imovel":"RJ-3306206-97A8770139BB4DA79BFED6F91859D2D5","ind_status":"AT"},"geometry":{"type":"Polygon","coordinates":[[[-43.6343,-22.3323],[-43.6306,-22.3349],[-43.6344,-22.3322],[-43.6343,-22.3323]]]}},{"type":"Feature","properties":{"cod_tema":"RIO_ATE_10","cod_imovel":"RJ-3306206-97A8770139BB4DA79BFED6F91859D2D5","ind_status":"AT"},"geometry":{"type":"Polygon","coordinates":[[[-43.6363,-22.3352],[-43.6324,-22.3394],[-43.6366,-22.3351],[-43.6363,-22.3352]]]}},{"type":"Feature","properties":{"cod_tema":"RIO_ATE_10","cod_imovel":"RJ-3306206-97A8770139BB4DA79BFED6F91859D2D5","ind_status":"AT"},"geometry":{"type":"Polygon","coordinates":[[[-43.6372,-22.3334],[-43.6347,-22.3398],[-43.6373,-22.3331],[-43.6372,-22.3334]]]}},{"type":"Feature","properties":{"cod_tema":"RIO_ATE_10","cod_imovel":"RJ-3306206-97A8770139BB4DA79BFED6F91859D2D5","ind_status":"AT"},"geometry":{"type":"Polygon","coordinates":[[[-43.6216,-22.3393],[-43.6152,-22.338],[-43.6084,-22.3438],[-43.6194,-22.3561],[-43.6085,-22.3438],[-43.622,-22.3383],[-43.6216,-22.3393]]]}},{"type":"Feature","properties":{"cod_tema":"RIO_ATE_10","cod_imovel":"RJ-3306206-97A8770139BB4DA79BFED6F91859D2D5","ind_status":"AT"},"geometry":{"type":"Polygon","coordinates":[[[-43.6259,-22.3282],[-43.6262,-22.3352],[-43.6257,-22.3281],[-43.6259,-22.3282]]]}},{"type":"Feature","properties":{"cod_tema":"RIO_ATE_10","cod_imovel":"RJ-3306206-27DFCF4380E94CB28BBE77EDE8113AD7","ind_status":"AT"},"geometry":{"type":"Polygon","coordinates":[[[-43.5415,-22.452],[-43.5468,-22.4544],[-43.541,-22.4519],[-43.5415,-22.452]]]}},{"type":"Feature","properties":{"cod_tema":"RIO_ATE_10","cod_imovel":"RJ-3306206-748299F950CC4934B9A631A9EA6DBF06","ind_status":"AT"},"geometry":{"type":"Polygon","coordinates":[[[-43.6761,-22.3637],[-43.6785,-22.3662],[-43.6757,-22.3635],[-43.6761,-22.3637]],[[-43.6843,-22.3623],[-43.6852,-22.3657],[-43.6842,-22.362],[-43.6843,-22.3623]],[[-43.6839,-22.3736],[-43.6805,-22.37],[-43.6843,-22.3737],[-43.6839,-22.3736]],[[-43.6894,-22.3701],[-43.6819,-22.3672],[-43.6897,-22.3702],[-43.6894,-22.3701]]]}},{"type":"Feature","properties":{"cod_tema":"RIO_50_A_200","cod_imovel":"RJ-3306206-748299F950CC4934B9A631A9EA6DBF06","ind_status":"AT"},"geometry":{"type":"Polygon","coordinates":[[[-43.6928,-22.3724],[-43.6936,-22.3622],[-43.6921,-22.3712],[-43.6928,-22.3724]],[[-43.6802,-22.3613],[-43.6874,-22.3614],[-43.6808,-22.361],[-43.6802,-22.3613]]]}},{"type":"Feature","properties":{"cod_tema":"RIO_50_A_200","cod_imovel":"RJ-3306206-76915AFF987D4045A00631911D1F7EF1","ind_status":"AT"},"geometry":{"type":"Polygon","coordinates":[[[-43.678,-22.3619],[-43.6741,-22.3562],[-43.6775,-22.3616],[-43.678,-22.3619]]]}},{"type":"Feature","properties":{"cod_tema":"RIO_ATE_10","cod_imovel":"RJ-3306206-A64D2CE4BCC04DC69D143C9161D0579D","ind_status":"AT"},"geometry":{"type":"Polygon","coordinates":[[[-43.5523,-22.3292],[-43.5537,-22.3328],[-43.5525,-22.3286],[-43.5523,-22.3292]],[[-43.5544,-22.327],[-43.5578,-22.3236],[-43.5591,-22.3287],[-43.56,-22.3196],[-43.5542,-22.3273],[-43.5544,-22.327]],[[-43.5479,-22.3269],[-43.552,-22.3314],[-43.5476,-22.3267],[-43.5479,-22.3269]],[[-43.5488,-22.3243],[-43.5575,-22.3211],[-43.5486,-22.3243],[-43.5488,-22.3243]]]}},{"type":"Feature","properties":{"cod_tema":"RIO_ATE_10","cod_imovel":"RJ-3306206-B3F229039EFC4252BB37438933E0B0D2","ind_status":"AT"},"geometry":{"type":"Polygon","coordinates":[[[-43.5486,-22.3339],[-43.5449,-22.331],[-43.5499,-22.3349],[-43.5486,-22.3339]],[[-43.5438,-22.3402],[-43.5478,-22.341],[-43.5435,-22.3403],[-43.5438,-22.3402]],[[-43.5469,-22.338],[-43.5392,-22.3373],[-43.5471,-22.3384],[-43.5469,-22.338]]]}},{"type":"Feature","properties":{"cod_tema":"RIO_ATE_10","cod_imovel":"RJ-3306206-69FAEC9A25724571B646BF96215E2F11","ind_status":"AT"},"geometry":{"type":"Polygon","coordinates":[[[-43.4272,-22.2398],[-43.4233,-22.2371],[-43.4273,-22.2401],[-43.4272,-22.2398]],[[-43.4368,-22.2598],[-43.4269,-22.266],[-43.4399,-22.2573],[-43.4484,-22.2613],[-43.4385,-22.2579],[-43.4398,-22.2534],[-43.4384,-22.258],[-43.4368,-22.2598]],[[-43.4642,-22.2634],[-43.4603,-22.2562],[-43.4475,-22.2503],[-43.452,-22.2458],[-43.4477,-22.25],[-43.4436,-22.2454],[-43.4477,-22.25],[-43.441,-22.2524],[-43.4274,-22.2403],[-43.4398,-22.2531],[-43.4482,-22.2504],[-43.4642,-22.2634],[-43.4642,-22.2634]],[[-43.4353,-22.2333],[-43.4402,-22.2348],[-43.4348,-22.2334],[-43.4353,-22.2333]],[[-43.4398,-22.2414],[-43.4351,-22.2371],[-43.4402,-22.2419],[-43.4398,-22.2414]],[[-43.4441,-22.2323],[-43.4397,-22.2299],[-43.4444,-22.2328],[-43.4441,-22.2323]],[[-43.446,-22.2393],[-43.4423,-22.2362],[-43.4468,-22.2391],[-43.446,-22.2393]],[[-43.4511,-22.2357],[-43.4446,-22.2332],[-43.4517,-22.2365],[-43.4511,-22.2357]],[[-43.4453,-22.2538],[-43.4492,-22.2552],[-43.4449,-22.2529],[-43.4453,-22.2538]],[[-43.4517,-22.2445],[-43.4466,-22.2433],[-43.4523,-22.2453],[-43.4517,-22.2445]],[[-43.4502,-22.2611],[-43.4534,-22.2586],[-43.4491,-22.2609],[-43.4532,-22.2642],[-43.4499,-22.2614],[-43.4502,-22.2611]],[[-43.4597,-22.2462],[-43.4584,-22.2397],[-43.4519,-22.2458],[-43.4584,-22.2397],[-43.4607,-22.2467],[-43.4597,-22.2462]],[[-43.4683,-22.2538],[-43.4644,-22.2565],[-43.452,-22.2458],[-43.4644,-22.2565],[-43.4688,-22.2536],[-43.4683,-22.2538]],[[-43.4557,-22.2309],[-43.4534,-22.2352],[-43.4566,-22.2309],[-43.4557,-22.2309]],[[-43.4549,-22.226],[-43.4612,-22.2329],[-43.4534,-22.2249],[-43.4549,-22.226]],[[-43.4688,-22.2767],[-43.4682,-22.28],[-43.4632,-22.2725],[-43.4789,-22.2746],[-43.4684,-22.2706],[-43.4644,-22.2737],[-43.4558,-22.2639],[-43.4682,-22.28],[-43.4692,-22.2762],[-43.4688,-22.2767]],[[-43.4567,-22.2307],[-43.4566,-22.2361],[-43.4571,-22.2299],[-43.4567,-22.2307]],[[-43.4622,-22.2339],[-43.4683,-22.2298],[-43.4614,-22.2335],[-43.4622,-22.2339]],[[-43.463,-22.2397],[-43.4694,-22.2352],[-43.4626,-22.2406],[-43.463,-22.2397]],[[-43.4736,-22.2446],[-43.4663,-22.2459],[-43.4739,-22.244],[-43.4736,-22.2446]],[[-43.4722,-22.2713],[-43.4703,-22.2654],[-43.472,-22.2725],[-43.4722,-22.2713]],[[-43.4758,-22.2523],[-43.4703,-22.257],[-43.477,-22.252],[-43.4758,-22.2523]],[[-43.4758,-22.2506],[-43.4707,-22.253],[-43.4718,-22.2493],[-43.4769,-22.2508],[-43.4758,-22.2506]],[[-43.4793,-22.2623],[-43.4783,-22.258],[-43.4712,-22.2598],[-43.4778,-22.2595],[-43.4746,-22.2646],[-43.4778,-22.2596],[-43.4807,-22.2645],[-43.4793,-22.2623]],[[-43.4758,-22.2671],[-43.486,-22.2702],[-43.4716,-22.2626],[-43.4768,-22.2662],[-43.4742,-22.2677],[-43.4758,-22.2671]],[[-43.4905,-22.2655],[-43.4786,-22.2578],[-43.4771,-22.2508],[-43.4786,-22.2578],[-43.4916,-22.2661],[-43.4905,-22.2655]],[[-43.4808,-22.2723],[-43.4792,-22.2696],[-43.4808,-22.2732],[-43.4808,-22.2723]],[[-43.4859,-22.2643],[-43.483,-22.2666],[-43.4859,-22.263],[-43.4859,-22.2643]]]}},{"type":"Feature","properties":{"cod_tema":"RIO_200_A_600","cod_imovel":"RJ-3306206-69FAEC9A25724571B646BF96215E2F11","ind_status":"AT"},"geometry":{"type":"Polygon","coordinates":[[[-43.4817,-22.2493],[-43.4723,-22.2326],[-43.4735,-22.2175],[-43.4681,-22.2143],[-43.449,-22.2265],[-43.4331,-22.2301],[-43.4301,-22.2374],[-43.4231,-22.2362],[-43.4344,-22.2369],[-43.4361,-22.2312],[-43.4499,-22.2281],[-43.4675,-22.2153],[-43.4714,-22.2167],[-43.4714,-22.2356],[-43.476,-22.2367],[-43.4807,-22.2504],[-43.4817,-22.2493]]]}},{"type":"Feature","properties":{"cod_tema":"RIO_ATE_10","cod_imovel":"RJ-3306206-8D615540750A472E8C6F36A9915B3C23","ind_status":"AT"},"geometry":{"type":"Polygon","coordinates":[[[-43.6513,-22.3464],[-43.6614,-22.3451],[-43.651,-22.3466],[-43.6513,-22.3464]]]}},{"type":"Feature","properties":{"cod_tema":"RIO_50_A_200","cod_imovel":"RJ-3306206-8D615540750A472E8C6F36A9915B3C23","ind_status":"AT"},"geometry":{"type":"Polygon","coordinates":[[[-43.662,-22.3404],[-43.6682,-22.3453],[-43.6765,-22.3439],[-43.6767,-22.3541],[-43.6782,-22.3441],[-43.6623,-22.3407],[-43.662,-22.3404]]]}},{"type":"Feature","properties":{"cod_tema":"RIO_ATE_10","cod_imovel":"RJ-3306206-81494C14F4FA48B9B7372A46E28770A7","ind_status":"AT"},"geometry":{"type":"Polygon","coordinates":[[[-43.3745,-22.274],[-43.3803,-22.2699],[-43.3745,-22.2745],[-43.3745,-22.274]]]}},{"type":"Feature","properties":{"cod_tema":"RIO_ATE_10","cod_imovel":"RJ-3306206-E5B4308779094715BEDC26D511EF5B88","ind_status":"AT"},"geometry":{"type":"Polygon","coordinates":[[[-43.468,-22.2889],[-43.4623,-22.2833],[-43.4682,-22.2891],[-43.468,-22.2889]],[[-43.4829,-22.2893],[-43.4768,-22.2904],[-43.4835,-22.2894],[-43.4829,-22.2893]],[[-43.482,-22.2816],[-43.4731,-22.2767],[-43.4823,-22.2822],[-43.482,-22.2816]],[[-43.4758,-22.2854],[-43.4687,-22.2797],[-43.4764,-22.2853],[-43.4758,-22.2854]]]}},{"type":"Feature","properties":{"cod_tema":"RIO_ATE_10","cod_imovel":"RJ-3306206-437C2CA850614BF4A11FFCE150D58A1E","ind_status":"AT"},"geometry":{"type":"Polygon","coordinates":[[[-43.7125,-22.4434],[-43.7045,-22.4398],[-43.7131,-22.4434],[-43.7125,-22.4434]]]}},{"type":"Feature","properties":{"cod_tema":"RIO_ATE_10","cod_imovel":"RJ-3306206-3B678ADB223D42E4B93D26276828CC7F","ind_status":"AT"},"geometry":{"type":"Polygon","coordinates":[[[-43.5056,-22.3006],[-43.5009,-22.3026],[-43.5058,-22.3003],[-43.5056,-22.3006]],[[-43.5012,-22.2972],[-43.4984,-22.2995],[-43.5016,-22.2971],[-43.5012,-22.2972]]]}},{"type":"Feature","properties":{"cod_tema":"RIO_ATE_10","cod_imovel":"RJ-3306206-63A0AF0CDA9C40539D9A7DADDC85D468","ind_status":"AT"},"geometry":{"type":"Polygon","coordinates":[[[-43.5732,-22.3478],[-43.5702,-22.3494],[-43.5733,-22.3475],[-43.5732,-22.3478]]]}},{"type":"Feature","properties":{"cod_tema":"RIO_ATE_10","cod_imovel":"RJ-3306206-A4E7360B5E2E497D9B0A9739F2E6DDE8","ind_status":"AT"},"geometry":{"type":"Polygon","coordinates":[[[-43.7153,-22.3895],[-43.7182,-22.3921],[-43.7146,-22.3887],[-43.7153,-22.3895]],[[-43.7175,-22.3819],[-43.7212,-22.3846],[-43.7175,-22.3819],[-43.7175,-22.3819]],[[-43.7191,-22.3881],[-43.7152,-22.3859],[-43.7198,-22.3883],[-43.7191,-22.3881]]]}},{"type":"Feature","properties":{"cod_tema":"RIO_ATE_10","cod_imovel":"RJ-3306206-BE5D19895E144D01B1E49CD8CD4E7346","ind_status":"AT"},"geometry":{"type":"Polygon","coordinates":[[[-43.6317,-22.4206],[-43.6385,-22.4196],[-43.6321,-22.4212],[-43.6223,-22.4155],[-43.6316,-22.4205],[-43.6317,-22.4206]],[[-43.6303,-22.4115],[-43.6371,-22.4174],[-43.63,-22.4111],[-43.6338,-22.4092],[-43.627,-22.4089],[-43.6304,-22.4114],[-43.6303,-22.4115]],[[-43.6303,-22.4138],[-43.6315,-22.4172],[-43.6303,-22.4138],[-43.6303,-22.4138]]]}},{"type":"Feature","properties":{"cod_tema":"RIO_ATE_10","cod_imovel":"RJ-3306206-4219D287B7884E8D823899051211C69E","ind_status":"AT"},"geometry":{"type":"Polygon","coordinates":[[[-43.526,-22.4023],[-43.5219,-22.4002],[-43.5266,-22.4031],[-43.526,-22.4023]],[[-43.5263,-22.4004],[-43.5231,-22.397],[-43.5275,-22.4009],[-43.5263,-22.4004]],[[-43.5448,-22.4073],[-43.5277,-22.3974],[-43.5365,-22.4035],[-43.5373,-22.4064],[-43.5297,-22.405],[-43.5373,-22.4065],[-43.5387,-22.4136],[-43.5373,-22.4065],[-43.5501,-22.4074],[-43.5454,-22.4078],[-43.5448,-22.4073]],[[-43.5297,-22.3938],[-43.5334,-22.3927],[-43.5299,-22.395],[-43.5297,-22.3938]],[[-43.5363,-22.4024],[-43.5359,-22.3989],[-43.5365,-22.4034],[-43.5363,-22.4024]],[[-43.5406,-22.416],[-43.5444,-22.4123],[-43.54,-22.4164],[-43.5406,-22.416]],[[-43.5404,-22.4009],[-43.5496,-22.4046],[-43.5405,-22.4021],[-43.5404,-22.4009]],[[-43.5464,-22.4074],[-43.5428,-22.4032],[-43.5464,-22.4077],[-43.5464,-22.4074]],[[-43.5483,-22.4133],[-43.5442,-22.4079],[-43.5492,-22.4138],[-43.5483,-22.4133]],[[-43.5483,-22.4177],[-43.5448,-22.4111],[-43.5483,-22.4186],[-43.5483,-22.4177]]]}},{"type":"Feature","properties":{"cod_tema":"RIO_50_A_200","cod_imovel":"RJ-3306206-2E2FD5A7E5FB4392A23BCF7B8AAEE616","ind_status":"AT"},"geometry":{"type":"Polygon","coordinates":[[[-43.6373,-22.3172],[-43.6438,-22.316],[-43.639,-22.3175],[-43.6198,-22.3024],[-43.608,-22.3068],[-43.6121,-22.3088],[-43.6198,-22.3033],[-43.636,-22.3147],[-43.6373,-22.3172]]]}},{"type":"Feature","properties":{"cod_tema":"RIO_ATE_10","cod_imovel":"RJ-3306206-5BAD491422C349DC9E72DAFF7770C00E","ind_status":"AT"},"geometry":{"type":"Polygon","coordinates":[[[-43.5822,-22.4297],[-43.5826,-22.433],[-43.5821,-22.4296],[-43.5822,-22.4297]]]}},{"type":"Feature","properties":{"cod_tema":"RIO_ATE_10","cod_imovel":"RJ-3306206-1C9FA5C6F79B479D89A06412F8EAA120","ind_status":"AT"},"geometry":{"type":"Polygon","coordinates":[[[-43.548,-22.3408],[-43.5519,-22.3421],[-43.5478,-22.341],[-43.548,-22.3408]],[[-43.5586,-22.3364],[-43.5533,-22.3324],[-43.5586,-22.3361],[-43.5563,-22.3405],[-43.55,-22.3351],[-43.5542,-22.3398],[-43.5514,-22.3416],[-43.5545,-22.3432],[-43.5515,-22.3416],[-43.5585,-22.3365],[-43.5586,-22.3364]]]}},{"type":"Feature","properties":{"cod_tema":"RIO_ATE_10","cod_imovel":"RJ-3306206-20FAE904AB374B68B57FBAF1F6442AEF","ind_status":"AT"},"geometry":{"type":"Polygon","coordinates":[[[-43.59,-22.3491],[-43.5853,-22.3479],[-43.59,-22.3492],[-43.59,-22.3491]],[[-43.5881,-22.3544],[-43.5767,-22.3511],[-43.5882,-22.3544],[-43.5881,-22.3544]]]}},{"type":"Feature","properties":{"cod_tema":"RIO_ATE_10","cod_imovel":"RJ-3306206-43E7494DA4404825ABD6A1DC9A30D756","ind_status":"AT"},"geometry":{"type":"Polygon","coordinates":[[[-43.6523,-22.4342],[-43.6493,-22.4381],[-43.6533,-22.4338],[-43.6523,-22.4342]]]}},{"type":"Feature","properties":{"cod_tema":"RIO_ATE_10","cod_imovel":"RJ-3306206-A8942EFEB0084774BECAC99104D0DCFF","ind_status":"PE"},"geometry":{"type":"Polygon","coordinates":[[[-43.603,-22.4485],[-43.606,-22.4456],[-43.603,-22.4485],[-43.603,-22.4485]],[[-43.6066,-22.4537],[-43.6032,-22.4495],[-43.6064,-22.4535],[-43.6066,-22.4537]],[[-43.6097,-22.4475],[-43.6106,-22.4439],[-43.6073,-22.4513],[-43.6097,-22.4475],[-43.6097,-22.4475]],[[-43.6258,-22.4482],[-43.6134,-22.4428],[-43.6212,-22.4492],[-43.6106,-22.4519],[-43.6258,-22.4482],[-43.6258,-22.4482]]]}},{"type":"Feature","properties":{"cod_tema":"RIO_ATE_10","cod_imovel":"RJ-3306206-FCACD046173847558F655DB7CB21AA68","ind_status":"AT"},"geometry":{"type":"Polygon","coordinates":[[[-43.5494,-22.3134],[-43.5452,-22.3094],[-43.5451,-22.3143],[-43.5494,-22.3134],[-43.5494,-22.3134]],[[-43.5477,-22.3181],[-43.5522,-22.3143],[-43.5476,-22.3183],[-43.5477,-22.3181]],[[-43.5479,-22.3153],[-43.5503,-22.3128],[-43.5477,-22.3155],[-43.5479,-22.3153]]]}},{"type":"Feature","properties":{"cod_tema":"RIO_ATE_10","cod_imovel":"RJ-3306206-A5AEFC3088CE4D92BB702579A6F04A49","ind_status":"AT"},"geometry":{"type":"Polygon","coordinates":[[[-43.5805,-22.3205],[-43.5812,-22.3159],[-43.5724,-22.3202],[-43.5805,-22.3205],[-43.5805,-22.3205]],[[-43.5801,-22.3131],[-43.5765,-22.3154],[-43.5803,-22.3128],[-43.5801,-22.3131]]]}},{"type":"Feature","properties":{"cod_tema":"RIO_ATE_10","cod_imovel":"RJ-3306206-C20D2E3270AB4489BB728080519917F5","ind_status":"AT"},"geometry":{"type":"Polygon","coordinates":[[[-43.6731,-22.3807],[-43.6839,-22.374],[-43.6718,-22.3764],[-43.673,-22.3811],[-43.6731,-22.3807]],[[-43.6862,-22.3754],[-43.6758,-22.3812],[-43.6818,-22.3746],[-43.6866,-22.3756],[-43.6862,-22.3754]]]}},{"type":"Feature","properties":{"cod_tema":"RIO_ATE_10","cod_imovel":"RJ-3306206-5B8B95026E194A1CAD24C3C3769EA4D4","ind_status":"AT"},"geometry":{"type":"Polygon","coordinates":[[[-43.5656,-22.3099],[-43.5623,-22.311],[-43.566,-22.3093],[-43.5656,-22.3099]],[[-43.5696,-22.3138],[-43.5659,-22.3155],[-43.5699,-22.3139],[-43.5696,-22.3138]],[[-43.5728,-22.3109],[-43.5648,-22.3063],[-43.5733,-22.3105],[-43.5728,-22.3109]],[[-43.5665,-22.3019],[-43.5682,-22.2965],[-43.5654,-22.3021],[-43.5767,-22.3081],[-43.5663,-22.3022],[-43.5665,-22.3019]]]}},{"type":"Feature","properties":{"cod_tema":"RIO_ATE_10","cod_imovel":"RJ-3306206-5BE81F8BCB434FEE8C9AF65B04C5297B","ind_status":"AT"},"geometry":{"type":"Polygon","coordinates":[[[-43.7054,-22.3982],[-43.7069,-22.3898],[-43.7013,-22.3947],[-43.707,-22.3936],[-43.7046,-22.3999],[-43.7054,-22.3982]]]}},{"type":"Feature","properties":{"cod_tema":"RIO_ATE_10","cod_imovel":"RJ-3306206-F5FD27ACB2ED47F19E6E224CA5822104","ind_status":"AT"},"geometry":{"type":"Polygon","coordinates":[[[-43.7045,-22.4052],[-43.6944,-22.4006],[-43.6963,-22.3968],[-43.6943,-22.4006],[-43.7041,-22.4053],[-43.7045,-22.4052]],[[-43.7035,-22.4133],[-43.703,-22.4079],[-43.7002,-22.4104],[-43.7038,-22.4138],[-43.7035,-22.4133]],[[-43.7089,-22.407],[-43.7057,-22.4071],[-43.7096,-22.4067],[-43.7089,-22.407]],[[-43.7014,-22.3881],[-43.6976,-22.3856],[-43.7022,-22.3881],[-43.698,-22.3952],[-43.6935,-22.3924],[-43.698,-22.3952],[-43.7022,-22.3881],[-43.7014,-22.3881]],[[-43.7009,-22.3988],[-43.6969,-22.3992],[-43.7017,-22.3987],[-43.7009,-22.3988]],[[-43.6995,-22.4105],[-43.6947,-22.4045],[-43.7001,-22.4104],[-43.6995,-22.4105]],[[-43.697,-22.396],[-43.6907,-22.3976],[-43.69,-22.4028],[-43.6907,-22.3976],[-43.6974,-22.3953],[-43.697,-22.396]]]}},{"type":"Feature","properties":{"cod_tema":"RIO_ATE_10","cod_imovel":"RJ-3306206-7D079744107E40CBA3F1E3F1656E0A88","ind_status":"AT"},"geometry":{"type":"Polygon","coordinates":[[[-43.556,-22.3345],[-43.5585,-22.3366],[-43.5558,-22.3343],[-43.556,-22.3345]]]}},{"type":"Feature","properties":{"cod_tema":"RIO_ATE_10","cod_imovel":"RJ-3306206-C45924644E5545B98EAA5BFB6BFE2EA7","ind_status":"AT"},"geometry":{"type":"Polygon","coordinates":[[[-43.7101,-22.3895],[-43.7138,-22.3923],[-43.7103,-22.3891],[-43.7101,-22.3895]]]}},{"type":"Feature","properties":{"cod_tema":"RIO_50_A_200","cod_imovel":"RJ-3306206-DD39943D44DF487B90C3A535D483C944","ind_status":"AT"},"geometry":{"type":"Polygon","coordinates":[[[-43.7115,-22.3835],[-43.7045,-22.3884],[-43.7108,-22.3842],[-43.7115,-22.3835]]]}},{"type":"Feature","properties":{"cod_tema":"RIO_ATE_10","cod_imovel":"RJ-3306206-DB90C021D25F48A1B2138100D735EA59","ind_status":"AT"},"geometry":{"type":"Polygon","coordinates":[[[-43.5441,-22.461],[-43.5447,-22.4649],[-43.5441,-22.461],[-43.5441,-22.461]]]}},{"type":"Feature","properties":{"cod_tema":"RIO_50_A_200","cod_imovel":"RJ-3306206-98AB27483FF04659A67746DF0150587B","ind_status":"AT"},"geometry":{"type":"Polygon","coordinates":[[[-43.3925,-22.2217],[-43.3978,-22.2218],[-43.3927,-22.2217],[-43.3925,-22.2217]]]}},{"type":"Feature","properties":{"cod_tema":"RIO_ATE_10","cod_imovel":"RJ-3306206-F6D509A07D804729BB5655535F561B1B","ind_status":"AT"},"geometry":{"type":"Polygon","coordinates":[[[-43.4726,-22.3046],[-43.4676,-22.3004],[-43.4716,-22.2979],[-43.462,-22.2981],[-43.4664,-22.2937],[-43.462,-22.2981],[-43.4597,-22.2956],[-43.4647,-22.2899],[-43.4567,-22.2935],[-43.4622,-22.2877],[-43.4551,-22.2928],[-43.4726,-22.3046],[-43.4726,-22.3046]],[[-43.4683,-22.298],[-43.4669,-22.2943],[-43.468,-22.3],[-43.4716,-22.2952],[-43.4684,-22.2981],[-43.4683,-22.298]]]}},{"type":"Feature","properties":{"cod_tema":"RIO_ATE_10","cod_imovel":"RJ-3306206-5C9ED89127524F899399C3493F055613","ind_status":"AT"},"geometry":{"type":"Polygon","coordinates":[[[-43.7169,-22.4233],[-43.7118,-22.42],[-43.7198,-22.4265],[-43.7169,-22.4236],[-43.7169,-22.4233]],[[-43.7278,-22.4338],[-43.724,-22.4329],[-43.728,-22.4339],[-43.7278,-22.4338]],[[-43.7187,-22.414],[-43.7156,-22.4193],[-43.7189,-22.4137],[-43.7187,-22.414]]]}},{"type":"Feature","properties":{"cod_tema":"RIO_ATE_10","cod_imovel":"RJ-3306206-859E32E84E144BA4A5994DE643CD4974","ind_status":"AT"},"geometry":{"type":"Polygon","coordinates":[[[-43.7168,-22.4179],[-43.7189,-22.4136],[-43.716,-22.4176],[-43.7168,-22.4179]]]}},{"type":"Feature","properties":{"cod_tema":"RIO_ATE_10","cod_imovel":"RJ-3306206-342471F0D48F4E93B47D7A8DC8D656DC","ind_status":"AT"},"geometry":{"type":"Polygon","coordinates":[[[-43.5711,-22.419],[-43.5691,-22.4237],[-43.5722,-22.4199],[-43.5649,-22.4193],[-43.5711,-22.4192],[-43.5711,-22.419]],[[-43.5713,-22.4169],[-43.5739,-22.4273],[-43.5737,-22.4189],[-43.5761,-22.4207],[-43.5712,-22.4168],[-43.5713,-22.4169]]]}},{"type":"Feature","properties":{"cod_tema":"RIO_ATE_10","cod_imovel":"RJ-3306206-3721F8467B244CA9BE4B91DD5D6A5C1B","ind_status":"AT"},"geometry":{"type":"Polygon","coordinates":[[[-43.6416,-22.4552],[-43.6374,-22.4529],[-43.6418,-22.4552],[-43.6416,-22.4552]]]}},{"type":"Feature","properties":{"cod_tema":"RIO_ATE_10","cod_imovel":"RJ-3306206-B605D30080A749D980E20091FB3C107F","ind_status":"AT"},"geometry":{"type":"Polygon","coordinates":[[[-43.4094,-22.2791],[-43.4205,-22.2878],[-43.4094,-22.2802],[-43.4132,-22.2721],[-43.4198,-22.2703],[-43.4163,-22.2696],[-43.4127,-22.2776],[-43.401,-22.2801],[-43.3998,-22.2967],[-43.401,-22.2801],[-43.4094,-22.2787],[-43.4094,-22.2791]]]}},{"type":"Feature","properties":{"cod_tema":"RIO_ATE_10","cod_imovel":"RJ-3306206-A08BB8C0D81C4494B83CC786962A2A78","ind_status":"AT"},"geometry":{"type":"Polygon","coordinates":[[[-43.3559,-22.2763],[-43.3494,-22.2745],[-43.3563,-22.2759],[-43.3559,-22.2763]]]}},{"type":"Feature","properties":{"cod_tema":"RIO_ATE_10","cod_imovel":"RJ-3306206-C048246E158E4D319B7EF6354E80E734","ind_status":"AT"},"geometry":{"type":"Polygon","coordinates":[[[-43.6553,-22.3526],[-43.6516,-22.3483],[-43.6549,-22.3534],[-43.6553,-22.3526]],[[-43.6583,-22.3527],[-43.6626,-22.3512],[-43.6584,-22.3538],[-43.6583,-22.3527]],[[-43.6579,-22.3581],[-43.6726,-22.3511],[-43.6754,-22.3535],[-43.6726,-22.3511],[-43.6574,-22.3583],[-43.6579,-22.3581]]]}},{"type":"Feature","properties":{"cod_tema":"RIO_10_A_50","cod_imovel":"RJ-3306206-C048246E158E4D319B7EF6354E80E734","ind_status":"AT"},"geometry":{"type":"Polygon","coordinates":[[[-43.674,-22.3579],[-43.6777,-22.3476],[-43.6741,-22.3568],[-43.674,-22.3579]]]}},{"type":"Feature","properties":{"cod_tema":"RIO_ATE_10","cod_imovel":"RJ-3306206-7E8CAAA8A00D45EDA7EF8B568737CE2D","ind_status":"AT"},"geometry":{"type":"Polygon","coordinates":[[[-43.6991,-22.4541],[-43.703,-22.4516],[-43.699,-22.4542],[-43.6991,-22.4541]],[[-43.7047,-22.4563],[-43.7007,-22.456],[-43.7048,-22.4563],[-43.7047,-22.4563]]]}},{"type":"Feature","properties":{"cod_tema":"RIO_ATE_10","cod_imovel":"RJ-3306206-DFB90CB06A2F469B81EEA8D771D1C528","ind_status":"AT"},"geometry":{"type":"Polygon","coordinates":[[[-43.5249,-22.3724],[-43.5213,-22.3735],[-43.525,-22.3723],[-43.5249,-22.3724]]]}},{"type":"Feature","properties":{"cod_tema":"RIO_ATE_10","cod_imovel":"RJ-3306206-A12E4A5C2FC44591B84958D6D2497E73","ind_status":"PE"},"geometry":{"type":"Polygon","coordinates":[[[-43.4036,-22.2246],[-43.3987,-22.2211],[-43.4036,-22.2246],[-43.4036,-22.2246]]]}},{"type":"Feature","properties":{"cod_tema":"RIO_50_A_200","cod_imovel":"RJ-3306206-A12E4A5C2FC44591B84958D6D2497E73","ind_status":"PE"},"geometry":{"type":"Polygon","coordinates":[[[-43.3951,-22.223],[-43.3994,-22.2206],[-43.3953,-22.2229],[-43.3951,-22.223]]]}},{"type":"Feature","properties":{"cod_tema":"RIO_50_A_200","cod_imovel":"RJ-3306206-B5CF2EC5DA4B4065875BE1E915674656","ind_status":"AT"},"geometry":{"type":"Polygon","coordinates":[[[-43.7298,-22.3863],[-43.7304,-22.3779],[-43.7216,-22.3758],[-43.7161,-22.3797],[-43.7305,-22.3783],[-43.7295,-22.3863],[-43.7298,-22.3863]]]}},{"type":"Feature","properties":{"cod_tema":"RIO_ATE_10","cod_imovel":"RJ-3306206-D83347E29BE3451589FF7CB611D65E68","ind_status":"AT"},"geometry":{"type":"Polygon","coordinates":[[[-43.6125,-22.4578],[-43.6167,-22.4511],[-43.6128,-22.4574],[-43.6063,-22.4533],[-43.6126,-22.4577],[-43.6125,-22.4578]],[[-43.6116,-22.4544],[-43.6156,-22.4514],[-43.6116,-22.4544],[-43.6116,-22.4544]]]}}]}