{"type":"FeatureCollection","features":[{"type":"Feature","properties":{"cod_imovel":"RJ-3300605-DA8C0664500F4BCB9AFB809DD889A2BD","num_area":"22.432900000000000000000000000000","ind_status":"AT"},"geometry":{"type":"Polygon","coordinates":[[[-41.6649,-21.1716],[-41.6694,-21.1648],[-41.6543,-21.1462],[-41.6693,-21.1649],[-41.6649,-21.1716],[-41.6649,-21.1716]],[[-41.6686,-21.1684],[-41.6705,-21.1708],[-41.6686,-21.1683],[-41.6686,-21.1684]],[[-41.6705,-21.1708],[-41.6705,-21.1643],[-41.6619,-21.1549],[-41.6705,-21.1708],[-41.6705,-21.1708]]]}},{"type":"Feature","properties":{"cod_imovel":"RJ-3300605-7F8563783CB4469A9BDFC69262AC73AD","num_area":"11.823400000000000000000000000000","ind_status":"PE"},"geometry":{"type":"Polygon","coordinates":[[[-41.7157,-21.1654],[-41.7182,-21.162],[-41.7156,-21.1655],[-41.7157,-21.1654]]]}},{"type":"Feature","properties":{"cod_imovel":"RJ-3300605-7BC6A05B5DB24A45891D7A0A24E8DCA9","num_area":"7.8818000000000000000000000000000","ind_status":"AT"},"geometry":{"type":"Polygon","coordinates":[[[-41.6368,-21.1625],[-41.6351,-21.1582],[-41.6366,-21.1624],[-41.6368,-21.1625]]]}},{"type":"Feature","properties":{"cod_imovel":"RJ-3300605-1D6033C4471C4400B6C3DB8F91344C7C","num_area":"11.445400000000000000000000000000","ind_status":"PE"},"geometry":{"type":"Polygon","coordinates":[[[-41.5534,-21.1854],[-41.5534,-21.1816],[-41.5532,-21.1852],[-41.5534,-21.1854]]]}},{"type":"Feature","properties":{"cod_imovel":"RJ-3300605-87999C5B55BB44818DFE0C75CD997CCF","num_area":"30.196700000000000000000000000000","ind_status":"AT"},"geometry":{"type":"Polygon","coordinates":[[[-41.7364,-21.0227],[-41.7405,-21.0223],[-41.7364,-21.0208],[-41.7364,-21.0227]],[[-41.7282,-21.0142],[-41.7281,-21.0208],[-41.7283,-21.014],[-41.7282,-21.0142]]]}},{"type":"Feature","properties":{"cod_imovel":"RJ-3300605-C531658336314168A723F42EE11E5D2D","num_area":"23.209100000000000000000000000000","ind_status":"AT"},"geometry":{"type":"Polygon","coordinates":[[[-41.7564,-21.1762],[-41.7642,-21.1731],[-41.757,-21.1716],[-41.7564,-21.1762]]]}},{"type":"Feature","properties":{"cod_imovel":"RJ-3300605-6CD5A7D3DB0448DD996CFEC8B0D16AA0","num_area":"4.3583000000000000000000000000000","ind_status":"AT"},"geometry":{"type":"Polygon","coordinates":[[[-41.7243,-21.0537],[-41.7275,-21.0495],[-41.7244,-21.0535],[-41.7243,-21.0537]]]}},{"type":"Feature","properties":{"cod_imovel":"RJ-3300605-B3FB560E12D444EC899DAF9693460771","num_area":"3.0725000000000000000000000000000","ind_status":"AT"},"geometry":{"type":"Polygon","coordinates":[[[-41.7198,-21.023],[-41.7155,-21.0209],[-41.7198,-21.023],[-41.7198,-21.023]]]}},{"type":"Feature","properties":{"cod_imovel":"RJ-3300605-A39B2728EAA4452A9AFE292577028A06","num_area":"31.593100000000000000000000000000","ind_status":"AT"},"geometry":{"type":"Polygon","coordinates":[[[-41.7396,-21.0259],[-41.7364,-21.0221],[-41.7379,-21.0263],[-41.7396,-21.0259]],[[-41.7217,-21.0226],[-41.7209,-21.026],[-41.722,-21.0229],[-41.7217,-21.0226]],[[-41.7229,-21.0243],[-41.725,-21.0268],[-41.723,-21.0243],[-41.7229,-21.0243]],[[-41.7275,-21.0235],[-41.7217,-21.0226],[-41.7272,-21.0238],[-41.7275,-21.0235]]]}},{"type":"Feature","properties":{"cod_imovel":"RJ-3300605-58E082EE8D4D42E1BD492E210F2F933E","num_area":"10.399700000000000000000000000000","ind_status":"AT"},"geometry":{"type":"Polygon","coordinates":[[[-41.7947,-20.9507],[-41.7892,-20.9464],[-41.7941,-20.9504],[-41.7947,-20.9507]]]}},{"type":"Feature","properties":{"cod_imovel":"RJ-3300605-175F03E3B672411FA6E05F254C7651C7","num_area":"10.437300000000000000000000000000","ind_status":"AT"},"geometry":{"type":"Polygon","coordinates":[[[-41.6649,-21.236],[-41.6693,-21.234],[-41.6648,-21.2359],[-41.6649,-21.236]]]}},{"type":"Feature","properties":{"cod_imovel":"RJ-3300605-104C8B96846F410B8A224FF2E0F411FD","num_area":"7.3638000000000000000000000000000","ind_status":"PE"},"geometry":{"type":"Polygon","coordinates":[[[-41.6501,-21.1895],[-41.6534,-21.1918],[-41.6502,-21.1895],[-41.6501,-21.1895]],[[-41.6499,-21.1896],[-41.6519,-21.1921],[-41.65,-21.1897],[-41.6499,-21.1896]],[[-41.6233,-21.1826],[-41.6267,-21.1843],[-41.6235,-21.1826],[-41.6233,-21.1826]]]}},{"type":"Feature","properties":{"cod_imovel":"RJ-3300605-74E8FC396F694382834ED0D7D66BB921","num_area":"19.961500000000000000000000000000","ind_status":"AT"},"geometry":{"type":"Polygon","coordinates":[[[-41.7568,-20.9123],[-41.7587,-20.915],[-41.7567,-20.9123],[-41.7568,-20.9123]],[[-41.7605,-20.9145],[-41.7609,-20.908],[-41.7604,-20.9144],[-41.7605,-20.9145]]]}},{"type":"Feature","properties":{"cod_imovel":"RJ-3300605-811A19BCA8BE40D896F551BC5CB44E09","num_area":"10.239600000000000000000000000000","ind_status":"AT"},"geometry":{"type":"Polygon","coordinates":[[[-41.6389,-21.1597],[-41.6374,-21.163],[-41.6389,-21.1597],[-41.6389,-21.1597]],[[-41.6431,-21.1667],[-41.6384,-21.1666],[-41.643,-21.1667],[-41.6431,-21.1667]]]}},{"type":"Feature","properties":{"cod_imovel":"RJ-3300605-613861456EF341CB8D870C0964EF0EDC","num_area":"7.9418000000000000000000000000000","ind_status":"AT"},"geometry":{"type":"Polygon","coordinates":[[[-41.6078,-21.2403],[-41.6109,-21.2436],[-41.608,-21.2402],[-41.6078,-21.2403]],[[-41.6141,-21.2416],[-41.6169,-21.2392],[-41.614,-21.2416],[-41.6141,-21.2416]],[[-41.6144,-21.2352],[-41.6165,-21.2375],[-41.6144,-21.2352],[-41.6144,-21.2352]]]}},{"type":"Feature","properties":{"cod_imovel":"RJ-3300605-CEB79C3BAACA4FA3A5DADC3852D3771F","num_area":"3.4613000000000000000000000000000","ind_status":"AT"},"geometry":{"type":"Polygon","coordinates":[[[-41.643,-21.1666],[-41.6468,-21.1683],[-41.6429,-21.1664],[-41.643,-21.1666]],[[-41.6439,-21.1678],[-41.6468,-21.1686],[-41.6439,-21.1678],[-41.6439,-21.1678]]]}},{"type":"Feature","properties":{"cod_imovel":"RJ-3300605-3EAD8F9B65C34FE1B0110666906C0FB7","num_area":"15.743300000000000000000000000000","ind_status":"AT"},"geometry":{"type":"Polygon","coordinates":[[[-41.7048,-21.1327],[-41.7002,-21.1328],[-41.7046,-21.133],[-41.7048,-21.1327]]]}},{"type":"Feature","properties":{"cod_imovel":"RJ-3300605-2CFEBFBF0F9D4FAF8C4EDBABD34B8A8B","num_area":"11.331600000000000000000000000000","ind_status":"AT"},"geometry":{"type":"Polygon","coordinates":[[[-41.7271,-21.0777],[-41.7228,-21.0738],[-41.7278,-21.0806],[-41.7271,-21.0777]],[[-41.7286,-21.085],[-41.7254,-21.0803],[-41.7285,-21.085],[-41.7286,-21.085]]]}},{"type":"Feature","properties":{"cod_imovel":"RJ-3300605-6CC2F45FD1234E5BB991E9069012338C","num_area":"25.074000000000000000000000000000","ind_status":"AT"},"geometry":{"type":"Polygon","coordinates":[[[-41.7268,-20.998],[-41.7216,-21.0017],[-41.7281,-20.9981],[-41.7268,-20.998]]]}},{"type":"Feature","properties":{"cod_imovel":"RJ-3300605-6A6678F28D9C4109B9CADBAABE0CB8A0","num_area":"2.3289000000000000000000000000000","ind_status":"AT"},"geometry":{"type":"Polygon","coordinates":[[[-41.7368,-21.0637],[-41.733,-21.0634],[-41.7368,-21.0638],[-41.7368,-21.0637]]]}},{"type":"Feature","properties":{"cod_imovel":"RJ-3300605-A5260D0E528D4E249EA994BDC8DF064C","num_area":"5.0150000000000000000000000000000","ind_status":"AT"},"geometry":{"type":"Polygon","coordinates":[[[-41.5609,-21.2557],[-41.5612,-21.261],[-41.5611,-21.2556],[-41.5609,-21.2557]]]}},{"type":"Feature","properties":{"cod_imovel":"RJ-3300605-026147F7C921403489CFAA431114C113","num_area":"15.964700000000000000000000000000","ind_status":"AT"},"geometry":{"type":"Polygon","coordinates":[[[-41.5245,-21.1999],[-41.5209,-21.2012],[-41.5245,-21.2012],[-41.5245,-21.1999]],[[-41.5124,-21.2016],[-41.5106,-21.2062],[-41.5126,-21.2015],[-41.5124,-21.2016]]]}},{"type":"Feature","properties":{"cod_imovel":"RJ-3300605-FD3CC7ECC6C844BF95A0FC214E5D6753","num_area":"31.881100000000000000000000000000","ind_status":"AT"},"geometry":{"type":"Polygon","coordinates":[[[-41.56,-21.1826],[-41.5563,-21.1784],[-41.5598,-21.1827],[-41.56,-21.1826]],[[-41.5539,-21.176],[-41.5513,-21.1778],[-41.5539,-21.176],[-41.5539,-21.176]],[[-41.555,-21.1771],[-41.5628,-21.1812],[-41.5552,-21.1765],[-41.555,-21.1771]]]}},{"type":"Feature","properties":{"cod_imovel":"RJ-3300605-7689077B1CD74DB89217B17C71BE599E","num_area":"37.921700000000000000000000000000","ind_status":"AT"},"geometry":{"type":"Polygon","coordinates":[[[-41.5776,-21.1734],[-41.5749,-21.1759],[-41.5773,-21.1737],[-41.5776,-21.1734]],[[-41.5723,-21.1701],[-41.5702,-21.1737],[-41.5727,-21.1704],[-41.5723,-21.1701]],[[-41.582,-21.1797],[-41.5894,-21.1746],[-41.5819,-21.1797],[-41.582,-21.1797]]]}},{"type":"Feature","properties":{"cod_imovel":"RJ-3300605-61F1235BED744AF0A43FED6B84C1D5BF","num_area":"0.6871000000000000000000000000000","ind_status":"AT"},"geometry":{"type":"Polygon","coordinates":[[[-41.7285,-20.8786],[-41.7303,-20.8747],[-41.7284,-20.8785],[-41.7285,-20.8786]]]}},{"type":"Feature","properties":{"cod_imovel":"RJ-3300605-188A18B4D526436AA9AB5FC83C67B5A5","num_area":"2.6776000000000000000000000000000","ind_status":"AT"},"geometry":{"type":"Polygon","coordinates":[[[-41.7289,-20.8788],[-41.7312,-20.8744],[-41.7289,-20.8788],[-41.7289,-20.8788]]]}},{"type":"Feature","properties":{"cod_imovel":"RJ-3300605-9D4BEE2041EA4FE6A5B31F5A09CEA920","num_area":"15.606900000000000000000000000000","ind_status":"AT"},"geometry":{"type":"Polygon","coordinates":[[[-41.7305,-21.0324],[-41.7268,-21.0305],[-41.7305,-21.0326],[-41.7305,-21.0324]]]}},{"type":"Feature","properties":{"cod_imovel":"RJ-3300605-642B9305698447A69C1A8481C0CF5D7D","num_area":"16.033300000000000000000000000000","ind_status":"AT"},"geometry":{"type":"Polygon","coordinates":[[[-41.7972,-21.0822],[-41.7927,-21.0817],[-41.7971,-21.0822],[-41.7972,-21.0822]],[[-41.7972,-21.082],[-41.7945,-21.0774],[-41.7929,-21.0813],[-41.7972,-21.082],[-41.7972,-21.082]]]}},{"type":"Feature","properties":{"cod_imovel":"RJ-3300605-4F530EB66DC74875B08F18BDE5DBDADF","num_area":"27.551100000000000000000000000000","ind_status":"AT"},"geometry":{"type":"Polygon","coordinates":[[[-41.5031,-21.1844],[-41.5094,-21.1867],[-41.5029,-21.1833],[-41.5031,-21.1844]],[[-41.5116,-21.1833],[-41.5082,-21.1851],[-41.5116,-21.1835],[-41.5116,-21.1833]]]}},{"type":"Feature","properties":{"cod_imovel":"RJ-3300605-7C837044BE994625804E071F49D071FE","num_area":"4.2579000000000000000000000000000","ind_status":"AT"},"geometry":{"type":"Polygon","coordinates":[[[-41.7151,-21.1151],[-41.719,-21.1199],[-41.7151,-21.1151],[-41.7151,-21.1151]]]}},{"type":"Feature","properties":{"cod_imovel":"RJ-3300605-727E6223C2A54E8DB483374FB236AE10","num_area":"3.4205000000000000000000000000000","ind_status":"AT"},"geometry":{"type":"Polygon","coordinates":[[[-41.6322,-21.1451],[-41.6239,-21.1479],[-41.6323,-21.1454],[-41.6322,-21.1451]]]}},{"type":"Feature","properties":{"cod_imovel":"RJ-3300605-42556E9015554597B5629854756DAE7E","num_area":"14.592900000000000000000000000000","ind_status":"AT"},"geometry":{"type":"Polygon","coordinates":[[[-41.5306,-21.2468],[-41.531,-21.2419],[-41.5302,-21.2475],[-41.5306,-21.2468]]]}},{"type":"Feature","properties":{"cod_imovel":"RJ-3300605-B26229C8321A46DEB0AD5D1CB23D2EB6","num_area":"9.7691000000000000000000000000000","ind_status":"AT"},"geometry":{"type":"Polygon","coordinates":[[[-41.7189,-20.8679],[-41.7121,-20.8688],[-41.719,-20.8678],[-41.7189,-20.8679]]]}},{"type":"Feature","properties":{"cod_imovel":"RJ-3300605-2F085B741A5F41AE9C07416385DF524C","num_area":"15.515800000000000000000000000000","ind_status":"PE"},"geometry":{"type":"Polygon","coordinates":[[[-41.7265,-21.1136],[-41.7211,-21.1219],[-41.7264,-21.1137],[-41.7265,-21.1136]]]}},{"type":"Feature","properties":{"cod_imovel":"RJ-3300605-2689B4FAF8D3429D90BDC967810B8E09","num_area":"6.7653000000000000000000000000000","ind_status":"AT"},"geometry":{"type":"Polygon","coordinates":[[[-41.6614,-21.2224],[-41.6584,-21.2197],[-41.6613,-21.2222],[-41.6614,-21.2224]]]}},{"type":"Feature","properties":{"cod_imovel":"RJ-3300605-307DF69F5248400C8A8ED27EF7BC8CEE","num_area":"8.5992000000000000000000000000000","ind_status":"AT"},"geometry":{"type":"Polygon","coordinates":[[[-41.6655,-21.2281],[-41.6683,-21.2257],[-41.6657,-21.2279],[-41.6655,-21.2281]]]}},{"type":"Feature","properties":{"cod_imovel":"RJ-3300605-C755BF186B4E4D9885117EC9C8CE855C","num_area":"20.322200000000000000000000000000","ind_status":"PE"},"geometry":{"type":"Polygon","coordinates":[[[-41.7259,-21.1782],[-41.7198,-21.1759],[-41.7259,-21.1782],[-41.7259,-21.1782]]]}},{"type":"Feature","properties":{"cod_imovel":"RJ-3300605-B884C574058049499B065F4CF3601228","num_area":"12.008400000000000000000000000000","ind_status":"AT"},"geometry":{"type":"Polygon","coordinates":[[[-41.7468,-21.1287],[-41.7446,-21.1325],[-41.7468,-21.1287],[-41.7468,-21.1287]]]}},{"type":"Feature","properties":{"cod_imovel":"RJ-3300605-C6DA0AB1C7584732871A7654220A78D8","num_area":"9.2587000000000000000000000000000","ind_status":"PE"},"geometry":{"type":"Polygon","coordinates":[[[-41.8002,-21.1337],[-41.7964,-21.1346],[-41.8002,-21.1337],[-41.8002,-21.1337]]]}},{"type":"Feature","properties":{"cod_imovel":"RJ-3300605-718C95D806EB4B52BD5EE3C54EA89D4B","num_area":"20.621000000000000000000000000000","ind_status":"AT"},"geometry":{"type":"Polygon","coordinates":[[[-41.7819,-21.0612],[-41.7842,-21.0636],[-41.7826,-21.061],[-41.7819,-21.0612]],[[-41.7854,-21.0696],[-41.7827,-21.0676],[-41.7851,-21.0696],[-41.7854,-21.0696]]]}},{"type":"Feature","properties":{"cod_imovel":"RJ-3300605-4960EAEA3AB640FB835B39B85E2628F8","num_area":"8.3948000000000000000000000000000","ind_status":"AT"},"geometry":{"type":"Polygon","coordinates":[[[-41.626,-21.2333],[-41.6228,-21.2325],[-41.6259,-21.2333],[-41.626,-21.2333]]]}},{"type":"Feature","properties":{"cod_imovel":"RJ-3300605-85E8C8294A4A43B985D8FFB7C075F559","num_area":"19.703200000000000000000000000000","ind_status":"AT"},"geometry":{"type":"Polygon","coordinates":[[[-41.7984,-21.0587],[-41.7957,-21.0611],[-41.7981,-21.0589],[-41.7984,-21.0587]],[[-41.7965,-21.0635],[-41.7934,-21.0644],[-41.7966,-21.0637],[-41.7965,-21.0635]],[[-41.8075,-21.073],[-41.8055,-21.0696],[-41.8075,-21.0731],[-41.8075,-21.073]],[[-41.7993,-21.0677],[-41.7959,-21.0655],[-41.7994,-21.0678],[-41.7993,-21.0677]]]}},{"type":"Feature","properties":{"cod_imovel":"RJ-3300605-6FB54034E83D46F59B6BA83ECC5D43DE","num_area":"105.64390000000000000000000000000","ind_status":"AT"},"geometry":{"type":"Polygon","coordinates":[[[-41.611,-21.2565],[-41.6069,-21.2571],[-41.6109,-21.2566],[-41.611,-21.2565]],[[-41.6075,-21.2391],[-41.6013,-21.2403],[-41.6072,-21.2495],[-41.6119,-21.2468],[-41.6074,-21.2392],[-41.6075,-21.2391]],[[-41.6058,-21.2488],[-41.6088,-21.2494],[-41.6058,-21.2488],[-41.6058,-21.2488]],[[-41.6089,-21.2494],[-41.6151,-21.2556],[-41.6119,-21.2468],[-41.609,-21.2494],[-41.6089,-21.2494]]]}},{"type":"Feature","properties":{"cod_imovel":"RJ-3300605-2F63A5B3CCF2489BAFF93AC783C840BD","num_area":"50.485800000000000000000000000000","ind_status":"AT"},"geometry":{"type":"Polygon","coordinates":[[[-41.5778,-21.1826],[-41.5737,-21.1826],[-41.5757,-21.1865],[-41.5777,-21.1833],[-41.5778,-21.1826]],[[-41.5874,-21.1889],[-41.591,-21.1889],[-41.5904,-21.1804],[-41.5876,-21.1883],[-41.5874,-21.1889]]]}},{"type":"Feature","properties":{"cod_imovel":"RJ-3300605-0F6681F3E6E54782A547EA0261158737","num_area":"24.129400000000000000000000000000","ind_status":"AT"},"geometry":{"type":"Polygon","coordinates":[[[-41.5382,-21.2444],[-41.5395,-21.2484],[-41.544,-21.2467],[-41.5384,-21.2435],[-41.5382,-21.2444]]]}},{"type":"Feature","properties":{"cod_imovel":"RJ-3300605-7BD94E84120943FDB9AB99383A2EF2AE","num_area":"41.276300000000000000000000000000","ind_status":"AT"},"geometry":{"type":"Polygon","coordinates":[[[-41.5604,-21.2621],[-41.5609,-21.2556],[-41.5603,-21.2613],[-41.5604,-21.2621]],[[-41.5681,-21.2547],[-41.5736,-21.2636],[-41.5686,-21.2555],[-41.5681,-21.2547]]]}},{"type":"Feature","properties":{"cod_imovel":"RJ-3300605-54287CE4D77B438DB4B212B9CCD33B18","num_area":"23.784700000000000000000000000000","ind_status":"AT"},"geometry":{"type":"Polygon","coordinates":[[[-41.7536,-20.9677],[-41.7655,-20.9676],[-41.7593,-20.9678],[-41.7536,-20.9677]]]}},{"type":"Feature","properties":{"cod_imovel":"RJ-3300605-363C3F0A48A049849AE1A4B95978F10D","num_area":"27.065600000000000000000000000000","ind_status":"AT"},"geometry":{"type":"Polygon","coordinates":[[[-41.7704,-20.9701],[-41.7789,-20.9765],[-41.7716,-20.9702],[-41.7704,-20.9701]]]}},{"type":"Feature","properties":{"cod_imovel":"RJ-3300605-A826DD9C47E3445BBEBD3F54F9C6C04D","num_area":"4.3534000000000000000000000000000","ind_status":"AT"},"geometry":{"type":"Polygon","coordinates":[[[-41.7917,-21.0176],[-41.7957,-21.0193],[-41.7919,-21.0176],[-41.7917,-21.0176]]]}},{"type":"Feature","properties":{"cod_imovel":"RJ-3300605-4EC8B379A19145BEBD7D57A0CD976500","num_area":"23.437600000000000000000000000000","ind_status":"AT"},"geometry":{"type":"Polygon","coordinates":[[[-41.7772,-20.928],[-41.7682,-20.9319],[-41.7758,-20.9286],[-41.7772,-20.928]]]}},{"type":"Feature","properties":{"cod_imovel":"RJ-3300605-660F921A3B194395B84409ED2F66F05D","num_area":"16.038700000000000000000000000000","ind_status":"AT"},"geometry":{"type":"Polygon","coordinates":[[[-41.5691,-21.2561],[-41.5623,-21.2556],[-41.5676,-21.2577],[-41.5691,-21.2561]]]}},{"type":"Feature","properties":{"cod_imovel":"RJ-3300605-6C22CC3AB2024B25B925E6EFD4D59C52","num_area":"21.218500000000000000000000000000","ind_status":"AT"},"geometry":{"type":"Polygon","coordinates":[[[-41.562,-21.2554],[-41.561,-21.2626],[-41.564,-21.2578],[-41.562,-21.2554]],[[-41.5649,-21.2589],[-41.5627,-21.2621],[-41.5649,-21.2591],[-41.5649,-21.2589]]]}},{"type":"Feature","properties":{"cod_imovel":"RJ-3300605-F10CC76ADBB741DEBE0D080E0060EB5A","num_area":"41.412800000000000000000000000000","ind_status":"AT"},"geometry":{"type":"Polygon","coordinates":[[[-41.6859,-21.1688],[-41.6882,-21.1715],[-41.6855,-21.1682],[-41.6859,-21.1688]],[[-41.6891,-21.173],[-41.7001,-21.1743],[-41.6891,-21.1729],[-41.6891,-21.173]]]}},{"type":"Feature","properties":{"cod_imovel":"RJ-3300605-1DD5B8C0000F45419F5D993427D39AE9","num_area":"3.4757000000000000000000000000000","ind_status":"AT"},"geometry":{"type":"Polygon","coordinates":[[[-41.7883,-21.0789],[-41.7847,-21.0797],[-41.7883,-21.0791],[-41.7883,-21.0789]]]}},{"type":"Feature","properties":{"cod_imovel":"RJ-3300605-39AA112A806E468C8488B9AFCF9FF404","num_area":"9.9779000000000000000000000000000","ind_status":"AT"},"geometry":{"type":"Polygon","coordinates":[[[-41.8056,-21.0817],[-41.8013,-21.0846],[-41.8063,-21.0825],[-41.8056,-21.0817]]]}},{"type":"Feature","properties":{"cod_imovel":"RJ-3300605-C7C6A24753054DA4A4D86AF329EE2D0B","num_area":"10.899600000000000000000000000000","ind_status":"AT"},"geometry":{"type":"Polygon","coordinates":[[[-41.7553,-21.0225],[-41.7598,-21.0194],[-41.7552,-21.0225],[-41.7553,-21.0225]]]}},{"type":"Feature","properties":{"cod_imovel":"RJ-3300605-10C742706A6A47B6985F6C9BF54054F8","num_area":"2.3317000000000000000000000000000","ind_status":"AT"},"geometry":{"type":"Polygon","coordinates":[[[-41.7952,-21.0211],[-41.7965,-21.0249],[-41.7953,-21.0213],[-41.7952,-21.0211]]]}},{"type":"Feature","properties":{"cod_imovel":"RJ-3300605-95D77E924DB54D6A89C0890DD0004379","num_area":"13.150500000000000000000000000000","ind_status":"AT"},"geometry":{"type":"Polygon","coordinates":[[[-41.6467,-21.1734],[-41.6436,-21.1755],[-41.6469,-21.1733],[-41.6467,-21.1734]]]}},{"type":"Feature","properties":{"cod_imovel":"RJ-3300605-195F5C7CFDCF44AA9A937E5A84DA3BDB","num_area":"2.1352000000000000000000000000000","ind_status":"AT"},"geometry":{"type":"Polygon","coordinates":[[[-41.7338,-20.8758],[-41.7308,-20.8775],[-41.7336,-20.8759],[-41.7338,-20.8758]]]}},{"type":"Feature","properties":{"cod_imovel":"RJ-3300605-7F6A63F2DEDA4C2CA98FC7435907452D","num_area":"50.463300000000000000000000000000","ind_status":"AT"},"geometry":{"type":"Polygon","coordinates":[[[-41.5727,-21.2475],[-41.5686,-21.2548],[-41.5725,-21.2475],[-41.5727,-21.2475]],[[-41.5751,-21.2536],[-41.5702,-21.2514],[-41.5735,-21.2565],[-41.5751,-21.2538],[-41.5751,-21.2536]],[[-41.573,-21.2485],[-41.5708,-21.2512],[-41.5729,-21.2488],[-41.573,-21.2485]],[[-41.5855,-21.2571],[-41.5813,-21.2554],[-41.5855,-21.2574],[-41.5855,-21.2571]]]}},{"type":"Feature","properties":{"cod_imovel":"RJ-3300605-5B56673B821E4F9A81989B2C6C29E303","num_area":"10.573400000000000000000000000000","ind_status":"AT"},"geometry":{"type":"Polygon","coordinates":[[[-41.7544,-21.0347],[-41.7559,-21.0404],[-41.7548,-21.0354],[-41.7544,-21.0347]]]}},{"type":"Feature","properties":{"cod_imovel":"RJ-3300605-5B9611023D0B48F386F473760DBE9517","num_area":"3.5513000000000000000000000000000","ind_status":"AT"},"geometry":{"type":"Polygon","coordinates":[[[-41.7118,-21.1738],[-41.71,-21.1778],[-41.7118,-21.1737],[-41.7118,-21.1738]]]}},{"type":"Feature","properties":{"cod_imovel":"RJ-3300605-E48F86C7635B4D2A9B0FBAE52626801F","num_area":"15.743300000000000000000000000000","ind_status":"AT"},"geometry":{"type":"Polygon","coordinates":[[[-41.7048,-21.1327],[-41.7002,-21.1328],[-41.7046,-21.133],[-41.7048,-21.1327]]]}},{"type":"Feature","properties":{"cod_imovel":"RJ-3300605-6DCC3751737247F8B7D871ED101F2BD3","num_area":"13.686900000000000000000000000000","ind_status":"AT"},"geometry":{"type":"Polygon","coordinates":[[[-41.7808,-20.9496],[-41.7881,-20.9477],[-41.7807,-20.9502],[-41.7808,-20.9496]]]}},{"type":"Feature","properties":{"cod_imovel":"RJ-3300605-465AD6910B7249B98A9F6E9DF0D7081F","num_area":"10.618200000000000000000000000000","ind_status":"AT"},"geometry":{"type":"Polygon","coordinates":[[[-41.5315,-21.2295],[-41.5282,-21.2329],[-41.5316,-21.2296],[-41.5315,-21.2295]]]}},{"type":"Feature","properties":{"cod_imovel":"RJ-3300605-2A39D4024DF34BEE923E8B7F82115A7D","num_area":"5.8342000000000000000000000000000","ind_status":"AT"},"geometry":{"type":"Polygon","coordinates":[[[-41.8282,-21.0872],[-41.8265,-21.0904],[-41.8282,-21.0872],[-41.8282,-21.0872]]]}},{"type":"Feature","properties":{"cod_imovel":"RJ-3300605-3D627B46D35D49EE950F107FFCAD3BFF","num_area":"2.0974000000000000000000000000000","ind_status":"AT"},"geometry":{"type":"Polygon","coordinates":[[[-41.7349,-21.0632],[-41.7318,-21.0602],[-41.7348,-21.0631],[-41.7349,-21.0632]]]}},{"type":"Feature","properties":{"cod_imovel":"RJ-3300605-322A863367C546889FAF1B593B814C5A","num_area":"7.6415000000000000000000000000000","ind_status":"AT"},"geometry":{"type":"Polygon","coordinates":[[[-41.5988,-21.1858],[-41.6026,-21.1867],[-41.5988,-21.1857],[-41.5988,-21.1858]]]}},{"type":"Feature","properties":{"cod_imovel":"RJ-3300605-190C097640CE4CECAC52EC2D7F8ADA10","num_area":"17.634700000000000000000000000000","ind_status":"AT"},"geometry":{"type":"Polygon","coordinates":[[[-41.8056,-21.0817],[-41.8,-21.0849],[-41.8031,-21.0884],[-41.806,-21.082],[-41.8056,-21.0817]]]}},{"type":"Feature","properties":{"cod_imovel":"RJ-3300605-DF90FFF1665D4E76957530C1311E4DB4","num_area":"20.110200000000000000000000000000","ind_status":"AT"},"geometry":{"type":"Polygon","coordinates":[[[-41.5271,-21.2258],[-41.5266,-21.2288],[-41.5273,-21.2258],[-41.5271,-21.2258]],[[-41.532,-21.2262],[-41.5282,-21.2219],[-41.5272,-21.2318],[-41.5319,-21.2262],[-41.532,-21.2262]]]}},{"type":"Feature","properties":{"cod_imovel":"RJ-3300605-35FDEFC283CD4C9F877FBEBF775C10A0","num_area":"22.522300000000000000000000000000","ind_status":"AT"},"geometry":{"type":"Polygon","coordinates":[[[-41.7405,-21.0223],[-41.7384,-21.0301],[-41.7412,-21.0228],[-41.7405,-21.0223]],[[-41.735,-21.0326],[-41.74,-21.0329],[-41.7351,-21.0326],[-41.735,-21.0326]]]}},{"type":"Feature","properties":{"cod_imovel":"RJ-3300605-5CCA7AB86788492091178F44993CEA29","num_area":"11.966900000000000000000000000000","ind_status":"AT"},"geometry":{"type":"Polygon","coordinates":[[[-41.7364,-21.1493],[-41.7384,-21.1522],[-41.7364,-21.1492],[-41.7364,-21.1493]],[[-41.7332,-21.1477],[-41.7359,-21.1456],[-41.733,-21.1477],[-41.7332,-21.1477]],[[-41.7298,-21.1404],[-41.7345,-21.1417],[-41.7298,-21.1404],[-41.7298,-21.1404]]]}},{"type":"Feature","properties":{"cod_imovel":"RJ-3300605-EE2F2C3A87D543EFBF6CF2370375DDF1","num_area":"35.278800000000000000000000000000","ind_status":"AT"},"geometry":{"type":"Polygon","coordinates":[[[-41.5318,-21.2267],[-41.5273,-21.2327],[-41.5319,-21.2268],[-41.5318,-21.2267]],[[-41.5376,-21.2267],[-41.5333,-21.2286],[-41.5373,-21.2269],[-41.5376,-21.2267]],[[-41.5324,-21.2325],[-41.5381,-21.2285],[-41.5299,-21.2298],[-41.532,-21.2328],[-41.5324,-21.2325]]]}},{"type":"Feature","properties":{"cod_imovel":"RJ-3300605-30E023F1E911476DB7BCD684EC3ABE7A","num_area":"16.737700000000000000000000000000","ind_status":"AT"},"geometry":{"type":"Polygon","coordinates":[[[-41.7337,-21.049],[-41.7377,-21.0466],[-41.7337,-21.049],[-41.7337,-21.049]],[[-41.7376,-21.0405],[-41.7338,-21.0415],[-41.7372,-21.0408],[-41.7376,-21.0405]],[[-41.7375,-21.0403],[-41.7338,-21.0414],[-41.7375,-21.0403],[-41.7375,-21.0403]]]}},{"type":"Feature","properties":{"cod_imovel":"RJ-3300605-946B950A5E2349208D4A107161249C82","num_area":"11.922200000000000000000000000000","ind_status":"AT"},"geometry":{"type":"Polygon","coordinates":[[[-41.7932,-21.0858],[-41.7963,-21.0853],[-41.7932,-21.0858],[-41.7932,-21.0858]],[[-41.8059,-21.0887],[-41.8011,-21.0918],[-41.8058,-21.0892],[-41.8059,-21.0887]]]}},{"type":"Feature","properties":{"cod_imovel":"RJ-3300605-23C8CCEDE3184465A7C63FDC2EA20F23","num_area":"1.8750000000000000000000000000000","ind_status":"AT"},"geometry":{"type":"Polygon","coordinates":[[[-41.5453,-21.1837],[-41.5419,-21.1822],[-41.5453,-21.1838],[-41.5453,-21.1837]]]}},{"type":"Feature","properties":{"cod_imovel":"RJ-3300605-27941214392B408C8F406CF30C578099","num_area":"7.6393000000000000000000000000000","ind_status":"AT"},"geometry":{"type":"Polygon","coordinates":[[[-41.7358,-20.9212],[-41.7329,-20.9229],[-41.7357,-20.9216],[-41.7358,-20.9212]]]}},{"type":"Feature","properties":{"cod_imovel":"RJ-3300605-6E17BCBD14914D15A2C1EE43DDC59491","num_area":"7.8329000000000000000000000000000","ind_status":"AT"},"geometry":{"type":"Polygon","coordinates":[[[-41.6039,-21.2871],[-41.6085,-21.2848],[-41.6044,-21.2872],[-41.6039,-21.2871]]]}},{"type":"Feature","properties":{"cod_imovel":"RJ-3300605-666D35032ED446768ABE2384821A705D","num_area":"7.6978000000000000000000000000000","ind_status":"AT"},"geometry":{"type":"Polygon","coordinates":[[[-41.5282,-21.2219],[-41.5266,-21.2289],[-41.5287,-21.2224],[-41.5282,-21.2219]]]}},{"type":"Feature","properties":{"cod_imovel":"RJ-3300605-2AE0F1AB72C441BEACB4C8F7280B18F8","num_area":"8.9255000000000000000000000000000","ind_status":"AT"},"geometry":{"type":"Polygon","coordinates":[[[-41.8215,-21.1099],[-41.8239,-21.1139],[-41.8222,-21.1101],[-41.8215,-21.1099]]]}},{"type":"Feature","properties":{"cod_imovel":"RJ-3300605-E9FEA367A8EA4594AB87B95D862D5CB4","num_area":"14.103200000000000000000000000000","ind_status":"AT"},"geometry":{"type":"Polygon","coordinates":[[[-41.5125,-21.2031],[-41.5122,-21.1983],[-41.5091,-21.2009],[-41.5125,-21.2031]]]}},{"type":"Feature","properties":{"cod_imovel":"RJ-3300605-D033A1DF106F44098B26C5D13386F99B","num_area":"18.181500000000000000000000000000","ind_status":"AT"},"geometry":{"type":"Polygon","coordinates":[[[-41.6069,-21.237],[-41.6098,-21.2349],[-41.6068,-21.2367],[-41.6069,-21.237]],[[-41.611,-21.2345],[-41.6133,-21.23],[-41.6102,-21.2345],[-41.611,-21.2345]]]}},{"type":"Feature","properties":{"cod_imovel":"RJ-3300605-DD9F353F2E7D4D71A1DE46502D58FCFA","num_area":"5.2503000000000000000000000000000","ind_status":"AT"},"geometry":{"type":"Polygon","coordinates":[[[-41.7322,-20.9068],[-41.7355,-20.9087],[-41.7323,-20.9068],[-41.7322,-20.9068]]]}},{"type":"Feature","properties":{"cod_imovel":"RJ-3300605-472080B47C364F41AF270750226CC1A6","num_area":"18.806500000000000000000000000000","ind_status":"AT"},"geometry":{"type":"Polygon","coordinates":[[[-41.7626,-20.9911],[-41.7587,-20.9955],[-41.7628,-20.991],[-41.7626,-20.9911]]]}},{"type":"Feature","properties":{"cod_imovel":"RJ-3300605-3CA1C654DBC44DC88FABFB6601ED1617","num_area":"3.6331000000000000000000000000000","ind_status":"AT"},"geometry":{"type":"Polygon","coordinates":[[[-41.5796,-21.2047],[-41.5766,-21.204],[-41.5796,-21.2049],[-41.5796,-21.2047]],[[-41.5796,-21.2046],[-41.5767,-21.2033],[-41.5796,-21.2046],[-41.5796,-21.2046]]]}},{"type":"Feature","properties":{"cod_imovel":"RJ-3300605-F8788E34EF074FC5B32EF3FB7D515FAA","num_area":"41.867500000000000000000000000000","ind_status":"AT"},"geometry":{"type":"Polygon","coordinates":[[[-41.7708,-20.916],[-41.7624,-20.9192],[-41.7742,-20.918],[-41.7708,-20.916]]]}},{"type":"Feature","properties":{"cod_imovel":"RJ-3300605-D5A6B5EE9F584236A712B781C9D3FAEF","num_area":"5.8156000000000000000000000000000","ind_status":"AT"},"geometry":{"type":"Polygon","coordinates":[[[-41.5316,-21.192],[-41.5333,-21.1953],[-41.5323,-21.1918],[-41.5316,-21.192]]]}},{"type":"Feature","properties":{"cod_imovel":"RJ-3300605-AEA3460DE3B046E5914BBE5F92696333","num_area":"1.9329000000000000000000000000000","ind_status":"AT"},"geometry":{"type":"Polygon","coordinates":[[[-41.7159,-21.1053],[-41.7131,-21.1065],[-41.7161,-21.1052],[-41.7159,-21.1053]]]}},{"type":"Feature","properties":{"cod_imovel":"RJ-3300605-CF55437F8095439F85343C8D64FE43DF","num_area":"11.613000000000000000000000000000","ind_status":"AT"},"geometry":{"type":"Polygon","coordinates":[[[-41.8278,-21.0965],[-41.8226,-21.0928],[-41.8277,-21.0965],[-41.8278,-21.0965]]]}},{"type":"Feature","properties":{"cod_imovel":"RJ-3300605-C1F5986493924D9A8B6C453DCACF5822","num_area":"4.3727000000000000000000000000000","ind_status":"AT"},"geometry":{"type":"Polygon","coordinates":[[[-41.7447,-21.0724],[-41.7471,-21.0706],[-41.7446,-21.0724],[-41.7447,-21.0724]]]}},{"type":"Feature","properties":{"cod_imovel":"RJ-3300605-BC0D5E5DEC114D47998AAEC49FA4AC9B","num_area":"3.7176000000000000000000000000000","ind_status":"AT"},"geometry":{"type":"Polygon","coordinates":[[[-41.7201,-21.1774],[-41.7174,-21.1794],[-41.7198,-21.1775],[-41.7201,-21.1774]]]}},{"type":"Feature","properties":{"cod_imovel":"RJ-3300605-CB11136DB8AA4398BC88A5D6668A0C0D","num_area":"55.739000000000000000000000000000","ind_status":"AT"},"geometry":{"type":"Polygon","coordinates":[[[-41.7486,-20.9081],[-41.7428,-20.9125],[-41.7451,-20.915],[-41.7492,-20.9138],[-41.7486,-20.9081],[-41.7486,-20.9081]],[[-41.7428,-20.9125],[-41.7385,-20.9183],[-41.7433,-20.9128],[-41.7428,-20.9125]]]}},{"type":"Feature","properties":{"cod_imovel":"RJ-3300605-B786F7D3454149CFA4D50A29CCA6653A","num_area":"4.6612000000000000000000000000000","ind_status":"AT"},"geometry":{"type":"Polygon","coordinates":[[[-41.7419,-20.9657],[-41.7423,-20.9623],[-41.7409,-20.965],[-41.7419,-20.9657]]]}},{"type":"Feature","properties":{"cod_imovel":"RJ-3300605-9F29B3E58C074065BCEABCDD339F18E9","num_area":"9.0219000000000000000000000000000","ind_status":"AT"},"geometry":{"type":"Polygon","coordinates":[[[-41.7798,-20.9493],[-41.7771,-20.9517],[-41.7807,-20.9494],[-41.7798,-20.9493]]]}},{"type":"Feature","properties":{"cod_imovel":"RJ-3300605-FA03A0F93E2C44B4B0D6E11D83A3AB82","num_area":"12.074700000000000000000000000000","ind_status":"AT"},"geometry":{"type":"Polygon","coordinates":[[[-41.7408,-20.9099],[-41.7432,-20.9056],[-41.7408,-20.9099],[-41.7408,-20.9099]]]}},{"type":"Feature","properties":{"cod_imovel":"RJ-3300605-043A5A5026F843B6A563A6F848329FD8","num_area":"9.6900000000000000000000000000000","ind_status":"AT"},"geometry":{"type":"Polygon","coordinates":[[[-41.8139,-21.0189],[-41.815,-21.0218],[-41.8139,-21.0189],[-41.8139,-21.0189]],[[-41.8056,-21.0215],[-41.8095,-21.0191],[-41.8056,-21.0214],[-41.8056,-21.0215]]]}},{"type":"Feature","properties":{"cod_imovel":"RJ-3300605-442FCFC3F5254607A684EB0F131B909B","num_area":"8.2150000000000000000000000000000","ind_status":"AT"},"geometry":{"type":"Polygon","coordinates":[[[-41.779,-20.9765],[-41.782,-20.9781],[-41.7792,-20.9761],[-41.779,-20.9765]]]}},{"type":"Feature","properties":{"cod_imovel":"RJ-3300605-E0E53A6C001E4696AEF8C206B6D01EF1","num_area":"93.699500000000000000000000000000","ind_status":"AT"},"geometry":{"type":"Polygon","coordinates":[[[-41.7495,-21.0681],[-41.7452,-21.0702],[-41.749,-21.0679],[-41.7495,-21.0681]],[[-41.7555,-21.0886],[-41.7497,-21.0894],[-41.7555,-21.0887],[-41.7555,-21.0886]],[[-41.7501,-21.0906],[-41.7597,-21.0904],[-41.7504,-21.0905],[-41.7501,-21.0906]],[[-41.7669,-21.0783],[-41.7645,-21.074],[-41.7604,-21.0771],[-41.7646,-21.0777],[-41.7555,-21.0887],[-41.7663,-21.0785],[-41.7669,-21.0783]],[[-41.7622,-21.0747],[-41.7585,-21.0737],[-41.7611,-21.0798],[-41.7553,-21.0846],[-41.7623,-21.0748],[-41.7622,-21.0747]],[[-41.7645,-21.074],[-41.7624,-21.0711],[-41.7639,-21.0746],[-41.7645,-21.074]]]}},{"type":"Feature","properties":{"cod_imovel":"RJ-3300605-361CEBD5C2A247B0B5829C004C7B02E4","num_area":"12.119100000000000000000000000000","ind_status":"AT"},"geometry":{"type":"Polygon","coordinates":[[[-41.5361,-21.2168],[-41.5328,-21.2154],[-41.5356,-21.2169],[-41.5361,-21.2168]]]}},{"type":"Feature","properties":{"cod_imovel":"RJ-3300605-7E0BB469D43644D099D5F021546924B7","num_area":"7.9415000000000000000000000000000","ind_status":"AT"},"geometry":{"type":"Polygon","coordinates":[[[-41.7475,-20.9147],[-41.7397,-20.9194],[-41.7462,-20.9155],[-41.7475,-20.9147]]]}},{"type":"Feature","properties":{"cod_imovel":"RJ-3300605-25BDD4C2301A4A59ABD63B2AC1CE1648","num_area":"26.458900000000000000000000000000","ind_status":"AT"},"geometry":{"type":"Polygon","coordinates":[[[-41.7402,-21.1645],[-41.7488,-21.1703],[-41.7405,-21.1645],[-41.7402,-21.1645]]]}},{"type":"Feature","properties":{"cod_imovel":"RJ-3300605-27430061A4FA48CFA181596B23BD9898","num_area":"22.906300000000000000000000000000","ind_status":"AT"},"geometry":{"type":"Polygon","coordinates":[[[-41.7474,-21.0254],[-41.7558,-21.0242],[-41.747,-21.025],[-41.7474,-21.0254]]]}},{"type":"Feature","properties":{"cod_imovel":"RJ-3300605-C6A1B634B2C44AA797E0D12387A2F83C","num_area":"6.9556000000000000000000000000000","ind_status":"AT"},"geometry":{"type":"Polygon","coordinates":[[[-41.7922,-21.0375],[-41.796,-21.0385],[-41.7923,-21.0376],[-41.7922,-21.0375]]]}},{"type":"Feature","properties":{"cod_imovel":"RJ-3300605-C180ABB7AC904A198C8EE260CE03D021","num_area":"2.5434000000000000000000000000000","ind_status":"AT"},"geometry":{"type":"Polygon","coordinates":[[[-41.7412,-21.0907],[-41.7358,-21.0911],[-41.7412,-21.0907],[-41.7412,-21.0907]]]}},{"type":"Feature","properties":{"cod_imovel":"RJ-3300605-3115AE102F914FC483A4AAAC3233DCBD","num_area":"51.710000000000000000000000000000","ind_status":"AT"},"geometry":{"type":"Polygon","coordinates":[[[-41.7381,-21.0022],[-41.7334,-20.999],[-41.738,-21.0021],[-41.7381,-21.0022]],[[-41.7481,-20.9918],[-41.7482,-20.9958],[-41.7515,-20.9922],[-41.7483,-20.9914],[-41.7481,-20.9918]],[[-41.737,-20.9961],[-41.7428,-20.9918],[-41.7374,-20.9959],[-41.737,-20.9961]],[[-41.7406,-20.9967],[-41.742,-20.9931],[-41.7405,-20.9966],[-41.7406,-20.9967]]]}},{"type":"Feature","properties":{"cod_imovel":"RJ-3300605-745A22FE88384F5283CA7B676C86997A","num_area":"3.3192000000000000000000000000000","ind_status":"AT"},"geometry":{"type":"Polygon","coordinates":[[[-41.7426,-21.0252],[-41.7415,-21.0295],[-41.7426,-21.0253],[-41.7426,-21.0252]]]}},{"type":"Feature","properties":{"cod_imovel":"RJ-3300605-18199DD41C6D49A7815AFBC8B90B8233","num_area":"4.4558000000000000000000000000000","ind_status":"AT"},"geometry":{"type":"Polygon","coordinates":[[[-41.8311,-21.0647],[-41.8338,-21.0679],[-41.8312,-21.065],[-41.8311,-21.0647]]]}},{"type":"Feature","properties":{"cod_imovel":"RJ-3300605-621A042F5CE1442EB8512BE61C87ADFF","num_area":"20.696100000000000000000000000000","ind_status":"AT"},"geometry":{"type":"Polygon","coordinates":[[[-41.6948,-21.157],[-41.7039,-21.1514],[-41.6952,-21.1567],[-41.6948,-21.157]]]}},{"type":"Feature","properties":{"cod_imovel":"RJ-3300605-584BC9F5C8214EF9AD6BCEAD84746B77","num_area":"19.870500000000000000000000000000","ind_status":"AT"},"geometry":{"type":"Polygon","coordinates":[[[-41.7481,-21.0041],[-41.7505,-20.9989],[-41.7481,-21.0039],[-41.7481,-21.0041]],[[-41.7447,-20.9991],[-41.7505,-20.9989],[-41.7449,-20.9989],[-41.7447,-20.9991]],[[-41.7505,-20.9988],[-41.7525,-20.9916],[-41.7505,-20.9986],[-41.7505,-20.9988]]]}},{"type":"Feature","properties":{"cod_imovel":"RJ-3300605-48B2C3F7683A45D2B71C59D86282D2CD","num_area":"4.1845000000000000000000000000000","ind_status":"AT"},"geometry":{"type":"Polygon","coordinates":[[[-41.5917,-21.2693],[-41.5893,-21.2661],[-41.5919,-21.2695],[-41.5917,-21.2693]]]}},{"type":"Feature","properties":{"cod_imovel":"RJ-3300605-23D795970A694BA696207980C7F6AAD7","num_area":"58.467700000000000000000000000000","ind_status":"AT"},"geometry":{"type":"Polygon","coordinates":[[[-41.5633,-21.2424],[-41.5603,-21.2438],[-41.5635,-21.243],[-41.5633,-21.2424]],[[-41.5544,-21.2449],[-41.5585,-21.2492],[-41.5549,-21.2454],[-41.5544,-21.2449]],[[-41.5499,-21.2458],[-41.5471,-21.2487],[-41.5499,-21.2467],[-41.5499,-21.2458]],[[-41.5697,-21.2473],[-41.5657,-21.2439],[-41.5687,-21.2488],[-41.5697,-21.2473]]]}},{"type":"Feature","properties":{"cod_imovel":"RJ-3300605-2527CDAB04654A6881157C9B5844B440","num_area":"5.1391000000000000000000000000000","ind_status":"AT"},"geometry":{"type":"Polygon","coordinates":[[[-41.5662,-21.2796],[-41.5717,-21.2809],[-41.5663,-21.2789],[-41.5662,-21.2796]]]}},{"type":"Feature","properties":{"cod_imovel":"RJ-3300605-880393E101834C5AA6E529B711219C5E","num_area":"2.0902000000000000000000000000000","ind_status":"AT"},"geometry":{"type":"Polygon","coordinates":[[[-41.5581,-21.2003],[-41.5564,-21.2029],[-41.5581,-21.2003],[-41.5581,-21.2003]]]}},{"type":"Feature","properties":{"cod_imovel":"RJ-3300605-E801DC267DA14B178EFDC3939C6AC4F6","num_area":"6.8689000000000000000000000000000","ind_status":"AT"},"geometry":{"type":"Polygon","coordinates":[[[-41.796,-21.0557],[-41.8004,-21.0553],[-41.7961,-21.0549],[-41.796,-21.0557]]]}},{"type":"Feature","properties":{"cod_imovel":"RJ-3300605-80E7D76435D841999FBC728D2D8C39E2","num_area":"35.731500000000000000000000000000","ind_status":"AT"},"geometry":{"type":"Polygon","coordinates":[[[-41.565,-21.2367],[-41.5716,-21.2376],[-41.5717,-21.2316],[-41.5652,-21.2356],[-41.565,-21.2367]]]}},{"type":"Feature","properties":{"cod_imovel":"RJ-3300605-1CB8D2A68CF8406EBEA0AAB08E0C2143","num_area":"9.5205000000000000000000000000000","ind_status":"AT"},"geometry":{"type":"Polygon","coordinates":[[[-41.6408,-21.2408],[-41.6392,-21.2462],[-41.6408,-21.2408],[-41.6408,-21.2408]]]}},{"type":"Feature","properties":{"cod_imovel":"RJ-3300605-108628A08CA8414A82334E4CE2E5258F","num_area":"3.9457000000000000000000000000000","ind_status":"AT"},"geometry":{"type":"Polygon","coordinates":[[[-41.6849,-21.2415],[-41.687,-21.2436],[-41.6851,-21.2413],[-41.6849,-21.2415]]]}},{"type":"Feature","properties":{"cod_imovel":"RJ-3300605-BB9053C7117644FCB4F16FA3850251A3","num_area":"7.4321000000000000000000000000000","ind_status":"AT"},"geometry":{"type":"Polygon","coordinates":[[[-41.7062,-21.2191],[-41.7046,-21.2221],[-41.7062,-21.2192],[-41.7062,-21.2191]]]}},{"type":"Feature","properties":{"cod_imovel":"RJ-3300605-B5496F66DE314AF99236A5D8F7B4AA13","num_area":"13.853100000000000000000000000000","ind_status":"AT"},"geometry":{"type":"Polygon","coordinates":[[[-41.7851,-20.9897],[-41.7803,-20.9882],[-41.7803,-20.9919],[-41.7851,-20.9897],[-41.7851,-20.9897]]]}},{"type":"Feature","properties":{"cod_imovel":"RJ-3300605-9FFB81FF96AD4C938E4DE36463A918A8","num_area":"4.1257000000000000000000000000000","ind_status":"AT"},"geometry":{"type":"Polygon","coordinates":[[[-41.7628,-21.0306],[-41.7636,-21.0273],[-41.7619,-21.0306],[-41.7628,-21.0306]]]}},{"type":"Feature","properties":{"cod_imovel":"RJ-3300605-E930436A7C934D3BB1314BCDA7BC1312","num_area":"6.3048000000000000000000000000000","ind_status":"AT"},"geometry":{"type":"Polygon","coordinates":[[[-41.8022,-21.1355],[-41.8005,-21.14],[-41.8023,-21.1356],[-41.8022,-21.1355]]]}},{"type":"Feature","properties":{"cod_imovel":"RJ-3300605-305840A12B8E4D0FBCAFA62CF80BB870","num_area":"16.541500000000000000000000000000","ind_status":"AT"},"geometry":{"type":"Polygon","coordinates":[[[-41.8221,-21.0899],[-41.8281,-21.0921],[-41.8312,-21.0879],[-41.8224,-21.0898],[-41.8221,-21.0899]]]}},{"type":"Feature","properties":{"cod_imovel":"RJ-3300605-DB2782C96ABF432A829008FA2F401062","num_area":"7.8934000000000000000000000000000","ind_status":"AT"},"geometry":{"type":"Polygon","coordinates":[[[-41.7756,-21.0085],[-41.7801,-21.0032],[-41.7775,-21.0052],[-41.7756,-21.0085]]]}},{"type":"Feature","properties":{"cod_imovel":"RJ-3300605-C95E93C7EB54451E85B8A686C3404E61","num_area":"4.0113000000000000000000000000000","ind_status":"AT"},"geometry":{"type":"Polygon","coordinates":[[[-41.7609,-20.9883],[-41.7606,-20.9914],[-41.7608,-20.988],[-41.7609,-20.9883]]]}},{"type":"Feature","properties":{"cod_imovel":"RJ-3300605-4D8B98F056BA4BD3987EDCB583381217","num_area":"3.9443000000000000000000000000000","ind_status":"AT"},"geometry":{"type":"Polygon","coordinates":[[[-41.6606,-21.2115],[-41.664,-21.2091],[-41.6607,-21.2111],[-41.6606,-21.2115]],[[-41.6611,-21.2115],[-41.6639,-21.2093],[-41.6611,-21.2115],[-41.6611,-21.2115]]]}},{"type":"Feature","properties":{"cod_imovel":"RJ-3300605-59E08582214547BBB43B07BE17F91061","num_area":"40.512300000000000000000000000000","ind_status":"AT"},"geometry":{"type":"Polygon","coordinates":[[[-41.8248,-21.077],[-41.8205,-21.0799],[-41.8249,-21.0769],[-41.8248,-21.077]],[[-41.8259,-21.0847],[-41.8299,-21.0815],[-41.8216,-21.0809],[-41.8253,-21.0836],[-41.8259,-21.0847]]]}},{"type":"Feature","properties":{"cod_imovel":"RJ-3300605-3DA783F72A92419982CE1CB4F8E7EA5B","num_area":"5.9545000000000000000000000000000","ind_status":"AT"},"geometry":{"type":"Polygon","coordinates":[[[-41.6566,-21.2323],[-41.6571,-21.2354],[-41.6567,-21.2323],[-41.6566,-21.2323]]]}},{"type":"Feature","properties":{"cod_imovel":"RJ-3300605-3620853C3394460F873270E5AFE60BDF","num_area":"11.619400000000000000000000000000","ind_status":"AT"},"geometry":{"type":"Polygon","coordinates":[[[-41.7761,-20.9478],[-41.7809,-20.9473],[-41.7765,-20.9469],[-41.7761,-20.9478]]]}},{"type":"Feature","properties":{"cod_imovel":"RJ-3300605-C9F24C00AFDF4338B65A7B8ADC88BDB0","num_area":"7.4102000000000000000000000000000","ind_status":"AT"},"geometry":{"type":"Polygon","coordinates":[[[-41.6149,-21.2619],[-41.6129,-21.2581],[-41.6146,-21.2615],[-41.6149,-21.2619]]]}},{"type":"Feature","properties":{"cod_imovel":"RJ-3300605-1D6A593799DF488088161D4FA2DDF5B5","num_area":"11.562700000000000000000000000000","ind_status":"AT"},"geometry":{"type":"Polygon","coordinates":[[[-41.6471,-21.2319],[-41.6469,-21.2277],[-41.6438,-21.2306],[-41.6469,-21.2321],[-41.6471,-21.2319]]]}},{"type":"Feature","properties":{"cod_imovel":"RJ-3300605-0DE5B4D831424076A76E2020159AA462","num_area":"18.966900000000000000000000000000","ind_status":"AT"},"geometry":{"type":"Polygon","coordinates":[[[-41.7627,-20.9586],[-41.7601,-20.9638],[-41.7628,-20.9593],[-41.7627,-20.9586]]]}},{"type":"Feature","properties":{"cod_imovel":"RJ-3300605-170B9A2981FF4C95BA4B3B788243C77A","num_area":"16.377700000000000000000000000000","ind_status":"AT"},"geometry":{"type":"Polygon","coordinates":[[[-41.7288,-21.1657],[-41.7204,-21.1694],[-41.729,-21.1658],[-41.7288,-21.1657]]]}},{"type":"Feature","properties":{"cod_imovel":"RJ-3300605-2CF6F19488534094B075F77CB7E700B4","num_area":"16.875000000000000000000000000000","ind_status":"AT"},"geometry":{"type":"Polygon","coordinates":[[[-41.6022,-21.2892],[-41.6085,-21.2849],[-41.6018,-21.2885],[-41.6022,-21.2892]]]}},{"type":"Feature","properties":{"cod_imovel":"RJ-3300605-BBA99DCDC01C400CACCD08B19C7F4090","num_area":"29.010500000000000000000000000000","ind_status":"AT"},"geometry":{"type":"Polygon","coordinates":[[[-41.7672,-20.9168],[-41.7641,-20.9191],[-41.7688,-20.9174],[-41.7672,-20.9168]],[[-41.7579,-20.9154],[-41.7659,-20.9162],[-41.7584,-20.9148],[-41.7579,-20.9154]]]}},{"type":"Feature","properties":{"cod_imovel":"RJ-3300605-F6B815AD8CA0462FA52EF24BD93CDE1D","num_area":"12.251400000000000000000000000000","ind_status":"AT"},"geometry":{"type":"Polygon","coordinates":[[[-41.7388,-20.979],[-41.7377,-20.9834],[-41.7394,-20.9795],[-41.7388,-20.979]],[[-41.7438,-20.9629],[-41.7405,-20.9651],[-41.743,-20.9633],[-41.7438,-20.9629]]]}},{"type":"Feature","properties":{"cod_imovel":"RJ-3300605-9A4A4D9C401E4F7FA4F9A2DEB0F2CE32","num_area":"3.3907000000000000000000000000000","ind_status":"AT"},"geometry":{"type":"Polygon","coordinates":[[[-41.7925,-21.0167],[-41.7974,-21.0178],[-41.7927,-21.0167],[-41.7925,-21.0167]]]}},{"type":"Feature","properties":{"cod_imovel":"RJ-3300605-DCCD264597F54A24AFD753821F9DAC3B","num_area":"5.1143000000000000000000000000000","ind_status":"AT"},"geometry":{"type":"Polygon","coordinates":[[[-41.7222,-20.9823],[-41.7184,-20.9799],[-41.7217,-20.9828],[-41.7222,-20.9823]]]}},{"type":"Feature","properties":{"cod_imovel":"RJ-3300605-06E90C21E5E74DFD854CED14AE9D672B","num_area":"17.339800000000000000000000000000","ind_status":"AT"},"geometry":{"type":"Polygon","coordinates":[[[-41.7236,-21.0165],[-41.7222,-21.021],[-41.7279,-21.0179],[-41.7248,-21.0161],[-41.7236,-21.0165]]]}},{"type":"Feature","properties":{"cod_imovel":"RJ-3300605-628273C0392844858A6C507B8C39BEDE","num_area":"26.067000000000000000000000000000","ind_status":"AT"},"geometry":{"type":"Polygon","coordinates":[[[-41.7341,-20.9169],[-41.7329,-20.9136],[-41.7346,-20.9163],[-41.7341,-20.9169]],[[-41.7388,-20.913],[-41.7308,-20.9091],[-41.7379,-20.9127],[-41.7388,-20.913]]]}},{"type":"Feature","properties":{"cod_imovel":"RJ-3300605-105F36FD67A64BBEA34664735DF5815E","num_area":"1.9617000000000000000000000000000","ind_status":"AT"},"geometry":{"type":"Polygon","coordinates":[[[-41.7435,-20.9378],[-41.7465,-20.9395],[-41.7438,-20.9379],[-41.7435,-20.9378]]]}},{"type":"Feature","properties":{"cod_imovel":"RJ-3300605-CFD931415116481FB7CF213508862558","num_area":"24.009600000000000000000000000000","ind_status":"AT"},"geometry":{"type":"Polygon","coordinates":[[[-41.7604,-20.9643],[-41.758,-20.9609],[-41.7552,-20.9662],[-41.7604,-20.9644],[-41.7604,-20.9643]]]}},{"type":"Feature","properties":{"cod_imovel":"RJ-3300605-902F8E03290546E7AAB57C369CF46B82","num_area":"4.9403000000000000000000000000000","ind_status":"AT"},"geometry":{"type":"Polygon","coordinates":[[[-41.6558,-21.2299],[-41.6575,-21.2334],[-41.6558,-21.2301],[-41.6558,-21.2299]]]}},{"type":"Feature","properties":{"cod_imovel":"RJ-3300605-3BE6FA7F37C945459075CE19FD203B50","num_area":"8.0843000000000000000000000000000","ind_status":"AT"},"geometry":{"type":"Polygon","coordinates":[[[-41.7695,-20.956],[-41.7725,-20.9528],[-41.7699,-20.955],[-41.7695,-20.956]]]}},{"type":"Feature","properties":{"cod_imovel":"RJ-3300605-FAD26E6019504D2B9AF9AF804923931C","num_area":"2.4707000000000000000000000000000","ind_status":"AT"},"geometry":{"type":"Polygon","coordinates":[[[-41.7825,-21.0175],[-41.7848,-21.0149],[-41.7828,-21.0174],[-41.7825,-21.0175]]]}},{"type":"Feature","properties":{"cod_imovel":"RJ-3300605-EDB11B886F9541728E84DC1CC37ADE31","num_area":"5.9301000000000000000000000000000","ind_status":"AT"},"geometry":{"type":"Polygon","coordinates":[[[-41.7543,-21.0383],[-41.7513,-21.0361],[-41.7547,-21.0392],[-41.7543,-21.0383]]]}},{"type":"Feature","properties":{"cod_imovel":"RJ-3300605-AF4EBF4105E7485C8BB393DF14CE885F","num_area":"7.3348000000000000000000000000000","ind_status":"AT"},"geometry":{"type":"Polygon","coordinates":[[[-41.605,-21.2798],[-41.607,-21.2759],[-41.6052,-21.2797],[-41.605,-21.2798]]]}},{"type":"Feature","properties":{"cod_imovel":"RJ-3300605-01729E8B863F439782ED7FC9D9766705","num_area":"22.279000000000000000000000000000","ind_status":"AT"},"geometry":{"type":"Polygon","coordinates":[[[-41.7599,-21.1629],[-41.7589,-21.1661],[-41.7601,-21.163],[-41.7599,-21.1629]],[[-41.765,-21.1589],[-41.7615,-21.1628],[-41.7651,-21.159],[-41.765,-21.1589]]]}},{"type":"Feature","properties":{"cod_imovel":"RJ-3300605-5C9BDF494CB2471B8712253781C7B8FE","num_area":"4.6484000000000000000000000000000","ind_status":"AT"},"geometry":{"type":"Polygon","coordinates":[[[-41.7983,-21.0221],[-41.7966,-21.0248],[-41.7983,-21.0221],[-41.7983,-21.0221]]]}},{"type":"Feature","properties":{"cod_imovel":"RJ-3300605-4926ECFBCDFE47E68EA7E83B3FF608FD","num_area":"13.638300000000000000000000000000","ind_status":"AT"},"geometry":{"type":"Polygon","coordinates":[[[-41.8088,-21.0055],[-41.8062,-21.0085],[-41.8089,-21.0056],[-41.8088,-21.0055]],[[-41.8017,-21.0031],[-41.8084,-21.0017],[-41.8017,-21.0031],[-41.8017,-21.0031]]]}},{"type":"Feature","properties":{"cod_imovel":"RJ-3300605-90D93115E26047049743E05793DC0A30","num_area":"20.407200000000000000000000000000","ind_status":"AT"},"geometry":{"type":"Polygon","coordinates":[[[-41.5692,-21.2563],[-41.573,-21.2635],[-41.5713,-21.2572],[-41.5692,-21.2563]]]}},{"type":"Feature","properties":{"cod_imovel":"RJ-3300605-206AA1C828414448AEAE28C8911348C7","num_area":"7.1443000000000000000000000000000","ind_status":"AT"},"geometry":{"type":"Polygon","coordinates":[[[-41.5403,-21.2661],[-41.5368,-21.2636],[-41.5394,-21.2664],[-41.5403,-21.2661]]]}},{"type":"Feature","properties":{"cod_imovel":"RJ-3300605-A2E7D069C31C44C8BC567491501BA2A9","num_area":"1.7549000000000000000000000000000","ind_status":"AT"},"geometry":{"type":"Polygon","coordinates":[[[-41.6772,-21.156],[-41.6734,-21.1559],[-41.6767,-21.1561],[-41.6772,-21.156]]]}},{"type":"Feature","properties":{"cod_imovel":"RJ-3300605-DF42A85345654CC5B5C7F1DAEE6E884E","num_area":"2.5753000000000000000000000000000","ind_status":"AT"},"geometry":{"type":"Polygon","coordinates":[[[-41.7077,-21.1833],[-41.7084,-21.1863],[-41.7077,-21.1833],[-41.7077,-21.1833]]]}},{"type":"Feature","properties":{"cod_imovel":"RJ-3300605-5CC8E275A4B644D285F766C7C29C0CCC","num_area":"9.6454000000000000000000000000000","ind_status":"AT"},"geometry":{"type":"Polygon","coordinates":[[[-41.7848,-21.1218],[-41.7807,-21.12],[-41.7845,-21.1217],[-41.7848,-21.1218]]]}},{"type":"Feature","properties":{"cod_imovel":"RJ-3300605-3BACA023881048F99DD30B932E0BACE6","num_area":"11.216000000000000000000000000000","ind_status":"AT"},"geometry":{"type":"Polygon","coordinates":[[[-41.5577,-21.2877],[-41.5572,-21.2837],[-41.5572,-21.2878],[-41.5577,-21.2877]]]}},{"type":"Feature","properties":{"cod_imovel":"RJ-3300605-2D2000F07A3E41679245491741476325","num_area":"19.305700000000000000000000000000","ind_status":"AT"},"geometry":{"type":"Polygon","coordinates":[[[-41.7344,-21.1185],[-41.738,-21.1163],[-41.7344,-21.1184],[-41.7344,-21.1185]],[[-41.7303,-21.108],[-41.7321,-21.1116],[-41.7304,-21.1078],[-41.7303,-21.108]],[[-41.7384,-21.1131],[-41.7337,-21.1116],[-41.7384,-21.1131],[-41.7384,-21.1131]]]}},{"type":"Feature","properties":{"cod_imovel":"RJ-3300605-C9E8D079F9F6460C90B5BBDAF6939604","num_area":"51.013500000000000000000000000000","ind_status":"AT"},"geometry":{"type":"Polygon","coordinates":[[[-41.6051,-21.26],[-41.6087,-21.2604],[-41.6054,-21.2597],[-41.6051,-21.26]],[[-41.6058,-21.273],[-41.6126,-21.2771],[-41.6058,-21.2728],[-41.6058,-21.273]],[[-41.6163,-21.2701],[-41.6102,-21.2688],[-41.6119,-21.273],[-41.6163,-21.2702],[-41.6163,-21.2701]],[[-41.5987,-21.2648],[-41.5949,-21.2623],[-41.5988,-21.265],[-41.5987,-21.2648]]]}},{"type":"Feature","properties":{"cod_imovel":"RJ-3300605-64F108E0F7D74DEA836622922F0A9B89","num_area":"10.054500000000000000000000000000","ind_status":"PE"},"geometry":{"type":"Polygon","coordinates":[[[-41.8071,-21.0121],[-41.8134,-21.0127],[-41.8078,-21.0122],[-41.8071,-21.0121]]]}},{"type":"Feature","properties":{"cod_imovel":"RJ-3300605-1BD6B9E0B0304727B0B12EC2F0A1EDA9","num_area":"4.1730000000000000000000000000000","ind_status":"AT"},"geometry":{"type":"Polygon","coordinates":[[[-41.5853,-21.3069],[-41.5832,-21.3045],[-41.5853,-21.3069],[-41.5853,-21.3069]],[[-41.5837,-21.3042],[-41.5812,-21.3019],[-41.5837,-21.3042],[-41.5837,-21.3042]],[[-41.569,-21.3119],[-41.5668,-21.3142],[-41.5691,-21.3121],[-41.569,-21.3119]]]}},{"type":"Feature","properties":{"cod_imovel":"RJ-3300605-92961A0EE7AA4C128CB5295609D573A3","num_area":"28.213800000000000000000000000000","ind_status":"AT"},"geometry":{"type":"Polygon","coordinates":[[[-41.7497,-20.986],[-41.7506,-20.9929],[-41.7546,-20.9914],[-41.7558,-20.9875],[-41.7511,-20.991],[-41.755,-20.9864],[-41.7504,-20.9897],[-41.7501,-20.9856],[-41.7497,-20.986]]]}},{"type":"Feature","properties":{"cod_imovel":"RJ-3300605-036A543E9F904292AFF4C5AEFD3BB50F","num_area":"151.07180000000000000000000000000","ind_status":"AT"},"geometry":{"type":"Polygon","coordinates":[[[-41.7781,-21.0614],[-41.7839,-21.0624],[-41.7846,-21.0587],[-41.7783,-21.061],[-41.7781,-21.0614]],[[-41.7894,-21.0467],[-41.7713,-21.0579],[-41.7866,-21.0543],[-41.7921,-21.0613],[-41.7947,-21.051],[-41.7895,-21.0467],[-41.7894,-21.0467]]]}},{"type":"Feature","properties":{"cod_imovel":"RJ-3300605-F29DC59E178442B891855A16723FD871","num_area":"10.567200000000000000000000000000","ind_status":"AT"},"geometry":{"type":"Polygon","coordinates":[[[-41.7432,-21.1032],[-41.7469,-21.1009],[-41.749,-21.106],[-41.7471,-21.1002],[-41.743,-21.1026],[-41.7432,-21.1032]]]}},{"type":"Feature","properties":{"cod_imovel":"RJ-3300605-D144DF5D5A7E437BA74087839192100D","num_area":"40.452000000000000000000000000000","ind_status":"AT"},"geometry":{"type":"Polygon","coordinates":[[[-41.7467,-21.0356],[-41.7452,-21.0438],[-41.7467,-21.036],[-41.7467,-21.0356]],[[-41.7524,-21.0401],[-41.7499,-21.0423],[-41.753,-21.0416],[-41.7524,-21.0401]],[[-41.7483,-21.0353],[-41.7487,-21.0392],[-41.7511,-21.0362],[-41.7483,-21.0353]],[[-41.7545,-21.0444],[-41.7505,-21.0481],[-41.7545,-21.0444],[-41.7545,-21.0444]],[[-41.7507,-21.0483],[-41.7545,-21.0444],[-41.7507,-21.048],[-41.7507,-21.0483]]]}},{"type":"Feature","properties":{"cod_imovel":"RJ-3300605-849CB40CB14C4FC890D3FA2E7ABE957A","num_area":"11.405700000000000000000000000000","ind_status":"AT"},"geometry":{"type":"Polygon","coordinates":[[[-41.7295,-21.1414],[-41.7225,-21.1446],[-41.7294,-21.1417],[-41.7295,-21.1414]]]}},{"type":"Feature","properties":{"cod_imovel":"RJ-3300605-2A8D1483A5D74CB0A3A23866845ADE29","num_area":"46.516700000000000000000000000000","ind_status":"AT"},"geometry":{"type":"Polygon","coordinates":[[[-41.5678,-21.2382],[-41.5725,-21.2386],[-41.5727,-21.2327],[-41.5671,-21.2379],[-41.5678,-21.2382]],[[-41.5783,-21.2444],[-41.5765,-21.2415],[-41.578,-21.2446],[-41.5783,-21.2444]],[[-41.5766,-21.2414],[-41.5755,-21.2453],[-41.5765,-21.2415],[-41.5766,-21.2414]]]}},{"type":"Feature","properties":{"cod_imovel":"RJ-3300605-AA4A8759E2EF4C17BDC7DB74E8F5A62B","num_area":"6.1972000000000000000000000000000","ind_status":"AT"},"geometry":{"type":"Polygon","coordinates":[[[-41.6725,-21.1555],[-41.6694,-21.1543],[-41.6726,-21.156],[-41.6725,-21.1555]]]}},{"type":"Feature","properties":{"cod_imovel":"RJ-3300605-C00FFE671BE44215A503956A25A9F262","num_area":"15.807000000000000000000000000000","ind_status":"AT"},"geometry":{"type":"Polygon","coordinates":[[[-41.7832,-21.0353],[-41.7774,-21.0376],[-41.7833,-21.0355],[-41.7832,-21.0353]]]}},{"type":"Feature","properties":{"cod_imovel":"RJ-3300605-2030E239FE6142379528B63B924E7604","num_area":"4.2201000000000000000000000000000","ind_status":"AT"},"geometry":{"type":"Polygon","coordinates":[[[-41.6228,-21.2382],[-41.6202,-21.2401],[-41.6228,-21.2383],[-41.6228,-21.2382]]]}},{"type":"Feature","properties":{"cod_imovel":"RJ-3300605-F1A2F4FE3EEF498A895AF53489F587D8","num_area":"5.2883000000000000000000000000000","ind_status":"AT"},"geometry":{"type":"Polygon","coordinates":[[[-41.6929,-21.243],[-41.6913,-21.2394],[-41.6927,-21.2429],[-41.6929,-21.243]]]}},{"type":"Feature","properties":{"cod_imovel":"RJ-3300605-9818921C3627448EA8DDE1E643682687","num_area":"67.602800000000000000000000000000","ind_status":"AT"},"geometry":{"type":"Polygon","coordinates":[[[-41.8194,-21.06],[-41.8163,-21.0601],[-41.8198,-21.0607],[-41.8194,-21.06]],[[-41.824,-21.0572],[-41.8305,-21.0577],[-41.824,-21.0572],[-41.824,-21.0572]],[[-41.8208,-21.0579],[-41.821,-21.0695],[-41.8251,-21.0643],[-41.8212,-21.0577],[-41.8208,-21.0579]]]}},{"type":"Feature","properties":{"cod_imovel":"RJ-3300605-C3B16687F1814F34BA4DFAD1A1F147B6","num_area":"24.872100000000000000000000000000","ind_status":"AT"},"geometry":{"type":"Polygon","coordinates":[[[-41.7878,-21.0185],[-41.7916,-21.015],[-41.7878,-21.0184],[-41.7878,-21.0185]]]}},{"type":"Feature","properties":{"cod_imovel":"RJ-3300605-5C0D51A3ADAF4A588BEA9A0AE35B1489","num_area":"8.3041000000000000000000000000000","ind_status":"AT"},"geometry":{"type":"Polygon","coordinates":[[[-41.7436,-21.1119],[-41.7452,-21.1091],[-41.7435,-21.112],[-41.7436,-21.1119]]]}},{"type":"Feature","properties":{"cod_imovel":"RJ-3300605-D1C15FB0AB7042CAB3A33976849C30A2","num_area":"147.35520000000000000000000000000","ind_status":"AT"},"geometry":{"type":"Polygon","coordinates":[[[-41.541,-21.2131],[-41.5408,-21.217],[-41.5448,-21.2155],[-41.5416,-21.2132],[-41.541,-21.2131]],[[-41.5684,-21.2204],[-41.5655,-21.2187],[-41.5659,-21.2245],[-41.5683,-21.2205],[-41.5684,-21.2204]],[[-41.5431,-21.2332],[-41.5482,-21.2264],[-41.5468,-21.2182],[-41.543,-21.2198],[-41.5446,-21.2245],[-41.5377,-21.2257],[-41.5425,-21.2186],[-41.537,-21.2216],[-41.5395,-21.2347],[-41.5426,-21.2331],[-41.5431,-21.2332]]]}},{"type":"Feature","properties":{"cod_imovel":"RJ-3300605-82891C5C8CFA457A93BC581FFC8B8327","num_area":"37.220700000000000000000000000000","ind_status":"AT"},"geometry":{"type":"Polygon","coordinates":[[[-41.5455,-21.2322],[-41.5531,-21.2292],[-41.5492,-21.226],[-41.5454,-21.232],[-41.5455,-21.2322]]]}},{"type":"Feature","properties":{"cod_imovel":"RJ-3300605-D4D693144003421DBE2D68D904408904","num_area":"8.3191000000000000000000000000000","ind_status":"AT"},"geometry":{"type":"Polygon","coordinates":[[[-41.7771,-21.0619],[-41.7739,-21.0641],[-41.7773,-21.0623],[-41.7771,-21.0619]],[[-41.7727,-21.0633],[-41.7695,-21.065],[-41.7729,-21.0635],[-41.7727,-21.0633]]]}},{"type":"Feature","properties":{"cod_imovel":"RJ-3300605-D78AE8370A414912BF6C3709CE1545B6","num_area":"35.807400000000000000000000000000","ind_status":"PE"},"geometry":{"type":"Polygon","coordinates":[[[-41.7437,-21.1008],[-41.7528,-21.102],[-41.7464,-21.0974],[-41.744,-21.0999],[-41.7437,-21.1008]],[[-41.7376,-21.096],[-41.7355,-21.0987],[-41.7376,-21.096],[-41.7376,-21.096]]]}},{"type":"Feature","properties":{"cod_imovel":"RJ-3300605-45BA32E51D5742D6816117A93D7F91AB","num_area":"9.7863000000000000000000000000000","ind_status":"AT"},"geometry":{"type":"Polygon","coordinates":[[[-41.81,-21.0525],[-41.8081,-21.0551],[-41.81,-21.0525],[-41.81,-21.0525]]]}},{"type":"Feature","properties":{"cod_imovel":"RJ-3300605-805CAF57EA6242A7B02215DF3A8FC1C2","num_area":"11.113800000000000000000000000000","ind_status":"AT"},"geometry":{"type":"Polygon","coordinates":[[[-41.8061,-21.0484],[-41.801,-21.0471],[-41.8063,-21.0486],[-41.8061,-21.0484]]]}},{"type":"Feature","properties":{"cod_imovel":"RJ-3300605-1DB98D4E0EB4434D92970F4C247DE1B8","num_area":"35.907100000000000000000000000000","ind_status":"AT"},"geometry":{"type":"Polygon","coordinates":[[[-41.6423,-21.2305],[-41.6486,-21.2234],[-41.6426,-21.2303],[-41.6423,-21.2305]]]}},{"type":"Feature","properties":{"cod_imovel":"RJ-3300605-0F6ACB88B18641869B0141F041E9C393","num_area":"13.144200000000000000000000000000","ind_status":"AT"},"geometry":{"type":"Polygon","coordinates":[[[-41.6365,-21.2246],[-41.6422,-21.2224],[-41.6368,-21.2247],[-41.6365,-21.2246]]]}},{"type":"Feature","properties":{"cod_imovel":"RJ-3300605-4907F3E8982B4C7895FA51AB539A71DE","num_area":"6.7998000000000000000000000000000","ind_status":"AT"},"geometry":{"type":"Polygon","coordinates":[[[-41.6357,-21.2491],[-41.6341,-21.2464],[-41.6356,-21.2493],[-41.6357,-21.2491]],[[-41.6296,-21.2459],[-41.6274,-21.2433],[-41.6294,-21.2458],[-41.6296,-21.2459]]]}},{"type":"Feature","properties":{"cod_imovel":"RJ-3300605-4D054EAFA6DE49C599BAACCF57DC9FBF","num_area":"9.8615000000000000000000000000000","ind_status":"AT"},"geometry":{"type":"Polygon","coordinates":[[[-41.523,-21.2314],[-41.5238,-21.2262],[-41.5221,-21.2315],[-41.523,-21.2314]],[[-41.5181,-21.2401],[-41.52,-21.2363],[-41.5181,-21.2399],[-41.5181,-21.2401]]]}},{"type":"Feature","properties":{"cod_imovel":"RJ-3300605-805A22C7EA3C4741B9750FDFFF496B12","num_area":"33.739200000000000000000000000000","ind_status":"AT"},"geometry":{"type":"Polygon","coordinates":[[[-41.7901,-21.117],[-41.7888,-21.1213],[-41.7957,-21.1209],[-41.7903,-21.1169],[-41.7901,-21.117]]]}},{"type":"Feature","properties":{"cod_imovel":"RJ-3300605-1451F687767F4EF3A018AAA523150DD2","num_area":"27.558200000000000000000000000000","ind_status":"AT"},"geometry":{"type":"Polygon","coordinates":[[[-41.7973,-21.1233],[-41.7905,-21.1265],[-41.7982,-21.1253],[-41.8,-21.1292],[-41.7974,-21.123],[-41.7973,-21.1233]],[[-41.7911,-21.1266],[-41.7989,-21.1288],[-41.7911,-21.1266],[-41.7911,-21.1266]]]}},{"type":"Feature","properties":{"cod_imovel":"RJ-3300605-924034F57E884C98BC224FF6C17C7084","num_area":"8.1276000000000000000000000000000","ind_status":"AT"},"geometry":{"type":"Polygon","coordinates":[[[-41.5347,-21.1944],[-41.5328,-21.1972],[-41.5358,-21.1947],[-41.5347,-21.1944]]]}},{"type":"Feature","properties":{"cod_imovel":"RJ-3300605-260D5A03D6FE4B5592A052546B080378","num_area":"30.414900000000000000000000000000","ind_status":"AT"},"geometry":{"type":"Polygon","coordinates":[[[-41.5572,-21.1969],[-41.5644,-21.1964],[-41.5603,-21.1961],[-41.5609,-21.192],[-41.5572,-21.1968],[-41.5572,-21.1969]]]}},{"type":"Feature","properties":{"cod_imovel":"RJ-3300605-79F9560E231A4920A2771F64B3CEC5B1","num_area":"21.947400000000000000000000000000","ind_status":"PE"},"geometry":{"type":"Polygon","coordinates":[[[-41.7276,-20.9893],[-41.7239,-20.9904],[-41.7269,-20.9886],[-41.7276,-20.9893]],[[-41.7264,-20.9923],[-41.7223,-20.9951],[-41.7264,-20.9924],[-41.7264,-20.9923]]]}},{"type":"Feature","properties":{"cod_imovel":"RJ-3300605-02BEA162E78E4D62A5C27459BF3BEE2C","num_area":"1.3537000000000000000000000000000","ind_status":"AT"},"geometry":{"type":"Polygon","coordinates":[[[-41.81,-21.115],[-41.812,-21.1176],[-41.8103,-21.1146],[-41.81,-21.115]]]}},{"type":"Feature","properties":{"cod_imovel":"RJ-3300605-092C750CA1744FB8817F143418B1F56A","num_area":"8.2263000000000000000000000000000","ind_status":"AT"},"geometry":{"type":"Polygon","coordinates":[[[-41.7493,-21.1686],[-41.7516,-21.1729],[-41.7495,-21.1687],[-41.7493,-21.1686]]]}},{"type":"Feature","properties":{"cod_imovel":"RJ-3300605-0F46802254984D6A9A193ABAED5BCF74","num_area":"5.2139000000000000000000000000000","ind_status":"AT"},"geometry":{"type":"Polygon","coordinates":[[[-41.8116,-21.0483],[-41.8105,-21.0515],[-41.8117,-21.0483],[-41.8116,-21.0483]]]}},{"type":"Feature","properties":{"cod_imovel":"RJ-3300605-137357F53FE94C78853991A33A984E68","num_area":"2.9260000000000000000000000000000","ind_status":"AT"},"geometry":{"type":"Polygon","coordinates":[[[-41.8091,-21.1078],[-41.8096,-21.1113],[-41.8095,-21.1077],[-41.8091,-21.1078]]]}},{"type":"Feature","properties":{"cod_imovel":"RJ-3300605-13D656FC34AB4DF8B3D2885EADFE9F83","num_area":"5.9623000000000000000000000000000","ind_status":"AT"},"geometry":{"type":"Polygon","coordinates":[[[-41.5906,-21.2778],[-41.6022,-21.2818],[-41.5918,-21.2782],[-41.5906,-21.2778]]]}},{"type":"Feature","properties":{"cod_imovel":"RJ-3300605-1663B4532EE748478F6B19D467988CF0","num_area":"15.667600000000000000000000000000","ind_status":"AT"},"geometry":{"type":"Polygon","coordinates":[[[-41.6566,-21.2108],[-41.6592,-21.2089],[-41.6567,-21.2108],[-41.6566,-21.2108]],[[-41.6566,-21.2109],[-41.6604,-21.2116],[-41.6567,-21.211],[-41.6566,-21.2109]]]}},{"type":"Feature","properties":{"cod_imovel":"RJ-3300605-194D519FA3A340A79F879A0C0C491134","num_area":"9.0280000000000000000000000000000","ind_status":"AT"},"geometry":{"type":"Polygon","coordinates":[[[-41.7544,-21.1358],[-41.7531,-21.133],[-41.7538,-21.1364],[-41.7544,-21.1358]]]}},{"type":"Feature","properties":{"cod_imovel":"RJ-3300605-210D0D75A92844AF9D6113BA982D62DC","num_area":"1.7398000000000000000000000000000","ind_status":"AT"},"geometry":{"type":"Polygon","coordinates":[[[-41.77,-21.0315],[-41.7721,-21.0294],[-41.7696,-21.0315],[-41.77,-21.0315]]]}},{"type":"Feature","properties":{"cod_imovel":"RJ-3300605-247EE88AE8B244568F89B4689A93EF5A","num_area":"31.536700000000000000000000000000","ind_status":"AT"},"geometry":{"type":"Polygon","coordinates":[[[-41.5658,-21.2815],[-41.5687,-21.2838],[-41.5671,-21.2809],[-41.5658,-21.2815]],[[-41.576,-21.2901],[-41.571,-21.2899],[-41.5759,-21.2902],[-41.576,-21.2901]]]}},{"type":"Feature","properties":{"cod_imovel":"RJ-3300605-2A584A881034418A992FB51CDF9755D8","num_area":"2.8212000000000000000000000000000","ind_status":"AT"},"geometry":{"type":"Polygon","coordinates":[[[-41.7982,-21.0528],[-41.8019,-21.0549],[-41.7986,-21.0519],[-41.7982,-21.0528]]]}},{"type":"Feature","properties":{"cod_imovel":"RJ-3300605-2D260106D8474EC59B169FD53813CAA2","num_area":"4.2139000000000000000000000000000","ind_status":"AT"},"geometry":{"type":"Polygon","coordinates":[[[-41.6606,-21.2046],[-41.6644,-21.2063],[-41.6621,-21.2038],[-41.6606,-21.2046]]]}},{"type":"Feature","properties":{"cod_imovel":"RJ-3300605-300A5490965C406784FC7F18D4BF3444","num_area":"5.1609000000000000000000000000000","ind_status":"AT"},"geometry":{"type":"Polygon","coordinates":[[[-41.7375,-21.0047],[-41.7402,-21.0029],[-41.7375,-21.0045],[-41.7375,-21.0047]]]}},{"type":"Feature","properties":{"cod_imovel":"RJ-3300605-30C7993AC4D1411AAFAE8BC28B45EE3B","num_area":"4.0834000000000000000000000000000","ind_status":"AT"},"geometry":{"type":"Polygon","coordinates":[[[-41.7127,-21.1621],[-41.7156,-21.1607],[-41.7128,-21.162],[-41.7127,-21.1621]]]}},{"type":"Feature","properties":{"cod_imovel":"RJ-3300605-310E0629AA194D46AEED813246C96443","num_area":"11.909200000000000000000000000000","ind_status":"AT"},"geometry":{"type":"Polygon","coordinates":[[[-41.6087,-21.267],[-41.6158,-21.2663],[-41.6091,-21.2668],[-41.6087,-21.267]]]}},{"type":"Feature","properties":{"cod_imovel":"RJ-3300605-35F3E9D8D35646EA9068132BF3EE5A2B","num_area":"5.6995000000000000000000000000000","ind_status":"AT"},"geometry":{"type":"Polygon","coordinates":[[[-41.6393,-21.1952],[-41.6427,-21.195],[-41.6394,-21.1951],[-41.6393,-21.1952]]]}},{"type":"Feature","properties":{"cod_imovel":"RJ-3300605-3602B732448C471D99FE704A992C7AE7","num_area":"17.023700000000000000000000000000","ind_status":"AT"},"geometry":{"type":"Polygon","coordinates":[[[-41.8383,-21.0511],[-41.8317,-21.0505],[-41.8376,-21.0514],[-41.8383,-21.0511]]]}},{"type":"Feature","properties":{"cod_imovel":"RJ-3300605-370D9036E6264B07948CE524E5DAE74B","num_area":"24.792400000000000000000000000000","ind_status":"AT"},"geometry":{"type":"Polygon","coordinates":[[[-41.7633,-21.1511],[-41.7553,-21.1474],[-41.7608,-21.1544],[-41.7626,-21.1514],[-41.7633,-21.1511]],[[-41.7552,-21.1473],[-41.7576,-21.1503],[-41.7552,-21.1474],[-41.7552,-21.1473]]]}},{"type":"Feature","properties":{"cod_imovel":"RJ-3300605-3B18903AB32342B0BC241E1BFE733307","num_area":"3.0040000000000000000000000000000","ind_status":"AT"},"geometry":{"type":"Polygon","coordinates":[[[-41.6999,-21.1836],[-41.6973,-21.1867],[-41.7001,-21.184],[-41.6999,-21.1836]]]}},{"type":"Feature","properties":{"cod_imovel":"RJ-3300605-3B4A47E09141469BAF13DC1F36587E29","num_area":"4.0260000000000000000000000000000","ind_status":"AT"},"geometry":{"type":"Polygon","coordinates":[[[-41.7084,-21.1681],[-41.7046,-21.1684],[-41.7084,-21.1682],[-41.7084,-21.1681]]]}},{"type":"Feature","properties":{"cod_imovel":"RJ-3300605-3B7E8015D6D843A7BD45DC7B9BB6AD86","num_area":"17.320100000000000000000000000000","ind_status":"AT"},"geometry":{"type":"Polygon","coordinates":[[[-41.778,-21.0975],[-41.7751,-21.0951],[-41.778,-21.0976],[-41.778,-21.0975]],[[-41.7776,-21.0985],[-41.7751,-21.0951],[-41.7777,-21.0984],[-41.7776,-21.0985]],[[-41.7839,-21.1039],[-41.7826,-21.1008],[-41.7839,-21.1039],[-41.7839,-21.1039]],[[-41.785,-21.1049],[-41.7811,-21.1056],[-41.7848,-21.1052],[-41.785,-21.1049]]]}},{"type":"Feature","properties":{"cod_imovel":"RJ-3300605-3C91C123292242DFB07E8459E3DEDBA1","num_area":"10.875300000000000000000000000000","ind_status":"AT"},"geometry":{"type":"Polygon","coordinates":[[[-41.7185,-20.9799],[-41.7208,-20.9748],[-41.7185,-20.9798],[-41.7185,-20.9799]]]}},{"type":"Feature","properties":{"cod_imovel":"RJ-3300605-3EA6DDD2F1A246F9A3FA90B7AD961DE9","num_area":"1.9012000000000000000000000000000","ind_status":"AT"},"geometry":{"type":"Polygon","coordinates":[[[-41.6596,-21.1526],[-41.6621,-21.1548],[-41.6581,-21.1499],[-41.6596,-21.1526],[-41.6596,-21.1526]]]}},{"type":"Feature","properties":{"cod_imovel":"RJ-3300605-3F30324878A64BD5A34CB4224F1B4133","num_area":"13.457600000000000000000000000000","ind_status":"AT"},"geometry":{"type":"Polygon","coordinates":[[[-41.6359,-21.2102],[-41.6327,-21.2108],[-41.6359,-21.2102],[-41.6359,-21.2102]]]}},{"type":"Feature","properties":{"cod_imovel":"RJ-3300605-3F55CA13D8E0439FBBB42EB1322611A7","num_area":"8.5452000000000000000000000000000","ind_status":"AT"},"geometry":{"type":"Polygon","coordinates":[[[-41.588,-21.1744],[-41.5928,-21.1738],[-41.5879,-21.1744],[-41.588,-21.1744]]]}},{"type":"Feature","properties":{"cod_imovel":"RJ-3300605-4056D9A80D2144638BA83D50DB3BB7D6","num_area":"0.8067000000000000000000000000000","ind_status":"AT"},"geometry":{"type":"Polygon","coordinates":[[[-41.7307,-20.8743],[-41.7286,-20.8786],[-41.7309,-20.8744],[-41.7307,-20.8743]]]}},{"type":"Feature","properties":{"cod_imovel":"RJ-3300605-44613AC73D92449CAE353868881E3E37","num_area":"8.7322000000000000000000000000000","ind_status":"AT"},"geometry":{"type":"Polygon","coordinates":[[[-41.7445,-21.1323],[-41.7431,-21.1295],[-41.7433,-21.1327],[-41.7445,-21.1323]]]}},{"type":"Feature","properties":{"cod_imovel":"RJ-3300605-453CDACA7A4C4216988A3AC9CF2A9DA4","num_area":"45.554400000000000000000000000000","ind_status":"AT"},"geometry":{"type":"Polygon","coordinates":[[[-41.7474,-20.9094],[-41.7447,-20.9151],[-41.7484,-20.9148],[-41.7474,-20.9094],[-41.7474,-20.9094]],[[-41.7429,-20.9125],[-41.7388,-20.9186],[-41.7431,-20.9127],[-41.7429,-20.9125]]]}},{"type":"Feature","properties":{"cod_imovel":"RJ-3300605-50E77D42133841AEAD974C2F3700A07B","num_area":"18.760000000000000000000000000000","ind_status":"AT"},"geometry":{"type":"Polygon","coordinates":[[[-41.7745,-21.0089],[-41.7757,-21.0022],[-41.7744,-21.0089],[-41.7745,-21.0089]]]}},{"type":"Feature","properties":{"cod_imovel":"RJ-3300605-513DEA36A6FB427FBC5A3B6CEDEF8CB3","num_area":"71.912500000000000000000000000000","ind_status":"AT"},"geometry":{"type":"Polygon","coordinates":[[[-41.5387,-21.2405],[-41.5301,-21.248],[-41.5382,-21.2435],[-41.5387,-21.2405]],[[-41.5209,-21.2544],[-41.526,-21.2555],[-41.5289,-21.2496],[-41.5169,-21.2505],[-41.5204,-21.2544],[-41.5209,-21.2544]]]}},{"type":"Feature","properties":{"cod_imovel":"RJ-3300605-52097D3A4B6B40AAB45CCD1141BFCDA7","num_area":"18.634000000000000000000000000000","ind_status":"AT"},"geometry":{"type":"Polygon","coordinates":[[[-41.7584,-20.9917],[-41.7509,-20.9929],[-41.7527,-20.9958],[-41.7585,-20.9919],[-41.7584,-20.9917]]]}},{"type":"Feature","properties":{"cod_imovel":"RJ-3300605-52764666755F4F10A383F3A17FE4867D","num_area":"9.4073000000000000000000000000000","ind_status":"AT"},"geometry":{"type":"Polygon","coordinates":[[[-41.7645,-21.0587],[-41.7669,-21.0563],[-41.7645,-21.0586],[-41.7645,-21.0587]]]}},{"type":"Feature","properties":{"cod_imovel":"RJ-3300605-54900C66A2DA4C178347990942E5BBE0","num_area":"5.1830000000000000000000000000000","ind_status":"AT"},"geometry":{"type":"Polygon","coordinates":[[[-41.6993,-21.1617],[-41.7032,-21.1628],[-41.6992,-21.1617],[-41.6993,-21.1617]]]}},{"type":"Feature","properties":{"cod_imovel":"RJ-3300605-5704B635C66B447E9667F1A681881CB8","num_area":"6.8186000000000000000000000000000","ind_status":"AT"},"geometry":{"type":"Polygon","coordinates":[[[-41.7244,-21.0109],[-41.7282,-21.0111],[-41.7244,-21.0107],[-41.7244,-21.0109]]]}},{"type":"Feature","properties":{"cod_imovel":"RJ-3300605-5728E596FB7241B3AB1E63793E6F455E","num_area":"4.6644000000000000000000000000000","ind_status":"AT"},"geometry":{"type":"Polygon","coordinates":[[[-41.5163,-21.2503],[-41.5199,-21.2489],[-41.5163,-21.2501],[-41.5163,-21.2503]]]}},{"type":"Feature","properties":{"cod_imovel":"RJ-3300605-5B9B0C1880234F1A9D2726A4C6FEA8CD","num_area":"3.9272000000000000000000000000000","ind_status":"AT"},"geometry":{"type":"Polygon","coordinates":[[[-41.7173,-21.1817],[-41.7144,-21.1794],[-41.7168,-21.1816],[-41.7173,-21.1817]]]}},{"type":"Feature","properties":{"cod_imovel":"RJ-3300605-5CCFD364DE0743668B9B10F091060056","num_area":"40.795500000000000000000000000000","ind_status":"AT"},"geometry":{"type":"Polygon","coordinates":[[[-41.8383,-21.0627],[-41.8363,-21.0651],[-41.8383,-21.0627],[-41.8383,-21.0627]],[[-41.8443,-21.0641],[-41.8414,-21.0629],[-41.8442,-21.0642],[-41.8443,-21.0641]],[[-41.8412,-21.0741],[-41.8432,-21.0682],[-41.8384,-21.0692],[-41.8414,-21.0739],[-41.8412,-21.0741]],[[-41.8437,-21.0614],[-41.8388,-21.0567],[-41.8386,-21.0612],[-41.8407,-21.0578],[-41.8433,-21.0611],[-41.8437,-21.0614]]]}},{"type":"Feature","properties":{"cod_imovel":"RJ-3300605-64CC43AEA3D945F4918708AE799D24D6","num_area":"12.789100000000000000000000000000","ind_status":"AT"},"geometry":{"type":"Polygon","coordinates":[[[-41.5395,-21.2325],[-41.536,-21.235],[-41.5399,-21.2334],[-41.5395,-21.2325]]]}},{"type":"Feature","properties":{"cod_imovel":"RJ-3300605-65B0D07450664618BD2834D9730D367A","num_area":"7.5778000000000000000000000000000","ind_status":"AT"},"geometry":{"type":"Polygon","coordinates":[[[-41.7427,-20.8804],[-41.7464,-20.8792],[-41.7423,-20.8801],[-41.7427,-20.8804]]]}},{"type":"Feature","properties":{"cod_imovel":"RJ-3300605-67EDFC04C02846C88719FC0B5C994963","num_area":"5.5908000000000000000000000000000","ind_status":"AT"},"geometry":{"type":"Polygon","coordinates":[[[-41.736,-21.0913],[-41.7408,-21.0912],[-41.736,-21.0911],[-41.736,-21.0913]]]}},{"type":"Feature","properties":{"cod_imovel":"RJ-3300605-6AAE5592816043DC8AF022A80B2715B4","num_area":"33.665700000000000000000000000000","ind_status":"AT"},"geometry":{"type":"Polygon","coordinates":[[[-41.6952,-21.1462],[-41.6985,-21.1451],[-41.6951,-21.146],[-41.6952,-21.1462]],[[-41.704,-21.1466],[-41.6997,-21.1475],[-41.7038,-21.1466],[-41.704,-21.1466]],[[-41.7029,-21.1378],[-41.6995,-21.1389],[-41.703,-21.1379],[-41.7029,-21.1378]],[[-41.7027,-21.1377],[-41.6973,-21.1382],[-41.7028,-21.1377],[-41.7027,-21.1377]],[[-41.6969,-21.1403],[-41.6988,-21.1428],[-41.6969,-21.1402],[-41.6969,-21.1403]]]}},{"type":"Feature","properties":{"cod_imovel":"RJ-3300605-6CFFE255DD6C4BAC87342EBB016CF59A","num_area":"19.446200000000000000000000000000","ind_status":"AT"},"geometry":{"type":"Polygon","coordinates":[[[-41.7232,-21.1415],[-41.7291,-21.1387],[-41.7229,-21.141],[-41.7232,-21.1415]]]}},{"type":"Feature","properties":{"cod_imovel":"RJ-3300605-6E187CDF022742359D8649B7C139BA68","num_area":"8.9881000000000000000000000000000","ind_status":"AT"},"geometry":{"type":"Polygon","coordinates":[[[-41.6888,-21.1903],[-41.6887,-21.1936],[-41.689,-21.1905],[-41.6888,-21.1903]]]}},{"type":"Feature","properties":{"cod_imovel":"RJ-3300605-7009BFC6BCBA49EE91F164B3C207B287","num_area":"8.0854000000000000000000000000000","ind_status":"AT"},"geometry":{"type":"Polygon","coordinates":[[[-41.707,-21.1881],[-41.7043,-21.1862],[-41.707,-21.1886],[-41.707,-21.1881]]]}},{"type":"Feature","properties":{"cod_imovel":"RJ-3300605-728BD8AB6E28495EBFD4F5CE38F97ABE","num_area":"3.5977000000000000000000000000000","ind_status":"AT"},"geometry":{"type":"Polygon","coordinates":[[[-41.7202,-21.1647],[-41.7178,-21.1666],[-41.7202,-21.1647],[-41.7202,-21.1647]]]}},{"type":"Feature","properties":{"cod_imovel":"RJ-3300605-73D79ED1FFA64972952F5275D5876172","num_area":"0.8409000000000000000000000000000","ind_status":"AT"},"geometry":{"type":"Polygon","coordinates":[[[-41.5881,-21.2168],[-41.5848,-21.2183],[-41.5881,-21.2169],[-41.5881,-21.2168]],[[-41.5881,-21.2169],[-41.5847,-21.2182],[-41.5881,-21.2169],[-41.5881,-21.2169]]]}},{"type":"Feature","properties":{"cod_imovel":"RJ-3300605-755059BCDB3E42E194742016AABD4A74","num_area":"11.573000000000000000000000000000","ind_status":"AT"},"geometry":{"type":"Polygon","coordinates":[[[-41.687,-21.2053],[-41.685,-21.2084],[-41.6874,-21.2053],[-41.687,-21.2053]]]}},{"type":"Feature","properties":{"cod_imovel":"RJ-3300605-7E799206F73C403E9515AB7D04DE85D3","num_area":"8.2631000000000000000000000000000","ind_status":"AT"},"geometry":{"type":"Polygon","coordinates":[[[-41.8165,-21.0732],[-41.82,-21.0715],[-41.8168,-21.073],[-41.8165,-21.0732]],[[-41.8267,-21.0626],[-41.8239,-21.0665],[-41.8262,-21.0631],[-41.8267,-21.0626]],[[-41.8285,-21.0693],[-41.8238,-21.0683],[-41.8276,-21.0692],[-41.8285,-21.0693]]]}},{"type":"Feature","properties":{"cod_imovel":"RJ-3300605-7F6C576317C44118A7AF5CF42B27CD08","num_area":"27.633000000000000000000000000000","ind_status":"AT"},"geometry":{"type":"Polygon","coordinates":[[[-41.8111,-21.0681],[-41.8179,-21.067],[-41.8167,-21.0635],[-41.8109,-21.0665],[-41.8111,-21.0681]]]}},{"type":"Feature","properties":{"cod_imovel":"RJ-3300605-81EBC02F0DD74843A7FA9E26206666C3","num_area":"4.1327000000000000000000000000000","ind_status":"AT"},"geometry":{"type":"Polygon","coordinates":[[[-41.8071,-21.0484],[-41.8106,-21.047],[-41.8073,-21.0481],[-41.8071,-21.0484]]]}},{"type":"Feature","properties":{"cod_imovel":"RJ-3300605-83A33FEEFF8C4658AC0109540A7BD998","num_area":"4.2860000000000000000000000000000","ind_status":"AT"},"geometry":{"type":"Polygon","coordinates":[[[-41.7536,-21.1228],[-41.7572,-21.1207],[-41.7534,-21.1228],[-41.7536,-21.1228]]]}},{"type":"Feature","properties":{"cod_imovel":"RJ-3300605-8AD10B48236E47E8857CCDD5B7DD5478","num_area":"5.9061000000000000000000000000000","ind_status":"AT"},"geometry":{"type":"Polygon","coordinates":[[[-41.7512,-20.9843],[-41.7491,-20.9865],[-41.7513,-20.9843],[-41.7512,-20.9843]]]}},{"type":"Feature","properties":{"cod_imovel":"RJ-3300605-8EED31EC260743DDB1FDEEE75A19E098","num_area":"8.7166000000000000000000000000000","ind_status":"AT"},"geometry":{"type":"Polygon","coordinates":[[[-41.6017,-21.1995],[-41.6056,-21.1975],[-41.6024,-21.1985],[-41.6017,-21.1995]]]}},{"type":"Feature","properties":{"cod_imovel":"RJ-3300605-9135DE1F07BB4FECBB553257734515B3","num_area":"6.4027000000000000000000000000000","ind_status":"AT"},"geometry":{"type":"Polygon","coordinates":[[[-41.7975,-21.0537],[-41.8023,-21.0556],[-41.7985,-21.0533],[-41.7975,-21.0537]]]}},{"type":"Feature","properties":{"cod_imovel":"RJ-3300605-928A578641304BD5A897E550C75B3684","num_area":"12.150200000000000000000000000000","ind_status":"AT"},"geometry":{"type":"Polygon","coordinates":[[[-41.7399,-20.9009],[-41.7438,-20.9054],[-41.7411,-20.9],[-41.7399,-20.9009]]]}},{"type":"Feature","properties":{"cod_imovel":"RJ-3300605-94EA6665EC82482B9EC5AF66D2D9A07A","num_area":"66.980900000000000000000000000000","ind_status":"AT"},"geometry":{"type":"Polygon","coordinates":[[[-41.8035,-21.0575],[-41.8004,-21.06],[-41.803,-21.0577],[-41.8035,-21.0575]],[[-41.8079,-21.0627],[-41.805,-21.0602],[-41.8033,-21.0647],[-41.809,-21.068],[-41.8108,-21.0599],[-41.8068,-21.0585],[-41.808,-21.0626],[-41.8079,-21.0627]],[[-41.8046,-21.0577],[-41.803,-21.0653],[-41.8047,-21.0579],[-41.8046,-21.0577]]]}},{"type":"Feature","properties":{"cod_imovel":"RJ-3300605-966570849D894A2493CA05C30A2F8F53","num_area":"31.413600000000000000000000000000","ind_status":"AT"},"geometry":{"type":"Polygon","coordinates":[[[-41.6459,-21.2362],[-41.6428,-21.238],[-41.6456,-21.2417],[-41.6472,-21.2366],[-41.6459,-21.2362]],[[-41.6531,-21.241],[-41.6546,-21.2379],[-41.6527,-21.2406],[-41.6531,-21.241]],[[-41.6477,-21.2432],[-41.6501,-21.2413],[-41.6476,-21.243],[-41.6477,-21.2432]],[[-41.6417,-21.2387],[-41.6455,-21.2432],[-41.6431,-21.2401],[-41.6417,-21.2387]]]}},{"type":"Feature","properties":{"cod_imovel":"RJ-3300605-9685BE1B0BEE4839B780B03EAF4EC190","num_area":"18.740500000000000000000000000000","ind_status":"AT"},"geometry":{"type":"Polygon","coordinates":[[[-41.7913,-21.0848],[-41.7834,-21.0863],[-41.7911,-21.0852],[-41.7913,-21.0848]]]}},{"type":"Feature","properties":{"cod_imovel":"RJ-3300605-9865002A5BE44E5AB4CB3C84E939E8E9","num_area":"44.820500000000000000000000000000","ind_status":"AT"},"geometry":{"type":"Polygon","coordinates":[[[-41.7894,-20.996],[-41.7904,-21.0001],[-41.7901,-20.9962],[-41.7894,-20.996]],[[-41.792,-21.0127],[-41.794,-21.0167],[-41.7974,-21.0127],[-41.7924,-21.0119],[-41.792,-21.0127]]]}},{"type":"Feature","properties":{"cod_imovel":"RJ-3300605-9C222A89D0CE4BE7AFB3A1182339C273","num_area":"8.0056000000000000000000000000000","ind_status":"AT"},"geometry":{"type":"Polygon","coordinates":[[[-41.7501,-20.8847],[-41.7534,-20.8823],[-41.7502,-20.8846],[-41.7501,-20.8847]]]}},{"type":"Feature","properties":{"cod_imovel":"RJ-3300605-9C7D0CE70BFE45D5AD4FC4CAA6C2934B","num_area":"20.082700000000000000000000000000","ind_status":"AT"},"geometry":{"type":"Polygon","coordinates":[[[-41.7599,-20.9153],[-41.7638,-20.9129],[-41.7609,-20.908],[-41.7596,-20.9152],[-41.7599,-20.9153]]]}},{"type":"Feature","properties":{"cod_imovel":"RJ-3300605-9D827242D3BC4683ADB82416576F1D93","num_area":"36.890200000000000000000000000000","ind_status":"AT"},"geometry":{"type":"Polygon","coordinates":[[[-41.5867,-21.3037],[-41.5934,-21.3018],[-41.5852,-21.3024],[-41.5867,-21.3037]],[[-41.5995,-21.2912],[-41.5977,-21.2873],[-41.5956,-21.29],[-41.5998,-21.2918],[-41.5995,-21.2912]]]}},{"type":"Feature","properties":{"cod_imovel":"RJ-3300605-A0635FA760B84FC4AEEDDC28A7C11252","num_area":"13.304200000000000000000000000000","ind_status":"AT"},"geometry":{"type":"Polygon","coordinates":[[[-41.709,-21.175],[-41.7122,-21.1731],[-41.709,-21.1748],[-41.709,-21.175]]]}},{"type":"Feature","properties":{"cod_imovel":"RJ-3300605-A50DB0E105C3423A830552D440389EA5","num_area":"30.529100000000000000000000000000","ind_status":"AT"},"geometry":{"type":"Polygon","coordinates":[[[-41.7891,-20.9379],[-41.7863,-20.9392],[-41.7895,-20.9383],[-41.7891,-20.9379]],[[-41.7812,-20.9473],[-41.7939,-20.9428],[-41.7814,-20.9473],[-41.7812,-20.9473]]]}},{"type":"Feature","properties":{"cod_imovel":"RJ-3300605-AEAD3049914241F9AF5A002E8F3FB9EF","num_area":"12.363500000000000000000000000000","ind_status":"AT"},"geometry":{"type":"Polygon","coordinates":[[[-41.5876,-21.3034],[-41.5867,-21.3078],[-41.589,-21.3043],[-41.5876,-21.3034]]]}},{"type":"Feature","properties":{"cod_imovel":"RJ-3300605-B4163356EF3445D7875B7FB2C2BB6CA1","num_area":"31.247700000000000000000000000000","ind_status":"AT"},"geometry":{"type":"Polygon","coordinates":[[[-41.7621,-20.9409],[-41.7685,-20.9379],[-41.7671,-20.9346],[-41.7612,-20.9397],[-41.7621,-20.9409]],[[-41.7622,-20.9305],[-41.7596,-20.9338],[-41.7622,-20.931],[-41.7622,-20.9305]]]}},{"type":"Feature","properties":{"cod_imovel":"RJ-3300605-B574F093EAE14ED6A77AC312ABF5CA83","num_area":"8.4823000000000000000000000000000","ind_status":"AT"},"geometry":{"type":"Polygon","coordinates":[[[-41.7796,-21.0253],[-41.7831,-21.0291],[-41.7799,-21.0255],[-41.7796,-21.0253]]]}},{"type":"Feature","properties":{"cod_imovel":"RJ-3300605-B55D0C65C41D47CCA8842056F9E270F9","num_area":"19.177900000000000000000000000000","ind_status":"AT"},"geometry":{"type":"Polygon","coordinates":[[[-41.6889,-21.1767],[-41.6885,-21.1727],[-41.6884,-21.1763],[-41.6889,-21.1767]],[[-41.6874,-21.1719],[-41.6835,-21.1703],[-41.6857,-21.1753],[-41.6874,-21.1723],[-41.6874,-21.1719]]]}},{"type":"Feature","properties":{"cod_imovel":"RJ-3300605-B82BCD51CE5442AAA52ADCED4A634730","num_area":"13.387500000000000000000000000000","ind_status":"AT"},"geometry":{"type":"Polygon","coordinates":[[[-41.7701,-21.0468],[-41.7715,-21.0434],[-41.7662,-21.0448],[-41.7701,-21.0469],[-41.7701,-21.0468]]]}},{"type":"Feature","properties":{"cod_imovel":"RJ-3300605-B94859C906A7487C9C7AFDA20F45CA9B","num_area":"2.0759000000000000000000000000000","ind_status":"AT"},"geometry":{"type":"Polygon","coordinates":[[[-41.7753,-20.9591],[-41.7731,-20.9616],[-41.7753,-20.9591],[-41.7753,-20.9591]]]}},{"type":"Feature","properties":{"cod_imovel":"RJ-3300605-BCE5D68D00E24E8783CE42B8A05A3486","num_area":"9.7420000000000000000000000000000","ind_status":"AT"},"geometry":{"type":"Polygon","coordinates":[[[-41.7,-21.2122],[-41.697,-21.2136],[-41.7001,-21.2123],[-41.7,-21.2122]]]}},{"type":"Feature","properties":{"cod_imovel":"RJ-3300605-BFB71AC8C12C4D97903AB8BF41D7D74D","num_area":"7.2822000000000000000000000000000","ind_status":"AT"},"geometry":{"type":"Polygon","coordinates":[[[-41.7437,-20.8767],[-41.7423,-20.88],[-41.7456,-20.8775],[-41.7437,-20.8767]]]}},{"type":"Feature","properties":{"cod_imovel":"RJ-3300605-BE85F450B2224E5093F8D38889750B87","num_area":"13.057200000000000000000000000000","ind_status":"AT"},"geometry":{"type":"Polygon","coordinates":[[[-41.771,-21.0861],[-41.7752,-21.0856],[-41.7707,-21.0863],[-41.771,-21.0861]],[[-41.7781,-21.0877],[-41.7799,-21.0849],[-41.7773,-21.0879],[-41.7781,-21.0877]]]}},{"type":"Feature","properties":{"cod_imovel":"RJ-3300605-BFC3457300704EDB9F0B9F08C6CF3C5B","num_area":"4.0138000000000000000000000000000","ind_status":"AT"},"geometry":{"type":"Polygon","coordinates":[[[-41.8015,-20.9993],[-41.7978,-20.999],[-41.8015,-20.9993],[-41.8015,-20.9993]]]}},{"type":"Feature","properties":{"cod_imovel":"RJ-3300605-C2E2E5DA9BCB4D3698A56815F5E35969","num_area":"9.4422000000000000000000000000000","ind_status":"AT"},"geometry":{"type":"Polygon","coordinates":[[[-41.8018,-21.036],[-41.7987,-21.0372],[-41.8022,-21.0358],[-41.8018,-21.036]]]}},{"type":"Feature","properties":{"cod_imovel":"RJ-3300605-C49BC60FEA744EEA97E926779EA61F34","num_area":"16.964500000000000000000000000000","ind_status":"AT"},"geometry":{"type":"Polygon","coordinates":[[[-41.7241,-21.1706],[-41.7293,-21.1661],[-41.7201,-21.1681],[-41.7241,-21.1706],[-41.7241,-21.1706]]]}},{"type":"Feature","properties":{"cod_imovel":"RJ-3300605-C539156B0C1D4138B9230A8712DB3F64","num_area":"2.4478000000000000000000000000000","ind_status":"AT"},"geometry":{"type":"Polygon","coordinates":[[[-41.7803,-21.0489],[-41.7852,-21.0487],[-41.7806,-21.0488],[-41.7803,-21.0489]],[[-41.7767,-21.0493],[-41.7741,-21.0517],[-41.7767,-21.0493],[-41.7767,-21.0493]],[[-41.7738,-21.052],[-41.77,-21.0539],[-41.7737,-21.052],[-41.7738,-21.052]]]}},{"type":"Feature","properties":{"cod_imovel":"RJ-3300605-C628A02FAE174DE3A9001ED70C9E6537","num_area":"30.672400000000000000000000000000","ind_status":"AT"},"geometry":{"type":"Polygon","coordinates":[[[-41.7734,-21.0457],[-41.7734,-21.0406],[-41.7734,-21.0456],[-41.7734,-21.0457]],[[-41.7827,-21.0361],[-41.7822,-21.043],[-41.7828,-21.036],[-41.7827,-21.0361]],[[-41.782,-21.0432],[-41.7768,-21.0446],[-41.7818,-21.0434],[-41.782,-21.0432]]]}},{"type":"Feature","properties":{"cod_imovel":"RJ-3300605-CB77B376E63A4EA488FFBE3F881AC007","num_area":"31.266700000000000000000000000000","ind_status":"AT"},"geometry":{"type":"Polygon","coordinates":[[[-41.5323,-21.2158],[-41.537,-21.2164],[-41.5318,-21.2162],[-41.5323,-21.2158]],[[-41.529,-21.2152],[-41.5259,-21.2188],[-41.5289,-21.2153],[-41.529,-21.2152]],[[-41.5279,-21.2221],[-41.5318,-21.225],[-41.5278,-21.2204],[-41.5251,-21.2239],[-41.5278,-21.222],[-41.5279,-21.2221]]]}},{"type":"Feature","properties":{"cod_imovel":"RJ-3300605-CCC78B86B7FF4573B3338BD8F1CD68DE","num_area":"3.9502000000000000000000000000000","ind_status":"AT"},"geometry":{"type":"Polygon","coordinates":[[[-41.7749,-20.9052],[-41.78,-20.905],[-41.7749,-20.9049],[-41.7749,-20.9052]]]}},{"type":"Feature","properties":{"cod_imovel":"RJ-3300605-CFC57D1BC1834A62A97C833A387695E6","num_area":"47.828700000000000000000000000000","ind_status":"AT"},"geometry":{"type":"Polygon","coordinates":[[[-41.7997,-21.0459],[-41.795,-21.0402],[-41.7905,-21.0453],[-41.7947,-21.051],[-41.7993,-21.0465],[-41.7974,-21.0426],[-41.7997,-21.0459],[-41.7997,-21.0459]]]}},{"type":"Feature","properties":{"cod_imovel":"RJ-3300605-D087F808689346D7941AC9C794CC3830","num_area":"2.1923000000000000000000000000000","ind_status":"AT"},"geometry":{"type":"Polygon","coordinates":[[[-41.7317,-20.8769],[-41.7347,-20.8757],[-41.7294,-20.8793],[-41.7317,-20.8769]]]}},{"type":"Feature","properties":{"cod_imovel":"RJ-3300605-D16BFCDCFD44451E8108D4660CE60C1A","num_area":"5.8328000000000000000000000000000","ind_status":"AT"},"geometry":{"type":"Polygon","coordinates":[[[-41.6575,-21.1975],[-41.6604,-21.1987],[-41.6575,-21.1973],[-41.6575,-21.1975]]]}},{"type":"Feature","properties":{"cod_imovel":"RJ-3300605-D1D6F318CD354B898E7B856A04881BF0","num_area":"3.4095000000000000000000000000000","ind_status":"AT"},"geometry":{"type":"Polygon","coordinates":[[[-41.7389,-21.1127],[-41.7417,-21.1156],[-41.7386,-21.1105],[-41.7344,-21.1119],[-41.7389,-21.1127],[-41.7389,-21.1127]]]}},{"type":"Feature","properties":{"cod_imovel":"RJ-3300605-D7E6FA4E51124878A1FA64B9771DD6F3","num_area":"8.3959000000000000000000000000000","ind_status":"AT"},"geometry":{"type":"Polygon","coordinates":[[[-41.7451,-20.9837],[-41.7468,-20.9797],[-41.7451,-20.9837],[-41.7451,-20.9837]]]}},{"type":"Feature","properties":{"cod_imovel":"RJ-3300605-D86053B9E9044BF2902CCE34D4CE4F54","num_area":"10.032900000000000000000000000000","ind_status":"AT"},"geometry":{"type":"Polygon","coordinates":[[[-41.753,-21.0228],[-41.7506,-21.0246],[-41.7533,-21.0228],[-41.753,-21.0228]],[[-41.7523,-21.0263],[-41.7498,-21.0313],[-41.7522,-21.0264],[-41.7523,-21.0263]],[[-41.7521,-21.0262],[-41.7497,-21.0313],[-41.7519,-21.0264],[-41.7521,-21.0262]]]}},{"type":"Feature","properties":{"cod_imovel":"RJ-3300605-D8C2E38CC6854038B9137311643AEB42","num_area":"14.763600000000000000000000000000","ind_status":"AT"},"geometry":{"type":"Polygon","coordinates":[[[-41.7343,-21.131],[-41.7366,-21.1267],[-41.732,-21.1265],[-41.7343,-21.131],[-41.7343,-21.131]]]}},{"type":"Feature","properties":{"cod_imovel":"RJ-3300605-DA1B3A090A9043BBA1E9AB9903DF1233","num_area":"5.9644000000000000000000000000000","ind_status":"AT"},"geometry":{"type":"Polygon","coordinates":[[[-41.804,-21.0154],[-41.8072,-21.0122],[-41.8036,-21.0155],[-41.804,-21.0154]]]}},{"type":"Feature","properties":{"cod_imovel":"RJ-3300605-DAA47CAA845248A597FB731DBFB6E721","num_area":"26.110600000000000000000000000000","ind_status":"AT"},"geometry":{"type":"Polygon","coordinates":[[[-41.4792,-21.212],[-41.4753,-21.2111],[-41.4793,-21.2121],[-41.4792,-21.212]],[[-41.4765,-21.2153],[-41.4766,-21.2121],[-41.4764,-21.2155],[-41.4765,-21.2153]],[[-41.4766,-21.2144],[-41.4805,-21.2152],[-41.4766,-21.214],[-41.4766,-21.2144]],[[-41.4806,-21.2141],[-41.484,-21.2122],[-41.4793,-21.212],[-41.4835,-21.2122],[-41.4809,-21.2148],[-41.4806,-21.2141]],[[-41.4895,-21.2163],[-41.4827,-21.2153],[-41.4895,-21.2163],[-41.4895,-21.2163]],[[-41.4895,-21.216],[-41.4844,-21.2142],[-41.4895,-21.216],[-41.4895,-21.216]],[[-41.4882,-21.2066],[-41.4882,-21.2107],[-41.4883,-21.2048],[-41.4882,-21.2066]]]}},{"type":"Feature","properties":{"cod_imovel":"RJ-3300605-DDBECB50E67C4B7FA35447111AB33C9C","num_area":"27.853000000000000000000000000000","ind_status":"AT"},"geometry":{"type":"Polygon","coordinates":[[[-41.7544,-20.9981],[-41.7507,-21.0039],[-41.7594,-21.003],[-41.7562,-20.9993],[-41.7544,-20.9981]]]}},{"type":"Feature","properties":{"cod_imovel":"RJ-3300605-DDE0CD512B364B46BE7E2C07918005D5","num_area":"2.4930000000000000000000000000000","ind_status":"AT"},"geometry":{"type":"Polygon","coordinates":[[[-41.7916,-21.0177],[-41.795,-21.0194],[-41.7916,-21.0176],[-41.7916,-21.0177]]]}},{"type":"Feature","properties":{"cod_imovel":"RJ-3300605-DDF7A77A7E5B48528A057A2073DD0726","num_area":"17.779800000000000000000000000000","ind_status":"AT"},"geometry":{"type":"Polygon","coordinates":[[[-41.7703,-21.031],[-41.7778,-21.0272],[-41.7709,-21.0309],[-41.7703,-21.031]]]}},{"type":"Feature","properties":{"cod_imovel":"RJ-3300605-DEACD209221C4BFAA4BA86274C39C067","num_area":"10.427100000000000000000000000000","ind_status":"AT"},"geometry":{"type":"Polygon","coordinates":[[[-41.6412,-21.2395],[-41.6375,-21.2366],[-41.6402,-21.239],[-41.6412,-21.2395]]]}},{"type":"Feature","properties":{"cod_imovel":"RJ-3300605-DF4DBABC110A447E93D4D386E46749CC","num_area":"27.284700000000000000000000000000","ind_status":"AT"},"geometry":{"type":"Polygon","coordinates":[[[-41.6647,-21.2281],[-41.6614,-21.2265],[-41.6645,-21.2288],[-41.6647,-21.2281]],[[-41.6578,-21.2315],[-41.6613,-21.2311],[-41.6579,-21.2313],[-41.6578,-21.2315]],[[-41.6612,-21.2266],[-41.6574,-21.2243],[-41.6612,-21.2267],[-41.6612,-21.2266]],[[-41.6534,-21.2125],[-41.6519,-21.2156],[-41.6534,-21.2124],[-41.6534,-21.2125]]]}},{"type":"Feature","properties":{"cod_imovel":"RJ-3300605-E20903580A764AA7AB6F03315560CC81","num_area":"46.688600000000000000000000000000","ind_status":"AT"},"geometry":{"type":"Polygon","coordinates":[[[-41.8126,-21.0224],[-41.8066,-21.0237],[-41.8126,-21.0225],[-41.8126,-21.0224]],[[-41.824,-21.0365],[-41.8282,-21.0338],[-41.8237,-21.0299],[-41.817,-21.0356],[-41.8247,-21.0325],[-41.824,-21.0364],[-41.824,-21.0365]],[[-41.817,-21.0356],[-41.8212,-21.034],[-41.817,-21.0356],[-41.817,-21.0356]]]}},{"type":"Feature","properties":{"cod_imovel":"RJ-3300605-E4DAAB9E42684AF3892F7CA1E21CFF82","num_area":"23.314900000000000000000000000000","ind_status":"AT"},"geometry":{"type":"Polygon","coordinates":[[[-41.7897,-21.0846],[-41.793,-21.0815],[-41.7847,-21.0806],[-41.7889,-21.0845],[-41.7897,-21.0846]]]}},{"type":"Feature","properties":{"cod_imovel":"RJ-3300605-E71E0A1F09A04C7DA00FE2A8FADDDC99","num_area":"45.933500000000000000000000000000","ind_status":"AT"},"geometry":{"type":"Polygon","coordinates":[[[-41.6422,-21.2178],[-41.6376,-21.2159],[-41.6367,-21.2233],[-41.6422,-21.2182],[-41.6422,-21.2178]]]}},{"type":"Feature","properties":{"cod_imovel":"RJ-3300605-ED09948022BB4EFCBAAEB2669BB90C48","num_area":"8.0334000000000000000000000000000","ind_status":"AT"},"geometry":{"type":"Polygon","coordinates":[[[-41.7513,-20.9842],[-41.7491,-20.9863],[-41.7513,-20.9842],[-41.7513,-20.9842]]]}},{"type":"Feature","properties":{"cod_imovel":"RJ-3300605-EF6E5CA8E2A8480B87075A1534D86E60","num_area":"2.4303000000000000000000000000000","ind_status":"AT"},"geometry":{"type":"Polygon","coordinates":[[[-41.7334,-20.8772],[-41.7297,-20.8799],[-41.7334,-20.8773],[-41.7334,-20.8772]]]}},{"type":"Feature","properties":{"cod_imovel":"RJ-3300605-F1927C4DEF834BBAB3CA1D505099ECC6","num_area":"10.995900000000000000000000000000","ind_status":"AT"},"geometry":{"type":"Polygon","coordinates":[[[-41.7431,-21.0486],[-41.7459,-21.045],[-41.743,-21.0483],[-41.7431,-21.0486]],[[-41.7389,-21.049],[-41.7336,-21.0491],[-41.7388,-21.0489],[-41.7389,-21.049]]]}},{"type":"Feature","properties":{"cod_imovel":"RJ-3300605-F2F0AB4C5602415CB58E2F70FB876B24","num_area":"21.764300000000000000000000000000","ind_status":"AT"},"geometry":{"type":"Polygon","coordinates":[[[-41.7499,-21.1135],[-41.745,-21.1092],[-41.7422,-21.1143],[-41.7467,-21.1108],[-41.7492,-21.1139],[-41.7499,-21.1135]]]}},{"type":"Feature","properties":{"cod_imovel":"RJ-3300605-F306579606444EEABB11C40B77333F20","num_area":"3.9876000000000000000000000000000","ind_status":"AT"},"geometry":{"type":"Polygon","coordinates":[[[-41.623,-21.2459],[-41.6182,-21.2464],[-41.623,-21.2461],[-41.623,-21.2459]],[[-41.6183,-21.2468],[-41.6218,-21.2469],[-41.6183,-21.2468],[-41.6183,-21.2468]]]}},{"type":"Feature","properties":{"cod_imovel":"RJ-3300605-F5EF2DB077ED45E28FB7FC043D626487","num_area":"7.3406000000000000000000000000000","ind_status":"AT"},"geometry":{"type":"Polygon","coordinates":[[[-41.828,-21.0462],[-41.8277,-21.0495],[-41.8315,-21.0479],[-41.8285,-21.0477],[-41.828,-21.0462]]]}},{"type":"Feature","properties":{"cod_imovel":"RJ-3300605-F63FDFB557A9457CBFAA6918006F0C01","num_area":"6.4398000000000000000000000000000","ind_status":"AT"},"geometry":{"type":"Polygon","coordinates":[[[-41.676,-21.2428],[-41.6721,-21.2435],[-41.6758,-21.2429],[-41.676,-21.2428]]]}},{"type":"Feature","properties":{"cod_imovel":"RJ-3300605-FA071FCCC6234677843F97B17F9D2840","num_area":"5.3107000000000000000000000000000","ind_status":"AT"},"geometry":{"type":"Polygon","coordinates":[[[-41.7368,-21.1587],[-41.7389,-21.1557],[-41.7361,-21.158],[-41.7368,-21.1587]]]}},{"type":"Feature","properties":{"cod_imovel":"RJ-3300605-F908F3A724314705800AFF9D1FEC19E2","num_area":"4.0758000000000000000000000000000","ind_status":"AT"},"geometry":{"type":"Polygon","coordinates":[[[-41.7913,-21.0229],[-41.788,-21.0254],[-41.792,-21.0232],[-41.7913,-21.0229]]]}},{"type":"Feature","properties":{"cod_imovel":"RJ-3300605-F824BEAFF9874935991BD383F92CC523","num_area":"19.099500000000000000000000000000","ind_status":"AT"},"geometry":{"type":"Polygon","coordinates":[[[-41.7204,-20.9773],[-41.7217,-20.9824],[-41.7235,-20.974],[-41.7178,-20.9747],[-41.7205,-20.9772],[-41.7204,-20.9773]]]}}]}