{"type":"FeatureCollection","features":[{"type":"Feature","properties":{"cod_imovel":"RJ-3300704-AF971A33F39A4AD985B3BEED68DAC360","num_area":"164.40260000000000000000000000000","ind_status":"PE"},"geometry":{"type":"Polygon","coordinates":[[[-42.1233,-22.6476],[-42.1271,-22.6485],[-42.1232,-22.6475],[-42.1233,-22.6476]],[[-42.1074,-22.613],[-42.1044,-22.6108],[-42.1076,-22.6133],[-42.1074,-22.613]],[[-42.1144,-22.6176],[-42.1127,-22.6206],[-42.1149,-22.6182],[-42.1144,-22.6176]],[[-42.1303,-22.6357],[-42.1329,-22.6303],[-42.1303,-22.6356],[-42.1303,-22.6357]],[[-42.0979,-22.6227],[-42.0964,-22.6191],[-42.0977,-22.6224],[-42.0979,-22.6227]],[[-42.1177,-22.6294],[-42.1181,-22.6246],[-42.118,-22.6296],[-42.1177,-22.6294]],[[-42.1118,-22.6231],[-42.111,-22.6263],[-42.1127,-22.6212],[-42.1086,-22.6206],[-42.1117,-22.6228],[-42.1118,-22.6231]],[[-42.1052,-22.6212],[-42.1088,-22.6171],[-42.1005,-22.6118],[-42.101,-22.6201],[-42.105,-22.621],[-42.1052,-22.6212]],[[-42.0918,-22.6103],[-42.0823,-22.6023],[-42.085,-22.6155],[-42.0921,-22.6102],[-42.0918,-22.6103]]]}},{"type":"Feature","properties":{"cod_imovel":"RJ-3300704-079C471281C1442595773F5E82D45619","num_area":"15.659600000000000000000000000000","ind_status":"PE"},"geometry":{"type":"Polygon","coordinates":[[[-41.9976,-22.8247],[-42.0012,-22.8239],[-41.9976,-22.8247],[-41.9976,-22.8247]],[[-41.9939,-22.8231],[-42.0011,-22.8238],[-41.9938,-22.823],[-41.9939,-22.8231]]]}},{"type":"Feature","properties":{"cod_imovel":"RJ-3300704-E3376F2461F040B1957E4AEDDB8C1497","num_area":"26.097100000000000000000000000000","ind_status":"AT"},"geometry":{"type":"Polygon","coordinates":[[[-42.0028,-22.7302],[-42.0001,-22.7359],[-42.0044,-22.7309],[-42.0028,-22.7302]]]}},{"type":"Feature","properties":{"cod_imovel":"RJ-3300704-E80CBD533AD4471DBDEAD9EB7B9004B8","num_area":"272.12030000000000000000000000000","ind_status":"PE"},"geometry":{"type":"Polygon","coordinates":[[[-42.0902,-22.573],[-42.084,-22.5694],[-42.0801,-22.5793],[-42.0925,-22.5772],[-42.0908,-22.573],[-42.0902,-22.573]],[[-42.1003,-22.601],[-42.0975,-22.5974],[-42.1001,-22.6008],[-42.1003,-22.601]],[[-42.0786,-22.6012],[-42.0768,-22.5985],[-42.0833,-22.599],[-42.0756,-22.5963],[-42.0793,-22.6037],[-42.0786,-22.6012]],[[-42.1075,-22.5982],[-42.1077,-22.5926],[-42.1018,-22.5889],[-42.1006,-22.595],[-42.0974,-22.5931],[-42.099,-22.5878],[-42.0921,-22.5807],[-42.089,-22.5857],[-42.0942,-22.5945],[-42.1071,-22.5981],[-42.1075,-22.5982]]]}},{"type":"Feature","properties":{"cod_imovel":"RJ-3300704-0E405D507E0A4252AB4B0F4060BA7B38","num_area":"18.855400000000000000000000000000","ind_status":"AT"},"geometry":{"type":"Polygon","coordinates":[[[-42.159,-22.6218],[-42.1676,-22.6188],[-42.1601,-22.6211],[-42.159,-22.6218]]]}},{"type":"Feature","properties":{"cod_imovel":"RJ-3300704-A533D3A5EC4F4138A7CC3B52043EBEE7","num_area":"39.223500000000000000000000000000","ind_status":"AT"},"geometry":{"type":"Polygon","coordinates":[[[-42.0174,-22.6607],[-42.0205,-22.6614],[-42.0172,-22.6607],[-42.0174,-22.6607]]]}},{"type":"Feature","properties":{"cod_imovel":"RJ-3300704-64FE18DC9AF74258AFE7A62F926EA2ED","num_area":"67.255200000000000000000000000000","ind_status":"PE"},"geometry":{"type":"Polygon","coordinates":[[[-41.9999,-22.8217],[-42.0078,-22.8149],[-42.0047,-22.8097],[-41.9996,-22.8215],[-41.9999,-22.8217]],[[-41.9948,-22.8192],[-42.0023,-22.8117],[-41.9941,-22.8188],[-41.9948,-22.8192]]]}},{"type":"Feature","properties":{"cod_imovel":"RJ-3300704-C65989F89A3741858A9DF9448A471EAA","num_area":"10.164600000000000000000000000000","ind_status":"AT"},"geometry":{"type":"Polygon","coordinates":[[[-42.0196,-22.5786],[-42.0208,-22.5829],[-42.0196,-22.5786],[-42.0196,-22.5786]],[[-42.0199,-22.5836],[-42.0176,-22.581],[-42.0201,-22.5836],[-42.0199,-22.5836]]]}},{"type":"Feature","properties":{"cod_imovel":"RJ-3300704-BE64D455FFC5443BBE1EDB9B20409732","num_area":"10.290900000000000000000000000000","ind_status":"PE"},"geometry":{"type":"Polygon","coordinates":[[[-42.0178,-22.6411],[-42.0177,-22.6372],[-42.0169,-22.6411],[-42.0178,-22.6411]]]}},{"type":"Feature","properties":{"cod_imovel":"RJ-3300704-757C9AA3E3BF41D68E77B8B0B46668DA","num_area":"6.8687000000000000000000000000000","ind_status":"PE"},"geometry":{"type":"Polygon","coordinates":[[[-42.0006,-22.8036],[-42.0032,-22.8077],[-42.0016,-22.8033],[-42.0006,-22.8036]]]}},{"type":"Feature","properties":{"cod_imovel":"RJ-3300704-FCB6EAA3982947299049885798CA6677","num_area":"11.695600000000000000000000000000","ind_status":"PE"},"geometry":{"type":"Polygon","coordinates":[[[-42.0215,-22.7878],[-42.0238,-22.7947],[-42.0215,-22.7879],[-42.0215,-22.7878]]]}},{"type":"Feature","properties":{"cod_imovel":"RJ-3300704-8E00ACFA595D42538ACD525331E0116F","num_area":"19.342300000000000000000000000000","ind_status":"AT"},"geometry":{"type":"Polygon","coordinates":[[[-42.1265,-22.5676],[-42.1331,-22.5817],[-42.1274,-22.5691],[-42.1265,-22.5676]],[[-42.1348,-22.5671],[-42.1249,-22.5646],[-42.1349,-22.5674],[-42.1348,-22.5671]]]}},{"type":"Feature","properties":{"cod_imovel":"RJ-3300704-8CA8D0F3A5A84BEFB5408E62D5BB97F0","num_area":"364.86420000000000000000000000000","ind_status":"AT"},"geometry":{"type":"Polygon","coordinates":[[[-42.0183,-22.5796],[-42.0209,-22.5831],[-42.0225,-22.5747],[-42.0177,-22.5787],[-42.0183,-22.5796]],[[-42.0456,-22.5753],[-42.0441,-22.578],[-42.0458,-22.5753],[-42.0456,-22.5753]],[[-42.0667,-22.5687],[-42.0667,-22.5726],[-42.0712,-22.5722],[-42.0683,-22.5691],[-42.0667,-22.5687]],[[-42.0606,-22.5684],[-42.0572,-22.568],[-42.0603,-22.5697],[-42.0606,-22.5684]],[[-42.0566,-22.5639],[-42.0624,-22.5619],[-42.0565,-22.5638],[-42.0566,-22.5639]],[[-42.0253,-22.5802],[-42.0257,-22.5849],[-42.0257,-22.5808],[-42.0253,-22.5802]],[[-42.0437,-22.5787],[-42.0424,-22.5818],[-42.0442,-22.5789],[-42.0437,-22.5787]],[[-42.0707,-22.5898],[-42.069,-22.5931],[-42.0708,-22.5899],[-42.0707,-22.5898]],[[-42.0786,-22.5748],[-42.0729,-22.5678],[-42.0685,-22.5691],[-42.08,-22.5788],[-42.0799,-22.5753],[-42.0786,-22.5748]],[[-42.0781,-22.5756],[-42.0742,-22.5719],[-42.0763,-22.5743],[-42.0781,-22.5756]],[[-42.0473,-22.5783],[-42.0454,-22.5818],[-42.0477,-22.5785],[-42.0473,-22.5783]],[[-42.0362,-22.5811],[-42.0394,-22.58],[-42.0363,-22.581],[-42.0362,-22.5811]],[[-42.0247,-22.6073],[-42.0258,-22.6108],[-42.0251,-22.607],[-42.0247,-22.6073]],[[-42.0704,-22.5761],[-42.0736,-22.5765],[-42.0703,-22.5759],[-42.0704,-22.5761]],[[-42.0905,-22.6354],[-42.0889,-22.6329],[-42.0905,-22.6354],[-42.0905,-22.6354]],[[-42.0493,-22.6116],[-42.0519,-22.6136],[-42.0494,-22.6113],[-42.0493,-22.6116]],[[-42.0535,-22.6139],[-42.0508,-22.6104],[-42.0536,-22.6137],[-42.0535,-22.6139]],[[-42.0674,-22.5915],[-42.0699,-22.5895],[-42.0673,-22.5915],[-42.0674,-22.5915]],[[-42.0217,-22.6044],[-42.0253,-22.6059],[-42.0214,-22.6029],[-42.0217,-22.6044]],[[-42.0472,-22.5691],[-42.0507,-22.5696],[-42.0475,-22.5689],[-42.0472,-22.5691]],[[-42.056,-22.6082],[-42.0466,-22.6062],[-42.0489,-22.6117],[-42.0553,-22.6104],[-42.056,-22.6082]],[[-42.0549,-22.6276],[-42.0584,-22.6361],[-42.0666,-22.6343],[-42.0591,-22.6357],[-42.0635,-22.6286],[-42.0583,-22.6249],[-42.0549,-22.6276],[-42.0549,-22.6276]]]}},{"type":"Feature","properties":{"cod_imovel":"RJ-3300704-B2FF56719E4847BD8523F8A1DEF3E36A","num_area":"70.785100000000000000000000000000","ind_status":"AT"},"geometry":{"type":"Polygon","coordinates":[[[-42.1411,-22.5978],[-42.139,-22.594],[-42.1415,-22.5988],[-42.1411,-22.5978]],[[-42.1346,-22.5892],[-42.1344,-22.5856],[-42.1347,-22.5891],[-42.1346,-22.5892]],[[-42.1245,-22.5648],[-42.1071,-22.565],[-42.1126,-22.5712],[-42.1152,-22.5673],[-42.125,-22.5694],[-42.1247,-22.5647],[-42.1245,-22.5648]]]}},{"type":"Feature","properties":{"cod_imovel":"RJ-3300704-4A73583EB6D64079A35A45448C3380E0","num_area":"123.52790000000000000000000000000","ind_status":"PE"},"geometry":{"type":"Polygon","coordinates":[[[-42.1178,-22.5967],[-42.1146,-22.5983],[-42.1179,-22.5967],[-42.1178,-22.5967]],[[-42.1054,-22.5607],[-42.0987,-22.565],[-42.1075,-22.5699],[-42.106,-22.5609],[-42.1054,-22.5607]],[[-42.0985,-22.5629],[-42.092,-22.5633],[-42.0944,-22.5704],[-42.0911,-22.5729],[-42.0957,-22.5719],[-42.0985,-22.5636],[-42.0985,-22.5629]]]}},{"type":"Feature","properties":{"cod_imovel":"RJ-3300704-304AE086636846E58DA7623FB6622EF9","num_area":"162.35520000000000000000000000000","ind_status":"AT"},"geometry":{"type":"Polygon","coordinates":[[[-41.9894,-22.7832],[-41.9807,-22.7798],[-41.9913,-22.7895],[-41.9891,-22.7844],[-41.9894,-22.7832]],[[-41.9925,-22.7852],[-41.9963,-22.7873],[-41.9983,-22.7723],[-42.0039,-22.7692],[-42.0001,-22.7644],[-41.9896,-22.7828],[-41.9926,-22.7851],[-41.9925,-22.7852]]]}},{"type":"Feature","properties":{"cod_imovel":"RJ-3300704-A22EF7F254B641288DCE53193597C07F","num_area":"7.0480000000000000000000000000000","ind_status":"AT"},"geometry":{"type":"Polygon","coordinates":[[[-42.0021,-22.8073],[-41.9998,-22.8046],[-41.9994,-22.8098],[-42.0021,-22.8073]]]}},{"type":"Feature","properties":{"cod_imovel":"RJ-3300704-7179B2BFF58D460E821D486DDC633520","num_area":"114.99540000000000000000000000000","ind_status":"AT"},"geometry":{"type":"Polygon","coordinates":[[[-41.9829,-22.8048],[-41.9944,-22.8025],[-41.995,-22.7976],[-41.9904,-22.7932],[-41.9836,-22.8044],[-41.9829,-22.8048]],[[-41.9916,-22.8073],[-41.9869,-22.8082],[-41.9916,-22.8074],[-41.9916,-22.8073]],[[-41.9981,-22.8107],[-41.9935,-22.8066],[-41.9937,-22.8154],[-41.9988,-22.8123],[-41.9981,-22.8107]]]}},{"type":"Feature","properties":{"cod_imovel":"RJ-3300704-D48FF29A6A324046AE2D9B3406AC61C2","num_area":"27.397500000000000000000000000000","ind_status":"AT"},"geometry":{"type":"Polygon","coordinates":[[[-41.98,-22.8085],[-41.9789,-22.8142],[-41.9847,-22.8123],[-41.98,-22.8085]]]}},{"type":"Feature","properties":{"cod_imovel":"RJ-3300704-7CBBC54F53D4483A80ACFA7BFAECA33D","num_area":"33.469100000000000000000000000000","ind_status":"AT"},"geometry":{"type":"Polygon","coordinates":[[[-42.0255,-22.7201],[-42.0227,-22.7228],[-42.0257,-22.7201],[-42.0255,-22.7201]],[[-42.0289,-22.7218],[-42.0255,-22.7245],[-42.0292,-22.7223],[-42.0289,-22.7218]]]}},{"type":"Feature","properties":{"cod_imovel":"RJ-3300704-5B7E6F57179E4947A1D5A31F465A2249","num_area":"10.867300000000000000000000000000","ind_status":"PE"},"geometry":{"type":"Polygon","coordinates":[[[-42.024,-22.7228],[-42.0263,-22.7204],[-42.0234,-22.7221],[-42.024,-22.7228]],[[-42.0294,-22.722],[-42.0252,-22.7244],[-42.0295,-22.7223],[-42.0294,-22.722]]]}},{"type":"Feature","properties":{"cod_imovel":"RJ-3300704-EE29062857B14AE8A038E9C94EB80523","num_area":"11.424000000000000000000000000000","ind_status":"PE"},"geometry":{"type":"Polygon","coordinates":[[[-42.0177,-22.8294],[-42.018,-22.825],[-42.0172,-22.8298],[-42.0177,-22.8294]]]}},{"type":"Feature","properties":{"cod_imovel":"RJ-3300704-1E9A33FE375949A19034752DD4563A4C","num_area":"17.828700000000000000000000000000","ind_status":"PE"},"geometry":{"type":"Polygon","coordinates":[[[-42.0875,-22.6556],[-42.0858,-22.6519],[-42.0865,-22.6557],[-42.0875,-22.6556]]]}},{"type":"Feature","properties":{"cod_imovel":"RJ-3300704-CDE91F6D5DBB40B0BC3BC9631538688E","num_area":"4.0639000000000000000000000000000","ind_status":"PE"},"geometry":{"type":"Polygon","coordinates":[[[-42.0401,-22.6815],[-42.044,-22.6727],[-42.0406,-22.6792],[-42.0401,-22.6815]]]}},{"type":"Feature","properties":{"cod_imovel":"RJ-3300704-C723A32DDAD646CFA9AB0D5FF03CE046","num_area":"5.1717000000000000000000000000000","ind_status":"PE"},"geometry":{"type":"Polygon","coordinates":[[[-42.0389,-22.6857],[-42.0376,-22.6885],[-42.0391,-22.6859],[-42.0389,-22.6857]]]}},{"type":"Feature","properties":{"cod_imovel":"RJ-3300704-EA1B778DF50744B48DE422D17998499D","num_area":"0.7330000000000000000000000000000","ind_status":"PE"},"geometry":{"type":"Polygon","coordinates":[[[-42.0411,-22.6971],[-42.0376,-22.6957],[-42.041,-22.6971],[-42.0411,-22.6971]]]}},{"type":"Feature","properties":{"cod_imovel":"RJ-3300704-9565D5EFD9DD42B98D3BF2F8136812D2","num_area":"3.8806000000000000000000000000000","ind_status":"AT"},"geometry":{"type":"Polygon","coordinates":[[[-42.058,-22.6569],[-42.063,-22.656],[-42.058,-22.6569],[-42.058,-22.6569]]]}},{"type":"Feature","properties":{"cod_imovel":"RJ-3300704-8F385D4174024C669B4D27B5874BAD79","num_area":"10.250900000000000000000000000000","ind_status":"PE"},"geometry":{"type":"Polygon","coordinates":[[[-42.0247,-22.6635],[-42.0276,-22.6658],[-42.0253,-22.6633],[-42.0247,-22.6635]]]}},{"type":"Feature","properties":{"cod_imovel":"RJ-3300704-D006325BBD7942A180FE5109E23D0AAC","num_area":"2.4592000000000000000000000000000","ind_status":"PE"},"geometry":{"type":"Polygon","coordinates":[[[-42.0261,-22.7748],[-42.0285,-22.7789],[-42.024,-22.7771],[-42.0305,-22.7802],[-42.0266,-22.7751],[-42.0261,-22.7748]]]}},{"type":"Feature","properties":{"cod_imovel":"RJ-3300704-DB0A91BA636C4065BDD718E8BB868479","num_area":"126.34300000000000000000000000000","ind_status":"PE"},"geometry":{"type":"Polygon","coordinates":[[[-42.1456,-22.5972],[-42.1411,-22.5979],[-42.1456,-22.5973],[-42.1456,-22.5972]],[[-42.1393,-22.6073],[-42.1425,-22.6122],[-42.1401,-22.6079],[-42.1393,-22.6073]],[[-42.1425,-22.6122],[-42.1411,-22.607],[-42.1425,-22.6121],[-42.1425,-22.6122]],[[-42.1424,-22.6008],[-42.147,-22.6022],[-42.1437,-22.6065],[-42.1478,-22.6094],[-42.1498,-22.6024],[-42.1428,-22.6003],[-42.1424,-22.6008]],[[-42.145,-22.6085],[-42.1462,-22.6118],[-42.1451,-22.6086],[-42.145,-22.6085]],[[-42.1456,-22.6156],[-42.1488,-22.6173],[-42.147,-22.611],[-42.1459,-22.6152],[-42.1456,-22.6156]],[[-42.1488,-22.6173],[-42.1517,-22.6129],[-42.1481,-22.6095],[-42.1488,-22.6173],[-42.1488,-22.6173]],[[-42.1515,-22.6115],[-42.1514,-22.6064],[-42.1515,-22.6114],[-42.1515,-22.6115]],[[-42.1514,-22.6064],[-42.1481,-22.6095],[-42.1513,-22.6065],[-42.1514,-22.6064]]]}},{"type":"Feature","properties":{"cod_imovel":"RJ-3300704-7289DF9047A14E3AAED5A531E56CCCC6","num_area":"9.5857000000000000000000000000000","ind_status":"AT"},"geometry":{"type":"Polygon","coordinates":[[[-42.0786,-22.6426],[-42.0756,-22.6381],[-42.0783,-22.6425],[-42.0786,-22.6426]]]}},{"type":"Feature","properties":{"cod_imovel":"RJ-3300704-FE3A55722E66464EBA2408CE2B026E4A","num_area":"7.8076000000000000000000000000000","ind_status":"AT"},"geometry":{"type":"Polygon","coordinates":[[[-42.1034,-22.6395],[-42.097,-22.6446],[-42.1035,-22.6395],[-42.1034,-22.6395]],[[-42.1017,-22.642],[-42.0986,-22.6411],[-42.1017,-22.6421],[-42.1017,-22.642]]]}},{"type":"Feature","properties":{"cod_imovel":"RJ-3300704-D1F4FBED57054303B3F3B2A5930FD0C4","num_area":"4.7478000000000000000000000000000","ind_status":"PE"},"geometry":{"type":"Polygon","coordinates":[[[-42.045,-22.6691],[-42.0436,-22.6568],[-42.045,-22.6691],[-42.045,-22.6691]],[[-42.0422,-22.6694],[-42.0404,-22.6627],[-42.0429,-22.6672],[-42.0422,-22.6694]]]}},{"type":"Feature","properties":{"cod_imovel":"RJ-3300704-E237CFDFBE1342C8A19830F108A9ABA2","num_area":"18.132700000000000000000000000000","ind_status":"AT"},"geometry":{"type":"Polygon","coordinates":[[[-42.0384,-22.716],[-42.0357,-22.7193],[-42.0385,-22.716],[-42.0384,-22.716]],[[-42.0321,-22.7237],[-42.038,-22.7258],[-42.0323,-22.7238],[-42.0321,-22.7237]]]}},{"type":"Feature","properties":{"cod_imovel":"RJ-3300704-FF74362B828A464D8965FBC0F7AC8CE2","num_area":"95.137900000000000000000000000000","ind_status":"AT"},"geometry":{"type":"Polygon","coordinates":[[[-42.0943,-22.6716],[-42.0901,-22.6763],[-42.0943,-22.6718],[-42.0943,-22.6716]],[[-42.1095,-22.6722],[-42.1129,-22.674],[-42.1096,-22.6718],[-42.1095,-22.6722]],[[-42.0978,-22.6755],[-42.0958,-22.6724],[-42.0977,-22.6748],[-42.0978,-22.6755]],[[-42.1138,-22.652],[-42.1154,-22.6477],[-42.1136,-22.652],[-42.1138,-22.652]],[[-42.0999,-22.6528],[-42.0986,-22.6496],[-42.1,-22.6526],[-42.0999,-22.6528]],[[-42.1026,-22.6551],[-42.1089,-22.6553],[-42.1028,-22.6548],[-42.1026,-22.6551]],[[-42.1253,-22.661],[-42.1267,-22.6556],[-42.1249,-22.6613],[-42.1253,-22.661]],[[-42.1057,-22.6673],[-42.1037,-22.6696],[-42.1062,-22.6674],[-42.1057,-22.6673]],[[-42.0975,-22.6567],[-42.0931,-22.6557],[-42.0973,-22.6568],[-42.0975,-22.6567]],[[-42.1091,-22.6633],[-42.1099,-22.6683],[-42.1093,-22.663],[-42.1091,-22.6633]],[[-42.1034,-22.6754],[-42.1068,-22.6719],[-42.1026,-22.6699],[-42.1034,-22.6753],[-42.1034,-22.6754]],[[-42.1078,-22.6413],[-42.1049,-22.64],[-42.1035,-22.6507],[-42.1078,-22.647],[-42.1105,-22.6526],[-42.1082,-22.6416],[-42.1078,-22.6413]]]}}]}