{"type":"FeatureCollection","features":[{"type":"Feature","properties":{"cod_imovel":"RJ-3300902-5CAA6A428E9843DD819AF928C47E4E51","num_area":"25.210900000000000000000000000000","ind_status":"AT"},"geometry":{"type":"Polygon","coordinates":[[[-41.8764,-21.4612],[-41.871,-21.4624],[-41.871,-21.4688],[-41.8764,-21.4612],[-41.8764,-21.4612]],[[-41.8883,-21.4274],[-41.8835,-21.4267],[-41.8883,-21.4275],[-41.8883,-21.4274]],[[-41.8777,-21.4577],[-41.8714,-21.4558],[-41.8775,-21.4576],[-41.8777,-21.4577]]]}},{"type":"Feature","properties":{"cod_imovel":"RJ-3300902-13D887B837E8435699F2FEC15392A7A4","num_area":"23.737400000000000000000000000000","ind_status":"AT"},"geometry":{"type":"Polygon","coordinates":[[[-41.9979,-21.5663],[-42.0014,-21.5691],[-41.9986,-21.5663],[-41.9979,-21.5663]],[[-41.9958,-21.5717],[-42.0012,-21.5696],[-41.9958,-21.5716],[-41.9958,-21.5717]]]}},{"type":"Feature","properties":{"cod_imovel":"RJ-3300902-AADB8CE97FA14F7684399CF24025DC2D","num_area":"6.0703000000000000000000000000000","ind_status":"AT"},"geometry":{"type":"Polygon","coordinates":[[[-41.9193,-21.4844],[-41.9219,-21.4864],[-41.9193,-21.4843],[-41.9193,-21.4844]]]}},{"type":"Feature","properties":{"cod_imovel":"RJ-3300902-84C46A5E96B144AF9722FAF77BB59443","num_area":"23.006600000000000000000000000000","ind_status":"AT"},"geometry":{"type":"Polygon","coordinates":[[[-42.0323,-21.561],[-42.0302,-21.5637],[-42.0361,-21.5673],[-42.0332,-21.562],[-42.0323,-21.561]]]}},{"type":"Feature","properties":{"cod_imovel":"RJ-3300902-ED934E3DB27F43FDB469ACC23F590B96","num_area":"3.1504000000000000000000000000000","ind_status":"PE"},"geometry":{"type":"Polygon","coordinates":[[[-41.8614,-21.4022],[-41.8591,-21.3991],[-41.8613,-21.4023],[-41.8614,-21.4022]]]}},{"type":"Feature","properties":{"cod_imovel":"RJ-3300902-5429ED70B66843C9A9C0D0E13DE2E640","num_area":"3.2359000000000000000000000000000","ind_status":"AT"},"geometry":{"type":"Polygon","coordinates":[[[-41.8162,-21.3621],[-41.8186,-21.3594],[-41.8158,-21.3621],[-41.8162,-21.3621]],[[-41.815,-21.3564],[-41.8195,-21.3584],[-41.8156,-21.3566],[-41.815,-21.3564]]]}},{"type":"Feature","properties":{"cod_imovel":"RJ-3300902-CE4C03CF9C9E46B192834A6E2FC84A43","num_area":"260.54000000000000000000000000000","ind_status":"AT"},"geometry":{"type":"Polygon","coordinates":[[[-41.8892,-21.4916],[-41.8818,-21.4872],[-41.8738,-21.4948],[-41.8805,-21.4917],[-41.8758,-21.4964],[-41.8814,-21.4972],[-41.8826,-21.4896],[-41.8794,-21.498],[-41.8843,-21.4995],[-41.8904,-21.4924],[-41.8892,-21.4916]],[[-41.8738,-21.4948],[-41.8749,-21.5088],[-41.8787,-21.5066],[-41.8743,-21.4955],[-41.8738,-21.4948]],[[-41.8773,-21.5081],[-41.8817,-21.5069],[-41.8774,-21.5079],[-41.8773,-21.5081]],[[-41.8817,-21.5068],[-41.8873,-21.5038],[-41.8857,-21.5006],[-41.8826,-21.5008],[-41.8865,-21.5042],[-41.8751,-21.4967],[-41.8815,-21.5067],[-41.8817,-21.5068]],[[-41.8773,-21.4977],[-41.8825,-21.5001],[-41.8773,-21.4977],[-41.8773,-21.4977]],[[-41.8825,-21.5001],[-41.8867,-21.4998],[-41.8825,-21.5],[-41.8825,-21.5001]]]}},{"type":"Feature","properties":{"cod_imovel":"RJ-3302056-05168C708AC547ED860BBF45508EF236","num_area":"31.167400000000000000000000000000","ind_status":"AT"},"geometry":{"type":"Polygon","coordinates":[[[-41.7366,-21.4423],[-41.7341,-21.4378],[-41.7311,-21.4413],[-41.7335,-21.4461],[-41.7362,-21.4427],[-41.7366,-21.4423]]]}},{"type":"Feature","properties":{"cod_imovel":"RJ-3300902-7994CEFBECDD46A7B235A3A60EDDAD6B","num_area":"8.0319000000000000000000000000000","ind_status":"AT"},"geometry":{"type":"Polygon","coordinates":[[[-41.9138,-21.4292],[-41.9195,-21.4306],[-41.9136,-21.4292],[-41.9138,-21.4292]]]}},{"type":"Feature","properties":{"cod_imovel":"RJ-3300902-D37EAC88982E4DB8B3B7A5A85066B0E7","num_area":"3.4231000000000000000000000000000","ind_status":"AT"},"geometry":{"type":"Polygon","coordinates":[[[-41.793,-21.3735],[-41.7962,-21.3733],[-41.7927,-21.3733],[-41.793,-21.3735]]]}},{"type":"Feature","properties":{"cod_imovel":"RJ-3300902-5C854CFCC90140E8B7134D5F9F94D550","num_area":"17.081800000000000000000000000000","ind_status":"AT"},"geometry":{"type":"Polygon","coordinates":[[[-41.797,-21.3642],[-41.8006,-21.3611],[-41.7965,-21.3635],[-41.797,-21.3642]]]}},{"type":"Feature","properties":{"cod_imovel":"RJ-3300902-96FBB48FD461444EB74DCE02C83046E1","num_area":"153.39960000000000000000000000000","ind_status":"PE"},"geometry":{"type":"Polygon","coordinates":[[[-41.8546,-21.4589],[-41.853,-21.4631],[-41.8578,-21.4655],[-41.8547,-21.4588],[-41.8546,-21.4589]],[[-41.8574,-21.4476],[-41.8582,-21.4569],[-41.858,-21.4485],[-41.8574,-21.4476]],[[-41.8706,-21.4631],[-41.8737,-21.458],[-41.8691,-21.4541],[-41.8704,-21.4636],[-41.8706,-21.4631]],[[-41.8684,-21.4731],[-41.8761,-21.4747],[-41.8674,-21.4669],[-41.8737,-21.4742],[-41.8673,-21.467],[-41.8694,-21.4721],[-41.8684,-21.4731]],[[-41.8653,-21.4705],[-41.867,-21.4665],[-41.864,-21.4637],[-41.8653,-21.4691],[-41.8618,-21.4623],[-41.8645,-21.47],[-41.8653,-21.4705]],[[-41.8674,-21.4662],[-41.8656,-21.4597],[-41.8619,-21.4605],[-41.8672,-21.466],[-41.8674,-21.4662]]]}},{"type":"Feature","properties":{"cod_imovel":"RJ-3300902-D8F0D97ED67C4E97A65C12B559B9F9AA","num_area":"93.994500000000000000000000000000","ind_status":"PE"},"geometry":{"type":"Polygon","coordinates":[[[-41.8442,-21.4497],[-41.8355,-21.4462],[-41.842,-21.4522],[-41.8442,-21.4497]],[[-41.8315,-21.4421],[-41.8382,-21.4435],[-41.828,-21.4351],[-41.8313,-21.4419],[-41.8315,-21.4421]],[[-41.8418,-21.4371],[-41.842,-21.4335],[-41.8417,-21.4369],[-41.8418,-21.4371]],[[-41.8432,-21.445],[-41.8416,-21.4381],[-41.8431,-21.4443],[-41.8432,-21.445]],[[-41.8414,-21.4383],[-41.8395,-21.4409],[-41.8416,-21.4385],[-41.8414,-21.4383]],[[-41.8331,-21.425],[-41.8365,-21.4264],[-41.8333,-21.4254],[-41.8331,-21.425]],[[-41.8367,-21.4265],[-41.8398,-21.4264],[-41.8365,-21.4264],[-41.8367,-21.4265]]]}},{"type":"Feature","properties":{"cod_imovel":"RJ-3300902-97728D6A7BC2450ABFDF293DA252C27B","num_area":"88.185200000000000000000000000000","ind_status":"AT"},"geometry":{"type":"Polygon","coordinates":[[[-41.9828,-21.5704],[-41.98,-21.5675],[-41.9828,-21.5704],[-41.9828,-21.5704]],[[-41.9905,-21.5875],[-41.9922,-21.5842],[-41.9904,-21.5874],[-41.9905,-21.5875]],[[-41.9777,-21.5686],[-41.9726,-21.5838],[-41.9792,-21.582],[-41.9777,-21.5686],[-41.9777,-21.5686]]]}},{"type":"Feature","properties":{"cod_imovel":"RJ-3300902-A3AF871BA4084F34AF16B1539D88A44B","num_area":"16.097000000000000000000000000000","ind_status":"PE"},"geometry":{"type":"Polygon","coordinates":[[[-42.0014,-21.5723],[-42.0048,-21.5779],[-42.0015,-21.5722],[-42.0014,-21.5723]],[[-42.0034,-21.5698],[-42.0044,-21.5746],[-42.0034,-21.5698],[-42.0034,-21.5698]]]}},{"type":"Feature","properties":{"cod_imovel":"RJ-3300902-7F5ED28880C146CFA1E4913B78E7532E","num_area":"105.72840000000000000000000000000","ind_status":"AT"},"geometry":{"type":"Polygon","coordinates":[[[-41.8546,-21.4589],[-41.8453,-21.4484],[-41.8371,-21.4476],[-41.8526,-21.4619],[-41.8546,-21.4589]]]}},{"type":"Feature","properties":{"cod_imovel":"RJ-3300902-94B4628D7B294D948D8459624A72F716","num_area":"39.400600000000000000000000000000","ind_status":"AT"},"geometry":{"type":"Polygon","coordinates":[[[-41.9348,-21.5338],[-41.9458,-21.5365],[-41.9457,-21.5332],[-41.9358,-21.5338],[-41.9348,-21.5338]]]}},{"type":"Feature","properties":{"cod_imovel":"RJ-3300902-A7DF97D0B6AE440D99F2933F6C37B371","num_area":"56.654500000000000000000000000000","ind_status":"AT"},"geometry":{"type":"Polygon","coordinates":[[[-41.9124,-21.5237],[-41.9136,-21.5185],[-41.9055,-21.525],[-41.909,-21.5265],[-41.9124,-21.5237]],[[-41.9194,-21.5176],[-41.9231,-21.5107],[-41.9192,-21.5159],[-41.9194,-21.5176]]]}},{"type":"Feature","properties":{"cod_imovel":"RJ-3300902-BEAFDC0602C045389201467EECD6329C","num_area":"105.21400000000000000000000000000","ind_status":"AT"},"geometry":{"type":"Polygon","coordinates":[[[-41.8548,-21.4754],[-41.861,-21.4766],[-41.8627,-21.4681],[-41.8521,-21.4664],[-41.8548,-21.4752],[-41.8548,-21.4754]]]}},{"type":"Feature","properties":{"cod_imovel":"RJ-3300902-4AF95173FE784D9DBB09FD074E30E97F","num_area":"7.1347000000000000000000000000000","ind_status":"AT"},"geometry":{"type":"Polygon","coordinates":[[[-41.7938,-21.4772],[-41.7941,-21.4718],[-41.7928,-21.4759],[-41.7938,-21.4772]]]}},{"type":"Feature","properties":{"cod_imovel":"RJ-3300902-187739FFAE534F0F974410446E286FE5","num_area":"8.6961000000000000000000000000000","ind_status":"AT"},"geometry":{"type":"Polygon","coordinates":[[[-41.7998,-21.4707],[-41.8031,-21.4669],[-41.8002,-21.47],[-41.7998,-21.4707]]]}},{"type":"Feature","properties":{"cod_imovel":"RJ-3300902-CDCF2992C052464DA2E8C39148EFEA11","num_area":"19.336000000000000000000000000000","ind_status":"PE"},"geometry":{"type":"Polygon","coordinates":[[[-42.0198,-21.5092],[-42.0158,-21.5132],[-42.0204,-21.5111],[-42.0198,-21.5092]]]}},{"type":"Feature","properties":{"cod_imovel":"RJ-3300902-4D6B42ADAB5A4911BC7C0D2695D33C2B","num_area":"22.904800000000000000000000000000","ind_status":"AT"},"geometry":{"type":"Polygon","coordinates":[[[-41.9717,-21.5201],[-41.9686,-21.5197],[-41.9715,-21.521],[-41.9717,-21.5201]],[[-41.9726,-21.5232],[-41.9797,-21.5285],[-41.9732,-21.5231],[-41.9726,-21.5232]]]}},{"type":"Feature","properties":{"cod_imovel":"RJ-3300902-7BB81378A103418D99BF774A9358FBAC","num_area":"10.921600000000000000000000000000","ind_status":"AT"},"geometry":{"type":"Polygon","coordinates":[[[-41.8263,-21.487],[-41.8218,-21.4886],[-41.828,-21.4886],[-41.8263,-21.487]]]}},{"type":"Feature","properties":{"cod_imovel":"RJ-3300902-DBD5D8F987E045B696E05B7E9DA84D86","num_area":"14.950100000000000000000000000000","ind_status":"AT"},"geometry":{"type":"Polygon","coordinates":[[[-41.9866,-21.568],[-41.982,-21.5678],[-41.9872,-21.5682],[-41.9866,-21.568]]]}},{"type":"Feature","properties":{"cod_imovel":"RJ-3300902-71935A11DEE14970AA4FBB39A5AB476D","num_area":"42.828400000000000000000000000000","ind_status":"PE"},"geometry":{"type":"Polygon","coordinates":[[[-41.7681,-21.4534],[-41.7701,-21.4498],[-41.7677,-21.4532],[-41.7681,-21.4534]],[[-41.787,-21.438],[-41.7819,-21.438],[-41.7779,-21.447],[-41.7873,-21.4384],[-41.787,-21.438]]]}},{"type":"Feature","properties":{"cod_imovel":"RJ-3300902-AB7D713AB71B41BDA8C1388A6B0B46FB","num_area":"10.845800000000000000000000000000","ind_status":"PE"},"geometry":{"type":"Polygon","coordinates":[[[-41.9424,-21.5155],[-41.9439,-21.511],[-41.9383,-21.5138],[-41.942,-21.5155],[-41.9424,-21.5155]]]}},{"type":"Feature","properties":{"cod_imovel":"RJ-3300902-45AEC02A447A4B13B2FF9453D151D58D","num_area":"10.218100000000000000000000000000","ind_status":"AT"},"geometry":{"type":"Polygon","coordinates":[[[-41.834,-21.4687],[-41.8301,-21.4691],[-41.8342,-21.4689],[-41.834,-21.4687]]]}},{"type":"Feature","properties":{"cod_imovel":"RJ-3300902-7EB6F2FF35DC4E53B5FA552E649D4C4E","num_area":"16.792600000000000000000000000000","ind_status":"AT"},"geometry":{"type":"Polygon","coordinates":[[[-41.8281,-21.4411],[-41.8295,-21.4458],[-41.8293,-21.4398],[-41.8281,-21.4411]]]}},{"type":"Feature","properties":{"cod_imovel":"RJ-3300902-639497D358D54721A9721FFC19417C9C","num_area":"17.801300000000000000000000000000","ind_status":"AT"},"geometry":{"type":"Polygon","coordinates":[[[-41.8762,-21.4815],[-41.8654,-21.4895],[-41.8768,-21.482],[-41.8762,-21.4815]]]}},{"type":"Feature","properties":{"cod_imovel":"RJ-3300902-A7435D0967594922A46ED0D65F7DECE0","num_area":"17.693300000000000000000000000000","ind_status":"AT"},"geometry":{"type":"Polygon","coordinates":[[[-41.8781,-21.4825],[-41.8694,-21.49],[-41.873,-21.488],[-41.8781,-21.4825]],[[-41.8676,-21.4916],[-41.8657,-21.4951],[-41.8679,-21.4919],[-41.8676,-21.4916]]]}},{"type":"Feature","properties":{"cod_imovel":"RJ-3300902-5CAF7CAAAFCF4C1993268AB106AA354C","num_area":"9.9653000000000000000000000000000","ind_status":"AT"},"geometry":{"type":"Polygon","coordinates":[[[-41.8217,-21.3786],[-41.8186,-21.376],[-41.8216,-21.3788],[-41.8217,-21.3786]]]}},{"type":"Feature","properties":{"cod_imovel":"RJ-3300902-5B2769F30BAA4179BF28232E85568F3B","num_area":"7.8884000000000000000000000000000","ind_status":"AT"},"geometry":{"type":"Polygon","coordinates":[[[-41.9265,-21.5191],[-41.9242,-21.5239],[-41.9272,-21.5198],[-41.9265,-21.5191]]]}},{"type":"Feature","properties":{"cod_imovel":"RJ-3300902-CFA8CEA2F92E4764A2A35EFA4D7F8CDA","num_area":"7.7813000000000000000000000000000","ind_status":"AT"},"geometry":{"type":"Polygon","coordinates":[[[-41.9262,-21.5242],[-41.9273,-21.5198],[-41.9256,-21.5239],[-41.9262,-21.5242]]]}},{"type":"Feature","properties":{"cod_imovel":"RJ-3300902-8820C270671C47D686F79A9DA18A30F3","num_area":"19.752800000000000000000000000000","ind_status":"AT"},"geometry":{"type":"Polygon","coordinates":[[[-41.8705,-21.5258],[-41.8651,-21.5269],[-41.8704,-21.526],[-41.8705,-21.5258]]]}},{"type":"Feature","properties":{"cod_imovel":"RJ-3300902-17927A772483493889F99F37314F1EAC","num_area":"10.389400000000000000000000000000","ind_status":"AT"},"geometry":{"type":"Polygon","coordinates":[[[-41.9163,-21.5039],[-41.9132,-21.5038],[-41.9162,-21.5069],[-41.9164,-21.5039],[-41.9163,-21.5039]]]}},{"type":"Feature","properties":{"cod_imovel":"RJ-3300902-DB644AAA18A84E3CA87BCB58A038ADE1","num_area":"3.7891000000000000000000000000000","ind_status":"AT"},"geometry":{"type":"Polygon","coordinates":[[[-41.9176,-21.5313],[-41.918,-21.5355],[-41.9181,-21.5318],[-41.9176,-21.5313]]]}},{"type":"Feature","properties":{"cod_imovel":"RJ-3300902-C46AFF7BA4404CC1AA3D1A6A48CEFAEF","num_area":"5.9295000000000000000000000000000","ind_status":"AT"},"geometry":{"type":"Polygon","coordinates":[[[-41.8929,-21.5312],[-41.8946,-21.5356],[-41.8929,-21.5312],[-41.8929,-21.5312]]]}},{"type":"Feature","properties":{"cod_imovel":"RJ-3300902-0FFC75A68E034177A1888E02B2415BC8","num_area":"10.342300000000000000000000000000","ind_status":"AT"},"geometry":{"type":"Polygon","coordinates":[[[-41.8932,-21.5311],[-41.8906,-21.534],[-41.893,-21.5322],[-41.8932,-21.5311]]]}},{"type":"Feature","properties":{"cod_imovel":"RJ-3300902-5D73F3BCEEFE4EA89481F9B1FBF77A3B","num_area":"7.0289000000000000000000000000000","ind_status":"AT"},"geometry":{"type":"Polygon","coordinates":[[[-41.8897,-21.5294],[-41.8901,-21.5333],[-41.8897,-21.5294],[-41.8897,-21.5294]]]}},{"type":"Feature","properties":{"cod_imovel":"RJ-3300902-CFA299A722614F0CA9CFE8D4AFAF377D","num_area":"5.4272000000000000000000000000000","ind_status":"AT"},"geometry":{"type":"Polygon","coordinates":[[[-41.9498,-21.5153],[-41.9494,-21.5183],[-41.95,-21.5148],[-41.9498,-21.5153]]]}},{"type":"Feature","properties":{"cod_imovel":"RJ-3300902-F3656770AE7244528C59A60E2F58BB07","num_area":"18.823200000000000000000000000000","ind_status":"AT"},"geometry":{"type":"Polygon","coordinates":[[[-41.8551,-21.4893],[-41.8611,-21.4922],[-41.8571,-21.4866],[-41.8551,-21.4892],[-41.8551,-21.4893]]]}},{"type":"Feature","properties":{"cod_imovel":"RJ-3300902-E8C80DDA1B6F4655A05B7B1F8471AD5F","num_area":"29.583600000000000000000000000000","ind_status":"AT"},"geometry":{"type":"Polygon","coordinates":[[[-41.8613,-21.4813],[-41.8587,-21.4849],[-41.8659,-21.4835],[-41.8616,-21.4808],[-41.8613,-21.4813]]]}},{"type":"Feature","properties":{"cod_imovel":"RJ-3300902-33EB082CDCCD49D1982529D4CF720021","num_area":"28.589900000000000000000000000000","ind_status":"AT"},"geometry":{"type":"Polygon","coordinates":[[[-41.8942,-21.5205],[-41.8877,-21.5247],[-41.8952,-21.5244],[-41.8944,-21.5208],[-41.8942,-21.5205]],[[-41.8876,-21.5248],[-41.8913,-21.5245],[-41.8876,-21.5248],[-41.8876,-21.5248]]]}},{"type":"Feature","properties":{"cod_imovel":"RJ-3300902-905C187D1EB74698B3815A696065BA11","num_area":"54.664600000000000000000000000000","ind_status":"AT"},"geometry":{"type":"Polygon","coordinates":[[[-41.8821,-21.5288],[-41.8939,-21.5334],[-41.8856,-21.5265],[-41.8821,-21.5288]]]}},{"type":"Feature","properties":{"cod_imovel":"RJ-3300902-E551E2972B604BD59A9E2C31EE370450","num_area":"4.7471000000000000000000000000000","ind_status":"AT"},"geometry":{"type":"Polygon","coordinates":[[[-41.8542,-21.5051],[-41.8538,-21.5015],[-41.8532,-21.5048],[-41.8542,-21.5051]]]}},{"type":"Feature","properties":{"cod_imovel":"RJ-3300902-968A905C3538450FAC84407C43D4ED97","num_area":"3.7310000000000000000000000000000","ind_status":"AT"},"geometry":{"type":"Polygon","coordinates":[[[-41.9066,-21.5013],[-41.9053,-21.4974],[-41.9067,-21.5012],[-41.9066,-21.5013]]]}},{"type":"Feature","properties":{"cod_imovel":"RJ-3300902-E6137482A36C40BF95D895797CE667F8","num_area":"106.56820000000000000000000000000","ind_status":"AT"},"geometry":{"type":"Polygon","coordinates":[[[-41.9064,-21.5044],[-41.8947,-21.4952],[-41.893,-21.5006],[-41.9064,-21.5047],[-41.9064,-21.5044]],[[-41.9001,-21.5104],[-41.9043,-21.5123],[-41.9001,-21.5102],[-41.9001,-21.5104]],[[-41.9057,-21.4976],[-41.9076,-21.5024],[-41.9103,-21.4991],[-41.9065,-21.4969],[-41.9057,-21.4976]],[[-41.9098,-21.5076],[-41.9168,-21.5043],[-41.9108,-21.5004],[-41.9094,-21.5074],[-41.9098,-21.5076]]]}},{"type":"Feature","properties":{"cod_imovel":"RJ-3300902-E18A13C8287341658B7237ADF7C7704A","num_area":"6.5554000000000000000000000000000","ind_status":"AT"},"geometry":{"type":"Polygon","coordinates":[[[-41.8796,-21.5312],[-41.8758,-21.5309],[-41.8798,-21.5316],[-41.8796,-21.5312]]]}},{"type":"Feature","properties":{"cod_imovel":"RJ-3300902-FB30129AEB9941EBAC77535A85CB852C","num_area":"11.399400000000000000000000000000","ind_status":"AT"},"geometry":{"type":"Polygon","coordinates":[[[-42.0492,-21.5265],[-42.0543,-21.5296],[-42.0513,-21.5272],[-42.0492,-21.5265]]]}},{"type":"Feature","properties":{"cod_imovel":"RJ-3300902-B7754A6C6BEF4852888093B4ABD46647","num_area":"9.2683000000000000000000000000000","ind_status":"AT"},"geometry":{"type":"Polygon","coordinates":[[[-41.8712,-21.5128],[-41.875,-21.5128],[-41.8703,-21.5117],[-41.8712,-21.5128]]]}},{"type":"Feature","properties":{"cod_imovel":"RJ-3300902-44E644E1FACD49C6855E867F6CE49F12","num_area":"32.639700000000000000000000000000","ind_status":"PE"},"geometry":{"type":"Polygon","coordinates":[[[-41.8905,-21.4924],[-41.8867,-21.4998],[-41.8947,-21.4952],[-41.8905,-21.4924]]]}},{"type":"Feature","properties":{"cod_imovel":"RJ-3300902-53CF434AD0EB4B649995B28A137CA508","num_area":"28.001800000000000000000000000000","ind_status":"AT"},"geometry":{"type":"Polygon","coordinates":[[[-41.8936,-21.5279],[-41.8943,-21.5328],[-41.8939,-21.5281],[-41.8936,-21.5279]],[[-41.9005,-21.527],[-41.8961,-21.5222],[-41.9005,-21.527],[-41.9005,-21.527]]]}},{"type":"Feature","properties":{"cod_imovel":"RJ-3300902-153AB5CA3AF64C79B7CC574638C064BC","num_area":"44.292800000000000000000000000000","ind_status":"AT"},"geometry":{"type":"Polygon","coordinates":[[[-41.8429,-21.5074],[-41.8399,-21.5034],[-41.8422,-21.5077],[-41.8429,-21.5074]],[[-41.8542,-21.5065],[-41.8508,-21.5054],[-41.8542,-21.5067],[-41.8542,-21.5065]],[[-41.8645,-21.5077],[-41.8591,-21.5085],[-41.8652,-21.5114],[-41.865,-21.5078],[-41.8645,-21.5077]]]}},{"type":"Feature","properties":{"cod_imovel":"RJ-3300902-C222BD56A565407D80EE89C21F0153BB","num_area":"46.541200000000000000000000000000","ind_status":"PE"},"geometry":{"type":"Polygon","coordinates":[[[-41.871,-21.4708],[-41.8796,-21.4763],[-41.89,-21.4752],[-41.875,-21.4736],[-41.8762,-21.4639],[-41.8695,-21.4696],[-41.871,-21.4708]]]}},{"type":"Feature","properties":{"cod_imovel":"RJ-3300902-7878B8C4A8BD494BA571C27BBFA91CD3","num_area":"18.961500000000000000000000000000","ind_status":"PE"},"geometry":{"type":"Polygon","coordinates":[[[-41.8911,-21.3932],[-41.8972,-21.3926],[-41.8913,-21.3905],[-41.8911,-21.3932]]]}},{"type":"Feature","properties":{"cod_imovel":"RJ-3300902-73836784CFFA49AF883487D4B57857E5","num_area":"23.468600000000000000000000000000","ind_status":"AT"},"geometry":{"type":"Polygon","coordinates":[[[-42.002,-21.5856],[-42.007,-21.5822],[-42.004,-21.5783],[-42.0016,-21.5854],[-42.002,-21.5856]]]}},{"type":"Feature","properties":{"cod_imovel":"RJ-3300902-E0EE934DCA46468E976CB228DBBF68DB","num_area":"7.3104000000000000000000000000000","ind_status":"AT"},"geometry":{"type":"Polygon","coordinates":[[[-41.813,-21.3978],[-41.8102,-21.3958],[-41.8128,-21.3978],[-41.813,-21.3978]]]}},{"type":"Feature","properties":{"cod_imovel":"RJ-3300902-F8C46D2098C14C788BD23E6AC2CF6129","num_area":"10.425700000000000000000000000000","ind_status":"AT"},"geometry":{"type":"Polygon","coordinates":[[[-41.8836,-21.4147],[-41.8889,-21.4159],[-41.8846,-21.4139],[-41.8836,-21.4147]]]}},{"type":"Feature","properties":{"cod_imovel":"RJ-3300902-09B8F637411D4A629936705E6F7AEDF4","num_area":"4.8138000000000000000000000000000","ind_status":"AT"},"geometry":{"type":"Polygon","coordinates":[[[-42.0377,-21.5711],[-42.0321,-21.5718],[-42.0372,-21.571],[-42.0377,-21.5711]]]}},{"type":"Feature","properties":{"cod_imovel":"RJ-3300902-52C6D689EE80413CBCF7F8E6FA3B2990","num_area":"4.0965000000000000000000000000000","ind_status":"AT"},"geometry":{"type":"Polygon","coordinates":[[[-41.9142,-21.5716],[-41.9165,-21.5691],[-41.9141,-21.5716],[-41.9142,-21.5716]]]}},{"type":"Feature","properties":{"cod_imovel":"RJ-3300902-1855077800D1493ABF9D1A15E0335AC1","num_area":"112.56390000000000000000000000000","ind_status":"AT"},"geometry":{"type":"Polygon","coordinates":[[[-42.0068,-21.608],[-42.0047,-21.605],[-42.0066,-21.6078],[-42.0068,-21.608]],[[-42.0027,-21.6019],[-42.0067,-21.6007],[-42.0029,-21.6014],[-42.0027,-21.6019]],[[-41.9986,-21.5994],[-42.0074,-21.5976],[-42.0004,-21.5955],[-42.0052,-21.5945],[-42.0023,-21.5898],[-41.998,-21.59],[-41.9987,-21.5988],[-41.9986,-21.5994]],[[-42.0025,-21.5898],[-42.006,-21.5918],[-42.0028,-21.59],[-42.0025,-21.5898]],[[-42.006,-21.5917],[-42.0023,-21.5894],[-42.006,-21.5917],[-42.006,-21.5917]],[[-42.0072,-21.5843],[-42.0024,-21.5885],[-42.0159,-21.5953],[-42.0072,-21.5843],[-42.0072,-21.5843]]]}},{"type":"Feature","properties":{"cod_imovel":"RJ-3300902-F4232C0F1B2246D6AF388785A1A91E6B","num_area":"9.5595000000000000000000000000000","ind_status":"AT"},"geometry":{"type":"Polygon","coordinates":[[[-42.0296,-21.5958],[-42.0264,-21.5977],[-42.0326,-21.5975],[-42.0296,-21.5958]]]}},{"type":"Feature","properties":{"cod_imovel":"RJ-3300902-33CAB71CAFC04E71B9953D5CD96891CC","num_area":"53.523700000000000000000000000000","ind_status":"PE"},"geometry":{"type":"Polygon","coordinates":[[[-41.8126,-21.4352],[-41.8225,-21.4348],[-41.8133,-21.4348],[-41.8126,-21.4352]],[[-41.8057,-21.4295],[-41.8023,-21.4283],[-41.8019,-21.4344],[-41.8056,-21.4295],[-41.8057,-21.4295]]]}},{"type":"Feature","properties":{"cod_imovel":"RJ-3300902-D0E5610B629F4CEDBC5286BEFCB788B3","num_area":"14.117400000000000000000000000000","ind_status":"AT"},"geometry":{"type":"Polygon","coordinates":[[[-41.921,-21.4451],[-41.9173,-21.4458],[-41.921,-21.4452],[-41.921,-21.4451]],[[-41.9241,-21.45],[-41.9215,-21.4467],[-41.924,-21.45],[-41.9241,-21.45]],[[-41.9139,-21.4526],[-41.9189,-21.4557],[-41.914,-21.4527],[-41.9139,-21.4526]]]}},{"type":"Feature","properties":{"cod_imovel":"RJ-3300902-48DC85C2146947FDB69DD0DFA6C38AF3","num_area":"6.3427000000000000000000000000000","ind_status":"AT"},"geometry":{"type":"Polygon","coordinates":[[[-42.0327,-21.5922],[-42.0356,-21.5943],[-42.0323,-21.5906],[-42.0327,-21.5922]]]}},{"type":"Feature","properties":{"cod_imovel":"RJ-3300902-75B96CBCBD1244C595F041F8C338F8A5","num_area":"21.061700000000000000000000000000","ind_status":"AT"},"geometry":{"type":"Polygon","coordinates":[[[-41.849,-21.5282],[-41.8456,-21.5296],[-41.851,-21.5333],[-41.849,-21.5282]]]}},{"type":"Feature","properties":{"cod_imovel":"RJ-3300902-D00EE796426B44D1B17AD0EEC3BF6E80","num_area":"5.9834000000000000000000000000000","ind_status":"AT"},"geometry":{"type":"Polygon","coordinates":[[[-41.8869,-21.5449],[-41.8907,-21.5452],[-41.8869,-21.5448],[-41.8869,-21.5449]],[[-41.8904,-21.5453],[-41.8873,-21.5456],[-41.8903,-21.5453],[-41.8904,-21.5453]]]}},{"type":"Feature","properties":{"cod_imovel":"RJ-3300902-D4305EFAC6B040E1880DF66695FD9452","num_area":"7.8553000000000000000000000000000","ind_status":"AT"},"geometry":{"type":"Polygon","coordinates":[[[-41.9459,-21.5854],[-41.9454,-21.5885],[-41.9493,-21.5861],[-41.9459,-21.5851],[-41.9459,-21.5854]]]}},{"type":"Feature","properties":{"cod_imovel":"RJ-3300902-BE04986ACBF04889AF243DA5EC374FF2","num_area":"5.5238000000000000000000000000000","ind_status":"AT"},"geometry":{"type":"Polygon","coordinates":[[[-41.7324,-21.4593],[-41.7279,-21.4585],[-41.7327,-21.4599],[-41.7324,-21.4593]]]}},{"type":"Feature","properties":{"cod_imovel":"RJ-3300902-9498ED09F768445884BBF8DD89F6FE35","num_area":"3.9522000000000000000000000000000","ind_status":"AT"},"geometry":{"type":"Polygon","coordinates":[[[-41.7217,-21.4491],[-41.7194,-21.4514],[-41.7219,-21.4493],[-41.7217,-21.4491]]]}},{"type":"Feature","properties":{"cod_imovel":"RJ-3300902-D48C2D1E369B4560BA1AAFD1633E1FA3","num_area":"6.8412000000000000000000000000000","ind_status":"AT"},"geometry":{"type":"Polygon","coordinates":[[[-41.9602,-21.5128],[-41.9629,-21.5154],[-41.9603,-21.5128],[-41.9602,-21.5128]]]}},{"type":"Feature","properties":{"cod_imovel":"RJ-3300902-5A3D1E02F8484325AF7591634EAEA6AC","num_area":"3.7163000000000000000000000000000","ind_status":"AT"},"geometry":{"type":"Polygon","coordinates":[[[-42.0905,-21.5917],[-42.092,-21.5887],[-42.0905,-21.5917],[-42.0905,-21.5917]]]}},{"type":"Feature","properties":{"cod_imovel":"RJ-3300902-1628196E37FF428DB23654E23CAE2406","num_area":"47.431400000000000000000000000000","ind_status":"AT"},"geometry":{"type":"Polygon","coordinates":[[[-42.0392,-21.5234],[-42.0406,-21.5284],[-42.0489,-21.5271],[-42.0432,-21.5206],[-42.0392,-21.5234],[-42.0392,-21.5234]]]}},{"type":"Feature","properties":{"cod_imovel":"RJ-3300902-108EF9E30A5048578FAEC6BF79EC123D","num_area":"2.4996000000000000000000000000000","ind_status":"AT"},"geometry":{"type":"Polygon","coordinates":[[[-41.9669,-21.5519],[-41.968,-21.555],[-41.9672,-21.5517],[-41.9669,-21.5519]]]}},{"type":"Feature","properties":{"cod_imovel":"RJ-3300902-C44A0E1982814B0A865C6B3CFA3824FF","num_area":"5.5019000000000000000000000000000","ind_status":"AT"},"geometry":{"type":"Polygon","coordinates":[[[-41.9594,-21.4475],[-41.9591,-21.4518],[-41.9594,-21.4481],[-41.9594,-21.4475]]]}},{"type":"Feature","properties":{"cod_imovel":"RJ-3300902-0DE502C49F504303A46B350789E73167","num_area":"11.269800000000000000000000000000","ind_status":"AT"},"geometry":{"type":"Polygon","coordinates":[[[-41.9761,-21.6187],[-41.9764,-21.613],[-41.9759,-21.6181],[-41.9761,-21.6187]]]}},{"type":"Feature","properties":{"cod_imovel":"RJ-3300902-D6DD7CC6874D4754B5FCF7508B6931AC","num_area":"25.437400000000000000000000000000","ind_status":"AT"},"geometry":{"type":"Polygon","coordinates":[[[-41.7674,-21.4553],[-41.7672,-21.4515],[-41.7672,-21.4548],[-41.7674,-21.4553]],[[-41.7617,-21.455],[-41.76,-21.458],[-41.7619,-21.4551],[-41.7617,-21.455]]]}},{"type":"Feature","properties":{"cod_imovel":"RJ-3300902-0D95E5EB046A49A5BDDDF49128161138","num_area":"11.882900000000000000000000000000","ind_status":"AT"},"geometry":{"type":"Polygon","coordinates":[[[-41.9111,-21.4415],[-41.9073,-21.4415],[-41.9107,-21.442],[-41.9111,-21.4415]]]}},{"type":"Feature","properties":{"cod_imovel":"RJ-3300902-D43B81651C114193B2B0C90EFE855581","num_area":"8.2028000000000000000000000000000","ind_status":"AT"},"geometry":{"type":"Polygon","coordinates":[[[-42.0023,-21.5505],[-41.9987,-21.5478],[-42.0016,-21.546],[-41.9973,-21.5475],[-42.0022,-21.5506],[-42.0023,-21.5505]]]}},{"type":"Feature","properties":{"cod_imovel":"RJ-3300902-AA808035F7474A5CA0D0CF8A24FAC9FE","num_area":"4.5601000000000000000000000000000","ind_status":"AT"},"geometry":{"type":"Polygon","coordinates":[[[-41.9076,-21.4142],[-41.9053,-21.4121],[-41.9071,-21.4153],[-41.9076,-21.4142]]]}},{"type":"Feature","properties":{"cod_imovel":"RJ-3300902-91B9737730334D6DB1E8495C308F6DF0","num_area":"2.8245000000000000000000000000000","ind_status":"AT"},"geometry":{"type":"Polygon","coordinates":[[[-41.8661,-21.3816],[-41.869,-21.3837],[-41.8665,-21.3813],[-41.8661,-21.3816]]]}},{"type":"Feature","properties":{"cod_imovel":"RJ-3300902-88022CF07D934F248AB8C8D08886B2D5","num_area":"13.361900000000000000000000000000","ind_status":"AT"},"geometry":{"type":"Polygon","coordinates":[[[-41.8408,-21.3433],[-41.838,-21.3402],[-41.8401,-21.3429],[-41.8408,-21.3433]]]}},{"type":"Feature","properties":{"cod_imovel":"RJ-3300902-D6C2B38A1DC34688A4092A7A866AB32A","num_area":"3.8795000000000000000000000000000","ind_status":"AT"},"geometry":{"type":"Polygon","coordinates":[[[-41.9271,-21.4548],[-41.9249,-21.4523],[-41.9261,-21.4562],[-41.9271,-21.4548]]]}},{"type":"Feature","properties":{"cod_imovel":"RJ-3300902-A216D85B2E8F43688B7FA3DDCF5DC871","num_area":"2.1370000000000000000000000000000","ind_status":"AT"},"geometry":{"type":"Polygon","coordinates":[[[-41.8262,-21.3598],[-41.8303,-21.3596],[-41.8269,-21.36],[-41.8262,-21.3598]]]}},{"type":"Feature","properties":{"cod_imovel":"RJ-3300902-9F3F0FBD6A464F27A51685DBBD8DC8D7","num_area":"53.879400000000000000000000000000","ind_status":"AT"},"geometry":{"type":"Polygon","coordinates":[[[-41.8184,-21.4723],[-41.8136,-21.4664],[-41.8171,-21.4736],[-41.8184,-21.4723]],[[-41.8107,-21.4698],[-41.8117,-21.4739],[-41.8128,-21.4682],[-41.8068,-21.4655],[-41.8107,-21.4696],[-41.8107,-21.4698]],[[-41.8089,-21.4602],[-41.8168,-21.4599],[-41.8091,-21.4599],[-41.8089,-21.4602]]]}},{"type":"Feature","properties":{"cod_imovel":"RJ-3300902-1D04EAB72BF34BA885BCDC8F8368B323","num_area":"5.5806000000000000000000000000000","ind_status":"AT"},"geometry":{"type":"Polygon","coordinates":[[[-41.834,-21.3846],[-41.8373,-21.3821],[-41.8343,-21.384],[-41.834,-21.3846]]]}},{"type":"Feature","properties":{"cod_imovel":"RJ-3300902-89DEF0DCEF774ABE9D24D06BCB7FE6C7","num_area":"6.5521000000000000000000000000000","ind_status":"AT"},"geometry":{"type":"Polygon","coordinates":[[[-41.998,-21.4979],[-42.0006,-21.4959],[-41.9981,-21.4978],[-41.998,-21.4979]]]}},{"type":"Feature","properties":{"cod_imovel":"RJ-3300902-211093398BAD45B7B8E8245FAF35D0D0","num_area":"13.510300000000000000000000000000","ind_status":"AT"},"geometry":{"type":"Polygon","coordinates":[[[-41.9406,-21.4663],[-41.9457,-21.4648],[-41.9413,-21.4656],[-41.9406,-21.4663]]]}},{"type":"Feature","properties":{"cod_imovel":"RJ-3300902-938126BA3F2E47DA88379D224BF8A779","num_area":"71.827700000000000000000000000000","ind_status":"AT"},"geometry":{"type":"Polygon","coordinates":[[[-41.8301,-21.3381],[-41.8242,-21.3439],[-41.8326,-21.3453],[-41.8376,-21.3398],[-41.8306,-21.3384],[-41.8301,-21.3381]],[[-41.8159,-21.3567],[-41.821,-21.3589],[-41.8158,-21.3567],[-41.8159,-21.3567]]]}},{"type":"Feature","properties":{"cod_imovel":"RJ-3300902-05723B6AB3B44B0890044D49382D755C","num_area":"186.37100000000000000000000000000","ind_status":"PE"},"geometry":{"type":"Polygon","coordinates":[[[-41.9566,-21.5471],[-41.9604,-21.5517],[-41.9567,-21.5473],[-41.9566,-21.5471]],[[-41.9672,-21.5491],[-41.9599,-21.5371],[-41.9497,-21.5404],[-41.9465,-21.5466],[-41.9556,-21.5555],[-41.953,-21.5416],[-41.9603,-21.5452],[-41.9605,-21.55],[-41.9672,-21.5493],[-41.9672,-21.5491]]]}},{"type":"Feature","properties":{"cod_imovel":"RJ-3300902-1309A403D81946FF87E806891FE701D9","num_area":"17.972800000000000000000000000000","ind_status":"AT"},"geometry":{"type":"Polygon","coordinates":[[[-41.8938,-21.5279],[-41.8948,-21.5323],[-41.8943,-21.528],[-41.8938,-21.5279]]]}},{"type":"Feature","properties":{"cod_imovel":"RJ-3300902-7385C9CC638141B28B4310C75980ABF1","num_area":"41.597400000000000000000000000000","ind_status":"PE"},"geometry":{"type":"Polygon","coordinates":[[[-41.8435,-21.5074],[-41.8511,-21.5021],[-41.8437,-21.5072],[-41.8435,-21.5074]],[[-41.8443,-21.5086],[-41.8534,-21.5015],[-41.8443,-21.5086],[-41.8443,-21.5086]]]}},{"type":"Feature","properties":{"cod_imovel":"RJ-3300902-D3B8CFE9D4234F9A9A867495B854339C","num_area":"22.396700000000000000000000000000","ind_status":"AT"},"geometry":{"type":"Polygon","coordinates":[[[-41.8723,-21.4978],[-41.8779,-21.4883],[-41.871,-21.4965],[-41.8723,-21.4978]]]}},{"type":"Feature","properties":{"cod_imovel":"RJ-3300902-E95ECE718F0B4D4EABBBF87146431292","num_area":"49.976900000000000000000000000000","ind_status":"AT"},"geometry":{"type":"Polygon","coordinates":[[[-41.981,-21.5401],[-41.9833,-21.5434],[-41.9884,-21.5381],[-41.9833,-21.5343],[-41.9809,-21.5394],[-41.981,-21.5401]]]}},{"type":"Feature","properties":{"cod_imovel":"RJ-3300902-9BF7F0AE98BC422F9BD9FBED165F3C37","num_area":"30.063600000000000000000000000000","ind_status":"AT"},"geometry":{"type":"Polygon","coordinates":[[[-41.8136,-21.3274],[-41.8141,-21.3325],[-41.8197,-21.3292],[-41.8139,-21.3271],[-41.8136,-21.3274]]]}},{"type":"Feature","properties":{"cod_imovel":"RJ-3300902-742519AEAD5E434CB0436673AE2CDC41","num_area":"83.385600000000000000000000000000","ind_status":"AT"},"geometry":{"type":"Polygon","coordinates":[[[-41.9826,-21.5678],[-41.9866,-21.5708],[-41.9826,-21.5678],[-41.9826,-21.5678]],[[-41.9898,-21.5699],[-41.994,-21.5663],[-41.9898,-21.5697],[-41.9898,-21.5699]],[[-41.9964,-21.5729],[-41.9937,-21.5685],[-41.9892,-21.5747],[-41.9978,-21.5796],[-41.9966,-21.574],[-41.9964,-21.5729]]]}},{"type":"Feature","properties":{"cod_imovel":"RJ-3300902-98FAF5CC2BB04E3AAD9745E6DE78D833","num_area":"75.463700000000000000000000000000","ind_status":"AT"},"geometry":{"type":"Polygon","coordinates":[[[-41.8356,-21.4762],[-41.8438,-21.4665],[-41.834,-21.4687],[-41.831,-21.472],[-41.8355,-21.4759],[-41.8356,-21.4762]],[[-41.8381,-21.4756],[-41.8447,-21.4669],[-41.8381,-21.4754],[-41.8381,-21.4756]]]}},{"type":"Feature","properties":{"cod_imovel":"RJ-3300902-0AE60BBFC6C74AB6841FB848823AFD68","num_area":"12.791800000000000000000000000000","ind_status":"AT"},"geometry":{"type":"Polygon","coordinates":[[[-41.9385,-21.5541],[-41.9416,-21.5533],[-41.9382,-21.5551],[-41.9385,-21.5541]],[[-41.9469,-21.5433],[-41.9466,-21.5465],[-41.9472,-21.5434],[-41.9469,-21.5433]]]}},{"type":"Feature","properties":{"cod_imovel":"RJ-3300902-2072915B51B24CA38010D7D2AE672A08","num_area":"5.4655000000000000000000000000000","ind_status":"AT"},"geometry":{"type":"Polygon","coordinates":[[[-42.01,-21.5266],[-42.0121,-21.5228],[-42.0097,-21.5265],[-42.01,-21.5266]]]}},{"type":"Feature","properties":{"cod_imovel":"RJ-3300902-349F3922D7A94687A152EA5261E9A4CF","num_area":"10.821000000000000000000000000000","ind_status":"AT"},"geometry":{"type":"Polygon","coordinates":[[[-41.9209,-21.5537],[-41.9201,-21.5578],[-41.9228,-21.5549],[-41.9209,-21.5537]]]}},{"type":"Feature","properties":{"cod_imovel":"RJ-3300902-B8B1F31800164210B2849B7E43B3F30C","num_area":"24.493300000000000000000000000000","ind_status":"AT"},"geometry":{"type":"Polygon","coordinates":[[[-41.9508,-21.5144],[-41.9439,-21.511],[-41.9424,-21.5155],[-41.9508,-21.5145],[-41.9508,-21.5144]]]}},{"type":"Feature","properties":{"cod_imovel":"RJ-3300902-7F2B62FAEFA841188DFE4ED99F3EF2EF","num_area":"32.022800000000000000000000000000","ind_status":"AT"},"geometry":{"type":"Polygon","coordinates":[[[-41.9797,-21.5285],[-41.9759,-21.5293],[-41.9798,-21.5287],[-41.9797,-21.5285]],[[-41.9716,-21.5248],[-41.972,-21.5286],[-41.9717,-21.5249],[-41.9716,-21.5248]],[[-41.9819,-21.5327],[-41.9766,-21.5344],[-41.9823,-21.5333],[-41.9819,-21.5327]]]}},{"type":"Feature","properties":{"cod_imovel":"RJ-3300902-3767796E511F4CBDAD67A11C031F7755","num_area":"5.2051000000000000000000000000000","ind_status":"AT"},"geometry":{"type":"Polygon","coordinates":[[[-42.0281,-21.5708],[-42.03,-21.5672],[-42.0278,-21.5708],[-42.0281,-21.5708]]]}},{"type":"Feature","properties":{"cod_imovel":"RJ-3300902-07983578EA154117B155B224E56ED3F6","num_area":"3.9799000000000000000000000000000","ind_status":"AT"},"geometry":{"type":"Polygon","coordinates":[[[-41.8256,-21.3393],[-41.8275,-21.3365],[-41.8253,-21.3391],[-41.8256,-21.3393]]]}},{"type":"Feature","properties":{"cod_imovel":"RJ-3300902-9A5955BC48CA40E6AF81564E6F91D198","num_area":"41.672900000000000000000000000000","ind_status":"AT"},"geometry":{"type":"Polygon","coordinates":[[[-42.0411,-21.5938],[-42.0466,-21.5887],[-42.0413,-21.5935],[-42.0411,-21.5938]],[[-42.0466,-21.6002],[-42.0468,-21.5953],[-42.0421,-21.5958],[-42.0461,-21.6001],[-42.0466,-21.6002]]]}},{"type":"Feature","properties":{"cod_imovel":"RJ-3300902-CA418809BB7F45CB8EAB7BFE2CF75A5B","num_area":"14.686700000000000000000000000000","ind_status":"AT"},"geometry":{"type":"Polygon","coordinates":[[[-41.8066,-21.4497],[-41.8056,-21.4538],[-41.8092,-21.452],[-41.8066,-21.4497]]]}},{"type":"Feature","properties":{"cod_imovel":"RJ-3300902-E05BB0E2BFE448A7A0AE99A537C37CD1","num_area":"30.006800000000000000000000000000","ind_status":"AT"},"geometry":{"type":"Polygon","coordinates":[[[-41.9463,-21.559],[-41.9391,-21.5581],[-41.9448,-21.5651],[-41.9457,-21.5592],[-41.9463,-21.559]]]}},{"type":"Feature","properties":{"cod_imovel":"RJ-3300902-E9A602EA561A4C74AD3BC720434B23B0","num_area":"9.1405000000000000000000000000000","ind_status":"AT"},"geometry":{"type":"Polygon","coordinates":[[[-41.8696,-21.3686],[-41.8711,-21.3713],[-41.8722,-21.3668],[-41.8696,-21.3686],[-41.8696,-21.3686]]]}},{"type":"Feature","properties":{"cod_imovel":"RJ-3300902-51290EB4895C42ACB7D5E32B51AA57DE","num_area":"12.125900000000000000000000000000","ind_status":"AT"},"geometry":{"type":"Polygon","coordinates":[[[-41.8625,-21.4939],[-41.855,-21.488],[-41.8622,-21.4936],[-41.8625,-21.4939]]]}},{"type":"Feature","properties":{"cod_imovel":"RJ-3300902-62C38F62ACED4D8DAB3CFE1C346CCFF7","num_area":"36.897300000000000000000000000000","ind_status":"AT"},"geometry":{"type":"Polygon","coordinates":[[[-41.8927,-21.5572],[-41.8913,-21.562],[-41.8935,-21.5556],[-41.8927,-21.5572]],[[-41.9023,-21.5578],[-41.8978,-21.5571],[-41.9026,-21.5583],[-41.9023,-21.5578]]]}},{"type":"Feature","properties":{"cod_imovel":"RJ-3300902-8E46F47A8C7F4A5CB7143A1595C11D7D","num_area":"46.200000000000000000000000000000","ind_status":"AT"},"geometry":{"type":"Polygon","coordinates":[[[-41.836,-21.4655],[-41.8307,-21.4667],[-41.8351,-21.4662],[-41.836,-21.4655]],[[-41.8436,-21.4579],[-41.8333,-21.4628],[-41.8433,-21.4626],[-41.8448,-21.4585],[-41.8436,-21.4579]]]}},{"type":"Feature","properties":{"cod_imovel":"RJ-3300902-A01F6BD458174AB2BEC26EBF9E49C998","num_area":"9.9779000000000000000000000000000","ind_status":"AT"},"geometry":{"type":"Polygon","coordinates":[[[-42.0231,-21.5441],[-42.0187,-21.5427],[-42.0235,-21.5447],[-42.0231,-21.5441]]]}},{"type":"Feature","properties":{"cod_imovel":"RJ-3300902-0CB99DDC7E9D41EB96894D1DD357C312","num_area":"5.7633000000000000000000000000000","ind_status":"AT"},"geometry":{"type":"Polygon","coordinates":[[[-41.746,-21.4631],[-41.7412,-21.4584],[-41.7433,-21.4608],[-41.746,-21.4631]]]}},{"type":"Feature","properties":{"cod_imovel":"RJ-3300902-85C4BE74701B4393941B4F3E98B19C87","num_area":"5.4930000000000000000000000000000","ind_status":"AT"},"geometry":{"type":"Polygon","coordinates":[[[-42.0306,-21.5793],[-42.0342,-21.5815],[-42.0306,-21.5792],[-42.0306,-21.5793]]]}},{"type":"Feature","properties":{"cod_imovel":"RJ-3300902-B3AE416EBA5B4E5F94A5C68FA0650813","num_area":"31.165700000000000000000000000000","ind_status":"AT"},"geometry":{"type":"Polygon","coordinates":[[[-41.8612,-21.4026],[-41.8695,-21.4052],[-41.8614,-21.4022],[-41.8612,-21.4026]]]}},{"type":"Feature","properties":{"cod_imovel":"RJ-3300902-686F79432A23471FBA29E5891C9BCA87","num_area":"7.9858000000000000000000000000000","ind_status":"AT"},"geometry":{"type":"Polygon","coordinates":[[[-41.9289,-21.5469],[-41.9342,-21.5451],[-41.9289,-21.5466],[-41.9289,-21.5469]]]}},{"type":"Feature","properties":{"cod_imovel":"RJ-3300902-7DAC84D7422B43CDBC1D0601AE4CDF82","num_area":"12.704900000000000000000000000000","ind_status":"AT"},"geometry":{"type":"Polygon","coordinates":[[[-42.0334,-21.5885],[-42.0361,-21.5907],[-42.0372,-21.5861],[-42.0341,-21.5883],[-42.0334,-21.5885]]]}},{"type":"Feature","properties":{"cod_imovel":"RJ-3300902-FDBB0B8812F041FFA6F49E81E9EE8E1E","num_area":"44.495200000000000000000000000000","ind_status":"AT"},"geometry":{"type":"Polygon","coordinates":[[[-42.0361,-21.5586],[-42.0335,-21.5604],[-42.038,-21.5654],[-42.0384,-21.5616],[-42.0361,-21.5586]],[[-42.0373,-21.5571],[-42.0419,-21.5634],[-42.041,-21.5595],[-42.0373,-21.5571]]]}},{"type":"Feature","properties":{"cod_imovel":"RJ-3300902-DA01BF49202343A1A12C35D1B8E76AB9","num_area":"8.9760000000000000000000000000000","ind_status":"AT"},"geometry":{"type":"Polygon","coordinates":[[[-41.8265,-21.4166],[-41.8222,-21.4153],[-41.8264,-21.4167],[-41.8265,-21.4166]]]}},{"type":"Feature","properties":{"cod_imovel":"RJ-3300902-ABF6EC1267F7477B84BE46A1BFBBEC8F","num_area":"15.311500000000000000000000000000","ind_status":"AT"},"geometry":{"type":"Polygon","coordinates":[[[-41.7654,-21.4309],[-41.76,-21.4316],[-41.7667,-21.4326],[-41.7654,-21.4309]]]}},{"type":"Feature","properties":{"cod_imovel":"RJ-3300902-F2D50A3A480849258250B1E1E625C66F","num_area":"5.1898000000000000000000000000000","ind_status":"AT"},"geometry":{"type":"Polygon","coordinates":[[[-42.0405,-21.5872],[-42.0371,-21.5862],[-42.041,-21.5875],[-42.0405,-21.5872]]]}},{"type":"Feature","properties":{"cod_imovel":"RJ-3300902-1EC944D690DD424E9891F38A9FF1E7FF","num_area":"10.432100000000000000000000000000","ind_status":"AT"},"geometry":{"type":"Polygon","coordinates":[[[-41.9538,-21.4671],[-41.9538,-21.4713],[-41.9556,-21.4683],[-41.9538,-21.4671]]]}},{"type":"Feature","properties":{"cod_imovel":"RJ-3300902-332F0BB06A1D445EA82E13607FB4E2BA","num_area":"6.4952000000000000000000000000000","ind_status":"AT"},"geometry":{"type":"Polygon","coordinates":[[[-41.9991,-21.5424],[-41.9952,-21.543],[-41.9987,-21.5425],[-41.9991,-21.5424]]]}},{"type":"Feature","properties":{"cod_imovel":"RJ-3300902-272B9195B4934F0A9E5678016186A8BB","num_area":"7.5862000000000000000000000000000","ind_status":"AT"},"geometry":{"type":"Polygon","coordinates":[[[-41.9076,-21.5445],[-41.9079,-21.5482],[-41.9092,-21.5451],[-41.9076,-21.5445]]]}},{"type":"Feature","properties":{"cod_imovel":"RJ-3300902-FDD1E3BDE1DE4BEB90E2384353B6A0C7","num_area":"9.0507000000000000000000000000000","ind_status":"AT"},"geometry":{"type":"Polygon","coordinates":[[[-41.996,-21.5459],[-41.994,-21.5425],[-41.9959,-21.5464],[-41.996,-21.5459]]]}},{"type":"Feature","properties":{"cod_imovel":"RJ-3300902-94D75A790F4C464899165F286907747B","num_area":"40.659200000000000000000000000000","ind_status":"AT"},"geometry":{"type":"Polygon","coordinates":[[[-41.9743,-21.5091],[-41.9684,-21.506],[-41.9744,-21.5093],[-41.9743,-21.5091]],[[-41.9737,-21.5155],[-41.9764,-21.5127],[-41.9735,-21.5153],[-41.9737,-21.5155]],[[-41.9588,-21.5091],[-41.9626,-21.5156],[-41.9589,-21.5091],[-41.9588,-21.5091]]]}},{"type":"Feature","properties":{"cod_imovel":"RJ-3300902-0DD9D8AFDD6C4388981F54E639F3C0E8","num_area":"20.424700000000000000000000000000","ind_status":"AT"},"geometry":{"type":"Polygon","coordinates":[[[-41.8173,-21.3895],[-41.8245,-21.3882],[-41.8179,-21.3895],[-41.8173,-21.3895]]]}},{"type":"Feature","properties":{"cod_imovel":"RJ-3300902-B73C6A14C102428DA0D433BAB0F17CBB","num_area":"8.1471000000000000000000000000000","ind_status":"AT"},"geometry":{"type":"Polygon","coordinates":[[[-41.8208,-21.3365],[-41.8182,-21.3327],[-41.8207,-21.3354],[-41.8208,-21.3365]]]}},{"type":"Feature","properties":{"cod_imovel":"RJ-3300902-BF07A85C56E64A5A829B59EE95D5F4F8","num_area":"6.5733000000000000000000000000000","ind_status":"AT"},"geometry":{"type":"Polygon","coordinates":[[[-41.8001,-21.4042],[-41.7979,-21.4009],[-41.8,-21.4043],[-41.8001,-21.4042]]]}},{"type":"Feature","properties":{"cod_imovel":"RJ-3300902-F9C977DAE4634745B1A64FFCA8B1DF13","num_area":"6.3245000000000000000000000000000","ind_status":"AT"},"geometry":{"type":"Polygon","coordinates":[[[-41.8138,-21.3314],[-41.8158,-21.3272],[-41.8136,-21.3312],[-41.8138,-21.3314]]]}},{"type":"Feature","properties":{"cod_imovel":"RJ-3300902-26997D0FE427422B9FF6D7A599AE2287","num_area":"20.336000000000000000000000000000","ind_status":"PE"},"geometry":{"type":"Polygon","coordinates":[[[-41.7523,-21.4269],[-41.7499,-21.4237],[-41.7521,-21.427],[-41.7523,-21.4269]]]}},{"type":"Feature","properties":{"cod_imovel":"RJ-3300902-BA502B3E6B3F420CB07F314692617F94","num_area":"13.630600000000000000000000000000","ind_status":"AT"},"geometry":{"type":"Polygon","coordinates":[[[-41.7857,-21.3719],[-41.7842,-21.3764],[-41.7905,-21.3729],[-41.7858,-21.372],[-41.7857,-21.3719]]]}},{"type":"Feature","properties":{"cod_imovel":"RJ-3300902-BE4E8108FD16405E9CF28B052E3E54F4","num_area":"10.811500000000000000000000000000","ind_status":"AT"},"geometry":{"type":"Polygon","coordinates":[[[-42.0229,-21.5108],[-42.0248,-21.5075],[-42.0209,-21.5093],[-42.0229,-21.5108]]]}},{"type":"Feature","properties":{"cod_imovel":"RJ-3300902-18512B2C5B3744C2956E40262D2476AD","num_area":"23.549100000000000000000000000000","ind_status":"AT"},"geometry":{"type":"Polygon","coordinates":[[[-42.0192,-21.54],[-42.0237,-21.545],[-42.0242,-21.5398],[-42.0196,-21.5401],[-42.0192,-21.54]]]}},{"type":"Feature","properties":{"cod_imovel":"RJ-3300902-F7F3011E4A3749BE86FC541C017DFA21","num_area":"105.93840000000000000000000000000","ind_status":"PE"},"geometry":{"type":"Polygon","coordinates":[[[-41.9282,-21.5157],[-41.9382,-21.5138],[-41.9283,-21.5152],[-41.9282,-21.5157]],[[-41.9233,-21.5092],[-41.9277,-21.5155],[-41.9298,-21.5112],[-41.9234,-21.5093],[-41.9233,-21.5092]],[[-41.9218,-21.4979],[-41.9196,-21.5013],[-41.928,-21.5007],[-41.9221,-21.498],[-41.9218,-21.4979]],[[-41.9409,-21.5086],[-41.9309,-21.5051],[-41.9357,-21.5102],[-41.9412,-21.5087],[-41.9409,-21.5086]]]}},{"type":"Feature","properties":{"cod_imovel":"RJ-3300902-3B4082EED2FB4EB4AE4AD3EDE657859B","num_area":"11.551800000000000000000000000000","ind_status":"AT"},"geometry":{"type":"Polygon","coordinates":[[[-42.0405,-21.5825],[-42.0371,-21.5861],[-42.0406,-21.5825],[-42.0405,-21.5825]]]}},{"type":"Feature","properties":{"cod_imovel":"RJ-3300902-80ED2473A0A74F1B98788CBC20AED174","num_area":"87.434000000000000000000000000000","ind_status":"AT"},"geometry":{"type":"Polygon","coordinates":[[[-41.9586,-21.4942],[-41.9646,-21.4985],[-41.9692,-21.4942],[-41.9627,-21.4907],[-41.9586,-21.4942]],[[-41.982,-21.4801],[-41.9781,-21.4765],[-41.9737,-21.4817],[-41.9779,-21.4847],[-41.982,-21.4801]]]}},{"type":"Feature","properties":{"cod_imovel":"RJ-3300902-95AA4A6693D5442E829C1321EEB820BB","num_area":"7.6407000000000000000000000000000","ind_status":"AT"},"geometry":{"type":"Polygon","coordinates":[[[-41.8555,-21.3624],[-41.8524,-21.3638],[-41.8555,-21.3624],[-41.8555,-21.3624]]]}},{"type":"Feature","properties":{"cod_imovel":"RJ-3300902-E8EE92034C8C473EA740818F2E069FD6","num_area":"11.557500000000000000000000000000","ind_status":"AT"},"geometry":{"type":"Polygon","coordinates":[[[-41.871,-21.3858],[-41.8653,-21.3861],[-41.8717,-21.3863],[-41.871,-21.3858]]]}},{"type":"Feature","properties":{"cod_imovel":"RJ-3300902-EE07472911924F9D8A416D0F7E594DE2","num_area":"5.3320000000000000000000000000000","ind_status":"AT"},"geometry":{"type":"Polygon","coordinates":[[[-41.8539,-21.4152],[-41.8565,-21.4115],[-41.854,-21.4152],[-41.8539,-21.4152]]]}},{"type":"Feature","properties":{"cod_imovel":"RJ-3300902-3FC23735653F4601B04D81B9969E7982","num_area":"3.1276000000000000000000000000000","ind_status":"AT"},"geometry":{"type":"Polygon","coordinates":[[[-41.8242,-21.3935],[-41.8269,-21.3907],[-41.8237,-21.3936],[-41.8242,-21.3935]]]}},{"type":"Feature","properties":{"cod_imovel":"RJ-3300902-BA13196BC85D455BBF28ECA424C6D835","num_area":"4.3164000000000000000000000000000","ind_status":"AT"},"geometry":{"type":"Polygon","coordinates":[[[-41.9305,-21.482],[-41.9274,-21.4809],[-41.9306,-21.4821],[-41.9305,-21.482]]]}},{"type":"Feature","properties":{"cod_imovel":"RJ-3300902-7A648771744E4BFA95897A5F6200382A","num_area":"14.930000000000000000000000000000","ind_status":"AT"},"geometry":{"type":"Polygon","coordinates":[[[-42.0416,-21.5755],[-42.0387,-21.5821],[-42.0427,-21.576],[-42.0416,-21.5755]]]}},{"type":"Feature","properties":{"cod_imovel":"RJ-3300902-9D167799190A415CBDAE055CC4F02C69","num_area":"57.836200000000000000000000000000","ind_status":"PE"},"geometry":{"type":"Polygon","coordinates":[[[-41.9667,-21.5955],[-41.9636,-21.594],[-41.9656,-21.5972],[-41.9667,-21.5955]],[[-41.953,-21.606],[-41.9496,-21.6038],[-41.9522,-21.6055],[-41.953,-21.606]],[[-41.9511,-21.5972],[-41.9548,-21.599],[-41.9522,-21.5968],[-41.9511,-21.5972]],[[-41.9415,-21.5935],[-41.9431,-21.5984],[-41.9431,-21.5942],[-41.9415,-21.5935]],[[-41.9604,-21.6049],[-41.9656,-21.604],[-41.9617,-21.6023],[-41.9604,-21.6049]],[[-41.9567,-21.6073],[-41.9599,-21.6079],[-41.9563,-21.6072],[-41.9567,-21.6073]]]}},{"type":"Feature","properties":{"cod_imovel":"RJ-3300902-443C0814230F4E7381CC4CAA6253ECAE","num_area":"20.339400000000000000000000000000","ind_status":"AT"},"geometry":{"type":"Polygon","coordinates":[[[-42.0389,-21.5747],[-42.0386,-21.5821],[-42.039,-21.5745],[-42.0389,-21.5747]]]}},{"type":"Feature","properties":{"cod_imovel":"RJ-3300902-A6A8A83D48D04F7A89541F79B98BD2B9","num_area":"38.497400000000000000000000000000","ind_status":"AT"},"geometry":{"type":"Polygon","coordinates":[[[-41.9343,-21.5217],[-41.9376,-21.5153],[-41.9282,-21.5157],[-41.9341,-21.5215],[-41.9343,-21.5217]]]}},{"type":"Feature","properties":{"cod_imovel":"RJ-3300902-044D06E6BCD94AEDB34EEB028FA06540","num_area":"38.525400000000000000000000000000","ind_status":"AT"},"geometry":{"type":"Polygon","coordinates":[[[-41.8415,-21.3471],[-41.8421,-21.3429],[-41.8323,-21.3467],[-41.8391,-21.3483],[-41.8415,-21.3471]]]}},{"type":"Feature","properties":{"cod_imovel":"RJ-3300902-51C55A3C120A4F4DB5D72926B9E3D1C7","num_area":"62.545200000000000000000000000000","ind_status":"AT"},"geometry":{"type":"Polygon","coordinates":[[[-41.8573,-21.4459],[-41.8555,-21.4538],[-41.8573,-21.4464],[-41.8573,-21.4459]],[[-41.8498,-21.442],[-41.8464,-21.4462],[-41.8496,-21.4504],[-41.8535,-21.4463],[-41.8503,-21.4421],[-41.855,-21.4411],[-41.8498,-21.4418],[-41.8498,-21.442]],[[-41.8507,-21.4512],[-41.8533,-21.445],[-41.8507,-21.4511],[-41.8507,-21.4512]]]}},{"type":"Feature","properties":{"cod_imovel":"RJ-3300902-07A573D05F7B4D18A2DADB409D5A4964","num_area":"21.407100000000000000000000000000","ind_status":"AT"},"geometry":{"type":"Polygon","coordinates":[[[-41.9924,-21.5158],[-41.9879,-21.5094],[-41.9864,-21.5174],[-41.9874,-21.5135],[-41.9913,-21.5155],[-41.9924,-21.5158]]]}},{"type":"Feature","properties":{"cod_imovel":"RJ-3300902-FC0200CBDF5748FAA4806A6BA5DF2684","num_area":"15.414500000000000000000000000000","ind_status":"AT"},"geometry":{"type":"Polygon","coordinates":[[[-42.0008,-21.5218],[-41.9947,-21.5239],[-42.0008,-21.5218],[-42.0008,-21.5218]]]}},{"type":"Feature","properties":{"cod_imovel":"RJ-3300902-300D7C0A9A3D4879A25873F774747664","num_area":"46.032900000000000000000000000000","ind_status":"CA"},"geometry":{"type":"Polygon","coordinates":[[[-41.9346,-21.521],[-41.9376,-21.5153],[-41.9282,-21.5157],[-41.9346,-21.5211],[-41.9346,-21.521]]]}},{"type":"Feature","properties":{"cod_imovel":"RJ-3300902-E4FA353DBF6E4FECA5F9FEFDFFE97F16","num_area":"41.507000000000000000000000000000","ind_status":"AT"},"geometry":{"type":"Polygon","coordinates":[[[-41.8227,-21.3833],[-41.825,-21.3881],[-41.8282,-21.386],[-41.8237,-21.3765],[-41.8222,-21.3825],[-41.8227,-21.3833]]]}},{"type":"Feature","properties":{"cod_imovel":"RJ-3300902-67DF4952830D4B27B9A4F4A2F45107FF","num_area":"21.613600000000000000000000000000","ind_status":"AT"},"geometry":{"type":"Polygon","coordinates":[[[-42.0495,-21.5661],[-42.0511,-21.5631],[-42.0486,-21.5658],[-42.0495,-21.5661]],[[-42.0592,-21.5512],[-42.0552,-21.5478],[-42.059,-21.5512],[-42.0592,-21.5512]]]}},{"type":"Feature","properties":{"cod_imovel":"RJ-3300902-F1F6EB10CA714069A36F0A305B794D8D","num_area":"57.067900000000000000000000000000","ind_status":"AT"},"geometry":{"type":"Polygon","coordinates":[[[-41.9455,-21.5835],[-41.939,-21.5833],[-41.9456,-21.5835],[-41.9455,-21.5835]],[[-41.9313,-21.5775],[-41.933,-21.5824],[-41.9316,-21.5776],[-41.9313,-21.5775]],[[-41.9409,-21.5766],[-41.9338,-21.5762],[-41.9413,-21.5768],[-41.9409,-21.5766]]]}},{"type":"Feature","properties":{"cod_imovel":"RJ-3300902-495E7425F709476E8CA3CB3FCE9E0357","num_area":"31.050700000000000000000000000000","ind_status":"AT"},"geometry":{"type":"Polygon","coordinates":[[[-42.0113,-21.5528],[-42.0079,-21.5573],[-42.0158,-21.5551],[-42.0114,-21.5528],[-42.0113,-21.5528]]]}},{"type":"Feature","properties":{"cod_imovel":"RJ-3300902-9BCB643AAFB24AFB8E57A25B8103C9CF","num_area":"10.696500000000000000000000000000","ind_status":"CA"},"geometry":{"type":"Polygon","coordinates":[[[-41.8971,-21.3916],[-41.8914,-21.3911],[-41.8966,-21.3932],[-41.8971,-21.3916]]]}},{"type":"Feature","properties":{"cod_imovel":"RJ-3300902-6412FF9550994598BB59558F1784DAE5","num_area":"24.205600000000000000000000000000","ind_status":"AT"},"geometry":{"type":"Polygon","coordinates":[[[-41.8564,-21.3579],[-41.8608,-21.3583],[-41.8565,-21.3578],[-41.8564,-21.3579]],[[-41.8605,-21.3587],[-41.8641,-21.3594],[-41.8601,-21.3556],[-41.8606,-21.3587],[-41.8605,-21.3587]]]}},{"type":"Feature","properties":{"cod_imovel":"RJ-3300902-6B8D0C6CEB094A3BAB33AF823F65AE9D","num_area":"3.9192000000000000000000000000000","ind_status":"AT"},"geometry":{"type":"Polygon","coordinates":[[[-41.8121,-21.4743],[-41.8082,-21.4743],[-41.8123,-21.4744],[-41.8121,-21.4743]]]}},{"type":"Feature","properties":{"cod_imovel":"RJ-3300902-CAA940291F104E62A0B4A4B64AE1C491","num_area":"9.1391000000000000000000000000000","ind_status":"AT"},"geometry":{"type":"Polygon","coordinates":[[[-41.951,-21.5303],[-41.9526,-21.5358],[-41.9519,-21.5311],[-41.951,-21.5303]]]}},{"type":"Feature","properties":{"cod_imovel":"RJ-3300902-67E1F648E88344AA865FF57056195028","num_area":"30.177200000000000000000000000000","ind_status":"CA"},"geometry":{"type":"Polygon","coordinates":[[[-42.0113,-21.5033],[-42.0159,-21.5048],[-42.0119,-21.5034],[-42.0113,-21.5033]],[[-42.021,-21.5057],[-42.017,-21.5101],[-42.0262,-21.5067],[-42.0218,-21.5057],[-42.021,-21.5057]]]}},{"type":"Feature","properties":{"cod_imovel":"RJ-3300902-C87DD6E97C5F4C358B7AAC5E02A746F1","num_area":"184.83140000000000000000000000000","ind_status":"AT"},"geometry":{"type":"Polygon","coordinates":[[[-41.9585,-21.494],[-41.9646,-21.4985],[-41.9693,-21.4942],[-41.9602,-21.4931],[-41.9585,-21.494]],[[-41.9823,-21.4798],[-41.9697,-21.4698],[-41.9657,-21.4726],[-41.9636,-21.4786],[-41.9791,-21.4834],[-41.9823,-21.4798]]]}},{"type":"Feature","properties":{"cod_imovel":"RJ-3300902-E1819E9B512A4586B1472AC26D47E54F","num_area":"9.2228000000000000000000000000000","ind_status":"CA"},"geometry":{"type":"Polygon","coordinates":[[[-41.8424,-21.4434],[-41.841,-21.4395],[-41.8421,-21.4435],[-41.8424,-21.4434]]]}},{"type":"Feature","properties":{"cod_imovel":"RJ-3300902-AB2A7FE187984D1D9B28249AB84E5512","num_area":"38.497400000000000000000000000000","ind_status":"CA"},"geometry":{"type":"Polygon","coordinates":[[[-41.9343,-21.5217],[-41.9376,-21.5153],[-41.9282,-21.5157],[-41.9341,-21.5215],[-41.9343,-21.5217]]]}},{"type":"Feature","properties":{"cod_imovel":"RJ-3300902-A92C6A929744435FB5BB63C31BD55500","num_area":"18.580200000000000000000000000000","ind_status":"AT"},"geometry":{"type":"Polygon","coordinates":[[[-41.8785,-21.4837],[-41.8714,-21.4915],[-41.8788,-21.4839],[-41.8785,-21.4837]]]}},{"type":"Feature","properties":{"cod_imovel":"RJ-3300902-9D4D564B09994BAEA59B47608DE0C89A","num_area":"7.9369000000000000000000000000000","ind_status":"PE"},"geometry":{"type":"Polygon","coordinates":[[[-41.8224,-21.4359],[-41.8192,-21.4376],[-41.8223,-21.4366],[-41.8224,-21.4359]]]}},{"type":"Feature","properties":{"cod_imovel":"RJ-3300902-084FE7A510D4427EBF5867BC49C0EB70","num_area":"10.425400000000000000000000000000","ind_status":"AT"},"geometry":{"type":"Polygon","coordinates":[[[-42.0411,-21.5589],[-42.0388,-21.5547],[-42.0395,-21.5578],[-42.0411,-21.5589]]]}},{"type":"Feature","properties":{"cod_imovel":"RJ-3300902-0A729653703C4928869D0EBCEA543FBC","num_area":"129.47340000000000000000000000000","ind_status":"PE"},"geometry":{"type":"Polygon","coordinates":[[[-41.8788,-21.4842],[-41.8947,-21.4952],[-41.8977,-21.4901],[-41.8947,-21.485],[-41.8899,-21.4839],[-41.8887,-21.4879],[-41.8852,-21.4819],[-41.881,-21.4833],[-41.8853,-21.478],[-41.8788,-21.4842]]]}},{"type":"Feature","properties":{"cod_imovel":"RJ-3300902-0D164D0A2A75484686B0E21CFDD33EAC","num_area":"8.0781000000000000000000000000000","ind_status":"AT"},"geometry":{"type":"Polygon","coordinates":[[[-41.8,-21.3455],[-41.797,-21.3494],[-41.8006,-21.3458],[-41.8,-21.3455]]]}},{"type":"Feature","properties":{"cod_imovel":"RJ-3300902-0E0BD82A10154537AAAD1BE3DA56FBA4","num_area":"9.4211000000000000000000000000000","ind_status":"PE"},"geometry":{"type":"Polygon","coordinates":[[[-41.9654,-21.5836],[-41.9624,-21.5819],[-41.9651,-21.5836],[-41.9654,-21.5836]]]}},{"type":"Feature","properties":{"cod_imovel":"RJ-3300902-1EBC3ADC7CFD4F6D93C8FFA4A3869B2A","num_area":"13.125700000000000000000000000000","ind_status":"AT"},"geometry":{"type":"Polygon","coordinates":[[[-41.9249,-21.52],[-41.9217,-21.5215],[-41.9246,-21.5203],[-41.9249,-21.52]]]}},{"type":"Feature","properties":{"cod_imovel":"RJ-3300902-21DF321A3A0245E0A0D3E26FE84B4634","num_area":"19.100800000000000000000000000000","ind_status":"AT"},"geometry":{"type":"Polygon","coordinates":[[[-41.8815,-21.4857],[-41.8723,-21.4921],[-41.881,-21.4862],[-41.8815,-21.4857]]]}},{"type":"Feature","properties":{"cod_imovel":"RJ-3300902-2976C6E9247F4E6896C15C6B569067C3","num_area":"79.575800000000000000000000000000","ind_status":"AT"},"geometry":{"type":"Polygon","coordinates":[[[-41.8061,-21.4654],[-41.8114,-21.4738],[-41.8135,-21.4695],[-41.8068,-21.4654],[-41.8061,-21.4654]],[[-41.8169,-21.4602],[-41.8088,-21.4607],[-41.8161,-21.4602],[-41.8169,-21.4602]],[[-41.8191,-21.4717],[-41.8143,-21.4673],[-41.8186,-21.4727],[-41.8191,-21.4717]]]}},{"type":"Feature","properties":{"cod_imovel":"RJ-3300902-2A588FC7163943E983FF49730FA93055","num_area":"5.1393000000000000000000000000000","ind_status":"AT"},"geometry":{"type":"Polygon","coordinates":[[[-41.8881,-21.417],[-41.8833,-21.4147],[-41.8876,-21.4168],[-41.8881,-21.417]]]}},{"type":"Feature","properties":{"cod_imovel":"RJ-3300902-2EC25942B8524F9D90B6B1A64C50EFAC","num_area":"10.096400000000000000000000000000","ind_status":"AT"},"geometry":{"type":"Polygon","coordinates":[[[-41.933,-21.5254],[-41.929,-21.5273],[-41.9329,-21.5255],[-41.933,-21.5254]]]}},{"type":"Feature","properties":{"cod_imovel":"RJ-3300902-2F546272E1CD479EB98AE0CEC381652B","num_area":"8.3208000000000000000000000000000","ind_status":"AT"},"geometry":{"type":"Polygon","coordinates":[[[-41.9117,-21.4877],[-41.9149,-21.4898],[-41.912,-21.4877],[-41.9117,-21.4877]],[[-41.9192,-21.4831],[-41.916,-21.4822],[-41.9192,-21.4835],[-41.9192,-21.4831]]]}},{"type":"Feature","properties":{"cod_imovel":"RJ-3300902-3304C3D805FC406CB76FB142B6EA2C79","num_area":"17.703100000000000000000000000000","ind_status":"AT"},"geometry":{"type":"Polygon","coordinates":[[[-41.8606,-21.3613],[-41.8647,-21.3631],[-41.8602,-21.3653],[-41.866,-21.3635],[-41.8648,-21.3591],[-41.8607,-21.3613],[-41.8606,-21.3613]]]}},{"type":"Feature","properties":{"cod_imovel":"RJ-3300902-34C3D4121BEB4ECD98D04DE1FEE39501","num_area":"10.333800000000000000000000000000","ind_status":"AT"},"geometry":{"type":"Polygon","coordinates":[[[-41.8074,-21.4505],[-41.8107,-21.4513],[-41.8065,-21.4496],[-41.8074,-21.4505]]]}},{"type":"Feature","properties":{"cod_imovel":"RJ-3300902-3BF7FCF441F34DF7A7A7373607775E01","num_area":"22.147400000000000000000000000000","ind_status":"AT"},"geometry":{"type":"Polygon","coordinates":[[[-41.8331,-21.5097],[-41.8308,-21.5127],[-41.8335,-21.5101],[-41.8331,-21.5097]],[[-41.8381,-21.5136],[-41.8328,-21.5146],[-41.834,-21.5182],[-41.8381,-21.5136],[-41.8381,-21.5136]]]}},{"type":"Feature","properties":{"cod_imovel":"RJ-3300902-3F8565A38F304696B4A80DEBB769D2CE","num_area":"79.323100000000000000000000000000","ind_status":"AT"},"geometry":{"type":"Polygon","coordinates":[[[-41.9866,-21.5178],[-41.9826,-21.5106],[-41.9864,-21.5179],[-41.9866,-21.5178]],[[-41.9764,-21.5034],[-41.9734,-21.5085],[-41.9773,-21.5119],[-41.9769,-21.5037],[-41.9764,-21.5034]],[[-41.9773,-21.512],[-41.9775,-21.517],[-41.9761,-21.5128],[-41.9731,-21.5174],[-41.9838,-21.5195],[-41.9778,-21.5118],[-41.9773,-21.512]]]}},{"type":"Feature","properties":{"cod_imovel":"RJ-3300902-43B8087CD15D45E6AFF28ECD013E3136","num_area":"14.492600000000000000000000000000","ind_status":"AT"},"geometry":{"type":"Polygon","coordinates":[[[-41.9898,-21.4935],[-41.988,-21.4972],[-41.9901,-21.4936],[-41.9898,-21.4935]]]}},{"type":"Feature","properties":{"cod_imovel":"RJ-3300902-5AE169D4C68141DC8F0EFBED25E9F999","num_area":"24.282100000000000000000000000000","ind_status":"AT"},"geometry":{"type":"Polygon","coordinates":[[[-41.868,-21.5084],[-41.8653,-21.5112],[-41.868,-21.5084],[-41.868,-21.5084]],[[-41.871,-21.5153],[-41.8675,-21.5119],[-41.8666,-21.5157],[-41.8709,-21.5151],[-41.871,-21.5153]]]}},{"type":"Feature","properties":{"cod_imovel":"RJ-3300902-51F05D6DA03A4DC49F8A8C132CF219AC","num_area":"14.806900000000000000000000000000","ind_status":"AT"},"geometry":{"type":"Polygon","coordinates":[[[-41.9887,-21.5077],[-41.9917,-21.5121],[-41.9895,-21.5082],[-41.9887,-21.5077]]]}},{"type":"Feature","properties":{"cod_imovel":"RJ-3300902-584E50A5DF2B4CCBAA500C50397FA228","num_area":"40.038600000000000000000000000000","ind_status":"AT"},"geometry":{"type":"Polygon","coordinates":[[[-41.8103,-21.4353],[-41.8109,-21.4402],[-41.8217,-21.4364],[-41.8109,-21.4351],[-41.8103,-21.4353]]]}},{"type":"Feature","properties":{"cod_imovel":"RJ-3300902-5B62EC2C9CE04204A56EB47B0B755B8B","num_area":"17.346800000000000000000000000000","ind_status":"AT"},"geometry":{"type":"Polygon","coordinates":[[[-41.9748,-21.5055],[-41.9702,-21.505],[-41.9738,-21.5073],[-41.9748,-21.5055]]]}},{"type":"Feature","properties":{"cod_imovel":"RJ-3300902-62235DD3386D4295A8BE624F9D25586E","num_area":"109.14260000000000000000000000000","ind_status":"PE"},"geometry":{"type":"Polygon","coordinates":[[[-41.9775,-21.5436],[-41.9813,-21.5355],[-41.9775,-21.5436],[-41.9775,-21.5436]],[[-41.9793,-21.5548],[-41.9752,-21.5442],[-41.968,-21.5556],[-41.978,-21.5588],[-41.9794,-21.5549],[-41.9793,-21.5548]]]}},{"type":"Feature","properties":{"cod_imovel":"RJ-3300902-6C9B120425B54D64850996078A4D01B5","num_area":"31.408100000000000000000000000000","ind_status":"AT"},"geometry":{"type":"Polygon","coordinates":[[[-41.8324,-21.4431],[-41.8289,-21.4466],[-41.8325,-21.4432],[-41.8324,-21.4431]],[[-41.8363,-21.4491],[-41.8338,-21.4439],[-41.8321,-21.4484],[-41.8359,-21.4491],[-41.8363,-21.4491]]]}},{"type":"Feature","properties":{"cod_imovel":"RJ-3300902-639831E9E3FD481984998488E72D9F55","num_area":"10.275800000000000000000000000000","ind_status":"AT"},"geometry":{"type":"Polygon","coordinates":[[[-41.8662,-21.365],[-41.863,-21.3656],[-41.8675,-21.3664],[-41.8662,-21.365]]]}},{"type":"Feature","properties":{"cod_imovel":"RJ-3300902-641C6E92379548B1BF12E30538708A2E","num_area":"49.116200000000000000000000000000","ind_status":"AT"},"geometry":{"type":"Polygon","coordinates":[[[-41.7679,-21.4676],[-41.7756,-21.4658],[-41.768,-21.4672],[-41.7679,-21.4676]],[[-41.7503,-21.4662],[-41.7471,-21.4668],[-41.7513,-21.4684],[-41.7503,-21.4662]],[[-41.7676,-21.455],[-41.7692,-21.4605],[-41.7735,-21.4597],[-41.7679,-21.4542],[-41.7676,-21.455]]]}},{"type":"Feature","properties":{"cod_imovel":"RJ-3300902-646F4D2F6F9D4ED995E2955BF7E4845A","num_area":"62.615400000000000000000000000000","ind_status":"CA"},"geometry":{"type":"Polygon","coordinates":[[[-41.9445,-21.5833],[-41.9389,-21.5833],[-41.9444,-21.5835],[-41.9445,-21.5833]],[[-41.9311,-21.5816],[-41.9414,-21.5768],[-41.9351,-21.5753],[-41.9301,-21.5811],[-41.9311,-21.5816]],[[-41.9456,-21.5905],[-41.9399,-21.5896],[-41.9455,-21.5905],[-41.9456,-21.5905]]]}},{"type":"Feature","properties":{"cod_imovel":"RJ-3300902-6DEA037ADB164FCC9F4745DEB51079AE","num_area":"29.128900000000000000000000000000","ind_status":"AT"},"geometry":{"type":"Polygon","coordinates":[[[-41.9556,-21.4612],[-41.9514,-21.4583],[-41.9551,-21.4614],[-41.9556,-21.4612]],[[-41.9571,-21.4537],[-41.955,-21.4567],[-41.9618,-21.4547],[-41.9574,-21.4535],[-41.9571,-21.4537]]]}},{"type":"Feature","properties":{"cod_imovel":"RJ-3300902-6F22DBB02D2F46E59EC01F7C9E100191","num_area":"8.4250000000000000000000000000000","ind_status":"AT"},"geometry":{"type":"Polygon","coordinates":[[[-41.926,-21.4347],[-41.9233,-21.4364],[-41.9261,-21.4349],[-41.926,-21.4347]]]}},{"type":"Feature","properties":{"cod_imovel":"RJ-3300902-7C96D76108FD4193BA2FD9B8D5FB29D3","num_area":"4.2143000000000000000000000000000","ind_status":"AT"},"geometry":{"type":"Polygon","coordinates":[[[-41.9172,-21.4894],[-41.9203,-21.4924],[-41.9168,-21.4893],[-41.9172,-21.4894]]]}},{"type":"Feature","properties":{"cod_imovel":"RJ-3300902-7EB990293EA7441B8DFBADF57FCB40DA","num_area":"8.5885000000000000000000000000000","ind_status":"AT"},"geometry":{"type":"Polygon","coordinates":[[[-42.0691,-21.6174],[-42.0655,-21.6155],[-42.069,-21.6176],[-42.0691,-21.6174]]]}},{"type":"Feature","properties":{"cod_imovel":"RJ-3300902-8185E0BF6E5942A290D8A8DCE2DC152F","num_area":"11.996100000000000000000000000000","ind_status":"AT"},"geometry":{"type":"Polygon","coordinates":[[[-41.7973,-21.3607],[-41.7986,-21.3644],[-41.798,-21.3607],[-41.7973,-21.3607]]]}},{"type":"Feature","properties":{"cod_imovel":"RJ-3300902-96F6A99F129F491C90FC1E851E31BBA7","num_area":"35.726600000000000000000000000000","ind_status":"AT"},"geometry":{"type":"Polygon","coordinates":[[[-41.9213,-21.5194],[-41.9248,-21.5134],[-41.92,-21.5181],[-41.9213,-21.5194]],[[-41.916,-21.5243],[-41.9085,-21.5271],[-41.9111,-21.5289],[-41.916,-21.5243]]]}},{"type":"Feature","properties":{"cod_imovel":"RJ-3300902-8ACE126389604F568F9CC167FBC9E87B","num_area":"62.441600000000000000000000000000","ind_status":"AT"},"geometry":{"type":"Polygon","coordinates":[[[-41.8463,-21.5305],[-41.849,-21.5283],[-41.8458,-21.5302],[-41.8463,-21.5305]],[[-41.843,-21.5216],[-41.8403,-21.5272],[-41.8453,-21.5259],[-41.8434,-21.5216],[-41.843,-21.5216]],[[-41.8397,-21.5383],[-41.8473,-21.539],[-41.8435,-21.5343],[-41.8398,-21.538],[-41.8397,-21.5383]]]}},{"type":"Feature","properties":{"cod_imovel":"RJ-3300902-8C2EC512502648CA9DC585491226558A","num_area":"48.224400000000000000000000000000","ind_status":"AT"},"geometry":{"type":"Polygon","coordinates":[[[-41.8458,-21.4689],[-41.8433,-21.4664],[-41.8379,-21.4758],[-41.8446,-21.4676],[-41.838,-21.4759],[-41.8458,-21.4745],[-41.8462,-21.4701],[-41.8458,-21.4689]],[[-41.8434,-21.468],[-41.8403,-21.4718],[-41.8428,-21.4689],[-41.8434,-21.468]]]}},{"type":"Feature","properties":{"cod_imovel":"RJ-3300902-AA307F81FB5447ED8DE08C1DDB5EC703","num_area":"26.323100000000000000000000000000","ind_status":"AT"},"geometry":{"type":"Polygon","coordinates":[[[-41.8252,-21.4877],[-41.8287,-21.4852],[-41.8246,-21.4852],[-41.8252,-21.4877]]]}},{"type":"Feature","properties":{"cod_imovel":"RJ-3300902-AA7AA0F45D374A74A2AFC0C1D3E969BE","num_area":"11.390400000000000000000000000000","ind_status":"PE"},"geometry":{"type":"Polygon","coordinates":[[[-42.0126,-21.5081],[-42.0108,-21.5105],[-42.0174,-21.5059],[-42.0128,-21.5079],[-42.0126,-21.5081]]]}},{"type":"Feature","properties":{"cod_imovel":"RJ-3300902-ABD563A8080D4A2AB55A8B290F770A36","num_area":"20.830800000000000000000000000000","ind_status":"AT"},"geometry":{"type":"Polygon","coordinates":[[[-41.802,-21.4734],[-41.7933,-21.477],[-41.8025,-21.4741],[-41.802,-21.4734]]]}},{"type":"Feature","properties":{"cod_imovel":"RJ-3300902-AFE5A387EDC8447EA58AFD692C89E750","num_area":"38.191400000000000000000000000000","ind_status":"AT"},"geometry":{"type":"Polygon","coordinates":[[[-41.7773,-21.4615],[-41.7821,-21.4603],[-41.777,-21.4617],[-41.7773,-21.4615]],[[-41.7777,-21.4566],[-41.7728,-21.4579],[-41.7781,-21.457],[-41.7777,-21.4566]],[[-41.7695,-21.4496],[-41.7668,-21.4528],[-41.7706,-21.4546],[-41.7704,-21.45],[-41.7695,-21.4496]]]}},{"type":"Feature","properties":{"cod_imovel":"RJ-3300902-B6C9C37406E24529AE367672801E8F34","num_area":"16.837600000000000000000000000000","ind_status":"AT"},"geometry":{"type":"Polygon","coordinates":[[[-41.8165,-21.433],[-41.8228,-21.4351],[-41.8163,-21.4327],[-41.8165,-21.433]]]}},{"type":"Feature","properties":{"cod_imovel":"RJ-3300902-CC743AF13AC44B0995BC01B8DA463775","num_area":"108.24150000000000000000000000000","ind_status":"CA"},"geometry":{"type":"Polygon","coordinates":[[[-41.854,-21.4599],[-41.8461,-21.4489],[-41.8368,-21.4466],[-41.8443,-21.4582],[-41.8526,-21.4621],[-41.8491,-21.4562],[-41.8457,-21.4578],[-41.8531,-21.4589],[-41.854,-21.4599]],[[-41.8391,-21.4478],[-41.8449,-21.4582],[-41.8383,-21.448],[-41.8391,-21.4478]]]}},{"type":"Feature","properties":{"cod_imovel":"RJ-3300902-D4562B1B19734AF4830252FD708A3694","num_area":"22.894300000000000000000000000000","ind_status":"PE"},"geometry":{"type":"Polygon","coordinates":[[[-41.8723,-21.418],[-41.8697,-21.4158],[-41.8716,-21.4187],[-41.8723,-21.418]],[[-41.8633,-21.4082],[-41.8615,-21.4118],[-41.8645,-21.4094],[-41.8633,-21.4082]]]}},{"type":"Feature","properties":{"cod_imovel":"RJ-3300902-D57E18EACF144899A73E1D3C660B1182","num_area":"10.030500000000000000000000000000","ind_status":"AT"},"geometry":{"type":"Polygon","coordinates":[[[-41.8778,-21.4147],[-41.882,-21.4151],[-41.8786,-21.414],[-41.8778,-21.4147]],[[-41.8865,-21.4086],[-41.8808,-21.408],[-41.8872,-21.4092],[-41.8865,-21.4086]]]}},{"type":"Feature","properties":{"cod_imovel":"RJ-3300902-D62ECDE6B0B547368E7F62AD6B4CC31B","num_area":"11.725900000000000000000000000000","ind_status":"PE"},"geometry":{"type":"Polygon","coordinates":[[[-42.015,-21.5042],[-42.0101,-21.5084],[-42.0157,-21.5046],[-42.015,-21.5042]]]}},{"type":"Feature","properties":{"cod_imovel":"RJ-3300902-DDC41740A3F6461683572AFDB694E535","num_area":"13.356000000000000000000000000000","ind_status":"AT"},"geometry":{"type":"Polygon","coordinates":[[[-41.8205,-21.4793],[-41.8161,-21.4836],[-41.8207,-21.4794],[-41.8205,-21.4793]]]}},{"type":"Feature","properties":{"cod_imovel":"RJ-3300902-E12E1F56F26F4600A3AF4F860338B8E3","num_area":"90.302200000000000000000000000000","ind_status":"AT"},"geometry":{"type":"Polygon","coordinates":[[[-41.8375,-21.4965],[-41.8397,-21.4908],[-41.8288,-21.4847],[-41.833,-21.4972],[-41.8375,-21.4965],[-41.8375,-21.4965]]]}},{"type":"Feature","properties":{"cod_imovel":"RJ-3300902-E85B651C45A34BA08DD071CD3FAC85CF","num_area":"6.7124000000000000000000000000000","ind_status":"AT"},"geometry":{"type":"Polygon","coordinates":[[[-42.0255,-21.541],[-42.0261,-21.5442],[-42.0254,-21.541],[-42.0255,-21.541]]]}},{"type":"Feature","properties":{"cod_imovel":"RJ-3300902-ED5A7647C0334B4A983032C53E0D1C1B","num_area":"6.9647000000000000000000000000000","ind_status":"PE"},"geometry":{"type":"Polygon","coordinates":[[[-42.0179,-21.5075],[-42.0129,-21.5096],[-42.0173,-21.5079],[-42.0179,-21.5075]]]}},{"type":"Feature","properties":{"cod_imovel":"RJ-3300902-EDEAD9009D964C21AAD0534813BB338B","num_area":"5.2325000000000000000000000000000","ind_status":"AT"},"geometry":{"type":"Polygon","coordinates":[[[-42.0247,-21.5654],[-42.0217,-21.5638],[-42.0244,-21.5652],[-42.0247,-21.5654]]]}},{"type":"Feature","properties":{"cod_imovel":"RJ-3300902-F05312E76C5044D3B4C907A641188D4F","num_area":"185.00700000000000000000000000000","ind_status":"CA"},"geometry":{"type":"Polygon","coordinates":[[[-41.9585,-21.494],[-41.9646,-21.4985],[-41.9693,-21.4942],[-41.9602,-21.4931],[-41.9585,-21.494]],[[-41.9823,-21.4798],[-41.9697,-21.4698],[-41.9657,-21.4726],[-41.9636,-21.4786],[-41.9791,-21.4834],[-41.9823,-21.4798]]]}},{"type":"Feature","properties":{"cod_imovel":"RJ-3300902-F7803D9B85904E7E93E13CADBBDC1A46","num_area":"9.3484000000000000000000000000000","ind_status":"AT"},"geometry":{"type":"Polygon","coordinates":[[[-42.0431,-21.6225],[-42.0496,-21.6209],[-42.0435,-21.6221],[-42.0431,-21.6225]]]}},{"type":"Feature","properties":{"cod_imovel":"RJ-3300902-FCE567C33F8D4380870D0D5E0ED51C15","num_area":"12.239800000000000000000000000000","ind_status":"AT"},"geometry":{"type":"Polygon","coordinates":[[[-42.002,-21.5589],[-42.002,-21.552],[-42.0017,-21.5587],[-42.002,-21.5589]]]}}]}