{"type":"FeatureCollection","features":[{"type":"Feature","properties":{"cod_imovel":"RJ-3301405-789D68CE9F734BAC9F7A37FC50A6E3B1","num_area":"15.580600000000000000000000000000","ind_status":"AT"},"geometry":{"type":"Polygon","coordinates":[[[-41.8284,-22.1136],[-41.8359,-22.118],[-41.8285,-22.1136],[-41.8284,-22.1136]]]}},{"type":"Feature","properties":{"cod_imovel":"RJ-3301405-0A7DE3CC29DD4591A076C2A3189DDA4B","num_area":"13.221200000000000000000000000000","ind_status":"AT"},"geometry":{"type":"Polygon","coordinates":[[[-41.8566,-22.1452],[-41.8575,-22.15],[-41.8567,-22.145],[-41.8566,-22.1452]]]}},{"type":"Feature","properties":{"cod_imovel":"RJ-3301405-44C91FBBC4CA44FCB359E6F190B3099C","num_area":"6.2506000000000000000000000000000","ind_status":"AT"},"geometry":{"type":"Polygon","coordinates":[[[-41.8163,-22.1291],[-41.8139,-22.1233],[-41.8162,-22.129],[-41.8163,-22.1291]]]}},{"type":"Feature","properties":{"cod_imovel":"RJ-3301405-E0759C83E2CE4152955EA6F162A3B5C9","num_area":"175.41630000000000000000000000000","ind_status":"AT"},"geometry":{"type":"Polygon","coordinates":[[[-41.8967,-22.16],[-41.9001,-22.1562],[-41.8947,-22.149],[-41.8903,-22.1591],[-41.8965,-22.1602],[-41.8967,-22.16]],[[-41.8895,-22.1653],[-41.8842,-22.1809],[-41.8926,-22.1804],[-41.8939,-22.1694],[-41.8898,-22.1657],[-41.8895,-22.1653]]]}},{"type":"Feature","properties":{"cod_imovel":"RJ-3301405-163D4727301B40E3840CF378123AF086","num_area":"25.896600000000000000000000000000","ind_status":"AT"},"geometry":{"type":"Polygon","coordinates":[[[-41.792,-22.1086],[-41.7962,-22.1061],[-41.7897,-22.1037],[-41.7902,-22.1082],[-41.792,-22.1086]]]}},{"type":"Feature","properties":{"cod_imovel":"RJ-3301405-D5F1780CFFE340679C9CFC53E97FA942","num_area":"1.6018000000000000000000000000000","ind_status":"AT"},"geometry":{"type":"Polygon","coordinates":[[[-41.9031,-22.0824],[-41.9069,-22.0801],[-41.9032,-22.0824],[-41.9031,-22.0824]]]}},{"type":"Feature","properties":{"cod_imovel":"RJ-3301405-D3BDC02D7259436BBFF689EA593EB41F","num_area":"28.198000000000000000000000000000","ind_status":"AT"},"geometry":{"type":"Polygon","coordinates":[[[-41.8783,-22.1491],[-41.8871,-22.1428],[-41.877,-22.1497],[-41.8783,-22.1491]]]}},{"type":"Feature","properties":{"cod_imovel":"RJ-3301405-334054EE05A9440A9C79CAE14F4B9BB3","num_area":"6.0919000000000000000000000000000","ind_status":"AT"},"geometry":{"type":"Polygon","coordinates":[[[-41.7634,-22.1112],[-41.7631,-22.1039],[-41.7634,-22.1112],[-41.7634,-22.1112]]]}},{"type":"Feature","properties":{"cod_imovel":"RJ-3301405-4EBFDF5798D84CD8B402701F04CA79EF","num_area":"2.3027000000000000000000000000000","ind_status":"AT"},"geometry":{"type":"Polygon","coordinates":[[[-41.8981,-22.165],[-41.8999,-22.1686],[-41.8981,-22.165],[-41.8981,-22.165]]]}},{"type":"Feature","properties":{"cod_imovel":"RJ-3301405-1363D720B2A4418EA29655110FCDBA93","num_area":"2.9005000000000000000000000000000","ind_status":"PE"},"geometry":{"type":"Polygon","coordinates":[[[-41.7627,-22.1027],[-41.7595,-22.1],[-41.7625,-22.1025],[-41.7627,-22.1027]]]}},{"type":"Feature","properties":{"cod_imovel":"RJ-3301405-521033A42C89480B9BDB7CB3E8F6ECD1","num_area":"5.5648000000000000000000000000000","ind_status":"PE"},"geometry":{"type":"Polygon","coordinates":[[[-41.7094,-22.1194],[-41.7121,-22.1212],[-41.7096,-22.1193],[-41.7094,-22.1194]],[[-41.7179,-22.1178],[-41.7143,-22.1164],[-41.7175,-22.1175],[-41.7179,-22.1178]]]}},{"type":"Feature","properties":{"cod_imovel":"RJ-3301405-D1327C0C747846E3B812E0B4FFC552AB","num_area":"7.6855000000000000000000000000000","ind_status":"AT"},"geometry":{"type":"Polygon","coordinates":[[[-41.9033,-22.1128],[-41.9066,-22.115],[-41.9034,-22.1128],[-41.9033,-22.1128]]]}},{"type":"Feature","properties":{"cod_imovel":"RJ-3301405-FE1B09B55BF843E7BEF42CD5007BF21F","num_area":"46.818100000000000000000000000000","ind_status":"AT"},"geometry":{"type":"Polygon","coordinates":[[[-41.8964,-22.1065],[-41.8883,-22.1046],[-41.8961,-22.1064],[-41.8964,-22.1065]],[[-41.8881,-22.1086],[-41.8858,-22.1054],[-41.8877,-22.1088],[-41.8881,-22.1086]],[[-41.8916,-22.1198],[-41.8969,-22.1161],[-41.8919,-22.1197],[-41.8916,-22.1198]],[[-41.8855,-22.1116],[-41.8825,-22.1141],[-41.8855,-22.117],[-41.8891,-22.1138],[-41.8856,-22.1116],[-41.8855,-22.1116]]]}},{"type":"Feature","properties":{"cod_imovel":"RJ-3301405-613AC77A4B614D7EA2BC648683DABC55","num_area":"27.508000000000000000000000000000","ind_status":"AT"},"geometry":{"type":"Polygon","coordinates":[[[-41.9494,-22.0857],[-41.9555,-22.0832],[-41.9498,-22.0854],[-41.9494,-22.0857]],[[-41.9489,-22.076],[-41.9483,-22.084],[-41.9494,-22.0757],[-41.9489,-22.076]]]}},{"type":"Feature","properties":{"cod_imovel":"RJ-3301405-96FA865EB5224A668A8B33DD0D76D0F8","num_area":"8.8372000000000000000000000000000","ind_status":"AT"},"geometry":{"type":"Polygon","coordinates":[[[-41.8377,-22.1369],[-41.8418,-22.1391],[-41.8382,-22.1369],[-41.8377,-22.1369]]]}},{"type":"Feature","properties":{"cod_imovel":"RJ-3301405-EAA8A80C1F834356AB2A3696A8EA07AE","num_area":"13.186200000000000000000000000000","ind_status":"AT"},"geometry":{"type":"Polygon","coordinates":[[[-41.8818,-22.1663],[-41.8834,-22.1616],[-41.8808,-22.1657],[-41.8818,-22.1663]]]}},{"type":"Feature","properties":{"cod_imovel":"RJ-3301405-CCC1C3B5B0FF46AD9A88456DFFCE9424","num_area":"32.678500000000000000000000000000","ind_status":"AT"},"geometry":{"type":"Polygon","coordinates":[[[-41.8334,-22.1788],[-41.8236,-22.1739],[-41.8216,-22.1796],[-41.8278,-22.1766],[-41.8333,-22.1811],[-41.8334,-22.1788]]]}},{"type":"Feature","properties":{"cod_imovel":"RJ-3301405-29521D132D074F0FA0795F8F90B0D792","num_area":"31.568400000000000000000000000000","ind_status":"AT"},"geometry":{"type":"Polygon","coordinates":[[[-41.8877,-22.1707],[-41.8896,-22.1631],[-41.8875,-22.1678],[-41.884,-22.1623],[-41.882,-22.1687],[-41.8876,-22.1711],[-41.8877,-22.1707]]]}},{"type":"Feature","properties":{"cod_imovel":"RJ-3301405-41EFF5563D9448E6A6DECF1CE5261BF4","num_area":"33.931800000000000000000000000000","ind_status":"AT"},"geometry":{"type":"Polygon","coordinates":[[[-41.8386,-22.151],[-41.8418,-22.1581],[-41.8453,-22.151],[-41.8386,-22.151]]]}},{"type":"Feature","properties":{"cod_imovel":"RJ-3301405-A81746778C434C5A9F6F7D7027E34813","num_area":"24.129800000000000000000000000000","ind_status":"AT"},"geometry":{"type":"Polygon","coordinates":[[[-41.8188,-22.1493],[-41.8197,-22.1452],[-41.814,-22.1471],[-41.8162,-22.1521],[-41.8187,-22.1495],[-41.8188,-22.1493]]]}},{"type":"Feature","properties":{"cod_imovel":"RJ-3301405-C2F2F57C6C2C4B47B0B48CFB797DACF4","num_area":"17.473800000000000000000000000000","ind_status":"AT"},"geometry":{"type":"Polygon","coordinates":[[[-41.885,-22.2624],[-41.8858,-22.2579],[-41.878,-22.2721],[-41.8848,-22.2626],[-41.885,-22.2624]],[[-41.8866,-22.263],[-41.8852,-22.27],[-41.8867,-22.263],[-41.8866,-22.263]]]}},{"type":"Feature","properties":{"cod_imovel":"RJ-3301405-3E7CB30A4BC7447E9BFD1228080D8DD9","num_area":"0.8143000000000000000000000000000","ind_status":"AT"},"geometry":{"type":"Polygon","coordinates":[[[-41.8761,-22.2758],[-41.8729,-22.2776],[-41.8761,-22.2758],[-41.8761,-22.2758]],[[-41.8729,-22.2776],[-41.8762,-22.2759],[-41.873,-22.2776],[-41.8729,-22.2776]]]}},{"type":"Feature","properties":{"cod_imovel":"RJ-3301405-9A45AEE1EF304519B6E9715A98805100","num_area":"37.281000000000000000000000000000","ind_status":"AT"},"geometry":{"type":"Polygon","coordinates":[[[-41.8566,-22.1499],[-41.8526,-22.1552],[-41.8624,-22.1541],[-41.8569,-22.1548],[-41.8586,-22.1499],[-41.8566,-22.1499]]]}},{"type":"Feature","properties":{"cod_imovel":"RJ-3301405-2C259B37564044018908CDBDA3B10313","num_area":"127.53910000000000000000000000000","ind_status":"AT"},"geometry":{"type":"Polygon","coordinates":[[[-41.8442,-22.1768],[-41.8537,-22.1705],[-41.852,-22.1593],[-41.8485,-22.1652],[-41.8515,-22.173],[-41.8468,-22.174],[-41.8442,-22.1768]],[[-41.8341,-22.1657],[-41.8432,-22.1764],[-41.8468,-22.174],[-41.8341,-22.1657],[-41.8341,-22.1657]],[[-41.8519,-22.1591],[-41.8529,-22.1554],[-41.8442,-22.1512],[-41.8424,-22.1565],[-41.8516,-22.1591],[-41.8519,-22.1591]]]}},{"type":"Feature","properties":{"cod_imovel":"RJ-3301405-46F510CBD2AA4CBCB890F14A82E055CA","num_area":"9.3216000000000000000000000000000","ind_status":"AT"},"geometry":{"type":"Polygon","coordinates":[[[-41.879,-22.0676],[-41.8779,-22.0646],[-41.8777,-22.0681],[-41.879,-22.0676]]]}},{"type":"Feature","properties":{"cod_imovel":"RJ-3301405-BD4D9932EC884E50BDC3B48198C54201","num_area":"19.876000000000000000000000000000","ind_status":"AT"},"geometry":{"type":"Polygon","coordinates":[[[-41.8556,-22.1665],[-41.8599,-22.1636],[-41.8588,-22.1677],[-41.8628,-22.1669],[-41.8591,-22.1628],[-41.8556,-22.1665],[-41.8556,-22.1665]]]}},{"type":"Feature","properties":{"cod_imovel":"RJ-3301405-C30D90EDF7E24ACC9C798E4C9D43B2D5","num_area":"149.66010000000000000000000000000","ind_status":"AT"},"geometry":{"type":"Polygon","coordinates":[[[-41.8306,-22.1494],[-41.834,-22.1419],[-41.8422,-22.1393],[-41.8372,-22.1349],[-41.8302,-22.1436],[-41.8317,-22.1385],[-41.8276,-22.1431],[-41.8297,-22.1363],[-41.8254,-22.1367],[-41.8206,-22.1465],[-41.8306,-22.1494]]]}},{"type":"Feature","properties":{"cod_imovel":"RJ-3301405-786D3D2133A0490BB46B894FB3B75D32","num_area":"14.164200000000000000000000000000","ind_status":"AT"},"geometry":{"type":"Polygon","coordinates":[[[-41.9001,-22.0717],[-41.9034,-22.0738],[-41.9,-22.0717],[-41.9001,-22.0717]],[[-41.9034,-22.0815],[-41.9031,-22.078],[-41.9033,-22.0814],[-41.9034,-22.0815]]]}},{"type":"Feature","properties":{"cod_imovel":"RJ-3301405-E48F8CB4A1FD4F17AFC55AEB209366AF","num_area":"76.168000000000000000000000000000","ind_status":"AT"},"geometry":{"type":"Polygon","coordinates":[[[-41.9177,-22.144],[-41.9126,-22.1566],[-41.9178,-22.1562],[-41.9177,-22.1445],[-41.9177,-22.144]],[[-41.9179,-22.1561],[-41.9222,-22.1553],[-41.9231,-22.1484],[-41.9178,-22.1441],[-41.9178,-22.1559],[-41.9179,-22.1561]]]}},{"type":"Feature","properties":{"cod_imovel":"RJ-3301405-0F5856D345B64F7D831602B09F1B5CF1","num_area":"47.712100000000000000000000000000","ind_status":"AT"},"geometry":{"type":"Polygon","coordinates":[[[-41.819,-22.1395],[-41.8276,-22.147],[-41.8252,-22.139],[-41.8189,-22.1389],[-41.819,-22.1395]]]}},{"type":"Feature","properties":{"cod_imovel":"RJ-3301405-2E3E0651372C418F991BCD31E105B611","num_area":"38.890900000000000000000000000000","ind_status":"AT"},"geometry":{"type":"Polygon","coordinates":[[[-41.9291,-22.1452],[-41.9299,-22.1395],[-41.9286,-22.1451],[-41.9291,-22.1452]],[[-41.9231,-22.1485],[-41.9227,-22.152],[-41.9307,-22.1533],[-41.93,-22.1487],[-41.9232,-22.1472],[-41.9231,-22.1485]]]}},{"type":"Feature","properties":{"cod_imovel":"RJ-3301405-B9E32F6298A34BCE96A875FD0181545D","num_area":"114.10110000000000000000000000000","ind_status":"AT"},"geometry":{"type":"Polygon","coordinates":[[[-41.8156,-22.1909],[-41.8143,-22.1968],[-41.8235,-22.206],[-41.8283,-22.1959],[-41.8252,-22.1929],[-41.8227,-22.1964],[-41.827,-22.2016],[-41.8157,-22.1914],[-41.8156,-22.1909]]]}},{"type":"Feature","properties":{"cod_imovel":"RJ-3301405-0ACFCA89C83E4DFF8AB34BAF87264847","num_area":"73.048800000000000000000000000000","ind_status":"AT"},"geometry":{"type":"Polygon","coordinates":[[[-41.8075,-22.1813],[-41.8126,-22.1829],[-41.8075,-22.1813],[-41.8075,-22.1813]],[[-41.8045,-22.1846],[-41.8105,-22.1848],[-41.8058,-22.1832],[-41.8045,-22.1846]],[[-41.8187,-22.1695],[-41.8171,-22.1727],[-41.8185,-22.1695],[-41.8187,-22.1695]],[[-41.8174,-22.1723],[-41.8189,-22.1696],[-41.8172,-22.1721],[-41.8174,-22.1723]],[[-41.8114,-22.1714],[-41.8024,-22.173],[-41.808,-22.1731],[-41.8048,-22.178],[-41.8127,-22.1776],[-41.8123,-22.1818],[-41.8119,-22.1715],[-41.8114,-22.1714]]]}},{"type":"Feature","properties":{"cod_imovel":"RJ-3301405-D0749D1DA3CC4B339425206F0758579F","num_area":"102.02380000000000000000000000000","ind_status":"AT"},"geometry":{"type":"Polygon","coordinates":[[[-41.9408,-22.0954],[-41.9464,-22.0917],[-41.9367,-22.0915],[-41.9404,-22.0948],[-41.9408,-22.0954]],[[-41.953,-22.1121],[-41.9513,-22.0963],[-41.9416,-22.0968],[-41.9496,-22.0977],[-41.9462,-22.103],[-41.9526,-22.1123],[-41.953,-22.1121]]]}},{"type":"Feature","properties":{"cod_imovel":"RJ-3301405-EB08E9028E02474B98A2D77998C08131","num_area":"17.696100000000000000000000000000","ind_status":"AT"},"geometry":{"type":"Polygon","coordinates":[[[-41.8683,-22.1415],[-41.863,-22.1436],[-41.8687,-22.1422],[-41.8683,-22.1415]]]}},{"type":"Feature","properties":{"cod_imovel":"RJ-3301405-CC86E95B7E374DD98545319B928E7DDF","num_area":"54.333300000000000000000000000000","ind_status":"AT"},"geometry":{"type":"Polygon","coordinates":[[[-41.8231,-22.1702],[-41.8258,-22.1724],[-41.8245,-22.1689],[-41.8231,-22.1702]],[[-41.8258,-22.1723],[-41.8248,-22.1688],[-41.8257,-22.1721],[-41.8258,-22.1723]],[[-41.829,-22.1679],[-41.8311,-22.1727],[-41.829,-22.168],[-41.829,-22.1679]],[[-41.8257,-22.1735],[-41.8354,-22.1762],[-41.8403,-22.1723],[-41.8256,-22.1733],[-41.8257,-22.1735]]]}},{"type":"Feature","properties":{"cod_imovel":"RJ-3301405-AA806EE30EBD43478E771B5E5B69D134","num_area":"21.765000000000000000000000000000","ind_status":"AT"},"geometry":{"type":"Polygon","coordinates":[[[-41.8471,-22.0818],[-41.8486,-22.079],[-41.8464,-22.0813],[-41.8471,-22.0818]],[[-41.8506,-22.0804],[-41.8504,-22.0759],[-41.8503,-22.0802],[-41.8506,-22.0804]],[[-41.8446,-22.077],[-41.8443,-22.0801],[-41.8481,-22.077],[-41.8443,-22.0768],[-41.8446,-22.077]]]}},{"type":"Feature","properties":{"cod_imovel":"RJ-3301405-22A3ABE72193400EB477739175E21F97","num_area":"103.59540000000000000000000000000","ind_status":"AT"},"geometry":{"type":"Polygon","coordinates":[[[-41.8883,-22.1046],[-41.8855,-22.1014],[-41.8814,-22.1046],[-41.8875,-22.1051],[-41.8883,-22.1046]],[[-41.8772,-22.096],[-41.8803,-22.0995],[-41.8824,-22.0888],[-41.8779,-22.0947],[-41.8772,-22.096]],[[-41.8969,-22.0922],[-41.8852,-22.0983],[-41.8967,-22.0929],[-41.8969,-22.0922]]]}},{"type":"Feature","properties":{"cod_imovel":"RJ-3301405-BCB443AF2F16467D80E25537BDC494A6","num_area":"1428.1898000000000000000000000000","ind_status":"AT"},"geometry":{"type":"Polygon","coordinates":[[[-41.8492,-22.2134],[-41.857,-22.2237],[-41.8556,-22.2295],[-41.863,-22.2304],[-41.8673,-22.2184],[-41.8501,-22.2137],[-41.8492,-22.2134]],[[-41.8981,-22.208],[-41.8939,-22.2005],[-41.898,-22.1857],[-41.8926,-22.1804],[-41.8659,-22.1792],[-41.8571,-22.1856],[-41.8661,-22.1862],[-41.8755,-22.1962],[-41.8835,-22.1868],[-41.8769,-22.1949],[-41.8851,-22.1935],[-41.88,-22.1985],[-41.8883,-22.1967],[-41.8826,-22.2043],[-41.8909,-22.2038],[-41.8865,-22.2104],[-41.8798,-22.21],[-41.8846,-22.2182],[-41.8764,-22.2141],[-41.8859,-22.2246],[-41.8699,-22.2218],[-41.8686,-22.2315],[-41.8748,-22.2361],[-41.8688,-22.2377],[-41.8857,-22.2364],[-41.8852,-22.2264],[-41.8973,-22.2116],[-41.8981,-22.208]],[[-41.875,-22.1904],[-41.8793,-22.1859],[-41.8752,-22.1909],[-41.875,-22.1904]],[[-41.873,-22.1889],[-41.8721,-22.1819],[-41.8734,-22.1886],[-41.873,-22.1889]],[[-41.8712,-22.2107],[-41.8704,-22.2032],[-41.8655,-22.203],[-41.8693,-22.2094],[-41.8712,-22.2107]],[[-41.8663,-22.2466],[-41.8831,-22.2526],[-41.8792,-22.2409],[-41.8782,-22.248],[-41.8667,-22.2461],[-41.8663,-22.2466]]]}},{"type":"Feature","properties":{"cod_imovel":"RJ-3301405-2EC04DBB655640C0A271F1C48C272F7D","num_area":"95.504800000000000000000000000000","ind_status":"AT"},"geometry":{"type":"Polygon","coordinates":[[[-41.9134,-22.0905],[-41.927,-22.0916],[-41.924,-22.0795],[-41.9163,-22.0822],[-41.921,-22.0801],[-41.9262,-22.0912],[-41.9167,-22.0837],[-41.9191,-22.0892],[-41.9152,-22.0864],[-41.9134,-22.0903],[-41.9134,-22.0905]]]}},{"type":"Feature","properties":{"cod_imovel":"RJ-3301405-D2862310DAD74C08A71F29C25EE0A1D7","num_area":"7.9083000000000000000000000000000","ind_status":"AT"},"geometry":{"type":"Polygon","coordinates":[[[-41.8517,-22.1235],[-41.8549,-22.1221],[-41.8517,-22.1234],[-41.8517,-22.1235]],[[-41.8563,-22.1182],[-41.8535,-22.1198],[-41.8571,-22.1184],[-41.8563,-22.1182]]]}},{"type":"Feature","properties":{"cod_imovel":"RJ-3301405-0C52C2E867D1443DA25754F90EEB2208","num_area":"7.8465000000000000000000000000000","ind_status":"AT"},"geometry":{"type":"Polygon","coordinates":[[[-41.8501,-22.1196],[-41.8456,-22.1191],[-41.8499,-22.1198],[-41.8501,-22.1196]]]}},{"type":"Feature","properties":{"cod_imovel":"RJ-3301405-8616CB7DFA4746BB81067A9B278FE49E","num_area":"44.848700000000000000000000000000","ind_status":"AT"},"geometry":{"type":"Polygon","coordinates":[[[-41.8202,-22.1391],[-41.8156,-22.1414],[-41.8186,-22.1454],[-41.8223,-22.1445],[-41.8203,-22.1391],[-41.8202,-22.1391]],[[-41.8173,-22.1347],[-41.8139,-22.1375],[-41.8175,-22.1353],[-41.8173,-22.1347]]]}},{"type":"Feature","properties":{"cod_imovel":"RJ-3301405-136C595E502A4EF5A93192FEDA678230","num_area":"5.9460000000000000000000000000000","ind_status":"AT"},"geometry":{"type":"Polygon","coordinates":[[[-41.8995,-22.1255],[-41.9027,-22.1228],[-41.8995,-22.1255],[-41.8995,-22.1255]]]}},{"type":"Feature","properties":{"cod_imovel":"RJ-3301405-989E5A9CFCFE4CFB9CD7699501888ECB","num_area":"5.9679000000000000000000000000000","ind_status":"AT"},"geometry":{"type":"Polygon","coordinates":[[[-41.874,-22.1778],[-41.8773,-22.1736],[-41.874,-22.1777],[-41.874,-22.1778]],[[-41.8765,-22.1738],[-41.8722,-22.1748],[-41.8765,-22.1738],[-41.8765,-22.1738]]]}},{"type":"Feature","properties":{"cod_imovel":"RJ-3301405-DE839031C40047AC8C7FCCE83D4D4757","num_area":"40.205300000000000000000000000000","ind_status":"AT"},"geometry":{"type":"Polygon","coordinates":[[[-41.8519,-22.1421],[-41.851,-22.1474],[-41.8555,-22.1481],[-41.852,-22.1417],[-41.8519,-22.1421]],[[-41.8578,-22.1392],[-41.8554,-22.1336],[-41.8536,-22.1383],[-41.8576,-22.1393],[-41.8578,-22.1392]]]}},{"type":"Feature","properties":{"cod_imovel":"RJ-3301405-5F0BE8128F224810B39ACF37D4AAD056","num_area":"206.72760000000000000000000000000","ind_status":"AT"},"geometry":{"type":"Polygon","coordinates":[[[-41.8852,-22.0496],[-41.889,-22.0484],[-41.8855,-22.0495],[-41.8852,-22.0496]],[[-41.8854,-22.0629],[-41.8987,-22.0703],[-41.903,-22.068],[-41.8978,-22.0638],[-41.9018,-22.0604],[-41.8892,-22.0533],[-41.8822,-22.0539],[-41.8883,-22.0591],[-41.8818,-22.0562],[-41.8853,-22.0628],[-41.8854,-22.0629]]]}},{"type":"Feature","properties":{"cod_imovel":"RJ-3301405-5DAED0C198284AC2B5CCAD81A04B0977","num_area":"19.533400000000000000000000000000","ind_status":"AT"},"geometry":{"type":"Polygon","coordinates":[[[-41.9362,-22.1394],[-41.938,-22.1429],[-41.9372,-22.1394],[-41.9362,-22.1394]],[[-41.9379,-22.1431],[-41.9424,-22.1447],[-41.938,-22.143],[-41.9379,-22.1431]],[[-41.9332,-22.143],[-41.9346,-22.1494],[-41.9385,-22.1474],[-41.9348,-22.1491],[-41.9333,-22.143],[-41.9332,-22.143]],[[-41.9362,-22.1452],[-41.9395,-22.1465],[-41.9363,-22.1454],[-41.9362,-22.1452]]]}},{"type":"Feature","properties":{"cod_imovel":"RJ-3301405-B2D95674E7B647C297CE4E30C3F2909D","num_area":"5.2114000000000000000000000000000","ind_status":"AT"},"geometry":{"type":"Polygon","coordinates":[[[-41.9457,-22.1415],[-41.9417,-22.141],[-41.9455,-22.1416],[-41.9457,-22.1415]],[[-41.9395,-22.1415],[-41.9428,-22.1424],[-41.9395,-22.1415],[-41.9395,-22.1415]],[[-41.9393,-22.1416],[-41.945,-22.1422],[-41.9399,-22.1418],[-41.9393,-22.1416]]]}},{"type":"Feature","properties":{"cod_imovel":"RJ-3301405-BF045AAA9CB245A89D0EEC6CEF5B60AA","num_area":"17.490600000000000000000000000000","ind_status":"AT"},"geometry":{"type":"Polygon","coordinates":[[[-41.8,-22.1342],[-41.794,-22.1331],[-41.798,-22.1371],[-41.7997,-22.1343],[-41.8,-22.1342]],[[-41.7901,-22.1345],[-41.794,-22.1383],[-41.7903,-22.1344],[-41.7901,-22.1345]]]}},{"type":"Feature","properties":{"cod_imovel":"RJ-3301405-C8D9DBD8345C461C9EDE1F61F733B222","num_area":"20.561100000000000000000000000000","ind_status":"AT"},"geometry":{"type":"Polygon","coordinates":[[[-41.7972,-22.1313],[-41.8038,-22.1333],[-41.7969,-22.1311],[-41.7972,-22.1313]]]}},{"type":"Feature","properties":{"cod_imovel":"RJ-3301405-340D991194284A4A9652B87B2512EC8F","num_area":"29.017200000000000000000000000000","ind_status":"AT"},"geometry":{"type":"Polygon","coordinates":[[[-41.8187,-22.1471],[-41.8218,-22.1534],[-41.8187,-22.1454],[-41.8187,-22.1471]],[[-41.8258,-22.1627],[-41.8211,-22.1553],[-41.8256,-22.1628],[-41.8258,-22.1627]]]}},{"type":"Feature","properties":{"cod_imovel":"RJ-3301405-8F0C63CF5EAC4059A7D1CFF65EC6B0DD","num_area":"9.9576000000000000000000000000000","ind_status":"AT"},"geometry":{"type":"Polygon","coordinates":[[[-41.8225,-22.1642],[-41.8212,-22.1675],[-41.8223,-22.1643],[-41.8225,-22.1642]]]}},{"type":"Feature","properties":{"cod_imovel":"RJ-3301405-C3C6FDAC448E4A4686EEEEB21D872F0C","num_area":"17.185800000000000000000000000000","ind_status":"AT"},"geometry":{"type":"Polygon","coordinates":[[[-41.8246,-22.1641],[-41.8214,-22.1619],[-41.8244,-22.1643],[-41.8246,-22.1641]],[[-41.8228,-22.1597],[-41.8188,-22.1556],[-41.8226,-22.1597],[-41.8228,-22.1597]]]}},{"type":"Feature","properties":{"cod_imovel":"RJ-3301405-A06F27CA47A34FAF9CAD836A61A40E94","num_area":"9.4588000000000000000000000000000","ind_status":"AT"},"geometry":{"type":"Polygon","coordinates":[[[-41.932,-22.0969],[-41.9346,-22.0991],[-41.932,-22.0968],[-41.932,-22.0969]],[[-41.9378,-22.0954],[-41.933,-22.0949],[-41.9376,-22.0952],[-41.9378,-22.0954]]]}},{"type":"Feature","properties":{"cod_imovel":"RJ-3301405-D9243B6046B0459E9B9284EF5C882C2A","num_area":"80.333500000000000000000000000000","ind_status":"AT"},"geometry":{"type":"Polygon","coordinates":[[[-41.8731,-22.1747],[-41.8823,-22.1757],[-41.8835,-22.1696],[-41.8729,-22.1662],[-41.8781,-22.1709],[-41.8731,-22.1746],[-41.8731,-22.1747]],[[-41.8832,-22.1681],[-41.8726,-22.163],[-41.8827,-22.1681],[-41.8832,-22.1681]]]}},{"type":"Feature","properties":{"cod_imovel":"RJ-3301405-95B171DED1ED4109827E70A919F88BCA","num_area":"32.772700000000000000000000000000","ind_status":"AT"},"geometry":{"type":"Polygon","coordinates":[[[-41.8556,-22.1984],[-41.8526,-22.1975],[-41.8556,-22.1996],[-41.8556,-22.1984]],[[-41.8381,-22.1894],[-41.8446,-22.1918],[-41.84,-22.1864],[-41.8382,-22.1893],[-41.8381,-22.1894]]]}},{"type":"Feature","properties":{"cod_imovel":"RJ-3301405-E09D02B2CEED4DE18D93E446DF41C2B8","num_area":"458.98500000000000000000000000000","ind_status":"AT"},"geometry":{"type":"Polygon","coordinates":[[[-41.9089,-22.0724],[-41.921,-22.0802],[-41.9232,-22.0893],[-41.94,-22.0906],[-41.9441,-22.0791],[-41.9385,-22.0741],[-41.9328,-22.077],[-41.939,-22.0844],[-41.9306,-22.0822],[-41.9279,-22.0737],[-41.9295,-22.0852],[-41.9281,-22.076],[-41.9254,-22.0858],[-41.9222,-22.074],[-41.9214,-22.0773],[-41.9091,-22.0717],[-41.9089,-22.0724]],[[-41.9441,-22.0791],[-41.9506,-22.075],[-41.9388,-22.0737],[-41.9441,-22.0791],[-41.9441,-22.0791]],[[-41.9412,-22.0703],[-41.9355,-22.0641],[-41.9402,-22.0697],[-41.9412,-22.0703]],[[-41.9345,-22.0687],[-41.9295,-22.0715],[-41.9352,-22.069],[-41.9345,-22.0687]],[[-41.9222,-22.0651],[-41.9203,-22.07],[-41.9282,-22.0712],[-41.9284,-22.0659],[-41.9229,-22.0648],[-41.9222,-22.0651]]]}},{"type":"Feature","properties":{"cod_imovel":"RJ-3301405-545B801510C0442FB2A5316AD98AFF35","num_area":"12.442700000000000000000000000000","ind_status":"AT"},"geometry":{"type":"Polygon","coordinates":[[[-41.8386,-22.1789],[-41.836,-22.1755],[-41.8378,-22.1786],[-41.8386,-22.1789]]]}},{"type":"Feature","properties":{"cod_imovel":"RJ-3301405-537395D6816545919369EAAF1F893B2A","num_area":"63.906600000000000000000000000000","ind_status":"AT"},"geometry":{"type":"Polygon","coordinates":[[[-41.9589,-22.1335],[-41.9549,-22.1328],[-41.9541,-22.1468],[-41.9581,-22.1465],[-41.9591,-22.1344],[-41.9589,-22.1335]]]}},{"type":"Feature","properties":{"cod_imovel":"RJ-3301405-9EC4E3E7FF5147AF8B943F76E3F9E410","num_area":"53.023400000000000000000000000000","ind_status":"AT"},"geometry":{"type":"Polygon","coordinates":[[[-41.8635,-22.1618],[-41.864,-22.1582],[-41.8623,-22.1657],[-41.8635,-22.1618],[-41.8635,-22.1618]],[[-41.8599,-22.1635],[-41.8606,-22.1568],[-41.8596,-22.1633],[-41.8599,-22.1635]],[[-41.8602,-22.158],[-41.8579,-22.1546],[-41.8518,-22.1588],[-41.8591,-22.1586],[-41.8595,-22.1633],[-41.8597,-22.1585],[-41.8526,-22.1588],[-41.8601,-22.1581],[-41.8602,-22.158]]]}},{"type":"Feature","properties":{"cod_imovel":"RJ-3301405-DE18A5880BD448B1B0F8824D79621DE4","num_area":"9.5238000000000000000000000000000","ind_status":"AT"},"geometry":{"type":"Polygon","coordinates":[[[-41.9006,-22.1225],[-41.9029,-22.1198],[-41.9005,-22.1224],[-41.9006,-22.1225]],[[-41.9019,-22.1094],[-41.8965,-22.1055],[-41.9019,-22.1094],[-41.9019,-22.1094]]]}},{"type":"Feature","properties":{"cod_imovel":"RJ-3301405-A5A1DFA766294B8C8629D780051566F7","num_area":"23.229500000000000000000000000000","ind_status":"AT"},"geometry":{"type":"Polygon","coordinates":[[[-41.835,-22.111],[-41.8318,-22.1076],[-41.835,-22.111],[-41.835,-22.111]],[[-41.8199,-22.1031],[-41.8214,-22.1081],[-41.8198,-22.1035],[-41.8199,-22.1031]],[[-41.8197,-22.1031],[-41.821,-22.1079],[-41.8198,-22.1034],[-41.8197,-22.1031]]]}},{"type":"Feature","properties":{"cod_imovel":"RJ-3301405-FDAF28B6C40B4A15B26052E3FE2B782A","num_area":"41.458300000000000000000000000000","ind_status":"AT"},"geometry":{"type":"Polygon","coordinates":[[[-41.9056,-22.0975],[-41.9096,-22.0986],[-41.9061,-22.0975],[-41.9056,-22.0975]],[[-41.9061,-22.099],[-41.9103,-22.0989],[-41.9065,-22.099],[-41.9061,-22.099]],[[-41.9034,-22.0963],[-41.9072,-22.0964],[-41.9027,-22.0955],[-41.9034,-22.0963]],[[-41.9045,-22.0897],[-41.8965,-22.0942],[-41.9047,-22.0897],[-41.9045,-22.0897]]]}},{"type":"Feature","properties":{"cod_imovel":"RJ-3301405-B6B9B8E01311401DBD4E62281BCA1536","num_area":"6.7086000000000000000000000000000","ind_status":"AT"},"geometry":{"type":"Polygon","coordinates":[[[-41.8698,-22.1175],[-41.8738,-22.116],[-41.8695,-22.1175],[-41.8698,-22.1175]]]}},{"type":"Feature","properties":{"cod_imovel":"RJ-3301405-72317EEAEF03451991A4DA7C6C273A7F","num_area":"4.4022000000000000000000000000000","ind_status":"AT"},"geometry":{"type":"Polygon","coordinates":[[[-41.7549,-22.1029],[-41.7516,-22.1055],[-41.7548,-22.103],[-41.7549,-22.1029]]]}},{"type":"Feature","properties":{"cod_imovel":"RJ-3301405-93CF4F73507F46FDBA9DAD855001C855","num_area":"7.1389000000000000000000000000000","ind_status":"AT"},"geometry":{"type":"Polygon","coordinates":[[[-41.7974,-22.1606],[-41.7941,-22.156],[-41.7971,-22.1605],[-41.7974,-22.1606]],[[-41.7947,-22.1528],[-41.7982,-22.1567],[-41.7947,-22.1529],[-41.7947,-22.1528]]]}},{"type":"Feature","properties":{"cod_imovel":"RJ-3301405-58C37C939F744EF58635A58A85F29A2B","num_area":"9.3208000000000000000000000000000","ind_status":"AT"},"geometry":{"type":"Polygon","coordinates":[[[-41.7948,-22.1026],[-41.7975,-22.1062],[-41.7951,-22.1028],[-41.7948,-22.1026]]]}},{"type":"Feature","properties":{"cod_imovel":"RJ-3301405-D70E81E859AD411989A636A1A27A84B6","num_area":"19.143300000000000000000000000000","ind_status":"AT"},"geometry":{"type":"Polygon","coordinates":[[[-41.7171,-22.0986],[-41.7127,-22.1011],[-41.7171,-22.099],[-41.7171,-22.0986]],[[-41.7128,-22.1007],[-41.7073,-22.1018],[-41.7128,-22.1009],[-41.7128,-22.1007]],[[-41.709,-22.0993],[-41.7013,-22.101],[-41.7078,-22.1005],[-41.709,-22.0993]],[[-41.702,-22.0991],[-41.7095,-22.0926],[-41.7021,-22.0987],[-41.702,-22.0991]],[[-41.6975,-22.0875],[-41.7018,-22.0885],[-41.6978,-22.0874],[-41.6975,-22.0875]],[[-41.7018,-22.0886],[-41.7065,-22.0888],[-41.7011,-22.0875],[-41.7018,-22.0886]],[[-41.7065,-22.0888],[-41.7123,-22.0934],[-41.706,-22.0876],[-41.7065,-22.0888]],[[-41.7118,-22.0912],[-41.7168,-22.0907],[-41.7116,-22.0904],[-41.7118,-22.0912]]]}},{"type":"Feature","properties":{"cod_imovel":"RJ-3301405-FFB654A9746948A18A6369B92D2728AD","num_area":"2.2638000000000000000000000000000","ind_status":"AT"},"geometry":{"type":"Polygon","coordinates":[[[-41.7966,-22.1143],[-41.7861,-22.1081],[-41.7965,-22.1143],[-41.7966,-22.1143]]]}},{"type":"Feature","properties":{"cod_imovel":"RJ-3301405-3C3F83A8EDC149028D2130AC6508C2A7","num_area":"9.2507000000000000000000000000000","ind_status":"AT"},"geometry":{"type":"Polygon","coordinates":[[[-41.8629,-22.1415],[-41.8663,-22.1383],[-41.8625,-22.1407],[-41.8629,-22.1415]]]}},{"type":"Feature","properties":{"cod_imovel":"RJ-3301405-8DA73E96FE7842C99C9FE6132C6F4E70","num_area":"9.1812000000000000000000000000000","ind_status":"AT"},"geometry":{"type":"Polygon","coordinates":[[[-41.8366,-22.1129],[-41.8398,-22.1103],[-41.836,-22.1133],[-41.8366,-22.1129]]]}},{"type":"Feature","properties":{"cod_imovel":"RJ-3301405-9B7BB96B0BE744419B9853110AC809AA","num_area":"36.551200000000000000000000000000","ind_status":"AT"},"geometry":{"type":"Polygon","coordinates":[[[-41.934,-22.1261],[-41.9277,-22.1292],[-41.9342,-22.126],[-41.934,-22.1261]],[[-41.9374,-22.1253],[-41.9306,-22.1301],[-41.9341,-22.1318],[-41.9382,-22.1258],[-41.9374,-22.1253]]]}},{"type":"Feature","properties":{"cod_imovel":"RJ-3301405-F196332ABF4D4A59B79A2C2C36793560","num_area":"19.425700000000000000000000000000","ind_status":"AT"},"geometry":{"type":"Polygon","coordinates":[[[-41.7691,-22.1209],[-41.7718,-22.1235],[-41.7695,-22.1212],[-41.7691,-22.1209]],[[-41.7844,-22.1168],[-41.7787,-22.1229],[-41.784,-22.1219],[-41.7843,-22.1171],[-41.7844,-22.1168]],[[-41.7852,-22.1099],[-41.7826,-22.1064],[-41.7728,-22.1217],[-41.7831,-22.107],[-41.7852,-22.1102],[-41.7852,-22.1099]]]}},{"type":"Feature","properties":{"cod_imovel":"RJ-3301405-AF044E898D2E441AAC149DB485F8868E","num_area":"23.471400000000000000000000000000","ind_status":"AT"},"geometry":{"type":"Polygon","coordinates":[[[-41.882,-22.1559],[-41.8877,-22.1435],[-41.882,-22.1559],[-41.882,-22.1559]]]}},{"type":"Feature","properties":{"cod_imovel":"RJ-3301405-18C235C2C6C44C3798116A6A6F8295F3","num_area":"33.588800000000000000000000000000","ind_status":"AT"},"geometry":{"type":"Polygon","coordinates":[[[-41.9112,-22.0769],[-41.9216,-22.0799],[-41.9124,-22.076],[-41.9112,-22.0769]]]}},{"type":"Feature","properties":{"cod_imovel":"RJ-3301405-96FC56F94CC7432893DAFF6109F57AF4","num_area":"6.9107000000000000000000000000000","ind_status":"AT"},"geometry":{"type":"Polygon","coordinates":[[[-41.8418,-22.096],[-41.8381,-22.0966],[-41.8425,-22.0971],[-41.8418,-22.096]]]}},{"type":"Feature","properties":{"cod_imovel":"RJ-3301405-458B6F8594214D238F84BC232DADEE63","num_area":"16.808600000000000000000000000000","ind_status":"AT"},"geometry":{"type":"Polygon","coordinates":[[[-41.7836,-22.1799],[-41.7829,-22.1759],[-41.7834,-22.1791],[-41.7836,-22.1799]],[[-41.7727,-22.1707],[-41.777,-22.1715],[-41.7733,-22.1712],[-41.7727,-22.1707]],[[-41.7798,-22.1751],[-41.778,-22.1791],[-41.7798,-22.1751],[-41.7798,-22.1751]],[[-41.7847,-22.179],[-41.7872,-22.1754],[-41.7846,-22.179],[-41.7847,-22.179]]]}},{"type":"Feature","properties":{"cod_imovel":"RJ-3301405-1373C084D06645BA9F1AF49E84751149","num_area":"97.665400000000000000000000000000","ind_status":"AT"},"geometry":{"type":"Polygon","coordinates":[[[-41.9464,-22.1325],[-41.9421,-22.1323],[-41.9483,-22.1409],[-41.952,-22.138],[-41.9479,-22.1353],[-41.9464,-22.1325]],[[-41.9359,-22.1251],[-41.9368,-22.1302],[-41.947,-22.1315],[-41.9462,-22.1252],[-41.9362,-22.1251],[-41.9359,-22.1251]]]}},{"type":"Feature","properties":{"cod_imovel":"RJ-3301405-A63F8BDC4703402A8B774D7B0DE4C9A5","num_area":"14.950500000000000000000000000000","ind_status":"AT"},"geometry":{"type":"Polygon","coordinates":[[[-41.8135,-22.1436],[-41.8186,-22.1454],[-41.8137,-22.1434],[-41.8135,-22.1436]]]}},{"type":"Feature","properties":{"cod_imovel":"RJ-3301405-EB11FCB0FD394CBDAB58C75A2C9FCFB7","num_area":"20.276100000000000000000000000000","ind_status":"AT"},"geometry":{"type":"Polygon","coordinates":[[[-41.8431,-22.1233],[-41.8461,-22.1259],[-41.843,-22.1229],[-41.8431,-22.1233]],[[-41.8467,-22.1264],[-41.85,-22.1259],[-41.8469,-22.1264],[-41.8467,-22.1264]]]}},{"type":"Feature","properties":{"cod_imovel":"RJ-3301405-3D8137AEC8C7447CB9709842BAAFA1F9","num_area":"22.718700000000000000000000000000","ind_status":"AT"},"geometry":{"type":"Polygon","coordinates":[[[-41.8398,-22.1804],[-41.8412,-22.1864],[-41.8435,-22.1765],[-41.8398,-22.1804]]]}},{"type":"Feature","properties":{"cod_imovel":"RJ-3301405-F2C1058EF16C43C7982D83A0CA82713F","num_area":"18.403100000000000000000000000000","ind_status":"AT"},"geometry":{"type":"Polygon","coordinates":[[[-41.9075,-22.1216],[-41.9097,-22.1189],[-41.9073,-22.1221],[-41.9075,-22.1216]],[[-41.9014,-22.1216],[-41.9052,-22.1224],[-41.9026,-22.1202],[-41.9014,-22.1216]],[[-41.9127,-22.1196],[-41.9136,-22.1151],[-41.9123,-22.1191],[-41.9127,-22.1196]],[[-41.9109,-22.1139],[-41.91,-22.1173],[-41.9108,-22.1143],[-41.9109,-22.1139]]]}},{"type":"Feature","properties":{"cod_imovel":"RJ-3301405-29DA61780DDF49F986888E68AF68DB07","num_area":"10.896600000000000000000000000000","ind_status":"AT"},"geometry":{"type":"Polygon","coordinates":[[[-41.835,-22.095],[-41.841,-22.0851],[-41.8354,-22.0948],[-41.835,-22.095]],[[-41.8352,-22.0952],[-41.8413,-22.0891],[-41.8352,-22.0952],[-41.8352,-22.0952]]]}},{"type":"Feature","properties":{"cod_imovel":"RJ-3301405-781CDFD3E27B48FAA098789906282F33","num_area":"54.091000000000000000000000000000","ind_status":"AT"},"geometry":{"type":"Polygon","coordinates":[[[-41.9516,-22.1104],[-41.9424,-22.0981],[-41.9522,-22.1119],[-41.9516,-22.1104]],[[-41.9355,-22.0989],[-41.9346,-22.1039],[-41.9395,-22.1054],[-41.9356,-22.0992],[-41.9355,-22.0989]]]}},{"type":"Feature","properties":{"cod_imovel":"RJ-3301405-671382797B3D4EE7A38E5C9C18963429","num_area":"5.6396000000000000000000000000000","ind_status":"AT"},"geometry":{"type":"Polygon","coordinates":[[[-41.8376,-22.091],[-41.8349,-22.0934],[-41.8381,-22.0912],[-41.8376,-22.091]],[[-41.8197,-22.1029],[-41.8171,-22.0999],[-41.8196,-22.1029],[-41.8197,-22.1029]]]}},{"type":"Feature","properties":{"cod_imovel":"RJ-3301405-5BB83DA22B3E4B238AE971792CBC0B25","num_area":"12.259300000000000000000000000000","ind_status":"AT"},"geometry":{"type":"Polygon","coordinates":[[[-41.8646,-22.0993],[-41.8605,-22.0985],[-41.861,-22.1025],[-41.8646,-22.0995],[-41.8646,-22.0993]],[[-41.8662,-22.0997],[-41.8607,-22.1032],[-41.8662,-22.0997],[-41.8662,-22.0997]]]}},{"type":"Feature","properties":{"cod_imovel":"RJ-3301405-5C143BE28ACB409A8341CCF47653E1E9","num_area":"23.334700000000000000000000000000","ind_status":"AT"},"geometry":{"type":"Polygon","coordinates":[[[-41.9475,-22.0835],[-41.9459,-22.0769],[-41.9471,-22.0835],[-41.9475,-22.0835]],[[-41.9423,-22.0842],[-41.9427,-22.0809],[-41.9424,-22.0844],[-41.9423,-22.0842]]]}},{"type":"Feature","properties":{"cod_imovel":"RJ-3301405-75F8C1C04BF448A3A7DDAA5EB066FB2A","num_area":"690.66340000000000000000000000000","ind_status":"PE"},"geometry":{"type":"Polygon","coordinates":[[[-41.8539,-22.1303],[-41.8475,-22.129],[-41.8516,-22.1246],[-41.8463,-22.1295],[-41.8596,-22.1377],[-41.8638,-22.1332],[-41.8539,-22.1303],[-41.8539,-22.1303]],[[-41.8516,-22.124],[-41.8546,-22.1243],[-41.8515,-22.1239],[-41.8516,-22.124]],[[-41.855,-22.1229],[-41.8518,-22.1234],[-41.8551,-22.1229],[-41.855,-22.1229]],[[-41.8564,-22.1277],[-41.8538,-22.1294],[-41.8564,-22.1277],[-41.8564,-22.1277]],[[-41.8649,-22.125],[-41.8687,-22.1273],[-41.8649,-22.1249],[-41.8649,-22.125]],[[-41.8698,-22.1215],[-41.877,-22.1235],[-41.8754,-22.1177],[-41.88,-22.1146],[-41.8794,-22.1242],[-41.885,-22.1205],[-41.8988,-22.1224],[-41.8694,-22.1098],[-41.8666,-22.1131],[-41.873,-22.1167],[-41.8649,-22.1199],[-41.8698,-22.1216],[-41.8698,-22.1215]],[[-41.8837,-22.1204],[-41.8791,-22.1205],[-41.8837,-22.1203],[-41.8837,-22.1204]],[[-41.865,-22.1242],[-41.8678,-22.1263],[-41.8651,-22.1242],[-41.865,-22.1242]],[[-41.8663,-22.1381],[-41.866,-22.1348],[-41.8663,-22.138],[-41.8663,-22.1381]],[[-41.8657,-22.1273],[-41.8682,-22.129],[-41.8657,-22.1269],[-41.8657,-22.1273]],[[-41.8965,-22.1375],[-41.8913,-22.1402],[-41.8963,-22.1316],[-41.891,-22.1363],[-41.8912,-22.1292],[-41.8911,-22.1334],[-41.8838,-22.1294],[-41.89,-22.1335],[-41.8904,-22.1375],[-41.8865,-22.1315],[-41.8873,-22.137],[-41.8792,-22.1273],[-41.8835,-22.1331],[-41.8757,-22.1297],[-41.8789,-22.1405],[-41.8733,-22.1343],[-41.8759,-22.1282],[-41.8695,-22.1259],[-41.8688,-22.1355],[-41.878,-22.1415],[-41.8898,-22.1429],[-41.8965,-22.1375],[-41.8965,-22.1375]],[[-41.8861,-22.1405],[-41.8808,-22.1366],[-41.8903,-22.1423],[-41.8861,-22.1405],[-41.8861,-22.1405]],[[-41.8711,-22.1231],[-41.8759,-22.1254],[-41.8711,-22.1231],[-41.8711,-22.1231]],[[-41.8716,-22.1252],[-41.876,-22.1272],[-41.8715,-22.1251],[-41.8716,-22.1252]],[[-41.8766,-22.1243],[-41.8733,-22.1235],[-41.8766,-22.1243],[-41.8766,-22.1243]],[[-41.8852,-22.1316],[-41.88,-22.1259],[-41.8851,-22.1318],[-41.8852,-22.1316]],[[-41.8991,-22.1254],[-41.8857,-22.124],[-41.9,-22.129],[-41.8991,-22.1254]],[[-41.8924,-22.1277],[-41.8875,-22.1268],[-41.8924,-22.1277],[-41.8924,-22.1277]],[[-41.8894,-22.1279],[-41.8944,-22.1293],[-41.8895,-22.1279],[-41.8894,-22.1279]],[[-41.8932,-22.1316],[-41.8912,-22.1292],[-41.8932,-22.1316],[-41.8932,-22.1316]],[[-41.8984,-22.1346],[-41.8968,-22.1295],[-41.8968,-22.1391],[-41.8982,-22.1353],[-41.8984,-22.1346]]]}},{"type":"Feature","properties":{"cod_imovel":"RJ-3301405-9B6FEC635D2843D3AC3ED34E84296D90","num_area":"28.170900000000000000000000000000","ind_status":"AT"},"geometry":{"type":"Polygon","coordinates":[[[-41.8438,-22.0925],[-41.8406,-22.0944],[-41.846,-22.0995],[-41.8446,-22.0924],[-41.8438,-22.0925]]]}},{"type":"Feature","properties":{"cod_imovel":"RJ-3301405-331A1C6F3E274731B2AF306F64E83681","num_area":"9.8663000000000000000000000000000","ind_status":"AT"},"geometry":{"type":"Polygon","coordinates":[[[-41.9147,-22.1266],[-41.9081,-22.1267],[-41.9144,-22.1266],[-41.9147,-22.1266]]]}},{"type":"Feature","properties":{"cod_imovel":"RJ-3301405-84BA1672A8A4429DBBD04750BD3E0A45","num_area":"282.85590000000000000000000000000","ind_status":"AT"},"geometry":{"type":"Polygon","coordinates":[[[-41.9002,-22.1087],[-41.9045,-22.1074],[-41.901,-22.1071],[-41.9002,-22.1087]],[[-41.9087,-22.1073],[-41.9125,-22.1066],[-41.9087,-22.1072],[-41.9087,-22.1073]],[[-41.9089,-22.1004],[-41.9013,-22.1065],[-41.9089,-22.1004],[-41.9089,-22.1004]],[[-41.9187,-22.1062],[-41.9363,-22.1057],[-41.932,-22.0963],[-41.9172,-22.1059],[-41.9187,-22.1062]],[[-41.93,-22.1056],[-41.921,-22.1029],[-41.9295,-22.1054],[-41.93,-22.1056]],[[-41.9325,-22.0963],[-41.9314,-22.0909],[-41.9266,-22.0905],[-41.9139,-22.0953],[-41.9175,-22.099],[-41.9183,-22.0927],[-41.9188,-22.1],[-41.932,-22.0963],[-41.9325,-22.0963]],[[-41.9201,-22.1],[-41.9253,-22.0982],[-41.9205,-22.0998],[-41.9201,-22.1]]]}},{"type":"Feature","properties":{"cod_imovel":"RJ-3301405-DE54977FC1354855BC3917080CC45FA1","num_area":"41.128800000000000000000000000000","ind_status":"AT"},"geometry":{"type":"Polygon","coordinates":[[[-41.9463,-22.1076],[-41.9494,-22.1082],[-41.9464,-22.1075],[-41.9463,-22.1076]],[[-41.9365,-22.1055],[-41.9449,-22.1073],[-41.9373,-22.1055],[-41.9365,-22.1055]],[[-41.9461,-22.103],[-41.9427,-22.0977],[-41.9468,-22.105],[-41.9461,-22.103]],[[-41.9363,-22.1041],[-41.9415,-22.1033],[-41.9374,-22.1029],[-41.9363,-22.1041]]]}},{"type":"Feature","properties":{"cod_imovel":"RJ-3301405-6D63380224854AD4B2E2B1B44A7CF1AB","num_area":"8.0436000000000000000000000000000","ind_status":"AT"},"geometry":{"type":"Polygon","coordinates":[[[-41.9097,-22.078],[-41.9125,-22.0749],[-41.9096,-22.078],[-41.9097,-22.078]]]}},{"type":"Feature","properties":{"cod_imovel":"RJ-3301405-071BF30F63E048E3A68FF45E44F61E23","num_area":"65.842500000000000000000000000000","ind_status":"AT"},"geometry":{"type":"Polygon","coordinates":[[[-41.8908,-22.0972],[-41.8948,-22.0956],[-41.8905,-22.097],[-41.8908,-22.0972]],[[-41.8871,-22.1014],[-41.9002,-22.1087],[-41.8905,-22.1021],[-41.8932,-22.1],[-41.8894,-22.1023],[-41.8931,-22.0998],[-41.8876,-22.1012],[-41.8871,-22.1014]],[[-41.9016,-22.1058],[-41.9061,-22.0991],[-41.9015,-22.0948],[-41.9057,-22.0994],[-41.8992,-22.1034],[-41.9015,-22.1058],[-41.9016,-22.1058]]]}},{"type":"Feature","properties":{"cod_imovel":"RJ-3301405-76ED23FB4D434A76AB6A09C842012CE7","num_area":"16.497300000000000000000000000000","ind_status":"AT"},"geometry":{"type":"Polygon","coordinates":[[[-41.8842,-22.0634],[-41.8803,-22.0602],[-41.882,-22.0663],[-41.8842,-22.0634]]]}},{"type":"Feature","properties":{"cod_imovel":"RJ-3301405-24CD44FA28CF454199D3EA2A0D4B1155","num_area":"22.150500000000000000000000000000","ind_status":"AT"},"geometry":{"type":"Polygon","coordinates":[[[-41.9001,-22.2133],[-41.9059,-22.2166],[-41.9055,-22.2123],[-41.8973,-22.2116],[-41.9001,-22.2133]]]}},{"type":"Feature","properties":{"cod_imovel":"RJ-3301405-ADAB48C466D94DAEA82752E44B49C92E","num_area":"8.3836000000000000000000000000000","ind_status":"CA"},"geometry":{"type":"Polygon","coordinates":[[[-41.8371,-22.1697],[-41.8341,-22.1722],[-41.8385,-22.1705],[-41.8371,-22.1697]]]}},{"type":"Feature","properties":{"cod_imovel":"RJ-3301405-828D2408A2464F689C8B7E59CF6A278A","num_area":"22.160500000000000000000000000000","ind_status":"AT"},"geometry":{"type":"Polygon","coordinates":[[[-41.9357,-22.1048],[-41.9381,-22.098],[-41.9353,-22.1046],[-41.9357,-22.1048]]]}},{"type":"Feature","properties":{"cod_imovel":"RJ-3301405-6E366D095FBC4A5395794894258AF626","num_area":"33.267900000000000000000000000000","ind_status":"AT"},"geometry":{"type":"Polygon","coordinates":[[[-41.7828,-22.1327],[-41.7876,-22.135],[-41.7828,-22.1327],[-41.7828,-22.1327]],[[-41.7894,-22.1349],[-41.7868,-22.1367],[-41.7924,-22.1435],[-41.7901,-22.1345],[-41.7894,-22.1349]]]}},{"type":"Feature","properties":{"cod_imovel":"RJ-3301405-B2600CBC74D14315B7BD36F79E15A5B8","num_area":"131.10230000000000000000000000000","ind_status":"AT"},"geometry":{"type":"Polygon","coordinates":[[[-41.8564,-22.1767],[-41.8544,-22.1742],[-41.8561,-22.1798],[-41.8566,-22.1754],[-41.8629,-22.1771],[-41.8595,-22.1839],[-41.8659,-22.1794],[-41.8627,-22.1676],[-41.8588,-22.1677],[-41.8611,-22.1762],[-41.8565,-22.1751],[-41.8582,-22.1716],[-41.8544,-22.1737],[-41.8548,-22.1675],[-41.8494,-22.1817],[-41.8564,-22.1772],[-41.8564,-22.1767]]]}},{"type":"Feature","properties":{"cod_imovel":"RJ-3301405-50FD9FDA15E24072B9E7DFCFEE58AADF","num_area":"4.7029000000000000000000000000000","ind_status":"AT"},"geometry":{"type":"Polygon","coordinates":[[[-41.7202,-22.1372],[-41.7242,-22.141],[-41.7203,-22.1372],[-41.7202,-22.1372]]]}},{"type":"Feature","properties":{"cod_imovel":"RJ-3301405-D519CED43DC24EF59128B7F4D2FF99F3","num_area":"17.541900000000000000000000000000","ind_status":"AT"},"geometry":{"type":"Polygon","coordinates":[[[-41.8584,-22.1371],[-41.8623,-22.1419],[-41.866,-22.1384],[-41.8593,-22.1376],[-41.8584,-22.1371]]]}},{"type":"Feature","properties":{"cod_imovel":"RJ-3301405-D072176F892B435DBB4987138BC5BD41","num_area":"2.7304000000000000000000000000000","ind_status":"AT"},"geometry":{"type":"Polygon","coordinates":[[[-41.869,-22.1604],[-41.8687,-22.1559],[-41.8682,-22.16],[-41.869,-22.1604]]]}},{"type":"Feature","properties":{"cod_imovel":"RJ-3301405-1C00250D8E8A475BAC5B90DF1F650929","num_area":"10.868500000000000000000000000000","ind_status":"AT"},"geometry":{"type":"Polygon","coordinates":[[[-41.8701,-22.1806],[-41.8654,-22.178],[-41.8698,-22.1807],[-41.8701,-22.1806]],[[-41.8742,-22.1796],[-41.8708,-22.1805],[-41.8742,-22.1797],[-41.8742,-22.1796]]]}},{"type":"Feature","properties":{"cod_imovel":"RJ-3301405-F6B96047C16B46379EA4E752FB61CF4B","num_area":"2.1598000000000000000000000000000","ind_status":"AT"},"geometry":{"type":"Polygon","coordinates":[[[-41.916,-22.0922],[-41.9153,-22.0951],[-41.9165,-22.0919],[-41.916,-22.0922]]]}},{"type":"Feature","properties":{"cod_imovel":"RJ-3301405-431F8515BB9144BDB91062D163142B17","num_area":"41.056200000000000000000000000000","ind_status":"AT"},"geometry":{"type":"Polygon","coordinates":[[[-41.8427,-22.1842],[-41.8497,-22.176],[-41.8436,-22.176],[-41.8429,-22.1822],[-41.8427,-22.1842]]]}},{"type":"Feature","properties":{"cod_imovel":"RJ-3301405-47CC8F6247B249A79AF4F12CEFBB57A7","num_area":"17.068000000000000000000000000000","ind_status":"AT"},"geometry":{"type":"Polygon","coordinates":[[[-41.8406,-22.142],[-41.8397,-22.1384],[-41.8406,-22.1419],[-41.8406,-22.142]],[[-41.8434,-22.1398],[-41.839,-22.1448],[-41.8437,-22.1473],[-41.8435,-22.1399],[-41.8434,-22.1398]]]}},{"type":"Feature","properties":{"cod_imovel":"RJ-3301405-FF762B6A0F4A45969190CEB932629BCA","num_area":"105.30770000000000000000000000000","ind_status":"AT"},"geometry":{"type":"Polygon","coordinates":[[[-41.864,-22.2653],[-41.8667,-22.2628],[-41.8643,-22.2648],[-41.864,-22.2653]],[[-41.8541,-22.2224],[-41.8504,-22.2238],[-41.8542,-22.2226],[-41.8541,-22.2224]],[[-41.876,-22.2586],[-41.8751,-22.2525],[-41.8757,-22.2579],[-41.876,-22.2586]],[[-41.8552,-22.2301],[-41.8534,-22.2257],[-41.8554,-22.2304],[-41.8552,-22.2301]],[[-41.8421,-22.2114],[-41.8467,-22.2213],[-41.843,-22.2124],[-41.8421,-22.2114]],[[-41.8627,-22.2533],[-41.8623,-22.2623],[-41.8631,-22.2534],[-41.8627,-22.2533]],[[-41.8678,-22.2489],[-41.8672,-22.2445],[-41.8585,-22.247],[-41.8621,-22.2518],[-41.868,-22.2488],[-41.8678,-22.2489]],[[-41.8431,-22.2104],[-41.8465,-22.2189],[-41.8432,-22.2104],[-41.8431,-22.2104]]]}},{"type":"Feature","properties":{"cod_imovel":"RJ-3301405-8DBC4777AE8146798BB7C8D298326F23","num_area":"6.2898000000000000000000000000000","ind_status":"AT"},"geometry":{"type":"Polygon","coordinates":[[[-41.9628,-22.0805],[-41.9666,-22.0801],[-41.9627,-22.0802],[-41.9628,-22.0805]]]}},{"type":"Feature","properties":{"cod_imovel":"RJ-3301405-0EC51ACB35BE4422915AF80B3C48A3AA","num_area":"4.0392000000000000000000000000000","ind_status":"AT"},"geometry":{"type":"Polygon","coordinates":[[[-41.8435,-22.1923],[-41.8384,-22.1908],[-41.8418,-22.1914],[-41.8435,-22.1923]]]}},{"type":"Feature","properties":{"cod_imovel":"RJ-3301405-0BF00C94093041C3BCE49CFAEE5D7BE3","num_area":"38.453000000000000000000000000000","ind_status":"AT"},"geometry":{"type":"Polygon","coordinates":[[[-41.8656,-22.1563],[-41.8687,-22.1549],[-41.8656,-22.1561],[-41.8656,-22.1563]],[[-41.8781,-22.1467],[-41.883,-22.1423],[-41.8774,-22.1399],[-41.8734,-22.1452],[-41.8781,-22.1466],[-41.8781,-22.1467]]]}},{"type":"Feature","properties":{"cod_imovel":"RJ-3301405-0F5AF92D0417439393F7252B4111E43F","num_area":"5.2503000000000000000000000000000","ind_status":"AT"},"geometry":{"type":"Polygon","coordinates":[[[-41.728,-22.1047],[-41.7293,-22.1016],[-41.7279,-22.1049],[-41.728,-22.1047]],[[-41.7255,-22.1017],[-41.7288,-22.101],[-41.7257,-22.1015],[-41.7255,-22.1017]]]}},{"type":"Feature","properties":{"cod_imovel":"RJ-3301405-384B36700DA3452BA8A2B3E755506B47","num_area":"0.9584000000000000000000000000000","ind_status":"AT"},"geometry":{"type":"Polygon","coordinates":[[[-41.8072,-22.0988],[-41.8015,-22.1002],[-41.8068,-22.0988],[-41.8072,-22.0988]]]}},{"type":"Feature","properties":{"cod_imovel":"RJ-3301405-222E9F265B3D4D2EB31A27088DC2CB61","num_area":"5.4277000000000000000000000000000","ind_status":"AT"},"geometry":{"type":"Polygon","coordinates":[[[-41.7184,-22.076],[-41.7223,-22.0772],[-41.7225,-22.0718],[-41.7189,-22.0755],[-41.7184,-22.076]]]}},{"type":"Feature","properties":{"cod_imovel":"RJ-3301405-28E1AC7FF4904CAFB9A87AABDAC560E4","num_area":"20.938000000000000000000000000000","ind_status":"AT"},"geometry":{"type":"Polygon","coordinates":[[[-41.9054,-22.2123],[-41.8974,-22.2117],[-41.9056,-22.216],[-41.9054,-22.2123]]]}},{"type":"Feature","properties":{"cod_imovel":"RJ-3301405-2B280C2DA4AF4A3B92A820CCE11F3B61","num_area":"26.925600000000000000000000000000","ind_status":"AT"},"geometry":{"type":"Polygon","coordinates":[[[-41.8892,-22.1137],[-41.886,-22.1171],[-41.8896,-22.119],[-41.8933,-22.1163],[-41.8902,-22.114],[-41.8892,-22.1137]]]}},{"type":"Feature","properties":{"cod_imovel":"RJ-3301405-32520EE811A34B2BAD9E470D06812EF5","num_area":"27.780100000000000000000000000000","ind_status":"AT"},"geometry":{"type":"Polygon","coordinates":[[[-41.7511,-22.1457],[-41.7559,-22.1449],[-41.7511,-22.1456],[-41.7511,-22.1457]],[[-41.7566,-22.1166],[-41.7593,-22.1135],[-41.7566,-22.1166],[-41.7566,-22.1166]],[[-41.7613,-22.1154],[-41.7624,-22.1199],[-41.7614,-22.1154],[-41.7613,-22.1154]],[[-41.7553,-22.1028],[-41.754,-22.1056],[-41.7552,-22.1028],[-41.7553,-22.1028]],[[-41.7306,-22.1425],[-41.7365,-22.1425],[-41.7305,-22.1424],[-41.7306,-22.1425]],[[-41.7325,-22.1436],[-41.7361,-22.1438],[-41.7326,-22.1436],[-41.7325,-22.1436]],[[-41.7353,-22.1051],[-41.7318,-22.1092],[-41.7358,-22.1048],[-41.7353,-22.1051]]]}},{"type":"Feature","properties":{"cod_imovel":"RJ-3301405-53D55AAFE88940F596D6472179C1FFA8","num_area":"31.675300000000000000000000000000","ind_status":"AT"},"geometry":{"type":"Polygon","coordinates":[[[-41.6922,-22.0725],[-41.7005,-22.0761],[-41.6925,-22.0716],[-41.6922,-22.0725]],[[-41.7164,-22.0776],[-41.7231,-22.0721],[-41.7177,-22.0721],[-41.716,-22.0775],[-41.7164,-22.0776]]]}},{"type":"Feature","properties":{"cod_imovel":"RJ-3301405-4FC928F2B94843FDBFDA5058B4BAD808","num_area":"81.133900000000000000000000000000","ind_status":"AT"},"geometry":{"type":"Polygon","coordinates":[[[-41.8517,-22.0609],[-41.8489,-22.0633],[-41.8523,-22.0607],[-41.8517,-22.0609]],[[-41.8431,-22.0605],[-41.8284,-22.0611],[-41.8302,-22.0669],[-41.8332,-22.063],[-41.8378,-22.0664],[-41.8377,-22.0713],[-41.8411,-22.0642],[-41.8377,-22.0624],[-41.8383,-22.0671],[-41.8367,-22.0629],[-41.8434,-22.0609],[-41.8431,-22.0605]],[[-41.8433,-22.0698],[-41.8463,-22.0632],[-41.8432,-22.0697],[-41.8433,-22.0698]]]}},{"type":"Feature","properties":{"cod_imovel":"RJ-3301405-55CD3AB51DD546B2B3A576467BB36BFB","num_area":"11.609300000000000000000000000000","ind_status":"AT"},"geometry":{"type":"Polygon","coordinates":[[[-41.88,-22.1102],[-41.8832,-22.113],[-41.8804,-22.1103],[-41.88,-22.1102]],[[-41.8827,-22.1094],[-41.8801,-22.1071],[-41.8826,-22.1096],[-41.8827,-22.1094]]]}},{"type":"Feature","properties":{"cod_imovel":"RJ-3301405-56392D6D9C824B2BB900F02F1705DB23","num_area":"6.3793000000000000000000000000000","ind_status":"AT"},"geometry":{"type":"Polygon","coordinates":[[[-41.7949,-22.1599],[-41.7944,-22.1565],[-41.7949,-22.1599],[-41.7949,-22.1599]]]}},{"type":"Feature","properties":{"cod_imovel":"RJ-3301405-70D9C5AFEC454CA090BC923BA67BEC9E","num_area":"9.1793000000000000000000000000000","ind_status":"AT"},"geometry":{"type":"Polygon","coordinates":[[[-41.8952,-22.0909],[-41.8978,-22.0887],[-41.8951,-22.0908],[-41.8952,-22.0909]]]}},{"type":"Feature","properties":{"cod_imovel":"RJ-3301405-5F90754826674937812605595959EFCD","num_area":"27.471700000000000000000000000000","ind_status":"AT"},"geometry":{"type":"Polygon","coordinates":[[[-41.8359,-22.1532],[-41.832,-22.1479],[-41.8358,-22.1532],[-41.8359,-22.1532]]]}},{"type":"Feature","properties":{"cod_imovel":"RJ-3301405-8FB7E4D908774EBABBBBF3E5BD8CE483","num_area":"20.476800000000000000000000000000","ind_status":"CA"},"geometry":{"type":"Polygon","coordinates":[[[-41.8411,-22.1862],[-41.8419,-22.183],[-41.8406,-22.1858],[-41.8411,-22.1862]],[[-41.8406,-22.1776],[-41.839,-22.1834],[-41.8417,-22.1765],[-41.8406,-22.1776]]]}},{"type":"Feature","properties":{"cod_imovel":"RJ-3301405-9449796A86044726948D529D6F88BD74","num_area":"10.626500000000000000000000000000","ind_status":"AT"},"geometry":{"type":"Polygon","coordinates":[[[-41.8046,-22.1433],[-41.8012,-22.1424],[-41.8045,-22.1434],[-41.8046,-22.1433]],[[-41.8078,-22.1436],[-41.8044,-22.1413],[-41.8075,-22.1432],[-41.8078,-22.1436]],[[-41.8062,-22.1462],[-41.8012,-22.1441],[-41.806,-22.1462],[-41.8062,-22.1462]]]}},{"type":"Feature","properties":{"cod_imovel":"RJ-3301405-A11081310BFD4603A76EF454BBE35191","num_area":"41.343600000000000000000000000000","ind_status":"AT"},"geometry":{"type":"Polygon","coordinates":[[[-41.8526,-22.1353],[-41.8554,-22.1336],[-41.8523,-22.1353],[-41.8526,-22.1353]],[[-41.8439,-22.1399],[-41.8456,-22.1479],[-41.8493,-22.1416],[-41.8439,-22.1462],[-41.8445,-22.1391],[-41.8439,-22.1399]],[[-41.8457,-22.148],[-41.8509,-22.1474],[-41.8518,-22.1419],[-41.8503,-22.1476],[-41.847,-22.1469],[-41.8495,-22.1416],[-41.8458,-22.1476],[-41.8457,-22.148]],[[-41.8515,-22.1398],[-41.8466,-22.1359],[-41.8515,-22.1398],[-41.8515,-22.1398]],[[-41.8465,-22.136],[-41.8488,-22.1392],[-41.8465,-22.1361],[-41.8465,-22.136]]]}},{"type":"Feature","properties":{"cod_imovel":"RJ-3301405-A314DE57A3AB4BDF970DB9BF731AB730","num_area":"3.5321000000000000000000000000000","ind_status":"AT"},"geometry":{"type":"Polygon","coordinates":[[[-41.8066,-22.1142],[-41.803,-22.1127],[-41.8065,-22.1142],[-41.8066,-22.1142]]]}},{"type":"Feature","properties":{"cod_imovel":"RJ-3301405-A37B579FDE734FD7A3CEC38E94A51733","num_area":"27.980000000000000000000000000000","ind_status":"AT"},"geometry":{"type":"Polygon","coordinates":[[[-41.7934,-22.112],[-41.7973,-22.1178],[-41.7934,-22.1119],[-41.7934,-22.112]],[[-41.7959,-22.1221],[-41.7973,-22.1183],[-41.7958,-22.1216],[-41.7959,-22.1221]],[[-41.7928,-22.1148],[-41.7906,-22.1208],[-41.7909,-22.1175],[-41.7943,-22.1197],[-41.7929,-22.1145],[-41.7928,-22.1148]],[[-41.7883,-22.122],[-41.7855,-22.1082],[-41.7883,-22.122],[-41.7883,-22.122]],[[-41.7872,-22.1112],[-41.7932,-22.1118],[-41.7872,-22.111],[-41.7872,-22.1112]]]}},{"type":"Feature","properties":{"cod_imovel":"RJ-3301405-A8E6A51EFFAF4052BB101993A654B47E","num_area":"19.220000000000000000000000000000","ind_status":"AT"},"geometry":{"type":"Polygon","coordinates":[[[-41.832,-22.1479],[-41.8284,-22.1473],[-41.8326,-22.1527],[-41.832,-22.1479]]]}},{"type":"Feature","properties":{"cod_imovel":"RJ-3301405-A925CEB127134E61995227EA245B2562","num_area":"95.532000000000000000000000000000","ind_status":"AT"},"geometry":{"type":"Polygon","coordinates":[[[-41.8939,-22.1694],[-41.8926,-22.1804],[-41.898,-22.1858],[-41.9,-22.1725],[-41.8944,-22.1697],[-41.8939,-22.1694]]]}},{"type":"Feature","properties":{"cod_imovel":"RJ-3301405-C94C1A826A884095A5B74B34640FDDDB","num_area":"54.100100000000000000000000000000","ind_status":"AT"},"geometry":{"type":"Polygon","coordinates":[[[-41.9104,-22.1195],[-41.902,-22.1217],[-41.9026,-22.1253],[-41.9128,-22.1261],[-41.9111,-22.1203],[-41.9104,-22.1195]]]}},{"type":"Feature","properties":{"cod_imovel":"RJ-3301405-E4810C71436147548C379474C52791D0","num_area":"18.502100000000000000000000000000","ind_status":"AT"},"geometry":{"type":"Polygon","coordinates":[[[-41.8903,-22.1556],[-41.8929,-22.1516],[-41.8855,-22.1524],[-41.8906,-22.1551],[-41.8858,-22.1577],[-41.8901,-22.1557],[-41.8903,-22.1556]],[[-41.8855,-22.1534],[-41.8838,-22.157],[-41.8855,-22.1536],[-41.8855,-22.1534]],[[-41.8839,-22.1577],[-41.8857,-22.1539],[-41.8839,-22.1576],[-41.8839,-22.1577]]]}},{"type":"Feature","properties":{"cod_imovel":"RJ-3301405-36C14B0B9B8144EB9E92BD6BA0F6B030","num_area":"8.3347000000000000000000000000000","ind_status":"AT"},"geometry":{"type":"Polygon","coordinates":[[[-41.7201,-22.1375],[-41.7264,-22.144],[-41.7303,-22.1421],[-41.7268,-22.1438],[-41.7202,-22.1373],[-41.7201,-22.1375]],[[-41.7203,-22.1379],[-41.7236,-22.1404],[-41.7204,-22.138],[-41.7203,-22.1379]],[[-41.7257,-22.1434],[-41.7291,-22.1435],[-41.7257,-22.1434],[-41.7257,-22.1434]]]}},{"type":"Feature","properties":{"cod_imovel":"RJ-3301405-BB28B535C4AB4D9BB80AE0B61177CCA3","num_area":"19.738600000000000000000000000000","ind_status":"AT"},"geometry":{"type":"Polygon","coordinates":[[[-41.8011,-22.166],[-41.8005,-22.1691],[-41.8016,-22.1661],[-41.8011,-22.166]],[[-41.8041,-22.1617],[-41.801,-22.1624],[-41.8042,-22.1621],[-41.8041,-22.1617]],[[-41.8047,-22.1659],[-41.8101,-22.1673],[-41.8053,-22.1657],[-41.8047,-22.1659]]]}},{"type":"Feature","properties":{"cod_imovel":"RJ-3301405-F00EC3C0D6E84CCFBD6967B40321ADA6","num_area":"9.4374000000000000000000000000000","ind_status":"AT"},"geometry":{"type":"Polygon","coordinates":[[[-41.7551,-22.1025],[-41.754,-22.1056],[-41.7551,-22.1026],[-41.7551,-22.1025]]]}}]}