{"type":"FeatureCollection","features":[{"type":"Feature","properties":{"cod_imovel":"RJ-3301900-6830073E6931449CB5CBA308B30FDA2A","num_area":"10.857500000000000000000000000000","ind_status":"AT"},"geometry":{"type":"Polygon","coordinates":[[[-42.8118,-22.8404],[-42.8115,-22.8443],[-42.8119,-22.8404],[-42.8118,-22.8404]]]}},{"type":"Feature","properties":{"cod_imovel":"RJ-3301900-6E599A6F2BBF40618A0568336E0E62A1","num_area":"6.4169000000000000000000000000000","ind_status":"AT"},"geometry":{"type":"Polygon","coordinates":[[[-42.7551,-22.8349],[-42.7593,-22.8366],[-42.7562,-22.8343],[-42.7551,-22.8349]]]}},{"type":"Feature","properties":{"cod_imovel":"RJ-3301900-01A10BD1D41E40FAB31E0CCCCB6460A9","num_area":"7.3583000000000000000000000000000","ind_status":"AT"},"geometry":{"type":"Polygon","coordinates":[[[-42.7867,-22.8477],[-42.7851,-22.8432],[-42.7856,-22.8474],[-42.7867,-22.8477]]]}},{"type":"Feature","properties":{"cod_imovel":"RJ-3301900-C96EF7ED63794DDD914D27C1620AE5EC","num_area":"14.894600000000000000000000000000","ind_status":"AT"},"geometry":{"type":"Polygon","coordinates":[[[-42.7752,-22.8463],[-42.7801,-22.8479],[-42.7752,-22.8463],[-42.7752,-22.8463]]]}},{"type":"Feature","properties":{"cod_imovel":"RJ-3301900-DDA38537607F47BAA6E5E92AE0736965","num_area":"101.80780000000000000000000000000","ind_status":"AT"},"geometry":{"type":"Polygon","coordinates":[[[-42.7442,-22.8429],[-42.7443,-22.8386],[-42.7439,-22.8436],[-42.7442,-22.8429]],[[-42.7432,-22.834],[-42.7434,-22.8392],[-42.7435,-22.8334],[-42.7432,-22.834]],[[-42.7488,-22.8391],[-42.7525,-22.8378],[-42.7468,-22.8366],[-42.7494,-22.8388],[-42.7488,-22.8391]],[[-42.7521,-22.8476],[-42.7533,-22.8511],[-42.7605,-22.8459],[-42.758,-22.8432],[-42.7522,-22.8475],[-42.7521,-22.8476]],[[-42.7411,-22.838],[-42.7341,-22.8396],[-42.7364,-22.8454],[-42.7412,-22.8462],[-42.7411,-22.8382],[-42.7411,-22.838]]]}},{"type":"Feature","properties":{"cod_imovel":"RJ-3301900-11C116D5FC634089AF04AD6086BA4919","num_area":"3.2538000000000000000000000000000","ind_status":"AT"},"geometry":{"type":"Polygon","coordinates":[[[-42.9073,-22.7924],[-42.9086,-22.7954],[-42.9075,-22.7922],[-42.9073,-22.7924]]]}},{"type":"Feature","properties":{"cod_imovel":"RJ-3301900-C4C9E6950D1B4569BCB780EAE329F2BF","num_area":"12.647600000000000000000000000000","ind_status":"AT"},"geometry":{"type":"Polygon","coordinates":[[[-42.7611,-22.6956],[-42.7583,-22.698],[-42.7611,-22.6956],[-42.7611,-22.6956]],[[-42.7607,-22.6957],[-42.7578,-22.6979],[-42.7606,-22.6957],[-42.7607,-22.6957]]]}},{"type":"Feature","properties":{"cod_imovel":"RJ-3301900-7F2AF043B884413AA898B77C344A5D12","num_area":"248.24480000000000000000000000000","ind_status":"AT"},"geometry":{"type":"Polygon","coordinates":[[[-42.9786,-22.7275],[-42.9735,-22.7314],[-42.9672,-22.7218],[-42.9602,-22.7263],[-42.9679,-22.731],[-42.9691,-22.7382],[-42.9763,-22.7368],[-42.9787,-22.7277],[-42.9786,-22.7275]],[[-42.978,-22.7266],[-42.9706,-22.7161],[-42.9621,-22.7245],[-42.9675,-22.7218],[-42.9749,-22.7316],[-42.9778,-22.7267],[-42.978,-22.7266]]]}},{"type":"Feature","properties":{"cod_imovel":"RJ-3301900-59A6C3C001634DE59DE17E066CD72314","num_area":"326.51710000000000000000000000000","ind_status":"AT"},"geometry":{"type":"Polygon","coordinates":[[[-42.9813,-22.7535],[-42.9916,-22.7458],[-42.9876,-22.7574],[-42.9928,-22.7603],[-42.9977,-22.7557],[-42.9925,-22.7501],[-42.9958,-22.7462],[-42.9911,-22.7449],[-42.9967,-22.7403],[-42.9928,-22.7378],[-42.9801,-22.7442],[-42.9848,-22.7465],[-42.9819,-22.7491],[-42.9682,-22.7503],[-42.9701,-22.7574],[-42.9803,-22.754],[-42.9813,-22.7535]],[[-42.9815,-22.7531],[-42.9787,-22.7509],[-42.9815,-22.7529],[-42.9815,-22.7531]],[[-42.9816,-22.7539],[-42.9894,-22.7509],[-42.9876,-22.7573],[-42.9894,-22.7499],[-42.9702,-22.7579],[-42.9816,-22.7539],[-42.9816,-22.7539]]]}},{"type":"Feature","properties":{"cod_imovel":"RJ-3301900-D4520B26E4CC41DEA8E1445ED666EB3A","num_area":"3.1041000000000000000000000000000","ind_status":"PE"},"geometry":{"type":"Polygon","coordinates":[[[-42.776,-22.6526],[-42.7785,-22.6544],[-42.776,-22.6525],[-42.776,-22.6526]]]}},{"type":"Feature","properties":{"cod_imovel":"RJ-3301900-042760B04AEF41B2BD8002BF3DE997A4","num_area":"376.57370000000000000000000000000","ind_status":"AT"},"geometry":{"type":"Polygon","coordinates":[[[-42.755,-22.6643],[-42.7503,-22.6724],[-42.7544,-22.6763],[-42.7503,-22.6724],[-42.7461,-22.6761],[-42.751,-22.6783],[-42.7458,-22.679],[-42.7511,-22.6785],[-42.7505,-22.6748],[-42.7547,-22.6793],[-42.7493,-22.6822],[-42.7735,-22.6845],[-42.7643,-22.6752],[-42.7609,-22.6802],[-42.7637,-22.6745],[-42.7586,-22.6787],[-42.7636,-22.675],[-42.7614,-22.6717],[-42.7574,-22.6774],[-42.76,-22.673],[-42.7525,-22.6741],[-42.7585,-22.667],[-42.755,-22.6693],[-42.7563,-22.6645],[-42.755,-22.6643]],[[-42.7454,-22.6767],[-42.7402,-22.6838],[-42.7473,-22.6866],[-42.7472,-22.6914],[-42.7543,-22.6911],[-42.7555,-22.6852],[-42.7478,-22.6853],[-42.7484,-22.6799],[-42.7415,-22.6838],[-42.7454,-22.6767],[-42.7454,-22.6767]],[[-42.7471,-22.6914],[-42.7508,-22.6923],[-42.7472,-22.6914],[-42.7471,-22.6914]],[[-42.7577,-22.6847],[-42.7615,-22.6849],[-42.7577,-22.6846],[-42.7577,-22.6847]],[[-42.7624,-22.6859],[-42.7729,-22.6884],[-42.7743,-22.6823],[-42.7625,-22.6858],[-42.7624,-22.6859]],[[-42.7614,-22.6717],[-42.7582,-22.6725],[-42.7614,-22.6718],[-42.7614,-22.6717]]]}},{"type":"Feature","properties":{"cod_imovel":"RJ-3301900-B4D875E8B3574CE6AB03080FB7B8AED6","num_area":"23.657900000000000000000000000000","ind_status":"PE"},"geometry":{"type":"Polygon","coordinates":[[[-42.9044,-22.7482],[-42.907,-22.7551],[-42.9046,-22.7481],[-42.9044,-22.7482]]]}},{"type":"Feature","properties":{"cod_imovel":"RJ-3301900-C483EDA39C684089815A549C10A4A474","num_area":"3.2774000000000000000000000000000","ind_status":"AT"},"geometry":{"type":"Polygon","coordinates":[[[-42.9214,-22.7904],[-42.9225,-22.7971],[-42.9216,-22.7922],[-42.9214,-22.7904]]]}},{"type":"Feature","properties":{"cod_imovel":"RJ-3301900-CB2CB84803AB475DA12B11EE39EDE9E2","num_area":"19.962200000000000000000000000000","ind_status":"AT"},"geometry":{"type":"Polygon","coordinates":[[[-42.7641,-22.6892],[-42.7639,-22.6861],[-42.7638,-22.6892],[-42.7641,-22.6892]],[[-42.7635,-22.6899],[-42.7575,-22.689],[-42.7635,-22.6899],[-42.7635,-22.6899]]]}},{"type":"Feature","properties":{"cod_imovel":"RJ-3301900-7EAC81B6963C40CD97866C99E1E02602","num_area":"16.118100000000000000000000000000","ind_status":"AT"},"geometry":{"type":"Polygon","coordinates":[[[-42.7957,-22.6465],[-42.7908,-22.6449],[-42.7951,-22.6462],[-42.7957,-22.6465]]]}},{"type":"Feature","properties":{"cod_imovel":"RJ-3301900-A4F7E65EEC1E4D2F8E1633F0676BC196","num_area":"12.056500000000000000000000000000","ind_status":"AT"},"geometry":{"type":"Polygon","coordinates":[[[-42.7978,-22.6476],[-42.8009,-22.6452],[-42.7968,-22.6441],[-42.7978,-22.6475],[-42.7978,-22.6476]]]}},{"type":"Feature","properties":{"cod_imovel":"RJ-3301900-A05BB94B15CC4A138B8079FCB108427F","num_area":"5.9142000000000000000000000000000","ind_status":"AT"},"geometry":{"type":"Polygon","coordinates":[[[-42.7908,-22.647],[-42.7862,-22.6488],[-42.7907,-22.6471],[-42.7908,-22.647]]]}},{"type":"Feature","properties":{"cod_imovel":"RJ-3301900-1209EAAB09DC4FF7B1392596808D658C","num_area":"2.6709000000000000000000000000000","ind_status":"AT"},"geometry":{"type":"Polygon","coordinates":[[[-42.8055,-22.6361],[-42.8003,-22.6375],[-42.8054,-22.6367],[-42.8055,-22.6361]]]}},{"type":"Feature","properties":{"cod_imovel":"RJ-3301900-8A5A8490ED374898AC9A485BE32DA99D","num_area":"14.455000000000000000000000000000","ind_status":"AT"},"geometry":{"type":"Polygon","coordinates":[[[-42.792,-22.6414],[-42.7968,-22.6403],[-42.7921,-22.6411],[-42.792,-22.6414]]]}},{"type":"Feature","properties":{"cod_imovel":"RJ-3301900-770FBDC174F54B17ACDA00A3ED33E241","num_area":"8.9162000000000000000000000000000","ind_status":"AT"},"geometry":{"type":"Polygon","coordinates":[[[-42.8033,-22.6439],[-42.8065,-22.6417],[-42.8034,-22.6439],[-42.8033,-22.6439]]]}},{"type":"Feature","properties":{"cod_imovel":"RJ-3301900-ED48AB450D9B4438A5870358AD052842","num_area":"2.9407000000000000000000000000000","ind_status":"AT"},"geometry":{"type":"Polygon","coordinates":[[[-42.8111,-22.6373],[-42.8054,-22.6366],[-42.8111,-22.6373],[-42.8111,-22.6373]]]}},{"type":"Feature","properties":{"cod_imovel":"RJ-3301900-AE1B77B645504352BFD9DACC9CB465DE","num_area":"7.4704000000000000000000000000000","ind_status":"AT"},"geometry":{"type":"Polygon","coordinates":[[[-42.9408,-22.7396],[-42.938,-22.744],[-42.9424,-22.7412],[-42.9408,-22.7396]],[[-42.938,-22.7414],[-42.9348,-22.7424],[-42.938,-22.7414],[-42.938,-22.7414]]]}},{"type":"Feature","properties":{"cod_imovel":"RJ-3301900-6E0C1CFFFA164C50B51C119B02AC0C13","num_area":"13.050900000000000000000000000000","ind_status":"AT"},"geometry":{"type":"Polygon","coordinates":[[[-42.8569,-22.6992],[-42.8601,-22.7],[-42.8615,-22.6927],[-42.8571,-22.6985],[-42.8569,-22.6992]]]}},{"type":"Feature","properties":{"cod_imovel":"RJ-3301900-EE445C02349941C9AA2EE6719EAC30F6","num_area":"24.769500000000000000000000000000","ind_status":"PE"},"geometry":{"type":"Polygon","coordinates":[[[-42.8249,-22.7963],[-42.8193,-22.8013],[-42.8232,-22.803],[-42.8241,-22.7974],[-42.8249,-22.7963]]]}},{"type":"Feature","properties":{"cod_imovel":"RJ-3301900-55E8403DB83E4EB3828CCFA7C70F64FF","num_area":"6.6408000000000000000000000000000","ind_status":"AT"},"geometry":{"type":"Polygon","coordinates":[[[-42.8682,-22.7981],[-42.8649,-22.7959],[-42.8678,-22.7981],[-42.8682,-22.7981]]]}},{"type":"Feature","properties":{"cod_imovel":"RJ-3301900-BCE7F6EEF0694FB6B0EFDB96C9AFD0F6","num_area":"11.952800000000000000000000000000","ind_status":"AT"},"geometry":{"type":"Polygon","coordinates":[[[-42.8576,-22.814],[-42.8542,-22.812],[-42.8592,-22.8168],[-42.8576,-22.814],[-42.8576,-22.814]]]}},{"type":"Feature","properties":{"cod_imovel":"RJ-3301900-918221B6E8154D32A67459052521B45B","num_area":"14.214200000000000000000000000000","ind_status":"AT"},"geometry":{"type":"Polygon","coordinates":[[[-42.8791,-22.7229],[-42.8797,-22.7267],[-42.8825,-22.7238],[-42.8793,-22.7227],[-42.8791,-22.7229]]]}},{"type":"Feature","properties":{"cod_imovel":"RJ-3301900-B06159F652A7434C91490856E632E1B3","num_area":"25.709200000000000000000000000000","ind_status":"AT"},"geometry":{"type":"Polygon","coordinates":[[[-42.8588,-22.6825],[-42.8561,-22.6853],[-42.8603,-22.682],[-42.8588,-22.6825]],[[-42.8458,-22.6892],[-42.8489,-22.6933],[-42.8562,-22.6854],[-42.8464,-22.6894],[-42.8458,-22.6892]],[[-42.8514,-22.6896],[-42.8457,-22.6899],[-42.8514,-22.6877],[-42.8514,-22.6896]]]}},{"type":"Feature","properties":{"cod_imovel":"RJ-3301900-A7C13D9D345A4FFF83EC01CAD80028DC","num_area":"8.4812000000000000000000000000000","ind_status":"AT"},"geometry":{"type":"Polygon","coordinates":[[[-42.8058,-22.8357],[-42.8016,-22.8337],[-42.8058,-22.8358],[-42.8058,-22.8357]]]}},{"type":"Feature","properties":{"cod_imovel":"RJ-3301900-333880D282794E2E8AE7B02C2976E7A5","num_area":"17.378400000000000000000000000000","ind_status":"AT"},"geometry":{"type":"Polygon","coordinates":[[[-42.8067,-22.726],[-42.8016,-22.7288],[-42.8066,-22.7267],[-42.8067,-22.726]]]}},{"type":"Feature","properties":{"cod_imovel":"RJ-3301900-25A8FDAE37174D72A616023A67B0B165","num_area":"13.946300000000000000000000000000","ind_status":"AT"},"geometry":{"type":"Polygon","coordinates":[[[-42.7568,-22.7175],[-42.761,-22.7172],[-42.7555,-22.7135],[-42.7568,-22.7175],[-42.7568,-22.7175]]]}},{"type":"Feature","properties":{"cod_imovel":"RJ-3301900-F746C7FD554D42E4927AE6B311B86DD6","num_area":"21.854600000000000000000000000000","ind_status":"AT"},"geometry":{"type":"Polygon","coordinates":[[[-42.8153,-22.8267],[-42.8152,-22.8312],[-42.8227,-22.8301],[-42.8153,-22.8267]]]}},{"type":"Feature","properties":{"cod_imovel":"RJ-3301900-CF2B52D341DD4A6EB7B5D0499C250D54","num_area":"121.80780000000000000000000000000","ind_status":"AT"},"geometry":{"type":"Polygon","coordinates":[[[-42.8422,-22.8275],[-42.8377,-22.8254],[-42.8374,-22.8339],[-42.8437,-22.8319],[-42.8422,-22.8275]],[[-42.8403,-22.8011],[-42.8319,-22.7988],[-42.8325,-22.8066],[-42.836,-22.8006],[-42.8327,-22.7982],[-42.8362,-22.8006],[-42.8284,-22.8109],[-42.8332,-22.8218],[-42.8301,-22.8354],[-42.8357,-22.8341],[-42.8308,-22.8339],[-42.8338,-22.8225],[-42.8293,-22.8143],[-42.834,-22.8024],[-42.8373,-22.8041],[-42.8403,-22.8011]],[[-42.8292,-22.81],[-42.8292,-22.8172],[-42.8284,-22.8108],[-42.8292,-22.81]],[[-42.8296,-22.8183],[-42.8324,-22.8262],[-42.8299,-22.8192],[-42.8296,-22.8183]]]}},{"type":"Feature","properties":{"cod_imovel":"RJ-3301900-18AE2B4CC37B45319240EEE481577E1B","num_area":"11.060600000000000000000000000000","ind_status":"AT"},"geometry":{"type":"Polygon","coordinates":[[[-42.8162,-22.8303],[-42.8149,-22.8333],[-42.8173,-22.83],[-42.8162,-22.8303]]]}},{"type":"Feature","properties":{"cod_imovel":"RJ-3301900-415ACFF1F6F247278416A8F10C32359F","num_area":"17.113000000000000000000000000000","ind_status":"AT"},"geometry":{"type":"Polygon","coordinates":[[[-42.8099,-22.8331],[-42.8153,-22.8342],[-42.8116,-22.8324],[-42.8099,-22.8331]]]}},{"type":"Feature","properties":{"cod_imovel":"RJ-3301900-105C0FB81A6A45E79BCDFC691AA4E74D","num_area":"4.8954000000000000000000000000000","ind_status":"AT"},"geometry":{"type":"Polygon","coordinates":[[[-42.797,-22.7544],[-42.7937,-22.756],[-42.797,-22.7545],[-42.797,-22.7544]]]}},{"type":"Feature","properties":{"cod_imovel":"RJ-3301900-0E2FCD3F67AD488899FC8DB0FF6747E6","num_area":"9.5264000000000000000000000000000","ind_status":"AT"},"geometry":{"type":"Polygon","coordinates":[[[-42.8177,-22.7546],[-42.8165,-22.7606],[-42.8192,-22.7548],[-42.8177,-22.7546]]]}},{"type":"Feature","properties":{"cod_imovel":"RJ-3301900-8FEF917857AD43F1879E56D3E19DA8BD","num_area":"27.957100000000000000000000000000","ind_status":"AT"},"geometry":{"type":"Polygon","coordinates":[[[-42.8279,-22.8316],[-42.8213,-22.8323],[-42.8275,-22.8324],[-42.8279,-22.8316]],[[-42.8207,-22.8391],[-42.8149,-22.8385],[-42.8205,-22.8394],[-42.8207,-22.8391]]]}},{"type":"Feature","properties":{"cod_imovel":"RJ-3301900-B645C383D2CA463399EA58D81FB74C88","num_area":"5.9992000000000000000000000000000","ind_status":"AT"},"geometry":{"type":"Polygon","coordinates":[[[-42.7886,-22.6461],[-42.7924,-22.644],[-42.7882,-22.6456],[-42.7886,-22.6461]]]}},{"type":"Feature","properties":{"cod_imovel":"RJ-3301900-9164A7C1554041FBAA45026F0D5DA40F","num_area":"147.18880000000000000000000000000","ind_status":"AT"},"geometry":{"type":"Polygon","coordinates":[[[-42.7678,-22.6975],[-42.7629,-22.6948],[-42.7542,-22.704],[-42.756,-22.7082],[-42.7639,-22.713],[-42.7607,-22.7058],[-42.7673,-22.7058],[-42.7695,-22.699],[-42.7678,-22.6975]]]}},{"type":"Feature","properties":{"cod_imovel":"RJ-3301900-3A93514BCA514F27B2EA3A611F7A3D1E","num_area":"30.023900000000000000000000000000","ind_status":"AT"},"geometry":{"type":"Polygon","coordinates":[[[-42.8184,-22.8089],[-42.8147,-22.8145],[-42.8215,-22.8114],[-42.8184,-22.8089]]]}},{"type":"Feature","properties":{"cod_imovel":"RJ-3301900-68BA69FBC67747D7A7B333147B80CEE5","num_area":"21.208600000000000000000000000000","ind_status":"AT"},"geometry":{"type":"Polygon","coordinates":[[[-42.8175,-22.7671],[-42.8218,-22.7673],[-42.8175,-22.7636],[-42.8175,-22.7671]]]}},{"type":"Feature","properties":{"cod_imovel":"RJ-3301900-5B330ABC09EE4E0285AAAA31450EB67C","num_area":"13.151900000000000000000000000000","ind_status":"AT"},"geometry":{"type":"Polygon","coordinates":[[[-42.7775,-22.6907],[-42.7838,-22.6949],[-42.7775,-22.6905],[-42.7775,-22.6907]]]}},{"type":"Feature","properties":{"cod_imovel":"RJ-3301900-B62047617A5C47E5ADF633912E56279E","num_area":"19.583400000000000000000000000000","ind_status":"AT"},"geometry":{"type":"Polygon","coordinates":[[[-42.7556,-22.6947],[-42.7508,-22.6965],[-42.7553,-22.6961],[-42.7556,-22.6947]],[[-42.7547,-22.6945],[-42.7511,-22.6951],[-42.7547,-22.6945],[-42.7547,-22.6945]]]}},{"type":"Feature","properties":{"cod_imovel":"RJ-3301900-390E47AA59DC416FAC1E94228FCAF90F","num_area":"27.750400000000000000000000000000","ind_status":"AT"},"geometry":{"type":"Polygon","coordinates":[[[-42.7941,-22.7871],[-42.7917,-22.7852],[-42.788,-22.7939],[-42.791,-22.7953],[-42.7936,-22.7874],[-42.7941,-22.7871]]]}},{"type":"Feature","properties":{"cod_imovel":"RJ-3301900-5C1D6D8539144EECB1BFE79E11938ADD","num_area":"18.862600000000000000000000000000","ind_status":"AT"},"geometry":{"type":"Polygon","coordinates":[[[-42.8065,-22.8055],[-42.8124,-22.8044],[-42.8066,-22.8048],[-42.8065,-22.8055]]]}},{"type":"Feature","properties":{"cod_imovel":"RJ-3301900-5008538DF6074BFC914FD8E1C54F969E","num_area":"28.824000000000000000000000000000","ind_status":"AT"},"geometry":{"type":"Polygon","coordinates":[[[-42.8497,-22.7805],[-42.8443,-22.7788],[-42.8489,-22.7804],[-42.8497,-22.7805]],[[-42.8516,-22.7874],[-42.8466,-22.7859],[-42.8511,-22.7874],[-42.8516,-22.7874]]]}},{"type":"Feature","properties":{"cod_imovel":"RJ-3301900-8B2662D4E13944398D520E491AEAB5E6","num_area":"9.9011000000000000000000000000000","ind_status":"CA"},"geometry":{"type":"Polygon","coordinates":[[[-42.8489,-22.7802],[-42.8453,-22.7791],[-42.849,-22.7803],[-42.8489,-22.7802]]]}},{"type":"Feature","properties":{"cod_imovel":"RJ-3301900-00F392EB9843492CB0202549FC47B82E","num_area":"29.538900000000000000000000000000","ind_status":"AT"},"geometry":{"type":"Polygon","coordinates":[[[-42.7619,-22.6983],[-42.7692,-22.6973],[-42.7604,-22.698],[-42.7619,-22.6983]]]}},{"type":"Feature","properties":{"cod_imovel":"RJ-3301900-1E33D9AE8889488184CE8316754B9BAD","num_area":"18.792500000000000000000000000000","ind_status":"AT"},"geometry":{"type":"Polygon","coordinates":[[[-42.8019,-22.8017],[-42.8074,-22.8045],[-42.8094,-22.8012],[-42.802,-22.8015],[-42.8019,-22.8017]]]}},{"type":"Feature","properties":{"cod_imovel":"RJ-3301900-32C265041F3E4EC19F537B483879656E","num_area":"14.071700000000000000000000000000","ind_status":"AT"},"geometry":{"type":"Polygon","coordinates":[[[-42.7951,-22.6433],[-42.7997,-22.6445],[-42.7968,-22.6403],[-42.7953,-22.643],[-42.7951,-22.6433]]]}},{"type":"Feature","properties":{"cod_imovel":"RJ-3301900-347E1A2FD67941859F60FC1834FB3828","num_area":"9.1358000000000000000000000000000","ind_status":"AT"},"geometry":{"type":"Polygon","coordinates":[[[-42.821,-22.7673],[-42.8169,-22.7694],[-42.8216,-22.7674],[-42.821,-22.7673]]]}},{"type":"Feature","properties":{"cod_imovel":"RJ-3301900-87D8F521BD2941AFBD2E751FB7BF7A4D","num_area":"12.429700000000000000000000000000","ind_status":"AT"},"geometry":{"type":"Polygon","coordinates":[[[-42.7735,-22.8164],[-42.7682,-22.8177],[-42.7734,-22.8164],[-42.7735,-22.8164]]]}},{"type":"Feature","properties":{"cod_imovel":"RJ-3301900-8B670176477847089D842DCC690D2DFB","num_area":"13.038700000000000000000000000000","ind_status":"AT"},"geometry":{"type":"Polygon","coordinates":[[[-42.8189,-22.8399],[-42.8302,-22.8331],[-42.8148,-22.8384],[-42.8186,-22.8394],[-42.8189,-22.8399]],[[-42.8301,-22.8283],[-42.8276,-22.8343],[-42.831,-22.8296],[-42.8301,-22.8283]],[[-42.8274,-22.8343],[-42.8189,-22.8393],[-42.8259,-22.8345],[-42.8274,-22.8343]]]}},{"type":"Feature","properties":{"cod_imovel":"RJ-3301900-97A5FC2D90CE43099AB47CA4970B2D89","num_area":"7.0904000000000000000000000000000","ind_status":"PE"},"geometry":{"type":"Polygon","coordinates":[[[-42.7698,-22.6884],[-42.7669,-22.6865],[-42.7694,-22.6897],[-42.7698,-22.6884]]]}},{"type":"Feature","properties":{"cod_imovel":"RJ-3301900-C709503FB9B24434B9A73A0D4330F8A3","num_area":"2.2172000000000000000000000000000","ind_status":"AT"},"geometry":{"type":"Polygon","coordinates":[[[-42.8106,-22.746],[-42.8077,-22.7481],[-42.8107,-22.7461],[-42.8106,-22.746]]]}},{"type":"Feature","properties":{"cod_imovel":"RJ-3301900-C8B1F46D86454F608448BD4B6467F80F","num_area":"19.167900000000000000000000000000","ind_status":"AT"},"geometry":{"type":"Polygon","coordinates":[[[-42.8017,-22.6444],[-42.8009,-22.6474],[-42.808,-22.6457],[-42.8017,-22.6444],[-42.8017,-22.6444]]]}},{"type":"Feature","properties":{"cod_imovel":"RJ-3301900-CCD8AB66B3B444268A2C44846B30485B","num_area":"6.7280000000000000000000000000000","ind_status":"AT"},"geometry":{"type":"Polygon","coordinates":[[[-42.761,-22.8097],[-42.7658,-22.8092],[-42.7611,-22.8093],[-42.761,-22.8097]]]}},{"type":"Feature","properties":{"cod_imovel":"RJ-3301900-E586A6823B2D4DC28BEB9F309B6F4B5B","num_area":"21.027000000000000000000000000000","ind_status":"AT"},"geometry":{"type":"Polygon","coordinates":[[[-42.7989,-22.6421],[-42.8009,-22.6453],[-42.8045,-22.6401],[-42.799,-22.6418],[-42.7989,-22.6421]]]}},{"type":"Feature","properties":{"cod_imovel":"RJ-3301900-EDC9906FE6C748A6AB76B980601214BF","num_area":"12.128100000000000000000000000000","ind_status":"AT"},"geometry":{"type":"Polygon","coordinates":[[[-42.8881,-22.6996],[-42.8846,-22.7017],[-42.8914,-22.6999],[-42.8881,-22.6996]],[[-42.8863,-22.7055],[-42.8908,-22.7051],[-42.8856,-22.7051],[-42.8863,-22.7055]],[[-42.8905,-22.7055],[-42.8865,-22.7056],[-42.8899,-22.7063],[-42.8905,-22.7055]]]}},{"type":"Feature","properties":{"cod_imovel":"RJ-3301900-F4503EAE04D04B85B03DB1A9C7593A28","num_area":"15.678400000000000000000000000000","ind_status":"AT"},"geometry":{"type":"Polygon","coordinates":[[[-42.8507,-22.8507],[-42.8473,-22.8521],[-42.8534,-22.855],[-42.8509,-22.8505],[-42.8507,-22.8507]]]}}]}