{"type":"FeatureCollection","features":[{"type":"Feature","properties":{"cod_imovel":"RJ-3302452-8DA2322E78B242B09F9AC8272F271ADC","num_area":"106.68670000000000000000000000000","ind_status":"AT"},"geometry":{"type":"Polygon","coordinates":[[[-42.2234,-22.0067],[-42.2247,-22.0103],[-42.2235,-22.0066],[-42.2234,-22.0067]],[[-42.233,-22.0007],[-42.2232,-21.9963],[-42.2223,-21.9907],[-42.2202,-21.996],[-42.2249,-22.004],[-42.233,-22.0007],[-42.233,-22.0007]],[[-42.2354,-22.0025],[-42.2381,-22.0004],[-42.2351,-22.0025],[-42.2354,-22.0025]]]}},{"type":"Feature","properties":{"cod_imovel":"RJ-3302452-AF9985617230456F93478A4844B9811F","num_area":"5.8060000000000000000000000000000","ind_status":"AT"},"geometry":{"type":"Polygon","coordinates":[[[-42.3074,-21.9995],[-42.3052,-22.0039],[-42.3076,-22.0],[-42.3074,-21.9995]]]}},{"type":"Feature","properties":{"cod_imovel":"RJ-3302452-AAFA75650FA94A7A944E4A163B50413C","num_area":"34.213800000000000000000000000000","ind_status":"AT"},"geometry":{"type":"Polygon","coordinates":[[[-42.2894,-22.0392],[-42.2784,-22.0412],[-42.2875,-22.0457],[-42.2903,-22.04],[-42.2894,-22.0392]]]}},{"type":"Feature","properties":{"cod_imovel":"RJ-3302452-1404DDEFC62D4A888FC1E3221310D706","num_area":"8.8958000000000000000000000000000","ind_status":"AT"},"geometry":{"type":"Polygon","coordinates":[[[-42.2697,-22.0306],[-42.2665,-22.0272],[-42.2698,-22.0307],[-42.2697,-22.0306]]]}},{"type":"Feature","properties":{"cod_imovel":"RJ-3302452-74218E8903F447E888C5AAAE3CEAC0E3","num_area":"97.365400000000000000000000000000","ind_status":"AT"},"geometry":{"type":"Polygon","coordinates":[[[-42.2522,-22.0031],[-42.2467,-22.004],[-42.254,-22.0046],[-42.2522,-22.0031]],[[-42.2394,-22.0034],[-42.2356,-22.0086],[-42.2398,-22.0102],[-42.2396,-22.0172],[-42.2461,-22.0125],[-42.2415,-22.0104],[-42.243,-22.0059],[-42.238,-22.0073],[-42.2394,-22.0035],[-42.2394,-22.0034]]]}},{"type":"Feature","properties":{"cod_imovel":"RJ-3302452-AFB1C2DC2BCA4FDBAA464A203BD3F47C","num_area":"117.11650000000000000000000000000","ind_status":"PE"},"geometry":{"type":"Polygon","coordinates":[[[-42.2878,-22.0488],[-42.2948,-22.0523],[-42.3012,-22.0461],[-42.2948,-22.0434],[-42.2964,-22.0474],[-42.2942,-22.0438],[-42.2883,-22.0478],[-42.2878,-22.0488]],[[-42.2916,-22.05],[-42.2888,-22.0489],[-42.2916,-22.0499],[-42.2916,-22.05]],[[-42.2898,-22.041],[-42.2932,-22.044],[-42.2894,-22.0417],[-42.2903,-22.048],[-42.2945,-22.0432],[-42.2903,-22.04],[-42.2898,-22.041]]]}},{"type":"Feature","properties":{"cod_imovel":"RJ-3302452-B7DA3342092943339E1BB71097FA33D9","num_area":"23.682600000000000000000000000000","ind_status":"AT"},"geometry":{"type":"Polygon","coordinates":[[[-42.3105,-22.0286],[-42.3038,-22.0262],[-42.3103,-22.029],[-42.3105,-22.0286]]]}},{"type":"Feature","properties":{"cod_imovel":"RJ-3302452-C24DB0C82B2E403FA67FA678772B828E","num_area":"17.303700000000000000000000000000","ind_status":"AT"},"geometry":{"type":"Polygon","coordinates":[[[-42.2854,-22.0659],[-42.2894,-22.0647],[-42.2855,-22.0643],[-42.2854,-22.0659]],[[-42.2895,-22.0569],[-42.2857,-22.0595],[-42.2896,-22.0571],[-42.2895,-22.0569]]]}},{"type":"Feature","properties":{"cod_imovel":"RJ-3302452-05AE19EB1A164656B8E046B982AE6B6B","num_area":"3.2719000000000000000000000000000","ind_status":"AT"},"geometry":{"type":"Polygon","coordinates":[[[-42.3034,-22.0716],[-42.3001,-22.0707],[-42.303,-22.0725],[-42.3034,-22.0716]]]}},{"type":"Feature","properties":{"cod_imovel":"RJ-3302452-31BDAE6D61FF4D4A98FD8AD7588CAAEA","num_area":"6.6195000000000000000000000000000","ind_status":"AT"},"geometry":{"type":"Polygon","coordinates":[[[-42.2317,-22.0165],[-42.2366,-22.0153],[-42.2328,-22.0157],[-42.2317,-22.0165]]]}},{"type":"Feature","properties":{"cod_imovel":"RJ-3302452-37647A99D9AF4F59A3689B336A1415B7","num_area":"10.669100000000000000000000000000","ind_status":"AT"},"geometry":{"type":"Polygon","coordinates":[[[-42.2662,-22.0255],[-42.2696,-22.0264],[-42.2668,-22.025],[-42.2662,-22.0255]]]}},{"type":"Feature","properties":{"cod_imovel":"RJ-3302452-3CF2951197D44DC2AB4C8E5DCEDA1DFA","num_area":"10.844100000000000000000000000000","ind_status":"AT"},"geometry":{"type":"Polygon","coordinates":[[[-42.2532,-21.9988],[-42.2501,-21.9978],[-42.2557,-22.0],[-42.2532,-21.9988]]]}},{"type":"Feature","properties":{"cod_imovel":"RJ-3302452-C54AB28B2D134268B30FFFA46D320FAA","num_area":"12.697400000000000000000000000000","ind_status":"AT"},"geometry":{"type":"Polygon","coordinates":[[[-42.2311,-22.0167],[-42.2278,-22.0135],[-42.2302,-22.0171],[-42.2311,-22.0167]],[[-42.2273,-22.0148],[-42.2224,-22.0104],[-42.2267,-22.0151],[-42.2273,-22.0148]]]}},{"type":"Feature","properties":{"cod_imovel":"RJ-3302452-0F6AA61639F240ECA213F1D9958BA5A7","num_area":"109.29560000000000000000000000000","ind_status":"AT"},"geometry":{"type":"Polygon","coordinates":[[[-42.2415,-22.0367],[-42.245,-22.0355],[-42.2415,-22.0367],[-42.2415,-22.0367]],[[-42.2493,-22.0367],[-42.2439,-22.0398],[-42.248,-22.0434],[-42.2482,-22.0399],[-42.2554,-22.0401],[-42.2493,-22.0367],[-42.2493,-22.0367]],[[-42.2609,-22.0362],[-42.2608,-22.0441],[-42.2509,-22.0439],[-42.2685,-22.0414],[-42.2609,-22.0363],[-42.2609,-22.0362]]]}},{"type":"Feature","properties":{"cod_imovel":"RJ-3302452-3AF0EEC72F2D402D9A7C7E04E9D9F46F","num_area":"3.2382000000000000000000000000000","ind_status":"AT"},"geometry":{"type":"Polygon","coordinates":[[[-42.2691,-21.9883],[-42.2658,-21.9887],[-42.2692,-21.9886],[-42.2691,-21.9883]]]}},{"type":"Feature","properties":{"cod_imovel":"RJ-3302452-B7095776A2774971AA1BCA267A36F490","num_area":"12.706100000000000000000000000000","ind_status":"AT"},"geometry":{"type":"Polygon","coordinates":[[[-42.2658,-22.0589],[-42.2622,-22.0616],[-42.2661,-22.059],[-42.2658,-22.0589]],[[-42.2824,-22.0682],[-42.2786,-22.0661],[-42.2823,-22.0682],[-42.2824,-22.0682]]]}},{"type":"Feature","properties":{"cod_imovel":"RJ-3302452-478C72F3D5D540F687E4BE1B00B205AE","num_area":"10.557600000000000000000000000000","ind_status":"AT"},"geometry":{"type":"Polygon","coordinates":[[[-42.2651,-21.999],[-42.2676,-21.9953],[-42.2648,-21.9991],[-42.2651,-21.999]]]}},{"type":"Feature","properties":{"cod_imovel":"RJ-3302452-D3C8844B70E4403FBC00E03FED6BB819","num_area":"19.434800000000000000000000000000","ind_status":"AT"},"geometry":{"type":"Polygon","coordinates":[[[-42.3134,-21.9803],[-42.308,-21.9767],[-42.3134,-21.9803],[-42.3134,-21.9803]]]}},{"type":"Feature","properties":{"cod_imovel":"RJ-3302452-D6FD4BC280B54F31B5E201A7D8124321","num_area":"98.566500000000000000000000000000","ind_status":"AT"},"geometry":{"type":"Polygon","coordinates":[[[-42.3017,-22.0481],[-42.3049,-22.0431],[-42.2963,-22.0401],[-42.295,-22.0321],[-42.2886,-22.0415],[-42.3002,-22.0428],[-42.3016,-22.047],[-42.3017,-22.0481]]]}},{"type":"Feature","properties":{"cod_imovel":"RJ-3302452-16A3A5CAF1A448B6B4AB448902660B77","num_area":"9.9561000000000000000000000000000","ind_status":"AT"},"geometry":{"type":"Polygon","coordinates":[[[-42.2797,-22.0508],[-42.2809,-22.0477],[-42.2794,-22.0507],[-42.2797,-22.0508]],[[-42.2749,-22.0491],[-42.2793,-22.0473],[-42.2758,-22.0483],[-42.2749,-22.0491]]]}},{"type":"Feature","properties":{"cod_imovel":"RJ-3302452-1D62235B888A4F078C6348BFD2E42213","num_area":"27.748300000000000000000000000000","ind_status":"AT"},"geometry":{"type":"Polygon","coordinates":[[[-42.2583,-22.0347],[-42.2622,-22.0426],[-42.264,-22.0395],[-42.2583,-22.0347],[-42.2583,-22.0347]]]}},{"type":"Feature","properties":{"cod_imovel":"RJ-3302452-492F30752FA547B9A222104C745239CC","num_area":"8.3765000000000000000000000000000","ind_status":"AT"},"geometry":{"type":"Polygon","coordinates":[[[-42.2725,-22.0483],[-42.2695,-22.0496],[-42.2726,-22.0502],[-42.2725,-22.0483]]]}},{"type":"Feature","properties":{"cod_imovel":"RJ-3302452-48269386005E4980B0962E918D94CEA5","num_area":"17.795500000000000000000000000000","ind_status":"AT"},"geometry":{"type":"Polygon","coordinates":[[[-42.2834,-22.0549],[-42.2815,-22.0501],[-42.2806,-22.0549],[-42.2834,-22.0549]]]}},{"type":"Feature","properties":{"cod_imovel":"RJ-3302452-80EA5AB95289496295C61FC0080B2C47","num_area":"68.607600000000000000000000000000","ind_status":"AT"},"geometry":{"type":"Polygon","coordinates":[[[-42.2652,-22.0424],[-42.2766,-22.0478],[-42.2769,-22.0406],[-42.268,-22.0414],[-42.2652,-22.0424]]]}},{"type":"Feature","properties":{"cod_imovel":"RJ-3302452-48D769046C3841CFAFCDA89145573C7F","num_area":"10.647400000000000000000000000000","ind_status":"AT"},"geometry":{"type":"Polygon","coordinates":[[[-42.2855,-22.0534],[-42.2888,-22.056],[-42.2858,-22.0531],[-42.2855,-22.0534]]]}},{"type":"Feature","properties":{"cod_imovel":"RJ-3302452-3EAD0E3178AD4F80A02708C17E21C193","num_area":"21.115600000000000000000000000000","ind_status":"AT"},"geometry":{"type":"Polygon","coordinates":[[[-42.2728,-22.0489],[-42.2753,-22.0453],[-42.2642,-22.045],[-42.2728,-22.0489],[-42.2728,-22.0489]]]}},{"type":"Feature","properties":{"cod_imovel":"RJ-3302452-1598ECAB1CB943C9BC500C39AA327889","num_area":"9.0965000000000000000000000000000","ind_status":"AT"},"geometry":{"type":"Polygon","coordinates":[[[-42.2826,-22.0479],[-42.2791,-22.0495],[-42.2831,-22.0501],[-42.2826,-22.0479]]]}},{"type":"Feature","properties":{"cod_imovel":"RJ-3302452-2EFBBEF812C7480C9079B26E033E7375","num_area":"6.2984000000000000000000000000000","ind_status":"AT"},"geometry":{"type":"Polygon","coordinates":[[[-42.2684,-22.0847],[-42.2719,-22.0837],[-42.2688,-22.0846],[-42.2684,-22.0847]],[[-42.2688,-22.0851],[-42.2659,-22.0801],[-42.2687,-22.089],[-42.2688,-22.0851],[-42.2688,-22.0851]]]}},{"type":"Feature","properties":{"cod_imovel":"RJ-3302452-412DD1F7D45442178E0C69242798498D","num_area":"4.3380000000000000000000000000000","ind_status":"AT"},"geometry":{"type":"Polygon","coordinates":[[[-42.3085,-21.9917],[-42.3051,-21.9906],[-42.3085,-21.9917],[-42.3085,-21.9917]]]}},{"type":"Feature","properties":{"cod_imovel":"RJ-3302452-42F38C05030D48269609844B0BCABF9C","num_area":"104.48410000000000000000000000000","ind_status":"AT"},"geometry":{"type":"Polygon","coordinates":[[[-42.2867,-22.0109],[-42.2971,-22.0088],[-42.2869,-22.0101],[-42.2867,-22.0109]],[[-42.3012,-22.0031],[-42.2955,-21.9974],[-42.2833,-21.9973],[-42.2878,-21.9978],[-42.2836,-22.0033],[-42.2911,-22.0004],[-42.2958,-22.0024],[-42.2942,-22.0062],[-42.3012,-22.0031],[-42.3012,-22.0031]]]}},{"type":"Feature","properties":{"cod_imovel":"RJ-3302452-58CA633BB33F4A41BEEF463D836E9BAC","num_area":"10.218000000000000000000000000000","ind_status":"AT"},"geometry":{"type":"Polygon","coordinates":[[[-42.3151,-21.9833],[-42.3109,-21.9821],[-42.3138,-21.9862],[-42.3151,-21.9833]]]}},{"type":"Feature","properties":{"cod_imovel":"RJ-3302452-5FCF8BC8F9AE4F73AAEACBF8EC7A0F71","num_area":"19.241000000000000000000000000000","ind_status":"AT"},"geometry":{"type":"Polygon","coordinates":[[[-42.2892,-21.9979],[-42.2863,-21.9939],[-42.2832,-21.9972],[-42.2891,-21.9978],[-42.2892,-21.9979]]]}},{"type":"Feature","properties":{"cod_imovel":"RJ-3302452-E8F43384BE424351BF0B15E8ACCA2DB7","num_area":"47.711000000000000000000000000000","ind_status":"AT"},"geometry":{"type":"Polygon","coordinates":[[[-42.261,-22.0439],[-42.2657,-22.0405],[-42.262,-22.0366],[-42.2617,-22.0428],[-42.261,-22.0439]],[[-42.241,-22.0328],[-42.2487,-22.044],[-42.2601,-22.0446],[-42.249,-22.0434],[-42.241,-22.0328],[-42.241,-22.0328]],[[-42.2404,-22.0334],[-42.2457,-22.0404],[-42.2431,-22.0383],[-42.2404,-22.0334]],[[-42.2478,-22.0429],[-42.2558,-22.0443],[-42.2487,-22.044],[-42.2478,-22.0429]]]}},{"type":"Feature","properties":{"cod_imovel":"RJ-3302452-6F1778C85195411AB82988C87DB4E1D8","num_area":"6.6303000000000000000000000000000","ind_status":"AT"},"geometry":{"type":"Polygon","coordinates":[[[-42.2893,-22.0561],[-42.2858,-22.0575],[-42.2895,-22.0571],[-42.2893,-22.0561]]]}},{"type":"Feature","properties":{"cod_imovel":"RJ-3302452-9D5F14655231445389C371A3CB117390","num_area":"4.2126000000000000000000000000000","ind_status":"AT"},"geometry":{"type":"Polygon","coordinates":[[[-42.2306,-21.9938],[-42.2313,-21.9973],[-42.2306,-21.9938],[-42.2306,-21.9938]]]}},{"type":"Feature","properties":{"cod_imovel":"RJ-3302452-D485F7D767C44F098BD5BAEB0F98FB24","num_area":"34.677000000000000000000000000000","ind_status":"AT"},"geometry":{"type":"Polygon","coordinates":[[[-42.2812,-22.0109],[-42.2852,-22.0094],[-42.2767,-22.0049],[-42.2794,-22.0108],[-42.2812,-22.0109]],[[-42.2741,-21.9913],[-42.2775,-21.9937],[-42.2741,-21.9913],[-42.2741,-21.9913]]]}},{"type":"Feature","properties":{"cod_imovel":"RJ-3302452-D9678B8E69EA40C5847B91FD6A119C25","num_area":"4.8133000000000000000000000000000","ind_status":"AT"},"geometry":{"type":"Polygon","coordinates":[[[-42.2593,-22.0037],[-42.2636,-22.005],[-42.26,-22.0032],[-42.2593,-22.0037]]]}}]}