{"type":"FeatureCollection","features":[{"type":"Feature","properties":{"cod_imovel":"RJ-3302700-23ADA665E072438EB1A4DEE7A44809B8","num_area":"5.9630000000000000000000000000000","ind_status":"AT"},"geometry":{"type":"Polygon","coordinates":[[[-42.6972,-22.8855],[-42.7007,-22.8847],[-42.6963,-22.8854],[-42.6972,-22.8855]]]}},{"type":"Feature","properties":{"cod_imovel":"RJ-3302700-A6DAF648236144D082363C5C8DF8A342","num_area":"2.5661000000000000000000000000000","ind_status":"AT"},"geometry":{"type":"Polygon","coordinates":[[[-42.7796,-22.9131],[-42.7811,-22.906],[-42.7794,-22.9133],[-42.7796,-22.9131]]]}},{"type":"Feature","properties":{"cod_imovel":"RJ-3302700-D040615004E741B880E90FCD81D44BC5","num_area":"54.968600000000000000000000000000","ind_status":"AT"},"geometry":{"type":"Polygon","coordinates":[[[-42.8948,-22.9135],[-42.897,-22.9203],[-42.9059,-22.9171],[-42.8954,-22.9137],[-42.8948,-22.9135]]]}},{"type":"Feature","properties":{"cod_imovel":"RJ-3302700-20CC6C604ECE45999504950B14CC43B7","num_area":"47.821100000000000000000000000000","ind_status":"AT"},"geometry":{"type":"Polygon","coordinates":[[[-42.8875,-22.906],[-42.8804,-22.9093],[-42.8895,-22.9111],[-42.8883,-22.906],[-42.8875,-22.906]]]}},{"type":"Feature","properties":{"cod_imovel":"RJ-3302700-D1F1C912984D4FA89090A79198E7A4DC","num_area":"33.985300000000000000000000000000","ind_status":"AT"},"geometry":{"type":"Polygon","coordinates":[[[-42.911,-22.9102],[-42.9073,-22.9079],[-42.9045,-22.9117],[-42.9103,-22.9151],[-42.9104,-22.9109],[-42.911,-22.9102]]]}},{"type":"Feature","properties":{"cod_imovel":"RJ-3302700-EE784E4E6741418699999BCC75ACC3CA","num_area":"88.176400000000000000000000000000","ind_status":"AT"},"geometry":{"type":"Polygon","coordinates":[[[-42.9508,-22.8902],[-42.9441,-22.8855],[-42.9411,-22.8944],[-42.9436,-22.8912],[-42.945,-22.8982],[-42.9501,-22.8986],[-42.9524,-22.8913],[-42.9508,-22.8902]]]}},{"type":"Feature","properties":{"cod_imovel":"RJ-3302700-C6933A42152B46168FB0F644417803A6","num_area":"2.2115000000000000000000000000000","ind_status":"AT"},"geometry":{"type":"Polygon","coordinates":[[[-42.779,-22.9128],[-42.7805,-22.9061],[-42.7788,-22.9128],[-42.779,-22.9128]]]}},{"type":"Feature","properties":{"cod_imovel":"RJ-3302700-543139EEE13F4F6791F5B3D848049198","num_area":"15.461400000000000000000000000000","ind_status":"AT"},"geometry":{"type":"Polygon","coordinates":[[[-42.6818,-22.8792],[-42.6873,-22.877],[-42.6818,-22.8792],[-42.6818,-22.8792]],[[-42.6874,-22.8769],[-42.6913,-22.8753],[-42.6874,-22.8769],[-42.6874,-22.8769]]]}},{"type":"Feature","properties":{"cod_imovel":"RJ-3302700-3DD51F1F250343098D1F6BCF04BE33A5","num_area":"40.055000000000000000000000000000","ind_status":"AT"},"geometry":{"type":"Polygon","coordinates":[[[-42.6856,-22.9336],[-42.6704,-22.9324],[-42.6845,-22.9339],[-42.6856,-22.9336]]]}},{"type":"Feature","properties":{"cod_imovel":"RJ-3302700-1B6EAD5BA2F94474BB60BEAF9C7CFA6F","num_area":"2.2840000000000000000000000000000","ind_status":"AT"},"geometry":{"type":"Polygon","coordinates":[[[-42.7793,-22.9129],[-42.7808,-22.906],[-42.779,-22.9128],[-42.7793,-22.9129]]]}},{"type":"Feature","properties":{"cod_imovel":"RJ-3302700-7F8C55B377ED4BA3BA3B6A20E9A8F3F7","num_area":"9.7278000000000000000000000000000","ind_status":"AT"},"geometry":{"type":"Polygon","coordinates":[[[-42.8426,-22.8829],[-42.8404,-22.879],[-42.8418,-22.8828],[-42.8426,-22.8829]]]}},{"type":"Feature","properties":{"cod_imovel":"RJ-3302700-8E70D5D91F04478FA8BCF946A8B00118","num_area":"23.345800000000000000000000000000","ind_status":"AT"},"geometry":{"type":"Polygon","coordinates":[[[-42.8743,-22.8771],[-42.8683,-22.882],[-42.8784,-22.8771],[-42.8743,-22.8771],[-42.8743,-22.8771]]]}},{"type":"Feature","properties":{"cod_imovel":"RJ-3302700-F6CB998722FF425DBE980068897ED90C","num_area":"68.741200000000000000000000000000","ind_status":"AT"},"geometry":{"type":"Polygon","coordinates":[[[-42.7079,-22.9362],[-42.702,-22.9366],[-42.7079,-22.9357],[-42.7079,-22.9362]],[[-42.7043,-22.9332],[-42.7019,-22.9359],[-42.7049,-22.9336],[-42.7043,-22.9332]],[[-42.7029,-22.9328],[-42.701,-22.9354],[-42.7029,-22.9328],[-42.7029,-22.9328]],[[-42.7014,-22.9323],[-42.6969,-22.9302],[-42.7013,-22.9325],[-42.7014,-22.9323]],[[-42.6968,-22.9302],[-42.6898,-22.9261],[-42.6896,-22.9301],[-42.7005,-22.9353],[-42.6968,-22.9302],[-42.6968,-22.9302]]]}},{"type":"Feature","properties":{"cod_imovel":"RJ-3302700-E6DCA2C4D486462D8ABC156F7A7070BE","num_area":"78.939400000000000000000000000000","ind_status":"AT"},"geometry":{"type":"Polygon","coordinates":[[[-42.7357,-22.8581],[-42.7386,-22.8569],[-42.7356,-22.8581],[-42.7357,-22.8581]],[[-42.7354,-22.8591],[-42.7374,-22.8631],[-42.7362,-22.8589],[-42.7354,-22.8591]],[[-42.7368,-22.868],[-42.7422,-22.87],[-42.7423,-22.8653],[-42.7371,-22.8653],[-42.7368,-22.868]],[[-42.7502,-22.8599],[-42.7437,-22.8537],[-42.7387,-22.8569],[-42.7503,-22.8631],[-42.7502,-22.8599]]]}},{"type":"Feature","properties":{"cod_imovel":"RJ-3302700-ED4657F99DCE4457AF206F951105FB76","num_area":"226.12440000000000000000000000000","ind_status":"AT"},"geometry":{"type":"Polygon","coordinates":[[[-42.6668,-22.9413],[-42.6707,-22.9421],[-42.6686,-22.9373],[-42.6669,-22.9404],[-42.6668,-22.9413]],[[-42.6706,-22.9386],[-42.6735,-22.9357],[-42.6704,-22.9385],[-42.6706,-22.9386]],[[-42.667,-22.935],[-42.6727,-22.9359],[-42.667,-22.9347],[-42.667,-22.935]],[[-42.6681,-22.9321],[-42.6723,-22.9355],[-42.6682,-22.9321],[-42.6681,-22.9321]],[[-42.6744,-22.9337],[-42.6793,-22.9204],[-42.6666,-22.9146],[-42.6671,-22.9306],[-42.6743,-22.9337],[-42.6744,-22.9337]]]}},{"type":"Feature","properties":{"cod_imovel":"RJ-3302700-D4C0AFC95FBC4534889F6054F2F1BF7A","num_area":"11.310700000000000000000000000000","ind_status":"AT"},"geometry":{"type":"Polygon","coordinates":[[[-42.8898,-22.9171],[-42.8896,-22.913],[-42.887,-22.9153],[-42.8898,-22.9171]]]}},{"type":"Feature","properties":{"cod_imovel":"RJ-3302700-5A84C2AF6B1946F4A3D4A1AD5489F333","num_area":"218.01820000000000000000000000000","ind_status":"AT"},"geometry":{"type":"Polygon","coordinates":[[[-42.7618,-22.8711],[-42.7583,-22.8707],[-42.7615,-22.8713],[-42.7618,-22.8711]],[[-42.772,-22.8491],[-42.7726,-22.844],[-42.7673,-22.8426],[-42.7709,-22.8481],[-42.772,-22.8491]],[[-42.7529,-22.8663],[-42.7517,-22.873],[-42.7529,-22.8663],[-42.7529,-22.8663]],[[-42.7585,-22.8473],[-42.7449,-22.855],[-42.7503,-22.863],[-42.7549,-22.856],[-42.7626,-22.8585],[-42.7611,-22.8489],[-42.7661,-22.8498],[-42.7602,-22.8457],[-42.7585,-22.8473]]]}},{"type":"Feature","properties":{"cod_imovel":"RJ-3302700-C9B632FDC93B47DB8E02FED4BBEA6D99","num_area":"235.03060000000000000000000000000","ind_status":"AT"},"geometry":{"type":"Polygon","coordinates":[[[-42.6796,-22.9088],[-42.6986,-22.9145],[-42.698,-22.9059],[-42.6923,-22.9093],[-42.6941,-22.9058],[-42.6846,-22.9038],[-42.683,-22.9076],[-42.6836,-22.9023],[-42.6803,-22.9069],[-42.6796,-22.9088]],[[-42.6846,-22.8879],[-42.6811,-22.8829],[-42.6846,-22.8825],[-42.6777,-22.8827],[-42.68,-22.8986],[-42.6876,-22.894],[-42.6821,-22.8923],[-42.6869,-22.8908],[-42.6793,-22.8845],[-42.6846,-22.8887],[-42.6846,-22.8879]]]}},{"type":"Feature","properties":{"cod_imovel":"RJ-3302700-B854573D724345AA94EFDD15E87ACFE7","num_area":"32.426500000000000000000000000000","ind_status":"AT"},"geometry":{"type":"Polygon","coordinates":[[[-42.6918,-22.8688],[-42.6964,-22.8661],[-42.6923,-22.8624],[-42.6907,-22.8697],[-42.6918,-22.8688]]]}},{"type":"Feature","properties":{"cod_imovel":"RJ-3302700-5F12618405CD40049F2C87C06897CA77","num_area":"55.048800000000000000000000000000","ind_status":"AT"},"geometry":{"type":"Polygon","coordinates":[[[-42.6802,-22.9322],[-42.6841,-22.9216],[-42.6792,-22.9204],[-42.6764,-22.928],[-42.6801,-22.9322],[-42.6802,-22.9322]]]}},{"type":"Feature","properties":{"cod_imovel":"RJ-3302700-6158F6781C41480F8D14AAB79D1C5961","num_area":"11.755200000000000000000000000000","ind_status":"AT"},"geometry":{"type":"Polygon","coordinates":[[[-42.7674,-22.871],[-42.7622,-22.8797],[-42.7689,-22.8708],[-42.7674,-22.871]]]}},{"type":"Feature","properties":{"cod_imovel":"RJ-3302700-2FE571139EDB4CAAAF53209D4124FA0F","num_area":"8.2383000000000000000000000000000","ind_status":"AT"},"geometry":{"type":"Polygon","coordinates":[[[-42.8915,-22.9139],[-42.8929,-22.9168],[-42.892,-22.9131],[-42.8915,-22.9139]]]}},{"type":"Feature","properties":{"cod_imovel":"RJ-3302700-288E224771B74C13ABEE370BFE292944","num_area":"6.4937000000000000000000000000000","ind_status":"AT"},"geometry":{"type":"Polygon","coordinates":[[[-42.7689,-22.8708],[-42.7631,-22.8798],[-42.7693,-22.8711],[-42.7689,-22.8708]]]}},{"type":"Feature","properties":{"cod_imovel":"RJ-3302700-55732A55C2554CA294128C23515A0E34","num_area":"121.11970000000000000000000000000","ind_status":"AT"},"geometry":{"type":"Polygon","coordinates":[[[-42.8737,-22.8991],[-42.8739,-22.9031],[-42.8893,-22.906],[-42.884,-22.8974],[-42.8736,-22.894],[-42.8737,-22.8991]]]}},{"type":"Feature","properties":{"cod_imovel":"RJ-3302700-57C67F26E530464DAEECB3CE746E9764","num_area":"11.555600000000000000000000000000","ind_status":"AT"},"geometry":{"type":"Polygon","coordinates":[[[-42.7087,-22.926],[-42.7056,-22.9287],[-42.7088,-22.926],[-42.7087,-22.926]]]}},{"type":"Feature","properties":{"cod_imovel":"RJ-3302700-D44366D347934013B0F8A76F0A61194E","num_area":"51.166100000000000000000000000000","ind_status":"AT"},"geometry":{"type":"Polygon","coordinates":[[[-42.8723,-22.8912],[-42.8693,-22.8977],[-42.8739,-22.9024],[-42.8763,-22.8927],[-42.8725,-22.8912],[-42.8723,-22.8912]]]}},{"type":"Feature","properties":{"cod_imovel":"RJ-3302700-5388928819CA4FA083952BE21983676B","num_area":"4.7638000000000000000000000000000","ind_status":"PE"},"geometry":{"type":"Polygon","coordinates":[[[-42.9382,-22.9494],[-42.9421,-22.9468],[-42.9382,-22.9491],[-42.9382,-22.9494]]]}},{"type":"Feature","properties":{"cod_imovel":"RJ-3302700-B1DE7B8D8CD44A3580312328D580CB82","num_area":"11.129500000000000000000000000000","ind_status":"AT"},"geometry":{"type":"Polygon","coordinates":[[[-42.8102,-22.8807],[-42.8108,-22.8843],[-42.8122,-22.8812],[-42.8102,-22.8807]]]}},{"type":"Feature","properties":{"cod_imovel":"RJ-3302700-9ABF5E2CE66C43A09A9C9D4823BD4BFB","num_area":"12.708400000000000000000000000000","ind_status":"AT"},"geometry":{"type":"Polygon","coordinates":[[[-42.9217,-22.9384],[-42.9221,-22.9337],[-42.9215,-22.9382],[-42.9217,-22.9384]]]}},{"type":"Feature","properties":{"cod_imovel":"RJ-3302700-2665CE1BDF684194BB093A4CC855D2AD","num_area":"11.181200000000000000000000000000","ind_status":"AT"},"geometry":{"type":"Polygon","coordinates":[[[-42.7894,-22.8855],[-42.7918,-22.882],[-42.7894,-22.8855],[-42.7894,-22.8855]]]}},{"type":"Feature","properties":{"cod_imovel":"RJ-3302700-B963D06496D24C5CB30A20C2134EF61C","num_area":"10.629800000000000000000000000000","ind_status":"AT"},"geometry":{"type":"Polygon","coordinates":[[[-42.8537,-22.9111],[-42.852,-22.9144],[-42.8538,-22.9118],[-42.8537,-22.9111]],[[-42.8519,-22.9144],[-42.8544,-22.9171],[-42.8521,-22.9144],[-42.8519,-22.9144]]]}},{"type":"Feature","properties":{"cod_imovel":"RJ-3302700-E6595B40F719410FAC433E8309251542","num_area":"22.554600000000000000000000000000","ind_status":"AT"},"geometry":{"type":"Polygon","coordinates":[[[-42.999,-22.953],[-43.0023,-22.948],[-42.9996,-22.9495],[-42.999,-22.953]],[[-43.0023,-22.9479],[-43.0008,-22.9438],[-43.002,-22.948],[-43.0023,-22.9479]]]}},{"type":"Feature","properties":{"cod_imovel":"RJ-3302700-32F01F059432447C931738037CC9DE41","num_area":"36.514600000000000000000000000000","ind_status":"AT"},"geometry":{"type":"Polygon","coordinates":[[[-42.7568,-22.9518],[-42.7673,-22.9528],[-42.7572,-22.9513],[-42.7568,-22.9518]],[[-42.7519,-22.945],[-42.7549,-22.9488],[-42.7521,-22.9449],[-42.7519,-22.945]]]}},{"type":"Feature","properties":{"cod_imovel":"RJ-3302700-069CDA1F7F654404A48E2D65070966C6","num_area":"6.1164000000000000000000000000000","ind_status":"AT"},"geometry":{"type":"Polygon","coordinates":[[[-42.8986,-22.9012],[-42.9023,-22.9],[-42.8984,-22.901],[-42.8986,-22.9012]]]}},{"type":"Feature","properties":{"cod_imovel":"RJ-3302700-C2CEF021FE1D4C05870B9ABC4C7D9D79","num_area":"60.808100000000000000000000000000","ind_status":"AT"},"geometry":{"type":"Polygon","coordinates":[[[-42.953,-22.8993],[-42.9542,-22.8934],[-42.9472,-22.8924],[-42.9459,-22.8986],[-42.9528,-22.8994],[-42.953,-22.8993]],[[-42.9487,-22.9029],[-42.944,-22.9013],[-42.9483,-22.9069],[-42.949,-22.903],[-42.9487,-22.9029]]]}},{"type":"Feature","properties":{"cod_imovel":"RJ-3302700-F8A316DFECB14E82A413DC86E4417BF2","num_area":"20.557600000000000000000000000000","ind_status":"AT"},"geometry":{"type":"Polygon","coordinates":[[[-42.8212,-22.8798],[-42.8161,-22.878],[-42.8184,-22.8827],[-42.8212,-22.8798],[-42.8212,-22.8798]]]}},{"type":"Feature","properties":{"cod_imovel":"RJ-3302700-FF7E175B5C6F479F8761DE394FEEDB75","num_area":"8.6926000000000000000000000000000","ind_status":"AT"},"geometry":{"type":"Polygon","coordinates":[[[-42.8813,-22.8897],[-42.8837,-22.8816],[-42.8811,-22.8896],[-42.8813,-22.8897]]]}},{"type":"Feature","properties":{"cod_imovel":"RJ-3302700-BC7AFA0F2B1A41E48D839A086E1D3B3B","num_area":"31.836900000000000000000000000000","ind_status":"AT"},"geometry":{"type":"Polygon","coordinates":[[[-42.8796,-22.8936],[-42.8705,-22.8933],[-42.8801,-22.8989],[-42.8796,-22.8936]]]}},{"type":"Feature","properties":{"cod_imovel":"RJ-3302700-FE66DF9829344FBEA19141C97F6DDAB9","num_area":"89.078400000000000000000000000000","ind_status":"AT"},"geometry":{"type":"Polygon","coordinates":[[[-42.8686,-22.8825],[-42.8755,-22.8828],[-42.8686,-22.8824],[-42.8686,-22.8825]],[[-42.8821,-22.8849],[-42.8772,-22.8834],[-42.8734,-22.8891],[-42.8818,-22.8937],[-42.882,-22.8868],[-42.8821,-22.8849]]]}},{"type":"Feature","properties":{"cod_imovel":"RJ-3302700-8243407A28CD4793B33433C0252A5B84","num_area":"9.9795000000000000000000000000000","ind_status":"AT"},"geometry":{"type":"Polygon","coordinates":[[[-42.7729,-22.9241],[-42.7682,-22.9223],[-42.7727,-22.9241],[-42.7729,-22.9241]]]}},{"type":"Feature","properties":{"cod_imovel":"RJ-3302700-BB04D4B2FF9848A6A57972FEB1B956D5","num_area":"17.134900000000000000000000000000","ind_status":"AT"},"geometry":{"type":"Polygon","coordinates":[[[-42.8668,-22.9223],[-42.8696,-22.9187],[-42.8624,-22.9196],[-42.8668,-22.9223],[-42.8668,-22.9223]]]}},{"type":"Feature","properties":{"cod_imovel":"RJ-3302700-DF3D948CF7F4446ABC6F2C9ED5EEDD5E","num_area":"24.283800000000000000000000000000","ind_status":"AT"},"geometry":{"type":"Polygon","coordinates":[[[-42.7193,-22.8859],[-42.7209,-22.8913],[-42.725,-22.8863],[-42.7198,-22.8853],[-42.7193,-22.8859]]]}},{"type":"Feature","properties":{"cod_imovel":"RJ-3302700-776279C21C0441F88F0244E5D36176EC","num_area":"89.523800000000000000000000000000","ind_status":"AT"},"geometry":{"type":"Polygon","coordinates":[[[-42.7807,-22.8721],[-42.7716,-22.8788],[-42.783,-22.8852],[-42.7811,-22.8725],[-42.7807,-22.8721]]]}},{"type":"Feature","properties":{"cod_imovel":"RJ-3302700-1EBF8FFA403643CCAA7056F44F056BDD","num_area":"50.411300000000000000000000000000","ind_status":"AT"},"geometry":{"type":"Polygon","coordinates":[[[-42.8679,-22.9031],[-42.8658,-22.8976],[-42.8704,-22.9012],[-42.8715,-22.8907],[-42.8685,-22.8882],[-42.8681,-22.9031],[-42.8679,-22.9031]]]}},{"type":"Feature","properties":{"cod_imovel":"RJ-3302700-32341A8EFBEF45B5BD554EB7071AA763","num_area":"5.8558000000000000000000000000000","ind_status":"AT"},"geometry":{"type":"Polygon","coordinates":[[[-42.6843,-22.9483],[-42.6823,-22.9451],[-42.682,-22.9483],[-42.6843,-22.9483]]]}},{"type":"Feature","properties":{"cod_imovel":"RJ-3302700-2EF1D326E60D48E18CDCB32978F18A75","num_area":"133.53860000000000000000000000000","ind_status":"AT"},"geometry":{"type":"Polygon","coordinates":[[[-42.7064,-22.8976],[-42.6847,-22.8833],[-42.6846,-22.8887],[-42.6995,-22.8999],[-42.7066,-22.8976],[-42.7064,-22.8976]]]}},{"type":"Feature","properties":{"cod_imovel":"RJ-3302700-4C8B59B1D2B147F7933BF548080E2D5C","num_area":"15.762800000000000000000000000000","ind_status":"AT"},"geometry":{"type":"Polygon","coordinates":[[[-42.7046,-22.9213],[-42.7057,-22.9245],[-42.7048,-22.9215],[-42.7046,-22.9213]],[[-42.7043,-22.9242],[-42.7037,-22.9308],[-42.7044,-22.9242],[-42.7043,-22.9242]]]}},{"type":"Feature","properties":{"cod_imovel":"RJ-3302700-B65EDCF8AC2E4FD3ABD86087B40D4FD4","num_area":"18.508900000000000000000000000000","ind_status":"AT"},"geometry":{"type":"Polygon","coordinates":[[[-42.6958,-22.8807],[-42.6921,-22.8853],[-42.6957,-22.8807],[-42.6958,-22.8807]]]}},{"type":"Feature","properties":{"cod_imovel":"RJ-3302700-1F60C0EA46D74295B7F42EF75E6F2317","num_area":"20.487400000000000000000000000000","ind_status":"AT"},"geometry":{"type":"Polygon","coordinates":[[[-42.7961,-22.9136],[-42.793,-22.9234],[-42.7952,-22.918],[-42.7961,-22.9136]]]}},{"type":"Feature","properties":{"cod_imovel":"RJ-3302700-CF1E07FA35144D2D8C838ABCE7720E8F","num_area":"20.381900000000000000000000000000","ind_status":"AT"},"geometry":{"type":"Polygon","coordinates":[[[-42.7726,-22.844],[-42.7715,-22.8519],[-42.7758,-22.8462],[-42.7727,-22.8441],[-42.7726,-22.844]]]}},{"type":"Feature","properties":{"cod_imovel":"RJ-3302700-FDE947FC96394E5386267F510B3E48F1","num_area":"7.9796000000000000000000000000000","ind_status":"AT"},"geometry":{"type":"Polygon","coordinates":[[[-42.876,-22.9066],[-42.8798,-22.9105],[-42.8761,-22.9067],[-42.876,-22.9066]]]}},{"type":"Feature","properties":{"cod_imovel":"RJ-3302700-719C81DDD26840A5A4034894426A6C58","num_area":"3.7737000000000000000000000000000","ind_status":"AT"},"geometry":{"type":"Polygon","coordinates":[[[-42.7093,-22.911],[-42.7044,-22.911],[-42.7091,-22.911],[-42.7093,-22.911]]]}},{"type":"Feature","properties":{"cod_imovel":"RJ-3302700-0A8ABA1368DE4C5B93175B1076827AAD","num_area":"6.8010000000000000000000000000000","ind_status":"AT"},"geometry":{"type":"Polygon","coordinates":[[[-42.7933,-22.9164],[-42.7938,-22.9132],[-42.7916,-22.9159],[-42.7933,-22.9164]]]}},{"type":"Feature","properties":{"cod_imovel":"RJ-3302700-B6219131A1D347829BF8CF15E858E10D","num_area":"11.294700000000000000000000000000","ind_status":"AT"},"geometry":{"type":"Polygon","coordinates":[[[-42.7704,-22.9045],[-42.7687,-22.9094],[-42.771,-22.9045],[-42.7704,-22.9045]]]}},{"type":"Feature","properties":{"cod_imovel":"RJ-3302700-DD7631413E0F47B9AD9099204D43224C","num_area":"12.382700000000000000000000000000","ind_status":"AT"},"geometry":{"type":"Polygon","coordinates":[[[-42.8975,-22.9071],[-42.9033,-22.9069],[-42.8983,-22.9048],[-42.8975,-22.9071]],[[-42.8972,-22.9083],[-42.9022,-22.9082],[-42.8974,-22.9077],[-42.8972,-22.9083]]]}},{"type":"Feature","properties":{"cod_imovel":"RJ-3302700-B7FEAFE7257E4F35AFD69B4EBEDDBD22","num_area":"1.9211000000000000000000000000000","ind_status":"AT"},"geometry":{"type":"Polygon","coordinates":[[[-42.781,-22.9104],[-42.7817,-22.9066],[-42.7809,-22.9108],[-42.781,-22.9104]]]}},{"type":"Feature","properties":{"cod_imovel":"RJ-3302700-B0A7D54A9BF74DE2B28C90AA7FF8BF2A","num_area":"10.670300000000000000000000000000","ind_status":"AT"},"geometry":{"type":"Polygon","coordinates":[[[-42.8983,-22.901],[-42.9022,-22.9064],[-42.8997,-22.902],[-42.8983,-22.901]]]}},{"type":"Feature","properties":{"cod_imovel":"RJ-3302700-8922A431FA394ADC9D625F5A86381107","num_area":"4.4447000000000000000000000000000","ind_status":"AT"},"geometry":{"type":"Polygon","coordinates":[[[-42.7024,-22.8897],[-42.697,-22.8949],[-42.7025,-22.8896],[-42.7024,-22.8897]]]}},{"type":"Feature","properties":{"cod_imovel":"RJ-3302700-6C6C1B80DB464F6EA50FCE829C718DF7","num_area":"122.65600000000000000000000000000","ind_status":"AT"},"geometry":{"type":"Polygon","coordinates":[[[-42.9087,-22.9075],[-42.896,-22.9083],[-42.9013,-22.8987],[-42.8909,-22.8997],[-42.8939,-22.9075],[-42.9068,-22.9136],[-42.9063,-22.9075],[-42.9087,-22.9075]],[[-42.909,-22.9069],[-42.9045,-22.9054],[-42.9087,-22.9068],[-42.909,-22.9069]],[[-42.8911,-22.9044],[-42.8919,-22.9104],[-42.9059,-22.9138],[-42.8908,-22.904],[-42.8911,-22.9044]]]}},{"type":"Feature","properties":{"cod_imovel":"RJ-3302700-27BDE346B3274AB19714F2956B9D92E6","num_area":"20.910000000000000000000000000000","ind_status":"AT"},"geometry":{"type":"Polygon","coordinates":[[[-42.678,-22.8811],[-42.6849,-22.88],[-42.6804,-22.8803],[-42.678,-22.8811]],[[-42.685,-22.88],[-42.6918,-22.8757],[-42.6849,-22.8799],[-42.685,-22.88]]]}},{"type":"Feature","properties":{"cod_imovel":"RJ-3302700-52F828CA2C984B5F9CC88E81CA7B1337","num_area":"10.270900000000000000000000000000","ind_status":"AT"},"geometry":{"type":"Polygon","coordinates":[[[-42.8624,-22.9045],[-42.8673,-22.903],[-42.862,-22.9039],[-42.8624,-22.9045]]]}},{"type":"Feature","properties":{"cod_imovel":"RJ-3302700-77F669E804034B0F9276EFB84D304636","num_area":"29.547000000000000000000000000000","ind_status":"AT"},"geometry":{"type":"Polygon","coordinates":[[[-42.829,-22.8655],[-42.8239,-22.859],[-42.8283,-22.8652],[-42.829,-22.8655]],[[-42.8248,-22.868],[-42.8289,-22.8658],[-42.8244,-22.8643],[-42.8245,-22.868],[-42.8248,-22.868]]]}},{"type":"Feature","properties":{"cod_imovel":"RJ-3302700-62C5F4C833A54E2CBDE1AA809A8DD3B0","num_area":"13.003000000000000000000000000000","ind_status":"AT"},"geometry":{"type":"Polygon","coordinates":[[[-42.6962,-22.8854],[-42.6906,-22.8853],[-42.696,-22.8855],[-42.6962,-22.8854]]]}},{"type":"Feature","properties":{"cod_imovel":"RJ-3302700-6E130E2DE66A4BDD9970804029B6C35E","num_area":"12.402100000000000000000000000000","ind_status":"AT"},"geometry":{"type":"Polygon","coordinates":[[[-42.7414,-22.8739],[-42.7431,-22.8772],[-42.7409,-22.8729],[-42.7414,-22.8739]],[[-42.7432,-22.8771],[-42.7372,-22.868],[-42.7403,-22.871],[-42.7432,-22.8771]]]}},{"type":"Feature","properties":{"cod_imovel":"RJ-3302700-088CC54EC8204A6BA0B63F071CB976DE","num_area":"7.2106000000000000000000000000000","ind_status":"AT"},"geometry":{"type":"Polygon","coordinates":[[[-42.9079,-22.9025],[-42.9085,-22.8986],[-42.9074,-22.9021],[-42.9079,-22.9025]]]}},{"type":"Feature","properties":{"cod_imovel":"RJ-3302700-138FA43993AB425FA77010098A117BF3","num_area":"3.1477000000000000000000000000000","ind_status":"AT"},"geometry":{"type":"Polygon","coordinates":[[[-42.882,-22.9104],[-42.8796,-22.9138],[-42.8821,-22.9112],[-42.882,-22.9104]]]}},{"type":"Feature","properties":{"cod_imovel":"RJ-3302700-3D1B1C496E3643118A72716C93E1C3E1","num_area":"22.028300000000000000000000000000","ind_status":"AT"},"geometry":{"type":"Polygon","coordinates":[[[-42.7211,-22.8747],[-42.7154,-22.8846],[-42.7216,-22.8747],[-42.7211,-22.8747]]]}},{"type":"Feature","properties":{"cod_imovel":"RJ-3302700-5A023BF5E1F74046A470E5F1EB52329F","num_area":"7.5052000000000000000000000000000","ind_status":"AT"},"geometry":{"type":"Polygon","coordinates":[[[-42.9097,-22.8998],[-42.9079,-22.903],[-42.9097,-22.8999],[-42.9097,-22.8998]]]}},{"type":"Feature","properties":{"cod_imovel":"RJ-3302700-B156F803BFA948BBAB38CEAB93A53BB5","num_area":"1.1856000000000000000000000000000","ind_status":"AT"},"geometry":{"type":"Polygon","coordinates":[[[-42.7795,-22.9058],[-42.7781,-22.9125],[-42.7795,-22.9058],[-42.7795,-22.9058]]]}},{"type":"Feature","properties":{"cod_imovel":"RJ-3302700-AF036C4D01F44D6F9C77E50631176C3C","num_area":"5.1903000000000000000000000000000","ind_status":"AT"},"geometry":{"type":"Polygon","coordinates":[[[-42.9053,-22.8998],[-42.9021,-22.8998],[-42.9053,-22.9003],[-42.9053,-22.8998]]]}},{"type":"Feature","properties":{"cod_imovel":"RJ-3302700-CE0ED7E786654441B601AE074C1B851A","num_area":"64.674200000000000000000000000000","ind_status":"AT"},"geometry":{"type":"Polygon","coordinates":[[[-42.7614,-22.925],[-42.7652,-22.9238],[-42.7614,-22.9249],[-42.7614,-22.925]],[[-42.7615,-22.9253],[-42.7651,-22.9263],[-42.7616,-22.9251],[-42.7615,-22.9253]],[[-42.7652,-22.923],[-42.7621,-22.9239],[-42.7652,-22.9237],[-42.7652,-22.923]],[[-42.7571,-22.9337],[-42.7611,-22.9348],[-42.7574,-22.9336],[-42.7571,-22.9337]],[[-42.7589,-22.9365],[-42.761,-22.9387],[-42.7589,-22.9365],[-42.7589,-22.9365]],[[-42.7545,-22.9275],[-42.7602,-22.9271],[-42.7554,-22.9273],[-42.757,-22.9243],[-42.7545,-22.9275]],[[-42.7558,-22.929],[-42.7614,-22.9253],[-42.7567,-22.9285],[-42.7558,-22.929]],[[-42.7564,-22.9301],[-42.7621,-22.9261],[-42.7564,-22.9301],[-42.7564,-22.9301]],[[-42.7564,-22.9303],[-42.7568,-22.9334],[-42.7564,-22.9303],[-42.7564,-22.9303]]]}},{"type":"Feature","properties":{"cod_imovel":"RJ-3302700-6450A6C1C9B6455FBD989E89E8BC04D5","num_area":"19.601600000000000000000000000000","ind_status":"AT"},"geometry":{"type":"Polygon","coordinates":[[[-42.8311,-22.9177],[-42.8365,-22.9206],[-42.8326,-22.9138],[-42.8312,-22.9176],[-42.8311,-22.9177]]]}},{"type":"Feature","properties":{"cod_imovel":"RJ-3302700-6374A584A9E3413788060622574232D0","num_area":"43.669300000000000000000000000000","ind_status":"AT"},"geometry":{"type":"Polygon","coordinates":[[[-42.7675,-22.9393],[-42.7651,-22.9342],[-42.7667,-22.9391],[-42.7675,-22.9393]],[[-42.765,-22.9293],[-42.7684,-22.933],[-42.7732,-22.9293],[-42.7658,-22.9296],[-42.765,-22.9293]],[[-42.7715,-22.9346],[-42.7736,-22.9282],[-42.7697,-22.9368],[-42.7715,-22.9346]]]}},{"type":"Feature","properties":{"cod_imovel":"RJ-3302700-2F4A1E10C55A4D7C819D17B6E15F57DF","num_area":"14.206700000000000000000000000000","ind_status":"PE"},"geometry":{"type":"Polygon","coordinates":[[[-42.903,-22.9628],[-42.9033,-22.9596],[-42.9029,-22.9627],[-42.903,-22.9628]],[[-42.9137,-22.9652],[-42.9191,-22.965],[-42.9137,-22.965],[-42.9137,-22.9652]],[[-42.9109,-22.9637],[-42.9163,-22.964],[-42.9109,-22.9637],[-42.9109,-22.9637]]]}},{"type":"Feature","properties":{"cod_imovel":"RJ-3302700-E7465146DA7D423FAEC99CFCF0D168C1","num_area":"69.225200000000000000000000000000","ind_status":"CA"},"geometry":{"type":"Polygon","coordinates":[[[-42.6758,-22.9124],[-42.6791,-22.9079],[-42.666,-22.91],[-42.6735,-22.9175],[-42.6758,-22.9124],[-42.6758,-22.9124]]]}}]}