{"type":"FeatureCollection","features":[{"type":"Feature","properties":{"cod_imovel":"RJ-3302908-37C6FE42333547629F74AA57FF58662B","num_area":"102.24240000000000000000000000000","ind_status":"AT"},"geometry":{"type":"Polygon","coordinates":[[[-43.5409,-22.5674],[-43.5433,-22.5721],[-43.5412,-22.5682],[-43.5409,-22.5674]],[[-43.5476,-22.5574],[-43.5446,-22.5594],[-43.5481,-22.5578],[-43.5476,-22.5574]],[[-43.5472,-22.5611],[-43.5418,-22.5653],[-43.5465,-22.5616],[-43.5472,-22.5611]],[[-43.5491,-22.5627],[-43.546,-22.5666],[-43.5485,-22.5627],[-43.5491,-22.5627]],[[-43.5463,-22.5725],[-43.5417,-22.5654],[-43.5453,-22.5729],[-43.5463,-22.5725]],[[-43.5471,-22.5637],[-43.5437,-22.566],[-43.547,-22.564],[-43.5471,-22.5637]],[[-43.5529,-22.5648],[-43.5499,-22.5634],[-43.5531,-22.5656],[-43.5529,-22.5648]],[[-43.5493,-22.5673],[-43.5418,-22.5654],[-43.5464,-22.5702],[-43.5492,-22.5673],[-43.5493,-22.5673]],[[-43.5473,-22.5714],[-43.5506,-22.5663],[-43.5472,-22.5712],[-43.5473,-22.5714]],[[-43.55,-22.5639],[-43.547,-22.5678],[-43.5502,-22.564],[-43.55,-22.5639]]]}},{"type":"Feature","properties":{"cod_imovel":"RJ-3302908-08C2DA06EFD64088851C3FD1E62B29A1","num_area":"5.5271000000000000000000000000000","ind_status":"AT"},"geometry":{"type":"Polygon","coordinates":[[[-43.5072,-22.4607],[-43.5099,-22.4591],[-43.5072,-22.4606],[-43.5072,-22.4607]],[[-43.5074,-22.461],[-43.5109,-22.4592],[-43.5075,-22.461],[-43.5074,-22.461]],[[-43.5089,-22.4615],[-43.5109,-22.4593],[-43.5089,-22.4615],[-43.5089,-22.4615]]]}},{"type":"Feature","properties":{"cod_imovel":"RJ-3302908-4976ED13FFD1494B8A719AA7953D812C","num_area":"96.761800000000000000000000000000","ind_status":"AT"},"geometry":{"type":"Polygon","coordinates":[[[-43.4776,-22.5265],[-43.4759,-22.5296],[-43.4777,-22.5266],[-43.4776,-22.5265]],[[-43.4723,-22.5296],[-43.4732,-22.5327],[-43.4723,-22.5297],[-43.4723,-22.5296]],[[-43.4667,-22.5255],[-43.4709,-22.5287],[-43.4688,-22.5256],[-43.4743,-22.5265],[-43.47,-22.5238],[-43.4808,-22.5212],[-43.4774,-22.5179],[-43.4669,-22.5253],[-43.4667,-22.5255]],[[-43.4733,-22.5272],[-43.4758,-22.5255],[-43.4733,-22.5272],[-43.4733,-22.5272]],[[-43.4811,-22.5211],[-43.4839,-22.5145],[-43.4774,-22.5179],[-43.4809,-22.5212],[-43.4811,-22.5211]]]}},{"type":"Feature","properties":{"cod_imovel":"RJ-3302908-4F2A5E02B536439B92E2D802B0A3AF72","num_area":"5.3459000000000000000000000000000","ind_status":"AT"},"geometry":{"type":"Polygon","coordinates":[[[-43.6634,-22.6223],[-43.6644,-22.6261],[-43.6635,-22.6226],[-43.6634,-22.6223]]]}},{"type":"Feature","properties":{"cod_imovel":"RJ-3302908-98A8BA653B9C4A9386D2B4C9855C4F89","num_area":"6.7672000000000000000000000000000","ind_status":"AT"},"geometry":{"type":"Polygon","coordinates":[[[-43.4996,-22.4503],[-43.5025,-22.4475],[-43.4977,-22.4491],[-43.4996,-22.4503]]]}},{"type":"Feature","properties":{"cod_imovel":"RJ-3302908-B1C3E7506347427DA9E335D3563881D0","num_area":"326.96850000000000000000000000000","ind_status":"AT"},"geometry":{"type":"Polygon","coordinates":[[[-43.5208,-22.549],[-43.5263,-22.5498],[-43.5211,-22.5466],[-43.5208,-22.549]],[[-43.5204,-22.5542],[-43.5276,-22.5505],[-43.5207,-22.5515],[-43.5204,-22.5542]],[[-43.5334,-22.5588],[-43.5307,-22.5611],[-43.5343,-22.5627],[-43.5335,-22.5588],[-43.5392,-22.5669],[-43.5466,-22.5597],[-43.5419,-22.5523],[-43.535,-22.5549],[-43.5395,-22.5489],[-43.5337,-22.5543],[-43.5391,-22.547],[-43.5295,-22.549],[-43.5267,-22.5474],[-43.5335,-22.5403],[-43.5273,-22.5448],[-43.5268,-22.5405],[-43.5211,-22.5462],[-43.5299,-22.5518],[-43.5261,-22.5542],[-43.5357,-22.5572],[-43.5329,-22.5583],[-43.5334,-22.5588]],[[-43.5241,-22.5441],[-43.5258,-22.5466],[-43.524,-22.5441],[-43.5241,-22.5441]],[[-43.5209,-22.557],[-43.5236,-22.5613],[-43.5276,-22.5592],[-43.5245,-22.5639],[-43.531,-22.565],[-43.5305,-22.5585],[-43.5207,-22.5568],[-43.5209,-22.557]]]}},{"type":"Feature","properties":{"cod_imovel":"RJ-3303856-CF3F1CCEA78A448F8A72AF27D5820872","num_area":"12.167600000000000000000000000000","ind_status":"AT"},"geometry":{"type":"Polygon","coordinates":[[[-43.4415,-22.4296],[-43.4436,-22.4266],[-43.4415,-22.4291],[-43.4415,-22.4296]],[[-43.4526,-22.4406],[-43.4469,-22.4444],[-43.4522,-22.4411],[-43.4526,-22.4406]],[[-43.4469,-22.4445],[-43.452,-22.4416],[-43.4478,-22.4441],[-43.4469,-22.4445]]]}},{"type":"Feature","properties":{"cod_imovel":"RJ-3302908-32F1B4B86C4C4803B1B13B7E688870AD","num_area":"10.807700000000000000000000000000","ind_status":"AT"},"geometry":{"type":"Polygon","coordinates":[[[-43.4171,-22.5127],[-43.4211,-22.5138],[-43.417,-22.5126],[-43.4171,-22.5127]],[[-43.4182,-22.5102],[-43.4132,-22.5108],[-43.4214,-22.512],[-43.4182,-22.5102],[-43.4182,-22.5102]]]}},{"type":"Feature","properties":{"cod_imovel":"RJ-3302908-7994E08785004FA39568C0385236E86E","num_area":"20.811900000000000000000000000000","ind_status":"AT"},"geometry":{"type":"Polygon","coordinates":[[[-43.3211,-22.4701],[-43.3179,-22.4631],[-43.3204,-22.4697],[-43.3211,-22.4701]]]}},{"type":"Feature","properties":{"cod_imovel":"RJ-3302908-7A16B45A56D84CB888D5E2192BD4DBF8","num_area":"304.45790000000000000000000000000","ind_status":"AT"},"geometry":{"type":"Polygon","coordinates":[[[-43.5934,-22.5695],[-43.5875,-22.5744],[-43.6014,-22.583],[-43.6061,-22.5798],[-43.5967,-22.5726],[-43.5934,-22.5695]],[[-43.6187,-22.5612],[-43.622,-22.5554],[-43.6182,-22.5492],[-43.606,-22.5525],[-43.6164,-22.5527],[-43.6084,-22.5544],[-43.6187,-22.5612]],[[-43.6111,-22.5752],[-43.5987,-22.5685],[-43.6101,-22.575],[-43.6111,-22.5752]],[[-43.5804,-22.5701],[-43.586,-22.5735],[-43.5907,-22.5669],[-43.5864,-22.5678],[-43.5879,-22.5628],[-43.5804,-22.5701]]]}},{"type":"Feature","properties":{"cod_imovel":"RJ-3302908-76321856C37E4C48A8B9FFB8778B638A","num_area":"10.046800000000000000000000000000","ind_status":"AT"},"geometry":{"type":"Polygon","coordinates":[[[-43.531,-22.4833],[-43.5239,-22.4837],[-43.5304,-22.4833],[-43.531,-22.4833]]]}},{"type":"Feature","properties":{"cod_imovel":"RJ-3302908-D228C6D143C0481B817D7E94003321B2","num_area":"47.967900000000000000000000000000","ind_status":"AT"},"geometry":{"type":"Polygon","coordinates":[[[-43.5115,-22.4532],[-43.5087,-22.4514],[-43.5114,-22.4532],[-43.5115,-22.4532]],[[-43.5136,-22.4522],[-43.5062,-22.4498],[-43.5119,-22.4531],[-43.5136,-22.4522]],[[-43.5102,-22.454],[-43.5136,-22.4549],[-43.5077,-22.4522],[-43.5102,-22.454]],[[-43.5099,-22.4494],[-43.5058,-22.4462],[-43.5099,-22.4495],[-43.5099,-22.4494]],[[-43.5058,-22.4462],[-43.5015,-22.4521],[-43.5056,-22.4473],[-43.5058,-22.4462]],[[-43.5048,-22.4455],[-43.5006,-22.4496],[-43.5047,-22.4455],[-43.5048,-22.4455]]]}},{"type":"Feature","properties":{"cod_imovel":"RJ-3302908-015CB14612454350B4F82525A4561040","num_area":"43.445000000000000000000000000000","ind_status":"AT"},"geometry":{"type":"Polygon","coordinates":[[[-43.4828,-22.4406],[-43.4928,-22.4444],[-43.488,-22.4382],[-43.484,-22.4395],[-43.4828,-22.4406]]]}},{"type":"Feature","properties":{"cod_imovel":"RJ-3302908-4086E85989714CDDA5D6E7DD04603486","num_area":"40.086200000000000000000000000000","ind_status":"AT"},"geometry":{"type":"Polygon","coordinates":[[[-43.4609,-22.4902],[-43.4645,-22.4877],[-43.4614,-22.4893],[-43.4609,-22.4902]],[[-43.459,-22.4891],[-43.4596,-22.4852],[-43.4591,-22.489],[-43.459,-22.4891]],[[-43.4637,-22.482],[-43.4622,-22.4788],[-43.4637,-22.4822],[-43.4637,-22.482]],[[-43.4617,-22.4797],[-43.461,-22.4849],[-43.4651,-22.4856],[-43.4617,-22.4797],[-43.4617,-22.4797]]]}},{"type":"Feature","properties":{"cod_imovel":"RJ-3302908-5C62DC106C324874BDA160D95C79BC39","num_area":"98.185700000000000000000000000000","ind_status":"AT"},"geometry":{"type":"Polygon","coordinates":[[[-43.4992,-22.5122],[-43.4917,-22.5182],[-43.4955,-22.5235],[-43.4935,-22.5198],[-43.499,-22.5128],[-43.4992,-22.5122]],[[-43.5044,-22.5131],[-43.4951,-22.5109],[-43.5044,-22.5131],[-43.5044,-22.5131]],[[-43.5041,-22.5136],[-43.4969,-22.5175],[-43.4992,-22.5122],[-43.4956,-22.5172],[-43.4982,-22.5227],[-43.4979,-22.5178],[-43.504,-22.518],[-43.4979,-22.5178],[-43.4999,-22.5218],[-43.5072,-22.5178],[-43.502,-22.5176],[-43.5045,-22.5136],[-43.5041,-22.5136]]]}},{"type":"Feature","properties":{"cod_imovel":"RJ-3302908-DBE5E1F192BA406FBE2C4C9A010961DE","num_area":"10.001000000000000000000000000000","ind_status":"AT"},"geometry":{"type":"Polygon","coordinates":[[[-43.4515,-22.4705],[-43.4551,-22.4734],[-43.4516,-22.4705],[-43.4515,-22.4705]]]}},{"type":"Feature","properties":{"cod_imovel":"RJ-3302908-866D2A77BFD14BE4A51747DB16B55885","num_area":"24.357800000000000000000000000000","ind_status":"AT"},"geometry":{"type":"Polygon","coordinates":[[[-43.4535,-22.473],[-43.4503,-22.4707],[-43.4528,-22.4733],[-43.4535,-22.473]],[[-43.4486,-22.4706],[-43.4433,-22.4768],[-43.4505,-22.4741],[-43.4496,-22.4705],[-43.4486,-22.4706]]]}},{"type":"Feature","properties":{"cod_imovel":"RJ-3302908-4F34FA65C1B7462F9398B5EAF8A3831E","num_area":"9.2901000000000000000000000000000","ind_status":"AT"},"geometry":{"type":"Polygon","coordinates":[[[-43.4602,-22.4754],[-43.4533,-22.4758],[-43.46,-22.4755],[-43.4602,-22.4754]]]}},{"type":"Feature","properties":{"cod_imovel":"RJ-3302908-E592B477FACC4E1AA3850EA3B2E91E4B","num_area":"10.884200000000000000000000000000","ind_status":"AT"},"geometry":{"type":"Polygon","coordinates":[[[-43.569,-22.5059],[-43.5642,-22.509],[-43.5689,-22.5088],[-43.569,-22.5059]]]}},{"type":"Feature","properties":{"cod_imovel":"RJ-3302908-EFC47200358F4F04B01A2F988B4E65AE","num_area":"88.697400000000000000000000000000","ind_status":"AT"},"geometry":{"type":"Polygon","coordinates":[[[-43.5008,-22.5545],[-43.4981,-22.5585],[-43.5007,-22.5545],[-43.5008,-22.5545]],[[-43.5086,-22.5505],[-43.5036,-22.553],[-43.5137,-22.5555],[-43.5086,-22.5505],[-43.5086,-22.5505]],[[-43.506,-22.5547],[-43.5084,-22.5576],[-43.5003,-22.5576],[-43.5056,-22.5621],[-43.5123,-22.5585],[-43.5061,-22.5548],[-43.506,-22.5547]],[[-43.501,-22.5581],[-43.5054,-22.5614],[-43.501,-22.5582],[-43.501,-22.5581]]]}},{"type":"Feature","properties":{"cod_imovel":"RJ-3302908-2A4782555D46422B877F99E592BB53AB","num_area":"12.970000000000000000000000000000","ind_status":"AT"},"geometry":{"type":"Polygon","coordinates":[[[-43.4995,-22.5679],[-43.505,-22.565],[-43.4995,-22.5679],[-43.4995,-22.5679]]]}},{"type":"Feature","properties":{"cod_imovel":"RJ-3302908-E673E1D078F34CCA88415828A9FA2CBD","num_area":"34.253900000000000000000000000000","ind_status":"AT"},"geometry":{"type":"Polygon","coordinates":[[[-43.5192,-22.5681],[-43.5058,-22.5659],[-43.5175,-22.5681],[-43.5192,-22.5681]]]}},{"type":"Feature","properties":{"cod_imovel":"RJ-3302908-D52C6812F1464345885FE14360B005CE","num_area":"315.35460000000000000000000000000","ind_status":"AT"},"geometry":{"type":"Polygon","coordinates":[[[-43.4757,-22.5064],[-43.4756,-22.511],[-43.478,-22.5046],[-43.4757,-22.5064]],[[-43.4452,-22.5242],[-43.4374,-22.5283],[-43.4407,-22.5381],[-43.4543,-22.5314],[-43.446,-22.5258],[-43.4452,-22.5242]],[[-43.4772,-22.5184],[-43.4776,-22.5127],[-43.4764,-22.5189],[-43.4772,-22.5184]],[[-43.4641,-22.5154],[-43.4611,-22.5163],[-43.4665,-22.5202],[-43.472,-22.5157],[-43.4648,-22.516],[-43.4641,-22.5154]],[[-43.4586,-22.5174],[-43.4475,-22.5267],[-43.4541,-22.5241],[-43.4551,-22.531],[-43.4583,-22.5294],[-43.4559,-22.524],[-43.4605,-22.5283],[-43.4664,-22.5249],[-43.4634,-22.521],[-43.4704,-22.5233],[-43.4588,-22.5187],[-43.4586,-22.5174]]]}},{"type":"Feature","properties":{"cod_imovel":"RJ-3302908-C9231219AEB540AB968CAAEE1B7C20D1","num_area":"99.784000000000000000000000000000","ind_status":"PE"},"geometry":{"type":"Polygon","coordinates":[[[-43.3946,-22.5028],[-43.3992,-22.5014],[-43.4017,-22.5106],[-43.4113,-22.5059],[-43.4057,-22.5017],[-43.4014,-22.5058],[-43.3991,-22.5024],[-43.4027,-22.5058],[-43.4041,-22.5006],[-43.3947,-22.5027],[-43.3946,-22.5028]],[[-43.3998,-22.5095],[-43.3959,-22.5129],[-43.3992,-22.514],[-43.3998,-22.5095],[-43.3998,-22.5095]],[[-43.3997,-22.5094],[-43.3955,-22.5128],[-43.3997,-22.5094],[-43.3997,-22.5094]]]}},{"type":"Feature","properties":{"cod_imovel":"RJ-3302908-CA4F19E73E1E44BBAC38E1B55A942145","num_area":"5.9416000000000000000000000000000","ind_status":"AT"},"geometry":{"type":"Polygon","coordinates":[[[-43.3649,-22.4535],[-43.3686,-22.4563],[-43.3652,-22.4537],[-43.3649,-22.4535]]]}},{"type":"Feature","properties":{"cod_imovel":"RJ-3302908-F8F0E51E90B14CCFB95B83D8D6A8EB7E","num_area":"4.7696000000000000000000000000000","ind_status":"AT"},"geometry":{"type":"Polygon","coordinates":[[[-43.3698,-22.4558],[-43.3622,-22.4542],[-43.3696,-22.456],[-43.3698,-22.4558]]]}},{"type":"Feature","properties":{"cod_imovel":"RJ-3302908-50745B3775904181B6C4614CA29A8857","num_area":"5.0357000000000000000000000000000","ind_status":"AT"},"geometry":{"type":"Polygon","coordinates":[[[-43.3696,-22.456],[-43.3631,-22.4546],[-43.3686,-22.4563],[-43.3696,-22.456]]]}},{"type":"Feature","properties":{"cod_imovel":"RJ-3302908-CACEC53CD91C46FDA0656AB3AA369CD2","num_area":"659.02430000000000000000000000000","ind_status":"AT"},"geometry":{"type":"Polygon","coordinates":[[[-43.3745,-22.4973],[-43.3696,-22.5],[-43.3674,-22.4966],[-43.3546,-22.5134],[-43.3692,-22.5165],[-43.3666,-22.5071],[-43.3619,-22.5098],[-43.3745,-22.4973],[-43.3745,-22.4973]],[[-43.3631,-22.5025],[-43.3654,-22.4993],[-43.3631,-22.5025],[-43.3631,-22.5025]],[[-43.3699,-22.4936],[-43.3597,-22.4942],[-43.3552,-22.5043],[-43.3593,-22.5064],[-43.3699,-22.4936],[-43.3699,-22.4936]],[[-43.3774,-22.5069],[-43.3728,-22.5007],[-43.3757,-22.4962],[-43.3674,-22.5052],[-43.3711,-22.5114],[-43.3667,-22.5066],[-43.3692,-22.5165],[-43.3771,-22.5076],[-43.3774,-22.5069]],[[-43.3762,-22.4942],[-43.3694,-22.49],[-43.3678,-22.4959],[-43.3762,-22.4943],[-43.3762,-22.4942]],[[-43.3764,-22.5168],[-43.3734,-22.513],[-43.3724,-22.5171],[-43.376,-22.517],[-43.3764,-22.5168]],[[-43.3835,-22.5122],[-43.3774,-22.5069],[-43.3747,-22.5099],[-43.375,-22.5188],[-43.3799,-22.5184],[-43.3835,-22.5122]],[[-43.3894,-22.5021],[-43.3857,-22.504],[-43.3856,-22.499],[-43.3844,-22.5042],[-43.385,-22.4987],[-43.3762,-22.4942],[-43.3846,-22.5019],[-43.3764,-22.4988],[-43.3792,-22.5094],[-43.3835,-22.5122],[-43.387,-22.5063],[-43.3894,-22.5021]]]}},{"type":"Feature","properties":{"cod_imovel":"RJ-3302908-A6837BB4C23D49C291FBF4D0910E9D4C","num_area":"92.176600000000000000000000000000","ind_status":"AT"},"geometry":{"type":"Polygon","coordinates":[[[-43.3797,-22.5194],[-43.3803,-22.5266],[-43.3897,-22.5106],[-43.3857,-22.5108],[-43.3879,-22.5048],[-43.3949,-22.5023],[-43.3906,-22.5],[-43.3793,-22.5194],[-43.3797,-22.5194]]]}},{"type":"Feature","properties":{"cod_imovel":"RJ-3302908-8813FBAA57714489BADD402368EBA415","num_area":"287.37840000000000000000000000000","ind_status":"AT"},"geometry":{"type":"Polygon","coordinates":[[[-43.5192,-22.5582],[-43.5164,-22.5505],[-43.518,-22.5578],[-43.5192,-22.5582]],[[-43.5103,-22.5444],[-43.5129,-22.5481],[-43.5093,-22.551],[-43.5153,-22.5502],[-43.51,-22.5515],[-43.5138,-22.5556],[-43.5163,-22.5504],[-43.5111,-22.5446],[-43.5103,-22.5444]],[[-43.5203,-22.5517],[-43.5254,-22.5357],[-43.5155,-22.541],[-43.5194,-22.5481],[-43.5155,-22.5418],[-43.5154,-22.5486],[-43.5127,-22.5466],[-43.5203,-22.5543],[-43.5203,-22.5517]],[[-43.5155,-22.541],[-43.5105,-22.5443],[-43.5127,-22.5466],[-43.5154,-22.5417],[-43.5155,-22.541]],[[-43.5052,-22.5635],[-43.5124,-22.571],[-43.5178,-22.5609],[-43.5142,-22.5575],[-43.5147,-22.5646],[-43.5116,-22.5589],[-43.5048,-22.5628],[-43.5052,-22.5635]],[[-43.5151,-22.5678],[-43.515,-22.5644],[-43.5151,-22.5678],[-43.5151,-22.5678]]]}},{"type":"Feature","properties":{"cod_imovel":"RJ-3302908-FCDA34CFC9EE4096BEA6543DD6978983","num_area":"12.753900000000000000000000000000","ind_status":"AT"},"geometry":{"type":"Polygon","coordinates":[[[-43.3338,-22.4553],[-43.3416,-22.4518],[-43.3345,-22.4546],[-43.3338,-22.4553]]]}},{"type":"Feature","properties":{"cod_imovel":"RJ-3302908-C0DDEB2572E24BC689D051C08116C591","num_area":"19.201500000000000000000000000000","ind_status":"AT"},"geometry":{"type":"Polygon","coordinates":[[[-43.3374,-22.4485],[-43.3346,-22.4545],[-43.3375,-22.4484],[-43.3374,-22.4485]]]}},{"type":"Feature","properties":{"cod_imovel":"RJ-3302908-F3C14EA97E174B03B6D10314CB4F2666","num_area":"6.9987000000000000000000000000000","ind_status":"AT"},"geometry":{"type":"Polygon","coordinates":[[[-43.3509,-22.4498],[-43.3465,-22.4464],[-43.3505,-22.4493],[-43.3509,-22.4498]]]}},{"type":"Feature","properties":{"cod_imovel":"RJ-3302908-5266B111807B49F381B00992FE2BE48F","num_area":"26.174100000000000000000000000000","ind_status":"AT"},"geometry":{"type":"Polygon","coordinates":[[[-43.334,-22.455],[-43.3425,-22.4533],[-43.3366,-22.4524],[-43.334,-22.455]]]}},{"type":"Feature","properties":{"cod_imovel":"RJ-3302908-0BE6A39B75424803A4817DE7F7019709","num_area":"11.426900000000000000000000000000","ind_status":"AT"},"geometry":{"type":"Polygon","coordinates":[[[-43.3626,-22.4535],[-43.3591,-22.4503],[-43.3625,-22.4535],[-43.3626,-22.4535]]]}},{"type":"Feature","properties":{"cod_imovel":"RJ-3302908-644D1C1937D34E90824E725CCBEF1209","num_area":"544.40700000000000000000000000000","ind_status":"AT"},"geometry":{"type":"Polygon","coordinates":[[[-43.6204,-22.5883],[-43.623,-22.5915],[-43.6204,-22.5883],[-43.6204,-22.5883]],[[-43.6101,-22.5854],[-43.614,-22.5887],[-43.6105,-22.5853],[-43.6101,-22.5854]],[[-43.6093,-22.5886],[-43.6036,-22.5938],[-43.6092,-22.5889],[-43.6093,-22.5886]],[[-43.6251,-22.5903],[-43.6282,-22.5914],[-43.6253,-22.5902],[-43.6251,-22.5903]],[[-43.6337,-22.5933],[-43.636,-22.5883],[-43.6161,-22.5795],[-43.6336,-22.5933],[-43.6337,-22.5933]],[[-43.6134,-22.6049],[-43.6243,-22.6101],[-43.6279,-22.6031],[-43.6212,-22.6049],[-43.6296,-22.5964],[-43.6215,-22.6025],[-43.6272,-22.5967],[-43.6221,-22.5918],[-43.6155,-22.5936],[-43.6166,-22.5879],[-43.6071,-22.5974],[-43.6066,-22.5941],[-43.5992,-22.5962],[-43.604,-22.5979],[-43.6029,-22.6021],[-43.6128,-22.6045],[-43.6134,-22.6049]],[[-43.6194,-22.5933],[-43.6136,-22.5993],[-43.6188,-22.5939],[-43.6194,-22.5933]],[[-43.6123,-22.5993],[-43.6089,-22.6019],[-43.6122,-22.5993],[-43.6123,-22.5993]],[[-43.5973,-22.5968],[-43.6095,-22.5827],[-43.5905,-22.5914],[-43.5949,-22.5947],[-43.5997,-22.591],[-43.5972,-22.5968],[-43.5973,-22.5968]]]}},{"type":"Feature","properties":{"cod_imovel":"RJ-3302908-D6F698F0E6B94133A252AEA64DB84398","num_area":"21.048500000000000000000000000000","ind_status":"AT"},"geometry":{"type":"Polygon","coordinates":[[[-43.5041,-22.5125],[-43.5072,-22.5136],[-43.5041,-22.5125],[-43.5041,-22.5125]],[[-43.5031,-22.5107],[-43.5062,-22.5096],[-43.5031,-22.5107],[-43.5031,-22.5107]],[[-43.5049,-22.5138],[-43.5102,-22.519],[-43.5086,-22.5132],[-43.5049,-22.5137],[-43.5049,-22.5138]]]}},{"type":"Feature","properties":{"cod_imovel":"RJ-3302908-BF6D06626A0B46D9AEE8D95A4D00B148","num_area":"378.23680000000000000000000000000","ind_status":"AT"},"geometry":{"type":"Polygon","coordinates":[[[-43.5271,-22.537],[-43.5285,-22.5322],[-43.5259,-22.5359],[-43.5271,-22.537]],[[-43.512,-22.5313],[-43.5217,-22.5306],[-43.5124,-22.5307],[-43.512,-22.5313]],[[-43.5295,-22.5257],[-43.5186,-22.5222],[-43.5279,-22.5249],[-43.5295,-22.5257]],[[-43.5296,-22.5255],[-43.5349,-22.524],[-43.5218,-22.5178],[-43.5172,-22.5214],[-43.5281,-22.5247],[-43.5296,-22.5255]],[[-43.5038,-22.5197],[-43.4994,-22.5271],[-43.4937,-22.5252],[-43.4977,-22.5326],[-43.503,-22.5321],[-43.5006,-22.5373],[-43.5084,-22.5394],[-43.5062,-22.5339],[-43.5113,-22.5316],[-43.4966,-22.5296],[-43.511,-22.5314],[-43.5039,-22.5298],[-43.5098,-22.5272],[-43.5028,-22.5284],[-43.5052,-22.5246],[-43.5008,-22.5268],[-43.5035,-22.5216],[-43.5038,-22.5197]],[[-43.5014,-22.521],[-43.4993,-22.5246],[-43.5012,-22.5221],[-43.5014,-22.521]],[[-43.5032,-22.5417],[-43.51,-22.5444],[-43.5007,-22.5374],[-43.5035,-22.5408],[-43.5032,-22.5417]],[[-43.5102,-22.5443],[-43.522,-22.5347],[-43.5063,-22.5339],[-43.5102,-22.5443],[-43.5102,-22.5443]]]}},{"type":"Feature","properties":{"cod_imovel":"RJ-3302908-20080A450A8747CBABD3A319AE377E17","num_area":"161.46590000000000000000000000000","ind_status":"AT"},"geometry":{"type":"Polygon","coordinates":[[[-43.5124,-22.5173],[-43.5113,-22.5214],[-43.5136,-22.5173],[-43.5124,-22.5173]],[[-43.521,-22.5217],[-43.5232,-22.5183],[-43.5171,-22.5236],[-43.5196,-22.5213],[-43.521,-22.5217]],[[-43.5061,-22.545],[-43.5151,-22.531],[-43.5055,-22.5306],[-43.5107,-22.5271],[-43.5022,-22.5316],[-43.5036,-22.5447],[-43.5061,-22.545]]]}},{"type":"Feature","properties":{"cod_imovel":"RJ-3302908-3C1C077DF7154DF8A25FFFF22ED944CF","num_area":"21.625200000000000000000000000000","ind_status":"AT"},"geometry":{"type":"Polygon","coordinates":[[[-43.3836,-22.4611],[-43.397,-22.4649],[-43.3836,-22.4611],[-43.3836,-22.4611]]]}},{"type":"Feature","properties":{"cod_imovel":"RJ-3302908-E1232E367BCA4A96BFD07F464CFB7C3F","num_area":"9.8117000000000000000000000000000","ind_status":"AT"},"geometry":{"type":"Polygon","coordinates":[[[-43.3676,-22.4683],[-43.364,-22.467],[-43.3674,-22.4681],[-43.3676,-22.4683]]]}},{"type":"Feature","properties":{"cod_imovel":"RJ-3302908-237388EA4C454D329107D2074999243C","num_area":"46.171400000000000000000000000000","ind_status":"AT"},"geometry":{"type":"Polygon","coordinates":[[[-43.397,-22.5036],[-43.394,-22.5038],[-43.3992,-22.5078],[-43.3981,-22.504],[-43.397,-22.5036]],[[-43.3939,-22.5041],[-43.391,-22.5087],[-43.3972,-22.5081],[-43.3939,-22.5042],[-43.3939,-22.5041]],[[-43.3907,-22.5091],[-43.3966,-22.5088],[-43.3907,-22.5093],[-43.3907,-22.5091]],[[-43.3931,-22.5119],[-43.3985,-22.5086],[-43.3933,-22.5119],[-43.3931,-22.5119]],[[-43.3914,-22.5091],[-43.3963,-22.5084],[-43.3918,-22.5093],[-43.3914,-22.5091]]]}},{"type":"Feature","properties":{"cod_imovel":"RJ-3302908-9679338BBBFE4467A68484CDF1951454","num_area":"41.127400000000000000000000000000","ind_status":"AT"},"geometry":{"type":"Polygon","coordinates":[[[-43.5564,-22.5607],[-43.5572,-22.5482],[-43.5557,-22.5605],[-43.5564,-22.5607]],[[-43.5602,-22.5432],[-43.5577,-22.5473],[-43.5628,-22.5446],[-43.5602,-22.5432]]]}},{"type":"Feature","properties":{"cod_imovel":"RJ-3302908-9B5E0774D8ED413EB6C96C0702DE83D7","num_area":"9.0725000000000000000000000000000","ind_status":"AT"},"geometry":{"type":"Polygon","coordinates":[[[-43.5401,-22.4703],[-43.5407,-22.478],[-43.5406,-22.4706],[-43.5401,-22.4703]]]}},{"type":"Feature","properties":{"cod_imovel":"RJ-3302908-162F934DB04B44E0ACCFD980064F268F","num_area":"11.804400000000000000000000000000","ind_status":"AT"},"geometry":{"type":"Polygon","coordinates":[[[-43.5088,-22.4576],[-43.5094,-22.4537],[-43.5089,-22.4573],[-43.5088,-22.4576]]]}},{"type":"Feature","properties":{"cod_imovel":"RJ-3302908-84335958FB4F40828D1AA136F9AC2023","num_area":"6.2492000000000000000000000000000","ind_status":"AT"},"geometry":{"type":"Polygon","coordinates":[[[-43.4121,-22.4795],[-43.4057,-22.4795],[-43.4122,-22.4795],[-43.4121,-22.4795]]]}},{"type":"Feature","properties":{"cod_imovel":"RJ-3302908-B0985B6DD6224695B67F55B537BB0942","num_area":"13.051300000000000000000000000000","ind_status":"AT"},"geometry":{"type":"Polygon","coordinates":[[[-43.41,-22.4724],[-43.4154,-22.4731],[-43.4076,-22.471],[-43.41,-22.4724]]]}},{"type":"Feature","properties":{"cod_imovel":"RJ-3302908-7CC6522156F54CD68415D7F17B882AC5","num_area":"6.9591000000000000000000000000000","ind_status":"AT"},"geometry":{"type":"Polygon","coordinates":[[[-43.5084,-22.4704],[-43.5117,-22.4703],[-43.5084,-22.4704],[-43.5084,-22.4704]]]}},{"type":"Feature","properties":{"cod_imovel":"RJ-3302908-7444885DEB354CD384FA9B89FD7A297D","num_area":"19.729300000000000000000000000000","ind_status":"AT"},"geometry":{"type":"Polygon","coordinates":[[[-43.3046,-22.4721],[-43.3096,-22.474],[-43.3083,-22.4681],[-43.3046,-22.4721],[-43.3046,-22.4721]],[[-43.3176,-22.4748],[-43.3151,-22.4724],[-43.3176,-22.4748],[-43.3176,-22.4748]],[[-43.3203,-22.4745],[-43.324,-22.473],[-43.3188,-22.4711],[-43.3203,-22.4745],[-43.3203,-22.4745]]]}},{"type":"Feature","properties":{"cod_imovel":"RJ-3302908-6574E1327CDF4453AA3ECE67314B0579","num_area":"10.937200000000000000000000000000","ind_status":"AT"},"geometry":{"type":"Polygon","coordinates":[[[-43.4594,-22.4755],[-43.4538,-22.4764],[-43.458,-22.4776],[-43.4594,-22.4755]]]}},{"type":"Feature","properties":{"cod_imovel":"RJ-3302908-BBDD872FFEE84F0BBD531F95AFFA4FF9","num_area":"9.9768000000000000000000000000000","ind_status":"AT"},"geometry":{"type":"Polygon","coordinates":[[[-43.3751,-22.46],[-43.375,-22.4568],[-43.3752,-22.4599],[-43.3751,-22.46]]]}},{"type":"Feature","properties":{"cod_imovel":"RJ-3302908-D853B156E2E44E29A7B48B7960028104","num_area":"8.1169000000000000000000000000000","ind_status":"AT"},"geometry":{"type":"Polygon","coordinates":[[[-43.5169,-22.4709],[-43.5126,-22.4693],[-43.5169,-22.4709],[-43.5169,-22.4709]]]}},{"type":"Feature","properties":{"cod_imovel":"RJ-3302908-A0AAF53B6A044C2CBD60169E5F403C97","num_area":"14.829300000000000000000000000000","ind_status":"AT"},"geometry":{"type":"Polygon","coordinates":[[[-43.3722,-22.4693],[-43.3758,-22.4656],[-43.3706,-22.4693],[-43.3722,-22.4693]],[[-43.3756,-22.4653],[-43.3694,-22.4683],[-43.3754,-22.4654],[-43.3756,-22.4653]]]}},{"type":"Feature","properties":{"cod_imovel":"RJ-3302908-16ACCD66A8984A6F9C3EBD845FC684BB","num_area":"6.4562000000000000000000000000000","ind_status":"AT"},"geometry":{"type":"Polygon","coordinates":[[[-43.5177,-22.4934],[-43.5231,-22.4948],[-43.5181,-22.4935],[-43.5177,-22.4934]]]}},{"type":"Feature","properties":{"cod_imovel":"RJ-3302908-FF16B4FC28C4441C898BA944E0F33ACE","num_area":"24.147300000000000000000000000000","ind_status":"AT"},"geometry":{"type":"Polygon","coordinates":[[[-43.3863,-22.4772],[-43.3796,-22.4762],[-43.3863,-22.4772],[-43.3863,-22.4772]],[[-43.3856,-22.476],[-43.3832,-22.4738],[-43.3856,-22.476],[-43.3856,-22.476]],[[-43.3834,-22.4733],[-43.3857,-22.4759],[-43.3835,-22.4729],[-43.3834,-22.4733]],[[-43.387,-22.4762],[-43.3846,-22.4699],[-43.3867,-22.4761],[-43.387,-22.4762]]]}},{"type":"Feature","properties":{"cod_imovel":"RJ-3302908-57B9C730C93743F897502048CE428FC1","num_area":"6.2753000000000000000000000000000","ind_status":"AT"},"geometry":{"type":"Polygon","coordinates":[[[-43.5403,-22.4521],[-43.5391,-22.4549],[-43.5405,-22.4521],[-43.5403,-22.4521]]]}},{"type":"Feature","properties":{"cod_imovel":"RJ-3302908-BDDA778BD10845E0B2C6AC367A20BCCA","num_area":"19.457600000000000000000000000000","ind_status":"AT"},"geometry":{"type":"Polygon","coordinates":[[[-43.3892,-22.4826],[-43.3821,-22.4839],[-43.3892,-22.4828],[-43.3892,-22.4826]],[[-43.3828,-22.4846],[-43.3762,-22.4942],[-43.3829,-22.4846],[-43.3828,-22.4846]],[[-43.3774,-22.4936],[-43.3828,-22.485],[-43.3776,-22.4931],[-43.3774,-22.4936]]]}},{"type":"Feature","properties":{"cod_imovel":"RJ-3302908-8166D8D0CB2B4E08854721F9E2B2B50E","num_area":"4.6813000000000000000000000000000","ind_status":"AT"},"geometry":{"type":"Polygon","coordinates":[[[-43.5125,-22.4548],[-43.5159,-22.4559],[-43.5138,-22.4535],[-43.5125,-22.4548]]]}},{"type":"Feature","properties":{"cod_imovel":"RJ-3302908-D4319B991B2A4B54B42C899ABCA5E6DA","num_area":"24.262800000000000000000000000000","ind_status":"AT"},"geometry":{"type":"Polygon","coordinates":[[[-43.4439,-22.4989],[-43.4412,-22.4965],[-43.4434,-22.499],[-43.4439,-22.4989]],[[-43.4417,-22.5052],[-43.4476,-22.5074],[-43.4465,-22.5021],[-43.4419,-22.5045],[-43.4417,-22.5052]]]}},{"type":"Feature","properties":{"cod_imovel":"RJ-3302908-676F8AA3C8824543BC17E3063659046E","num_area":"56.387200000000000000000000000000","ind_status":"AT"},"geometry":{"type":"Polygon","coordinates":[[[-43.4434,-22.4982],[-43.4489,-22.5007],[-43.452,-22.4957],[-43.449,-22.4877],[-43.4434,-22.4982],[-43.4434,-22.4982]],[[-43.4484,-22.4903],[-43.4485,-22.496],[-43.4481,-22.4901],[-43.4484,-22.4903]]]}},{"type":"Feature","properties":{"cod_imovel":"RJ-3302908-AE23F996AA7A4CD9B8716B7B4C52F394","num_area":"11.805500000000000000000000000000","ind_status":"AT"},"geometry":{"type":"Polygon","coordinates":[[[-43.5654,-22.5189],[-43.5644,-22.5147],[-43.5626,-22.5181],[-43.5654,-22.5189]]]}},{"type":"Feature","properties":{"cod_imovel":"RJ-3302908-817A685AFDEF45C2A4089C85A55C3594","num_area":"14.001900000000000000000000000000","ind_status":"AT"},"geometry":{"type":"Polygon","coordinates":[[[-43.5689,-22.5208],[-43.5688,-22.5174],[-43.567,-22.52],[-43.5689,-22.5208]]]}},{"type":"Feature","properties":{"cod_imovel":"RJ-3302908-7ED3E2F9859A409C9F1DF3D7C63D8B2E","num_area":"4.6491000000000000000000000000000","ind_status":"AT"},"geometry":{"type":"Polygon","coordinates":[[[-43.5365,-22.4554],[-43.5397,-22.455],[-43.5362,-22.4552],[-43.5365,-22.4554]]]}},{"type":"Feature","properties":{"cod_imovel":"RJ-3302908-673AC7375AF44A5B851CCC91C431E2D8","num_area":"29.822500000000000000000000000000","ind_status":"AT"},"geometry":{"type":"Polygon","coordinates":[[[-43.5173,-22.4726],[-43.5232,-22.4684],[-43.5125,-22.4692],[-43.5226,-22.4686],[-43.517,-22.4724],[-43.5173,-22.4726]],[[-43.5206,-22.4685],[-43.5153,-22.4711],[-43.5206,-22.4685],[-43.5206,-22.4685]]]}},{"type":"Feature","properties":{"cod_imovel":"RJ-3302908-F66EA03D57C14182B218F49C43A2B110","num_area":"44.728300000000000000000000000000","ind_status":"AT"},"geometry":{"type":"Polygon","coordinates":[[[-43.4965,-22.5487],[-43.4928,-22.5509],[-43.4967,-22.549],[-43.4965,-22.5487]],[[-43.4953,-22.5393],[-43.491,-22.5443],[-43.4955,-22.5391],[-43.4953,-22.5393]],[[-43.4871,-22.5477],[-43.4884,-22.5448],[-43.4869,-22.5477],[-43.4871,-22.5477]],[[-43.4889,-22.5475],[-43.4935,-22.5469],[-43.4884,-22.5443],[-43.4889,-22.5474],[-43.4889,-22.5475]]]}},{"type":"Feature","properties":{"cod_imovel":"RJ-3302908-4D92FD8DDB94437DBA85630792F5128C","num_area":"51.733800000000000000000000000000","ind_status":"AT"},"geometry":{"type":"Polygon","coordinates":[[[-43.6491,-22.6167],[-43.6528,-22.6161],[-43.6492,-22.6166],[-43.6491,-22.6167]],[[-43.6532,-22.619],[-43.6562,-22.6203],[-43.6532,-22.619],[-43.6532,-22.619]],[[-43.6515,-22.6171],[-43.655,-22.6171],[-43.6515,-22.6171],[-43.6515,-22.6171]],[[-43.6324,-22.6086],[-43.6377,-22.606],[-43.6324,-22.6085],[-43.6324,-22.6086]],[[-43.6305,-22.6009],[-43.6327,-22.6055],[-43.6305,-22.6009],[-43.6305,-22.6009]]]}},{"type":"Feature","properties":{"cod_imovel":"RJ-3302908-A1EC30C7DC984F27B2C8B39A23D5BAAA","num_area":"21.142400000000000000000000000000","ind_status":"AT"},"geometry":{"type":"Polygon","coordinates":[[[-43.5049,-22.4555],[-43.51,-22.4519],[-43.504,-22.4546],[-43.5049,-22.4555]],[[-43.5066,-22.4503],[-43.5034,-22.4523],[-43.5064,-22.4505],[-43.5066,-22.4503]]]}},{"type":"Feature","properties":{"cod_imovel":"RJ-3302908-EC8CF445B97F4DE6AC5E5C097AFEE0BD","num_area":"55.849200000000000000000000000000","ind_status":"AT"},"geometry":{"type":"Polygon","coordinates":[[[-43.5473,-22.5268],[-43.5444,-22.5248],[-43.5469,-22.5266],[-43.5473,-22.5268]],[[-43.5436,-22.5204],[-43.5406,-22.5173],[-43.5434,-22.52],[-43.5436,-22.5204]],[[-43.5407,-22.5181],[-43.5432,-22.5201],[-43.5406,-22.5179],[-43.5407,-22.5181]],[[-43.5437,-22.525],[-43.5482,-22.5275],[-43.5441,-22.525],[-43.5437,-22.525]],[[-43.5342,-22.5286],[-43.5407,-22.5305],[-43.5342,-22.5285],[-43.5342,-22.5286]],[[-43.5408,-22.5303],[-43.5471,-22.5289],[-43.5408,-22.5302],[-43.5408,-22.5303]],[[-43.5469,-22.5288],[-43.5359,-22.5238],[-43.5335,-22.5264],[-43.5465,-22.5291],[-43.5469,-22.5288]]]}},{"type":"Feature","properties":{"cod_imovel":"RJ-3302908-AB48C39F496346C3B80443024183E44D","num_area":"9.1826000000000000000000000000000","ind_status":"AT"},"geometry":{"type":"Polygon","coordinates":[[[-43.3403,-22.4548],[-43.3363,-22.455],[-43.3384,-22.458],[-43.3402,-22.4549],[-43.3403,-22.4548]]]}},{"type":"Feature","properties":{"cod_imovel":"RJ-3302908-DDEB2F9AB50F42528C37E49DB8E5EA37","num_area":"19.814100000000000000000000000000","ind_status":"AT"},"geometry":{"type":"Polygon","coordinates":[[[-43.4636,-22.4994],[-43.4626,-22.5023],[-43.4659,-22.5002],[-43.4636,-22.4994]],[[-43.4593,-22.5068],[-43.463,-22.5061],[-43.4598,-22.5069],[-43.4593,-22.5068]],[[-43.4614,-22.5067],[-43.4599,-22.51],[-43.4616,-22.5067],[-43.4614,-22.5067]],[[-43.4689,-22.5124],[-43.4704,-22.5088],[-43.4689,-22.5124],[-43.4689,-22.5124]],[[-43.4705,-22.5083],[-43.4658,-22.5113],[-43.4705,-22.5084],[-43.4705,-22.5083]]]}},{"type":"Feature","properties":{"cod_imovel":"RJ-3302908-AE983FB03BAE42A9B32833247D8CCD4D","num_area":"111.98890000000000000000000000000","ind_status":"AT"},"geometry":{"type":"Polygon","coordinates":[[[-43.4576,-22.5094],[-43.4546,-22.5106],[-43.4579,-22.5095],[-43.4576,-22.5094]],[[-43.4471,-22.5142],[-43.4503,-22.5124],[-43.447,-22.514],[-43.4471,-22.5142]],[[-43.4338,-22.5198],[-43.4403,-22.5251],[-43.4605,-22.5165],[-43.434,-22.5196],[-43.4338,-22.5198]],[[-43.4443,-22.5205],[-43.437,-22.5181],[-43.4443,-22.5205],[-43.4443,-22.5205]],[[-43.4523,-22.5164],[-43.4479,-22.5176],[-43.4522,-22.5165],[-43.4523,-22.5164]]]}},{"type":"Feature","properties":{"cod_imovel":"RJ-3302908-B9D5B7DBE4554B5DADE3377278C8E2DF","num_area":"5.3894000000000000000000000000000","ind_status":"AT"},"geometry":{"type":"Polygon","coordinates":[[[-43.4756,-22.4802],[-43.4786,-22.4806],[-43.4755,-22.4798],[-43.4756,-22.4802]]]}},{"type":"Feature","properties":{"cod_imovel":"RJ-3302908-6910EF76A0AE4B8C97E476BB189C8A8D","num_area":"7.1146000000000000000000000000000","ind_status":"AT"},"geometry":{"type":"Polygon","coordinates":[[[-43.3882,-22.483],[-43.385,-22.4828],[-43.388,-22.4831],[-43.3882,-22.483]]]}},{"type":"Feature","properties":{"cod_imovel":"RJ-3302908-0780FB4B7EB344DCB2D77B8EF4DAA4FF","num_area":"90.485400000000000000000000000000","ind_status":"AT"},"geometry":{"type":"Polygon","coordinates":[[[-43.3786,-22.482],[-43.3703,-22.479],[-43.3607,-22.4866],[-43.3781,-22.4828],[-43.3786,-22.482]],[[-43.3605,-22.4737],[-43.36,-22.4804],[-43.3611,-22.4737],[-43.3605,-22.4737]]]}},{"type":"Feature","properties":{"cod_imovel":"RJ-3302908-F6F2AE0978304C3A96A5C1B22F955827","num_area":"26.917300000000000000000000000000","ind_status":"AT"},"geometry":{"type":"Polygon","coordinates":[[[-43.3695,-22.4871],[-43.3771,-22.484],[-43.3695,-22.487],[-43.3695,-22.4871]]]}},{"type":"Feature","properties":{"cod_imovel":"RJ-3302908-0118480877B54407A292D6732D1DD351","num_area":"34.810100000000000000000000000000","ind_status":"AT"},"geometry":{"type":"Polygon","coordinates":[[[-43.5205,-22.4487],[-43.5117,-22.4515],[-43.5181,-22.4558],[-43.5162,-22.4516],[-43.5221,-22.45],[-43.5205,-22.4487]],[[-43.5202,-22.4569],[-43.5242,-22.4566],[-43.5206,-22.4559],[-43.5202,-22.4569]]]}},{"type":"Feature","properties":{"cod_imovel":"RJ-3302908-598DF49A185F4168B227F0E6418E68A4","num_area":"18.658500000000000000000000000000","ind_status":"AT"},"geometry":{"type":"Polygon","coordinates":[[[-43.4693,-22.5398],[-43.4736,-22.5334],[-43.4691,-22.5397],[-43.4693,-22.5398]]]}},{"type":"Feature","properties":{"cod_imovel":"RJ-3302908-C644FEABE44D4A37A8EE19B1F163C1C2","num_area":"93.044400000000000000000000000000","ind_status":"AT"},"geometry":{"type":"Polygon","coordinates":[[[-43.5892,-22.5219],[-43.5826,-22.5244],[-43.588,-22.5219],[-43.5892,-22.5219]],[[-43.5847,-22.526],[-43.5784,-22.5329],[-43.5849,-22.5263],[-43.5847,-22.526]],[[-43.5866,-22.539],[-43.5892,-22.5311],[-43.5866,-22.539],[-43.5866,-22.539]],[[-43.5889,-22.53],[-43.5803,-22.5364],[-43.5889,-22.53],[-43.5889,-22.53]],[[-43.5905,-22.5274],[-43.5881,-22.5241],[-43.5806,-22.5362],[-43.5905,-22.5274],[-43.5905,-22.5274]]]}},{"type":"Feature","properties":{"cod_imovel":"RJ-3302908-90EA4A0BAC8F496280DE962D89E549B4","num_area":"37.552700000000000000000000000000","ind_status":"AT"},"geometry":{"type":"Polygon","coordinates":[[[-43.5249,-22.4653],[-43.5195,-22.464],[-43.5246,-22.4656],[-43.5249,-22.4653]],[[-43.5207,-22.4621],[-43.5171,-22.4594],[-43.5143,-22.4637],[-43.521,-22.4623],[-43.5207,-22.4621]],[[-43.5121,-22.4683],[-43.5156,-22.4657],[-43.5122,-22.4682],[-43.5121,-22.4683]],[[-43.5138,-22.4685],[-43.5225,-22.4676],[-43.5139,-22.4685],[-43.5138,-22.4685]]]}},{"type":"Feature","properties":{"cod_imovel":"RJ-3302908-967F9810BF60449AAA816AB5E6B1A7FB","num_area":"772.95780000000000000000000000000","ind_status":"AT"},"geometry":{"type":"Polygon","coordinates":[[[-43.3569,-22.4889],[-43.348,-22.4897],[-43.3452,-22.4954],[-43.348,-22.4897],[-43.3432,-22.4901],[-43.3469,-22.4909],[-43.3454,-22.4983],[-43.3545,-22.5002],[-43.3478,-22.5011],[-43.3494,-22.5053],[-43.3473,-22.4998],[-43.3386,-22.5023],[-43.3439,-22.4959],[-43.3397,-22.4906],[-43.339,-22.4951],[-43.3324,-22.4903],[-43.3247,-22.5027],[-43.3519,-22.5177],[-43.3591,-22.5064],[-43.3552,-22.5043],[-43.3591,-22.4955],[-43.3528,-22.4967],[-43.3561,-22.4892],[-43.3569,-22.4889]],[[-43.3346,-22.4921],[-43.3362,-22.4963],[-43.3318,-22.4948],[-43.3342,-22.4922],[-43.3346,-22.4921]],[[-43.3593,-22.4856],[-43.3498,-22.489],[-43.3553,-22.4858],[-43.3409,-22.4796],[-43.3325,-22.4902],[-43.3484,-22.4894],[-43.3356,-22.4861],[-43.3442,-22.4852],[-43.3399,-22.4824],[-43.3474,-22.4885],[-43.3401,-22.4808],[-43.3485,-22.4894],[-43.3685,-22.4866],[-43.3598,-22.4857],[-43.3593,-22.4856]],[[-43.3592,-22.4904],[-43.3548,-22.4937],[-43.3591,-22.4954],[-43.3588,-22.4918],[-43.3592,-22.4904]],[[-43.3598,-22.4826],[-43.3551,-22.4835],[-43.3601,-22.4829],[-43.3598,-22.4826]],[[-43.3578,-22.4884],[-43.3671,-22.487],[-43.3578,-22.4884],[-43.3578,-22.4884]],[[-43.3637,-22.4929],[-43.3672,-22.4931],[-43.3638,-22.4928],[-43.3637,-22.4929]]]}},{"type":"Feature","properties":{"cod_imovel":"RJ-3302908-4C629866D17245A3A0640EE2CFAD8728","num_area":"21.170000000000000000000000000000","ind_status":"AT"},"geometry":{"type":"Polygon","coordinates":[[[-43.4499,-22.4868],[-43.4543,-22.4867],[-43.4499,-22.4868],[-43.4499,-22.4868]],[[-43.4527,-22.4788],[-43.4534,-22.4818],[-43.4534,-22.4786],[-43.4527,-22.4788]],[[-43.4549,-22.4803],[-43.4579,-22.4786],[-43.4551,-22.4801],[-43.4549,-22.4803]],[[-43.458,-22.4785],[-43.4535,-22.4786],[-43.458,-22.4785],[-43.458,-22.4785]]]}},{"type":"Feature","properties":{"cod_imovel":"RJ-3302908-77DB011EB2644ECEB4EDF79C38388E15","num_area":"4.3433000000000000000000000000000","ind_status":"AT"},"geometry":{"type":"Polygon","coordinates":[[[-43.3716,-22.4866],[-43.3762,-22.4848],[-43.3715,-22.4865],[-43.3716,-22.4866]]]}},{"type":"Feature","properties":{"cod_imovel":"RJ-3302908-222501A543AA44B787DF15F0938FF9CD","num_area":"3.9735000000000000000000000000000","ind_status":"AT"},"geometry":{"type":"Polygon","coordinates":[[[-43.4239,-22.4827],[-43.4239,-22.4791],[-43.4238,-22.4827],[-43.4239,-22.4827]]]}},{"type":"Feature","properties":{"cod_imovel":"RJ-3302908-CC97664E27564CBD8ED30A4AEB243404","num_area":"37.087000000000000000000000000000","ind_status":"AT"},"geometry":{"type":"Polygon","coordinates":[[[-43.445,-22.4624],[-43.4412,-22.4638],[-43.4444,-22.4647],[-43.445,-22.4624]],[[-43.4336,-22.4637],[-43.4357,-22.468],[-43.4357,-22.4635],[-43.4336,-22.4637]],[[-43.4324,-22.4638],[-43.4322,-22.4671],[-43.4325,-22.464],[-43.4324,-22.4638]],[[-43.443,-22.4711],[-43.4401,-22.4732],[-43.4428,-22.4717],[-43.443,-22.4711]],[[-43.4472,-22.4692],[-43.4436,-22.4708],[-43.4478,-22.4706],[-43.4472,-22.4692]]]}},{"type":"Feature","properties":{"cod_imovel":"RJ-3302908-44736274711B483494EB265BD94E1385","num_area":"40.015800000000000000000000000000","ind_status":"AT"},"geometry":{"type":"Polygon","coordinates":[[[-43.5145,-22.4482],[-43.5064,-22.4421],[-43.5039,-22.445],[-43.5136,-22.4485],[-43.5145,-22.4482]]]}},{"type":"Feature","properties":{"cod_imovel":"RJ-3302908-5C07BC2AF75C4435A3865C0823FFFDD0","num_area":"16.658500000000000000000000000000","ind_status":"AT"},"geometry":{"type":"Polygon","coordinates":[[[-43.3269,-22.4651],[-43.3218,-22.4622],[-43.3272,-22.4654],[-43.3269,-22.4651]]]}},{"type":"Feature","properties":{"cod_imovel":"RJ-3302908-AFEE69666519431981A07532ED424E01","num_area":"15.298700000000000000000000000000","ind_status":"AT"},"geometry":{"type":"Polygon","coordinates":[[[-43.3481,-22.4597],[-43.3515,-22.4552],[-43.3478,-22.4597],[-43.3481,-22.4597]]]}},{"type":"Feature","properties":{"cod_imovel":"RJ-3302908-D6F59CAA3C344C7CAD2CA02E9233F59B","num_area":"7.8511000000000000000000000000000","ind_status":"AT"},"geometry":{"type":"Polygon","coordinates":[[[-43.5094,-22.482],[-43.5133,-22.4819],[-43.5093,-22.4819],[-43.5094,-22.482]]]}},{"type":"Feature","properties":{"cod_imovel":"RJ-3302908-7C6DF986F7764DA9B4C9AD115577324A","num_area":"8.1352000000000000000000000000000","ind_status":"AT"},"geometry":{"type":"Polygon","coordinates":[[[-43.3039,-22.4636],[-43.3004,-22.4636],[-43.3022,-22.4672],[-43.3039,-22.4636],[-43.3039,-22.4636]]]}},{"type":"Feature","properties":{"cod_imovel":"RJ-3302908-D9F43BD64F674FA49E2163B94F731301","num_area":"9.4931000000000000000000000000000","ind_status":"AT"},"geometry":{"type":"Polygon","coordinates":[[[-43.3615,-22.448],[-43.3631,-22.4516],[-43.3619,-22.4483],[-43.3615,-22.448]]]}},{"type":"Feature","properties":{"cod_imovel":"RJ-3302908-306B5E4F44404ABDB117574D72D2A5B8","num_area":"26.273800000000000000000000000000","ind_status":"AT"},"geometry":{"type":"Polygon","coordinates":[[[-43.5553,-22.5433],[-43.5538,-22.5396],[-43.5551,-22.5432],[-43.5553,-22.5433]],[[-43.5567,-22.5415],[-43.556,-22.5328],[-43.5511,-22.5334],[-43.556,-22.5409],[-43.5567,-22.5415]],[[-43.5564,-22.5393],[-43.5549,-22.5339],[-43.5564,-22.5393],[-43.5564,-22.5393]],[[-43.5512,-22.5332],[-43.5559,-22.5326],[-43.5512,-22.5332],[-43.5512,-22.5332]]]}},{"type":"Feature","properties":{"cod_imovel":"RJ-3302908-910956C2B0824EEAA027A61D55797B9A","num_area":"37.507200000000000000000000000000","ind_status":"AT"},"geometry":{"type":"Polygon","coordinates":[[[-43.4705,-22.468],[-43.4689,-22.4763],[-43.4757,-22.4685],[-43.4706,-22.4679],[-43.4705,-22.468]]]}},{"type":"Feature","properties":{"cod_imovel":"RJ-3302908-6A9C52CC44754914BF5D76C1E109C598","num_area":"5.9462000000000000000000000000000","ind_status":"AT"},"geometry":{"type":"Polygon","coordinates":[[[-43.4525,-22.4761],[-43.4547,-22.4791],[-43.4527,-22.4764],[-43.4525,-22.4761]]]}},{"type":"Feature","properties":{"cod_imovel":"RJ-3302908-D5B6228BD6044C08BEFF5E0F06B2CD5A","num_area":"65.420700000000000000000000000000","ind_status":"AT"},"geometry":{"type":"Polygon","coordinates":[[[-43.5399,-22.477],[-43.5367,-22.4723],[-43.5275,-22.4784],[-43.5347,-22.4774],[-43.5325,-22.4826],[-43.5407,-22.478],[-43.5399,-22.477]]]}},{"type":"Feature","properties":{"cod_imovel":"RJ-3302908-A4C30D9941694351A6922B849683D068","num_area":"20.845200000000000000000000000000","ind_status":"AT"},"geometry":{"type":"Polygon","coordinates":[[[-43.4652,-22.4297],[-43.4586,-22.4281],[-43.465,-22.4297],[-43.4652,-22.4297]]]}},{"type":"Feature","properties":{"cod_imovel":"RJ-3302908-A76DDEAA9BE146E091BCD8A08C606889","num_area":"92.266300000000000000000000000000","ind_status":"AT"},"geometry":{"type":"Polygon","coordinates":[[[-43.3477,-22.4744],[-43.3464,-22.4783],[-43.3509,-22.4796],[-43.3553,-22.4745],[-43.3498,-22.4769],[-43.3538,-22.4717],[-43.3495,-22.4724],[-43.35,-22.4686],[-43.3479,-22.4736],[-43.3477,-22.4744]],[[-43.347,-22.4799],[-43.3512,-22.4816],[-43.3471,-22.4796],[-43.347,-22.4799]],[[-43.3512,-22.4816],[-43.3558,-22.4838],[-43.3541,-22.4757],[-43.3573,-22.4753],[-43.3511,-22.4807],[-43.3512,-22.4816]],[[-43.3569,-22.4757],[-43.3604,-22.4751],[-43.357,-22.4756],[-43.3569,-22.4757]],[[-43.3595,-22.4747],[-43.354,-22.4733],[-43.3592,-22.4747],[-43.3595,-22.4747]]]}},{"type":"Feature","properties":{"cod_imovel":"RJ-3302908-1ADF895C1E2A446E992796FFD17ED3EF","num_area":"21.644400000000000000000000000000","ind_status":"AT"},"geometry":{"type":"Polygon","coordinates":[[[-43.5114,-22.4591],[-43.5121,-22.4628],[-43.5115,-22.4591],[-43.5114,-22.4591]],[[-43.5131,-22.4624],[-43.5148,-22.4594],[-43.5131,-22.4624],[-43.5131,-22.4624]],[[-43.5139,-22.4591],[-43.5105,-22.4672],[-43.5169,-22.4614],[-43.5139,-22.4591],[-43.5139,-22.4591]]]}},{"type":"Feature","properties":{"cod_imovel":"RJ-3302908-2EB81FCBBE994018A9F15A371A65FD78","num_area":"48.599000000000000000000000000000","ind_status":"AT"},"geometry":{"type":"Polygon","coordinates":[[[-43.542,-22.4544],[-43.5376,-22.4554],[-43.5424,-22.4571],[-43.542,-22.4544]],[[-43.5344,-22.4579],[-43.5357,-22.4637],[-43.5392,-22.4594],[-43.5344,-22.4579],[-43.5344,-22.4579]],[[-43.5357,-22.4638],[-43.5429,-22.4627],[-43.5427,-22.4591],[-43.5357,-22.4638],[-43.5357,-22.4638]]]}},{"type":"Feature","properties":{"cod_imovel":"RJ-3302908-6800D222BA794BC392248ED4176D6D23","num_area":"8.2173000000000000000000000000000","ind_status":"AT"},"geometry":{"type":"Polygon","coordinates":[[[-43.5325,-22.4616],[-43.5363,-22.465],[-43.5329,-22.4612],[-43.5325,-22.4616]]]}},{"type":"Feature","properties":{"cod_imovel":"RJ-3302908-3B1363BFD9E442CBB80716B5018FEDB5","num_area":"3.6695000000000000000000000000000","ind_status":"AT"},"geometry":{"type":"Polygon","coordinates":[[[-43.4561,-22.4499],[-43.455,-22.4543],[-43.4561,-22.4499],[-43.4561,-22.4499]]]}},{"type":"Feature","properties":{"cod_imovel":"RJ-3302908-3A53166E27A94F16A7880099805298F9","num_area":"24.867900000000000000000000000000","ind_status":"AT"},"geometry":{"type":"Polygon","coordinates":[[[-43.4677,-22.463],[-43.4586,-22.4725],[-43.4642,-22.4734],[-43.4678,-22.4631],[-43.4677,-22.463]],[[-43.4633,-22.4725],[-43.467,-22.4628],[-43.4634,-22.4723],[-43.4633,-22.4725]]]}},{"type":"Feature","properties":{"cod_imovel":"RJ-3302908-95C8CE12A86044EDA981F0957D920093","num_area":"5.2761000000000000000000000000000","ind_status":"AT"},"geometry":{"type":"Polygon","coordinates":[[[-43.4817,-22.4931],[-43.4772,-22.4901],[-43.4816,-22.4931],[-43.4817,-22.4931]]]}},{"type":"Feature","properties":{"cod_imovel":"RJ-3302908-8115DEDADD8F452DBFFCC4314818D7D4","num_area":"84.449800000000000000000000000000","ind_status":"AT"},"geometry":{"type":"Polygon","coordinates":[[[-43.5791,-22.5559],[-43.5981,-22.5613],[-43.5847,-22.5533],[-43.5776,-22.552],[-43.575,-22.5572],[-43.5776,-22.5554],[-43.5791,-22.5559]],[[-43.5807,-22.5582],[-43.5742,-22.5604],[-43.576,-22.5633],[-43.5814,-22.5586],[-43.5807,-22.5582]],[[-43.576,-22.5633],[-43.5814,-22.5587],[-43.5762,-22.5631],[-43.576,-22.5633]]]}},{"type":"Feature","properties":{"cod_imovel":"RJ-3302908-4310FBC3FE8648FC8E87336221083738","num_area":"20.365900000000000000000000000000","ind_status":"AT"},"geometry":{"type":"Polygon","coordinates":[[[-43.3047,-22.4809],[-43.3102,-22.4818],[-43.3077,-22.476],[-43.3047,-22.4809]]]}},{"type":"Feature","properties":{"cod_imovel":"RJ-3302908-7DF5C1DC429746C0BB04AB1D0C89D0C9","num_area":"37.391100000000000000000000000000","ind_status":"AT"},"geometry":{"type":"Polygon","coordinates":[[[-43.529,-22.471],[-43.5337,-22.469],[-43.529,-22.471],[-43.529,-22.471]],[[-43.5346,-22.4648],[-43.5318,-22.4605],[-43.5235,-22.4625],[-43.5354,-22.4659],[-43.5346,-22.4648]]]}},{"type":"Feature","properties":{"cod_imovel":"RJ-3302908-D635754DCD6A436F88BA742C87DBC587","num_area":"28.476300000000000000000000000000","ind_status":"AT"},"geometry":{"type":"Polygon","coordinates":[[[-43.4464,-22.461],[-43.4468,-22.4557],[-43.442,-22.4572],[-43.4461,-22.4607],[-43.4464,-22.461]],[[-43.4496,-22.4563],[-43.4534,-22.4517],[-43.447,-22.4555],[-43.4499,-22.4573],[-43.4496,-22.4563]]]}},{"type":"Feature","properties":{"cod_imovel":"RJ-3302908-758EC0E54F564CE79AE6812C3B231926","num_area":"34.201500000000000000000000000000","ind_status":"AT"},"geometry":{"type":"Polygon","coordinates":[[[-43.4881,-22.5229],[-43.4922,-22.5227],[-43.4888,-22.5226],[-43.4881,-22.5229]],[[-43.4953,-22.5295],[-43.4886,-22.5241],[-43.4951,-22.5295],[-43.4953,-22.5295]]]}},{"type":"Feature","properties":{"cod_imovel":"RJ-3302908-E9477215C3CD42D0BBE4B40EFB911A50","num_area":"26.242000000000000000000000000000","ind_status":"AT"},"geometry":{"type":"Polygon","coordinates":[[[-43.5368,-22.4615],[-43.5379,-22.4671],[-43.5429,-22.4627],[-43.5368,-22.4615]]]}},{"type":"Feature","properties":{"cod_imovel":"RJ-3302908-39E3EC12EC2F4EB5A5E0A85989EBFA38","num_area":"21.119100000000000000000000000000","ind_status":"AT"},"geometry":{"type":"Polygon","coordinates":[[[-43.3078,-22.466],[-43.3051,-22.4644],[-43.3054,-22.4706],[-43.3078,-22.466]]]}},{"type":"Feature","properties":{"cod_imovel":"RJ-3302908-2E2532EF74FB432B8EA974447EB02181","num_area":"30.324800000000000000000000000000","ind_status":"AT"},"geometry":{"type":"Polygon","coordinates":[[[-43.4739,-22.439],[-43.4772,-22.4438],[-43.4815,-22.4405],[-43.4749,-22.4389],[-43.4739,-22.439]]]}},{"type":"Feature","properties":{"cod_imovel":"RJ-3302908-115AA7C84E5A4EA6AE305D44365D24EA","num_area":"7.4991000000000000000000000000000","ind_status":"AT"},"geometry":{"type":"Polygon","coordinates":[[[-43.4591,-22.5028],[-43.4533,-22.5031],[-43.4556,-22.5064],[-43.459,-22.5037],[-43.4591,-22.5028]]]}},{"type":"Feature","properties":{"cod_imovel":"RJ-3302908-C8756E68F5814244820BD52A1392FD34","num_area":"42.129200000000000000000000000000","ind_status":"AT"},"geometry":{"type":"Polygon","coordinates":[[[-43.529,-22.4709],[-43.5337,-22.469],[-43.5294,-22.4708],[-43.529,-22.4709]],[[-43.5346,-22.4651],[-43.5318,-22.46],[-43.5272,-22.4611],[-43.5344,-22.4652],[-43.5346,-22.4651]],[[-43.5285,-22.4637],[-43.5212,-22.4614],[-43.5282,-22.4639],[-43.5285,-22.4637]],[[-43.5245,-22.4633],[-43.5277,-22.4649],[-43.5249,-22.4636],[-43.5245,-22.4633]]]}},{"type":"Feature","properties":{"cod_imovel":"RJ-3302908-BCE31543CBB54036A0FAFE592EA16941","num_area":"5.8875000000000000000000000000000","ind_status":"AT"},"geometry":{"type":"Polygon","coordinates":[[[-43.4991,-22.431],[-43.4951,-22.4293],[-43.499,-22.431],[-43.4991,-22.431]],[[-43.4993,-22.4306],[-43.4952,-22.4291],[-43.4988,-22.4305],[-43.4993,-22.4306]]]}},{"type":"Feature","properties":{"cod_imovel":"RJ-3302908-5024F9D26B9B45FA844B132B5EA78BCF","num_area":"9.2856000000000000000000000000000","ind_status":"AT"},"geometry":{"type":"Polygon","coordinates":[[[-43.3846,-22.4699],[-43.387,-22.4761],[-43.3846,-22.4699],[-43.3846,-22.4699]]]}},{"type":"Feature","properties":{"cod_imovel":"RJ-3302908-6EDC8E68BD8F47EBA009EDC74D9A20DA","num_area":"9.4818000000000000000000000000000","ind_status":"AT"},"geometry":{"type":"Polygon","coordinates":[[[-43.3807,-22.477],[-43.3863,-22.4763],[-43.3808,-22.477],[-43.3807,-22.477]]]}},{"type":"Feature","properties":{"cod_imovel":"RJ-3302908-D113ABDC23954B78B5C4E601BEACEE4A","num_area":"61.596400000000000000000000000000","ind_status":"AT"},"geometry":{"type":"Polygon","coordinates":[[[-43.4181,-22.5239],[-43.425,-22.5177],[-43.4143,-22.5152],[-43.4187,-22.5191],[-43.4121,-22.5191],[-43.4181,-22.5239]]]}},{"type":"Feature","properties":{"cod_imovel":"RJ-3302908-1BFE7D2C51184DB6AFB68FA7EED9BFDD","num_area":"5.3879000000000000000000000000000","ind_status":"AT"},"geometry":{"type":"Polygon","coordinates":[[[-43.4631,-22.474],[-43.459,-22.4737],[-43.4629,-22.474],[-43.4631,-22.474]]]}},{"type":"Feature","properties":{"cod_imovel":"RJ-3302908-905287AFC6DD49858EF763AF591BDD20","num_area":"54.603100000000000000000000000000","ind_status":"PE"},"geometry":{"type":"Polygon","coordinates":[[[-43.3899,-22.4883],[-43.3917,-22.4911],[-43.3899,-22.4883],[-43.3899,-22.4883]],[[-43.3835,-22.4856],[-43.3833,-22.489],[-43.3835,-22.4856],[-43.3835,-22.4856]],[[-43.3831,-22.491],[-43.3861,-22.4923],[-43.383,-22.4909],[-43.3831,-22.491]],[[-43.3802,-22.4961],[-43.3903,-22.5005],[-43.3934,-22.4938],[-43.3851,-22.4913],[-43.3908,-22.497],[-43.3836,-22.495],[-43.3896,-22.4996],[-43.3802,-22.4961],[-43.3802,-22.4961]]]}},{"type":"Feature","properties":{"cod_imovel":"RJ-3302908-FEF55A09B9404E0B893CE2121A36FF9F","num_area":"25.181500000000000000000000000000","ind_status":"AT"},"geometry":{"type":"Polygon","coordinates":[[[-43.4465,-22.4622],[-43.4551,-22.4517],[-43.4466,-22.4621],[-43.4465,-22.4622]]]}},{"type":"Feature","properties":{"cod_imovel":"RJ-3302908-088CE217982444D384EE78411EFCA242","num_area":"8.8400000000000000000000000000000","ind_status":"AT"},"geometry":{"type":"Polygon","coordinates":[[[-43.4967,-22.4547],[-43.5018,-22.4498],[-43.4969,-22.4546],[-43.4967,-22.4547]],[[-43.4978,-22.4557],[-43.4995,-22.4511],[-43.4978,-22.4557],[-43.4978,-22.4557]]]}},{"type":"Feature","properties":{"cod_imovel":"RJ-3302908-1A1F1258581A4EDA9E23781472004D7B","num_area":"20.307800000000000000000000000000","ind_status":"AT"},"geometry":{"type":"Polygon","coordinates":[[[-43.329,-22.4631],[-43.3256,-22.4631],[-43.3327,-22.4677],[-43.329,-22.4631]],[[-43.3347,-22.4699],[-43.3286,-22.4665],[-43.3341,-22.4701],[-43.3347,-22.4699]]]}},{"type":"Feature","properties":{"cod_imovel":"RJ-3302908-1B8BCB8EC68A4EE295EE0131E9AD728B","num_area":"12.547600000000000000000000000000","ind_status":"AT"},"geometry":{"type":"Polygon","coordinates":[[[-43.3795,-22.4704],[-43.383,-22.4675],[-43.3795,-22.4704],[-43.3795,-22.4704]]]}},{"type":"Feature","properties":{"cod_imovel":"RJ-3302908-2DAA0F95C54F45F4B9F76B46E65D915A","num_area":"4.5335000000000000000000000000000","ind_status":"AT"},"geometry":{"type":"Polygon","coordinates":[[[-43.4951,-22.4291],[-43.4958,-22.4254],[-43.495,-22.429],[-43.4951,-22.4291]]]}},{"type":"Feature","properties":{"cod_imovel":"RJ-3302908-63E145E0100840DAB3AD3A13CBAD6164","num_area":"12.661900000000000000000000000000","ind_status":"AT"},"geometry":{"type":"Polygon","coordinates":[[[-43.5974,-22.5523],[-43.595,-22.5498],[-43.5969,-22.5523],[-43.5974,-22.5523]],[[-43.6023,-22.552],[-43.6073,-22.551],[-43.602,-22.5517],[-43.6023,-22.552]]]}},{"type":"Feature","properties":{"cod_imovel":"RJ-3302908-014A9E0AE6D748CFA21B0CF43F643E53","num_area":"5.2092000000000000000000000000000","ind_status":"AT"},"geometry":{"type":"Polygon","coordinates":[[[-43.4881,-22.4646],[-43.4846,-22.4646],[-43.4879,-22.4647],[-43.4881,-22.4646]]]}},{"type":"Feature","properties":{"cod_imovel":"RJ-3302908-FE114A82013A49E0821C403A012C48F0","num_area":"9.8559000000000000000000000000000","ind_status":"AT"},"geometry":{"type":"Polygon","coordinates":[[[-43.3262,-22.4729],[-43.3289,-22.4716],[-43.3261,-22.4726],[-43.3262,-22.4729]],[[-43.3218,-22.4638],[-43.3269,-22.4691],[-43.3219,-22.4636],[-43.3218,-22.4638]]]}},{"type":"Feature","properties":{"cod_imovel":"RJ-3302908-38E2D21405A14807B3D49BE651E35AA2","num_area":"11.427100000000000000000000000000","ind_status":"AT"},"geometry":{"type":"Polygon","coordinates":[[[-43.3641,-22.4618],[-43.3636,-22.465],[-43.3676,-22.462],[-43.3641,-22.4616],[-43.3641,-22.4618]]]}},{"type":"Feature","properties":{"cod_imovel":"RJ-3302908-52E4D164EB0B46789480A3995ACB35F7","num_area":"80.309100000000000000000000000000","ind_status":"AT"},"geometry":{"type":"Polygon","coordinates":[[[-43.5056,-22.4435],[-43.5002,-22.4382],[-43.5035,-22.4448],[-43.4951,-22.4451],[-43.4933,-22.4393],[-43.4928,-22.4484],[-43.5025,-22.4475],[-43.5056,-22.4435]]]}},{"type":"Feature","properties":{"cod_imovel":"RJ-3302908-B0B009C0C1A648A9BF87B959755AFE30","num_area":"7.5110000000000000000000000000000","ind_status":"AT"},"geometry":{"type":"Polygon","coordinates":[[[-43.518,-22.4725],[-43.5209,-22.4709],[-43.5179,-22.4723],[-43.518,-22.4725]],[[-43.5217,-22.4704],[-43.5159,-22.4712],[-43.5211,-22.4704],[-43.5217,-22.4704]]]}},{"type":"Feature","properties":{"cod_imovel":"RJ-3302908-A06B06CE05EE48CCAD0FE7A1D4F56E0C","num_area":"75.310600000000000000000000000000","ind_status":"AT"},"geometry":{"type":"Polygon","coordinates":[[[-43.4154,-22.4756],[-43.408,-22.4708],[-43.4011,-22.4783],[-43.4122,-22.48],[-43.4154,-22.4756]]]}},{"type":"Feature","properties":{"cod_imovel":"RJ-3302908-E75ADA14AB6D49BE8E8E71B3E8DF42AA","num_area":"4.1633000000000000000000000000000","ind_status":"AT"},"geometry":{"type":"Polygon","coordinates":[[[-43.4826,-22.4906],[-43.4813,-22.4877],[-43.4826,-22.4906],[-43.4826,-22.4906]]]}},{"type":"Feature","properties":{"cod_imovel":"RJ-3302908-F5F0196F44E644C2A10A4642E00039AF","num_area":"4.0264000000000000000000000000000","ind_status":"AT"},"geometry":{"type":"Polygon","coordinates":[[[-43.4997,-22.4345],[-43.4979,-22.4312],[-43.4994,-22.4345],[-43.4997,-22.4345]]]}},{"type":"Feature","properties":{"cod_imovel":"RJ-3302908-32577CCF1B714D0EB5F6E8668CDA59E8","num_area":"9.2676000000000000000000000000000","ind_status":"AT"},"geometry":{"type":"Polygon","coordinates":[[[-43.4947,-22.447],[-43.4988,-22.4508],[-43.4947,-22.447],[-43.4947,-22.447]],[[-43.4989,-22.4508],[-43.4948,-22.447],[-43.4988,-22.4508],[-43.4989,-22.4508]]]}},{"type":"Feature","properties":{"cod_imovel":"RJ-3302908-3D29659B9DB5436F9212BF37B4E0D57D","num_area":"5.2926000000000000000000000000000","ind_status":"AT"},"geometry":{"type":"Polygon","coordinates":[[[-43.4188,-22.4805],[-43.4208,-22.4835],[-43.4188,-22.4805],[-43.4188,-22.4805]]]}},{"type":"Feature","properties":{"cod_imovel":"RJ-3302908-3F3EA2C5C6484351A2E3ACA1CEC1837F","num_area":"6.6999000000000000000000000000000","ind_status":"AT"},"geometry":{"type":"Polygon","coordinates":[[[-43.504,-22.4705],[-43.4973,-22.4721],[-43.504,-22.4705],[-43.504,-22.4705]]]}},{"type":"Feature","properties":{"cod_imovel":"RJ-3302908-6295F88B6446491CBC2A6D90EE71ABA3","num_area":"18.042400000000000000000000000000","ind_status":"AT"},"geometry":{"type":"Polygon","coordinates":[[[-43.3483,-22.4544],[-43.3453,-22.4531],[-43.3443,-22.4596],[-43.3483,-22.4544]]]}},{"type":"Feature","properties":{"cod_imovel":"RJ-3302908-63CC16D318644E08A8DFC83A67FB8AC0","num_area":"6.4630000000000000000000000000000","ind_status":"AT"},"geometry":{"type":"Polygon","coordinates":[[[-43.3829,-22.4652],[-43.3821,-22.4686],[-43.3834,-22.4653],[-43.3829,-22.4652]]]}},{"type":"Feature","properties":{"cod_imovel":"RJ-3302908-6D1763C9A0E3463294E1031D552F7E53","num_area":"19.824300000000000000000000000000","ind_status":"AT"},"geometry":{"type":"Polygon","coordinates":[[[-43.486,-22.49],[-43.4831,-22.4939],[-43.4861,-22.4901],[-43.486,-22.49]],[[-43.4862,-22.4932],[-43.4877,-22.4878],[-43.4862,-22.4932],[-43.4862,-22.4932]]]}},{"type":"Feature","properties":{"cod_imovel":"RJ-3302908-829532E743DF4DD98590184F5EE2325D","num_area":"20.809300000000000000000000000000","ind_status":"AT"},"geometry":{"type":"Polygon","coordinates":[[[-43.3835,-22.4695],[-43.3832,-22.4741],[-43.3845,-22.47],[-43.3835,-22.4695]],[[-43.3811,-22.4706],[-43.3805,-22.4755],[-43.3811,-22.4707],[-43.3811,-22.4706]]]}},{"type":"Feature","properties":{"cod_imovel":"RJ-3302908-86C3907BA95E4CB6B161DAC63C2C09C6","num_area":"42.426900000000000000000000000000","ind_status":"AT"},"geometry":{"type":"Polygon","coordinates":[[[-43.5401,-22.4421],[-43.5371,-22.4383],[-43.5337,-22.4437],[-43.5388,-22.444],[-43.5401,-22.4421]],[[-43.5337,-22.4437],[-43.535,-22.4484],[-43.534,-22.4441],[-43.5337,-22.4437]]]}},{"type":"Feature","properties":{"cod_imovel":"RJ-3302908-87C9CF4BB8394B99A2FC170B75127D52","num_area":"63.393900000000000000000000000000","ind_status":"AT"},"geometry":{"type":"Polygon","coordinates":[[[-43.4604,-22.4636],[-43.4561,-22.464],[-43.4603,-22.4637],[-43.4604,-22.4636]],[[-43.4569,-22.4643],[-43.4483,-22.4679],[-43.457,-22.4727],[-43.4587,-22.4676],[-43.4532,-22.4674],[-43.4577,-22.4685],[-43.4603,-22.4642],[-43.4569,-22.4643],[-43.4569,-22.4643]],[[-43.457,-22.4726],[-43.4586,-22.4688],[-43.457,-22.4726],[-43.457,-22.4726]],[[-43.4584,-22.4721],[-43.4602,-22.4645],[-43.4584,-22.4721],[-43.4584,-22.4721]]]}},{"type":"Feature","properties":{"cod_imovel":"RJ-3302908-99CB7C51D4ED41BCBB26C72A14FC8DCB","num_area":"15.230600000000000000000000000000","ind_status":"AT"},"geometry":{"type":"Polygon","coordinates":[[[-43.4934,-22.4266],[-43.4941,-22.4231],[-43.4934,-22.4266],[-43.4934,-22.4266]]]}},{"type":"Feature","properties":{"cod_imovel":"RJ-3302908-9B459C65A9EA40DE9F1C149D50B54E64","num_area":"37.452200000000000000000000000000","ind_status":"AT"},"geometry":{"type":"Polygon","coordinates":[[[-43.3124,-22.4687],[-43.3186,-22.4714],[-43.3127,-22.4689],[-43.3124,-22.4687]],[[-43.3203,-22.4746],[-43.3186,-22.4712],[-43.3203,-22.4746],[-43.3203,-22.4746]],[[-43.3081,-22.468],[-43.3049,-22.4733],[-43.3081,-22.468],[-43.3081,-22.468]],[[-43.3072,-22.4736],[-43.3115,-22.4795],[-43.3142,-22.4772],[-43.3081,-22.4736],[-43.3072,-22.4736]]]}},{"type":"Feature","properties":{"cod_imovel":"RJ-3302908-9C2CAAA8AAD64D59B8E4A1DFEC7AF406","num_area":"11.645500000000000000000000000000","ind_status":"AT"},"geometry":{"type":"Polygon","coordinates":[[[-43.473,-22.5007],[-43.4691,-22.5008],[-43.473,-22.501],[-43.473,-22.5007]]]}},{"type":"Feature","properties":{"cod_imovel":"RJ-3302908-CD5752E33A9D40C3B19E07E523602072","num_area":"8.6618000000000000000000000000000","ind_status":"AT"},"geometry":{"type":"Polygon","coordinates":[[[-43.3846,-22.467],[-43.3821,-22.4687],[-43.3847,-22.4665],[-43.3846,-22.467]]]}},{"type":"Feature","properties":{"cod_imovel":"RJ-3302908-C8FFF4DE7FF24A988CB6ECDBBB6B4D2A","num_area":"170.98620000000000000000000000000","ind_status":"AT"},"geometry":{"type":"Polygon","coordinates":[[[-43.502,-22.5043],[-43.5052,-22.5056],[-43.5021,-22.5043],[-43.502,-22.5043]],[[-43.5056,-22.506],[-43.511,-22.5076],[-43.5057,-22.506],[-43.5056,-22.506]],[[-43.5093,-22.5056],[-43.5035,-22.5033],[-43.5093,-22.5056],[-43.5093,-22.5056]],[[-43.5038,-22.5027],[-43.5009,-22.5039],[-43.5101,-22.5067],[-43.5038,-22.5028],[-43.5038,-22.5027]],[[-43.5102,-22.5067],[-43.5143,-22.5106],[-43.5171,-22.5075],[-43.5134,-22.5026],[-43.5172,-22.5046],[-43.5039,-22.4976],[-43.5026,-22.502],[-43.5054,-22.4985],[-43.5038,-22.5027],[-43.5058,-22.4991],[-43.5064,-22.5037],[-43.5104,-22.5059],[-43.5108,-22.5012],[-43.5104,-22.5059],[-43.5154,-22.506],[-43.5102,-22.5067],[-43.5102,-22.5067]],[[-43.5034,-22.5105],[-43.5079,-22.5072],[-43.5035,-22.5103],[-43.5034,-22.5105]],[[-43.5051,-22.5125],[-43.5111,-22.5205],[-43.5137,-22.5105],[-43.5052,-22.5123],[-43.5051,-22.5125]]]}},{"type":"Feature","properties":{"cod_imovel":"RJ-3302908-D41CF750AD3249C58860DFD47199D041","num_area":"7.6328000000000000000000000000000","ind_status":"AT"},"geometry":{"type":"Polygon","coordinates":[[[-43.634,-22.6323],[-43.63,-22.6304],[-43.634,-22.6323],[-43.634,-22.6323]]]}}]}