{"type":"FeatureCollection","features":[{"type":"Feature","properties":{"cod_imovel":"RJ-3304508-A521CE8664FF41039AE80B60EEE7C708","num_area":"133.40880000000000000000000000000","ind_status":"PE"},"geometry":{"type":"Polygon","coordinates":[[[-43.5059,-22.1809],[-43.5102,-22.1778],[-43.507,-22.1761],[-43.5102,-22.1777],[-43.5049,-22.1737],[-43.5059,-22.1809],[-43.5059,-22.1809]],[[-43.5148,-22.178],[-43.5201,-22.1737],[-43.5258,-22.1761],[-43.5268,-22.1714],[-43.5124,-22.1757],[-43.5148,-22.178],[-43.5148,-22.178]],[[-43.5277,-22.1673],[-43.5242,-22.1634],[-43.5138,-22.1701],[-43.5277,-22.1672],[-43.5277,-22.1673]],[[-43.5094,-22.1738],[-43.5134,-22.174],[-43.5093,-22.1737],[-43.5094,-22.1738]],[[-43.5225,-22.1711],[-43.5172,-22.1719],[-43.5227,-22.1708],[-43.5225,-22.1711]],[[-43.5115,-22.1714],[-43.5116,-22.1642],[-43.5111,-22.1713],[-43.5115,-22.1714]],[[-43.5119,-22.171],[-43.5133,-22.1674],[-43.512,-22.1705],[-43.5119,-22.171]]]}},{"type":"Feature","properties":{"cod_imovel":"RJ-3304508-99E3E8BA056142C98D10064EE34B2E55","num_area":"4.9471000000000000000000000000000","ind_status":"AT"},"geometry":{"type":"Polygon","coordinates":[[[-43.4624,-22.1897],[-43.4621,-22.1929],[-43.4624,-22.1898],[-43.4624,-22.1897]]]}},{"type":"Feature","properties":{"cod_imovel":"RJ-3304508-10BCF13EA8E247D8B15879E6BEC52CF1","num_area":"16.061600000000000000000000000000","ind_status":"AT"},"geometry":{"type":"Polygon","coordinates":[[[-43.5244,-22.1309],[-43.5203,-22.1316],[-43.5244,-22.135],[-43.5257,-22.1316],[-43.5244,-22.1309]]]}},{"type":"Feature","properties":{"cod_imovel":"RJ-3304508-0CE055F2577E4FA8B0B906B6D1FA8D62","num_area":"2.8659000000000000000000000000000","ind_status":"AT"},"geometry":{"type":"Polygon","coordinates":[[[-43.507,-22.238],[-43.5102,-22.2391],[-43.5071,-22.238],[-43.507,-22.238]]]}},{"type":"Feature","properties":{"cod_imovel":"RJ-3304508-2CA04AB1447747C8B5D96EFFF46C0753","num_area":"71.238200000000000000000000000000","ind_status":"AT"},"geometry":{"type":"Polygon","coordinates":[[[-43.571,-22.264],[-43.5715,-22.269],[-43.5772,-22.2696],[-43.571,-22.2639],[-43.571,-22.264]],[[-43.5822,-22.2597],[-43.5777,-22.2609],[-43.5822,-22.2598],[-43.5822,-22.2597]],[[-43.5869,-22.2616],[-43.584,-22.2563],[-43.5853,-22.2662],[-43.5937,-22.2662],[-43.5873,-22.2662],[-43.5869,-22.2617],[-43.5869,-22.2616]]]}},{"type":"Feature","properties":{"cod_imovel":"RJ-3304508-EF668539834D481BB6FADABD1560C576","num_area":"209.40440000000000000000000000000","ind_status":"AT"},"geometry":{"type":"Polygon","coordinates":[[[-43.5327,-22.2145],[-43.528,-22.2145],[-43.5327,-22.2146],[-43.5327,-22.2145]],[[-43.5115,-22.2136],[-43.5134,-22.2159],[-43.5116,-22.2135],[-43.5115,-22.2136]],[[-43.5182,-22.2139],[-43.5123,-22.2105],[-43.5182,-22.214],[-43.5182,-22.2139]],[[-43.5168,-22.2199],[-43.5182,-22.214],[-43.5166,-22.2199],[-43.5168,-22.2199]],[[-43.4873,-22.21],[-43.4942,-22.2118],[-43.4892,-22.2089],[-43.4873,-22.21]],[[-43.4983,-22.2093],[-43.5001,-22.2128],[-43.4985,-22.2093],[-43.4983,-22.2093]],[[-43.5208,-22.2079],[-43.5215,-22.2116],[-43.5208,-22.2079],[-43.5208,-22.2079]],[[-43.5313,-22.2095],[-43.5214,-22.2148],[-43.5313,-22.2095],[-43.5313,-22.2095]],[[-43.4893,-22.2207],[-43.5042,-22.2257],[-43.5074,-22.2202],[-43.5027,-22.2231],[-43.5033,-22.215],[-43.5018,-22.2201],[-43.499,-22.2163],[-43.4894,-22.2207],[-43.4893,-22.2207]]]}},{"type":"Feature","properties":{"cod_imovel":"RJ-3304508-6039E64A0A8A4D889660940018164FE4","num_area":"89.695600000000000000000000000000","ind_status":"AT"},"geometry":{"type":"Polygon","coordinates":[[[-43.5037,-22.2336],[-43.5001,-22.2378],[-43.5067,-22.2348],[-43.5053,-22.2315],[-43.5037,-22.2336]],[[-43.5191,-22.2333],[-43.5156,-22.2264],[-43.5138,-22.2299],[-43.5067,-22.228],[-43.519,-22.2334],[-43.5191,-22.2333]]]}},{"type":"Feature","properties":{"cod_imovel":"RJ-3304508-46126528E12C4E209B4D76E4C338D490","num_area":"9.0176000000000000000000000000000","ind_status":"AT"},"geometry":{"type":"Polygon","coordinates":[[[-43.579,-22.277],[-43.5808,-22.2814],[-43.5794,-22.2773],[-43.579,-22.277]],[[-43.5851,-22.2807],[-43.5832,-22.2845],[-43.5851,-22.2808],[-43.5851,-22.2807]]]}},{"type":"Feature","properties":{"cod_imovel":"RJ-3304508-CFDBEB2A930745C09314BCCE141DD82C","num_area":"211.27560000000000000000000000000","ind_status":"AT"},"geometry":{"type":"Polygon","coordinates":[[[-43.4776,-22.2411],[-43.4799,-22.2478],[-43.4776,-22.2405],[-43.4776,-22.2411]],[[-43.4837,-22.2352],[-43.4908,-22.2228],[-43.4853,-22.2173],[-43.4896,-22.2174],[-43.4873,-22.21],[-43.4795,-22.2169],[-43.4824,-22.2238],[-43.4749,-22.2259],[-43.4777,-22.2324],[-43.4727,-22.2325],[-43.4721,-22.2273],[-43.4734,-22.2339],[-43.4836,-22.2352],[-43.4837,-22.2352]],[[-43.4826,-22.2186],[-43.4878,-22.2196],[-43.4882,-22.2253],[-43.4798,-22.2213],[-43.4825,-22.2186],[-43.4826,-22.2186]],[[-43.4786,-22.2261],[-43.4808,-22.2308],[-43.4784,-22.226],[-43.4786,-22.2261]]]}},{"type":"Feature","properties":{"cod_imovel":"RJ-3304508-3FE2363002914F4BB2667C9F0E900E6A","num_area":"51.253400000000000000000000000000","ind_status":"AT"},"geometry":{"type":"Polygon","coordinates":[[[-43.527,-22.2519],[-43.5232,-22.2496],[-43.5262,-22.2521],[-43.527,-22.2519]],[[-43.5171,-22.2486],[-43.5169,-22.2519],[-43.517,-22.2489],[-43.5171,-22.2486]],[[-43.5276,-22.2546],[-43.5331,-22.2564],[-43.5361,-22.252],[-43.5276,-22.2542],[-43.5276,-22.2546]],[[-43.5281,-22.2524],[-43.5208,-22.2511],[-43.5285,-22.2533],[-43.5281,-22.2524]],[[-43.5222,-22.2531],[-43.5298,-22.2532],[-43.5223,-22.2531],[-43.5222,-22.2531]]]}},{"type":"Feature","properties":{"cod_imovel":"RJ-3304508-612C08250EED4A1CA2C47E354D4CA80A","num_area":"53.123000000000000000000000000000","ind_status":"AT"},"geometry":{"type":"Polygon","coordinates":[[[-43.5837,-22.2331],[-43.5899,-22.2414],[-43.585,-22.2337],[-43.5837,-22.2331]]]}},{"type":"Feature","properties":{"cod_imovel":"RJ-3304508-423C9538C4FC4105AEC78D3649EE926A","num_area":"16.645700000000000000000000000000","ind_status":"AT"},"geometry":{"type":"Polygon","coordinates":[[[-43.5244,-22.1828],[-43.5258,-22.1761],[-43.5201,-22.1737],[-43.5161,-22.1772],[-43.5216,-22.1745],[-43.5242,-22.1826],[-43.5244,-22.1828]]]}},{"type":"Feature","properties":{"cod_imovel":"RJ-3304508-6EBBAC84C5094AA1BAC430EE9E652310","num_area":"16.138900000000000000000000000000","ind_status":"AT"},"geometry":{"type":"Polygon","coordinates":[[[-43.5082,-22.1807],[-43.5127,-22.1801],[-43.5081,-22.1805],[-43.5082,-22.1807]],[[-43.5072,-22.1844],[-43.5107,-22.1844],[-43.5072,-22.1842],[-43.5072,-22.1844]]]}},{"type":"Feature","properties":{"cod_imovel":"RJ-3304508-BE1A77EA5F8D467D9C2EF58C99403E16","num_area":"95.099100000000000000000000000000","ind_status":"AT"},"geometry":{"type":"Polygon","coordinates":[[[-43.5039,-22.1766],[-43.5006,-22.1763],[-43.504,-22.1819],[-43.5045,-22.1767],[-43.5039,-22.1766]],[[-43.4887,-22.2007],[-43.4917,-22.2037],[-43.489,-22.2006],[-43.4887,-22.2007]],[[-43.5088,-22.187],[-43.516,-22.189],[-43.5087,-22.1865],[-43.5088,-22.187]],[[-43.5048,-22.184],[-43.5001,-22.1867],[-43.5046,-22.1844],[-43.5048,-22.184]],[[-43.5006,-22.1833],[-43.4986,-22.1879],[-43.5006,-22.1834],[-43.5006,-22.1833]],[[-43.4933,-22.1827],[-43.4916,-22.1872],[-43.4943,-22.1822],[-43.4933,-22.1827]],[[-43.4923,-22.1865],[-43.4949,-22.1822],[-43.4924,-22.1865],[-43.4923,-22.1865]],[[-43.5043,-22.1975],[-43.4983,-22.1973],[-43.5043,-22.1975],[-43.5043,-22.1975]]]}},{"type":"Feature","properties":{"cod_imovel":"RJ-3304508-CEE580A673234C8F850B98554C64EEFA","num_area":"28.152400000000000000000000000000","ind_status":"AT"},"geometry":{"type":"Polygon","coordinates":[[[-43.5718,-22.1317],[-43.5703,-22.1353],[-43.581,-22.1329],[-43.569,-22.1335],[-43.5732,-22.1321],[-43.5718,-22.1317]],[[-43.5716,-22.1352],[-43.5747,-22.1359],[-43.5716,-22.1352],[-43.5716,-22.1352]],[[-43.5747,-22.1359],[-43.584,-22.1353],[-43.5747,-22.1363],[-43.5747,-22.1359]],[[-43.5839,-22.1352],[-43.5795,-22.1349],[-43.5832,-22.1356],[-43.5839,-22.1352]],[[-43.5682,-22.133],[-43.5695,-22.1357],[-43.5682,-22.133],[-43.5682,-22.133]],[[-43.5723,-22.1387],[-43.5695,-22.1358],[-43.5722,-22.1387],[-43.5723,-22.1387]]]}},{"type":"Feature","properties":{"cod_imovel":"RJ-3304508-050E1749D9394FBB9050D9CA112F2F94","num_area":"31.975200000000000000000000000000","ind_status":"AT"},"geometry":{"type":"Polygon","coordinates":[[[-43.64,-22.1053],[-43.6443,-22.1046],[-43.641,-22.1055],[-43.64,-22.1053]],[[-43.6466,-22.1019],[-43.6429,-22.1017],[-43.6463,-22.1016],[-43.6466,-22.1019]],[[-43.6475,-22.0915],[-43.6433,-22.0919],[-43.6465,-22.0926],[-43.6475,-22.0915]],[[-43.634,-22.0993],[-43.6417,-22.1004],[-43.634,-22.0993],[-43.634,-22.0993]]]}},{"type":"Feature","properties":{"cod_imovel":"RJ-3304508-509386D9DCB14E1283275DA9EF3B513E","num_area":"14.349900000000000000000000000000","ind_status":"AT"},"geometry":{"type":"Polygon","coordinates":[[[-43.4985,-22.1685],[-43.4954,-22.1689],[-43.4988,-22.1687],[-43.4985,-22.1685]],[[-43.4924,-22.1714],[-43.4967,-22.1749],[-43.4981,-22.1701],[-43.4996,-22.1743],[-43.494,-22.1751],[-43.4998,-22.1743],[-43.4982,-22.1698],[-43.4941,-22.1746],[-43.4926,-22.1705],[-43.4924,-22.1714]]]}},{"type":"Feature","properties":{"cod_imovel":"RJ-3304508-D4EE568D26974DDA89FDDE3C8A79C3D6","num_area":"50.680700000000000000000000000000","ind_status":"AT"},"geometry":{"type":"Polygon","coordinates":[[[-43.6579,-22.1037],[-43.6549,-22.1033],[-43.6583,-22.1046],[-43.6579,-22.1037]],[[-43.6507,-22.1147],[-43.6536,-22.1123],[-43.6441,-22.1048],[-43.6452,-22.1101],[-43.6507,-22.1147]]]}},{"type":"Feature","properties":{"cod_imovel":"RJ-3304508-11B25A26164F4467A4D6452AE242F2DC","num_area":"23.412300000000000000000000000000","ind_status":"AT"},"geometry":{"type":"Polygon","coordinates":[[[-43.452,-22.197],[-43.4482,-22.1951],[-43.4519,-22.197],[-43.452,-22.197]],[[-43.4491,-22.2065],[-43.4508,-22.2009],[-43.4489,-22.2063],[-43.4491,-22.2065]],[[-43.4552,-22.2044],[-43.4538,-22.1997],[-43.4552,-22.2043],[-43.4552,-22.2044]],[[-43.4569,-22.2031],[-43.4542,-22.1972],[-43.4568,-22.2031],[-43.4569,-22.2031]]]}},{"type":"Feature","properties":{"cod_imovel":"RJ-3304508-EBBA42A81A4B430591225770AD49849A","num_area":"179.51680000000000000000000000000","ind_status":"AT"},"geometry":{"type":"Polygon","coordinates":[[[-43.6049,-22.2218],[-43.602,-22.2256],[-43.605,-22.2217],[-43.6049,-22.2218]],[[-43.5989,-22.2381],[-43.6023,-22.2388],[-43.5987,-22.2378],[-43.5989,-22.2381]],[[-43.6228,-22.2218],[-43.6145,-22.2189],[-43.6225,-22.2216],[-43.6228,-22.2218]],[[-43.6017,-22.2449],[-43.6055,-22.235],[-43.6047,-22.2433],[-43.6107,-22.2409],[-43.6091,-22.2361],[-43.6044,-22.2337],[-43.6042,-22.2432],[-43.6006,-22.2429],[-43.6017,-22.2449]],[[-43.6058,-22.2429],[-43.6099,-22.2417],[-43.6059,-22.2429],[-43.6058,-22.2429]],[[-43.5999,-22.2233],[-43.5924,-22.2262],[-43.596,-22.2262],[-43.5929,-22.2273],[-43.5971,-22.2344],[-43.5985,-22.226],[-43.599,-22.2351],[-43.6053,-22.2288],[-43.6003,-22.2235],[-43.5999,-22.2233]],[[-43.6001,-22.2347],[-43.6028,-22.2312],[-43.6005,-22.2342],[-43.6001,-22.2347]]]}},{"type":"Feature","properties":{"cod_imovel":"RJ-3304508-D3DC653758054EB7BC6ED443D317B03E","num_area":"28.768900000000000000000000000000","ind_status":"AT"},"geometry":{"type":"Polygon","coordinates":[[[-43.5395,-22.1507],[-43.5366,-22.1519],[-43.5401,-22.1539],[-43.5395,-22.1507]],[[-43.529,-22.1612],[-43.5307,-22.1665],[-43.5297,-22.1621],[-43.5343,-22.1657],[-43.5395,-22.1595],[-43.5343,-22.1657],[-43.5381,-22.1656],[-43.5307,-22.1665],[-43.5365,-22.1666],[-43.5414,-22.1583],[-43.5341,-22.1655],[-43.5295,-22.1615],[-43.529,-22.1612]]]}},{"type":"Feature","properties":{"cod_imovel":"RJ-3304508-34D5CADE60B04594AAEFA514A000AEA2","num_area":"12.299900000000000000000000000000","ind_status":"AT"},"geometry":{"type":"Polygon","coordinates":[[[-43.5971,-22.1354],[-43.5919,-22.1375],[-43.5973,-22.1356],[-43.5971,-22.1354]]]}},{"type":"Feature","properties":{"cod_imovel":"RJ-3304508-BC6F73364A7B4CA9A6D97ABE22F842A1","num_area":"49.270000000000000000000000000000","ind_status":"AT"},"geometry":{"type":"Polygon","coordinates":[[[-43.5243,-22.2606],[-43.5314,-22.2605],[-43.5314,-22.2547],[-43.5234,-22.2549],[-43.5273,-22.2563],[-43.5246,-22.2603],[-43.5243,-22.2606]],[[-43.5211,-22.2582],[-43.526,-22.258],[-43.5209,-22.2584],[-43.5211,-22.2582]]]}},{"type":"Feature","properties":{"cod_imovel":"RJ-3304508-E4D2BF6030F146CCAD50EF1F82A3574B","num_area":"29.673700000000000000000000000000","ind_status":"AT"},"geometry":{"type":"Polygon","coordinates":[[[-43.5838,-22.2774],[-43.5839,-22.2826],[-43.5882,-22.2797],[-43.5838,-22.2773],[-43.5838,-22.2774]],[[-43.585,-22.2825],[-43.5893,-22.2871],[-43.5883,-22.2797],[-43.5849,-22.2824],[-43.585,-22.2825]]]}},{"type":"Feature","properties":{"cod_imovel":"RJ-3304508-9A137F1A7B824B13A1D95DC8870411AC","num_area":"27.995100000000000000000000000000","ind_status":"AT"},"geometry":{"type":"Polygon","coordinates":[[[-43.6281,-22.1136],[-43.624,-22.1154],[-43.6302,-22.1097],[-43.6281,-22.1136],[-43.6281,-22.1136]],[[-43.6337,-22.103],[-43.6293,-22.1082],[-43.6342,-22.1059],[-43.6337,-22.103]],[[-43.6297,-22.1182],[-43.6267,-22.1213],[-43.6298,-22.1181],[-43.6297,-22.1182]]]}},{"type":"Feature","properties":{"cod_imovel":"RJ-3304508-0FB2D6222DBD4634868E2CE4762D7D73","num_area":"6.6233000000000000000000000000000","ind_status":"AT"},"geometry":{"type":"Polygon","coordinates":[[[-43.598,-22.1364],[-43.6018,-22.1367],[-43.5981,-22.1364],[-43.598,-22.1364]],[[-43.5932,-22.1327],[-43.5974,-22.1327],[-43.5932,-22.1327],[-43.5932,-22.1327]]]}},{"type":"Feature","properties":{"cod_imovel":"RJ-3304508-9233D3FAFBB5409392EB2BC87638A644","num_area":"8.1486000000000000000000000000000","ind_status":"AT"},"geometry":{"type":"Polygon","coordinates":[[[-43.6499,-22.0719],[-43.6521,-22.0757],[-43.6503,-22.0724],[-43.6499,-22.0719]]]}},{"type":"Feature","properties":{"cod_imovel":"RJ-3304508-0B5D43B1494C46EE9158678AD4AC3F71","num_area":"64.881200000000000000000000000000","ind_status":"AT"},"geometry":{"type":"Polygon","coordinates":[[[-43.6106,-22.0718],[-43.6103,-22.0829],[-43.6107,-22.0718],[-43.6106,-22.0718]],[[-43.5954,-22.0764],[-43.5945,-22.0718],[-43.5876,-22.0737],[-43.5911,-22.0798],[-43.5949,-22.0768],[-43.5954,-22.0764]]]}},{"type":"Feature","properties":{"cod_imovel":"RJ-3304508-FBD950AEFF2E44469AC6D0FB4F92C24C","num_area":"5.7577000000000000000000000000000","ind_status":"AT"},"geometry":{"type":"Polygon","coordinates":[[[-43.5672,-22.1839],[-43.5656,-22.178],[-43.5672,-22.1839],[-43.5672,-22.1839]]]}},{"type":"Feature","properties":{"cod_imovel":"RJ-3304508-3446A630B10E4F05BE297C82239AADAB","num_area":"14.556000000000000000000000000000","ind_status":"AT"},"geometry":{"type":"Polygon","coordinates":[[[-43.654,-22.0776],[-43.6569,-22.0749],[-43.6529,-22.077],[-43.654,-22.0776]]]}},{"type":"Feature","properties":{"cod_imovel":"RJ-3304508-7203E03AD06B4B51AF7C564859543A2A","num_area":"10.948700000000000000000000000000","ind_status":"AT"},"geometry":{"type":"Polygon","coordinates":[[[-43.5075,-22.1979],[-43.5113,-22.1987],[-43.5117,-22.1934],[-43.5075,-22.1979]]]}},{"type":"Feature","properties":{"cod_imovel":"RJ-3304508-C1E6F8DFAA1D44B08BE539A553FF9BC2","num_area":"23.491900000000000000000000000000","ind_status":"AT"},"geometry":{"type":"Polygon","coordinates":[[[-43.6532,-22.1152],[-43.6465,-22.1161],[-43.6528,-22.1165],[-43.6532,-22.1152]],[[-43.6529,-22.1173],[-43.6593,-22.1178],[-43.6529,-22.1173],[-43.6529,-22.1173]],[[-43.6591,-22.118],[-43.6631,-22.1191],[-43.6591,-22.118],[-43.6591,-22.118]]]}},{"type":"Feature","properties":{"cod_imovel":"RJ-3304508-20D8F20440624D8283FE1BE42841DE49","num_area":"11.188300000000000000000000000000","ind_status":"AT"},"geometry":{"type":"Polygon","coordinates":[[[-43.5887,-22.1426],[-43.5798,-22.1427],[-43.5879,-22.1427],[-43.5887,-22.1426]]]}},{"type":"Feature","properties":{"cod_imovel":"RJ-3304508-318150B15A7642BBB6FE9FDCD8D2433E","num_area":"12.019400000000000000000000000000","ind_status":"AT"},"geometry":{"type":"Polygon","coordinates":[[[-43.5108,-22.0664],[-43.517,-22.0677],[-43.5085,-22.066],[-43.5108,-22.0664]]]}},{"type":"Feature","properties":{"cod_imovel":"RJ-3304508-C4595ADE68754D4EADE915D00F47FB9F","num_area":"24.629200000000000000000000000000","ind_status":"AT"},"geometry":{"type":"Polygon","coordinates":[[[-43.4958,-22.0863],[-43.4969,-22.0896],[-43.4961,-22.0865],[-43.4958,-22.0863]],[[-43.5009,-22.0978],[-43.4982,-22.094],[-43.5008,-22.0979],[-43.5009,-22.0978]],[[-43.4934,-22.0785],[-43.4949,-22.0834],[-43.4939,-22.078],[-43.4934,-22.0785]]]}},{"type":"Feature","properties":{"cod_imovel":"RJ-3304508-C3ABFB6E73774086A5C0D164A580FF11","num_area":"22.738200000000000000000000000000","ind_status":"AT"},"geometry":{"type":"Polygon","coordinates":[[[-43.6417,-22.1208],[-43.6494,-22.1256],[-43.6418,-22.1208],[-43.6417,-22.1208]],[[-43.6496,-22.1253],[-43.6418,-22.1207],[-43.6495,-22.1252],[-43.6496,-22.1253]]]}},{"type":"Feature","properties":{"cod_imovel":"RJ-3304508-A9D50A4F68DE4A6EAF5EBB588924DE08","num_area":"27.150700000000000000000000000000","ind_status":"AT"},"geometry":{"type":"Polygon","coordinates":[[[-43.5704,-22.0984],[-43.5733,-22.1008],[-43.573,-22.0935],[-43.5679,-22.0956],[-43.5705,-22.0982],[-43.5704,-22.0984]]]}},{"type":"Feature","properties":{"cod_imovel":"RJ-3304508-28814938433145B6815D386BF5DFB291","num_area":"32.670500000000000000000000000000","ind_status":"AT"},"geometry":{"type":"Polygon","coordinates":[[[-43.4826,-22.101],[-43.4796,-22.097],[-43.4808,-22.1004],[-43.4826,-22.101]],[[-43.4946,-22.0942],[-43.4852,-22.0973],[-43.4952,-22.0957],[-43.4946,-22.0942]]]}},{"type":"Feature","properties":{"cod_imovel":"RJ-3304508-DFC22262269E47D09ECE705CE0A057A0","num_area":"3.7750000000000000000000000000000","ind_status":"AT"},"geometry":{"type":"Polygon","coordinates":[[[-43.6315,-22.1492],[-43.6354,-22.1505],[-43.6316,-22.1491],[-43.6315,-22.1492]]]}},{"type":"Feature","properties":{"cod_imovel":"RJ-3304508-C77969DF8A254A138008A4DD83208941","num_area":"8.3325000000000000000000000000000","ind_status":"AT"},"geometry":{"type":"Polygon","coordinates":[[[-43.633,-22.141],[-43.6345,-22.1379],[-43.633,-22.141],[-43.633,-22.141]]]}},{"type":"Feature","properties":{"cod_imovel":"RJ-3304508-E2F6CF1577EC49A580400D6520070EF7","num_area":"6.9474000000000000000000000000000","ind_status":"AT"},"geometry":{"type":"Polygon","coordinates":[[[-43.5235,-22.1294],[-43.5217,-22.1255],[-43.5235,-22.1287],[-43.5235,-22.1294]],[[-43.5237,-22.1294],[-43.5224,-22.1242],[-43.5237,-22.1294],[-43.5237,-22.1294]]]}},{"type":"Feature","properties":{"cod_imovel":"RJ-3304508-C97D278988D744558E5E7DDD396EC605","num_area":"86.607400000000000000000000000000","ind_status":"AT"},"geometry":{"type":"Polygon","coordinates":[[[-43.5829,-22.232],[-43.5858,-22.2341],[-43.5836,-22.2297],[-43.5829,-22.232]],[[-43.5963,-22.2186],[-43.5945,-22.2256],[-43.6008,-22.2237],[-43.5977,-22.219],[-43.5963,-22.2186]],[[-43.5915,-22.2213],[-43.5859,-22.224],[-43.5964,-22.2346],[-43.5898,-22.2265],[-43.5917,-22.2219],[-43.5915,-22.2213]]]}},{"type":"Feature","properties":{"cod_imovel":"RJ-3304508-DF8531A3F8D04F18ABA2A40A7DC27459","num_area":"19.229600000000000000000000000000","ind_status":"AT"},"geometry":{"type":"Polygon","coordinates":[[[-43.6184,-22.1619],[-43.6249,-22.1656],[-43.6192,-22.1616],[-43.6184,-22.1619]]]}},{"type":"Feature","properties":{"cod_imovel":"RJ-3304508-19AFF259697F433E97BFC190AA72173B","num_area":"56.582500000000000000000000000000","ind_status":"AT"},"geometry":{"type":"Polygon","coordinates":[[[-43.6483,-22.1527],[-43.6457,-22.158],[-43.6486,-22.1522],[-43.6483,-22.1527]],[[-43.6336,-22.159],[-43.6443,-22.1557],[-43.6357,-22.1545],[-43.6335,-22.159],[-43.6336,-22.159]],[[-43.6356,-22.1545],[-43.6317,-22.1584],[-43.6358,-22.156],[-43.6356,-22.1545]]]}},{"type":"Feature","properties":{"cod_imovel":"RJ-3304508-995C6E987A8945EDA8B7819576D70147","num_area":"5.9330000000000000000000000000000","ind_status":"AT"},"geometry":{"type":"Polygon","coordinates":[[[-43.6171,-22.1919],[-43.6139,-22.1933],[-43.6172,-22.1924],[-43.6171,-22.1919]]]}},{"type":"Feature","properties":{"cod_imovel":"RJ-3304508-74C55FD49727403E956E06DABBE9A2F6","num_area":"2.9052000000000000000000000000000","ind_status":"AT"},"geometry":{"type":"Polygon","coordinates":[[[-43.6276,-22.1815],[-43.6254,-22.1837],[-43.6277,-22.1818],[-43.6276,-22.1815]]]}},{"type":"Feature","properties":{"cod_imovel":"RJ-3304508-FDF3BBBE87EB48F08F585DF00C23E8C2","num_area":"30.128000000000000000000000000000","ind_status":"AT"},"geometry":{"type":"Polygon","coordinates":[[[-43.6368,-22.1163],[-43.6374,-22.1132],[-43.6363,-22.1175],[-43.6368,-22.1163]],[[-43.6396,-22.1051],[-43.6388,-22.1106],[-43.6442,-22.1046],[-43.6399,-22.1052],[-43.6396,-22.1051]]]}},{"type":"Feature","properties":{"cod_imovel":"RJ-3304508-598EEE26EC854E069B50FC0B974E3BA6","num_area":"7.6873000000000000000000000000000","ind_status":"AT"},"geometry":{"type":"Polygon","coordinates":[[[-43.4389,-22.074],[-43.436,-22.0703],[-43.4382,-22.0736],[-43.4389,-22.074]]]}},{"type":"Feature","properties":{"cod_imovel":"RJ-3304508-74304036C5604FA2A25057423D453695","num_area":"6.6639000000000000000000000000000","ind_status":"AT"},"geometry":{"type":"Polygon","coordinates":[[[-43.6064,-22.212],[-43.6029,-22.2118],[-43.6063,-22.212],[-43.6064,-22.212]]]}},{"type":"Feature","properties":{"cod_imovel":"RJ-3304508-6D91379CD09B4FC1B8DFE6DF133153E5","num_area":"15.725300000000000000000000000000","ind_status":"AT"},"geometry":{"type":"Polygon","coordinates":[[[-43.5237,-22.1574],[-43.5176,-22.1563],[-43.5227,-22.1589],[-43.5237,-22.1574]]]}},{"type":"Feature","properties":{"cod_imovel":"RJ-3304508-28D61B04BC354270B8B45DFB76D0A528","num_area":"9.0031000000000000000000000000000","ind_status":"AT"},"geometry":{"type":"Polygon","coordinates":[[[-43.6599,-22.1365],[-43.66,-22.14],[-43.66,-22.1367],[-43.6599,-22.1365]]]}},{"type":"Feature","properties":{"cod_imovel":"RJ-3304508-6CDDFC5027364A37BE845B459084A8AC","num_area":"136.10640000000000000000000000000","ind_status":"AT"},"geometry":{"type":"Polygon","coordinates":[[[-43.5556,-22.1924],[-43.5513,-22.1968],[-43.5553,-22.1934],[-43.5556,-22.1924]],[[-43.5429,-22.197],[-43.543,-22.1938],[-43.5425,-22.1968],[-43.5429,-22.197]],[[-43.5476,-22.1886],[-43.5529,-22.1852],[-43.549,-22.1873],[-43.5476,-22.1886]],[[-43.558,-22.1811],[-43.5587,-22.1778],[-43.5531,-22.1783],[-43.5578,-22.1821],[-43.558,-22.1811]],[[-43.541,-22.1933],[-43.5359,-22.1898],[-43.5412,-22.1937],[-43.541,-22.1933]],[[-43.5492,-22.2004],[-43.535,-22.1955],[-43.532,-22.1883],[-43.5301,-22.1967],[-43.5492,-22.2003],[-43.5492,-22.2004]]]}},{"type":"Feature","properties":{"cod_imovel":"RJ-3304508-B365F31499A846C890822B028A65D52E","num_area":"9.2762000000000000000000000000000","ind_status":"AT"},"geometry":{"type":"Polygon","coordinates":[[[-43.6056,-22.1838],[-43.6011,-22.1823],[-43.6054,-22.1839],[-43.6056,-22.1838]]]}},{"type":"Feature","properties":{"cod_imovel":"RJ-3304508-4D11E3935CEF4A1A8E7F1A82A1E56C55","num_area":"21.768200000000000000000000000000","ind_status":"AT"},"geometry":{"type":"Polygon","coordinates":[[[-43.5606,-22.1634],[-43.5614,-22.1671],[-43.5605,-22.1636],[-43.5606,-22.1634]],[[-43.5428,-22.1687],[-43.545,-22.1649],[-43.5459,-22.1693],[-43.5451,-22.164],[-43.5431,-22.1684],[-43.5428,-22.1687]]]}},{"type":"Feature","properties":{"cod_imovel":"RJ-3304508-E5DAC6444C0747349B9F0D9BC25526EA","num_area":"10.311000000000000000000000000000","ind_status":"AT"},"geometry":{"type":"Polygon","coordinates":[[[-43.5993,-22.1699],[-43.5948,-22.1739],[-43.5998,-22.1711],[-43.5993,-22.1699]]]}},{"type":"Feature","properties":{"cod_imovel":"RJ-3304508-825B3EBAD342466A8EB72208A67BD2E0","num_area":"25.076500000000000000000000000000","ind_status":"AT"},"geometry":{"type":"Polygon","coordinates":[[[-43.4406,-22.1902],[-43.4435,-22.1913],[-43.4434,-22.1853],[-43.4406,-22.1902]],[[-43.4446,-22.1854],[-43.442,-22.1806],[-43.4428,-22.185],[-43.4446,-22.1854]]]}},{"type":"Feature","properties":{"cod_imovel":"RJ-3304508-7BDA78E3AB234D18A83B8CC2C1EF0190","num_area":"36.145300000000000000000000000000","ind_status":"AT"},"geometry":{"type":"Polygon","coordinates":[[[-43.4793,-22.0969],[-43.4761,-22.0951],[-43.4787,-22.0968],[-43.4793,-22.0969]],[[-43.4708,-22.0941],[-43.4757,-22.0964],[-43.4719,-22.0913],[-43.4774,-22.0896],[-43.4709,-22.0935],[-43.4708,-22.0941]]]}},{"type":"Feature","properties":{"cod_imovel":"RJ-3304508-699AF7BB872A4782B8FDB67CC7F44260","num_area":"122.25570000000000000000000000000","ind_status":"AT"},"geometry":{"type":"Polygon","coordinates":[[[-43.5729,-22.261],[-43.5742,-22.2574],[-43.5673,-22.2595],[-43.5729,-22.261],[-43.5729,-22.261]],[[-43.5755,-22.2537],[-43.5766,-22.2495],[-43.5719,-22.2493],[-43.574,-22.2541],[-43.5755,-22.2537]],[[-43.5653,-22.2406],[-43.5621,-22.2402],[-43.5664,-22.2411],[-43.5653,-22.2406]],[[-43.5579,-22.2519],[-43.5608,-22.2551],[-43.5581,-22.2515],[-43.5579,-22.2519]],[[-43.5727,-22.2437],[-43.5675,-22.2426],[-43.5722,-22.244],[-43.5727,-22.2437]],[[-43.5645,-22.247],[-43.5685,-22.2439],[-43.5646,-22.247],[-43.5645,-22.247]],[[-43.5643,-22.247],[-43.563,-22.2501],[-43.5644,-22.2474],[-43.5643,-22.247]],[[-43.5614,-22.2433],[-43.564,-22.2465],[-43.5615,-22.2433],[-43.5614,-22.2433]],[[-43.5614,-22.2435],[-43.5637,-22.2463],[-43.5615,-22.2437],[-43.5614,-22.2435]],[[-43.568,-22.2489],[-43.5644,-22.2527],[-43.5708,-22.2506],[-43.568,-22.2489],[-43.568,-22.2489]],[[-43.5606,-22.2471],[-43.5598,-22.2517],[-43.5614,-22.2476],[-43.5606,-22.2471]],[[-43.5662,-22.258],[-43.5714,-22.2559],[-43.5697,-22.2529],[-43.5662,-22.258],[-43.5662,-22.258]]]}},{"type":"Feature","properties":{"cod_imovel":"RJ-3304508-311B6824CAEE40E3987FC8918B9939BB","num_area":"12.939600000000000000000000000000","ind_status":"AT"},"geometry":{"type":"Polygon","coordinates":[[[-43.6358,-22.1014],[-43.6398,-22.101],[-43.6359,-22.1008],[-43.6358,-22.1014]],[[-43.6417,-22.1018],[-43.6458,-22.1023],[-43.6418,-22.1016],[-43.6417,-22.1018]]]}},{"type":"Feature","properties":{"cod_imovel":"RJ-3304508-A291BDA1E659406F950CF592CA82CC4C","num_area":"3.5496000000000000000000000000000","ind_status":"AT"},"geometry":{"type":"Polygon","coordinates":[[[-43.6179,-22.2005],[-43.6141,-22.2003],[-43.6177,-22.2005],[-43.6179,-22.2005]]]}},{"type":"Feature","properties":{"cod_imovel":"RJ-3304508-86EED95E91914494A4B0B83F9F4A2B31","num_area":"29.383700000000000000000000000000","ind_status":"AT"},"geometry":{"type":"Polygon","coordinates":[[[-43.5881,-22.0939],[-43.5867,-22.0975],[-43.5881,-22.0939],[-43.5881,-22.0939]],[[-43.5873,-22.0973],[-43.5882,-22.0939],[-43.5874,-22.0972],[-43.5873,-22.0973]],[[-43.5975,-22.0973],[-43.5877,-22.0999],[-43.5933,-22.1015],[-43.5975,-22.0973]]]}},{"type":"Feature","properties":{"cod_imovel":"RJ-3304508-EEAAADF8D52749ACB126AF2EA0A1FFFD","num_area":"72.595900000000000000000000000000","ind_status":"AT"},"geometry":{"type":"Polygon","coordinates":[[[-43.588,-22.0788],[-43.5909,-22.0797],[-43.588,-22.0787],[-43.588,-22.0788]],[[-43.5868,-22.0843],[-43.5793,-22.0772],[-43.5761,-22.0815],[-43.5862,-22.0847],[-43.5868,-22.0843]]]}},{"type":"Feature","properties":{"cod_imovel":"RJ-3304508-1A21BCB773AF47CBB54D415BA4210CB8","num_area":"11.394200000000000000000000000000","ind_status":"AT"},"geometry":{"type":"Polygon","coordinates":[[[-43.543,-22.1687],[-43.5452,-22.164],[-43.543,-22.1687],[-43.543,-22.1687]],[[-43.5525,-22.1696],[-43.5517,-22.1665],[-43.5525,-22.1694],[-43.5525,-22.1696]]]}},{"type":"Feature","properties":{"cod_imovel":"RJ-3304508-B51773E2E2BB4431A1F3E47D0A968276","num_area":"13.462800000000000000000000000000","ind_status":"AT"},"geometry":{"type":"Polygon","coordinates":[[[-43.6338,-22.1389],[-43.6343,-22.1358],[-43.6316,-22.1394],[-43.6338,-22.1389]]]}},{"type":"Feature","properties":{"cod_imovel":"RJ-3304508-0E6D717660864F619E91AAED548E4E5E","num_area":"10.311800000000000000000000000000","ind_status":"AT"},"geometry":{"type":"Polygon","coordinates":[[[-43.6165,-22.1879],[-43.6222,-22.1891],[-43.6165,-22.1863],[-43.6165,-22.1879]]]}},{"type":"Feature","properties":{"cod_imovel":"RJ-3304508-61946F78769E42F8A5EFFAB7BAB87D23","num_area":"8.9171000000000000000000000000000","ind_status":"AT"},"geometry":{"type":"Polygon","coordinates":[[[-43.6037,-22.1599],[-43.6069,-22.1587],[-43.6019,-22.158],[-43.6037,-22.1599]]]}},{"type":"Feature","properties":{"cod_imovel":"RJ-3304508-AFC685B952FF46B8B489952730616273","num_area":"3.2825000000000000000000000000000","ind_status":"AT"},"geometry":{"type":"Polygon","coordinates":[[[-43.6003,-22.1534],[-43.5969,-22.1524],[-43.6001,-22.1534],[-43.6003,-22.1534]]]}},{"type":"Feature","properties":{"cod_imovel":"RJ-3304508-BAA85A1F7AD146EAA7AAA4566C4982AD","num_area":"53.815500000000000000000000000000","ind_status":"AT"},"geometry":{"type":"Polygon","coordinates":[[[-43.6039,-22.0998],[-43.6063,-22.0957],[-43.6039,-22.0997],[-43.6039,-22.0998]],[[-43.6127,-22.0967],[-43.607,-22.0965],[-43.6074,-22.1045],[-43.6127,-22.0967],[-43.6127,-22.0967]]]}},{"type":"Feature","properties":{"cod_imovel":"RJ-3304508-7D39139CA85B4EE886BAC042F6627B9C","num_area":"97.836900000000000000000000000000","ind_status":"AT"},"geometry":{"type":"Polygon","coordinates":[[[-43.6478,-22.1299],[-43.6461,-22.1266],[-43.637,-22.1309],[-43.6414,-22.1349],[-43.6437,-22.1328],[-43.6381,-22.1315],[-43.6477,-22.1299],[-43.6478,-22.1299]],[[-43.6414,-22.1349],[-43.6493,-22.136],[-43.6415,-22.1349],[-43.6414,-22.1349]],[[-43.636,-22.1251],[-43.6321,-22.1302],[-43.6409,-22.1227],[-43.636,-22.1251],[-43.636,-22.1251]],[[-43.6354,-22.1284],[-43.6414,-22.1254],[-43.6354,-22.1283],[-43.6354,-22.1284]]]}},{"type":"Feature","properties":{"cod_imovel":"RJ-3304508-124BD1229AEE4ECC8677EAD2B7451C12","num_area":"36.724000000000000000000000000000","ind_status":"AT"},"geometry":{"type":"Polygon","coordinates":[[[-43.5914,-22.212],[-43.5983,-22.2096],[-43.5917,-22.212],[-43.5914,-22.212]],[[-43.6024,-22.2127],[-43.6096,-22.2125],[-43.6023,-22.2123],[-43.6024,-22.2127]],[[-43.5981,-22.2193],[-43.6064,-22.2202],[-43.5982,-22.2193],[-43.5981,-22.2193]]]}},{"type":"Feature","properties":{"cod_imovel":"RJ-3304508-9FDBBECB1F054CF0A0C113C435318F01","num_area":"18.634500000000000000000000000000","ind_status":"AT"},"geometry":{"type":"Polygon","coordinates":[[[-43.463,-22.1995],[-43.4595,-22.2036],[-43.4632,-22.2004],[-43.463,-22.1995]]]}},{"type":"Feature","properties":{"cod_imovel":"RJ-3304508-0D869E9016C34D558C2A2E6CDB801757","num_area":"13.201600000000000000000000000000","ind_status":"AT"},"geometry":{"type":"Polygon","coordinates":[[[-43.5827,-22.1441],[-43.5879,-22.1431],[-43.583,-22.1441],[-43.5827,-22.1441]],[[-43.5787,-22.1479],[-43.5826,-22.1481],[-43.5793,-22.1477],[-43.5787,-22.1479]],[[-43.5735,-22.1436],[-43.5793,-22.1538],[-43.5732,-22.1431],[-43.5735,-22.1436]],[[-43.5792,-22.1538],[-43.5809,-22.1566],[-43.5793,-22.1538],[-43.5792,-22.1538]],[[-43.5791,-22.1533],[-43.5771,-22.1504],[-43.579,-22.1534],[-43.5791,-22.1533]]]}},{"type":"Feature","properties":{"cod_imovel":"RJ-3304508-1D52638D507F4335883A21B1305E6D1F","num_area":"36.026600000000000000000000000000","ind_status":"AT"},"geometry":{"type":"Polygon","coordinates":[[[-43.4417,-22.1158],[-43.4434,-22.1128],[-43.4416,-22.1156],[-43.4417,-22.1158]],[[-43.435,-22.1092],[-43.4377,-22.1147],[-43.4394,-22.1122],[-43.435,-22.1092]],[[-43.4368,-22.1162],[-43.4399,-22.115],[-43.4369,-22.1158],[-43.4368,-22.1162]],[[-43.4297,-22.1098],[-43.4348,-22.1131],[-43.43,-22.1122],[-43.4317,-22.1092],[-43.4297,-22.1098]]]}},{"type":"Feature","properties":{"cod_imovel":"RJ-3304508-C741F4D38445457B81D4712BF1F7635E","num_area":"112.92870000000000000000000000000","ind_status":"AT"},"geometry":{"type":"Polygon","coordinates":[[[-43.446,-22.1348],[-43.4519,-22.1353],[-43.446,-22.1348],[-43.446,-22.1348]],[[-43.4547,-22.1344],[-43.4514,-22.1333],[-43.4547,-22.1346],[-43.4547,-22.1344]],[[-43.4386,-22.1235],[-43.4352,-22.1236],[-43.4372,-22.1273],[-43.4388,-22.123],[-43.4386,-22.1235]],[[-43.4511,-22.1319],[-43.446,-22.1323],[-43.4513,-22.1321],[-43.4511,-22.1319]],[[-43.4417,-22.1208],[-43.4301,-22.1165],[-43.4419,-22.1209],[-43.4417,-22.1208]],[[-43.4443,-22.1216],[-43.4453,-22.1266],[-43.4552,-22.1267],[-43.4446,-22.1216],[-43.4443,-22.1216]]]}},{"type":"Feature","properties":{"cod_imovel":"RJ-3304508-7891D8CDE0CD47F2AF001D9B744CDED9","num_area":"5.3492000000000000000000000000000","ind_status":"AT"},"geometry":{"type":"Polygon","coordinates":[[[-43.6248,-22.1273],[-43.6208,-22.13],[-43.6251,-22.1275],[-43.6248,-22.1273]]]}},{"type":"Feature","properties":{"cod_imovel":"RJ-3304508-8FD08367102249A980EE8261511A5F61","num_area":"87.169000000000000000000000000000","ind_status":"AT"},"geometry":{"type":"Polygon","coordinates":[[[-43.515,-22.1512],[-43.5138,-22.1554],[-43.5178,-22.1543],[-43.5137,-22.1559],[-43.519,-22.1543],[-43.5151,-22.1514],[-43.515,-22.1512]],[[-43.5203,-22.1432],[-43.5157,-22.1424],[-43.5197,-22.1517],[-43.5203,-22.1433],[-43.5203,-22.1432]],[[-43.5331,-22.1494],[-43.5235,-22.148],[-43.5254,-22.1544],[-43.5333,-22.1503],[-43.5331,-22.1494]],[[-43.5239,-22.1634],[-43.5275,-22.1648],[-43.5239,-22.1634],[-43.5239,-22.1634]]]}},{"type":"Feature","properties":{"cod_imovel":"RJ-3304508-1D970CD28D3A409AB93FF31EFCF5D854","num_area":"3.4863000000000000000000000000000","ind_status":"AT"},"geometry":{"type":"Polygon","coordinates":[[[-43.5305,-22.1606],[-43.5363,-22.1569],[-43.5305,-22.1606],[-43.5305,-22.1606]]]}},{"type":"Feature","properties":{"cod_imovel":"RJ-3304508-7C130A1CFCE74D2E885BAEC715C78323","num_area":"11.130800000000000000000000000000","ind_status":"AT"},"geometry":{"type":"Polygon","coordinates":[[[-43.6543,-22.1519],[-43.6493,-22.1486],[-43.6515,-22.1508],[-43.6543,-22.1519]]]}},{"type":"Feature","properties":{"cod_imovel":"RJ-3304508-889F8DFB728147AC80C5362282DD8F14","num_area":"3.7853000000000000000000000000000","ind_status":"AT"},"geometry":{"type":"Polygon","coordinates":[[[-43.6015,-22.1971],[-43.605,-22.194],[-43.6015,-22.197],[-43.6015,-22.1971]]]}},{"type":"Feature","properties":{"cod_imovel":"RJ-3304508-B35B5C192BD24F2DB3AE92FA49F56CF5","num_area":"5.3259000000000000000000000000000","ind_status":"AT"},"geometry":{"type":"Polygon","coordinates":[[[-43.651,-22.1657],[-43.6542,-22.1649],[-43.6511,-22.1656],[-43.651,-22.1657]]]}},{"type":"Feature","properties":{"cod_imovel":"RJ-3304508-1B420C9D557545B684EBC555D3F42E8B","num_area":"43.719800000000000000000000000000","ind_status":"AT"},"geometry":{"type":"Polygon","coordinates":[[[-43.5969,-22.1403],[-43.5913,-22.1421],[-43.5975,-22.1411],[-43.5969,-22.1403]],[[-43.5945,-22.1494],[-43.591,-22.1534],[-43.5949,-22.1498],[-43.5945,-22.1494]],[[-43.6106,-22.1415],[-43.6105,-22.1378],[-43.6085,-22.1408],[-43.6106,-22.1415]],[[-43.6052,-22.1356],[-43.6004,-22.1382],[-43.6052,-22.1356],[-43.6052,-22.1356]]]}},{"type":"Feature","properties":{"cod_imovel":"RJ-3304508-971753BEE03D4F9F9C410A6212C94C89","num_area":"40.190500000000000000000000000000","ind_status":"AT"},"geometry":{"type":"Polygon","coordinates":[[[-43.5455,-22.2395],[-43.5436,-22.2365],[-43.5449,-22.2395],[-43.5455,-22.2395]],[[-43.558,-22.229],[-43.552,-22.2281],[-43.558,-22.2299],[-43.558,-22.229]],[[-43.5476,-22.2243],[-43.5461,-22.2278],[-43.5478,-22.2245],[-43.5476,-22.2243]]]}},{"type":"Feature","properties":{"cod_imovel":"RJ-3304508-AE948E5C3A884E1696651BAD2AB1B876","num_area":"8.2873000000000000000000000000000","ind_status":"AT"},"geometry":{"type":"Polygon","coordinates":[[[-43.66,-22.1739],[-43.6559,-22.1725],[-43.6598,-22.1737],[-43.66,-22.1739]]]}},{"type":"Feature","properties":{"cod_imovel":"RJ-3304508-77B1C767C7A645628C4D5FAF890D12BD","num_area":"12.998500000000000000000000000000","ind_status":"AT"},"geometry":{"type":"Polygon","coordinates":[[[-43.621,-22.16],[-43.6189,-22.1567],[-43.621,-22.16],[-43.621,-22.16]]]}},{"type":"Feature","properties":{"cod_imovel":"RJ-3304508-D32570379328463DA39D38E965F72299","num_area":"9.7532000000000000000000000000000","ind_status":"AT"},"geometry":{"type":"Polygon","coordinates":[[[-43.4791,-22.2131],[-43.4817,-22.2074],[-43.4731,-22.212],[-43.4781,-22.2129],[-43.4817,-22.2075],[-43.4787,-22.213],[-43.4791,-22.2131]]]}},{"type":"Feature","properties":{"cod_imovel":"RJ-3304508-5817F6E09AAA442882BE06B516A75F54","num_area":"14.219200000000000000000000000000","ind_status":"PE"},"geometry":{"type":"Polygon","coordinates":[[[-43.4559,-22.107],[-43.4624,-22.1083],[-43.4561,-22.1066],[-43.4559,-22.107]]]}},{"type":"Feature","properties":{"cod_imovel":"RJ-3304508-5817F6E09AAA442882BE06B516A75F54","num_area":"70.973800000000000000000000000000","ind_status":"PE"},"geometry":{"type":"Polygon","coordinates":[[[-43.4708,-22.1096],[-43.4759,-22.1105],[-43.4796,-22.0968],[-43.475,-22.0967],[-43.4767,-22.1034],[-43.4723,-22.1081],[-43.4746,-22.1035],[-43.4694,-22.1047],[-43.4697,-22.109],[-43.4708,-22.1096]]]}},{"type":"Feature","properties":{"cod_imovel":"RJ-3304508-5817F6E09AAA442882BE06B516A75F54","num_area":"7.9354000000000000000000000000000","ind_status":"PE"},"geometry":{"type":"Polygon","coordinates":[[[-43.4653,-22.1087],[-43.4661,-22.1037],[-43.4656,-22.1082],[-43.4653,-22.1087]]]}},{"type":"Feature","properties":{"cod_imovel":"RJ-3304508-5817F6E09AAA442882BE06B516A75F54","num_area":"50.290700000000000000000000000000","ind_status":"PE"},"geometry":{"type":"Polygon","coordinates":[[[-43.4455,-22.1042],[-43.4552,-22.0995],[-43.4445,-22.0978],[-43.4455,-22.1042]]]}},{"type":"Feature","properties":{"cod_imovel":"RJ-3304508-5817F6E09AAA442882BE06B516A75F54","num_area":"40.881600000000000000000000000000","ind_status":"PE"},"geometry":{"type":"Polygon","coordinates":[[[-43.4557,-22.0899],[-43.4525,-22.0936],[-43.4579,-22.097],[-43.462,-22.0925],[-43.4561,-22.0903],[-43.4557,-22.0899]]]}},{"type":"Feature","properties":{"cod_imovel":"RJ-3304508-5817F6E09AAA442882BE06B516A75F54","num_area":"56.826800000000000000000000000000","ind_status":"PE"},"geometry":{"type":"Polygon","coordinates":[[[-43.4442,-22.0943],[-43.4505,-22.0958],[-43.4493,-22.0871],[-43.4436,-22.0862],[-43.4503,-22.0957],[-43.4444,-22.0943],[-43.4442,-22.0943]],[[-43.4443,-22.0963],[-43.4644,-22.1033],[-43.4628,-22.1083],[-43.4646,-22.1032],[-43.4447,-22.0962],[-43.4443,-22.0963]],[[-43.4629,-22.1083],[-43.4708,-22.0965],[-43.4631,-22.1079],[-43.4629,-22.1083]],[[-43.4647,-22.1031],[-43.4704,-22.0965],[-43.4632,-22.1026],[-43.4504,-22.0949],[-43.4522,-22.0898],[-43.4493,-22.092],[-43.4643,-22.1029],[-43.4647,-22.1031]]]}},{"type":"Feature","properties":{"cod_imovel":"RJ-3304508-96D33A75A94B441C9BD3C959363F0E32","num_area":"9.7717000000000000000000000000000","ind_status":"AT"},"geometry":{"type":"Polygon","coordinates":[[[-43.6386,-22.1868],[-43.635,-22.185],[-43.6389,-22.1875],[-43.6386,-22.1868]]]}},{"type":"Feature","properties":{"cod_imovel":"RJ-3304508-A1EAF050CF1A4E6DB69D30331E655235","num_area":"6.4959000000000000000000000000000","ind_status":"AT"},"geometry":{"type":"Polygon","coordinates":[[[-43.5132,-22.1168],[-43.5088,-22.1207],[-43.5131,-22.1172],[-43.5132,-22.1168]]]}},{"type":"Feature","properties":{"cod_imovel":"RJ-3304508-E84EE919302C4DB48F33C65361FE9FB0","num_area":"147.23110000000000000000000000000","ind_status":"PE"},"geometry":{"type":"Polygon","coordinates":[[[-43.5161,-22.1039],[-43.5142,-22.0961],[-43.5052,-22.1023],[-43.5088,-22.1029],[-43.5009,-22.1039],[-43.5103,-22.1022],[-43.5103,-22.107],[-43.5011,-22.1068],[-43.5126,-22.1165],[-43.5158,-22.1044],[-43.5161,-22.1039]],[[-43.5153,-22.1093],[-43.5141,-22.1154],[-43.5137,-22.1102],[-43.5153,-22.1093]],[[-43.5151,-22.1054],[-43.5157,-22.1111],[-43.5152,-22.1054],[-43.5151,-22.1054]],[[-43.521,-22.1167],[-43.5282,-22.1133],[-43.5207,-22.1167],[-43.521,-22.1167]],[[-43.5207,-22.1112],[-43.5226,-22.1084],[-43.5205,-22.1112],[-43.5207,-22.1112]]]}},{"type":"Feature","properties":{"cod_imovel":"RJ-3304508-BD455A3EC61D4521B665DABCEF0868F4","num_area":"184.84630000000000000000000000000","ind_status":"AT"},"geometry":{"type":"Polygon","coordinates":[[[-43.5638,-22.2239],[-43.5665,-22.2263],[-43.5643,-22.2237],[-43.5638,-22.2239]],[[-43.5657,-22.2213],[-43.5669,-22.2254],[-43.5658,-22.2218],[-43.5657,-22.2213]],[[-43.561,-22.2029],[-43.5539,-22.1998],[-43.5612,-22.2034],[-43.561,-22.2029]],[[-43.5471,-22.2061],[-43.5517,-22.21],[-43.5476,-22.2072],[-43.5475,-22.2104],[-43.5534,-22.2103],[-43.5478,-22.2068],[-43.5471,-22.2061]],[[-43.5498,-22.2031],[-43.5475,-22.2056],[-43.5577,-22.2077],[-43.5501,-22.2034],[-43.5498,-22.2031]],[[-43.5656,-22.2318],[-43.562,-22.2321],[-43.5654,-22.2318],[-43.5656,-22.2318]],[[-43.5503,-22.2141],[-43.5493,-22.2172],[-43.5567,-22.2114],[-43.5497,-22.2172],[-43.5535,-22.2188],[-43.5591,-22.2149],[-43.5504,-22.2169],[-43.5565,-22.2103],[-43.5509,-22.2138],[-43.5503,-22.2141]],[[-43.5493,-22.2172],[-43.5534,-22.2188],[-43.5497,-22.2172],[-43.5493,-22.2172]],[[-43.5716,-22.212],[-43.5733,-22.2091],[-43.5661,-22.2044],[-43.5607,-22.2072],[-43.5715,-22.2121],[-43.5716,-22.212]],[[-43.5733,-22.228],[-43.5769,-22.2295],[-43.5722,-22.2261],[-43.5705,-22.2146],[-43.5719,-22.2274],[-43.5733,-22.228]],[[-43.5709,-22.2166],[-43.5719,-22.2274],[-43.571,-22.2171],[-43.5709,-22.2166]]]}},{"type":"Feature","properties":{"cod_imovel":"RJ-3304508-B4C84DE955F74166ADCC1B8A17D520DF","num_area":"101.33080000000000000000000000000","ind_status":"AT"},"geometry":{"type":"Polygon","coordinates":[[[-43.5424,-22.1748],[-43.5376,-22.1743],[-43.5423,-22.1748],[-43.5424,-22.1748]],[[-43.5324,-22.1835],[-43.5361,-22.1816],[-43.5322,-22.1837],[-43.5324,-22.1835]],[[-43.5511,-22.1807],[-43.5494,-22.1761],[-43.551,-22.1809],[-43.5511,-22.1807]],[[-43.5494,-22.1761],[-43.5445,-22.1753],[-43.5494,-22.1809],[-43.5494,-22.1763],[-43.5494,-22.1761]],[[-43.5253,-22.1783],[-43.5254,-22.1881],[-43.5269,-22.1811],[-43.5255,-22.1881],[-43.5314,-22.1886],[-43.5307,-22.1781],[-43.5261,-22.1779],[-43.5253,-22.1783]]]}},{"type":"Feature","properties":{"cod_imovel":"RJ-3304508-97E85438DC31486BB9B60D849CC90285","num_area":"6.2821000000000000000000000000000","ind_status":"AT"},"geometry":{"type":"Polygon","coordinates":[[[-43.6288,-22.1927],[-43.6289,-22.1964],[-43.6288,-22.1927],[-43.6288,-22.1927]]]}},{"type":"Feature","properties":{"cod_imovel":"RJ-3304508-E1D32688FA0D42E896B120E5C839B65B","num_area":"34.811900000000000000000000000000","ind_status":"AT"},"geometry":{"type":"Polygon","coordinates":[[[-43.5353,-22.1419],[-43.5322,-22.1409],[-43.5353,-22.1419],[-43.5353,-22.1419]],[[-43.5253,-22.1398],[-43.5214,-22.1391],[-43.5247,-22.1436],[-43.5254,-22.1403],[-43.5253,-22.1398]],[[-43.5369,-22.151],[-43.5427,-22.1493],[-43.5368,-22.1509],[-43.5369,-22.151]]]}},{"type":"Feature","properties":{"cod_imovel":"RJ-3304508-A73EFBE1FA2C4A629C73F6EDEEE6013B","num_area":"0.6201000000000000000000000000000","ind_status":"AT"},"geometry":{"type":"Polygon","coordinates":[[[-43.6448,-22.1895],[-43.6417,-22.1898],[-43.6448,-22.1895],[-43.6448,-22.1895]]]}},{"type":"Feature","properties":{"cod_imovel":"RJ-3304508-0448B81C25C34A22A01C002B5991A461","num_area":"207.48600000000000000000000000000","ind_status":"AT"},"geometry":{"type":"Polygon","coordinates":[[[-43.4629,-22.1547],[-43.464,-22.1505],[-43.4618,-22.1544],[-43.4629,-22.1547]],[[-43.4513,-22.1363],[-43.4447,-22.1345],[-43.4441,-22.138],[-43.4497,-22.1379],[-43.4473,-22.1413],[-43.4512,-22.1419],[-43.4509,-22.1382],[-43.4513,-22.1363]],[[-43.4486,-22.1515],[-43.4507,-22.1472],[-43.4486,-22.1515],[-43.4486,-22.1515]],[[-43.4507,-22.145],[-43.4545,-22.1463],[-43.4509,-22.1447],[-43.4507,-22.145]],[[-43.4434,-22.1417],[-43.4435,-22.1482],[-43.4512,-22.1455],[-43.4434,-22.1413],[-43.4434,-22.1417]],[[-43.4657,-22.1552],[-43.4702,-22.1547],[-43.4697,-22.1395],[-43.461,-22.1315],[-43.4684,-22.1465],[-43.4558,-22.1441],[-43.4665,-22.148],[-43.4651,-22.1551],[-43.4657,-22.1552]]]}},{"type":"Feature","properties":{"cod_imovel":"RJ-3304508-063DAA19CA3345DCBCB53FEB70FDE070","num_area":"45.097900000000000000000000000000","ind_status":"AT"},"geometry":{"type":"Polygon","coordinates":[[[-43.6117,-22.1117],[-43.6139,-22.1095],[-43.6115,-22.1116],[-43.6117,-22.1117]],[[-43.5853,-22.12],[-43.5894,-22.1206],[-43.5853,-22.12],[-43.5853,-22.12]],[[-43.6235,-22.092],[-43.6181,-22.092],[-43.6234,-22.092],[-43.6235,-22.092]],[[-43.6232,-22.1],[-43.6275,-22.0954],[-43.6153,-22.0954],[-43.6232,-22.0998],[-43.6232,-22.1]]]}},{"type":"Feature","properties":{"cod_imovel":"RJ-3304508-095130AAEBAB41F19EBCC5A8BF3A1869","num_area":"57.719200000000000000000000000000","ind_status":"AT"},"geometry":{"type":"Polygon","coordinates":[[[-43.504,-22.1542],[-43.5022,-22.1581],[-43.5034,-22.1551],[-43.504,-22.1542]],[[-43.499,-22.1682],[-43.5033,-22.1614],[-43.4955,-22.1665],[-43.4987,-22.1678],[-43.499,-22.1682]],[[-43.499,-22.16],[-43.4946,-22.1643],[-43.4988,-22.1605],[-43.499,-22.16]],[[-43.495,-22.1644],[-43.4978,-22.1617],[-43.4952,-22.1641],[-43.495,-22.1644]]]}},{"type":"Feature","properties":{"cod_imovel":"RJ-3304508-06B30CB402244BCE98223A0AB2307889","num_area":"32.937400000000000000000000000000","ind_status":"AT"},"geometry":{"type":"Polygon","coordinates":[[[-43.5377,-22.1123],[-43.5353,-22.1168],[-43.5381,-22.1123],[-43.5377,-22.1123]],[[-43.5338,-22.1077],[-43.5299,-22.1082],[-43.5337,-22.1078],[-43.5338,-22.1077]],[[-43.5464,-22.1124],[-43.5413,-22.1148],[-43.5463,-22.1125],[-43.5464,-22.1124]]]}},{"type":"Feature","properties":{"cod_imovel":"RJ-3304508-0B152FA4B260440FBCA992C3C27251D3","num_area":"8.1577000000000000000000000000000","ind_status":"AT"},"geometry":{"type":"Polygon","coordinates":[[[-43.6104,-22.2361],[-43.612,-22.239],[-43.6108,-22.2361],[-43.6104,-22.2361]],[[-43.6098,-22.2362],[-43.6109,-22.2432],[-43.6098,-22.2362],[-43.6098,-22.2362]]]}},{"type":"Feature","properties":{"cod_imovel":"RJ-3304508-2AAF8ED384D64079BEB963F6FD5919CB","num_area":"23.632900000000000000000000000000","ind_status":"AT"},"geometry":{"type":"Polygon","coordinates":[[[-43.6136,-22.0836],[-43.6092,-22.0841],[-43.6149,-22.0847],[-43.6136,-22.0836]],[[-43.6138,-22.0939],[-43.6171,-22.0924],[-43.6135,-22.0937],[-43.6138,-22.0939]],[[-43.6177,-22.0914],[-43.6152,-22.0873],[-43.6172,-22.0916],[-43.6177,-22.0914]]]}},{"type":"Feature","properties":{"cod_imovel":"RJ-3304508-142D33FF6DF94F1E9626C35E08B017EB","num_area":"16.122200000000000000000000000000","ind_status":"AT"},"geometry":{"type":"Polygon","coordinates":[[[-43.563,-22.1747],[-43.5639,-22.1704],[-43.5597,-22.1703],[-43.5629,-22.1749],[-43.563,-22.1747]]]}},{"type":"Feature","properties":{"cod_imovel":"RJ-3304508-144BEFFE5DE548A7B27B92073986BF1B","num_area":"70.867300000000000000000000000000","ind_status":"AT"},"geometry":{"type":"Polygon","coordinates":[[[-43.5278,-22.1719],[-43.5312,-22.1726],[-43.5279,-22.1717],[-43.5278,-22.1719]],[[-43.5314,-22.1726],[-43.5414,-22.1713],[-43.5314,-22.1726],[-43.5314,-22.1726]],[[-43.5408,-22.1744],[-43.545,-22.175],[-43.5455,-22.1685],[-43.5376,-22.1678],[-43.5427,-22.1689],[-43.5408,-22.1742],[-43.5408,-22.1744]],[[-43.5449,-22.1752],[-43.545,-22.1714],[-43.545,-22.1751],[-43.5449,-22.1752]],[[-43.5472,-22.1756],[-43.5513,-22.171],[-43.5476,-22.1753],[-43.5472,-22.1756]],[[-43.5325,-22.1681],[-43.5374,-22.1689],[-43.5328,-22.1678],[-43.5325,-22.1681]]]}},{"type":"Feature","properties":{"cod_imovel":"RJ-3304508-1456A9EF012449EAAB487372C0615A75","num_area":"31.923900000000000000000000000000","ind_status":"AT"},"geometry":{"type":"Polygon","coordinates":[[[-43.4287,-22.1907],[-43.4344,-22.1906],[-43.4272,-22.1906],[-43.4287,-22.1907]],[[-43.4415,-22.1821],[-43.4334,-22.1824],[-43.4395,-22.1848],[-43.4415,-22.1821]]]}},{"type":"Feature","properties":{"cod_imovel":"RJ-3304508-22875CF8D2BC42A6B3D871C4C920CF57","num_area":"29.912500000000000000000000000000","ind_status":"AT"},"geometry":{"type":"Polygon","coordinates":[[[-43.4796,-22.1863],[-43.4756,-22.1885],[-43.4822,-22.1902],[-43.4792,-22.1868],[-43.4796,-22.1863]],[[-43.4908,-22.1917],[-43.4916,-22.1881],[-43.4907,-22.1916],[-43.4908,-22.1917]],[[-43.4882,-22.2034],[-43.4834,-22.2011],[-43.4867,-22.2025],[-43.4882,-22.2034]],[[-43.4882,-22.2034],[-43.4858,-22.1983],[-43.4835,-22.2011],[-43.4869,-22.2024],[-43.4861,-22.1987],[-43.4878,-22.2028],[-43.4882,-22.2034]]]}},{"type":"Feature","properties":{"cod_imovel":"RJ-3304508-22B500F7387547C69357FC4A6633E1A5","num_area":"7.7720000000000000000000000000000","ind_status":"AT"},"geometry":{"type":"Polygon","coordinates":[[[-43.5737,-22.1672],[-43.5707,-22.1676],[-43.5738,-22.1674],[-43.5737,-22.1672]]]}},{"type":"Feature","properties":{"cod_imovel":"RJ-3304508-2CF607DE905043A280B65F1EC7E985C2","num_area":"31.509000000000000000000000000000","ind_status":"AT"},"geometry":{"type":"Polygon","coordinates":[[[-43.4961,-22.096],[-43.4977,-22.0922],[-43.4956,-22.0968],[-43.4961,-22.096]],[[-43.4967,-22.0892],[-43.4952,-22.0862],[-43.4967,-22.0898],[-43.4967,-22.0892]],[[-43.4948,-22.0834],[-43.4933,-22.0785],[-43.494,-22.0836],[-43.4948,-22.0834]]]}},{"type":"Feature","properties":{"cod_imovel":"RJ-3304508-2E775B60A73A4C3BAC53F3AD97ECB48B","num_area":"112.85900000000000000000000000000","ind_status":"AT"},"geometry":{"type":"Polygon","coordinates":[[[-43.5618,-22.1318],[-43.5557,-22.1324],[-43.5611,-22.132],[-43.5618,-22.1318]],[[-43.5397,-22.1298],[-43.5361,-22.1311],[-43.5401,-22.1309],[-43.5397,-22.1298]],[[-43.5585,-22.1281],[-43.5516,-22.1308],[-43.5566,-22.1292],[-43.5585,-22.1281]],[[-43.5397,-22.1412],[-43.5472,-22.1415],[-43.5549,-22.1342],[-43.5512,-22.1315],[-43.5417,-22.141],[-43.5397,-22.1412]],[[-43.5437,-22.1295],[-43.5419,-22.1341],[-43.5436,-22.1304],[-43.5437,-22.1295]]]}},{"type":"Feature","properties":{"cod_imovel":"RJ-3304508-316781BB488E44838DCBD90910B17D81","num_area":"308.51910000000000000000000000000","ind_status":"AT"},"geometry":{"type":"Polygon","coordinates":[[[-43.4939,-22.1599],[-43.495,-22.156],[-43.494,-22.1596],[-43.4939,-22.1599]],[[-43.5122,-22.1546],[-43.5186,-22.1546],[-43.5142,-22.151],[-43.512,-22.1542],[-43.5122,-22.1546]],[[-43.4735,-22.1568],[-43.4804,-22.1566],[-43.4733,-22.1559],[-43.4735,-22.1568]],[[-43.4699,-22.1395],[-43.4702,-22.1467],[-43.472,-22.1401],[-43.4699,-22.1395]],[[-43.5079,-22.1476],[-43.5092,-22.1533],[-43.5086,-22.1477],[-43.5079,-22.1476]],[[-43.5067,-22.1482],[-43.5047,-22.1531],[-43.5069,-22.1482],[-43.5067,-22.1482]],[[-43.4724,-22.16],[-43.4804,-22.1611],[-43.4727,-22.1642],[-43.4885,-22.1647],[-43.4841,-22.1619],[-43.4888,-22.159],[-43.4727,-22.1604],[-43.4724,-22.16]],[[-43.4889,-22.1633],[-43.4926,-22.1612],[-43.4892,-22.1589],[-43.4889,-22.1632],[-43.4889,-22.1633]],[[-43.4869,-22.144],[-43.4809,-22.1425],[-43.4885,-22.1483],[-43.4776,-22.1508],[-43.4883,-22.1495],[-43.4822,-22.1541],[-43.5015,-22.1494],[-43.4875,-22.1441],[-43.4869,-22.144]],[[-43.4964,-22.1491],[-43.4928,-22.1487],[-43.4963,-22.1486],[-43.4964,-22.1491]],[[-43.4808,-22.1425],[-43.4759,-22.1456],[-43.4808,-22.1425],[-43.4808,-22.1425]],[[-43.477,-22.1415],[-43.4732,-22.1404],[-43.4723,-22.1448],[-43.4765,-22.1419],[-43.477,-22.1415]],[[-43.4776,-22.1509],[-43.4821,-22.1541],[-43.4778,-22.1509],[-43.4776,-22.1509]]]}},{"type":"Feature","properties":{"cod_imovel":"RJ-3304508-3328A4557D5541CF95A8A4265CB8F513","num_area":"9.1916000000000000000000000000000","ind_status":"AT"},"geometry":{"type":"Polygon","coordinates":[[[-43.5777,-22.176],[-43.5827,-22.1779],[-43.5783,-22.1756],[-43.5777,-22.176]]]}},{"type":"Feature","properties":{"cod_imovel":"RJ-3304508-350F94D3A96B42DB92292927E6A65C07","num_area":"2.2486000000000000000000000000000","ind_status":"AT"},"geometry":{"type":"Polygon","coordinates":[[[-43.5608,-22.1667],[-43.56,-22.1631],[-43.5603,-22.1667],[-43.5608,-22.1667]]]}},{"type":"Feature","properties":{"cod_imovel":"RJ-3304508-44B84D5C3B3A4C3385819C927FE5D7F8","num_area":"33.146800000000000000000000000000","ind_status":"AT"},"geometry":{"type":"Polygon","coordinates":[[[-43.6235,-22.0919],[-43.6174,-22.0918],[-43.6233,-22.092],[-43.6235,-22.0919]],[[-43.6168,-22.0925],[-43.6146,-22.0952],[-43.6217,-22.0984],[-43.6272,-22.0958],[-43.6153,-22.0954],[-43.6169,-22.0927],[-43.6168,-22.0925]]]}},{"type":"Feature","properties":{"cod_imovel":"RJ-3304508-4A0BDDC190CA4DAA8CA604AB1789B9E4","num_area":"105.78030000000000000000000000000","ind_status":"AT"},"geometry":{"type":"Polygon","coordinates":[[[-43.6184,-22.0883],[-43.6219,-22.0907],[-43.6184,-22.0883],[-43.6184,-22.0883]],[[-43.634,-22.1],[-43.6283,-22.095],[-43.6244,-22.0988],[-43.634,-22.1],[-43.634,-22.1]],[[-43.6268,-22.0793],[-43.6296,-22.0811],[-43.6269,-22.0793],[-43.6268,-22.0793]],[[-43.6256,-22.0845],[-43.6284,-22.0896],[-43.6256,-22.0845],[-43.6256,-22.0845]],[[-43.6272,-22.087],[-43.6315,-22.0889],[-43.6272,-22.087],[-43.6272,-22.087]],[[-43.6341,-22.0758],[-43.6301,-22.0773],[-43.6428,-22.0788],[-43.6343,-22.0756],[-43.6341,-22.0758]],[[-43.6358,-22.0768],[-43.6376,-22.0804],[-43.6358,-22.0769],[-43.6358,-22.0768]],[[-43.6401,-22.0925],[-43.637,-22.0943],[-43.6401,-22.0925],[-43.6401,-22.0925]],[[-43.6405,-22.0874],[-43.6437,-22.0857],[-43.6406,-22.0874],[-43.6405,-22.0874]],[[-43.6454,-22.0775],[-43.6495,-22.0793],[-43.6454,-22.0775],[-43.6454,-22.0775]]]}},{"type":"Feature","properties":{"cod_imovel":"RJ-3304508-9134ED15F7F7448190F47BA814D4C98C","num_area":"20.241600000000000000000000000000","ind_status":"AT"},"geometry":{"type":"Polygon","coordinates":[[[-43.5889,-22.0844],[-43.5925,-22.0861],[-43.5891,-22.0844],[-43.5889,-22.0844]]]}},{"type":"Feature","properties":{"cod_imovel":"RJ-3304508-4F18DB544F504594ADC9E04A92C1963D","num_area":"12.956900000000000000000000000000","ind_status":"AT"},"geometry":{"type":"Polygon","coordinates":[[[-43.6554,-22.1863],[-43.6583,-22.1914],[-43.6609,-22.1861],[-43.6571,-22.1897],[-43.6555,-22.1863],[-43.6554,-22.1863]]]}},{"type":"Feature","properties":{"cod_imovel":"RJ-3304508-53023AE40E7549C38D1E8F79B5AE095D","num_area":"77.242400000000000000000000000000","ind_status":"AT"},"geometry":{"type":"Polygon","coordinates":[[[-43.5371,-22.1142],[-43.5345,-22.1108],[-43.5367,-22.1144],[-43.5371,-22.1142]],[[-43.5493,-22.1055],[-43.5439,-22.103],[-43.5477,-22.1057],[-43.5493,-22.1055]],[[-43.5567,-22.1013],[-43.5522,-22.091],[-43.5515,-22.1028],[-43.5566,-22.1016],[-43.5567,-22.1013]]]}},{"type":"Feature","properties":{"cod_imovel":"RJ-3304508-7035768F3029446BBA1FB16E16B51CF8","num_area":"191.34210000000000000000000000000","ind_status":"AT"},"geometry":{"type":"Polygon","coordinates":[[[-43.5702,-22.2427],[-43.5748,-22.2425],[-43.5745,-22.2383],[-43.5714,-22.2399],[-43.5702,-22.2427]],[[-43.5667,-22.2411],[-43.5699,-22.2396],[-43.5665,-22.241],[-43.5667,-22.2411]],[[-43.5699,-22.2396],[-43.5657,-22.2405],[-43.5698,-22.2396],[-43.5699,-22.2396]],[[-43.5685,-22.2369],[-43.565,-22.2393],[-43.5684,-22.2369],[-43.5685,-22.2369]],[[-43.5891,-22.2507],[-43.5861,-22.2539],[-43.5885,-22.2515],[-43.5891,-22.2507]],[[-43.589,-22.2409],[-43.5839,-22.2487],[-43.5884,-22.2432],[-43.5918,-22.2517],[-43.5955,-22.2498],[-43.5916,-22.2445],[-43.589,-22.2409]],[[-43.5888,-22.2407],[-43.5812,-22.2432],[-43.5888,-22.2408],[-43.5888,-22.2407]],[[-43.5871,-22.2395],[-43.5776,-22.2303],[-43.5786,-22.2402],[-43.5817,-22.2388],[-43.5788,-22.2441],[-43.587,-22.2396],[-43.5871,-22.2395]],[[-43.5769,-22.2297],[-43.5719,-22.2277],[-43.5769,-22.2298],[-43.5769,-22.2297]],[[-43.5847,-22.2428],[-43.5838,-22.2487],[-43.5847,-22.2428],[-43.5847,-22.2428]]]}},{"type":"Feature","properties":{"cod_imovel":"RJ-3304508-53C181558AEC492C9817614EFCFA6A07","num_area":"20.653700000000000000000000000000","ind_status":"AT"},"geometry":{"type":"Polygon","coordinates":[[[-43.6352,-22.151],[-43.6306,-22.1501],[-43.6349,-22.1509],[-43.6352,-22.151]]]}},{"type":"Feature","properties":{"cod_imovel":"RJ-3304508-6AC5FFD16EFF451AAABE0DA2BBAC1DD3","num_area":"12.722300000000000000000000000000","ind_status":"AT"},"geometry":{"type":"Polygon","coordinates":[[[-43.6383,-22.1169],[-43.6362,-22.1138],[-43.6382,-22.117],[-43.6383,-22.1169]]]}},{"type":"Feature","properties":{"cod_imovel":"RJ-3304508-782E0A76D20C48A69BC368E07D016318","num_area":"16.705400000000000000000000000000","ind_status":"AT"},"geometry":{"type":"Polygon","coordinates":[[[-43.655,-22.1509],[-43.6579,-22.1484],[-43.6535,-22.145],[-43.6545,-22.152],[-43.655,-22.1509]]]}},{"type":"Feature","properties":{"cod_imovel":"RJ-3304508-908B78495D7D4E7D8552D32C72428E86","num_area":"1255.2670000000000000000000000000","ind_status":"AT"},"geometry":{"type":"Polygon","coordinates":[[[-43.4781,-22.1047],[-43.4789,-22.0991],[-43.4777,-22.104],[-43.4781,-22.1047]],[[-43.477,-22.113],[-43.4779,-22.1064],[-43.4773,-22.1109],[-43.477,-22.113]],[[-43.5091,-22.1207],[-43.5034,-22.1187],[-43.5094,-22.1206],[-43.5091,-22.1207]],[[-43.5032,-22.103],[-43.5068,-22.0983],[-43.5033,-22.1028],[-43.5032,-22.103]],[[-43.4776,-22.1129],[-43.48,-22.1159],[-43.4782,-22.105],[-43.4776,-22.1125],[-43.4776,-22.1129]],[[-43.4752,-22.1237],[-43.4767,-22.1148],[-43.4753,-22.1239],[-43.4752,-22.1237]],[[-43.5026,-22.1183],[-43.507,-22.1212],[-43.5034,-22.1187],[-43.5026,-22.1183]],[[-43.4932,-22.1143],[-43.4906,-22.1096],[-43.493,-22.1135],[-43.4932,-22.1143]],[[-43.5036,-22.1316],[-43.5083,-22.1284],[-43.5036,-22.1315],[-43.5036,-22.1316]],[[-43.4979,-22.1058],[-43.5033,-22.1028],[-43.4981,-22.1058],[-43.4979,-22.1058]],[[-43.5164,-22.1435],[-43.5111,-22.1412],[-43.5159,-22.1429],[-43.5164,-22.1435]],[[-43.4759,-22.1105],[-43.472,-22.1414],[-43.4774,-22.1048],[-43.4759,-22.1105]],[[-43.501,-22.088],[-43.503,-22.0842],[-43.501,-22.0877],[-43.501,-22.088]],[[-43.5037,-22.0777],[-43.5047,-22.0843],[-43.5039,-22.0779],[-43.5037,-22.0777]],[[-43.5029,-22.1018],[-43.5039,-22.0988],[-43.5029,-22.1017],[-43.5029,-22.1018]],[[-43.5086,-22.129],[-43.5112,-22.1368],[-43.5085,-22.1292],[-43.5086,-22.129]],[[-43.5045,-22.0794],[-43.504,-22.0834],[-43.5045,-22.0794],[-43.5045,-22.0794]],[[-43.4888,-22.1049],[-43.4922,-22.1013],[-43.4889,-22.1042],[-43.4888,-22.1049]],[[-43.4731,-22.1353],[-43.4767,-22.114],[-43.4735,-22.1357],[-43.4731,-22.1353]],[[-43.4969,-22.0778],[-43.498,-22.0807],[-43.4969,-22.0777],[-43.4969,-22.0778]],[[-43.5067,-22.1301],[-43.5107,-22.1383],[-43.5085,-22.1289],[-43.5059,-22.1309],[-43.5067,-22.1301]],[[-43.5007,-22.088],[-43.5022,-22.0828],[-43.5007,-22.0881],[-43.5007,-22.088]],[[-43.5043,-22.0937],[-43.5064,-22.0882],[-43.5042,-22.0935],[-43.5043,-22.0937]],[[-43.4858,-22.1242],[-43.4908,-22.1235],[-43.4819,-22.1228],[-43.485,-22.1242],[-43.4858,-22.1242]],[[-43.4821,-22.0967],[-43.48,-22.1159],[-43.4855,-22.1072],[-43.4803,-22.1017],[-43.482,-22.0968],[-43.4821,-22.0967]],[[-43.4982,-22.1428],[-43.5075,-22.1433],[-43.507,-22.1332],[-43.4982,-22.1428],[-43.4982,-22.1428]],[[-43.5168,-22.137],[-43.5116,-22.1368],[-43.5161,-22.1369],[-43.5168,-22.137]],[[-43.4988,-22.1082],[-43.5029,-22.1124],[-43.4988,-22.1079],[-43.4988,-22.1082]],[[-43.5029,-22.0921],[-43.5033,-22.0851],[-43.5033,-22.0922],[-43.5029,-22.0921]],[[-43.5134,-22.1248],[-43.5092,-22.1265],[-43.5124,-22.1299],[-43.5134,-22.1248],[-43.5134,-22.1248]],[[-43.5028,-22.1175],[-43.5095,-22.1185],[-43.5016,-22.1036],[-43.4985,-22.1062],[-43.5013,-22.1044],[-43.5027,-22.1174],[-43.5028,-22.1175]],[[-43.503,-22.1152],[-43.5037,-22.1107],[-43.5062,-22.1155],[-43.503,-22.1151],[-43.503,-22.1152]],[[-43.4856,-22.1075],[-43.4793,-22.1234],[-43.4776,-22.1132],[-43.4756,-22.1238],[-43.4875,-22.1224],[-43.493,-22.1147],[-43.4875,-22.1084],[-43.4856,-22.1167],[-43.4868,-22.1079],[-43.4853,-22.1128],[-43.4825,-22.1108],[-43.4855,-22.1078],[-43.4856,-22.1075]],[[-43.5007,-22.0968],[-43.4853,-22.0967],[-43.4964,-22.0969],[-43.4936,-22.1013],[-43.485,-22.0967],[-43.4938,-22.1016],[-43.4975,-22.0973],[-43.4992,-22.1044],[-43.5039,-22.0925],[-43.5008,-22.0961],[-43.5007,-22.0968]],[[-43.4753,-22.1272],[-43.4759,-22.1409],[-43.4727,-22.1415],[-43.4975,-22.1459],[-43.5048,-22.1325],[-43.4978,-22.1341],[-43.5081,-22.1252],[-43.5027,-22.1265],[-43.508,-22.125],[-43.5024,-22.1252],[-43.4959,-22.1068],[-43.4905,-22.1092],[-43.4978,-22.1298],[-43.4863,-22.1266],[-43.4821,-22.1315],[-43.4914,-22.1235],[-43.4856,-22.1271],[-43.4775,-22.1241],[-43.4785,-22.1346],[-43.4754,-22.1273],[-43.4753,-22.1272]]]}},{"type":"Feature","properties":{"cod_imovel":"RJ-3304508-8D9134AD19C64B94B46C2667CD3D768C","num_area":"7.0037000000000000000000000000000","ind_status":"AT"},"geometry":{"type":"Polygon","coordinates":[[[-43.5372,-22.1308],[-43.5372,-22.1271],[-43.5361,-22.1312],[-43.5372,-22.1308]]]}},{"type":"Feature","properties":{"cod_imovel":"RJ-3304508-ADAFBDDD811547B7B7D3566FFBDC3FBA","num_area":"29.550000000000000000000000000000","ind_status":"AT"},"geometry":{"type":"Polygon","coordinates":[[[-43.5767,-22.1508],[-43.5701,-22.1572],[-43.5772,-22.1515],[-43.5767,-22.1508]]]}},{"type":"Feature","properties":{"cod_imovel":"RJ-3304508-A53C23A4147744AC9C4E45864F316BFF","num_area":"18.308200000000000000000000000000","ind_status":"AT"},"geometry":{"type":"Polygon","coordinates":[[[-43.5209,-22.0969],[-43.518,-22.094],[-43.5207,-22.097],[-43.5209,-22.0969]],[[-43.5117,-22.0994],[-43.5137,-22.0966],[-43.5117,-22.0993],[-43.5117,-22.0994]],[[-43.5044,-22.0953],[-43.5086,-22.0987],[-43.5048,-22.0955],[-43.5044,-22.0953]],[[-43.5155,-22.094],[-43.5121,-22.0903],[-43.5155,-22.0942],[-43.5155,-22.094]]]}},{"type":"Feature","properties":{"cod_imovel":"RJ-3304508-BCDFC22B4A114DCEBF90F14E130809B5","num_area":"4.5246000000000000000000000000000","ind_status":"AT"},"geometry":{"type":"Polygon","coordinates":[[[-43.6155,-22.1841],[-43.6191,-22.1874],[-43.6165,-22.1856],[-43.6155,-22.1841]]]}},{"type":"Feature","properties":{"cod_imovel":"RJ-3304508-B38E1338658942B4851CE4B20574A307","num_area":"15.256800000000000000000000000000","ind_status":"AT"},"geometry":{"type":"Polygon","coordinates":[[[-43.6031,-22.1603],[-43.6073,-22.159],[-43.5999,-22.1571],[-43.603,-22.1603],[-43.6031,-22.1603]]]}},{"type":"Feature","properties":{"cod_imovel":"RJ-3304508-B3B21A4B5E2A41EEBEF5D43241081A43","num_area":"33.024600000000000000000000000000","ind_status":"AT"},"geometry":{"type":"Polygon","coordinates":[[[-43.4449,-22.1084],[-43.4445,-22.0979],[-43.4446,-22.1068],[-43.4449,-22.1084]],[[-43.4396,-22.0977],[-43.4387,-22.1014],[-43.4436,-22.0969],[-43.4403,-22.0975],[-43.4396,-22.0977]]]}},{"type":"Feature","properties":{"cod_imovel":"RJ-3304508-BBAE9E83896B42FD94EE293BC1384F48","num_area":"17.245600000000000000000000000000","ind_status":"AT"},"geometry":{"type":"Polygon","coordinates":[[[-43.6507,-22.166],[-43.6487,-22.1615],[-43.6497,-22.1671],[-43.6507,-22.166]],[[-43.6413,-22.1608],[-43.6383,-22.1604],[-43.6421,-22.1607],[-43.6413,-22.1608]]]}},{"type":"Feature","properties":{"cod_imovel":"RJ-3304508-BF2D0C4D18054EC3AAEED12B5CD9DCEE","num_area":"23.607600000000000000000000000000","ind_status":"AT"},"geometry":{"type":"Polygon","coordinates":[[[-43.6394,-22.1708],[-43.6379,-22.1748],[-43.6399,-22.1721],[-43.6394,-22.1708]],[[-43.6361,-22.1865],[-43.6397,-22.1861],[-43.6361,-22.1861],[-43.6361,-22.1865]],[[-43.6415,-22.1822],[-43.6396,-22.1846],[-43.6415,-22.182],[-43.6415,-22.1822]]]}},{"type":"Feature","properties":{"cod_imovel":"RJ-3304508-C4558398B8D04553ABB94F9EF36E3732","num_area":"12.188100000000000000000000000000","ind_status":"AT"},"geometry":{"type":"Polygon","coordinates":[[[-43.475,-22.1746],[-43.4698,-22.1754],[-43.4749,-22.1746],[-43.475,-22.1746]]]}},{"type":"Feature","properties":{"cod_imovel":"RJ-3304508-D3426DBD4B9F4F03B7EE0F85E9CB2778","num_area":"9.2057000000000000000000000000000","ind_status":"AT"},"geometry":{"type":"Polygon","coordinates":[[[-43.5679,-22.0903],[-43.5762,-22.0933],[-43.568,-22.0897],[-43.5679,-22.0903]]]}},{"type":"Feature","properties":{"cod_imovel":"RJ-3304508-D45BE8D9B1EC4EE3A7AAD81CD72633F8","num_area":"8.9329000000000000000000000000000","ind_status":"AT"},"geometry":{"type":"Polygon","coordinates":[[[-43.6605,-22.1783],[-43.6624,-22.1747],[-43.6604,-22.178],[-43.6605,-22.1783]]]}},{"type":"Feature","properties":{"cod_imovel":"RJ-3304508-E63D446B6EAA4EAEA245655CE74078D4","num_area":"8.3584000000000000000000000000000","ind_status":"AT"},"geometry":{"type":"Polygon","coordinates":[[[-43.6368,-22.1715],[-43.6404,-22.1706],[-43.6367,-22.1715],[-43.6368,-22.1715]],[[-43.6306,-22.1698],[-43.6357,-22.1679],[-43.631,-22.1695],[-43.6306,-22.1698]]]}},{"type":"Feature","properties":{"cod_imovel":"RJ-3304508-F971783CBB8D4681853D690150351452","num_area":"18.134400000000000000000000000000","ind_status":"AT"},"geometry":{"type":"Polygon","coordinates":[[[-43.5631,-22.16],[-43.5604,-22.1642],[-43.5637,-22.1602],[-43.5631,-22.16]],[[-43.5607,-22.1659],[-43.5666,-22.1667],[-43.5611,-22.1656],[-43.5607,-22.1659]],[[-43.5692,-22.1613],[-43.5623,-22.165],[-43.5687,-22.1616],[-43.5692,-22.1613]]]}}]}