{"type":"FeatureCollection","features":[{"type":"Feature","properties":{"cod_imovel":"RJ-3304300-CC15E08027154D78B75188EA836B9816","num_area":"82.850700000000000000000000000000","ind_status":"AT"},"geometry":{"type":"Polygon","coordinates":[[[-42.4562,-22.7413],[-42.4581,-22.7451],[-42.4646,-22.7438],[-42.4576,-22.7399],[-42.4562,-22.7413]],[[-42.4572,-22.7205],[-42.4566,-22.7254],[-42.4608,-22.7215],[-42.4667,-22.7237],[-42.4587,-22.7191],[-42.4572,-22.7205]]]}},{"type":"Feature","properties":{"cod_imovel":"RJ-3304300-5A011A2DE055416A9E134EEAB2F74F3D","num_area":"118.51420000000000000000000000000","ind_status":"AT"},"geometry":{"type":"Polygon","coordinates":[[[-42.6228,-22.6554],[-42.6181,-22.6513],[-42.6099,-22.6622],[-42.6153,-22.665],[-42.6228,-22.6554]],[[-42.6087,-22.6696],[-42.6072,-22.6661],[-42.6023,-22.6702],[-42.6087,-22.6696],[-42.6087,-22.6696]]]}},{"type":"Feature","properties":{"cod_imovel":"RJ-3304300-CD5F1F089A5340F780809057E7F96335","num_area":"18.996900000000000000000000000000","ind_status":"AT"},"geometry":{"type":"Polygon","coordinates":[[[-42.5031,-22.8196],[-42.5055,-22.8218],[-42.5033,-22.8198],[-42.5031,-22.8196]],[[-42.5062,-22.8213],[-42.5012,-22.8116],[-42.5059,-22.8213],[-42.5062,-22.8213]]]}},{"type":"Feature","properties":{"cod_imovel":"RJ-3304300-4BE6985C52624D2CBACEC1ACF322DDB6","num_area":"42.966900000000000000000000000000","ind_status":"AT"},"geometry":{"type":"Polygon","coordinates":[[[-42.6596,-22.7676],[-42.662,-22.7634],[-42.6584,-22.7618],[-42.6532,-22.767],[-42.6594,-22.7677],[-42.6596,-22.7676]],[[-42.6496,-22.7803],[-42.6489,-22.7849],[-42.6499,-22.7803],[-42.6496,-22.7803]]]}},{"type":"Feature","properties":{"cod_imovel":"RJ-3304300-B2036B420E5140A38880BC017D2D0D9F","num_area":"13.230000000000000000000000000000","ind_status":"AT"},"geometry":{"type":"Polygon","coordinates":[[[-42.5936,-22.6547],[-42.5966,-22.6594],[-42.5937,-22.6547],[-42.5936,-22.6547]]]}},{"type":"Feature","properties":{"cod_imovel":"RJ-3304300-96E2010EF9034384ACD7FBCDB06F6BC4","num_area":"10.074600000000000000000000000000","ind_status":"PE"},"geometry":{"type":"Polygon","coordinates":[[[-42.6459,-22.6773],[-42.6487,-22.6749],[-42.6458,-22.6773],[-42.6459,-22.6773]]]}},{"type":"Feature","properties":{"cod_imovel":"RJ-3304300-70A6A68F7DD54CB39DD63A99A843E83F","num_area":"7.6783000000000000000000000000000","ind_status":"PE"},"geometry":{"type":"Polygon","coordinates":[[[-42.5347,-22.7199],[-42.5376,-22.7182],[-42.5325,-22.7158],[-42.5357,-22.7181],[-42.5347,-22.7199]]]}},{"type":"Feature","properties":{"cod_imovel":"RJ-3304300-5FD8BB6E1B73466AA807CD5F509990D6","num_area":"6.2410000000000000000000000000000","ind_status":"PE"},"geometry":{"type":"Polygon","coordinates":[[[-42.5324,-22.7158],[-42.5372,-22.7127],[-42.5324,-22.7157],[-42.5324,-22.7158]]]}},{"type":"Feature","properties":{"cod_imovel":"RJ-3304300-6D79DF3F552948348962FF5644CDEA18","num_area":"30.065200000000000000000000000000","ind_status":"AT"},"geometry":{"type":"Polygon","coordinates":[[[-42.4558,-22.7232],[-42.4531,-22.728],[-42.4561,-22.7228],[-42.4558,-22.7232]],[[-42.45,-22.7454],[-42.4562,-22.7451],[-42.4517,-22.7385],[-42.4507,-22.7417],[-42.45,-22.7454]]]}},{"type":"Feature","properties":{"cod_imovel":"RJ-3304300-878931376EBB4985BDFCDE8A490B7D97","num_area":"9.7365000000000000000000000000000","ind_status":"AT"},"geometry":{"type":"Polygon","coordinates":[[[-42.6259,-22.6923],[-42.6226,-22.6889],[-42.6259,-22.6923],[-42.6259,-22.6923]]]}},{"type":"Feature","properties":{"cod_imovel":"RJ-3304300-ABA8719995634087BC1EB085A562EDD5","num_area":"23.436300000000000000000000000000","ind_status":"AT"},"geometry":{"type":"Polygon","coordinates":[[[-42.6352,-22.7484],[-42.6383,-22.7529],[-42.6418,-22.7484],[-42.6358,-22.7488],[-42.6352,-22.7484]]]}},{"type":"Feature","properties":{"cod_imovel":"RJ-3304300-0753E255950E4CF88DBB6090A4E9CDD7","num_area":"2.8966000000000000000000000000000","ind_status":"AT"},"geometry":{"type":"Polygon","coordinates":[[[-42.6616,-22.6481],[-42.6587,-22.6472],[-42.6616,-22.6484],[-42.6616,-22.6481]]]}},{"type":"Feature","properties":{"cod_imovel":"RJ-3304300-E836DB0C6CDF49FAAF3EE0FA1229CB67","num_area":"6.4773000000000000000000000000000","ind_status":"AT"},"geometry":{"type":"Polygon","coordinates":[[[-42.6309,-22.7024],[-42.6322,-22.6975],[-42.6307,-22.7023],[-42.6309,-22.7024]]]}},{"type":"Feature","properties":{"cod_imovel":"RJ-3304300-9769B0230FC24C4393C4F325663D29C5","num_area":"66.684000000000000000000000000000","ind_status":"AT"},"geometry":{"type":"Polygon","coordinates":[[[-42.5907,-22.6605],[-42.5844,-22.66],[-42.5899,-22.664],[-42.5958,-22.6606],[-42.5872,-22.6576],[-42.5906,-22.6604],[-42.5907,-22.6605]],[[-42.5858,-22.6539],[-42.5844,-22.6568],[-42.5862,-22.6541],[-42.5858,-22.6539]],[[-42.5838,-22.6596],[-42.5867,-22.6548],[-42.5838,-22.6595],[-42.5838,-22.6596]],[[-42.5899,-22.664],[-42.5943,-22.6623],[-42.5901,-22.6639],[-42.5899,-22.664]],[[-42.5959,-22.6606],[-42.5935,-22.6582],[-42.5958,-22.6605],[-42.5959,-22.6606]],[[-42.5939,-22.658],[-42.5887,-22.6564],[-42.5939,-22.6581],[-42.5939,-22.658]],[[-42.5893,-22.6557],[-42.5863,-22.6578],[-42.5893,-22.6558],[-42.5893,-22.6557]]]}},{"type":"Feature","properties":{"cod_imovel":"RJ-3304300-89564B4111CC47279447B008E7F49D33","num_area":"9.4524000000000000000000000000000","ind_status":"PE"},"geometry":{"type":"Polygon","coordinates":[[[-42.6581,-22.7747],[-42.6617,-22.7783],[-42.6585,-22.7748],[-42.6581,-22.7747]]]}},{"type":"Feature","properties":{"cod_imovel":"RJ-3304300-0E729450ED554F249D77482967978EE0","num_area":"8.0625000000000000000000000000000","ind_status":"AT"},"geometry":{"type":"Polygon","coordinates":[[[-42.571,-22.7578],[-42.5731,-22.7608],[-42.5712,-22.7579],[-42.571,-22.7578]]]}},{"type":"Feature","properties":{"cod_imovel":"RJ-3304300-4484432A8B7043F287C5D029170C2D2E","num_area":"65.457100000000000000000000000000","ind_status":"AT"},"geometry":{"type":"Polygon","coordinates":[[[-42.4719,-22.7242],[-42.468,-22.7222],[-42.4718,-22.7242],[-42.4719,-22.7242]],[[-42.4725,-22.7245],[-42.4772,-22.725],[-42.4726,-22.7246],[-42.4725,-22.7245]],[[-42.4671,-22.7252],[-42.467,-22.7328],[-42.4696,-22.7253],[-42.4671,-22.7252]],[[-42.4676,-22.7326],[-42.4709,-22.7338],[-42.4677,-22.7326],[-42.4676,-22.7326]],[[-42.4709,-22.7338],[-42.4777,-22.7331],[-42.4742,-22.7348],[-42.4698,-22.7289],[-42.4708,-22.7338],[-42.4709,-22.7338]]]}},{"type":"Feature","properties":{"cod_imovel":"RJ-3304300-F6CF351A69584C98B8468BD94DFDD6E1","num_area":"9.7809000000000000000000000000000","ind_status":"PE"},"geometry":{"type":"Polygon","coordinates":[[[-42.4812,-22.7404],[-42.477,-22.742],[-42.4811,-22.7405],[-42.4812,-22.7404]]]}},{"type":"Feature","properties":{"cod_imovel":"RJ-3304300-076FCAAD81AD43BBA7E227EA85292E14","num_area":"1.9897000000000000000000000000000","ind_status":"PE"},"geometry":{"type":"Polygon","coordinates":[[[-42.6334,-22.7646],[-42.634,-22.7678],[-42.6335,-22.7648],[-42.6334,-22.7646]]]}},{"type":"Feature","properties":{"cod_imovel":"RJ-3304300-1E27350C6A144BB6964FE10F63E86DD4","num_area":"10.259300000000000000000000000000","ind_status":"AT"},"geometry":{"type":"Polygon","coordinates":[[[-42.5299,-22.699],[-42.5299,-22.7027],[-42.5303,-22.6991],[-42.5299,-22.699]]]}},{"type":"Feature","properties":{"cod_imovel":"RJ-3304300-50801F1D9F5B4EC2972E20A99766C53C","num_area":"7.1099000000000000000000000000000","ind_status":"PE"},"geometry":{"type":"Polygon","coordinates":[[[-42.6396,-22.6809],[-42.6425,-22.6827],[-42.6399,-22.681],[-42.6396,-22.6809]]]}},{"type":"Feature","properties":{"cod_imovel":"RJ-3304300-1BB74CE0748348EA88FED7ECCF68FCF2","num_area":"19.375300000000000000000000000000","ind_status":"AT"},"geometry":{"type":"Polygon","coordinates":[[[-42.6123,-22.6822],[-42.6092,-22.6877],[-42.6147,-22.6835],[-42.6123,-22.6822]]]}},{"type":"Feature","properties":{"cod_imovel":"RJ-3304300-85485B038BEE48D098A9F0EA8BA15710","num_area":"20.304200000000000000000000000000","ind_status":"AT"},"geometry":{"type":"Polygon","coordinates":[[[-42.6105,-22.6887],[-42.608,-22.6854],[-42.6063,-22.6915],[-42.6103,-22.6891],[-42.6105,-22.6887]]]}},{"type":"Feature","properties":{"cod_imovel":"RJ-3304300-4609333D180E4CD5A8FB6CDC95211D06","num_area":"41.896800000000000000000000000000","ind_status":"AT"},"geometry":{"type":"Polygon","coordinates":[[[-42.5234,-22.7432],[-42.5265,-22.7386],[-42.5235,-22.7431],[-42.5234,-22.7432]],[[-42.5218,-22.7336],[-42.5167,-22.737],[-42.523,-22.7373],[-42.5218,-22.7337],[-42.5218,-22.7336]],[[-42.5155,-22.7392],[-42.5219,-22.7413],[-42.5163,-22.7376],[-42.5155,-22.7392]]]}},{"type":"Feature","properties":{"cod_imovel":"RJ-3304300-067D4C191BAC4468BF78A79DB8773EAD","num_area":"10.341000000000000000000000000000","ind_status":"AT"},"geometry":{"type":"Polygon","coordinates":[[[-42.5925,-22.6574],[-42.5919,-22.6531],[-42.5913,-22.6567],[-42.5925,-22.6574]]]}},{"type":"Feature","properties":{"cod_imovel":"RJ-3304300-04A4C39A77194DF99139613044D7BEC9","num_area":"85.767800000000000000000000000000","ind_status":"AT"},"geometry":{"type":"Polygon","coordinates":[[[-42.5213,-22.7195],[-42.5184,-22.725],[-42.5214,-22.7197],[-42.5213,-22.7195]],[[-42.5267,-22.7237],[-42.5251,-22.721],[-42.5268,-22.7238],[-42.5267,-22.7237]],[[-42.5252,-22.731],[-42.5259,-22.7255],[-42.5252,-22.731],[-42.5252,-22.731]],[[-42.5285,-22.7257],[-42.5302,-22.719],[-42.5285,-22.7257],[-42.5285,-22.7257]],[[-42.5273,-22.7218],[-42.5284,-22.7257],[-42.5273,-22.7218],[-42.5273,-22.7218]],[[-42.5228,-22.7278],[-42.5216,-22.7247],[-42.5228,-22.7278],[-42.5228,-22.7278]],[[-42.5283,-22.7176],[-42.5223,-22.7202],[-42.5273,-22.7214],[-42.5283,-22.7176],[-42.5283,-22.7176]]]}},{"type":"Feature","properties":{"cod_imovel":"RJ-3304300-55C59BF17DB04AB0A7B5F6D97ADA1993","num_area":"95.759800000000000000000000000000","ind_status":"AT"},"geometry":{"type":"Polygon","coordinates":[[[-42.5489,-22.755],[-42.5449,-22.7561],[-42.5489,-22.7551],[-42.5489,-22.755]],[[-42.5469,-22.7615],[-42.5503,-22.7595],[-42.547,-22.7614],[-42.5469,-22.7615]],[[-42.5645,-22.7408],[-42.5696,-22.7384],[-42.5637,-22.7353],[-42.5645,-22.7408],[-42.5645,-22.7408]],[[-42.5437,-22.7481],[-42.5429,-22.7552],[-42.5482,-22.7528],[-42.544,-22.748],[-42.5437,-22.7481]],[[-42.5513,-22.7578],[-42.5528,-22.7536],[-42.5513,-22.7578],[-42.5513,-22.7578]],[[-42.535,-22.7522],[-42.5422,-22.7469],[-42.536,-22.7514],[-42.535,-22.7522]],[[-42.5524,-22.7531],[-42.5503,-22.7471],[-42.5521,-22.753],[-42.5524,-22.7531]],[[-42.5524,-22.7531],[-42.5508,-22.7492],[-42.5517,-22.7528],[-42.5524,-22.7531]],[[-42.5509,-22.7492],[-42.547,-22.7432],[-42.5508,-22.7492],[-42.5509,-22.7492]],[[-42.5454,-22.7417],[-42.5501,-22.7473],[-42.5454,-22.7417],[-42.5454,-22.7417]]]}},{"type":"Feature","properties":{"cod_imovel":"RJ-3304300-6EE3F52250F34DE8A2CF02D076829646","num_area":"11.284000000000000000000000000000","ind_status":"AT"},"geometry":{"type":"Polygon","coordinates":[[[-42.6051,-22.6862],[-42.6069,-22.6832],[-42.6051,-22.6859],[-42.6051,-22.6862]],[[-42.6079,-22.6812],[-42.6057,-22.6834],[-42.6079,-22.6812],[-42.6079,-22.6812]]]}},{"type":"Feature","properties":{"cod_imovel":"RJ-3304300-9198C5743411466CB41AB350BB78159D","num_area":"9.2141000000000000000000000000000","ind_status":"AT"},"geometry":{"type":"Polygon","coordinates":[[[-42.5955,-22.6839],[-42.5994,-22.6824],[-42.5949,-22.6838],[-42.5955,-22.6839]]]}},{"type":"Feature","properties":{"cod_imovel":"RJ-3304300-D78241E36A8440ADB42A293C99C9F6EF","num_area":"130.09640000000000000000000000000","ind_status":"AT"},"geometry":{"type":"Polygon","coordinates":[[[-42.5864,-22.7478],[-42.583,-22.7498],[-42.5864,-22.7479],[-42.5864,-22.7478]],[[-42.5899,-22.7319],[-42.5844,-22.7283],[-42.5897,-22.7318],[-42.5899,-22.7319]],[[-42.5889,-22.7453],[-42.5861,-22.7385],[-42.5888,-22.745],[-42.5889,-22.7453]],[[-42.5904,-22.7309],[-42.5845,-22.7281],[-42.5904,-22.7309],[-42.5904,-22.7309]],[[-42.5845,-22.728],[-42.5809,-22.7265],[-42.5845,-22.728],[-42.5845,-22.728]],[[-42.587,-22.737],[-42.5858,-22.7301],[-42.5865,-22.7368],[-42.587,-22.737]],[[-42.5639,-22.7546],[-42.5797,-22.7618],[-42.5817,-22.7584],[-42.5644,-22.7538],[-42.5639,-22.7546]],[[-42.584,-22.7542],[-42.5755,-22.7445],[-42.5838,-22.7541],[-42.584,-22.7542]],[[-42.584,-22.7542],[-42.5755,-22.7446],[-42.5842,-22.7545],[-42.584,-22.7542]],[[-42.5748,-22.7371],[-42.565,-22.7405],[-42.5764,-22.7381],[-42.5764,-22.7344],[-42.5748,-22.7371]],[[-42.5769,-22.7377],[-42.5777,-22.7322],[-42.5769,-22.7375],[-42.5769,-22.7377]],[[-42.5787,-22.7333],[-42.5805,-22.7274],[-42.5844,-22.7281],[-42.5809,-22.7266],[-42.5786,-22.7332],[-42.5787,-22.7333]]]}},{"type":"Feature","properties":{"cod_imovel":"RJ-3304300-E92405A0B7144CA99DB442E88E420F9B","num_area":"40.672600000000000000000000000000","ind_status":"AT"},"geometry":{"type":"Polygon","coordinates":[[[-42.5452,-22.7337],[-42.5489,-22.7354],[-42.5468,-22.7327],[-42.5452,-22.7337]],[[-42.5464,-22.7323],[-42.547,-22.7289],[-42.5464,-22.7323],[-42.5464,-22.7323]],[[-42.5533,-22.728],[-42.5498,-22.7321],[-42.5534,-22.7285],[-42.5533,-22.728]],[[-42.5514,-22.7272],[-42.5475,-22.728],[-42.5495,-22.7318],[-42.5518,-22.7274],[-42.5514,-22.7272]]]}},{"type":"Feature","properties":{"cod_imovel":"RJ-3304300-DBC84009F2F94CBEB969D568F63DD1DC","num_area":"34.019900000000000000000000000000","ind_status":"AT"},"geometry":{"type":"Polygon","coordinates":[[[-42.5859,-22.6898],[-42.5812,-22.6867],[-42.5832,-22.6903],[-42.5859,-22.6898]],[[-42.5758,-22.6853],[-42.5794,-22.6876],[-42.5761,-22.6848],[-42.5758,-22.6853]],[[-42.5811,-22.6792],[-42.5779,-22.6818],[-42.5847,-22.6809],[-42.5811,-22.6792]]]}},{"type":"Feature","properties":{"cod_imovel":"RJ-3304300-7E0092D44E7B49B293A3B806B7F512A2","num_area":"15.423300000000000000000000000000","ind_status":"AT"},"geometry":{"type":"Polygon","coordinates":[[[-42.5999,-22.7122],[-42.5941,-22.7111],[-42.5998,-22.7123],[-42.5999,-22.7122]]]}},{"type":"Feature","properties":{"cod_imovel":"RJ-3304300-E0F8865F80F349B6B9203F3C4D93A98F","num_area":"11.828200000000000000000000000000","ind_status":"AT"},"geometry":{"type":"Polygon","coordinates":[[[-42.6551,-22.6686],[-42.6508,-22.6691],[-42.6548,-22.6687],[-42.6551,-22.6686]],[[-42.6547,-22.6655],[-42.6512,-22.6671],[-42.6542,-22.6657],[-42.6547,-22.6655]]]}},{"type":"Feature","properties":{"cod_imovel":"RJ-3304300-66B9CE428807488391B38ACFBDCF1DBD","num_area":"38.378500000000000000000000000000","ind_status":"AT"},"geometry":{"type":"Polygon","coordinates":[[[-42.5804,-22.6916],[-42.5859,-22.6982],[-42.5894,-22.6964],[-42.5805,-22.6914],[-42.5804,-22.6916]],[[-42.5871,-22.698],[-42.5926,-22.6982],[-42.5875,-22.6977],[-42.5871,-22.698]]]}},{"type":"Feature","properties":{"cod_imovel":"RJ-3304300-C39C9561FBAD47DDBC60D9CD915C6CA5","num_area":"15.638400000000000000000000000000","ind_status":"AT"},"geometry":{"type":"Polygon","coordinates":[[[-42.6565,-22.6553],[-42.6577,-22.6523],[-42.6565,-22.6553],[-42.6565,-22.6553]],[[-42.6591,-22.6545],[-42.6637,-22.6537],[-42.6591,-22.6545],[-42.6591,-22.6545]],[[-42.6597,-22.6516],[-42.6632,-22.654],[-42.6597,-22.6517],[-42.6597,-22.6516]]]}},{"type":"Feature","properties":{"cod_imovel":"RJ-3304300-3CD7139651B148A195481B09214DFCF7","num_area":"3.4059000000000000000000000000000","ind_status":"AT"},"geometry":{"type":"Polygon","coordinates":[[[-42.6076,-22.8045],[-42.6101,-22.8071],[-42.6078,-22.8047],[-42.6076,-22.8045]]]}},{"type":"Feature","properties":{"cod_imovel":"RJ-3304300-1D878DD5C5B14CE483C05B197202626F","num_area":"45.929600000000000000000000000000","ind_status":"AT"},"geometry":{"type":"Polygon","coordinates":[[[-42.4689,-22.8059],[-42.4722,-22.8138],[-42.4772,-22.8036],[-42.4692,-22.8056],[-42.4689,-22.8059]]]}},{"type":"Feature","properties":{"cod_imovel":"RJ-3304300-CBAA7A4ECB804EEDAA382F21008C3F5F","num_area":"49.646800000000000000000000000000","ind_status":"AT"},"geometry":{"type":"Polygon","coordinates":[[[-42.616,-22.7396],[-42.6203,-22.7463],[-42.6226,-22.7402],[-42.6164,-22.7399],[-42.616,-22.7396]]]}},{"type":"Feature","properties":{"cod_imovel":"RJ-3304300-EF0F0AEBC9414EADAD6B5AFD335A5893","num_area":"56.210400000000000000000000000000","ind_status":"AT"},"geometry":{"type":"Polygon","coordinates":[[[-42.5544,-22.6403],[-42.5583,-22.6452],[-42.5549,-22.6406],[-42.5544,-22.6403]],[[-42.5599,-22.648],[-42.5638,-22.649],[-42.5661,-22.6428],[-42.5606,-22.643],[-42.5599,-22.648],[-42.5599,-22.648]],[[-42.5643,-22.6457],[-42.5708,-22.6442],[-42.5644,-22.6454],[-42.5643,-22.6457]],[[-42.57,-22.6426],[-42.5651,-22.6419],[-42.5699,-22.6426],[-42.57,-22.6426]]]}},{"type":"Feature","properties":{"cod_imovel":"RJ-3304300-8DE96EFD2C51495296DA6DE50D6F7186","num_area":"18.726300000000000000000000000000","ind_status":"AT"},"geometry":{"type":"Polygon","coordinates":[[[-42.5891,-22.6317],[-42.5863,-22.6341],[-42.5892,-22.6332],[-42.5891,-22.6317]]]}},{"type":"Feature","properties":{"cod_imovel":"RJ-3304300-B72143E1A7884BE5AD3A7653C73336C6","num_area":"14.214800000000000000000000000000","ind_status":"AT"},"geometry":{"type":"Polygon","coordinates":[[[-42.5855,-22.6363],[-42.5908,-22.6314],[-42.5852,-22.6363],[-42.5855,-22.6363]]]}},{"type":"Feature","properties":{"cod_imovel":"RJ-3304300-1403A432F6BE4FE7846518A4830814BC","num_area":"7.8569000000000000000000000000000","ind_status":"CA"},"geometry":{"type":"Polygon","coordinates":[[[-42.6715,-22.7204],[-42.6682,-22.715],[-42.6711,-22.7201],[-42.6715,-22.7204]]]}},{"type":"Feature","properties":{"cod_imovel":"RJ-3304300-4FABF2BD9E264C9781B8EA61FA007213","num_area":"537.00520000000000000000000000000","ind_status":"AT"},"geometry":{"type":"Polygon","coordinates":[[[-42.6861,-22.6384],[-42.6765,-22.6336],[-42.6745,-22.6368],[-42.6874,-22.6391],[-42.6861,-22.6384]],[[-42.6745,-22.6368],[-42.6875,-22.6551],[-42.6856,-22.6483],[-42.6893,-22.6472],[-42.6838,-22.6447],[-42.6934,-22.6442],[-42.6919,-22.6489],[-42.7003,-22.6457],[-42.6879,-22.6395],[-42.6745,-22.64],[-42.6825,-22.6388],[-42.6746,-22.6368],[-42.6745,-22.6368]],[[-42.6731,-22.6394],[-42.6697,-22.6447],[-42.6793,-22.6448],[-42.6732,-22.6396],[-42.6731,-22.6394]],[[-42.6741,-22.6467],[-42.6799,-22.6497],[-42.6838,-22.6466],[-42.6742,-22.6467],[-42.6741,-22.6467]],[[-42.679,-22.6491],[-42.6748,-22.6572],[-42.6784,-22.6583],[-42.6816,-22.6511],[-42.6769,-22.6592],[-42.6829,-22.6684],[-42.6863,-22.6621],[-42.681,-22.6567],[-42.6857,-22.6599],[-42.682,-22.6545],[-42.6863,-22.6583],[-42.6825,-22.6537],[-42.6866,-22.6574],[-42.6837,-22.6534],[-42.6889,-22.6528],[-42.6853,-22.647],[-42.6791,-22.6491],[-42.679,-22.6491]],[[-42.6748,-22.6573],[-42.6777,-22.6619],[-42.6748,-22.6573],[-42.6748,-22.6573]],[[-42.6755,-22.6601],[-42.6754,-22.6639],[-42.6756,-22.6602],[-42.6755,-22.6601]],[[-42.674,-22.663],[-42.6775,-22.667],[-42.6801,-22.6643],[-42.6741,-22.6631],[-42.674,-22.663]],[[-42.6776,-22.6671],[-42.6804,-22.6644],[-42.6777,-22.667],[-42.6776,-22.6671]],[[-42.6919,-22.649],[-42.6953,-22.6504],[-42.69,-22.65],[-42.6925,-22.6539],[-42.7031,-22.6559],[-42.7052,-22.6486],[-42.6919,-22.6489],[-42.6919,-22.649]],[[-42.7022,-22.6548],[-42.6983,-22.658],[-42.6906,-22.655],[-42.6993,-22.6597],[-42.7024,-22.6549],[-42.7022,-22.6548]]]}},{"type":"Feature","properties":{"cod_imovel":"RJ-3304300-D46A1F074A8B48E7BC03144B9AEFEFF3","num_area":"18.642600000000000000000000000000","ind_status":"AT"},"geometry":{"type":"Polygon","coordinates":[[[-42.6638,-22.6828],[-42.6677,-22.6841],[-42.6681,-22.6797],[-42.6638,-22.6828],[-42.6638,-22.6828]]]}},{"type":"Feature","properties":{"cod_imovel":"RJ-3304300-41FA5720E6164EBAA2431313EECA0E9C","num_area":"11.601700000000000000000000000000","ind_status":"AT"},"geometry":{"type":"Polygon","coordinates":[[[-42.6294,-22.7029],[-42.6294,-22.6971],[-42.6294,-22.7029],[-42.6294,-22.7029]]]}},{"type":"Feature","properties":{"cod_imovel":"RJ-3304300-78022140B0F242A991035550B0CD44EF","num_area":"5.9132000000000000000000000000000","ind_status":"AT"},"geometry":{"type":"Polygon","coordinates":[[[-42.6304,-22.7006],[-42.6321,-22.6969],[-42.6307,-22.6998],[-42.6304,-22.7006]]]}},{"type":"Feature","properties":{"cod_imovel":"RJ-3304300-FDA67D5045D64F95A112FA5481959D10","num_area":"39.176200000000000000000000000000","ind_status":"AT"},"geometry":{"type":"Polygon","coordinates":[[[-42.6445,-22.6944],[-42.6533,-22.6989],[-42.6551,-22.6952],[-42.6452,-22.6933],[-42.6445,-22.6944]]]}},{"type":"Feature","properties":{"cod_imovel":"RJ-3304300-21C86CCCEFED4231BBFE46B83B1207A1","num_area":"11.488400000000000000000000000000","ind_status":"AT"},"geometry":{"type":"Polygon","coordinates":[[[-42.6506,-22.6928],[-42.6462,-22.6921],[-42.6504,-22.6929],[-42.6506,-22.6928]]]}},{"type":"Feature","properties":{"cod_imovel":"RJ-3304300-701B8FBCB3FE41A3BC76F5444D8F529A","num_area":"35.600900000000000000000000000000","ind_status":"AT"},"geometry":{"type":"Polygon","coordinates":[[[-42.5867,-22.8046],[-42.5853,-22.8082],[-42.5869,-22.8044],[-42.5867,-22.8046]],[[-42.5889,-22.8087],[-42.5928,-22.807],[-42.5887,-22.8087],[-42.5889,-22.8087]],[[-42.5959,-22.8144],[-42.5966,-22.8089],[-42.5894,-22.81],[-42.5957,-22.8143],[-42.5959,-22.8144]]]}},{"type":"Feature","properties":{"cod_imovel":"RJ-3304300-9903C147EEC04A4CB8DE883F3A1A376B","num_area":"190.24400000000000000000000000000","ind_status":"AT"},"geometry":{"type":"Polygon","coordinates":[[[-42.7213,-22.6979],[-42.7255,-22.697],[-42.7212,-22.698],[-42.7213,-22.6979]],[[-42.7278,-22.6976],[-42.7351,-22.6958],[-42.7278,-22.697],[-42.7278,-22.6976]],[[-42.7448,-22.6943],[-42.7481,-22.6932],[-42.7433,-22.6896],[-42.7403,-22.692],[-42.7439,-22.694],[-42.7448,-22.6943]],[[-42.7363,-22.6962],[-42.7423,-22.6949],[-42.7364,-22.6957],[-42.7363,-22.6962]],[[-42.7305,-22.6856],[-42.726,-22.6802],[-42.7186,-22.6829],[-42.7226,-22.6889],[-42.7301,-22.6837],[-42.7226,-22.6891],[-42.7289,-22.6865],[-42.7305,-22.6856]],[[-42.7403,-22.6876],[-42.7374,-22.6838],[-42.7256,-22.6909],[-42.7323,-22.693],[-42.7373,-22.6851],[-42.7323,-22.693],[-42.7222,-22.6907],[-42.7311,-22.6939],[-42.7403,-22.6877],[-42.7403,-22.6876]]]}},{"type":"Feature","properties":{"cod_imovel":"RJ-3304300-C57319988BD34BBB92F3069D7116DDCC","num_area":"38.158900000000000000000000000000","ind_status":"AT"},"geometry":{"type":"Polygon","coordinates":[[[-42.5937,-22.6478],[-42.5876,-22.6512],[-42.5939,-22.654],[-42.5942,-22.6481],[-42.5937,-22.6478]]]}},{"type":"Feature","properties":{"cod_imovel":"RJ-3304300-2544855A66174E72B5B9B22F24FAA292","num_area":"94.736300000000000000000000000000","ind_status":"AT"},"geometry":{"type":"Polygon","coordinates":[[[-42.6828,-22.685],[-42.6716,-22.684],[-42.6795,-22.6954],[-42.6835,-22.6854],[-42.6828,-22.685]]]}},{"type":"Feature","properties":{"cod_imovel":"RJ-3304300-6581A5579663466CB3486E21299B480D","num_area":"10.512900000000000000000000000000","ind_status":"AT"},"geometry":{"type":"Polygon","coordinates":[[[-42.6418,-22.6556],[-42.6401,-22.6581],[-42.6448,-22.6579],[-42.6418,-22.6556],[-42.6418,-22.6556]]]}},{"type":"Feature","properties":{"cod_imovel":"RJ-3304300-8A0E6F3D3AB443A993AC4FC9AB53A37C","num_area":"2.8616000000000000000000000000000","ind_status":"AT"},"geometry":{"type":"Polygon","coordinates":[[[-42.4831,-22.8068],[-42.4805,-22.8084],[-42.4836,-22.8074],[-42.4831,-22.8068]]]}},{"type":"Feature","properties":{"cod_imovel":"RJ-3304300-70EF9F1558EE44AEACCC357A2C9E2A68","num_area":"7.2082000000000000000000000000000","ind_status":"AT"},"geometry":{"type":"Polygon","coordinates":[[[-42.6459,-22.6925],[-42.6448,-22.6886],[-42.6454,-22.6916],[-42.6459,-22.6925]]]}},{"type":"Feature","properties":{"cod_imovel":"RJ-3304300-78C3A8109D89453EB64A69623B2E1479","num_area":"158.63390000000000000000000000000","ind_status":"AT"},"geometry":{"type":"Polygon","coordinates":[[[-42.5702,-22.6631],[-42.5714,-22.6496],[-42.5692,-22.6619],[-42.5702,-22.6631]],[[-42.5505,-22.647],[-42.5481,-22.6551],[-42.5521,-22.6592],[-42.558,-22.6558],[-42.5593,-22.6614],[-42.5626,-22.6551],[-42.5578,-22.6507],[-42.5505,-22.647]]]}},{"type":"Feature","properties":{"cod_imovel":"RJ-3304300-B4BF64602E8540EB9D5E29D7DC70AFC6","num_area":"29.630100000000000000000000000000","ind_status":"AT"},"geometry":{"type":"Polygon","coordinates":[[[-42.6933,-22.6623],[-42.6832,-22.6644],[-42.6888,-22.6684],[-42.6887,-22.6641],[-42.6933,-22.6623]]]}},{"type":"Feature","properties":{"cod_imovel":"RJ-3304300-60A8C805E0FF4BA18D9B15EBDFE146EB","num_area":"73.733200000000000000000000000000","ind_status":"AT"},"geometry":{"type":"Polygon","coordinates":[[[-42.6075,-22.767],[-42.6109,-22.7661],[-42.6075,-22.7664],[-42.6075,-22.767]],[[-42.6233,-22.7677],[-42.6289,-22.7702],[-42.6235,-22.7676],[-42.6233,-22.7677]],[[-42.6044,-22.7603],[-42.6078,-22.7582],[-42.6044,-22.7597],[-42.6044,-22.7603]],[[-42.6124,-22.7649],[-42.6233,-22.7651],[-42.6069,-22.7603],[-42.6122,-22.7653],[-42.6124,-22.7649]],[[-42.6069,-22.7605],[-42.6087,-22.763],[-42.607,-22.7605],[-42.6069,-22.7605]]]}},{"type":"Feature","properties":{"cod_imovel":"RJ-3304300-5FB17BC12D724A46B41F05522D014CD8","num_area":"3.6098000000000000000000000000000","ind_status":"AT"},"geometry":{"type":"Polygon","coordinates":[[[-42.6335,-22.6871],[-42.6312,-22.6895],[-42.6338,-22.6876],[-42.6335,-22.6871]]]}},{"type":"Feature","properties":{"cod_imovel":"RJ-3304300-60F7F45F23A94DCAA26809F3FF43F86F","num_area":"9.3142000000000000000000000000000","ind_status":"AT"},"geometry":{"type":"Polygon","coordinates":[[[-42.6533,-22.6451],[-42.6513,-22.6487],[-42.6537,-22.6457],[-42.6533,-22.6451]]]}},{"type":"Feature","properties":{"cod_imovel":"RJ-3304300-D56FEFC22C1B4D3FB67D9F6F49EC17C3","num_area":"4.6216000000000000000000000000000","ind_status":"AT"},"geometry":{"type":"Polygon","coordinates":[[[-42.6324,-22.6863],[-42.6313,-22.6897],[-42.6327,-22.6861],[-42.6324,-22.6863]]]}},{"type":"Feature","properties":{"cod_imovel":"RJ-3304300-1814B596C9B242F2A1104F341D21F561","num_area":"51.312700000000000000000000000000","ind_status":"AT"},"geometry":{"type":"Polygon","coordinates":[[[-42.68,-22.6935],[-42.6848,-22.7016],[-42.6883,-22.6957],[-42.6808,-22.6924],[-42.6896,-22.6912],[-42.6803,-22.6926],[-42.68,-22.6935]]]}},{"type":"Feature","properties":{"cod_imovel":"RJ-3304300-0A077119A24E4969ADDDA060BE34EB84","num_area":"5.6542000000000000000000000000000","ind_status":"AT"},"geometry":{"type":"Polygon","coordinates":[[[-42.4953,-22.8164],[-42.492,-22.8144],[-42.4982,-22.8199],[-42.4953,-22.8164]]]}},{"type":"Feature","properties":{"cod_imovel":"RJ-3304300-0A077119A24E4969ADDDA060BE34EB84","num_area":"6.7567000000000000000000000000000","ind_status":"AT"},"geometry":{"type":"Polygon","coordinates":[[[-42.4952,-22.8186],[-42.4915,-22.8179],[-42.4948,-22.8187],[-42.4952,-22.8186]]]}},{"type":"Feature","properties":{"cod_imovel":"RJ-3304300-0A077119A24E4969ADDDA060BE34EB84","num_area":"12.848100000000000000000000000000","ind_status":"AT"},"geometry":{"type":"Polygon","coordinates":[[[-42.5027,-22.8183],[-42.4997,-22.821],[-42.5042,-22.8213],[-42.5027,-22.8183]]]}},{"type":"Feature","properties":{"cod_imovel":"RJ-3304300-0A077119A24E4969ADDDA060BE34EB84","num_area":"25.099500000000000000000000000000","ind_status":"AT"},"geometry":{"type":"Polygon","coordinates":[[[-42.502,-22.8269],[-42.5067,-22.8263],[-42.4983,-22.8209],[-42.5019,-22.8266],[-42.502,-22.8269]]]}},{"type":"Feature","properties":{"cod_imovel":"RJ-3304300-AB5D5757B6624C79A12F3D79CC2743F7","num_area":"5.7689000000000000000000000000000","ind_status":"PE"},"geometry":{"type":"Polygon","coordinates":[[[-42.4894,-22.7904],[-42.4856,-22.7905],[-42.4896,-22.7908],[-42.4894,-22.7904]]]}},{"type":"Feature","properties":{"cod_imovel":"RJ-3304300-03F6D3B39F854227BA359D1A75C3D0A8","num_area":"15.418700000000000000000000000000","ind_status":"AT"},"geometry":{"type":"Polygon","coordinates":[[[-42.5523,-22.6658],[-42.5514,-22.6693],[-42.557,-22.6685],[-42.5523,-22.6658],[-42.5523,-22.6658]]]}},{"type":"Feature","properties":{"cod_imovel":"RJ-3304300-BC388F29086947AD95FDD4E5240CC3D7","num_area":"13.708600000000000000000000000000","ind_status":"PE"},"geometry":{"type":"Polygon","coordinates":[[[-42.5329,-22.7831],[-42.5299,-22.7776],[-42.5331,-22.7835],[-42.5329,-22.7831]]]}},{"type":"Feature","properties":{"cod_imovel":"RJ-3304300-52EE7D3D178641D68794BD63BBBB35A7","num_area":"7.9105000000000000000000000000000","ind_status":"PE"},"geometry":{"type":"Polygon","coordinates":[[[-42.4796,-22.8024],[-42.4811,-22.7998],[-42.4792,-22.8024],[-42.4796,-22.8024]]]}},{"type":"Feature","properties":{"cod_imovel":"RJ-3304300-03D770B8E33149ECBADBE36A5EDC8812","num_area":"7.4849000000000000000000000000000","ind_status":"PE"},"geometry":{"type":"Polygon","coordinates":[[[-42.485,-22.7892],[-42.4784,-22.7891],[-42.483,-22.7896],[-42.485,-22.7892]]]}},{"type":"Feature","properties":{"cod_imovel":"RJ-3304300-50F078D34F1849BD9AAA0ABCDD1FC165","num_area":"84.955500000000000000000000000000","ind_status":"AT"},"geometry":{"type":"Polygon","coordinates":[[[-42.5694,-22.8189],[-42.5731,-22.818],[-42.5667,-22.8078],[-42.5725,-22.8043],[-42.5691,-22.8013],[-42.5594,-22.8072],[-42.5675,-22.8106],[-42.5688,-22.8185],[-42.5694,-22.8189]]]}},{"type":"Feature","properties":{"cod_imovel":"RJ-3304300-B655594EB88B41B99F9D7A7978D7641D","num_area":"7.7236000000000000000000000000000","ind_status":"AT"},"geometry":{"type":"Polygon","coordinates":[[[-42.5544,-22.6438],[-42.5562,-22.6484],[-42.5547,-22.644],[-42.5544,-22.6438]]]}},{"type":"Feature","properties":{"cod_imovel":"RJ-3304300-9D80E87A38D749D4BD0514B9981E1DF5","num_area":"16.038900000000000000000000000000","ind_status":"AT"},"geometry":{"type":"Polygon","coordinates":[[[-42.6467,-22.6991],[-42.6425,-22.7004],[-42.6476,-22.7011],[-42.6467,-22.6991]]]}},{"type":"Feature","properties":{"cod_imovel":"RJ-3304300-98350711964D4BA7955F4BC39A374CDF","num_area":"36.305100000000000000000000000000","ind_status":"AT"},"geometry":{"type":"Polygon","coordinates":[[[-42.6019,-22.6863],[-42.5934,-22.6908],[-42.6019,-22.6863],[-42.6019,-22.6863]],[[-42.5996,-22.6914],[-42.5969,-22.6894],[-42.5992,-22.6921],[-42.5996,-22.6914]],[[-42.6013,-22.6876],[-42.5981,-22.6889],[-42.6013,-22.6876],[-42.6013,-22.6876]]]}},{"type":"Feature","properties":{"cod_imovel":"RJ-3304300-67FDAA5F2C5D40B89DE117D3207B5C82","num_area":"11.998600000000000000000000000000","ind_status":"AT"},"geometry":{"type":"Polygon","coordinates":[[[-42.6431,-22.6477],[-42.6482,-22.6504],[-42.6452,-22.6453],[-42.6431,-22.6477]]]}},{"type":"Feature","properties":{"cod_imovel":"RJ-3304300-66DCD2416BA9460E8885B255E7869163","num_area":"14.456100000000000000000000000000","ind_status":"AT"},"geometry":{"type":"Polygon","coordinates":[[[-42.6529,-22.6431],[-42.6564,-22.6457],[-42.656,-22.6388],[-42.654,-22.6412],[-42.6529,-22.6431]]]}},{"type":"Feature","properties":{"cod_imovel":"RJ-3304300-82433AFCC1074D6AA6503C6B96D5CD2A","num_area":"63.411200000000000000000000000000","ind_status":"AT"},"geometry":{"type":"Polygon","coordinates":[[[-42.5943,-22.6543],[-42.5974,-22.6543],[-42.5944,-22.6542],[-42.5943,-22.6543]],[[-42.6079,-22.6473],[-42.6027,-22.6485],[-42.6059,-22.6504],[-42.6079,-22.6473]],[[-42.6027,-22.6485],[-42.5956,-22.6531],[-42.6039,-22.6536],[-42.6029,-22.6486],[-42.6027,-22.6485]],[[-42.5981,-22.6495],[-42.5943,-22.6533],[-42.5981,-22.6495],[-42.5981,-22.6495]],[[-42.5956,-22.6531],[-42.6039,-22.6536],[-42.5956,-22.6531],[-42.5956,-22.6531]]]}},{"type":"Feature","properties":{"cod_imovel":"RJ-3304300-FEBA105917EF431D92F89B2ED130650A","num_area":"18.168200000000000000000000000000","ind_status":"AT"},"geometry":{"type":"Polygon","coordinates":[[[-42.5791,-22.6364],[-42.5767,-22.6383],[-42.5794,-22.6367],[-42.5791,-22.6364]],[[-42.5801,-22.637],[-42.5933,-22.6301],[-42.58,-22.6369],[-42.5801,-22.637]]]}},{"type":"Feature","properties":{"cod_imovel":"RJ-3304300-0E96EA5503914DD880CFAF3CE9E11BF7","num_area":"39.436700000000000000000000000000","ind_status":"AT"},"geometry":{"type":"Polygon","coordinates":[[[-42.5247,-22.7471],[-42.5296,-22.7394],[-42.5224,-22.7427],[-42.5241,-22.7479],[-42.5247,-22.7471]]]}},{"type":"Feature","properties":{"cod_imovel":"RJ-3304300-396CA43C7B4A4BD2A90FFFD576861934","num_area":"395.49840000000000000000000000000","ind_status":"AT"},"geometry":{"type":"Polygon","coordinates":[[[-42.5482,-22.6339],[-42.5572,-22.6416],[-42.5525,-22.6372],[-42.5565,-22.6308],[-42.5492,-22.6342],[-42.5482,-22.6339]],[[-42.5615,-22.6182],[-42.5596,-22.6208],[-42.5648,-22.6225],[-42.5543,-22.6222],[-42.5534,-22.6279],[-42.5549,-22.6235],[-42.5572,-22.6273],[-42.5638,-22.6242],[-42.557,-22.6304],[-42.5641,-22.6331],[-42.5658,-22.6247],[-42.5706,-22.627],[-42.5659,-22.6324],[-42.5704,-22.6329],[-42.5607,-22.6331],[-42.5638,-22.6353],[-42.5609,-22.6428],[-42.5725,-22.6359],[-42.5676,-22.6356],[-42.5653,-22.6405],[-42.5692,-22.6409],[-42.5651,-22.6417],[-42.5721,-22.6424],[-42.5749,-22.6382],[-42.5707,-22.6436],[-42.5791,-22.6452],[-42.5721,-22.6262],[-42.563,-22.6189],[-42.5615,-22.6182]],[[-42.5704,-22.6404],[-42.5662,-22.6401],[-42.5706,-22.6402],[-42.5704,-22.6404]]]}},{"type":"Feature","properties":{"cod_imovel":"RJ-3304300-99FDBB9EE0E0465EB234BBC9008850C2","num_area":"7.6810000000000000000000000000000","ind_status":"PE"},"geometry":{"type":"Polygon","coordinates":[[[-42.5757,-22.784],[-42.5709,-22.7843],[-42.5755,-22.7842],[-42.5757,-22.784]]]}},{"type":"Feature","properties":{"cod_imovel":"RJ-3304300-0AE82414301E4D6F86DD3B3818526E69","num_area":"13.463300000000000000000000000000","ind_status":"AT"},"geometry":{"type":"Polygon","coordinates":[[[-42.5453,-22.6386],[-42.5434,-22.6423],[-42.5496,-22.6428],[-42.547,-22.6382],[-42.5453,-22.6386]]]}},{"type":"Feature","properties":{"cod_imovel":"RJ-3304300-ED3384DE37154D29B8DF0256E05AC421","num_area":"32.910000000000000000000000000000","ind_status":"AT"},"geometry":{"type":"Polygon","coordinates":[[[-42.6,-22.6896],[-42.5994,-22.6851],[-42.5933,-22.6907],[-42.5981,-22.6887],[-42.6,-22.6896]]]}},{"type":"Feature","properties":{"cod_imovel":"RJ-3304300-2DBDF57D3BC7418F97DF12B38385FE75","num_area":"53.664000000000000000000000000000","ind_status":"AT"},"geometry":{"type":"Polygon","coordinates":[[[-42.5291,-22.6482],[-42.529,-22.6538],[-42.5374,-22.6596],[-42.5328,-22.649],[-42.5291,-22.6482]],[[-42.5291,-22.6593],[-42.5344,-22.6634],[-42.5307,-22.6599],[-42.5291,-22.6593]]]}},{"type":"Feature","properties":{"cod_imovel":"RJ-3304300-0A68164FB8E54A6D883655919219CC2E","num_area":"87.324400000000000000000000000000","ind_status":"AT"},"geometry":{"type":"Polygon","coordinates":[[[-42.6082,-22.663],[-42.6181,-22.6513],[-42.6088,-22.6538],[-42.6039,-22.6627],[-42.6082,-22.6629],[-42.6082,-22.663]],[[-42.6039,-22.6628],[-42.6082,-22.6634],[-42.604,-22.6628],[-42.6039,-22.6628]]]}},{"type":"Feature","properties":{"cod_imovel":"RJ-3304300-AC7B6DB7A97448E599787C0F2B2B218C","num_area":"849.95870000000000000000000000000","ind_status":"AT"},"geometry":{"type":"Polygon","coordinates":[[[-42.5364,-22.7169],[-42.5446,-22.7264],[-42.5599,-22.731],[-42.5545,-22.724],[-42.5572,-22.7167],[-42.5497,-22.7106],[-42.5388,-22.7125],[-42.5364,-22.7169]],[[-42.5599,-22.731],[-42.5696,-22.7384],[-42.5809,-22.7265],[-42.5728,-22.7247],[-42.5679,-22.7307],[-42.5632,-22.7265],[-42.5595,-22.7303],[-42.5599,-22.731]],[[-42.5809,-22.7265],[-42.5859,-22.7222],[-42.5808,-22.7265],[-42.5809,-22.7265]],[[-42.5859,-22.7222],[-42.589,-22.7129],[-42.5852,-22.7112],[-42.5749,-22.7163],[-42.5494,-22.7016],[-42.5442,-22.7098],[-42.5757,-22.7237],[-42.5855,-22.7222],[-42.5859,-22.7222]],[[-42.5479,-22.7086],[-42.5557,-22.7101],[-42.5481,-22.7087],[-42.5479,-22.7086]]]}},{"type":"Feature","properties":{"cod_imovel":"RJ-3304300-B2DA42F4C2FC414CA9C9AE01D2062C52","num_area":"26.205100000000000000000000000000","ind_status":"AT"},"geometry":{"type":"Polygon","coordinates":[[[-42.6337,-22.6492],[-42.6346,-22.6459],[-42.634,-22.6492],[-42.6337,-22.6492]],[[-42.6296,-22.6464],[-42.6286,-22.6525],[-42.6326,-22.6516],[-42.6297,-22.6465],[-42.6296,-22.6464]]]}},{"type":"Feature","properties":{"cod_imovel":"RJ-3304300-0E21EFFFCAF94852B8559B8193D46467","num_area":"42.267700000000000000000000000000","ind_status":"AT"},"geometry":{"type":"Polygon","coordinates":[[[-42.4566,-22.7216],[-42.4584,-22.726],[-42.4607,-22.7215],[-42.4667,-22.7237],[-42.4599,-22.7185],[-42.4567,-22.7214],[-42.4566,-22.7216]]]}},{"type":"Feature","properties":{"cod_imovel":"RJ-3304300-59136DC3A774474FA3AA2B371E3A495F","num_area":"9.4262000000000000000000000000000","ind_status":"AT"},"geometry":{"type":"Polygon","coordinates":[[[-42.5274,-22.7006],[-42.5265,-22.696],[-42.5274,-22.7006],[-42.5274,-22.7006]]]}},{"type":"Feature","properties":{"cod_imovel":"RJ-3304300-FC01658C7678421190A53BE11FDD0147","num_area":"59.089200000000000000000000000000","ind_status":"AT"},"geometry":{"type":"Polygon","coordinates":[[[-42.5624,-22.6785],[-42.559,-22.6792],[-42.5624,-22.6788],[-42.5624,-22.6785]],[[-42.5586,-22.6885],[-42.5672,-22.6809],[-42.5595,-22.688],[-42.5586,-22.6885]],[[-42.5758,-22.6936],[-42.5794,-22.6869],[-42.5762,-22.6855],[-42.5753,-22.6934],[-42.5758,-22.6936]]]}},{"type":"Feature","properties":{"cod_imovel":"RJ-3304300-5BF528BEEC38486FB61B665E1E4B32C0","num_area":"109.92140000000000000000000000000","ind_status":"AT"},"geometry":{"type":"Polygon","coordinates":[[[-42.5324,-22.6714],[-42.5379,-22.6768],[-42.5431,-22.6729],[-42.5313,-22.6635],[-42.5321,-22.6706],[-42.5324,-22.6714]]]}},{"type":"Feature","properties":{"cod_imovel":"RJ-3304300-41828ADCF9624CFD845E5A22D086B83A","num_area":"55.285900000000000000000000000000","ind_status":"AT"},"geometry":{"type":"Polygon","coordinates":[[[-42.5251,-22.6951],[-42.5347,-22.7003],[-42.5361,-22.6941],[-42.5318,-22.6942],[-42.5336,-22.6897],[-42.5286,-22.6917],[-42.5322,-22.6981],[-42.525,-22.6943],[-42.5251,-22.6951]],[[-42.5285,-22.6987],[-42.5251,-22.6951],[-42.5283,-22.6985],[-42.5285,-22.6987]]]}},{"type":"Feature","properties":{"cod_imovel":"RJ-3304300-21FBE498AA494B939B42EAF2703AFF3F","num_area":"61.156500000000000000000000000000","ind_status":"AT"},"geometry":{"type":"Polygon","coordinates":[[[-42.5989,-22.7255],[-42.603,-22.7162],[-42.5924,-22.7188],[-42.597,-22.7175],[-42.5982,-22.7226],[-42.594,-22.7249],[-42.5983,-22.7246],[-42.5989,-22.7255]]]}},{"type":"Feature","properties":{"cod_imovel":"RJ-3304300-5D6EC6F7FCD94A02A8E56329CE72C0EF","num_area":"235.08580000000000000000000000000","ind_status":"AT"},"geometry":{"type":"Polygon","coordinates":[[[-42.5913,-22.6478],[-42.5884,-22.6497],[-42.591,-22.6472],[-42.5913,-22.6478]],[[-42.6064,-22.6413],[-42.6026,-22.6387],[-42.6056,-22.6421],[-42.5973,-22.6462],[-42.6131,-22.6527],[-42.6072,-22.6419],[-42.6064,-22.6413]],[[-42.5892,-22.637],[-42.5921,-22.6383],[-42.5871,-22.64],[-42.5878,-22.6441],[-42.6022,-22.6415],[-42.5974,-22.6349],[-42.5906,-22.6366],[-42.5892,-22.637]]]}},{"type":"Feature","properties":{"cod_imovel":"RJ-3304300-F1906521EEE6474A95D6A10D3F6A9245","num_area":"6.1232000000000000000000000000000","ind_status":"AT"},"geometry":{"type":"Polygon","coordinates":[[[-42.5468,-22.6637],[-42.5441,-22.668],[-42.547,-22.6645],[-42.5468,-22.6637]]]}},{"type":"Feature","properties":{"cod_imovel":"RJ-3304300-9536E7801B034AD4853AF861D70EACCE","num_area":"407.23130000000000000000000000000","ind_status":"AT"},"geometry":{"type":"Polygon","coordinates":[[[-42.5686,-22.6069],[-42.5527,-22.6025],[-42.5592,-22.6162],[-42.5726,-22.6291],[-42.586,-22.6252],[-42.5734,-22.6086],[-42.5707,-22.6106],[-42.5744,-22.6135],[-42.5696,-22.6153],[-42.576,-22.6239],[-42.5724,-22.6265],[-42.5651,-22.6192],[-42.5686,-22.607],[-42.5686,-22.6069]]]}},{"type":"Feature","properties":{"cod_imovel":"RJ-3304300-19AD09806D674A59AEEF0F8098BF61DA","num_area":"16.969200000000000000000000000000","ind_status":"AT"},"geometry":{"type":"Polygon","coordinates":[[[-42.5939,-22.654],[-42.5908,-22.6534],[-42.5939,-22.654],[-42.5939,-22.654]],[[-42.5904,-22.6563],[-42.5939,-22.6541],[-42.5908,-22.656],[-42.5904,-22.6563]]]}},{"type":"Feature","properties":{"cod_imovel":"RJ-3304300-AEDC5A2A1C7242B4B004F45B44ABA65A","num_area":"12.589300000000000000000000000000","ind_status":"AT"},"geometry":{"type":"Polygon","coordinates":[[[-42.5802,-22.6383],[-42.5749,-22.6384],[-42.5794,-22.6387],[-42.5802,-22.6383]]]}},{"type":"Feature","properties":{"cod_imovel":"RJ-3304300-EA45A015567B4873A0ED0F042BF984F6","num_area":"74.833700000000000000000000000000","ind_status":"AT"},"geometry":{"type":"Polygon","coordinates":[[[-42.587,-22.6319],[-42.5731,-22.6377],[-42.5772,-22.644],[-42.5888,-22.6368],[-42.587,-22.6319]]]}},{"type":"Feature","properties":{"cod_imovel":"RJ-3304300-95BB8D12F64A4267946E2CB7114A40DD","num_area":"36.044200000000000000000000000000","ind_status":"AT"},"geometry":{"type":"Polygon","coordinates":[[[-42.5234,-22.7431],[-42.5204,-22.7462],[-42.5241,-22.748],[-42.5296,-22.7395],[-42.5264,-22.7386],[-42.5234,-22.7431]]]}},{"type":"Feature","properties":{"cod_imovel":"RJ-3304300-BEF73570C38D4D99B63382240AB9EA3D","num_area":"57.195100000000000000000000000000","ind_status":"AT"},"geometry":{"type":"Polygon","coordinates":[[[-42.5379,-22.6401],[-42.5345,-22.6424],[-42.5393,-22.6489],[-42.538,-22.6403],[-42.5379,-22.6401]],[[-42.5453,-22.645],[-42.5435,-22.6484],[-42.5456,-22.6451],[-42.5453,-22.645]],[[-42.5497,-22.6442],[-42.5408,-22.6418],[-42.5496,-22.6441],[-42.5497,-22.6442]]]}},{"type":"Feature","properties":{"cod_imovel":"RJ-3304300-3C5DEF85706D4B4C8C7703A421CC2576","num_area":"58.118000000000000000000000000000","ind_status":"AT"},"geometry":{"type":"Polygon","coordinates":[[[-42.5301,-22.6989],[-42.5368,-22.702],[-42.5324,-22.702],[-42.5335,-22.7076],[-42.5377,-22.7076],[-42.5394,-22.6989],[-42.5328,-22.6983],[-42.5301,-22.6989]]]}},{"type":"Feature","properties":{"cod_imovel":"RJ-3304300-584801D41F35422EB2DB311F2619151E","num_area":"8.2477000000000000000000000000000","ind_status":"AT"},"geometry":{"type":"Polygon","coordinates":[[[-42.5542,-22.6276],[-42.5537,-22.6231],[-42.554,-22.6276],[-42.5542,-22.6276]]]}},{"type":"Feature","properties":{"cod_imovel":"RJ-3304300-2AE88932466B4EB3A8CDB8B60D6666E1","num_area":"19.671900000000000000000000000000","ind_status":"AT"},"geometry":{"type":"Polygon","coordinates":[[[-42.5637,-22.8035],[-42.5683,-22.8037],[-42.5647,-22.7993],[-42.5638,-22.8033],[-42.5637,-22.8035]]]}},{"type":"Feature","properties":{"cod_imovel":"RJ-3304300-8DB005C595874F6EB2B7B04A6669FA44","num_area":"32.007300000000000000000000000000","ind_status":"AT"},"geometry":{"type":"Polygon","coordinates":[[[-42.6152,-22.7393],[-42.6251,-22.7349],[-42.6158,-22.739],[-42.6152,-22.7393]],[[-42.6251,-22.7349],[-42.6241,-22.7309],[-42.6166,-22.7324],[-42.6251,-22.7349],[-42.6251,-22.7349]]]}},{"type":"Feature","properties":{"cod_imovel":"RJ-3304300-BE7A5442EA2E413A96610A1A6925A658","num_area":"8.3598000000000000000000000000000","ind_status":"AT"},"geometry":{"type":"Polygon","coordinates":[[[-42.6731,-22.7181],[-42.6752,-22.7211],[-42.6769,-22.7182],[-42.6732,-22.7178],[-42.6731,-22.7181]]]}},{"type":"Feature","properties":{"cod_imovel":"RJ-3304300-7EC43352BB9D498DB81FBF896C80197B","num_area":"20.304400000000000000000000000000","ind_status":"AT"},"geometry":{"type":"Polygon","coordinates":[[[-42.64,-22.7602],[-42.6438,-22.7609],[-42.6411,-22.7536],[-42.6398,-22.7601],[-42.64,-22.7602]]]}},{"type":"Feature","properties":{"cod_imovel":"RJ-3304300-A7011D6852A642CFA3F781FE4FD01D88","num_area":"29.564200000000000000000000000000","ind_status":"AT"},"geometry":{"type":"Polygon","coordinates":[[[-42.5219,-22.8051],[-42.5277,-22.8043],[-42.5251,-22.7987],[-42.5209,-22.801],[-42.5263,-22.8033],[-42.5217,-22.8046],[-42.5219,-22.8051]]]}},{"type":"Feature","properties":{"cod_imovel":"RJ-3304300-6C1FDBFF4EAF445882A282F364874BC8","num_area":"7.5041000000000000000000000000000","ind_status":"AT"},"geometry":{"type":"Polygon","coordinates":[[[-42.7069,-22.7184],[-42.7029,-22.7178],[-42.7067,-22.7183],[-42.7069,-22.7184]]]}},{"type":"Feature","properties":{"cod_imovel":"RJ-3304300-0E81FA9391E64EEEAB643579B0F00611","num_area":"165.95700000000000000000000000000","ind_status":"AT"},"geometry":{"type":"Polygon","coordinates":[[[-42.6623,-22.8375],[-42.647,-22.8354],[-42.649,-22.8411],[-42.6568,-22.8438],[-42.6499,-22.8433],[-42.6533,-22.8468],[-42.6671,-22.8434],[-42.6623,-22.8375]]]}},{"type":"Feature","properties":{"cod_imovel":"RJ-3304300-191EA20C4C954FCAA26195D525246976","num_area":"9.0325000000000000000000000000000","ind_status":"AT"},"geometry":{"type":"Polygon","coordinates":[[[-42.5188,-22.798],[-42.5149,-22.7959],[-42.5176,-22.7985],[-42.5188,-22.798]]]}},{"type":"Feature","properties":{"cod_imovel":"RJ-3304300-5794C279EA484FCD9CF76EC750D21BB4","num_area":"25.240400000000000000000000000000","ind_status":"AT"},"geometry":{"type":"Polygon","coordinates":[[[-42.5247,-22.793],[-42.5309,-22.7983],[-42.5283,-22.792],[-42.5247,-22.793]]]}},{"type":"Feature","properties":{"cod_imovel":"RJ-3304300-51504CA9813345EDBF5D0E0A100BE17F","num_area":"23.521900000000000000000000000000","ind_status":"AT"},"geometry":{"type":"Polygon","coordinates":[[[-42.7006,-22.7019],[-42.6979,-22.7],[-42.7002,-22.7019],[-42.7006,-22.7019]],[[-42.703,-22.6997],[-42.6992,-22.7003],[-42.7031,-22.6998],[-42.703,-22.6997]],[[-42.6993,-22.6917],[-42.6974,-22.6955],[-42.7017,-22.6945],[-42.7033,-22.7029],[-42.7051,-22.6989],[-42.6993,-22.6917],[-42.6993,-22.6917]]]}},{"type":"Feature","properties":{"cod_imovel":"RJ-3304300-647D75842C2242E295A8837D32CE02CD","num_area":"4.2325000000000000000000000000000","ind_status":"AT"},"geometry":{"type":"Polygon","coordinates":[[[-42.573,-22.761],[-42.5692,-22.7598],[-42.5725,-22.7609],[-42.573,-22.761]]]}},{"type":"Feature","properties":{"cod_imovel":"RJ-3304300-91480853954A415580FA961CD62F3598","num_area":"9.7622000000000000000000000000000","ind_status":"AT"},"geometry":{"type":"Polygon","coordinates":[[[-42.6655,-22.6608],[-42.6606,-22.661],[-42.6643,-22.6619],[-42.6655,-22.6608]]]}},{"type":"Feature","properties":{"cod_imovel":"RJ-3304300-625C7D60B7344A4085EDD40B83E01FDD","num_area":"5.7331000000000000000000000000000","ind_status":"AT"},"geometry":{"type":"Polygon","coordinates":[[[-42.675,-22.6496],[-42.6731,-22.6535],[-42.675,-22.6497],[-42.675,-22.6496]]]}},{"type":"Feature","properties":{"cod_imovel":"RJ-3304300-893CD7C090D7448BA4BA5705D688ED39","num_area":"4.8361000000000000000000000000000","ind_status":"AT"},"geometry":{"type":"Polygon","coordinates":[[[-42.5237,-22.8183],[-42.5218,-22.8155],[-42.5235,-22.8186],[-42.5237,-22.8183]]]}},{"type":"Feature","properties":{"cod_imovel":"RJ-3304300-E68926BCD041450B9EFF1C0F51238525","num_area":"2.7930000000000000000000000000000","ind_status":"AT"},"geometry":{"type":"Polygon","coordinates":[[[-42.6663,-22.6621],[-42.6672,-22.666],[-42.6666,-22.6624],[-42.6663,-22.6621]]]}},{"type":"Feature","properties":{"cod_imovel":"RJ-3304300-820DBAFB94B9432A97E3D0B6A8CD0B56","num_area":"6.3995000000000000000000000000000","ind_status":"AT"},"geometry":{"type":"Polygon","coordinates":[[[-42.4519,-22.7403],[-42.4548,-22.7443],[-42.4519,-22.7402],[-42.4519,-22.7403]]]}},{"type":"Feature","properties":{"cod_imovel":"RJ-3304300-CDCCDBB627894EC59A646CE14FB0D69D","num_area":"11.911600000000000000000000000000","ind_status":"AT"},"geometry":{"type":"Polygon","coordinates":[[[-42.6753,-22.6669],[-42.6779,-22.673],[-42.6772,-22.6689],[-42.6753,-22.6669]]]}},{"type":"Feature","properties":{"cod_imovel":"RJ-3304300-4A59E721AC2F4AB0B03A2FCD3C47B4FC","num_area":"7.9189000000000000000000000000000","ind_status":"AT"},"geometry":{"type":"Polygon","coordinates":[[[-42.6755,-22.72],[-42.6739,-22.717],[-42.6747,-22.7205],[-42.6755,-22.72]]]}},{"type":"Feature","properties":{"cod_imovel":"RJ-3304300-3A0A3FB03C3246BD8BD785B78BF663B0","num_area":"21.335100000000000000000000000000","ind_status":"AT"},"geometry":{"type":"Polygon","coordinates":[[[-42.5122,-22.7556],[-42.506,-22.7504],[-42.5051,-22.7542],[-42.5115,-22.7553],[-42.5122,-22.7556]]]}},{"type":"Feature","properties":{"cod_imovel":"RJ-3304300-0D35919B01A647D7B4CAB81E557A41F4","num_area":"28.351900000000000000000000000000","ind_status":"AT"},"geometry":{"type":"Polygon","coordinates":[[[-42.5879,-22.7885],[-42.5861,-22.7913],[-42.5937,-22.7914],[-42.5954,-22.788],[-42.5886,-22.7886],[-42.5879,-22.7885]]]}},{"type":"Feature","properties":{"cod_imovel":"RJ-3304300-3BAFA528FE06462982625EDA579692BF","num_area":"24.155000000000000000000000000000","ind_status":"AT"},"geometry":{"type":"Polygon","coordinates":[[[-42.5945,-22.7913],[-42.5996,-22.7929],[-42.5947,-22.7899],[-42.5945,-22.7913]]]}},{"type":"Feature","properties":{"cod_imovel":"RJ-3304300-5F52A73713BC41E08603758FE8185DE6","num_area":"7.0558000000000000000000000000000","ind_status":"AT"},"geometry":{"type":"Polygon","coordinates":[[[-42.4688,-22.748],[-42.4664,-22.7508],[-42.4691,-22.7491],[-42.4688,-22.748]]]}},{"type":"Feature","properties":{"cod_imovel":"RJ-3304300-A79D821198E146DBA243AC2706DE7393","num_area":"16.244500000000000000000000000000","ind_status":"AT"},"geometry":{"type":"Polygon","coordinates":[[[-42.5354,-22.7991],[-42.5395,-22.8016],[-42.5372,-22.7966],[-42.5354,-22.7991]],[[-42.5375,-22.8022],[-42.5418,-22.8017],[-42.5376,-22.8022],[-42.5375,-22.8022]]]}},{"type":"Feature","properties":{"cod_imovel":"RJ-3304300-7C8D4618E3FD48A29E7E71A8ED8FD309","num_area":"6.9460000000000000000000000000000","ind_status":"AT"},"geometry":{"type":"Polygon","coordinates":[[[-42.6654,-22.6605],[-42.6643,-22.6573],[-42.6654,-22.6604],[-42.6654,-22.6605]]]}},{"type":"Feature","properties":{"cod_imovel":"RJ-3304300-5FE140E7F554496EB3213384ED138888","num_area":"4.3279000000000000000000000000000","ind_status":"AT"},"geometry":{"type":"Polygon","coordinates":[[[-42.4695,-22.7973],[-42.4663,-22.7979],[-42.4699,-22.7979],[-42.4695,-22.7973]]]}},{"type":"Feature","properties":{"cod_imovel":"RJ-3304300-D485CB4EEBE0448790EAC1BC599856CF","num_area":"22.955400000000000000000000000000","ind_status":"AT"},"geometry":{"type":"Polygon","coordinates":[[[-42.6804,-22.7003],[-42.6799,-22.7063],[-42.6844,-22.7017],[-42.6804,-22.7003],[-42.6804,-22.7003]]]}},{"type":"Feature","properties":{"cod_imovel":"RJ-3304300-36D327F8FC1B4844BD60FEF455EED40F","num_area":"7.5532000000000000000000000000000","ind_status":"AT"},"geometry":{"type":"Polygon","coordinates":[[[-42.6454,-22.7625],[-42.6488,-22.7635],[-42.6458,-22.7624],[-42.6454,-22.7625]]]}},{"type":"Feature","properties":{"cod_imovel":"RJ-3304300-9B9883E6019D4319AACC3D60DEC91955","num_area":"21.256700000000000000000000000000","ind_status":"AT"},"geometry":{"type":"Polygon","coordinates":[[[-42.7256,-22.6972],[-42.7205,-22.6984],[-42.7278,-22.7015],[-42.7307,-22.6983],[-42.7256,-22.6972],[-42.7256,-22.6972]]]}},{"type":"Feature","properties":{"cod_imovel":"RJ-3304300-F40643B147A442DAB22FCCED97B83F63","num_area":"28.723000000000000000000000000000","ind_status":"AT"},"geometry":{"type":"Polygon","coordinates":[[[-42.4952,-22.7459],[-42.4886,-22.7409],[-42.4864,-22.7452],[-42.4952,-22.7459],[-42.4952,-22.7459]]]}},{"type":"Feature","properties":{"cod_imovel":"RJ-3304300-2B771ED5A9BA467C819C77013B2A4129","num_area":"19.902800000000000000000000000000","ind_status":"AT"},"geometry":{"type":"Polygon","coordinates":[[[-42.6588,-22.6946],[-42.6569,-22.6988],[-42.6588,-22.6954],[-42.6634,-22.6984],[-42.6596,-22.6951],[-42.6588,-22.6946]]]}},{"type":"Feature","properties":{"cod_imovel":"RJ-3304300-9C91859C881A4A01A976637257FC2D1C","num_area":"6.7911000000000000000000000000000","ind_status":"AT"},"geometry":{"type":"Polygon","coordinates":[[[-42.5577,-22.702],[-42.5523,-22.7031],[-42.5572,-22.7028],[-42.5577,-22.702]]]}},{"type":"Feature","properties":{"cod_imovel":"RJ-3304300-25E85A0A569148ABADBDD8B0EC2CC636","num_area":"6.2561000000000000000000000000000","ind_status":"AT"},"geometry":{"type":"Polygon","coordinates":[[[-42.6491,-22.8],[-42.6471,-22.8029],[-42.649,-22.8003],[-42.6491,-22.8]]]}},{"type":"Feature","properties":{"cod_imovel":"RJ-3304300-E3A59A2E7A504069947814414EB89916","num_area":"25.599500000000000000000000000000","ind_status":"AT"},"geometry":{"type":"Polygon","coordinates":[[[-42.6745,-22.6948],[-42.6723,-22.6919],[-42.6704,-22.6956],[-42.6722,-22.7019],[-42.6748,-22.6952],[-42.6745,-22.6948]]]}},{"type":"Feature","properties":{"cod_imovel":"RJ-3304300-9101FDFDE0EF4E468D43F7E0D6A3F04D","num_area":"37.219200000000000000000000000000","ind_status":"AT"},"geometry":{"type":"Polygon","coordinates":[[[-42.5978,-22.7543],[-42.6005,-22.7449],[-42.5924,-22.7527],[-42.5963,-22.7545],[-42.5978,-22.7543]]]}},{"type":"Feature","properties":{"cod_imovel":"RJ-3304300-9EF3BB775BAA4AFEAAB6AFBF90B68B4F","num_area":"8.3584000000000000000000000000000","ind_status":"AT"},"geometry":{"type":"Polygon","coordinates":[[[-42.6064,-22.7801],[-42.6099,-22.7781],[-42.6064,-22.7801],[-42.6064,-22.7801]]]}},{"type":"Feature","properties":{"cod_imovel":"RJ-3304300-DE090F91F1D14D09955665F3D1C11948","num_area":"18.581100000000000000000000000000","ind_status":"AT"},"geometry":{"type":"Polygon","coordinates":[[[-42.6071,-22.6904],[-42.6072,-22.6839],[-42.604,-22.6894],[-42.6071,-22.6904],[-42.6071,-22.6904]]]}},{"type":"Feature","properties":{"cod_imovel":"RJ-3304300-6B57FD2A7C414CD2971B1284205A492F","num_area":"18.062000000000000000000000000000","ind_status":"AT"},"geometry":{"type":"Polygon","coordinates":[[[-42.6171,-22.7707],[-42.6154,-22.7779],[-42.6204,-22.7714],[-42.6176,-22.7701],[-42.6171,-22.7707]]]}},{"type":"Feature","properties":{"cod_imovel":"RJ-3304300-9D3CB74DA1444DDB9B9ED3C3D901E67D","num_area":"10.560700000000000000000000000000","ind_status":"AT"},"geometry":{"type":"Polygon","coordinates":[[[-42.502,-22.8072],[-42.5037,-22.8112],[-42.5022,-22.8071],[-42.502,-22.8072]],[[-42.5093,-22.8176],[-42.5087,-22.8133],[-42.5093,-22.8176],[-42.5093,-22.8176]]]}},{"type":"Feature","properties":{"cod_imovel":"RJ-3304300-301BDE0835914954B60FAEAE93AB3FA4","num_area":"15.078400000000000000000000000000","ind_status":"AT"},"geometry":{"type":"Polygon","coordinates":[[[-42.5465,-22.7674],[-42.5542,-22.7666],[-42.5481,-22.7667],[-42.5465,-22.7674]]]}},{"type":"Feature","properties":{"cod_imovel":"RJ-3304300-BBBBE4B71A0E4C1CB95AFB774129F97F","num_area":"18.575900000000000000000000000000","ind_status":"AT"},"geometry":{"type":"Polygon","coordinates":[[[-42.6532,-22.7877],[-42.6576,-22.7833],[-42.6493,-22.7863],[-42.6532,-22.7877]]]}},{"type":"Feature","properties":{"cod_imovel":"RJ-3304300-7669B170CAFE420B98BECA4911801529","num_area":"11.696500000000000000000000000000","ind_status":"AT"},"geometry":{"type":"Polygon","coordinates":[[[-42.4998,-22.7719],[-42.4942,-22.7703],[-42.4994,-22.7721],[-42.4998,-22.7719]]]}},{"type":"Feature","properties":{"cod_imovel":"RJ-3304300-715837A672E1468BA08095C1435EA13C","num_area":"5.3178000000000000000000000000000","ind_status":"AT"},"geometry":{"type":"Polygon","coordinates":[[[-42.6805,-22.722],[-42.6759,-22.7239],[-42.6808,-22.7222],[-42.6805,-22.722]]]}},{"type":"Feature","properties":{"cod_imovel":"RJ-3304300-AA41F022CFBF439BB540C0236C57F1C3","num_area":"8.3546000000000000000000000000000","ind_status":"AT"},"geometry":{"type":"Polygon","coordinates":[[[-42.65,-22.676],[-42.6458,-22.6768],[-42.6491,-22.6778],[-42.65,-22.676]]]}},{"type":"Feature","properties":{"cod_imovel":"RJ-3304300-33A5BA9EB7254DE9ADB5ECDBB50C171D","num_area":"15.706000000000000000000000000000","ind_status":"AT"},"geometry":{"type":"Polygon","coordinates":[[[-42.702,-22.6839],[-42.7041,-22.6793],[-42.7017,-22.6845],[-42.702,-22.6839]]]}},{"type":"Feature","properties":{"cod_imovel":"RJ-3304300-2C25033B836249A1B799452429EA5501","num_area":"11.890000000000000000000000000000","ind_status":"AT"},"geometry":{"type":"Polygon","coordinates":[[[-42.7034,-22.6854],[-42.7037,-22.6816],[-42.7015,-22.6848],[-42.7034,-22.6854]],[[-42.7032,-22.6918],[-42.699,-22.688],[-42.7025,-22.6932],[-42.7032,-22.6918]]]}},{"type":"Feature","properties":{"cod_imovel":"RJ-3304300-308C94A77AF64AD1B0908E95F8D92DBC","num_area":"30.059600000000000000000000000000","ind_status":"AT"},"geometry":{"type":"Polygon","coordinates":[[[-42.5003,-22.7919],[-42.4966,-22.7972],[-42.5023,-22.7956],[-42.5003,-22.7919]],[[-42.485,-22.7974],[-42.4898,-22.7973],[-42.4861,-22.7968],[-42.485,-22.7974]],[[-42.4918,-22.7964],[-42.4939,-22.8003],[-42.4918,-22.7963],[-42.4918,-22.7964]]]}},{"type":"Feature","properties":{"cod_imovel":"RJ-3304300-B11D460965BA493BB613863D57F761F3","num_area":"4.2268000000000000000000000000000","ind_status":"AT"},"geometry":{"type":"Polygon","coordinates":[[[-42.5005,-22.8112],[-42.5032,-22.8162],[-42.5005,-22.8112],[-42.5005,-22.8112]]]}},{"type":"Feature","properties":{"cod_imovel":"RJ-3304300-B11D460965BA493BB613863D57F761F3","num_area":"13.173100000000000000000000000000","ind_status":"AT"},"geometry":{"type":"Polygon","coordinates":[[[-42.5067,-22.8263],[-42.502,-22.8165],[-42.5051,-22.8232],[-42.5067,-22.8263]],[[-42.5019,-22.8167],[-42.5059,-22.823],[-42.502,-22.8166],[-42.5019,-22.8167]]]}},{"type":"Feature","properties":{"cod_imovel":"RJ-3304300-404B12D21F0145EA8B38F0B1D8C3945C","num_area":"13.472900000000000000000000000000","ind_status":"AT"},"geometry":{"type":"Polygon","coordinates":[[[-42.6697,-22.7772],[-42.6661,-22.7743],[-42.6678,-22.7775],[-42.6697,-22.7772]]]}},{"type":"Feature","properties":{"cod_imovel":"RJ-3304300-9F28293D5FC14158AD4718052B8C0FE8","num_area":"5.2223000000000000000000000000000","ind_status":"AT"},"geometry":{"type":"Polygon","coordinates":[[[-42.5417,-22.8076],[-42.5447,-22.8085],[-42.5425,-22.8059],[-42.5417,-22.8076]]]}},{"type":"Feature","properties":{"cod_imovel":"RJ-3304300-EF2C41C2A17446278015953E4729032B","num_area":"24.040300000000000000000000000000","ind_status":"AT"},"geometry":{"type":"Polygon","coordinates":[[[-42.5148,-22.7327],[-42.5166,-22.7371],[-42.5153,-22.7321],[-42.5148,-22.7327]],[[-42.5181,-22.7362],[-42.5213,-22.732],[-42.5183,-22.7358],[-42.5181,-22.7362]]]}},{"type":"Feature","properties":{"cod_imovel":"RJ-3304300-94BBC4EB9AA340958B6BB28724FF4F17","num_area":"3.3285000000000000000000000000000","ind_status":"AT"},"geometry":{"type":"Polygon","coordinates":[[[-42.5833,-22.7673],[-42.5871,-22.769],[-42.5835,-22.7672],[-42.5833,-22.7673]]]}},{"type":"Feature","properties":{"cod_imovel":"RJ-3304300-F23E4F777B9742CFB26715B8192162C0","num_area":"56.121900000000000000000000000000","ind_status":"AT"},"geometry":{"type":"Polygon","coordinates":[[[-42.6661,-22.7439],[-42.6664,-22.7403],[-42.6594,-22.7481],[-42.6665,-22.7442],[-42.6661,-22.7439]],[[-42.653,-22.7371],[-42.659,-22.742],[-42.6546,-22.7342],[-42.6531,-22.7371],[-42.653,-22.7371]]]}},{"type":"Feature","properties":{"cod_imovel":"RJ-3304300-EBDB3198E1984D62B0D87666EEACE16C","num_area":"30.596800000000000000000000000000","ind_status":"CA"},"geometry":{"type":"Polygon","coordinates":[[[-42.6287,-22.6505],[-42.6348,-22.6502],[-42.6347,-22.6458],[-42.6288,-22.6496],[-42.6287,-22.6505]]]}},{"type":"Feature","properties":{"cod_imovel":"RJ-3304300-E5ACFE4F1D444EFB8BA141CF3B43A863","num_area":"38.832900000000000000000000000000","ind_status":"AT"},"geometry":{"type":"Polygon","coordinates":[[[-42.5695,-22.7097],[-42.5753,-22.7114],[-42.5707,-22.7095],[-42.5695,-22.7097]],[[-42.5687,-22.7055],[-42.5759,-22.7058],[-42.5699,-22.7029],[-42.5687,-22.7055]]]}},{"type":"Feature","properties":{"cod_imovel":"RJ-3304300-5A6870CB56F94CF2BB649529DBA33F43","num_area":"69.249000000000000000000000000000","ind_status":"AT"},"geometry":{"type":"Polygon","coordinates":[[[-42.6332,-22.7467],[-42.6366,-22.7453],[-42.633,-22.7464],[-42.6332,-22.7467]],[[-42.6301,-22.752],[-42.6295,-22.7483],[-42.6303,-22.7515],[-42.6301,-22.752]],[[-42.6307,-22.7515],[-42.6297,-22.7478],[-42.6307,-22.7515],[-42.6307,-22.7515]],[[-42.6231,-22.7441],[-42.627,-22.744],[-42.6231,-22.744],[-42.6231,-22.7441]],[[-42.6228,-22.7488],[-42.6276,-22.7509],[-42.6251,-22.7486],[-42.6302,-22.747],[-42.6236,-22.7477],[-42.6228,-22.7488]],[[-42.6297,-22.7334],[-42.6189,-22.7395],[-42.6299,-22.7368],[-42.63,-22.7332],[-42.6297,-22.7334]]]}},{"type":"Feature","properties":{"cod_imovel":"RJ-3304300-0C94F5D61A164EBA8EA489821CC4DFC8","num_area":"7.2828000000000000000000000000000","ind_status":"AT"},"geometry":{"type":"Polygon","coordinates":[[[-42.6962,-22.6726],[-42.696,-22.6689],[-42.6952,-22.6724],[-42.6962,-22.6726]]]}},{"type":"Feature","properties":{"cod_imovel":"RJ-3304300-9F653ECB36324D61B2ED8B015130AC46","num_area":"11.917400000000000000000000000000","ind_status":"AT"},"geometry":{"type":"Polygon","coordinates":[[[-42.5361,-22.6456],[-42.5343,-22.6406],[-42.5334,-22.645],[-42.5361,-22.6456]]]}},{"type":"Feature","properties":{"cod_imovel":"RJ-3304300-72094C0DDCA74CE1A82F6143AB86B098","num_area":"30.596800000000000000000000000000","ind_status":"CA"},"geometry":{"type":"Polygon","coordinates":[[[-42.6287,-22.6505],[-42.6348,-22.6502],[-42.6347,-22.6458],[-42.6288,-22.6496],[-42.6287,-22.6505]]]}},{"type":"Feature","properties":{"cod_imovel":"RJ-3304300-F1FA32B641B3443DA0ECF889BD9529D7","num_area":"4.8149000000000000000000000000000","ind_status":"AT"},"geometry":{"type":"Polygon","coordinates":[[[-42.598,-22.7675],[-42.5955,-22.7654],[-42.5976,-22.768],[-42.598,-22.7675]]]}},{"type":"Feature","properties":{"cod_imovel":"RJ-3304300-391498F9607645A5A4C39C0EB6642A95","num_area":"75.817500000000000000000000000000","ind_status":"AT"},"geometry":{"type":"Polygon","coordinates":[[[-42.5721,-22.632],[-42.572,-22.6283],[-42.5769,-22.6319],[-42.575,-22.6272],[-42.5714,-22.631],[-42.5721,-22.632]],[[-42.5728,-22.6318],[-42.5769,-22.632],[-42.5729,-22.6318],[-42.5728,-22.6318]],[[-42.5823,-22.6318],[-42.5784,-22.6302],[-42.5823,-22.6318],[-42.5823,-22.6318]],[[-42.5843,-22.628],[-42.5804,-22.6297],[-42.5842,-22.628],[-42.5843,-22.628]],[[-42.5839,-22.6256],[-42.5788,-22.6299],[-42.5839,-22.6256],[-42.5839,-22.6256]],[[-42.5819,-22.6259],[-42.5782,-22.628],[-42.5818,-22.6262],[-42.5819,-22.6259]],[[-42.5768,-22.6268],[-42.5784,-22.6303],[-42.5768,-22.6268],[-42.5768,-22.6268]]]}},{"type":"Feature","properties":{"cod_imovel":"RJ-3304300-22457197443D407384A89C4F41FAFEF2","num_area":"54.424100000000000000000000000000","ind_status":"AT"},"geometry":{"type":"Polygon","coordinates":[[[-42.662,-22.6825],[-42.6574,-22.6884],[-42.6611,-22.6904],[-42.6681,-22.6878],[-42.6651,-22.6833],[-42.662,-22.6825]],[[-42.6559,-22.694],[-42.6595,-22.695],[-42.6556,-22.6934],[-42.6559,-22.694]]]}},{"type":"Feature","properties":{"cod_imovel":"RJ-3304300-2313BE8D40C444E2AF859C32F696BEB8","num_area":"161.72190000000000000000000000000","ind_status":"AT"},"geometry":{"type":"Polygon","coordinates":[[[-42.7051,-22.7035],[-42.7173,-22.7183],[-42.7224,-22.7123],[-42.7189,-22.7056],[-42.7064,-22.7019],[-42.7051,-22.7035]]]}},{"type":"Feature","properties":{"cod_imovel":"RJ-3304300-306BC523ECED48A9BA653ACEE2BFC0E5","num_area":"36.034700000000000000000000000000","ind_status":"AT"},"geometry":{"type":"Polygon","coordinates":[[[-42.5027,-22.7408],[-42.5012,-22.7469],[-42.5027,-22.7408],[-42.5027,-22.7408]],[[-42.5237,-22.7487],[-42.5216,-22.7442],[-42.5177,-22.7474],[-42.5232,-22.7484],[-42.5237,-22.7487]],[[-42.5137,-22.7528],[-42.5121,-22.7502],[-42.5137,-22.7528],[-42.5137,-22.7528]]]}},{"type":"Feature","properties":{"cod_imovel":"RJ-3304300-30E99C075D824263B32BAC537F38922D","num_area":"14.982900000000000000000000000000","ind_status":"AT"},"geometry":{"type":"Polygon","coordinates":[[[-42.7017,-22.6836],[-42.7078,-22.6817],[-42.704,-22.6796],[-42.7017,-22.6836]]]}},{"type":"Feature","properties":{"cod_imovel":"RJ-3304300-3137B979B09D422187D53BAA241524E6","num_area":"32.098400000000000000000000000000","ind_status":"AT"},"geometry":{"type":"Polygon","coordinates":[[[-42.6823,-22.7388],[-42.6795,-22.7365],[-42.6811,-22.7395],[-42.6823,-22.7388]],[[-42.6861,-22.7416],[-42.6864,-22.7385],[-42.6806,-22.7414],[-42.6843,-22.7443],[-42.6861,-22.7416]]]}},{"type":"Feature","properties":{"cod_imovel":"RJ-3304300-36D2DFE4B0C94783BF9B8EC044B1B481","num_area":"15.154500000000000000000000000000","ind_status":"AT"},"geometry":{"type":"Polygon","coordinates":[[[-42.7103,-22.698],[-42.7116,-22.6947],[-42.7095,-22.6977],[-42.7103,-22.698]],[[-42.7053,-22.6998],[-42.7059,-22.7052],[-42.7053,-22.6988],[-42.7053,-22.6998]]]}},{"type":"Feature","properties":{"cod_imovel":"RJ-3304300-36F3AB33CB4C4987BADB5EBA6D48CDC5","num_area":"30.596800000000000000000000000000","ind_status":"AT"},"geometry":{"type":"Polygon","coordinates":[[[-42.6287,-22.6505],[-42.6348,-22.6502],[-42.6347,-22.6458],[-42.6288,-22.6496],[-42.6287,-22.6505]]]}},{"type":"Feature","properties":{"cod_imovel":"RJ-3304300-5343B247AF924DBA905E38A39C88472A","num_area":"42.425000000000000000000000000000","ind_status":"AT"},"geometry":{"type":"Polygon","coordinates":[[[-42.5841,-22.7851],[-42.5874,-22.7838],[-42.5842,-22.7842],[-42.5841,-22.7851]],[[-42.5905,-22.78],[-42.5945,-22.7731],[-42.5847,-22.7682],[-42.5913,-22.7731],[-42.5896,-22.7797],[-42.5905,-22.78]]]}},{"type":"Feature","properties":{"cod_imovel":"RJ-3304300-5389A1527E21441F829209F9174E286F","num_area":"60.984900000000000000000000000000","ind_status":"AT"},"geometry":{"type":"Polygon","coordinates":[[[-42.6628,-22.8143],[-42.6619,-22.8065],[-42.6576,-22.8106],[-42.6616,-22.8158],[-42.6586,-22.8209],[-42.6634,-22.8147],[-42.6628,-22.8143]]]}},{"type":"Feature","properties":{"cod_imovel":"RJ-3304300-9445819804D14BFD929A30DF76A051E4","num_area":"172.86870000000000000000000000000","ind_status":"AT"},"geometry":{"type":"Polygon","coordinates":[[[-42.5014,-22.7816],[-42.5059,-22.7861],[-42.5044,-22.7834],[-42.5014,-22.7816]],[[-42.497,-22.7818],[-42.5016,-22.7856],[-42.4974,-22.7817],[-42.497,-22.7818]],[[-42.4921,-22.7934],[-42.4957,-22.7966],[-42.5078,-22.7893],[-42.5004,-22.7862],[-42.501,-22.7917],[-42.5002,-22.7871],[-42.491,-22.7858],[-42.486,-22.7905],[-42.4911,-22.7937],[-42.4921,-22.7934]]]}},{"type":"Feature","properties":{"cod_imovel":"RJ-3304300-BC1024F2C2DD45F48FE268CEF8FEE233","num_area":"10.409800000000000000000000000000","ind_status":"AT"},"geometry":{"type":"Polygon","coordinates":[[[-42.6607,-22.8385],[-42.6605,-22.8341],[-42.6594,-22.8374],[-42.6607,-22.8385]]]}},{"type":"Feature","properties":{"cod_imovel":"RJ-3304300-CB529E2B39E0448E9E61D7C724C94490","num_area":"11.498000000000000000000000000000","ind_status":"AT"},"geometry":{"type":"Polygon","coordinates":[[[-42.5792,-22.6786],[-42.5742,-22.676],[-42.578,-22.6791],[-42.5792,-22.6786]]]}},{"type":"Feature","properties":{"cod_imovel":"RJ-3304300-DA40A13AE9F14F7B99E080F04B69DB39","num_area":"10.254400000000000000000000000000","ind_status":"AT"},"geometry":{"type":"Polygon","coordinates":[[[-42.6005,-22.762],[-42.6004,-22.7564],[-42.6,-22.7622],[-42.6005,-22.762]]]}},{"type":"Feature","properties":{"cod_imovel":"RJ-3304300-DDE34EE94EFA4704AC59DF8E6E019E5D","num_area":"5.4421000000000000000000000000000","ind_status":"AT"},"geometry":{"type":"Polygon","coordinates":[[[-42.4715,-22.7938],[-42.4667,-22.7889],[-42.4713,-22.7936],[-42.4715,-22.7938]]]}}]}