{"type":"FeatureCollection","features":[{"type":"Feature","properties":{"cod_imovel":"RJ-3304706-C986CD8244A745899A05526C36250DDB","num_area":"15.883800000000000000000000000000","ind_status":"PE"},"geometry":{"type":"Polygon","coordinates":[[[-42.0511,-21.4668],[-42.0504,-21.4628],[-42.0511,-21.4668],[-42.0511,-21.4668]]]}},{"type":"Feature","properties":{"cod_imovel":"RJ-3304706-40150CABC4C54F72ABFC77666157DEFD","num_area":"22.083600000000000000000000000000","ind_status":"AT"},"geometry":{"type":"Polygon","coordinates":[[[-42.2169,-21.5236],[-42.217,-21.5272],[-42.217,-21.5237],[-42.2169,-21.5236]],[[-42.2216,-21.5208],[-42.2165,-21.5213],[-42.2215,-21.5208],[-42.2216,-21.5208]]]}},{"type":"Feature","properties":{"cod_imovel":"RJ-3304706-50FBDBCBAD1146409E56CA32FDBB54E4","num_area":"7.4622000000000000000000000000000","ind_status":"CA"},"geometry":{"type":"Polygon","coordinates":[[[-42.2107,-21.5054],[-42.2086,-21.5114],[-42.21,-21.5056],[-42.2107,-21.5054]],[[-42.2073,-21.5109],[-42.2073,-21.5149],[-42.2077,-21.5106],[-42.2073,-21.5109]],[[-42.214,-21.5055],[-42.2109,-21.5055],[-42.214,-21.5055],[-42.214,-21.5055]]]}},{"type":"Feature","properties":{"cod_imovel":"RJ-3304706-334212DC952447BF9F2B5D36067D0D5A","num_area":"7.6490000000000000000000000000000","ind_status":"AT"},"geometry":{"type":"Polygon","coordinates":[[[-42.2401,-21.6423],[-42.2414,-21.6389],[-42.2381,-21.6415],[-42.2401,-21.6423]]]}},{"type":"Feature","properties":{"cod_imovel":"RJ-3304706-63DF3355709D4AE8961E156D68DAA0BE","num_area":"26.618500000000000000000000000000","ind_status":"AT"},"geometry":{"type":"Polygon","coordinates":[[[-42.1949,-21.5946],[-42.1903,-21.591],[-42.1841,-21.5934],[-42.1913,-21.5943],[-42.19,-21.5915],[-42.1948,-21.596],[-42.1949,-21.5946]]]}},{"type":"Feature","properties":{"cod_imovel":"RJ-3304706-4C16A45361334667BC3748CE775F0CE5","num_area":"9.9169000000000000000000000000000","ind_status":"PE"},"geometry":{"type":"Polygon","coordinates":[[[-42.1701,-21.5144],[-42.1702,-21.5178],[-42.1703,-21.5144],[-42.1701,-21.5144]]]}},{"type":"Feature","properties":{"cod_imovel":"RJ-3304706-82488F0976F74622885BB927AE2DC4B8","num_area":"46.402500000000000000000000000000","ind_status":"PE"},"geometry":{"type":"Polygon","coordinates":[[[-42.1499,-21.5668],[-42.1435,-21.5669],[-42.1479,-21.5719],[-42.1538,-21.5658],[-42.1499,-21.567],[-42.1499,-21.5668]],[[-42.1445,-21.5689],[-42.1471,-21.5746],[-42.1446,-21.5689],[-42.1445,-21.5689]],[[-42.154,-21.5639],[-42.1525,-21.5708],[-42.1544,-21.5643],[-42.154,-21.5639]],[[-42.1526,-21.5707],[-42.1563,-21.5659],[-42.1527,-21.5706],[-42.1526,-21.5707]]]}},{"type":"Feature","properties":{"cod_imovel":"RJ-3304706-E8FF6C68698E4ED1AFF0FDA36F953BA3","num_area":"16.424200000000000000000000000000","ind_status":"AT"},"geometry":{"type":"Polygon","coordinates":[[[-42.242,-21.5387],[-42.2377,-21.5401],[-42.241,-21.5387],[-42.242,-21.5387]],[[-42.2385,-21.54],[-42.2429,-21.5408],[-42.2388,-21.54],[-42.2385,-21.54]],[[-42.2331,-21.5399],[-42.2374,-21.5408],[-42.2332,-21.54],[-42.2331,-21.5399]],[[-42.2347,-21.5345],[-42.2341,-21.5379],[-42.236,-21.5347],[-42.2347,-21.5345]]]}},{"type":"Feature","properties":{"cod_imovel":"RJ-3304706-20800286ABD74005B6E1E4DA97D28201","num_area":"7.7826000000000000000000000000000","ind_status":"PE"},"geometry":{"type":"Polygon","coordinates":[[[-42.2061,-21.5116],[-42.2081,-21.5053],[-42.2023,-21.5099],[-42.206,-21.5118],[-42.2061,-21.5116]],[[-42.2078,-21.5057],[-42.2049,-21.512],[-42.2027,-21.5095],[-42.2077,-21.5059],[-42.2078,-21.5057]]]}},{"type":"Feature","properties":{"cod_imovel":"RJ-3304706-BC89BA5A6D654EF38D93F19815372E36","num_area":"8.9766000000000000000000000000000","ind_status":"AT"},"geometry":{"type":"Polygon","coordinates":[[[-42.1138,-21.5182],[-42.1082,-21.5202],[-42.1138,-21.5182],[-42.1138,-21.5182]]]}},{"type":"Feature","properties":{"cod_imovel":"RJ-3304706-6B60EBDEFAED4A9BB42C9EB0BF8DE454","num_area":"7.8850000000000000000000000000000","ind_status":"AT"},"geometry":{"type":"Polygon","coordinates":[[[-42.1503,-21.6054],[-42.1466,-21.6062],[-42.1501,-21.6054],[-42.1503,-21.6054]]]}},{"type":"Feature","properties":{"cod_imovel":"RJ-3304706-8F0AC90079A147D8838534ADDD1A8DA0","num_area":"7.9933000000000000000000000000000","ind_status":"AT"},"geometry":{"type":"Polygon","coordinates":[[[-42.3278,-21.6061],[-42.3277,-21.6019],[-42.3272,-21.6061],[-42.3278,-21.6061]]]}},{"type":"Feature","properties":{"cod_imovel":"RJ-3304706-19D55D1C17BC43329EAE033CDAF41BA9","num_area":"11.092700000000000000000000000000","ind_status":"AT"},"geometry":{"type":"Polygon","coordinates":[[[-42.2764,-21.5723],[-42.273,-21.567],[-42.2757,-21.5719],[-42.2764,-21.5723]]]}},{"type":"Feature","properties":{"cod_imovel":"RJ-3304706-C67DAB50332F4D04BDDD8677EDABB825","num_area":"19.437300000000000000000000000000","ind_status":"AT"},"geometry":{"type":"Polygon","coordinates":[[[-42.0397,-21.5082],[-42.0455,-21.5019],[-42.0396,-21.5074],[-42.0397,-21.5082]]]}},{"type":"Feature","properties":{"cod_imovel":"RJ-3304706-A62867A9BBDB473CBE5DFE5CBD0295E8","num_area":"33.326700000000000000000000000000","ind_status":"AT"},"geometry":{"type":"Polygon","coordinates":[[[-42.0994,-21.5578],[-42.1018,-21.5533],[-42.0957,-21.555],[-42.0987,-21.5575],[-42.0994,-21.5578]],[[-42.1006,-21.5579],[-42.1036,-21.5596],[-42.1008,-21.5579],[-42.1006,-21.5579]],[[-42.1083,-21.5656],[-42.1046,-21.5642],[-42.1081,-21.5655],[-42.1083,-21.5656]]]}},{"type":"Feature","properties":{"cod_imovel":"RJ-3304706-C79BC59F3A7943B7B4E0B78AE5E1865E","num_area":"29.898100000000000000000000000000","ind_status":"AT"},"geometry":{"type":"Polygon","coordinates":[[[-42.2853,-21.453],[-42.2828,-21.4508],[-42.2763,-21.4573],[-42.2854,-21.4533],[-42.2853,-21.453]]]}},{"type":"Feature","properties":{"cod_imovel":"RJ-3304706-B7A27DEF33184316B91C2EEDA095919F","num_area":"21.250900000000000000000000000000","ind_status":"AT"},"geometry":{"type":"Polygon","coordinates":[[[-42.2839,-21.4446],[-42.2774,-21.4479],[-42.2838,-21.4447],[-42.2839,-21.4446]]]}},{"type":"Feature","properties":{"cod_imovel":"RJ-3304706-B2AE4C6817864342BC0AA3937D75EDFD","num_area":"15.304300000000000000000000000000","ind_status":"AT"},"geometry":{"type":"Polygon","coordinates":[[[-42.0764,-21.5426],[-42.0762,-21.5497],[-42.0764,-21.5426],[-42.0764,-21.5426]]]}},{"type":"Feature","properties":{"cod_imovel":"RJ-3304706-B809A1C0FEFB455E9F1D539CF8E29CE8","num_area":"15.041300000000000000000000000000","ind_status":"PE"},"geometry":{"type":"Polygon","coordinates":[[[-42.3262,-21.5931],[-42.3196,-21.5946],[-42.3257,-21.594],[-42.3262,-21.5931]]]}},{"type":"Feature","properties":{"cod_imovel":"RJ-3304706-D55980DC45D24D91AA847BABF57B90FB","num_area":"0.8121000000000000000000000000000","ind_status":"AT"},"geometry":{"type":"Polygon","coordinates":[[[-42.0023,-21.465],[-42.0044,-21.4614],[-42.0022,-21.465],[-42.0023,-21.465]]]}},{"type":"Feature","properties":{"cod_imovel":"RJ-3304706-D057508BEF3349F9B5EC9BF0C99F496F","num_area":"22.900000000000000000000000000000","ind_status":"AT"},"geometry":{"type":"Polygon","coordinates":[[[-42.06,-21.4632],[-42.0532,-21.4635],[-42.0624,-21.4656],[-42.06,-21.4632],[-42.06,-21.4632]]]}},{"type":"Feature","properties":{"cod_imovel":"RJ-3304706-D5780A53877247FE8BACF6A1F13E2FFF","num_area":"28.813600000000000000000000000000","ind_status":"AT"},"geometry":{"type":"Polygon","coordinates":[[[-42.0683,-21.4749],[-42.0621,-21.4699],[-42.0638,-21.476],[-42.0683,-21.4749],[-42.0683,-21.4749]]]}},{"type":"Feature","properties":{"cod_imovel":"RJ-3304706-9E631ABF71B547C9A7B7514CD2A1956E","num_area":"10.879200000000000000000000000000","ind_status":"AT"},"geometry":{"type":"Polygon","coordinates":[[[-42.3512,-21.6211],[-42.351,-21.6174],[-42.3508,-21.6214],[-42.3512,-21.6211]]]}},{"type":"Feature","properties":{"cod_imovel":"RJ-3304706-DAE8364248DD48CF916E859C8F2EA567","num_area":"21.325400000000000000000000000000","ind_status":"AT"},"geometry":{"type":"Polygon","coordinates":[[[-42.2241,-21.4759],[-42.2215,-21.4729],[-42.2235,-21.4759],[-42.2241,-21.4759]],[[-42.2132,-21.4701],[-42.2135,-21.4736],[-42.2136,-21.4704],[-42.2132,-21.4701]],[[-42.2212,-21.4729],[-42.2175,-21.4708],[-42.2212,-21.4731],[-42.2212,-21.4729]]]}},{"type":"Feature","properties":{"cod_imovel":"RJ-3304706-58454C048605401B8E6F0631486B0073","num_area":"10.529100000000000000000000000000","ind_status":"AT"},"geometry":{"type":"Polygon","coordinates":[[[-42.1088,-21.4932],[-42.1117,-21.4905],[-42.1088,-21.4932],[-42.1088,-21.4932]]]}},{"type":"Feature","properties":{"cod_imovel":"RJ-3304706-26950E5B47EB46EF8B82F5FEC2A84064","num_area":"4.5945000000000000000000000000000","ind_status":"AT"},"geometry":{"type":"Polygon","coordinates":[[[-42.247,-21.6179],[-42.2456,-21.6146],[-42.2467,-21.6173],[-42.247,-21.6179]]]}},{"type":"Feature","properties":{"cod_imovel":"RJ-3304706-07AE1ED65B724B1586DFF2154547A23F","num_area":"72.033600000000000000000000000000","ind_status":"PE"},"geometry":{"type":"Polygon","coordinates":[[[-42.336,-21.5849],[-42.3377,-21.578],[-42.3321,-21.5843],[-42.3352,-21.5854],[-42.336,-21.5849]],[[-42.3449,-21.5957],[-42.3501,-21.5877],[-42.3434,-21.5874],[-42.3435,-21.5942],[-42.3449,-21.5957]]]}},{"type":"Feature","properties":{"cod_imovel":"RJ-3304706-17A101968FB342608393E0F40678D18D","num_area":"82.896700000000000000000000000000","ind_status":"AT"},"geometry":{"type":"Polygon","coordinates":[[[-42.3149,-21.5659],[-42.31,-21.5687],[-42.3219,-21.5655],[-42.3168,-21.5622],[-42.3149,-21.5659],[-42.3149,-21.5659]],[[-42.3105,-21.5762],[-42.3075,-21.5785],[-42.3106,-21.5763],[-42.3105,-21.5762]],[[-42.3252,-21.5765],[-42.3312,-21.5735],[-42.3228,-21.569],[-42.3196,-21.5713],[-42.3248,-21.5767],[-42.3252,-21.5765]]]}},{"type":"Feature","properties":{"cod_imovel":"RJ-3304706-E704F4E42295404A899154150050AA3C","num_area":"30.424000000000000000000000000000","ind_status":"AT"},"geometry":{"type":"Polygon","coordinates":[[[-42.3513,-21.5952],[-42.3439,-21.6027],[-42.3533,-21.5966],[-42.3513,-21.5952]]]}},{"type":"Feature","properties":{"cod_imovel":"RJ-3304706-EB498E1CC83A41649638BFADB0DFA7B5","num_area":"130.09000000000000000000000000000","ind_status":"PE"},"geometry":{"type":"Polygon","coordinates":[[[-42.2933,-21.5063],[-42.2896,-21.5038],[-42.2928,-21.5065],[-42.2933,-21.5063]],[[-42.2988,-21.5126],[-42.2951,-21.5104],[-42.2985,-21.5125],[-42.2988,-21.5126]],[[-42.2673,-21.5381],[-42.2604,-21.5404],[-42.2693,-21.5437],[-42.2667,-21.5391],[-42.2673,-21.5381]],[[-42.2942,-21.5112],[-42.2931,-21.5068],[-42.2939,-21.5113],[-42.2942,-21.5112]],[[-42.2782,-21.5352],[-42.2712,-21.5329],[-42.278,-21.5355],[-42.2782,-21.5352]],[[-42.2957,-21.5196],[-42.2891,-21.5247],[-42.2955,-21.5196],[-42.2957,-21.5196]],[[-42.2952,-21.5308],[-42.297,-21.5224],[-42.2946,-21.5308],[-42.2952,-21.5308]],[[-42.2832,-21.5202],[-42.2837,-21.526],[-42.2886,-21.5252],[-42.2838,-21.5258],[-42.2831,-21.5204],[-42.2832,-21.5202]],[[-42.2825,-21.5204],[-42.2832,-21.5286],[-42.2912,-21.5367],[-42.2836,-21.526],[-42.2918,-21.5358],[-42.2841,-21.5277],[-42.2891,-21.5242],[-42.2836,-21.526],[-42.2827,-21.5207],[-42.2825,-21.5204]]]}},{"type":"Feature","properties":{"cod_imovel":"RJ-3304706-F1DA215557554B51A46B6481EC14EAE0","num_area":"7.0429000000000000000000000000000","ind_status":"AT"},"geometry":{"type":"Polygon","coordinates":[[[-42.1597,-21.5175],[-42.1622,-21.521],[-42.1597,-21.5175],[-42.1597,-21.5175]]]}},{"type":"Feature","properties":{"cod_imovel":"RJ-3304706-0B6A5CABF7D540A8AF4B9B74B4FD772A","num_area":"2.3364000000000000000000000000000","ind_status":"AT"},"geometry":{"type":"Polygon","coordinates":[[[-42.0885,-21.4871],[-42.0859,-21.4917],[-42.0885,-21.4872],[-42.0885,-21.4871]]]}},{"type":"Feature","properties":{"cod_imovel":"RJ-3304706-8D025A9ECAE84D53890EF871277A66E2","num_area":"6.1325000000000000000000000000000","ind_status":"AT"},"geometry":{"type":"Polygon","coordinates":[[[-42.1531,-21.532],[-42.1499,-21.5324],[-42.153,-21.5321],[-42.1531,-21.532]],[[-42.1529,-21.5346],[-42.1498,-21.5331],[-42.1529,-21.5347],[-42.1529,-21.5346]]]}},{"type":"Feature","properties":{"cod_imovel":"RJ-3304706-4F019261DD724C0F8305E3FB66DC4EE6","num_area":"4.4021000000000000000000000000000","ind_status":"AT"},"geometry":{"type":"Polygon","coordinates":[[[-42.1733,-21.6177],[-42.177,-21.6159],[-42.1734,-21.6175],[-42.1733,-21.6177]]]}},{"type":"Feature","properties":{"cod_imovel":"RJ-3304706-0A9F21527DB4420A9606CB7D2F68C769","num_area":"6.2879000000000000000000000000000","ind_status":"AT"},"geometry":{"type":"Polygon","coordinates":[[[-42.0639,-21.5059],[-42.0659,-21.5037],[-42.0638,-21.5059],[-42.0639,-21.5059]]]}},{"type":"Feature","properties":{"cod_imovel":"RJ-3304706-D4E78A79AF2F4A12BDFE662D4EA301C2","num_area":"12.938300000000000000000000000000","ind_status":"AT"},"geometry":{"type":"Polygon","coordinates":[[[-42.3439,-21.6026],[-42.3456,-21.5996],[-42.3438,-21.6025],[-42.3439,-21.6026]],[[-42.3449,-21.605],[-42.3419,-21.602],[-42.3447,-21.6051],[-42.3449,-21.605]]]}},{"type":"Feature","properties":{"cod_imovel":"RJ-3304706-13A4FF14D08948548848CB4DEAC7753B","num_area":"19.462400000000000000000000000000","ind_status":"AT"},"geometry":{"type":"Polygon","coordinates":[[[-42.2379,-21.524],[-42.2323,-21.5253],[-42.2382,-21.5245],[-42.2379,-21.524]],[[-42.2338,-21.5144],[-42.2378,-21.5158],[-42.2339,-21.5139],[-42.2338,-21.5144]]]}},{"type":"Feature","properties":{"cod_imovel":"RJ-3304706-1497D768953E45F1960CB2D4E4003040","num_area":"12.035000000000000000000000000000","ind_status":"AT"},"geometry":{"type":"Polygon","coordinates":[[[-42.2458,-21.5175],[-42.2424,-21.517],[-42.2457,-21.5175],[-42.2458,-21.5175]],[[-42.2446,-21.517],[-42.2478,-21.516],[-42.2446,-21.5167],[-42.2446,-21.517]]]}},{"type":"Feature","properties":{"cod_imovel":"RJ-3304706-00D71E7942344792B1D4B4683130635C","num_area":"41.676500000000000000000000000000","ind_status":"AT"},"geometry":{"type":"Polygon","coordinates":[[[-42.0936,-21.5627],[-42.0861,-21.5586],[-42.0857,-21.5626],[-42.0929,-21.5631],[-42.0936,-21.5627]]]}},{"type":"Feature","properties":{"cod_imovel":"RJ-3304706-C9C187BA3B754C2F907C266929363951","num_area":"11.885200000000000000000000000000","ind_status":"AT"},"geometry":{"type":"Polygon","coordinates":[[[-42.2422,-21.6295],[-42.2416,-21.6257],[-42.2416,-21.6291],[-42.2422,-21.6295]]]}},{"type":"Feature","properties":{"cod_imovel":"RJ-3304706-ED0E7A2C86464F6684F836339D22A5DA","num_area":"8.5841000000000000000000000000000","ind_status":"AT"},"geometry":{"type":"Polygon","coordinates":[[[-42.2268,-21.6271],[-42.2234,-21.6289],[-42.2281,-21.6289],[-42.2268,-21.6271]]]}},{"type":"Feature","properties":{"cod_imovel":"RJ-3304706-6DFD480417104F6C87EDD92B74A45E37","num_area":"11.120400000000000000000000000000","ind_status":"AT"},"geometry":{"type":"Polygon","coordinates":[[[-42.1061,-21.5684],[-42.1114,-21.5655],[-42.1061,-21.5682],[-42.1061,-21.5684]]]}},{"type":"Feature","properties":{"cod_imovel":"RJ-3304706-9424898266814C05A039FFD7B40B1FCF","num_area":"8.5647000000000000000000000000000","ind_status":"AT"},"geometry":{"type":"Polygon","coordinates":[[[-42.1389,-21.5079],[-42.1352,-21.5075],[-42.1389,-21.508],[-42.1389,-21.5079]]]}},{"type":"Feature","properties":{"cod_imovel":"RJ-3304706-137444D860034B4E8F3807CA88784487","num_area":"16.067700000000000000000000000000","ind_status":"AT"},"geometry":{"type":"Polygon","coordinates":[[[-42.1383,-21.498],[-42.1417,-21.4951],[-42.1385,-21.4972],[-42.1383,-21.498]],[[-42.1312,-21.4888],[-42.1367,-21.4908],[-42.1314,-21.4877],[-42.1312,-21.4888]]]}},{"type":"Feature","properties":{"cod_imovel":"RJ-3304706-91B0241DDB0A46D396A16AC2EAE34B2F","num_area":"23.018700000000000000000000000000","ind_status":"AT"},"geometry":{"type":"Polygon","coordinates":[[[-42.0703,-21.522],[-42.0743,-21.5204],[-42.0698,-21.5168],[-42.07,-21.5216],[-42.0703,-21.522]]]}},{"type":"Feature","properties":{"cod_imovel":"RJ-3304706-AF4C5CA63A714DBA9BD87729374DD814","num_area":"10.455200000000000000000000000000","ind_status":"AT"},"geometry":{"type":"Polygon","coordinates":[[[-42.1684,-21.5351],[-42.1631,-21.5348],[-42.1676,-21.5353],[-42.1684,-21.5351]]]}},{"type":"Feature","properties":{"cod_imovel":"RJ-3304706-2091A884EFBF46FDAE052F0D35AF5E7E","num_area":"23.488800000000000000000000000000","ind_status":"AT"},"geometry":{"type":"Polygon","coordinates":[[[-42.3506,-21.5969],[-42.3478,-21.6001],[-42.3531,-21.5998],[-42.3539,-21.5942],[-42.3506,-21.5969]]]}},{"type":"Feature","properties":{"cod_imovel":"RJ-3304706-9BA67385961546BA920EA51F4AA48AA2","num_area":"4.0574000000000000000000000000000","ind_status":"AT"},"geometry":{"type":"Polygon","coordinates":[[[-42.2306,-21.6313],[-42.229,-21.6363],[-42.231,-21.633],[-42.2306,-21.6313]]]}},{"type":"Feature","properties":{"cod_imovel":"RJ-3304706-92BA21E904FD4ED5A37C181966D25691","num_area":"9.8110000000000000000000000000000","ind_status":"AT"},"geometry":{"type":"Polygon","coordinates":[[[-42.2882,-21.6111],[-42.2856,-21.6086],[-42.2884,-21.6115],[-42.2882,-21.6111]]]}},{"type":"Feature","properties":{"cod_imovel":"RJ-3304706-E72FA5F177774F6DB9576BF9F7CC5A3F","num_area":"38.747800000000000000000000000000","ind_status":"PE"},"geometry":{"type":"Polygon","coordinates":[[[-42.2519,-21.6376],[-42.2528,-21.6442],[-42.2494,-21.6383],[-42.2451,-21.6414],[-42.2534,-21.6442],[-42.252,-21.6378],[-42.2519,-21.6376]]]}},{"type":"Feature","properties":{"cod_imovel":"RJ-3304706-24F5989B8B6F4090B7CFB0AD33BA3D5D","num_area":"9.7989000000000000000000000000000","ind_status":"AT"},"geometry":{"type":"Polygon","coordinates":[[[-42.1907,-21.6021],[-42.19,-21.6059],[-42.1908,-21.602],[-42.1907,-21.6021]]]}},{"type":"Feature","properties":{"cod_imovel":"RJ-3304706-C87E532C61094AA1B3319A56D69AE450","num_area":"9.1065000000000000000000000000000","ind_status":"AT"},"geometry":{"type":"Polygon","coordinates":[[[-42.3008,-21.5467],[-42.3064,-21.5466],[-42.3012,-21.5465],[-42.3008,-21.5467]]]}},{"type":"Feature","properties":{"cod_imovel":"RJ-3304706-55B199290D3B4EDAB372001743F80E2D","num_area":"3.6611000000000000000000000000000","ind_status":"AT"},"geometry":{"type":"Polygon","coordinates":[[[-42.3013,-21.6129],[-42.2993,-21.6152],[-42.3018,-21.6132],[-42.3013,-21.6129]]]}},{"type":"Feature","properties":{"cod_imovel":"RJ-3304706-83B7338B43724C6398C1990C12BDA269","num_area":"6.7574000000000000000000000000000","ind_status":"PE"},"geometry":{"type":"Polygon","coordinates":[[[-42.0602,-21.4381],[-42.0565,-21.4399],[-42.0594,-21.4379],[-42.0602,-21.4381]]]}},{"type":"Feature","properties":{"cod_imovel":"RJ-3304706-E102284803394892AED6D82A319E00C9","num_area":"4.3786000000000000000000000000000","ind_status":"AT"},"geometry":{"type":"Polygon","coordinates":[[[-42.2793,-21.5768],[-42.2758,-21.5784],[-42.2795,-21.5772],[-42.2793,-21.5768]]]}},{"type":"Feature","properties":{"cod_imovel":"RJ-3304706-6E5415FD273A48DBB329D9B9650B5EB2","num_area":"8.5915000000000000000000000000000","ind_status":"AT"},"geometry":{"type":"Polygon","coordinates":[[[-42.2428,-21.586],[-42.2387,-21.5851],[-42.2427,-21.5861],[-42.2428,-21.586]]]}},{"type":"Feature","properties":{"cod_imovel":"RJ-3304706-C7C1186DE9F84083865DF1A8D7FC2E96","num_area":"18.955700000000000000000000000000","ind_status":"AT"},"geometry":{"type":"Polygon","coordinates":[[[-42.2214,-21.5045],[-42.2143,-21.5055],[-42.2215,-21.5062],[-42.2214,-21.5045]]]}},{"type":"Feature","properties":{"cod_imovel":"RJ-3304706-70597D9C0C1345CABCB34CE8CF955011","num_area":"23.791400000000000000000000000000","ind_status":"AT"},"geometry":{"type":"Polygon","coordinates":[[[-42.1947,-21.5382],[-42.1914,-21.5381],[-42.1944,-21.5391],[-42.1947,-21.5382]]]}},{"type":"Feature","properties":{"cod_imovel":"RJ-3304706-1A7971BCF6D14F63BD7DD1053224EDA6","num_area":"4.3796000000000000000000000000000","ind_status":"AT"},"geometry":{"type":"Polygon","coordinates":[[[-42.0071,-21.4848],[-42.0099,-21.486],[-42.0069,-21.4843],[-42.0071,-21.4848]]]}},{"type":"Feature","properties":{"cod_imovel":"RJ-3304706-52FE9A651D104C36B972706D22DF4493","num_area":"15.379800000000000000000000000000","ind_status":"AT"},"geometry":{"type":"Polygon","coordinates":[[[-42.0418,-21.492],[-42.0373,-21.4984],[-42.0426,-21.4917],[-42.0418,-21.492]]]}},{"type":"Feature","properties":{"cod_imovel":"RJ-3304706-974D28E6D11241F083904CFB316D1262","num_area":"28.484200000000000000000000000000","ind_status":"AT"},"geometry":{"type":"Polygon","coordinates":[[[-42.063,-21.5159],[-42.0617,-21.512],[-42.0566,-21.5142],[-42.063,-21.5159],[-42.063,-21.5159]]]}},{"type":"Feature","properties":{"cod_imovel":"RJ-3304706-33D62AA5B93640808E8F1CBA4A104CAC","num_area":"6.7102000000000000000000000000000","ind_status":"AT"},"geometry":{"type":"Polygon","coordinates":[[[-42.0469,-21.5063],[-42.0502,-21.5054],[-42.0469,-21.5063],[-42.0469,-21.5063]]]}},{"type":"Feature","properties":{"cod_imovel":"RJ-3304706-C9B7B5C303F24CEA81A80794EEA3C8C1","num_area":"18.002000000000000000000000000000","ind_status":"AT"},"geometry":{"type":"Polygon","coordinates":[[[-42.2328,-21.638],[-42.2372,-21.6359],[-42.233,-21.6361],[-42.2328,-21.638]]]}},{"type":"Feature","properties":{"cod_imovel":"RJ-3304706-479715042E1F476DAA85820603B2A634","num_area":"2.9258000000000000000000000000000","ind_status":"AT"},"geometry":{"type":"Polygon","coordinates":[[[-42.2594,-21.6089],[-42.2584,-21.6052],[-42.2586,-21.6085],[-42.2594,-21.6089]]]}},{"type":"Feature","properties":{"cod_imovel":"RJ-3304706-4D2F1687EE9845AB91D0756886C84DF2","num_area":"4.2864000000000000000000000000000","ind_status":"AT"},"geometry":{"type":"Polygon","coordinates":[[[-42.2342,-21.6324],[-42.2313,-21.6338],[-42.2348,-21.6334],[-42.2342,-21.6324]]]}},{"type":"Feature","properties":{"cod_imovel":"RJ-3304706-2AC1086A192241DFB0C753402A9597B3","num_area":"9.6407000000000000000000000000000","ind_status":"AT"},"geometry":{"type":"Polygon","coordinates":[[[-42.2376,-21.6366],[-42.2343,-21.6397],[-42.2376,-21.6368],[-42.2376,-21.6366]]]}},{"type":"Feature","properties":{"cod_imovel":"RJ-3304706-CB7F179E6AFA4EE3A909FF4F92D9C396","num_area":"3.2838000000000000000000000000000","ind_status":"AT"},"geometry":{"type":"Polygon","coordinates":[[[-42.2289,-21.6325],[-42.2319,-21.6304],[-42.2283,-21.6319],[-42.2289,-21.6325]]]}},{"type":"Feature","properties":{"cod_imovel":"RJ-3304706-801F5E143D5D439FACDEF831BECC22F4","num_area":"13.355800000000000000000000000000","ind_status":"AT"},"geometry":{"type":"Polygon","coordinates":[[[-42.06,-21.5368],[-42.0629,-21.5353],[-42.0571,-21.5344],[-42.06,-21.5368]]]}},{"type":"Feature","properties":{"cod_imovel":"RJ-3304706-3EE682CE4DD448FA807992D709AEE1B0","num_area":"10.740700000000000000000000000000","ind_status":"AT"},"geometry":{"type":"Polygon","coordinates":[[[-42.3336,-21.6379],[-42.3342,-21.6417],[-42.3339,-21.6381],[-42.3336,-21.6379]]]}},{"type":"Feature","properties":{"cod_imovel":"RJ-3304706-90D12EFA95424C72BDAEA72D8D8F5FEF","num_area":"17.377100000000000000000000000000","ind_status":"AT"},"geometry":{"type":"Polygon","coordinates":[[[-42.0996,-21.4725],[-42.1017,-21.4691],[-42.0993,-21.4723],[-42.0996,-21.4725]],[[-42.0941,-21.4653],[-42.0961,-21.4678],[-42.0944,-21.4646],[-42.0941,-21.4653]],[[-42.0946,-21.4713],[-42.0977,-21.4705],[-42.0941,-21.471],[-42.0946,-21.4713]]]}},{"type":"Feature","properties":{"cod_imovel":"RJ-3304706-2C786038FA6C4D92AB401C974F1BC48E","num_area":"4.5074000000000000000000000000000","ind_status":"AT"},"geometry":{"type":"Polygon","coordinates":[[[-42.3678,-21.6181],[-42.3689,-21.6211],[-42.368,-21.6179],[-42.3678,-21.6181]]]}},{"type":"Feature","properties":{"cod_imovel":"RJ-3304706-AAA163E366654F0E843C100C9E403246","num_area":"7.4363000000000000000000000000000","ind_status":"AT"},"geometry":{"type":"Polygon","coordinates":[[[-42.1111,-21.5518],[-42.1059,-21.5526],[-42.1102,-21.5528],[-42.1111,-21.5518]]]}},{"type":"Feature","properties":{"cod_imovel":"RJ-3304706-BB4DD9B9C3014A6E92032457C70E31F6","num_area":"11.037600000000000000000000000000","ind_status":"AT"},"geometry":{"type":"Polygon","coordinates":[[[-42.1995,-21.5486],[-42.1951,-21.5477],[-42.1992,-21.5489],[-42.1995,-21.5486]]]}},{"type":"Feature","properties":{"cod_imovel":"RJ-3304706-5540590B050240C6A04FDD19987EA9E4","num_area":"14.555300000000000000000000000000","ind_status":"AT"},"geometry":{"type":"Polygon","coordinates":[[[-42.2812,-21.4584],[-42.2854,-21.4532],[-42.2811,-21.4582],[-42.2812,-21.4584]]]}},{"type":"Feature","properties":{"cod_imovel":"RJ-3304706-DBD1A6D6B18748F48785EFE2294A5D11","num_area":"7.8552000000000000000000000000000","ind_status":"AT"},"geometry":{"type":"Polygon","coordinates":[[[-42.0239,-21.4948],[-42.0204,-21.495],[-42.024,-21.4949],[-42.0239,-21.4948]]]}},{"type":"Feature","properties":{"cod_imovel":"RJ-3304706-4D3F2F0645734900AA73FCA1CA121872","num_area":"6.1815000000000000000000000000000","ind_status":"AT"},"geometry":{"type":"Polygon","coordinates":[[[-42.3061,-21.6154],[-42.3029,-21.617],[-42.3064,-21.6157],[-42.3061,-21.6154]]]}},{"type":"Feature","properties":{"cod_imovel":"RJ-3304706-36976626E79A48389CCAB36CED515451","num_area":"8.6069000000000000000000000000000","ind_status":"AT"},"geometry":{"type":"Polygon","coordinates":[[[-42.1905,-21.5057],[-42.1865,-21.5057],[-42.1901,-21.5059],[-42.1905,-21.5057]]]}},{"type":"Feature","properties":{"cod_imovel":"RJ-3304706-0F96E3A3593E4F1E90B094C772CD0D01","num_area":"8.8424000000000000000000000000000","ind_status":"AT"},"geometry":{"type":"Polygon","coordinates":[[[-42.131,-21.5887],[-42.1369,-21.5906],[-42.131,-21.5881],[-42.131,-21.5887]]]}},{"type":"Feature","properties":{"cod_imovel":"RJ-3304706-7BDDA9C325AA40FD909C00C20258E2A7","num_area":"1.9618000000000000000000000000000","ind_status":"AT"},"geometry":{"type":"Polygon","coordinates":[[[-42.2671,-21.707],[-42.2634,-21.7056],[-42.2668,-21.7074],[-42.2671,-21.707]]]}},{"type":"Feature","properties":{"cod_imovel":"RJ-3304706-C8811930303F4893B78500535F6E755E","num_area":"10.222700000000000000000000000000","ind_status":"AT"},"geometry":{"type":"Polygon","coordinates":[[[-42.3132,-21.6401],[-42.3107,-21.6424],[-42.3134,-21.6403],[-42.3132,-21.6401]]]}},{"type":"Feature","properties":{"cod_imovel":"RJ-3304706-34B17398C4374A76BCC1E51B28F893AF","num_area":"48.217800000000000000000000000000","ind_status":"AT"},"geometry":{"type":"Polygon","coordinates":[[[-42.3584,-21.5988],[-42.3556,-21.5968],[-42.3503,-21.6056],[-42.3546,-21.6023],[-42.3561,-21.6063],[-42.3578,-21.5994],[-42.3584,-21.5988]]]}},{"type":"Feature","properties":{"cod_imovel":"RJ-3304706-01FE68D1E85C42B5AAA6C9B3F842AB12","num_area":"35.504400000000000000000000000000","ind_status":"AT"},"geometry":{"type":"Polygon","coordinates":[[[-42.245,-21.4966],[-42.241,-21.4962],[-42.2425,-21.4997],[-42.2359,-21.4942],[-42.2285,-21.4989],[-42.2337,-21.5032],[-42.231,-21.4959],[-42.2427,-21.5006],[-42.2359,-21.4943],[-42.2391,-21.4995],[-42.2451,-21.4967],[-42.245,-21.4966]]]}},{"type":"Feature","properties":{"cod_imovel":"RJ-3304706-6460063F88EA465BA71E253B9077D9FF","num_area":"18.804300000000000000000000000000","ind_status":"AT"},"geometry":{"type":"Polygon","coordinates":[[[-42.0907,-21.549],[-42.0855,-21.5507],[-42.0916,-21.5492],[-42.0907,-21.549]]]}},{"type":"Feature","properties":{"cod_imovel":"RJ-3304706-493DDFE667DA46DF86B2501F9A70C995","num_area":"24.554000000000000000000000000000","ind_status":"AT"},"geometry":{"type":"Polygon","coordinates":[[[-42.0956,-21.5551],[-42.0889,-21.5529],[-42.089,-21.5583],[-42.093,-21.5571],[-42.0956,-21.5551]]]}},{"type":"Feature","properties":{"cod_imovel":"RJ-3304706-BC3FB6EB623A4CC880575E9E36483F88","num_area":"13.683100000000000000000000000000","ind_status":"AT"},"geometry":{"type":"Polygon","coordinates":[[[-42.2088,-21.582],[-42.2052,-21.5799],[-42.208,-21.5826],[-42.2088,-21.582]],[[-42.2031,-21.584],[-42.2046,-21.5875],[-42.2031,-21.584],[-42.2031,-21.584]]]}},{"type":"Feature","properties":{"cod_imovel":"RJ-3304706-B02D71E242404C18BBB38100FD7060B3","num_area":"7.1054000000000000000000000000000","ind_status":"AT"},"geometry":{"type":"Polygon","coordinates":[[[-42.0533,-21.4652],[-42.0509,-21.4633],[-42.0533,-21.4652],[-42.0533,-21.4652]]]}},{"type":"Feature","properties":{"cod_imovel":"RJ-3304706-800A971CF92745A3891404F79AD53B15","num_area":"1.9178000000000000000000000000000","ind_status":"AT"},"geometry":{"type":"Polygon","coordinates":[[[-42.2617,-21.6516],[-42.2588,-21.6507],[-42.2618,-21.6517],[-42.2617,-21.6516]]]}},{"type":"Feature","properties":{"cod_imovel":"RJ-3304706-1BA36FB838AA4A03BE4AB53B43C3B670","num_area":"5.6331000000000000000000000000000","ind_status":"AT"},"geometry":{"type":"Polygon","coordinates":[[[-42.3017,-21.6356],[-42.3019,-21.64],[-42.302,-21.6365],[-42.3017,-21.6356]]]}},{"type":"Feature","properties":{"cod_imovel":"RJ-3304706-1D14ACF2AF714E2ABF867FBD0089DF60","num_area":"27.007600000000000000000000000000","ind_status":"AT"},"geometry":{"type":"Polygon","coordinates":[[[-42.1313,-21.5777],[-42.1273,-21.5737],[-42.1274,-21.58],[-42.131,-21.578],[-42.1313,-21.5777]]]}},{"type":"Feature","properties":{"cod_imovel":"RJ-3304706-E881ABD8CD874BC0BEF6F014E6900774","num_area":"25.608500000000000000000000000000","ind_status":"AT"},"geometry":{"type":"Polygon","coordinates":[[[-42.3553,-21.6334],[-42.3577,-21.631],[-42.3535,-21.6323],[-42.3553,-21.6334]],[[-42.3583,-21.6265],[-42.351,-21.631],[-42.3591,-21.6274],[-42.3583,-21.6265]]]}},{"type":"Feature","properties":{"cod_imovel":"RJ-3304706-E74607AE396A4657991108C1A70417E3","num_area":"5.3278000000000000000000000000000","ind_status":"AT"},"geometry":{"type":"Polygon","coordinates":[[[-42.2116,-21.4652],[-42.2136,-21.4614],[-42.2116,-21.4651],[-42.2116,-21.4652]]]}},{"type":"Feature","properties":{"cod_imovel":"RJ-3304706-2A2ED9FC41CF49CC9327406D7DD652CF","num_area":"6.6378000000000000000000000000000","ind_status":"AT"},"geometry":{"type":"Polygon","coordinates":[[[-42.3152,-21.5578],[-42.318,-21.5592],[-42.3164,-21.5561],[-42.3152,-21.5578]]]}},{"type":"Feature","properties":{"cod_imovel":"RJ-3304706-8AB59CAC2BBF4D8393CD3619224B7520","num_area":"11.957800000000000000000000000000","ind_status":"AT"},"geometry":{"type":"Polygon","coordinates":[[[-42.222,-21.6232],[-42.2256,-21.6245],[-42.2229,-21.6228],[-42.222,-21.6232]]]}},{"type":"Feature","properties":{"cod_imovel":"RJ-3304706-DABD9CEBA7474EEDB1D18636AA734CDB","num_area":"4.8853000000000000000000000000000","ind_status":"AT"},"geometry":{"type":"Polygon","coordinates":[[[-42.2574,-21.5425],[-42.2538,-21.5411],[-42.2572,-21.543],[-42.2574,-21.5425]]]}},{"type":"Feature","properties":{"cod_imovel":"RJ-3304706-8452EA2A7E0B4F42A2CA817700A21090","num_area":"11.427700000000000000000000000000","ind_status":"AT"},"geometry":{"type":"Polygon","coordinates":[[[-42.2475,-21.6431],[-42.2431,-21.6437],[-42.2465,-21.6441],[-42.2475,-21.6431]]]}},{"type":"Feature","properties":{"cod_imovel":"RJ-3304706-6693A8354C864A33BDD746B3E882DA8F","num_area":"53.242000000000000000000000000000","ind_status":"AT"},"geometry":{"type":"Polygon","coordinates":[[[-42.0611,-21.5319],[-42.0547,-21.5269],[-42.055,-21.537],[-42.0598,-21.5376],[-42.0571,-21.5344],[-42.0604,-21.5324],[-42.0611,-21.5319]]]}},{"type":"Feature","properties":{"cod_imovel":"RJ-3304706-CBEDE3CC3D834E2BBCEE0AAC8F9EBFAF","num_area":"8.4743000000000000000000000000000","ind_status":"AT"},"geometry":{"type":"Polygon","coordinates":[[[-42.1512,-21.5163],[-42.1475,-21.5147],[-42.1505,-21.5168],[-42.1512,-21.5163]]]}},{"type":"Feature","properties":{"cod_imovel":"RJ-3304706-D48F5338EF3F41A3B11E734A93B48235","num_area":"3.3155000000000000000000000000000","ind_status":"AT"},"geometry":{"type":"Polygon","coordinates":[[[-42.0118,-21.4762],[-42.0074,-21.4767],[-42.0118,-21.4769],[-42.0118,-21.4762]]]}},{"type":"Feature","properties":{"cod_imovel":"RJ-3304706-E0D11CAF2B314CE29F3A42C0D37706DF","num_area":"15.948700000000000000000000000000","ind_status":"AT"},"geometry":{"type":"Polygon","coordinates":[[[-42.0051,-21.4929],[-42.0013,-21.4881],[-42.0051,-21.4929],[-42.0051,-21.4929]]]}},{"type":"Feature","properties":{"cod_imovel":"RJ-3304706-0C3365BFB7EE463E979D41F85F932D6A","num_area":"69.156100000000000000000000000000","ind_status":"AT"},"geometry":{"type":"Polygon","coordinates":[[[-42.0917,-21.5504],[-42.0959,-21.549],[-42.0916,-21.55],[-42.0917,-21.5504]],[[-42.0962,-21.5564],[-42.1008,-21.5538],[-42.0962,-21.5563],[-42.0962,-21.5564]],[[-42.1001,-21.5445],[-42.0952,-21.5465],[-42.1002,-21.5451],[-42.1001,-21.5445]],[[-42.1094,-21.5482],[-42.1023,-21.5532],[-42.1098,-21.5496],[-42.1094,-21.5482]]]}},{"type":"Feature","properties":{"cod_imovel":"RJ-3304706-4C2338D5BEC14B75BEBBAE7D79242EB2","num_area":"17.416200000000000000000000000000","ind_status":"AT"},"geometry":{"type":"Polygon","coordinates":[[[-42.1643,-21.4811],[-42.1709,-21.4829],[-42.1655,-21.4785],[-42.1643,-21.4811]],[[-42.1658,-21.4735],[-42.1617,-21.4749],[-42.1656,-21.4736],[-42.1658,-21.4735]]]}},{"type":"Feature","properties":{"cod_imovel":"RJ-3304706-646F4CE488264179BCB69EB0FDC34BA1","num_area":"7.2680000000000000000000000000000","ind_status":"AT"},"geometry":{"type":"Polygon","coordinates":[[[-42.0029,-21.455],[-42.0043,-21.458],[-42.0031,-21.455],[-42.0029,-21.455]]]}},{"type":"Feature","properties":{"cod_imovel":"RJ-3304706-D0903754605E4543875E53A57E222F85","num_area":"20.948800000000000000000000000000","ind_status":"AT"},"geometry":{"type":"Polygon","coordinates":[[[-42.1615,-21.5494],[-42.1598,-21.5431],[-42.1532,-21.5455],[-42.1609,-21.5493],[-42.1615,-21.5494]]]}},{"type":"Feature","properties":{"cod_imovel":"RJ-3304706-6D554995F7DB4F08B654B70C626B478B","num_area":"11.798600000000000000000000000000","ind_status":"AT"},"geometry":{"type":"Polygon","coordinates":[[[-42.3215,-21.6131],[-42.3216,-21.6165],[-42.3215,-21.6131],[-42.3215,-21.6131]]]}},{"type":"Feature","properties":{"cod_imovel":"RJ-3304706-29ACDE59E11B44EEACAE3C9526E49D33","num_area":"10.121100000000000000000000000000","ind_status":"AT"},"geometry":{"type":"Polygon","coordinates":[[[-42.081,-21.4799],[-42.0738,-21.4825],[-42.081,-21.4799],[-42.081,-21.4799]]]}},{"type":"Feature","properties":{"cod_imovel":"RJ-3304706-8C4B51E49B604480BF5530E94E1D8E17","num_area":"3.8482000000000000000000000000000","ind_status":"AT"},"geometry":{"type":"Polygon","coordinates":[[[-42.2635,-21.5871],[-42.2605,-21.5849],[-42.2631,-21.5871],[-42.2635,-21.5871]]]}},{"type":"Feature","properties":{"cod_imovel":"RJ-3304706-CC8CA1E5446749ECA6D893C0D6008AB7","num_area":"4.2156000000000000000000000000000","ind_status":"AT"},"geometry":{"type":"Polygon","coordinates":[[[-42.1775,-21.6072],[-42.1827,-21.609],[-42.1775,-21.6066],[-42.1775,-21.6072]]]}},{"type":"Feature","properties":{"cod_imovel":"RJ-3304706-EBBFA4B8508B47399CA4123F5F88E806","num_area":"21.537400000000000000000000000000","ind_status":"AT"},"geometry":{"type":"Polygon","coordinates":[[[-42.0993,-21.56],[-42.0952,-21.5553],[-42.0922,-21.5587],[-42.0972,-21.5591],[-42.0993,-21.56]]]}},{"type":"Feature","properties":{"cod_imovel":"RJ-3304706-7596E5D7A44F47EE9763AC573B21F36D","num_area":"9.9371000000000000000000000000000","ind_status":"AT"},"geometry":{"type":"Polygon","coordinates":[[[-42.1641,-21.5764],[-42.166,-21.5808],[-42.1647,-21.5769],[-42.1641,-21.5764]]]}},{"type":"Feature","properties":{"cod_imovel":"RJ-3304706-A3744D801672409EB7F7CA94740B0AB2","num_area":"7.9397000000000000000000000000000","ind_status":"AT"},"geometry":{"type":"Polygon","coordinates":[[[-42.0404,-21.4494],[-42.0399,-21.446],[-42.0402,-21.4491],[-42.0404,-21.4494]]]}},{"type":"Feature","properties":{"cod_imovel":"RJ-3304706-AA16B4E8119C4EA9B6F61D663451D933","num_area":"9.4893000000000000000000000000000","ind_status":"AT"},"geometry":{"type":"Polygon","coordinates":[[[-42.2031,-21.5491],[-42.2014,-21.5462],[-42.2003,-21.5511],[-42.2022,-21.5488],[-42.2031,-21.5491]]]}},{"type":"Feature","properties":{"cod_imovel":"RJ-3304706-A2673455325549D28687D5FB00B2CB21","num_area":"5.5832000000000000000000000000000","ind_status":"AT"},"geometry":{"type":"Polygon","coordinates":[[[-42.0554,-21.4722],[-42.0522,-21.4728],[-42.0554,-21.4725],[-42.0554,-21.4722]]]}},{"type":"Feature","properties":{"cod_imovel":"RJ-3304706-ADD86A71E53F4204B4A51F7BEEFB39F7","num_area":"5.3562000000000000000000000000000","ind_status":"AT"},"geometry":{"type":"Polygon","coordinates":[[[-42.1228,-21.5978],[-42.1264,-21.5972],[-42.1229,-21.5969],[-42.1228,-21.5978]],[[-42.1238,-21.6016],[-42.1263,-21.5999],[-42.123,-21.6011],[-42.1238,-21.6016]]]}},{"type":"Feature","properties":{"cod_imovel":"RJ-3304706-76F8E47C8BEB47FD8E26B8E7F81A4322","num_area":"3.9163000000000000000000000000000","ind_status":"AT"},"geometry":{"type":"Polygon","coordinates":[[[-42.2504,-21.5766],[-42.2531,-21.5781],[-42.2505,-21.5765],[-42.2504,-21.5766]]]}},{"type":"Feature","properties":{"cod_imovel":"RJ-3304706-B1CC237EEFB34E0A993A6936F8CE19EC","num_area":"95.416900000000000000000000000000","ind_status":"AT"},"geometry":{"type":"Polygon","coordinates":[[[-42.2296,-21.6555],[-42.2178,-21.6429],[-42.2173,-21.6502],[-42.2254,-21.6529],[-42.2215,-21.6591],[-42.2266,-21.6571],[-42.2296,-21.6555]]]}},{"type":"Feature","properties":{"cod_imovel":"RJ-3304706-3BD1ACFF18544FA08C4EF0F4E6977B90","num_area":"4.5114000000000000000000000000000","ind_status":"AT"},"geometry":{"type":"Polygon","coordinates":[[[-42.2025,-21.5676],[-42.206,-21.569],[-42.2025,-21.5675],[-42.2025,-21.5676]]]}},{"type":"Feature","properties":{"cod_imovel":"RJ-3304706-8D792B807EF44C69ABC96B7F0E6B93FB","num_area":"53.336100000000000000000000000000","ind_status":"AT"},"geometry":{"type":"Polygon","coordinates":[[[-42.1216,-21.5518],[-42.1212,-21.5471],[-42.119,-21.5495],[-42.1216,-21.5518]],[[-42.1154,-21.5464],[-42.1153,-21.5396],[-42.1155,-21.545],[-42.1154,-21.5464]],[[-42.1285,-21.5498],[-42.1302,-21.5457],[-42.1247,-21.5451],[-42.1238,-21.549],[-42.1284,-21.5498],[-42.1285,-21.5498]]]}},{"type":"Feature","properties":{"cod_imovel":"RJ-3304706-078C4FCA405142578B6F59F87FFFCC47","num_area":"14.888400000000000000000000000000","ind_status":"AT"},"geometry":{"type":"Polygon","coordinates":[[[-42.0836,-21.5248],[-42.0813,-21.5282],[-42.0841,-21.5251],[-42.0836,-21.5248]]]}},{"type":"Feature","properties":{"cod_imovel":"RJ-3304706-A582FE21D9ED4839973342534EC2001F","num_area":"13.394900000000000000000000000000","ind_status":"AT"},"geometry":{"type":"Polygon","coordinates":[[[-42.2811,-21.4493],[-42.2741,-21.4535],[-42.2837,-21.448],[-42.2811,-21.4493]]]}},{"type":"Feature","properties":{"cod_imovel":"RJ-3304706-AB94746601A1482B9657936C56299F91","num_area":"4.2805000000000000000000000000000","ind_status":"AT"},"geometry":{"type":"Polygon","coordinates":[[[-42.0408,-21.4375],[-42.0381,-21.4345],[-42.0407,-21.4376],[-42.0408,-21.4375]]]}},{"type":"Feature","properties":{"cod_imovel":"RJ-3304706-F01791586D8E431D8E26D5EEAA537AA9","num_area":"40.054600000000000000000000000000","ind_status":"AT"},"geometry":{"type":"Polygon","coordinates":[[[-42.186,-21.5905],[-42.1905,-21.5908],[-42.1807,-21.5811],[-42.1786,-21.5845],[-42.186,-21.5905],[-42.186,-21.5905]],[[-42.1797,-21.5841],[-42.1808,-21.5812],[-42.1866,-21.5892],[-42.1797,-21.5841],[-42.1797,-21.5841]]]}},{"type":"Feature","properties":{"cod_imovel":"RJ-3304706-DE965492E4FE4F1A8522E9425D4BC131","num_area":"14.660700000000000000000000000000","ind_status":"AT"},"geometry":{"type":"Polygon","coordinates":[[[-42.2717,-21.5962],[-42.2769,-21.597],[-42.2723,-21.5959],[-42.2717,-21.5962]]]}},{"type":"Feature","properties":{"cod_imovel":"RJ-3304706-B86BE00D81564E708EB6100664CCFEF0","num_area":"7.1837000000000000000000000000000","ind_status":"AT"},"geometry":{"type":"Polygon","coordinates":[[[-42.1321,-21.5892],[-42.1268,-21.589],[-42.1323,-21.5896],[-42.1321,-21.5892]]]}},{"type":"Feature","properties":{"cod_imovel":"RJ-3304706-0DBECF7642A34DD288F56099CC225AAB","num_area":"4.5119000000000000000000000000000","ind_status":"AT"},"geometry":{"type":"Polygon","coordinates":[[[-42.108,-21.5082],[-42.1094,-21.5109],[-42.1082,-21.5081],[-42.108,-21.5082]]]}},{"type":"Feature","properties":{"cod_imovel":"RJ-3304706-8179B1780EF64B15B25088BF61F68381","num_area":"5.8097000000000000000000000000000","ind_status":"AT"},"geometry":{"type":"Polygon","coordinates":[[[-42.04,-21.5086],[-42.0428,-21.5099],[-42.0401,-21.508],[-42.04,-21.5086]]]}},{"type":"Feature","properties":{"cod_imovel":"RJ-3304706-53B0BF911A50483A8E5C31E027AAA44C","num_area":"8.1122000000000000000000000000000","ind_status":"AT"},"geometry":{"type":"Polygon","coordinates":[[[-42.2613,-21.4722],[-42.2655,-21.4727],[-42.2611,-21.4721],[-42.2613,-21.4722]]]}},{"type":"Feature","properties":{"cod_imovel":"RJ-3304706-45CE0D586A2A484B964FE3B9EDD1C280","num_area":"8.4321000000000000000000000000000","ind_status":"AT"},"geometry":{"type":"Polygon","coordinates":[[[-42.3172,-21.5626],[-42.3136,-21.5633],[-42.317,-21.563],[-42.3172,-21.5626]],[[-42.3155,-21.5653],[-42.3117,-21.5641],[-42.3154,-21.5654],[-42.3155,-21.5653]]]}},{"type":"Feature","properties":{"cod_imovel":"RJ-3304706-A25FD9D582B14351B5077752318330FB","num_area":"17.056500000000000000000000000000","ind_status":"AT"},"geometry":{"type":"Polygon","coordinates":[[[-42.2013,-21.6329],[-42.2048,-21.6355],[-42.1979,-21.633],[-42.2013,-21.6329],[-42.2013,-21.6329]]]}},{"type":"Feature","properties":{"cod_imovel":"RJ-3304706-079C33A25FBD497BA92D4EC790E9A0F5","num_area":"2.6128000000000000000000000000000","ind_status":"AT"},"geometry":{"type":"Polygon","coordinates":[[[-42.2133,-21.6389],[-42.2107,-21.637],[-42.2133,-21.6389],[-42.2133,-21.6389]]]}},{"type":"Feature","properties":{"cod_imovel":"RJ-3304706-536F2E166AB149958833F74B07DAB7E1","num_area":"3.8049000000000000000000000000000","ind_status":"AT"},"geometry":{"type":"Polygon","coordinates":[[[-42.3674,-21.6173],[-42.3636,-21.6181],[-42.3676,-21.6176],[-42.3674,-21.6173]]]}},{"type":"Feature","properties":{"cod_imovel":"RJ-3304706-1D670CF7066A4E0FA2C30112FA7E0385","num_area":"13.284500000000000000000000000000","ind_status":"AT"},"geometry":{"type":"Polygon","coordinates":[[[-42.0847,-21.5121],[-42.0884,-21.5118],[-42.0842,-21.5114],[-42.0847,-21.5121]]]}},{"type":"Feature","properties":{"cod_imovel":"RJ-3304706-B211B0FB3FC649AAB206405C5B940FC8","num_area":"8.6370000000000000000000000000000","ind_status":"AT"},"geometry":{"type":"Polygon","coordinates":[[[-42.0438,-21.5003],[-42.0477,-21.4967],[-42.0451,-21.4994],[-42.0438,-21.5003]]]}},{"type":"Feature","properties":{"cod_imovel":"RJ-3304706-40EDD8795DDF49A08DA2A81F0576E8CD","num_area":"6.5062000000000000000000000000000","ind_status":"AT"},"geometry":{"type":"Polygon","coordinates":[[[-42.0585,-21.4782],[-42.0583,-21.4823],[-42.0598,-21.4785],[-42.0585,-21.4782]]]}},{"type":"Feature","properties":{"cod_imovel":"RJ-3304706-99DCD9AC264D48D19D7A1801958485B1","num_area":"2.5693000000000000000000000000000","ind_status":"AT"},"geometry":{"type":"Polygon","coordinates":[[[-42.2579,-21.46],[-42.2539,-21.4614],[-42.2577,-21.46],[-42.2579,-21.46]]]}},{"type":"Feature","properties":{"cod_imovel":"RJ-3304706-07F7E95EC877489CB97230D82ACBC365","num_area":"1.4251000000000000000000000000000","ind_status":"AT"},"geometry":{"type":"Polygon","coordinates":[[[-42.1835,-21.5707],[-42.1787,-21.5667],[-42.1829,-21.571],[-42.1835,-21.5707]]]}},{"type":"Feature","properties":{"cod_imovel":"RJ-3304706-99A008D452D74F35BC9D5CD85B6A0188","num_area":"13.309200000000000000000000000000","ind_status":"AT"},"geometry":{"type":"Polygon","coordinates":[[[-42.2709,-21.5134],[-42.2675,-21.5099],[-42.2661,-21.5129],[-42.271,-21.5135],[-42.2709,-21.5134]]]}},{"type":"Feature","properties":{"cod_imovel":"RJ-3304706-C70D9C1A54E34365AA6267D08C05CD94","num_area":"10.209400000000000000000000000000","ind_status":"AT"},"geometry":{"type":"Polygon","coordinates":[[[-42.2859,-21.6749],[-42.2816,-21.6733],[-42.2849,-21.6747],[-42.2859,-21.6749]]]}},{"type":"Feature","properties":{"cod_imovel":"RJ-3304706-690C9CA8FF2844F08CDE8B1738C5A7D4","num_area":"10.874900000000000000000000000000","ind_status":"AT"},"geometry":{"type":"Polygon","coordinates":[[[-42.2611,-21.5491],[-42.2626,-21.5446],[-42.2592,-21.5475],[-42.2611,-21.5491]]]}},{"type":"Feature","properties":{"cod_imovel":"RJ-3304706-F67FCFBDA564491A9F031C97011897DB","num_area":"10.307200000000000000000000000000","ind_status":"AT"},"geometry":{"type":"Polygon","coordinates":[[[-42.3555,-21.631],[-42.3564,-21.6349],[-42.3558,-21.6314],[-42.3555,-21.631]]]}},{"type":"Feature","properties":{"cod_imovel":"RJ-3304706-9D22A21ECA95418C8CF8CCA8FE935C28","num_area":"12.059400000000000000000000000000","ind_status":"AT"},"geometry":{"type":"Polygon","coordinates":[[[-42.1041,-21.5282],[-42.1015,-21.5317],[-42.1058,-21.5309],[-42.1041,-21.5282]]]}},{"type":"Feature","properties":{"cod_imovel":"RJ-3304706-428F06AEC2224FAD86108CA136093E31","num_area":"6.6927000000000000000000000000000","ind_status":"AT"},"geometry":{"type":"Polygon","coordinates":[[[-42.257,-21.4478],[-42.2581,-21.4512],[-42.2571,-21.4478],[-42.257,-21.4478]]]}},{"type":"Feature","properties":{"cod_imovel":"RJ-3304706-82EE3F2264614E088EA7C46F69177ADC","num_area":"9.2074000000000000000000000000000","ind_status":"AT"},"geometry":{"type":"Polygon","coordinates":[[[-42.0733,-21.4455],[-42.069,-21.4484],[-42.0734,-21.4459],[-42.0733,-21.4455]]]}},{"type":"Feature","properties":{"cod_imovel":"RJ-3304706-07DF8A540D7644B784099A3EC040A52D","num_area":"7.2157000000000000000000000000000","ind_status":"AT"},"geometry":{"type":"Polygon","coordinates":[[[-42.143,-21.5303],[-42.1467,-21.5291],[-42.143,-21.5303],[-42.143,-21.5303]]]}},{"type":"Feature","properties":{"cod_imovel":"RJ-3304706-C84B7E758DD245519C18B8F6DAC8D962","num_area":"10.559400000000000000000000000000","ind_status":"AT"},"geometry":{"type":"Polygon","coordinates":[[[-42.2899,-21.5384],[-42.2909,-21.535],[-42.2899,-21.5382],[-42.2899,-21.5384]]]}},{"type":"Feature","properties":{"cod_imovel":"RJ-3304706-8F154DBAEAE748CD9CBAB1A8796B4429","num_area":"11.969700000000000000000000000000","ind_status":"AT"},"geometry":{"type":"Polygon","coordinates":[[[-42.276,-21.5935],[-42.2813,-21.5907],[-42.2773,-21.5932],[-42.276,-21.5935]],[[-42.2795,-21.5894],[-42.2751,-21.5911],[-42.279,-21.5903],[-42.2795,-21.5894]]]}},{"type":"Feature","properties":{"cod_imovel":"RJ-3304706-95C21635E83242989E63FC0785695105","num_area":"34.736500000000000000000000000000","ind_status":"AT"},"geometry":{"type":"Polygon","coordinates":[[[-42.1271,-21.5998],[-42.1228,-21.6011],[-42.1266,-21.6001],[-42.1271,-21.5998]],[[-42.1334,-21.6005],[-42.1268,-21.6014],[-42.1334,-21.6007],[-42.1334,-21.6005]],[[-42.1183,-21.5924],[-42.113,-21.592],[-42.118,-21.5923],[-42.1183,-21.5924]],[[-42.133,-21.596],[-42.1301,-21.5983],[-42.1334,-21.5964],[-42.133,-21.596]],[[-42.1228,-21.5963],[-42.1275,-21.5977],[-42.1231,-21.5959],[-42.1228,-21.5963]]]}},{"type":"Feature","properties":{"cod_imovel":"RJ-3304706-80F4361F7F5B4C11A22CB1DFC3B423C3","num_area":"24.628900000000000000000000000000","ind_status":"AT"},"geometry":{"type":"Polygon","coordinates":[[[-42.1713,-21.4918],[-42.1682,-21.4932],[-42.1728,-21.4932],[-42.1711,-21.496],[-42.1767,-21.495],[-42.172,-21.4919],[-42.1713,-21.4918]]]}},{"type":"Feature","properties":{"cod_imovel":"RJ-3304706-13F761E153F64AB0A4B2B7530A33033B","num_area":"9.4386000000000000000000000000000","ind_status":"AT"},"geometry":{"type":"Polygon","coordinates":[[[-42.1832,-21.6317],[-42.1805,-21.6286],[-42.1824,-21.6329],[-42.1832,-21.6317]]]}},{"type":"Feature","properties":{"cod_imovel":"RJ-3304706-7CD371EF77C74B4BA74B336539E858C4","num_area":"6.9105000000000000000000000000000","ind_status":"AT"},"geometry":{"type":"Polygon","coordinates":[[[-42.261,-21.5107],[-42.2633,-21.5087],[-42.2607,-21.5108],[-42.261,-21.5107]]]}},{"type":"Feature","properties":{"cod_imovel":"RJ-3304706-FC018064001949D7B3ECD6B536DBE657","num_area":"9.5348000000000000000000000000000","ind_status":"AT"},"geometry":{"type":"Polygon","coordinates":[[[-42.2315,-21.4606],[-42.2276,-21.4604],[-42.2312,-21.4613],[-42.2315,-21.4606]]]}},{"type":"Feature","properties":{"cod_imovel":"RJ-3304706-BF7AEEC92BFE4A89B3D5851ECDC8AEFA","num_area":"2.9344000000000000000000000000000","ind_status":"AT"},"geometry":{"type":"Polygon","coordinates":[[[-42.1557,-21.5936],[-42.1575,-21.5912],[-42.1549,-21.5931],[-42.1557,-21.5936]]]}},{"type":"Feature","properties":{"cod_imovel":"RJ-3304706-9677AF786F684D72891C22256DCFB393","num_area":"8.5441000000000000000000000000000","ind_status":"AT"},"geometry":{"type":"Polygon","coordinates":[[[-42.2491,-21.4733],[-42.2478,-21.4776],[-42.2495,-21.4735],[-42.2491,-21.4733]]]}},{"type":"Feature","properties":{"cod_imovel":"RJ-3304706-5182482127394B7D8666AE05BC3667F6","num_area":"6.8781000000000000000000000000000","ind_status":"AT"},"geometry":{"type":"Polygon","coordinates":[[[-42.2586,-21.5407],[-42.2552,-21.5398],[-42.2573,-21.5424],[-42.2586,-21.5407]]]}},{"type":"Feature","properties":{"cod_imovel":"RJ-3304706-A8E02944775F4C1A827CEE7457536032","num_area":"4.9472000000000000000000000000000","ind_status":"AT"},"geometry":{"type":"Polygon","coordinates":[[[-42.1086,-21.5099],[-42.1056,-21.5106],[-42.1087,-21.5105],[-42.1086,-21.5099]]]}},{"type":"Feature","properties":{"cod_imovel":"RJ-3304706-66F88EAC62FE4E829443C7A6B198BDFE","num_area":"6.7612000000000000000000000000000","ind_status":"AT"},"geometry":{"type":"Polygon","coordinates":[[[-42.322,-21.634],[-42.3219,-21.6308],[-42.3214,-21.6342],[-42.322,-21.634]]]}},{"type":"Feature","properties":{"cod_imovel":"RJ-3304706-51D67D24915B4B07955F49D7F7EBAF28","num_area":"3.6778000000000000000000000000000","ind_status":"AT"},"geometry":{"type":"Polygon","coordinates":[[[-42.2714,-21.6684],[-42.2744,-21.6669],[-42.2714,-21.6684],[-42.2714,-21.6684]]]}},{"type":"Feature","properties":{"cod_imovel":"RJ-3304706-B8007C07E12949A4A924E30DF8FFD505","num_area":"21.524400000000000000000000000000","ind_status":"AT"},"geometry":{"type":"Polygon","coordinates":[[[-42.3457,-21.6175],[-42.3376,-21.6193],[-42.3447,-21.621],[-42.346,-21.6176],[-42.3457,-21.6175]]]}},{"type":"Feature","properties":{"cod_imovel":"RJ-3304706-9F47CAC275724F7D95EF5C40BE12B43F","num_area":"7.8735000000000000000000000000000","ind_status":"AT"},"geometry":{"type":"Polygon","coordinates":[[[-42.3214,-21.6125],[-42.3218,-21.6164],[-42.3218,-21.6131],[-42.3214,-21.6125]]]}},{"type":"Feature","properties":{"cod_imovel":"RJ-3304706-54029BA29D7141B09A95AAB8C847863A","num_area":"8.3389000000000000000000000000000","ind_status":"AT"},"geometry":{"type":"Polygon","coordinates":[[[-42.2311,-21.4604],[-42.2348,-21.4613],[-42.2332,-21.4579],[-42.2311,-21.4604]]]}},{"type":"Feature","properties":{"cod_imovel":"RJ-3304706-FF771FE106D541D889063E10C9783C31","num_area":"8.9191000000000000000000000000000","ind_status":"AT"},"geometry":{"type":"Polygon","coordinates":[[[-42.247,-21.5299],[-42.2418,-21.5297],[-42.2484,-21.5312],[-42.247,-21.5299]]]}},{"type":"Feature","properties":{"cod_imovel":"RJ-3304706-A57EC653AC1B47D0B0E2FCFB2E916C41","num_area":"3.2327000000000000000000000000000","ind_status":"AT"},"geometry":{"type":"Polygon","coordinates":[[[-42.1837,-21.4725],[-42.1867,-21.4697],[-42.1835,-21.4724],[-42.1837,-21.4725]]]}},{"type":"Feature","properties":{"cod_imovel":"RJ-3304706-D71CF21BE29D45A58B2DC6FB432DFA88","num_area":"27.415300000000000000000000000000","ind_status":"PE"},"geometry":{"type":"Polygon","coordinates":[[[-42.3308,-21.5726],[-42.3269,-21.5708],[-42.3233,-21.5787],[-42.3312,-21.5729],[-42.3308,-21.5726]],[[-42.3238,-21.5792],[-42.3263,-21.5765],[-42.3238,-21.5792],[-42.3238,-21.5792]]]}},{"type":"Feature","properties":{"cod_imovel":"RJ-3304706-B98F6FF71D464155B1F365A57A849100","num_area":"56.522100000000000000000000000000","ind_status":"AT"},"geometry":{"type":"Polygon","coordinates":[[[-42.0885,-21.5381],[-42.0872,-21.5451],[-42.0915,-21.5493],[-42.096,-21.5453],[-42.0893,-21.5439],[-42.0892,-21.5386],[-42.0885,-21.5381]]]}},{"type":"Feature","properties":{"cod_imovel":"RJ-3304706-130C643389824AC9AA0D18C73DF26C35","num_area":"11.089000000000000000000000000000","ind_status":"AT"},"geometry":{"type":"Polygon","coordinates":[[[-42.1646,-21.5596],[-42.1621,-21.5642],[-42.1656,-21.5594],[-42.1646,-21.5596]]]}},{"type":"Feature","properties":{"cod_imovel":"RJ-3304706-BB07D3BD28AF4CBDB68319A0999D8754","num_area":"63.696900000000000000000000000000","ind_status":"PE"},"geometry":{"type":"Polygon","coordinates":[[[-42.2072,-21.5979],[-42.2041,-21.6001],[-42.2208,-21.6172],[-42.2081,-21.6005],[-42.2072,-21.5979]]]}},{"type":"Feature","properties":{"cod_imovel":"RJ-3304706-4AF2C8100F7C4A798B3AF420F848397D","num_area":"10.559300000000000000000000000000","ind_status":"AT"},"geometry":{"type":"Polygon","coordinates":[[[-42.2097,-21.5326],[-42.2096,-21.5359],[-42.2099,-21.5329],[-42.2097,-21.5326]]]}},{"type":"Feature","properties":{"cod_imovel":"RJ-3304706-30B8E3809F5740C690BCA5EFB8854222","num_area":"17.798200000000000000000000000000","ind_status":"PE"},"geometry":{"type":"Polygon","coordinates":[[[-42.3323,-21.5792],[-42.3324,-21.5747],[-42.3283,-21.5807],[-42.3319,-21.5789],[-42.3323,-21.5792]]]}},{"type":"Feature","properties":{"cod_imovel":"RJ-3304706-6FD88F5F9ABD45B48D153248DBDF9616","num_area":"4.3684000000000000000000000000000","ind_status":"AT"},"geometry":{"type":"Polygon","coordinates":[[[-42.2409,-21.6861],[-42.2425,-21.6893],[-42.241,-21.6863],[-42.2409,-21.6861]]]}},{"type":"Feature","properties":{"cod_imovel":"RJ-3304706-85EEF0AE31954FA08564D39E0EA8B47F","num_area":"5.0336000000000000000000000000000","ind_status":"AT"},"geometry":{"type":"Polygon","coordinates":[[[-42.3451,-21.6176],[-42.3412,-21.6172],[-42.3451,-21.6176],[-42.3451,-21.6176]]]}},{"type":"Feature","properties":{"cod_imovel":"RJ-3304706-C99B51BAD5B2490AB1FF0D37BCC22A73","num_area":"4.7596000000000000000000000000000","ind_status":"AT"},"geometry":{"type":"Polygon","coordinates":[[[-42.2917,-21.5885],[-42.295,-21.5844],[-42.2916,-21.5885],[-42.2917,-21.5885]]]}},{"type":"Feature","properties":{"cod_imovel":"RJ-3304706-E85F1CDD957B4009AD0C95303B8ABD42","num_area":"7.7779000000000000000000000000000","ind_status":"AT"},"geometry":{"type":"Polygon","coordinates":[[[-42.1147,-21.4625],[-42.1176,-21.4637],[-42.1152,-21.4618],[-42.1147,-21.4625]]]}},{"type":"Feature","properties":{"cod_imovel":"RJ-3304706-988B9216488E4D6CB87F0F5F4E286176","num_area":"18.224000000000000000000000000000","ind_status":"AT"},"geometry":{"type":"Polygon","coordinates":[[[-42.1668,-21.5606],[-42.171,-21.5623],[-42.1668,-21.5606],[-42.1668,-21.5606]],[[-42.1671,-21.565],[-42.165,-21.5621],[-42.1628,-21.565],[-42.1661,-21.5654],[-42.1671,-21.565]]]}},{"type":"Feature","properties":{"cod_imovel":"RJ-3304706-DCC3AF0602F7449D87F61B5A0970BF8D","num_area":"7.8696000000000000000000000000000","ind_status":"AT"},"geometry":{"type":"Polygon","coordinates":[[[-42.293,-21.5534],[-42.2958,-21.5503],[-42.2931,-21.5532],[-42.293,-21.5534]]]}},{"type":"Feature","properties":{"cod_imovel":"RJ-3304706-68A2DA0F09934C1FAF405BD741924CAF","num_area":"27.085700000000000000000000000000","ind_status":"CA"},"geometry":{"type":"Polygon","coordinates":[[[-42.3245,-21.5928],[-42.3185,-21.5957],[-42.3236,-21.5954],[-42.3245,-21.5928]],[[-42.3079,-21.588],[-42.3108,-21.5924],[-42.309,-21.5885],[-42.3079,-21.588]]]}},{"type":"Feature","properties":{"cod_imovel":"RJ-3304706-6EBDDC4EEEBA4237A5E4393AD95B7B96","num_area":"10.251500000000000000000000000000","ind_status":"CA"},"geometry":{"type":"Polygon","coordinates":[[[-42.1679,-21.5648],[-42.1658,-21.562],[-42.1668,-21.5651],[-42.1679,-21.5648]],[[-42.1698,-21.5618],[-42.166,-21.5609],[-42.17,-21.5618],[-42.1698,-21.5618]]]}},{"type":"Feature","properties":{"cod_imovel":"RJ-3304706-4D9763800715488FB56DE8330CA2FA0A","num_area":"37.098700000000000000000000000000","ind_status":"AT"},"geometry":{"type":"Polygon","coordinates":[[[-42.346,-21.6176],[-42.3448,-21.623],[-42.3514,-21.6232],[-42.3465,-21.6178],[-42.346,-21.6176]],[[-42.351,-21.6309],[-42.3563,-21.6262],[-42.3513,-21.6296],[-42.3494,-21.6264],[-42.3509,-21.6308],[-42.351,-21.6309]]]}},{"type":"Feature","properties":{"cod_imovel":"RJ-3304706-2FBFE28DC77E4087B9E399C41E5AE0AC","num_area":"15.026400000000000000000000000000","ind_status":"AT"},"geometry":{"type":"Polygon","coordinates":[[[-42.1855,-21.6021],[-42.1877,-21.5977],[-42.1848,-21.6016],[-42.1855,-21.6021]],[[-42.181,-21.6018],[-42.1817,-21.6055],[-42.1814,-21.6022],[-42.181,-21.6018]]]}},{"type":"Feature","properties":{"cod_imovel":"RJ-3304706-01F4992295C64234AB19A5E460F7ED8D","num_area":"32.338000000000000000000000000000","ind_status":"AT"},"geometry":{"type":"Polygon","coordinates":[[[-42.2032,-21.6085],[-42.2068,-21.6068],[-42.1999,-21.6],[-42.2028,-21.6075],[-42.2032,-21.6085]]]}},{"type":"Feature","properties":{"cod_imovel":"RJ-3304706-046433152BD64E5AB2613B23C23518A0","num_area":"18.907200000000000000000000000000","ind_status":"AT"},"geometry":{"type":"Polygon","coordinates":[[[-42.2128,-21.5549],[-42.2085,-21.546],[-42.2118,-21.555],[-42.2128,-21.5549]]]}},{"type":"Feature","properties":{"cod_imovel":"RJ-3304706-02CC319140D94B94B71AA47B8B76606B","num_area":"13.066600000000000000000000000000","ind_status":"AT"},"geometry":{"type":"Polygon","coordinates":[[[-42.0478,-21.4969],[-42.0436,-21.5007],[-42.0479,-21.497],[-42.0478,-21.4969]]]}},{"type":"Feature","properties":{"cod_imovel":"RJ-3304706-035EA6D893ED4651A154BBD4F0301B28","num_area":"2.8513000000000000000000000000000","ind_status":"AT"},"geometry":{"type":"Polygon","coordinates":[[[-42.1831,-21.4774],[-42.1855,-21.48],[-42.1832,-21.4774],[-42.1831,-21.4774]]]}},{"type":"Feature","properties":{"cod_imovel":"RJ-3304706-062D64330A8649B4A017CAA9416EA1B1","num_area":"7.8662000000000000000000000000000","ind_status":"AT"},"geometry":{"type":"Polygon","coordinates":[[[-42.1532,-21.4941],[-42.1565,-21.4961],[-42.1531,-21.4939],[-42.1532,-21.4941]]]}},{"type":"Feature","properties":{"cod_imovel":"RJ-3304706-0BF4E9E9F1A84EBEA3172A9E6111BAA5","num_area":"1.6131000000000000000000000000000","ind_status":"AT"},"geometry":{"type":"Polygon","coordinates":[[[-42.0356,-21.4442],[-42.0385,-21.4426],[-42.0356,-21.4442],[-42.0356,-21.4442]]]}},{"type":"Feature","properties":{"cod_imovel":"RJ-3304706-0E60B4E68AE74CF4908A226BC5BA3E17","num_area":"3.2887000000000000000000000000000","ind_status":"AT"},"geometry":{"type":"Polygon","coordinates":[[[-42.2789,-21.6025],[-42.2758,-21.602],[-42.279,-21.6025],[-42.2789,-21.6025]]]}},{"type":"Feature","properties":{"cod_imovel":"RJ-3304706-0EA333840EED41598432034C899DEFB2","num_area":"6.5292000000000000000000000000000","ind_status":"AT"},"geometry":{"type":"Polygon","coordinates":[[[-42.0933,-21.4705],[-42.0887,-21.471],[-42.0933,-21.4708],[-42.0933,-21.4705]]]}},{"type":"Feature","properties":{"cod_imovel":"RJ-3304706-0EE8632B275146A8AABC63426665B22D","num_area":"13.381100000000000000000000000000","ind_status":"AT"},"geometry":{"type":"Polygon","coordinates":[[[-42.3407,-21.6228],[-42.3427,-21.6266],[-42.3449,-21.621],[-42.3406,-21.6229],[-42.3407,-21.6228]]]}},{"type":"Feature","properties":{"cod_imovel":"RJ-3304706-14B2D9D7782544E2BFA4B26235DF3D50","num_area":"10.927200000000000000000000000000","ind_status":"AT"},"geometry":{"type":"Polygon","coordinates":[[[-42.2653,-21.7031],[-42.2686,-21.7049],[-42.2656,-21.7029],[-42.2653,-21.7031]]]}},{"type":"Feature","properties":{"cod_imovel":"RJ-3304706-230265908A28470BA10C9DC51627F3F7","num_area":"12.128500000000000000000000000000","ind_status":"AT"},"geometry":{"type":"Polygon","coordinates":[[[-42.3228,-21.6253],[-42.3217,-21.6209],[-42.3194,-21.6252],[-42.3228,-21.6253]],[[-42.3307,-21.6224],[-42.3252,-21.6195],[-42.3299,-21.6225],[-42.3307,-21.6224]]]}},{"type":"Feature","properties":{"cod_imovel":"RJ-3304706-24D4551C90824DABA73C779FFE647CBB","num_area":"2.8296000000000000000000000000000","ind_status":"AT"},"geometry":{"type":"Polygon","coordinates":[[[-41.9969,-21.4555],[-41.994,-21.4567],[-41.997,-21.4554],[-41.9969,-21.4555]]]}},{"type":"Feature","properties":{"cod_imovel":"RJ-3304706-26B679F34C67470FBEE86F902AA85B7C","num_area":"12.588900000000000000000000000000","ind_status":"AT"},"geometry":{"type":"Polygon","coordinates":[[[-42.3672,-21.6171],[-42.3623,-21.6143],[-42.3668,-21.6173],[-42.3672,-21.6171]]]}},{"type":"Feature","properties":{"cod_imovel":"RJ-3304706-2843747598FF4DC4BA958C4D82F9E75A","num_area":"35.191900000000000000000000000000","ind_status":"AT"},"geometry":{"type":"Polygon","coordinates":[[[-42.1446,-21.5242],[-42.1422,-21.5214],[-42.1441,-21.5241],[-42.1446,-21.5242]],[[-42.1466,-21.5141],[-42.1421,-21.5182],[-42.1483,-21.5197],[-42.1465,-21.5151],[-42.1466,-21.5141]]]}},{"type":"Feature","properties":{"cod_imovel":"RJ-3304706-4FD7C77301254BD38E7C5BD6DA45F20B","num_area":"5.1960000000000000000000000000000","ind_status":"AT"},"geometry":{"type":"Polygon","coordinates":[[[-42.2607,-21.4491],[-42.2581,-21.4511],[-42.2606,-21.4492],[-42.2607,-21.4491]]]}},{"type":"Feature","properties":{"cod_imovel":"RJ-3304706-327C1FC20CBE402FBEF346803E713CE8","num_area":"25.778200000000000000000000000000","ind_status":"AT"},"geometry":{"type":"Polygon","coordinates":[[[-42.2525,-21.4668],[-42.2603,-21.4664],[-42.2567,-21.4628],[-42.2526,-21.4667],[-42.2525,-21.4668]]]}},{"type":"Feature","properties":{"cod_imovel":"RJ-3304706-3370F788F3A64F9FA51C4AD6BAD3C3C4","num_area":"19.677700000000000000000000000000","ind_status":"AT"},"geometry":{"type":"Polygon","coordinates":[[[-42.0906,-21.5046],[-42.0931,-21.5027],[-42.0852,-21.5019],[-42.0898,-21.5042],[-42.0906,-21.5046]]]}},{"type":"Feature","properties":{"cod_imovel":"RJ-3304706-37C38FF79C344FFABF972890169CE03C","num_area":"8.2606000000000000000000000000000","ind_status":"AT"},"geometry":{"type":"Polygon","coordinates":[[[-42.2255,-21.5049],[-42.2215,-21.5062],[-42.2291,-21.4995],[-42.2329,-21.5021],[-42.229,-21.4993],[-42.2255,-21.5049],[-42.2255,-21.5049]]]}},{"type":"Feature","properties":{"cod_imovel":"RJ-3304706-39B2ABF77CDD43FBB14D50E7863BFDF3","num_area":"9.1723000000000000000000000000000","ind_status":"AT"},"geometry":{"type":"Polygon","coordinates":[[[-42.1745,-21.4892],[-42.1735,-21.4924],[-42.1746,-21.4895],[-42.1745,-21.4892]],[[-42.1832,-21.4813],[-42.1783,-21.4802],[-42.1827,-21.4819],[-42.1832,-21.4813]]]}},{"type":"Feature","properties":{"cod_imovel":"RJ-3304706-389C42A9C7EB49CA8EB8D64C438F0E82","num_area":"16.682000000000000000000000000000","ind_status":"AT"},"geometry":{"type":"Polygon","coordinates":[[[-42.2301,-21.4949],[-42.2401,-21.4926],[-42.2329,-21.4905],[-42.2302,-21.4946],[-42.2301,-21.4949]]]}},{"type":"Feature","properties":{"cod_imovel":"RJ-3304706-40A79B3622564F00953E0F03C42A9842","num_area":"25.561400000000000000000000000000","ind_status":"AT"},"geometry":{"type":"Polygon","coordinates":[[[-42.1725,-21.5687],[-42.1692,-21.569],[-42.1726,-21.569],[-42.1725,-21.5687]],[[-42.1794,-21.5708],[-42.1748,-21.5725],[-42.1793,-21.571],[-42.1794,-21.5708]]]}},{"type":"Feature","properties":{"cod_imovel":"RJ-3304706-411F145354854952B64BAA94C19827A0","num_area":"21.621500000000000000000000000000","ind_status":"AT"},"geometry":{"type":"Polygon","coordinates":[[[-42.1367,-21.4838],[-42.1368,-21.4797],[-42.1363,-21.4835],[-42.1367,-21.4838]],[[-42.1304,-21.4837],[-42.135,-21.4897],[-42.1305,-21.4836],[-42.1304,-21.4837]]]}},{"type":"Feature","properties":{"cod_imovel":"RJ-3304706-474A8372E8E5446980E12FCD427EC72C","num_area":"7.5146000000000000000000000000000","ind_status":"AT"},"geometry":{"type":"Polygon","coordinates":[[[-42.1643,-21.4888],[-42.1609,-21.4912],[-42.1643,-21.4889],[-42.1643,-21.4888]]]}},{"type":"Feature","properties":{"cod_imovel":"RJ-3304706-47852CF2E12640D99343DF9323FEE80F","num_area":"18.555700000000000000000000000000","ind_status":"AT"},"geometry":{"type":"Polygon","coordinates":[[[-42.2614,-21.541],[-42.2546,-21.5462],[-42.2608,-21.5418],[-42.2614,-21.541]]]}},{"type":"Feature","properties":{"cod_imovel":"RJ-3304706-491F2417FF4C4B79ACC5A76090ED50D9","num_area":"30.831300000000000000000000000000","ind_status":"AT"},"geometry":{"type":"Polygon","coordinates":[[[-42.2416,-21.4885],[-42.2405,-21.4916],[-42.2467,-21.4912],[-42.2476,-21.4843],[-42.2416,-21.4885],[-42.2416,-21.4885]]]}},{"type":"Feature","properties":{"cod_imovel":"RJ-3304706-5A37EFB5A0314FAC822ABD23D188FEDD","num_area":"1.2112000000000000000000000000000","ind_status":"AT"},"geometry":{"type":"Polygon","coordinates":[[[-42.3024,-21.5356],[-42.2992,-21.5348],[-42.3021,-21.5357],[-42.3024,-21.5356]]]}},{"type":"Feature","properties":{"cod_imovel":"RJ-3304706-5EF9E000062E4E81A10EFBA0E9F6425B","num_area":"13.908900000000000000000000000000","ind_status":"AT"},"geometry":{"type":"Polygon","coordinates":[[[-42.1481,-21.4834],[-42.1446,-21.4848],[-42.1479,-21.4838],[-42.1481,-21.4834]],[[-42.1527,-21.485],[-42.1479,-21.4852],[-42.1526,-21.4852],[-42.1527,-21.485]]]}},{"type":"Feature","properties":{"cod_imovel":"RJ-3304706-5EFBD30FAE5A40289E25C4BB93F7F7ED","num_area":"11.406100000000000000000000000000","ind_status":"AT"},"geometry":{"type":"Polygon","coordinates":[[[-42.2094,-21.4653],[-42.2136,-21.4612],[-42.2109,-21.4634],[-42.2094,-21.4653]]]}},{"type":"Feature","properties":{"cod_imovel":"RJ-3304706-608622AF11F8464D9F6D59670EC13554","num_area":"5.5965000000000000000000000000000","ind_status":"AT"},"geometry":{"type":"Polygon","coordinates":[[[-42.1445,-21.5162],[-42.1451,-21.513],[-42.1433,-21.516],[-42.1445,-21.5162]]]}},{"type":"Feature","properties":{"cod_imovel":"RJ-3304706-62753D6A429549E4818CC5071F913234","num_area":"16.918700000000000000000000000000","ind_status":"AT"},"geometry":{"type":"Polygon","coordinates":[[[-42.3685,-21.6369],[-42.3635,-21.6317],[-42.3688,-21.6372],[-42.3685,-21.6369]]]}},{"type":"Feature","properties":{"cod_imovel":"RJ-3304706-6BD400405D474E349FCD07B797B68813","num_area":"4.4819000000000000000000000000000","ind_status":"PE"},"geometry":{"type":"Polygon","coordinates":[[[-42.0484,-21.4652],[-42.05,-21.4623],[-42.0473,-21.4646],[-42.0484,-21.4652]]]}},{"type":"Feature","properties":{"cod_imovel":"RJ-3304706-65FFF7424EF54967AB74752D8CA6FBBA","num_area":"6.8409000000000000000000000000000","ind_status":"PE"},"geometry":{"type":"Polygon","coordinates":[[[-42.1839,-21.4638],[-42.1807,-21.4653],[-42.1842,-21.4645],[-42.1839,-21.4638]]]}},{"type":"Feature","properties":{"cod_imovel":"RJ-3304706-6A67161C3EE74BBC9E212C2526F351A7","num_area":"43.302300000000000000000000000000","ind_status":"AT"},"geometry":{"type":"Polygon","coordinates":[[[-42.0341,-21.5067],[-42.0355,-21.5023],[-42.0326,-21.5043],[-42.0341,-21.5067]],[[-42.0388,-21.5134],[-42.0376,-21.5097],[-42.0384,-21.5134],[-42.0388,-21.5134]],[[-42.0288,-21.5056],[-42.035,-21.5101],[-42.0297,-21.5057],[-42.0288,-21.5056]],[[-42.0357,-21.496],[-42.032,-21.5012],[-42.0359,-21.4958],[-42.0357,-21.496]]]}},{"type":"Feature","properties":{"cod_imovel":"RJ-3304706-6AC29DD09A91436BAD7F21492BE39B4C","num_area":"8.5880000000000000000000000000000","ind_status":"AT"},"geometry":{"type":"Polygon","coordinates":[[[-42.1124,-21.5921],[-42.1176,-21.593],[-42.1133,-21.5919],[-42.1124,-21.5921]]]}},{"type":"Feature","properties":{"cod_imovel":"RJ-3304706-6D6AC327D3B64823BDDB32809C85C54C","num_area":"13.305500000000000000000000000000","ind_status":"CA"},"geometry":{"type":"Polygon","coordinates":[[[-42.0467,-21.4659],[-42.0515,-21.4671],[-42.0468,-21.4656],[-42.0467,-21.4659]]]}},{"type":"Feature","properties":{"cod_imovel":"RJ-3304706-70F8D56E7BED4D1CAD79653DB4C61291","num_area":"5.6323000000000000000000000000000","ind_status":"AT"},"geometry":{"type":"Polygon","coordinates":[[[-42.3452,-21.6394],[-42.3418,-21.6383],[-42.3452,-21.6395],[-42.3452,-21.6394]]]}},{"type":"Feature","properties":{"cod_imovel":"RJ-3304706-7631888A18D9429C8C7FF0716FB12C1A","num_area":"14.260100000000000000000000000000","ind_status":"AT"},"geometry":{"type":"Polygon","coordinates":[[[-42.251,-21.5332],[-42.247,-21.533],[-42.2508,-21.5332],[-42.251,-21.5332]],[[-42.2509,-21.5365],[-42.2524,-21.5336],[-42.2499,-21.5372],[-42.2509,-21.5365]]]}},{"type":"Feature","properties":{"cod_imovel":"RJ-3304706-7ADB03BAFA8F45829165871A43F21540","num_area":"3.7799000000000000000000000000000","ind_status":"AT"},"geometry":{"type":"Polygon","coordinates":[[[-42.093,-21.4642],[-42.0946,-21.4674],[-42.0932,-21.4642],[-42.093,-21.4642]]]}},{"type":"Feature","properties":{"cod_imovel":"RJ-3304706-7C7DD94142F647D2A7D889DCE1C59532","num_area":"3.7367000000000000000000000000000","ind_status":"AT"},"geometry":{"type":"Polygon","coordinates":[[[-42.1122,-21.5268],[-42.1147,-21.5251],[-42.1118,-21.5271],[-42.1122,-21.5268]]]}},{"type":"Feature","properties":{"cod_imovel":"RJ-3304706-86652C1C0BD647E4A5E9E1C2D3BEA412","num_area":"5.4552000000000000000000000000000","ind_status":"AT"},"geometry":{"type":"Polygon","coordinates":[[[-42.1591,-21.5739],[-42.1621,-21.5752],[-42.1592,-21.5739],[-42.1591,-21.5739]]]}},{"type":"Feature","properties":{"cod_imovel":"RJ-3304706-8911037E9DB948AEAEA15398F80998A0","num_area":"3.7085000000000000000000000000000","ind_status":"AT"},"geometry":{"type":"Polygon","coordinates":[[[-42.1871,-21.5969],[-42.1827,-21.5971],[-42.1866,-21.5972],[-42.1871,-21.5969]]]}},{"type":"Feature","properties":{"cod_imovel":"RJ-3304706-8944E3F364C246CD857C104996E4DBF9","num_area":"10.966300000000000000000000000000","ind_status":"AT"},"geometry":{"type":"Polygon","coordinates":[[[-42.3197,-21.6235],[-42.3167,-21.6231],[-42.3192,-21.6262],[-42.3197,-21.6235]]]}},{"type":"Feature","properties":{"cod_imovel":"RJ-3304706-8A48E990E0CC4A11B1E977F9E9CF9C7D","num_area":"20.260800000000000000000000000000","ind_status":"AT"},"geometry":{"type":"Polygon","coordinates":[[[-42.2244,-21.563],[-42.2207,-21.565],[-42.2239,-21.5634],[-42.2244,-21.563]],[[-42.2225,-21.5602],[-42.2171,-21.5619],[-42.2222,-21.5604],[-42.2225,-21.5602]]]}},{"type":"Feature","properties":{"cod_imovel":"RJ-3304706-907C124F2B7A4CAE94A7C7BB5FE09AEC","num_area":"13.469900000000000000000000000000","ind_status":"PE"},"geometry":{"type":"Polygon","coordinates":[[[-42.0241,-21.5061],[-42.0294,-21.5067],[-42.0251,-21.5019],[-42.0241,-21.5061],[-42.0241,-21.5061]]]}},{"type":"Feature","properties":{"cod_imovel":"RJ-3304706-948C034A62784FA7AC5C61FD35249C99","num_area":"5.8563000000000000000000000000000","ind_status":"AT"},"geometry":{"type":"Polygon","coordinates":[[[-42.1775,-21.4737],[-42.1743,-21.4746],[-42.1776,-21.4739],[-42.1775,-21.4737]]]}},{"type":"Feature","properties":{"cod_imovel":"RJ-3304706-959249AF700A49098DAD17F74DF8A9F7","num_area":"8.9668000000000000000000000000000","ind_status":"AT"},"geometry":{"type":"Polygon","coordinates":[[[-42.3036,-21.5401],[-42.2998,-21.5394],[-42.3031,-21.5408],[-42.3036,-21.5401]],[[-42.3017,-21.5463],[-42.3065,-21.5445],[-42.3019,-21.5458],[-42.3017,-21.5463]]]}},{"type":"Feature","properties":{"cod_imovel":"RJ-3304706-9A425F31CB7B44B1AD7E1111108A3556","num_area":"4.9205000000000000000000000000000","ind_status":"AT"},"geometry":{"type":"Polygon","coordinates":[[[-42.127,-21.5643],[-42.1243,-21.5619],[-42.1268,-21.5642],[-42.127,-21.5643]]]}},{"type":"Feature","properties":{"cod_imovel":"RJ-3304706-9AC1198FC0434B028F86137509F5DD1B","num_area":"14.391500000000000000000000000000","ind_status":"AT"},"geometry":{"type":"Polygon","coordinates":[[[-42.3021,-21.615],[-42.3,-21.6184],[-42.3023,-21.6153],[-42.3021,-21.615]]]}},{"type":"Feature","properties":{"cod_imovel":"RJ-3304706-9B5008B458BB4D9C930B9A3FF8E8AA8F","num_area":"5.5058000000000000000000000000000","ind_status":"AT"},"geometry":{"type":"Polygon","coordinates":[[[-42.2969,-21.6031],[-42.2928,-21.6037],[-42.2965,-21.6034],[-42.2969,-21.6031]]]}},{"type":"Feature","properties":{"cod_imovel":"RJ-3304706-9CA519B277EA464CADAF4FD13DD4D491","num_area":"6.0139000000000000000000000000000","ind_status":"AT"},"geometry":{"type":"Polygon","coordinates":[[[-42.1357,-21.5254],[-42.1347,-21.5296],[-42.1358,-21.5265],[-42.1357,-21.5254]]]}},{"type":"Feature","properties":{"cod_imovel":"RJ-3304706-9E6A6DEE10F64810BAFA5201DA3DC321","num_area":"44.906000000000000000000000000000","ind_status":"AT"},"geometry":{"type":"Polygon","coordinates":[[[-42.3177,-21.556],[-42.3137,-21.5525],[-42.308,-21.5549],[-42.3175,-21.556],[-42.3177,-21.556]],[[-42.2872,-21.5482],[-42.2829,-21.5544],[-42.2874,-21.5494],[-42.2872,-21.5482]]]}},{"type":"Feature","properties":{"cod_imovel":"RJ-3304706-AA3014F3903F4228A18BAA461E7D7914","num_area":"17.697200000000000000000000000000","ind_status":"AT"},"geometry":{"type":"Polygon","coordinates":[[[-42.2297,-21.5535],[-42.2277,-21.5506],[-42.2297,-21.5535],[-42.2297,-21.5535]]]}},{"type":"Feature","properties":{"cod_imovel":"RJ-3304706-AA66FB6C1BEE494C81FCF5FC04668F9A","num_area":"6.8272000000000000000000000000000","ind_status":"AT"},"geometry":{"type":"Polygon","coordinates":[[[-42.0243,-21.4716],[-42.0189,-21.4746],[-42.0246,-21.4723],[-42.0243,-21.4716]]]}},{"type":"Feature","properties":{"cod_imovel":"RJ-3304706-B29A5AB28E7841939D8845E308E6FA65","num_area":"41.336100000000000000000000000000","ind_status":"AT"},"geometry":{"type":"Polygon","coordinates":[[[-42.1352,-21.5646],[-42.1424,-21.5645],[-42.1365,-21.5645],[-42.1352,-21.5646]],[[-42.136,-21.5655],[-42.1452,-21.572],[-42.1424,-21.5646],[-42.1441,-21.5708],[-42.136,-21.5655],[-42.136,-21.5655]],[[-42.1354,-21.5578],[-42.1394,-21.5601],[-42.1307,-21.5595],[-42.1344,-21.5638],[-42.1309,-21.5595],[-42.1389,-21.5601],[-42.1347,-21.564],[-42.1396,-21.5603],[-42.1354,-21.5576],[-42.1354,-21.5578]],[[-42.1348,-21.564],[-42.1403,-21.561],[-42.1353,-21.5633],[-42.1348,-21.564]]]}},{"type":"Feature","properties":{"cod_imovel":"RJ-3304706-C0E45E6909784C759CE914AEE2A601F1","num_area":"16.426800000000000000000000000000","ind_status":"AT"},"geometry":{"type":"Polygon","coordinates":[[[-42.1167,-21.5259],[-42.1195,-21.5235],[-42.1157,-21.5254],[-42.1167,-21.5259]],[[-42.1245,-21.5226],[-42.1205,-21.5223],[-42.1238,-21.5232],[-42.1245,-21.5226]],[[-42.1228,-21.5318],[-42.1178,-21.5352],[-42.1231,-21.5316],[-42.1228,-21.5318]]]}},{"type":"Feature","properties":{"cod_imovel":"RJ-3304706-C4F0F3E1D6F942E48880024660882D97","num_area":"4.4669000000000000000000000000000","ind_status":"AT"},"geometry":{"type":"Polygon","coordinates":[[[-42.1568,-21.4868],[-42.1576,-21.4829],[-42.1568,-21.4868],[-42.1568,-21.4868]]]}},{"type":"Feature","properties":{"cod_imovel":"RJ-3304706-C4564141236446B18967A1478AC4FA68","num_area":"66.157200000000000000000000000000","ind_status":"AT"},"geometry":{"type":"Polygon","coordinates":[[[-42.0658,-21.4404],[-42.0601,-21.4346],[-42.0613,-21.4417],[-42.0661,-21.4443],[-42.0659,-21.4403],[-42.0658,-21.4404]],[[-42.0689,-21.4484],[-42.0732,-21.4452],[-42.07,-21.4425],[-42.0686,-21.4485],[-42.0689,-21.4484]]]}},{"type":"Feature","properties":{"cod_imovel":"RJ-3304706-C46F442C89F449539176725CA461CA2A","num_area":"20.962700000000000000000000000000","ind_status":"AT"},"geometry":{"type":"Polygon","coordinates":[[[-42.0662,-21.545],[-42.0622,-21.5424],[-42.066,-21.5456],[-42.0662,-21.545]],[[-42.0587,-21.548],[-42.0623,-21.545],[-42.0587,-21.5476],[-42.0587,-21.548]]]}},{"type":"Feature","properties":{"cod_imovel":"RJ-3304706-C65396E1797C4FD09F702E55BD71AB74","num_area":"52.129300000000000000000000000000","ind_status":"AT"},"geometry":{"type":"Polygon","coordinates":[[[-42.2447,-21.4742],[-42.2403,-21.4687],[-42.2403,-21.4752],[-42.2449,-21.4744],[-42.2447,-21.4742]],[[-42.239,-21.4784],[-42.2429,-21.4762],[-42.2349,-21.4739],[-42.2347,-21.4794],[-42.2388,-21.4782],[-42.239,-21.4784]]]}},{"type":"Feature","properties":{"cod_imovel":"RJ-3304706-C87C69E2B98244808DA8D9B1AE6CBBDB","num_area":"4.3808000000000000000000000000000","ind_status":"AT"},"geometry":{"type":"Polygon","coordinates":[[[-42.2664,-21.4712],[-42.2648,-21.4685],[-42.2664,-21.4712],[-42.2664,-21.4712]]]}},{"type":"Feature","properties":{"cod_imovel":"RJ-3304706-CE130C76E8AB49459B58BED755A77C6A","num_area":"11.556200000000000000000000000000","ind_status":"AT"},"geometry":{"type":"Polygon","coordinates":[[[-42.1797,-21.483],[-42.1783,-21.4859],[-42.1797,-21.483],[-42.1797,-21.483]]]}},{"type":"Feature","properties":{"cod_imovel":"RJ-3304706-D0FDCD3250564C3C86E46DA123EA31D0","num_area":"21.425200000000000000000000000000","ind_status":"AT"},"geometry":{"type":"Polygon","coordinates":[[[-42.1217,-21.5521],[-42.1148,-21.5497],[-42.1204,-21.5538],[-42.1217,-21.5521]]]}},{"type":"Feature","properties":{"cod_imovel":"RJ-3304706-D35B7523690C4927BD5C2BC0F0642720","num_area":"5.4365000000000000000000000000000","ind_status":"AT"},"geometry":{"type":"Polygon","coordinates":[[[-42.2933,-21.5974],[-42.2912,-21.5998],[-42.2936,-21.5976],[-42.2933,-21.5974]]]}},{"type":"Feature","properties":{"cod_imovel":"RJ-3304706-DBC58A64F45A46A3A0E7D664069F0B79","num_area":"15.447500000000000000000000000000","ind_status":"AT"},"geometry":{"type":"Polygon","coordinates":[[[-42.1291,-21.5757],[-42.1347,-21.5738],[-42.129,-21.5748],[-42.1291,-21.5757]]]}},{"type":"Feature","properties":{"cod_imovel":"RJ-3304706-DD8667AC42104B4D94274AE70C5F5A0A","num_area":"8.0954000000000000000000000000000","ind_status":"AT"},"geometry":{"type":"Polygon","coordinates":[[[-42.0992,-21.5428],[-42.1018,-21.54],[-42.0991,-21.5424],[-42.0992,-21.5428]],[[-42.1057,-21.5362],[-42.1024,-21.5367],[-42.1057,-21.5362],[-42.1057,-21.5362]]]}},{"type":"Feature","properties":{"cod_imovel":"RJ-3304706-E16C4B3BB20845A0B1DA5A154E99A1E1","num_area":"15.941600000000000000000000000000","ind_status":"AT"},"geometry":{"type":"Polygon","coordinates":[[[-42.2689,-21.5112],[-42.2677,-21.5067],[-42.2682,-21.5105],[-42.2689,-21.5112]]]}},{"type":"Feature","properties":{"cod_imovel":"RJ-3304706-E3AB734C90B049088145C8A4D427F804","num_area":"2.4596000000000000000000000000000","ind_status":"AT"},"geometry":{"type":"Polygon","coordinates":[[[-42.2928,-21.6402],[-42.2901,-21.6386],[-42.2928,-21.6403],[-42.2928,-21.6402]]]}},{"type":"Feature","properties":{"cod_imovel":"RJ-3304706-E439E98828914BF8804E5C0110B3FFF3","num_area":"7.0652000000000000000000000000000","ind_status":"AT"},"geometry":{"type":"Polygon","coordinates":[[[-42.2822,-21.6009],[-42.2793,-21.6036],[-42.2822,-21.6009],[-42.2822,-21.6009]]]}},{"type":"Feature","properties":{"cod_imovel":"RJ-3304706-EC520450C058435CB214A7C9A9647479","num_area":"68.361200000000000000000000000000","ind_status":"PE"},"geometry":{"type":"Polygon","coordinates":[[[-42.3485,-21.5865],[-42.3433,-21.5876],[-42.3487,-21.5901],[-42.3485,-21.5865]],[[-42.335,-21.5768],[-42.3359,-21.5849],[-42.3395,-21.5824],[-42.3368,-21.5785],[-42.335,-21.5768]],[[-42.3446,-21.5824],[-42.3393,-21.5853],[-42.3445,-21.5825],[-42.3446,-21.5824]]]}},{"type":"Feature","properties":{"cod_imovel":"RJ-3304706-EE16016360CA462286D2BBBC78B582A4","num_area":"14.393100000000000000000000000000","ind_status":"AT"},"geometry":{"type":"Polygon","coordinates":[[[-42.143,-21.5874],[-42.1393,-21.585],[-42.142,-21.5877],[-42.143,-21.5874]]]}},{"type":"Feature","properties":{"cod_imovel":"RJ-3304706-EF2BF181872B4D6295279EA0AD4E090F","num_area":"21.495500000000000000000000000000","ind_status":"AT"},"geometry":{"type":"Polygon","coordinates":[[[-42.0652,-21.4364],[-42.0601,-21.4352],[-42.0623,-21.4402],[-42.0652,-21.4364]]]}},{"type":"Feature","properties":{"cod_imovel":"RJ-3304706-F390652869214A08B16D20B24111708F","num_area":"3.9617000000000000000000000000000","ind_status":"AT"},"geometry":{"type":"Polygon","coordinates":[[[-42.0667,-21.4896],[-42.0699,-21.4896],[-42.0667,-21.4896],[-42.0667,-21.4896]]]}}]}