{"type":"FeatureCollection","features":[{"type":"Feature","properties":{"cod_imovel":"RJ-3305133-3D957EF2616F430A8EE3AA5D859BCE2D","num_area":"0.4436000000000000000000000000000","ind_status":"AT"},"geometry":{"type":"Polygon","coordinates":[[[-41.9319,-21.3698],[-41.9353,-21.3704],[-41.9318,-21.3698],[-41.9319,-21.3698]]]}},{"type":"Feature","properties":{"cod_imovel":"RJ-3305133-C489E7143FE34EF0B39207167A9BD8D6","num_area":"51.289400000000000000000000000000","ind_status":"PE"},"geometry":{"type":"Polygon","coordinates":[[[-41.9968,-21.4747],[-41.994,-21.4726],[-41.9965,-21.4745],[-41.9968,-21.4747]],[[-41.9861,-21.4775],[-41.9833,-21.4793],[-41.9896,-21.4831],[-41.994,-21.4784],[-41.9916,-21.4747],[-41.9898,-21.4821],[-41.9862,-21.4775],[-41.9861,-21.4775]],[[-41.9832,-21.4793],[-41.9868,-21.4823],[-41.9832,-21.4793],[-41.9832,-21.4793]]]}},{"type":"Feature","properties":{"cod_imovel":"RJ-3305133-6F128B58F24B413FA482A92A7D7A7981","num_area":"24.076500000000000000000000000000","ind_status":"AT"},"geometry":{"type":"Polygon","coordinates":[[[-41.9284,-21.3129],[-41.9276,-21.3083],[-41.9221,-21.3113],[-41.9241,-21.314],[-41.9274,-21.3093],[-41.927,-21.314],[-41.9284,-21.3129]]]}},{"type":"Feature","properties":{"cod_imovel":"RJ-3305133-3E7AB9D420E24DFEA296DDAFC546BAB3","num_area":"8.6949000000000000000000000000000","ind_status":"AT"},"geometry":{"type":"Polygon","coordinates":[[[-41.9121,-21.3453],[-41.9159,-21.3448],[-41.9124,-21.345],[-41.9121,-21.3453]],[[-41.9116,-21.3458],[-41.9156,-21.3457],[-41.9116,-21.3458],[-41.9116,-21.3458]],[[-41.9104,-21.3478],[-41.9127,-21.3511],[-41.9106,-21.3476],[-41.9104,-21.3478]],[[-41.9104,-21.3479],[-41.9127,-21.3511],[-41.9104,-21.348],[-41.9104,-21.3479]]]}},{"type":"Feature","properties":{"cod_imovel":"RJ-3305133-700DE0167F4C4AA0B817C170856C70AC","num_area":"5.2285000000000000000000000000000","ind_status":"AT"},"geometry":{"type":"Polygon","coordinates":[[[-41.9415,-21.3723],[-41.9384,-21.3708],[-41.9411,-21.3726],[-41.9415,-21.3723]]]}},{"type":"Feature","properties":{"cod_imovel":"RJ-3305133-801921E1032D4196A95B5A6F24257D04","num_area":"74.154200000000000000000000000000","ind_status":"AT"},"geometry":{"type":"Polygon","coordinates":[[[-41.9803,-21.4685],[-41.9727,-21.4727],[-41.9775,-21.4762],[-41.9822,-21.4736],[-41.9782,-21.4708],[-41.9885,-21.4689],[-41.9803,-21.4685],[-41.9803,-21.4685]],[[-41.9822,-21.4736],[-41.9888,-21.469],[-41.9822,-21.4735],[-41.9822,-21.4736]]]}},{"type":"Feature","properties":{"cod_imovel":"RJ-3305133-FB6C44AD283E42D4B74F4C3D1C664B84","num_area":"12.116100000000000000000000000000","ind_status":"AT"},"geometry":{"type":"Polygon","coordinates":[[[-41.9265,-21.3687],[-41.9239,-21.371],[-41.9265,-21.3688],[-41.9265,-21.3687]]]}},{"type":"Feature","properties":{"cod_imovel":"RJ-3305133-413076C56401440994FDED7955D75F45","num_area":"7.4949000000000000000000000000000","ind_status":"AT"},"geometry":{"type":"Polygon","coordinates":[[[-41.9268,-21.3232],[-41.9234,-21.3218],[-41.9269,-21.3233],[-41.9268,-21.3232]]]}},{"type":"Feature","properties":{"cod_imovel":"RJ-3305133-921CEFDE6B334AA58CDB4E9CC8B80938","num_area":"22.298300000000000000000000000000","ind_status":"AT"},"geometry":{"type":"Polygon","coordinates":[[[-41.9311,-21.3952],[-41.9355,-21.3961],[-41.9309,-21.3949],[-41.9311,-21.3952]],[[-41.9286,-21.388],[-41.9351,-21.3907],[-41.9291,-21.3878],[-41.9286,-21.388]]]}},{"type":"Feature","properties":{"cod_imovel":"RJ-3305133-0187949F768E4CBDA4160F44F1E360B3","num_area":"22.263600000000000000000000000000","ind_status":"AT"},"geometry":{"type":"Polygon","coordinates":[[[-41.9251,-21.3412],[-41.9216,-21.3419],[-41.9253,-21.3415],[-41.9251,-21.3412]],[[-41.9167,-21.3491],[-41.9213,-21.3491],[-41.9171,-21.3485],[-41.9167,-21.3491]],[[-41.927,-21.3469],[-41.9187,-21.3439],[-41.9268,-21.3468],[-41.927,-21.3469]],[[-41.927,-21.3469],[-41.9209,-21.3423],[-41.9158,-21.3459],[-41.921,-21.3425],[-41.927,-21.3468],[-41.927,-21.3469]],[[-41.9158,-21.3459],[-41.9189,-21.3441],[-41.9159,-21.346],[-41.9158,-21.3459]]]}},{"type":"Feature","properties":{"cod_imovel":"RJ-3305133-ABDD2765C14945E5BD2B1E44EA294986","num_area":"128.08450000000000000000000000000","ind_status":"AT"},"geometry":{"type":"Polygon","coordinates":[[[-41.987,-21.4532],[-41.9851,-21.4565],[-41.9945,-21.4611],[-41.988,-21.4527],[-41.987,-21.4532]],[[-41.9894,-21.4684],[-42.0038,-21.4696],[-41.989,-21.464],[-41.9894,-21.4684],[-41.9894,-21.4684]]]}},{"type":"Feature","properties":{"cod_imovel":"RJ-3305133-46158E5DB94040AFB6D7B73655B919F2","num_area":"9.7021000000000000000000000000000","ind_status":"AT"},"geometry":{"type":"Polygon","coordinates":[[[-41.9035,-21.3772],[-41.9003,-21.374],[-41.9034,-21.3771],[-41.9035,-21.3772]]]}},{"type":"Feature","properties":{"cod_imovel":"RJ-3305133-C638B5DB0D1E479A969F3B01C8E2ED0F","num_area":"44.839300000000000000000000000000","ind_status":"AT"},"geometry":{"type":"Polygon","coordinates":[[[-41.9722,-21.4667],[-41.9698,-21.4698],[-41.9753,-21.4653],[-41.9722,-21.4667]],[[-41.9774,-21.4642],[-41.9792,-21.4682],[-41.9731,-21.4709],[-41.9817,-21.4677],[-41.978,-21.4645],[-41.9774,-21.4642]]]}},{"type":"Feature","properties":{"cod_imovel":"RJ-3305133-A9916BE4664249BBB091EB9FDD17CBD9","num_area":"6.4409000000000000000000000000000","ind_status":"AT"},"geometry":{"type":"Polygon","coordinates":[[[-42.0393,-21.4248],[-42.036,-21.425],[-42.0392,-21.4247],[-42.0393,-21.4248]]]}},{"type":"Feature","properties":{"cod_imovel":"RJ-3305133-8A78C9B1BB054D2CADB80D8653F25BAA","num_area":"55.833600000000000000000000000000","ind_status":"AT"},"geometry":{"type":"Polygon","coordinates":[[[-42.0057,-21.4741],[-41.9982,-21.4744],[-42.006,-21.4744],[-42.0057,-21.4741]],[[-41.9904,-21.4836],[-41.9936,-21.4864],[-41.9969,-21.4805],[-41.9903,-21.4834],[-41.9904,-21.4836]]]}},{"type":"Feature","properties":{"cod_imovel":"RJ-3305133-73617D26B03D474B9E70237A9D50583B","num_area":"6.6449000000000000000000000000000","ind_status":"AT"},"geometry":{"type":"Polygon","coordinates":[[[-41.9359,-21.4038],[-41.9316,-21.403],[-41.936,-21.4039],[-41.9359,-21.4038]]]}},{"type":"Feature","properties":{"cod_imovel":"RJ-3305133-192A8DAAA1FA41DD9554A30B13B79A09","num_area":"2.3574000000000000000000000000000","ind_status":"AT"},"geometry":{"type":"Polygon","coordinates":[[[-41.9278,-21.3361],[-41.9259,-21.3331],[-41.9277,-21.3361],[-41.9278,-21.3361]]]}},{"type":"Feature","properties":{"cod_imovel":"RJ-3305133-4F5B39C0AF134E188C5120B3FF556A7E","num_area":"98.285200000000000000000000000000","ind_status":"PE"},"geometry":{"type":"Polygon","coordinates":[[[-42.002,-21.4018],[-42.0056,-21.401],[-42.0018,-21.4016],[-42.002,-21.4018]],[[-42.015,-21.3855],[-42.0106,-21.3881],[-42.0153,-21.3857],[-42.015,-21.3855]],[[-41.982,-21.3808],[-41.9777,-21.3812],[-41.9822,-21.3808],[-41.982,-21.3808]],[[-42.021,-21.386],[-42.0194,-21.3819],[-42.0162,-21.3849],[-42.021,-21.386],[-42.021,-21.386]],[[-42.0295,-21.3907],[-42.0236,-21.3884],[-42.0228,-21.3969],[-42.0292,-21.3908],[-42.0295,-21.3907]],[[-42.0109,-21.3932],[-42.0159,-21.3901],[-42.0109,-21.393],[-42.0109,-21.3932]],[[-42.0159,-21.3901],[-42.0109,-21.393],[-42.0157,-21.3903],[-42.0159,-21.3901]]]}},{"type":"Feature","properties":{"cod_imovel":"RJ-3305133-CB48095D3C184CABAACDD37A9612364F","num_area":"23.187100000000000000000000000000","ind_status":"AT"},"geometry":{"type":"Polygon","coordinates":[[[-41.9442,-21.4068],[-41.9377,-21.4065],[-41.9436,-21.4074],[-41.9442,-21.4068]]]}},{"type":"Feature","properties":{"cod_imovel":"RJ-3305133-F8E2FB661D5C40B4935D173FC8AF5AD2","num_area":"47.387300000000000000000000000000","ind_status":"AT"},"geometry":{"type":"Polygon","coordinates":[[[-41.9573,-21.4322],[-41.9571,-21.4273],[-41.9507,-21.4322],[-41.9571,-21.4323],[-41.9573,-21.4322]]]}},{"type":"Feature","properties":{"cod_imovel":"RJ-3305133-C1984ED83A2E48F3BAA0C5751E5E5A5C","num_area":"28.164200000000000000000000000000","ind_status":"AT"},"geometry":{"type":"Polygon","coordinates":[[[-41.9376,-21.4064],[-41.9398,-21.3979],[-41.9375,-21.4062],[-41.9376,-21.4064]]]}},{"type":"Feature","properties":{"cod_imovel":"RJ-3305133-911254BD0D3041479B492E2960F11E21","num_area":"10.620700000000000000000000000000","ind_status":"AT"},"geometry":{"type":"Polygon","coordinates":[[[-41.9357,-21.4223],[-41.9316,-21.419],[-41.9347,-21.4219],[-41.9357,-21.4223]]]}},{"type":"Feature","properties":{"cod_imovel":"RJ-3305133-1821EC0F5A824CD8B68890B5CEC94681","num_area":"10.384400000000000000000000000000","ind_status":"AT"},"geometry":{"type":"Polygon","coordinates":[[[-41.9272,-21.3956],[-41.9322,-21.3972],[-41.9307,-21.3929],[-41.9272,-21.3955],[-41.9272,-21.3956]]]}},{"type":"Feature","properties":{"cod_imovel":"RJ-3305133-851CA0B4C0B14D52937F69F971CD34FB","num_area":"10.513200000000000000000000000000","ind_status":"AT"},"geometry":{"type":"Polygon","coordinates":[[[-41.9636,-21.4121],[-41.9577,-21.4117],[-41.9631,-21.412],[-41.9636,-21.4121]]]}},{"type":"Feature","properties":{"cod_imovel":"RJ-3305133-9E7F46835E0745C68A698F747EA31444","num_area":"214.93480000000000000000000000000","ind_status":"PE"},"geometry":{"type":"Polygon","coordinates":[[[-42.0308,-21.3909],[-42.0228,-21.3974],[-42.0322,-21.3961],[-42.0282,-21.4003],[-42.0279,-21.4162],[-42.0426,-21.4027],[-42.0311,-21.3911],[-42.0308,-21.3909]]]}},{"type":"Feature","properties":{"cod_imovel":"RJ-3305133-28C1519250CC49E99D9F4604ACE7064A","num_area":"30.783300000000000000000000000000","ind_status":"AT"},"geometry":{"type":"Polygon","coordinates":[[[-41.9406,-21.4246],[-41.9501,-21.4277],[-41.9442,-21.4259],[-41.9419,-21.4191],[-41.9395,-21.4231],[-41.9406,-21.4246]]]}},{"type":"Feature","properties":{"cod_imovel":"RJ-3305133-4BB157530A674077A5B01DD01357B987","num_area":"14.479700000000000000000000000000","ind_status":"AT"},"geometry":{"type":"Polygon","coordinates":[[[-41.9396,-21.4219],[-41.936,-21.4189],[-41.9394,-21.4221],[-41.9396,-21.4219]]]}},{"type":"Feature","properties":{"cod_imovel":"RJ-3305133-BAA6480C38714E1F936F5715E7259E27","num_area":"23.932500000000000000000000000000","ind_status":"AT"},"geometry":{"type":"Polygon","coordinates":[[[-41.9506,-21.4318],[-41.9545,-21.4293],[-41.9463,-21.4292],[-41.9495,-21.4312],[-41.9506,-21.4318]]]}},{"type":"Feature","properties":{"cod_imovel":"RJ-3305133-DF9981B917B149CC9D8A07849995CD3F","num_area":"108.00960000000000000000000000000","ind_status":"AT"},"geometry":{"type":"Polygon","coordinates":[[[-41.8288,-21.3373],[-41.8344,-21.3383],[-41.8293,-21.337],[-41.8288,-21.3373]],[[-41.8649,-21.3333],[-41.8612,-21.3326],[-41.8647,-21.3334],[-41.8649,-21.3333]],[[-41.8359,-21.3387],[-41.8484,-21.3435],[-41.8401,-21.3336],[-41.8373,-21.3387],[-41.8359,-21.3387]],[[-41.842,-21.3353],[-41.845,-21.3368],[-41.8414,-21.3349],[-41.842,-21.3353]],[[-41.8284,-21.3258],[-41.834,-21.3313],[-41.829,-21.3263],[-41.8284,-21.3258]],[[-41.8336,-21.3309],[-41.8305,-21.3292],[-41.8338,-21.3311],[-41.8336,-21.3309]],[[-41.8282,-21.3273],[-41.8305,-21.3292],[-41.8282,-21.3272],[-41.8282,-21.3273]]]}},{"type":"Feature","properties":{"cod_imovel":"RJ-3305133-7D8033BCB47445779699E767922973B9","num_area":"30.635100000000000000000000000000","ind_status":"PE"},"geometry":{"type":"Polygon","coordinates":[[[-41.9951,-21.4838],[-41.9916,-21.4856],[-41.9959,-21.4874],[-41.9952,-21.4842],[-41.9951,-21.4838]],[[-42.0077,-21.4763],[-42.0058,-21.4734],[-42.0027,-21.4767],[-42.0075,-21.4766],[-42.0077,-21.4763]]]}},{"type":"Feature","properties":{"cod_imovel":"RJ-3305133-2492F4B8AFB64B6A94532A56E0A87A3A","num_area":"30.227100000000000000000000000000","ind_status":"AT"},"geometry":{"type":"Polygon","coordinates":[[[-42.029,-21.3358],[-42.025,-21.3369],[-42.032,-21.3384],[-42.03,-21.3352],[-42.029,-21.3358]],[[-42.0226,-21.3373],[-42.0207,-21.3399],[-42.0241,-21.3376],[-42.0226,-21.3373]]]}},{"type":"Feature","properties":{"cod_imovel":"RJ-3305133-22C23AEE14A943CCBEB0904E77827214","num_area":"12.015700000000000000000000000000","ind_status":"AT"},"geometry":{"type":"Polygon","coordinates":[[[-41.9322,-21.3308],[-41.9294,-21.3334],[-41.9327,-21.3313],[-41.9322,-21.3308]]]}},{"type":"Feature","properties":{"cod_imovel":"RJ-3305133-469AB4F2149F48E6A9DBB00E0497DF4C","num_area":"5.6582000000000000000000000000000","ind_status":"AT"},"geometry":{"type":"Polygon","coordinates":[[[-41.9443,-21.3461],[-41.9464,-21.3484],[-41.9444,-21.3461],[-41.9443,-21.3461]]]}},{"type":"Feature","properties":{"cod_imovel":"RJ-3305133-3A9FCD276AEB4AD5B43B1ABE371CCECA","num_area":"3.1742000000000000000000000000000","ind_status":"AT"},"geometry":{"type":"Polygon","coordinates":[[[-42.0192,-21.3976],[-42.0227,-21.3974],[-42.0196,-21.3975],[-42.0192,-21.3976]]]}},{"type":"Feature","properties":{"cod_imovel":"RJ-3305133-F9130223EFDA4ADEA6B78F8D351BEB7F","num_area":"8.2739000000000000000000000000000","ind_status":"AT"},"geometry":{"type":"Polygon","coordinates":[[[-41.9161,-21.3748],[-41.9189,-21.3727],[-41.916,-21.3748],[-41.9161,-21.3748]]]}},{"type":"Feature","properties":{"cod_imovel":"RJ-3305133-01E2802BCD8642269F638EF23EEAF0D9","num_area":"12.733600000000000000000000000000","ind_status":"AT"},"geometry":{"type":"Polygon","coordinates":[[[-41.9306,-21.311],[-41.9305,-21.3166],[-41.9306,-21.3111],[-41.9306,-21.311]]]}},{"type":"Feature","properties":{"cod_imovel":"RJ-3305133-A576E576FC4C443BB48DF4C4FED82E4E","num_area":"10.530100000000000000000000000000","ind_status":"AT"},"geometry":{"type":"Polygon","coordinates":[[[-41.9837,-21.3599],[-41.9871,-21.3596],[-41.9802,-21.3576],[-41.9836,-21.3597],[-41.9837,-21.3599]]]}},{"type":"Feature","properties":{"cod_imovel":"RJ-3305133-E413E59459A340B7ACDEC996207FACC0","num_area":"8.2988000000000000000000000000000","ind_status":"AT"},"geometry":{"type":"Polygon","coordinates":[[[-41.9807,-21.4783],[-41.9775,-21.4762],[-41.9802,-21.4777],[-41.9807,-21.4783]]]}},{"type":"Feature","properties":{"cod_imovel":"RJ-3305133-64E1A12D707E4781BB76EB18F64502EA","num_area":"6.2493000000000000000000000000000","ind_status":"AT"},"geometry":{"type":"Polygon","coordinates":[[[-41.9735,-21.3833],[-41.978,-21.381],[-41.9739,-21.383],[-41.9735,-21.3833]]]}},{"type":"Feature","properties":{"cod_imovel":"RJ-3305133-0C4D31685C0348B9BB9748BE9762DBDC","num_area":"3.5500000000000000000000000000000","ind_status":"AT"},"geometry":{"type":"Polygon","coordinates":[[[-41.986,-21.3803],[-41.9835,-21.3784],[-41.9859,-21.3803],[-41.986,-21.3803]]]}},{"type":"Feature","properties":{"cod_imovel":"RJ-3305133-0D62070E8E67473B9A89F10715F8698B","num_area":"5.6805000000000000000000000000000","ind_status":"AT"},"geometry":{"type":"Polygon","coordinates":[[[-41.9855,-21.3795],[-41.9825,-21.379],[-41.9859,-21.3799],[-41.9855,-21.3795]]]}},{"type":"Feature","properties":{"cod_imovel":"RJ-3305133-615B3B3E2687497DA3B72918D5499014","num_area":"2.0098000000000000000000000000000","ind_status":"AT"},"geometry":{"type":"Polygon","coordinates":[[[-41.9684,-21.3301],[-41.9714,-21.3314],[-41.9686,-21.3301],[-41.9684,-21.3301]]]}},{"type":"Feature","properties":{"cod_imovel":"RJ-3305133-CD66041CD4414DA0BBCF7F39DF19F7F3","num_area":"10.253700000000000000000000000000","ind_status":"AT"},"geometry":{"type":"Polygon","coordinates":[[[-41.9194,-21.3701],[-41.9235,-21.3705],[-41.9196,-21.3695],[-41.9194,-21.3701]]]}},{"type":"Feature","properties":{"cod_imovel":"RJ-3305133-B11348874EA84AA5B0859D0F3500AB56","num_area":"4.8604000000000000000000000000000","ind_status":"AT"},"geometry":{"type":"Polygon","coordinates":[[[-41.9013,-21.396],[-41.9047,-21.396],[-41.9013,-21.3959],[-41.9013,-21.396]]]}},{"type":"Feature","properties":{"cod_imovel":"RJ-3305133-983AF2221B5148AEB551475A186B3724","num_area":"43.598200000000000000000000000000","ind_status":"AT"},"geometry":{"type":"Polygon","coordinates":[[[-41.8369,-21.3158],[-41.8388,-21.3198],[-41.837,-21.3165],[-41.8369,-21.3158]],[[-41.8306,-21.3127],[-41.8304,-21.3157],[-41.8364,-21.3136],[-41.8312,-21.3121],[-41.8306,-21.3127]],[[-41.8391,-21.3199],[-41.831,-21.3184],[-41.8394,-21.3201],[-41.8391,-21.3199]]]}},{"type":"Feature","properties":{"cod_imovel":"RJ-3305133-14BB546A77A84F1086B0F95BCE47E523","num_area":"21.227800000000000000000000000000","ind_status":"AT"},"geometry":{"type":"Polygon","coordinates":[[[-41.9149,-21.2965],[-41.9142,-21.2995],[-41.9152,-21.2966],[-41.9149,-21.2965]],[[-41.9193,-21.2963],[-41.9162,-21.295],[-41.9171,-21.3014],[-41.9191,-21.2968],[-41.9193,-21.2963]]]}},{"type":"Feature","properties":{"cod_imovel":"RJ-3305133-46BB6FD00FC840EEAF684F416991F620","num_area":"6.6508000000000000000000000000000","ind_status":"AT"},"geometry":{"type":"Polygon","coordinates":[[[-42.0461,-21.4196],[-42.0429,-21.4228],[-42.0454,-21.4197],[-42.0461,-21.4196]]]}},{"type":"Feature","properties":{"cod_imovel":"RJ-3305133-8B4ECA092EF94FCF87B641FEAA9328DC","num_area":"83.946500000000000000000000000000","ind_status":"AT"},"geometry":{"type":"Polygon","coordinates":[[[-41.8641,-21.3493],[-41.8598,-21.3498],[-41.8636,-21.3495],[-41.8641,-21.3493]],[[-41.8691,-21.3434],[-41.8695,-21.3373],[-41.8662,-21.3444],[-41.8691,-21.3434],[-41.8691,-21.3434]],[[-41.8635,-21.3565],[-41.8687,-21.3498],[-41.8582,-21.3516],[-41.8622,-21.3563],[-41.8635,-21.3565]]]}},{"type":"Feature","properties":{"cod_imovel":"RJ-3305133-A40BC2781D55435594133CBB40681636","num_area":"10.382400000000000000000000000000","ind_status":"AT"},"geometry":{"type":"Polygon","coordinates":[[[-41.9012,-21.365],[-41.9029,-21.3615],[-41.9006,-21.3654],[-41.9012,-21.365]]]}},{"type":"Feature","properties":{"cod_imovel":"RJ-3305133-BF35CB44B244408CA62109E4BCA6958D","num_area":"4.8615000000000000000000000000000","ind_status":"AT"},"geometry":{"type":"Polygon","coordinates":[[[-41.9435,-21.3837],[-41.9471,-21.3837],[-41.9436,-21.3837],[-41.9435,-21.3837]]]}},{"type":"Feature","properties":{"cod_imovel":"RJ-3305133-D45F753415114236843B8BE5C5C8E844","num_area":"17.006200000000000000000000000000","ind_status":"AT"},"geometry":{"type":"Polygon","coordinates":[[[-42.0296,-21.3347],[-42.0264,-21.3343],[-42.0293,-21.3349],[-42.0296,-21.3347]],[[-42.0249,-21.3368],[-42.0244,-21.332],[-42.0247,-21.3366],[-42.0249,-21.3368]]]}},{"type":"Feature","properties":{"cod_imovel":"RJ-3305133-50131A509E1F4BB5AAFF651E46155DA4","num_area":"16.021900000000000000000000000000","ind_status":"AT"},"geometry":{"type":"Polygon","coordinates":[[[-41.9245,-21.37],[-41.9219,-21.3666],[-41.9194,-21.3699],[-41.9244,-21.37],[-41.9245,-21.37]]]}},{"type":"Feature","properties":{"cod_imovel":"RJ-3305133-D01393C317A14A6EB2F007CFA4501A6D","num_area":"11.498700000000000000000000000000","ind_status":"AT"},"geometry":{"type":"Polygon","coordinates":[[[-41.9156,-21.375],[-41.9188,-21.3727],[-41.9149,-21.3753],[-41.9156,-21.375]]]}},{"type":"Feature","properties":{"cod_imovel":"RJ-3305133-4A4BA06BFCFE4EFB9A04CB623999135A","num_area":"18.730800000000000000000000000000","ind_status":"AT"},"geometry":{"type":"Polygon","coordinates":[[[-41.9013,-21.3959],[-41.9052,-21.3961],[-41.8986,-21.3927],[-41.9012,-21.3957],[-41.9013,-21.3959]]]}},{"type":"Feature","properties":{"cod_imovel":"RJ-3305133-9CACACC167FD48C4A818A87DA6399F22","num_area":"9.4830000000000000000000000000000","ind_status":"AT"},"geometry":{"type":"Polygon","coordinates":[[[-41.9466,-21.3288],[-41.9481,-21.3324],[-41.947,-21.3291],[-41.9466,-21.3288]]]}},{"type":"Feature","properties":{"cod_imovel":"RJ-3305133-C6ABD39F533E48C691F41F525F583BA2","num_area":"4.0654000000000000000000000000000","ind_status":"AT"},"geometry":{"type":"Polygon","coordinates":[[[-42.0301,-21.3548],[-42.0302,-21.3518],[-42.0302,-21.3548],[-42.0301,-21.3548]]]}},{"type":"Feature","properties":{"cod_imovel":"RJ-3305133-9AA54AD3C6C448B1AE03F55E2CD16C99","num_area":"69.642200000000000000000000000000","ind_status":"AT"},"geometry":{"type":"Polygon","coordinates":[[[-42.0327,-21.3741],[-42.0172,-21.3686],[-42.0259,-21.3766],[-42.0318,-21.3746],[-42.0327,-21.3741]]]}},{"type":"Feature","properties":{"cod_imovel":"RJ-3305133-1821828290BB4928ABF55DB949E9449E","num_area":"12.991300000000000000000000000000","ind_status":"AT"},"geometry":{"type":"Polygon","coordinates":[[[-42.013,-21.3658],[-42.0115,-21.3619],[-42.0128,-21.3659],[-42.013,-21.3658]],[[-42.0087,-21.3652],[-42.0121,-21.3664],[-42.0088,-21.3651],[-42.0087,-21.3652]]]}},{"type":"Feature","properties":{"cod_imovel":"RJ-3305133-61D3505B28BE4BFD9E5E090C67C1C56F","num_area":"12.275500000000000000000000000000","ind_status":"AT"},"geometry":{"type":"Polygon","coordinates":[[[-41.823,-21.3306],[-41.8195,-21.3338],[-41.8232,-21.3307],[-41.823,-21.3306]],[[-41.8184,-21.3306],[-41.8173,-21.3275],[-41.8184,-21.3304],[-41.8184,-21.3306]]]}},{"type":"Feature","properties":{"cod_imovel":"RJ-3305133-19F1D0B0FD054D02AE8C3BF13DE22A4D","num_area":"10.921200000000000000000000000000","ind_status":"AT"},"geometry":{"type":"Polygon","coordinates":[[[-41.9769,-21.3825],[-41.9783,-21.3861],[-41.9771,-21.3823],[-41.9769,-21.3825]]]}},{"type":"Feature","properties":{"cod_imovel":"RJ-3305133-E113CF98E7B443F89346CA6A20705755","num_area":"19.548100000000000000000000000000","ind_status":"AT"},"geometry":{"type":"Polygon","coordinates":[[[-42.0051,-21.3404],[-42.0107,-21.3375],[-42.0044,-21.3373],[-42.005,-21.3403],[-42.0051,-21.3404]]]}},{"type":"Feature","properties":{"cod_imovel":"RJ-3305133-C0D71D6FF07F482E8575743BDDA49214","num_area":"9.0215000000000000000000000000000","ind_status":"AT"},"geometry":{"type":"Polygon","coordinates":[[[-41.9265,-21.3687],[-41.9233,-21.3699],[-41.9265,-21.3689],[-41.9265,-21.3687]]]}},{"type":"Feature","properties":{"cod_imovel":"RJ-3305133-223BBF10C55D48D494997E35738D24E0","num_area":"2.8500000000000000000000000000000","ind_status":"AT"},"geometry":{"type":"Polygon","coordinates":[[[-41.9298,-21.3303],[-41.9307,-21.3273],[-41.9298,-21.3307],[-41.9298,-21.3303]]]}},{"type":"Feature","properties":{"cod_imovel":"RJ-3305133-73D33C9E7E2B4F3AAD8DC8E5EF9F3509","num_area":"3.7965000000000000000000000000000","ind_status":"AT"},"geometry":{"type":"Polygon","coordinates":[[[-41.9335,-21.3311],[-41.9332,-21.3354],[-41.9338,-21.3312],[-41.9335,-21.3311]]]}},{"type":"Feature","properties":{"cod_imovel":"RJ-3305133-26567E016CDC4BCE88CDF0BA729F800B","num_area":"7.5579000000000000000000000000000","ind_status":"AT"},"geometry":{"type":"Polygon","coordinates":[[[-41.9457,-21.3302],[-41.942,-21.3263],[-41.9457,-21.3303],[-41.9457,-21.3302]]]}},{"type":"Feature","properties":{"cod_imovel":"RJ-3305133-16E42BBC0E6242F489F9C6898D807924","num_area":"8.8681000000000000000000000000000","ind_status":"AT"},"geometry":{"type":"Polygon","coordinates":[[[-41.9506,-21.3135],[-41.9468,-21.3107],[-41.9509,-21.3136],[-41.9506,-21.3135]]]}},{"type":"Feature","properties":{"cod_imovel":"RJ-3305133-BF388B6689E7418F8E43E7571F9926BB","num_area":"4.6833000000000000000000000000000","ind_status":"AT"},"geometry":{"type":"Polygon","coordinates":[[[-41.9357,-21.317],[-41.939,-21.3191],[-41.935,-21.3166],[-41.9357,-21.317]]]}},{"type":"Feature","properties":{"cod_imovel":"RJ-3305133-5BABB4E330F243FDA74EA2FE9B387D0B","num_area":"8.0349000000000000000000000000000","ind_status":"AT"},"geometry":{"type":"Polygon","coordinates":[[[-41.9755,-21.3901],[-41.981,-21.3881],[-41.9753,-21.39],[-41.9755,-21.3901]]]}},{"type":"Feature","properties":{"cod_imovel":"RJ-3305133-1E4AAC8B3A0046C0A12866B45FF1694D","num_area":"12.413000000000000000000000000000","ind_status":"AT"},"geometry":{"type":"Polygon","coordinates":[[[-41.9393,-21.4109],[-41.9437,-21.4135],[-41.9401,-21.4113],[-41.9393,-21.4109]]]}},{"type":"Feature","properties":{"cod_imovel":"RJ-3305133-62E923B31B3648D2B4923BA9EB23B807","num_area":"26.025000000000000000000000000000","ind_status":"AT"},"geometry":{"type":"Polygon","coordinates":[[[-41.9075,-21.306],[-41.8976,-21.3035],[-41.9076,-21.3062],[-41.9075,-21.306]]]}},{"type":"Feature","properties":{"cod_imovel":"RJ-3305133-784C73BA297D444FA548975DF7016377","num_area":"21.080000000000000000000000000000","ind_status":"AT"},"geometry":{"type":"Polygon","coordinates":[[[-41.8458,-21.3287],[-41.8409,-21.3302],[-41.8446,-21.3293],[-41.8458,-21.3287]],[[-41.8611,-21.318],[-41.8565,-21.319],[-41.861,-21.32],[-41.8611,-21.318]]]}},{"type":"Feature","properties":{"cod_imovel":"RJ-3305133-518567813ABE4C5498884748B754E9F2","num_area":"34.505400000000000000000000000000","ind_status":"AT"},"geometry":{"type":"Polygon","coordinates":[[[-41.9699,-21.4592],[-41.9688,-21.4682],[-41.9728,-21.4663],[-41.9698,-21.4599],[-41.9699,-21.4592]]]}},{"type":"Feature","properties":{"cod_imovel":"RJ-3305133-338EF1374958490984DD0C8AD10976DE","num_area":"16.030400000000000000000000000000","ind_status":"AT"},"geometry":{"type":"Polygon","coordinates":[[[-41.9824,-21.3899],[-41.9813,-21.3942],[-41.9826,-21.3902],[-41.9824,-21.3899]]]}},{"type":"Feature","properties":{"cod_imovel":"RJ-3305133-1300E2F72C604A5EBF996423B7C4AAC7","num_area":"4.9928000000000000000000000000000","ind_status":"AT"},"geometry":{"type":"Polygon","coordinates":[[[-42.0295,-21.3384],[-42.0322,-21.341],[-42.0297,-21.3384],[-42.0295,-21.3384]]]}},{"type":"Feature","properties":{"cod_imovel":"RJ-3305133-1E24D849C16C4BB2AA5B442D8387D976","num_area":"1.9032000000000000000000000000000","ind_status":"AT"},"geometry":{"type":"Polygon","coordinates":[[[-41.9121,-21.3892],[-41.9125,-21.3859],[-41.912,-21.3891],[-41.9121,-21.3892]]]}},{"type":"Feature","properties":{"cod_imovel":"RJ-3305133-5F7FA045D32A49ABA8676B41A8A8BFAB","num_area":"6.8411000000000000000000000000000","ind_status":"AT"},"geometry":{"type":"Polygon","coordinates":[[[-41.9707,-21.4356],[-41.9741,-21.4341],[-41.9704,-21.4356],[-41.9707,-21.4356]]]}},{"type":"Feature","properties":{"cod_imovel":"RJ-3305133-DF509FE9D037499785FB498C0917715C","num_area":"35.807300000000000000000000000000","ind_status":"AT"},"geometry":{"type":"Polygon","coordinates":[[[-42.0316,-21.3871],[-42.0263,-21.3883],[-42.0303,-21.3897],[-42.0316,-21.3871]],[[-42.0277,-21.3784],[-42.0239,-21.3834],[-42.0277,-21.379],[-42.0277,-21.3784]],[[-42.0251,-21.3798],[-42.0233,-21.3834],[-42.0252,-21.38],[-42.0251,-21.3798]]]}},{"type":"Feature","properties":{"cod_imovel":"RJ-3305133-A18086C46B7D48C79C298B019615C948","num_area":"10.182300000000000000000000000000","ind_status":"AT"},"geometry":{"type":"Polygon","coordinates":[[[-41.8513,-21.3051],[-41.8591,-21.3103],[-41.8516,-21.3048],[-41.8513,-21.3051]]]}},{"type":"Feature","properties":{"cod_imovel":"RJ-3305133-449F2ECDDCE14A228A94C71B81530141","num_area":"3.6511000000000000000000000000000","ind_status":"AT"},"geometry":{"type":"Polygon","coordinates":[[[-41.8977,-21.3938],[-41.9004,-21.3919],[-41.8977,-21.3937],[-41.8977,-21.3938]]]}},{"type":"Feature","properties":{"cod_imovel":"RJ-3305133-13293D0BA75F4BD1B3FC32CA74CE7E4E","num_area":"134.36060000000000000000000000000","ind_status":"PE"},"geometry":{"type":"Polygon","coordinates":[[[-42.0356,-21.4077],[-42.0292,-21.4184],[-42.0404,-21.4224],[-42.0427,-21.4184],[-42.0356,-21.4077]]]}},{"type":"Feature","properties":{"cod_imovel":"RJ-3305133-72A269BA7217466BBA22DB1C098B3E55","num_area":"27.852700000000000000000000000000","ind_status":"AT"},"geometry":{"type":"Polygon","coordinates":[[[-42.0239,-21.3754],[-42.0281,-21.3781],[-42.0243,-21.3755],[-42.0239,-21.3754]],[[-42.0221,-21.3761],[-42.02,-21.3826],[-42.0251,-21.3798],[-42.0226,-21.3763],[-42.0221,-21.3761]]]}},{"type":"Feature","properties":{"cod_imovel":"RJ-3305133-6C55093B432C412185682A5A408F76BE","num_area":"0.9976000000000000000000000000000","ind_status":"AT"},"geometry":{"type":"Polygon","coordinates":[[[-41.9636,-21.4201],[-41.9602,-21.4195],[-41.9633,-21.4206],[-41.9636,-21.4201]]]}},{"type":"Feature","properties":{"cod_imovel":"RJ-3305133-E96EBFA8A57D4A748A0EDC78607A0680","num_area":"19.285900000000000000000000000000","ind_status":"AT"},"geometry":{"type":"Polygon","coordinates":[[[-41.8753,-21.3081],[-41.8814,-21.3126],[-41.8771,-21.3081],[-41.8753,-21.3081]],[[-41.8753,-21.309],[-41.8791,-21.3123],[-41.8757,-21.3096],[-41.8753,-21.309]]]}},{"type":"Feature","properties":{"cod_imovel":"RJ-3305133-228E17B45F7E4463A6AA487E8FE547C2","num_area":"12.430900000000000000000000000000","ind_status":"AT"},"geometry":{"type":"Polygon","coordinates":[[[-41.9607,-21.3102],[-41.9652,-21.3122],[-41.9609,-21.3099],[-41.9607,-21.3102]],[[-41.9652,-21.3122],[-41.9606,-21.3103],[-41.9652,-21.3123],[-41.9652,-21.3122]]]}},{"type":"Feature","properties":{"cod_imovel":"RJ-3305133-A4B8ACE6958443C6AEE685FBD5F34763","num_area":"11.876900000000000000000000000000","ind_status":"AT"},"geometry":{"type":"Polygon","coordinates":[[[-41.9052,-21.3949],[-41.9008,-21.3953],[-41.9051,-21.3946],[-41.9052,-21.3949]]]}},{"type":"Feature","properties":{"cod_imovel":"RJ-3305133-ACB6FA79BAED452AB62C0FFC5E369706","num_area":"11.510600000000000000000000000000","ind_status":"AT"},"geometry":{"type":"Polygon","coordinates":[[[-41.8844,-21.3494],[-41.8852,-21.346],[-41.8841,-21.3495],[-41.8844,-21.3494]]]}},{"type":"Feature","properties":{"cod_imovel":"RJ-3305133-16B8CAE4762645CEB289E1A9A2E9A4F4","num_area":"3.8293000000000000000000000000000","ind_status":"AT"},"geometry":{"type":"Polygon","coordinates":[[[-41.9372,-21.3216],[-41.9353,-21.3184],[-41.9372,-21.3217],[-41.9372,-21.3216]]]}},{"type":"Feature","properties":{"cod_imovel":"RJ-3305133-26720481A14F4FFE8C70296807B2A417","num_area":"5.3617000000000000000000000000000","ind_status":"AT"},"geometry":{"type":"Polygon","coordinates":[[[-41.9225,-21.3088],[-41.927,-21.3076],[-41.9228,-21.3087],[-41.9225,-21.3088]]]}},{"type":"Feature","properties":{"cod_imovel":"RJ-3305133-FBC95271F4794629A7C5F4782F105A3F","num_area":"8.7761000000000000000000000000000","ind_status":"AT"},"geometry":{"type":"Polygon","coordinates":[[[-41.932,-21.3179],[-41.9333,-21.3144],[-41.9317,-21.3183],[-41.932,-21.3179]]]}},{"type":"Feature","properties":{"cod_imovel":"RJ-3305133-62990AEDC4E6466FAA4EA480212BBDFE","num_area":"7.3841000000000000000000000000000","ind_status":"AT"},"geometry":{"type":"Polygon","coordinates":[[[-41.9477,-21.3141],[-41.9508,-21.3136],[-41.9476,-21.3128],[-41.9477,-21.3141]]]}},{"type":"Feature","properties":{"cod_imovel":"RJ-3305133-F607901A1FAF41D8B886EE1DF4CC4368","num_area":"3.6377000000000000000000000000000","ind_status":"AT"},"geometry":{"type":"Polygon","coordinates":[[[-41.9263,-21.306],[-41.9218,-21.3076],[-41.9262,-21.3062],[-41.9263,-21.306]]]}},{"type":"Feature","properties":{"cod_imovel":"RJ-3305133-BF37DB67724941CF92EE93E878FBCFBB","num_area":"8.7134000000000000000000000000000","ind_status":"AT"},"geometry":{"type":"Polygon","coordinates":[[[-41.8723,-21.3588],[-41.8768,-21.3614],[-41.8736,-21.3575],[-41.8723,-21.3588]]]}},{"type":"Feature","properties":{"cod_imovel":"RJ-3305133-1E01DECE54CF4821AAC2FBDC8B80B5FB","num_area":"7.3213000000000000000000000000000","ind_status":"AT"},"geometry":{"type":"Polygon","coordinates":[[[-41.9313,-21.4195],[-41.931,-21.4164],[-41.9312,-21.4197],[-41.9313,-21.4195]]]}},{"type":"Feature","properties":{"cod_imovel":"RJ-3305133-06C68999FE5D40418D346DF51D33FD80","num_area":"23.488000000000000000000000000000","ind_status":"AT"},"geometry":{"type":"Polygon","coordinates":[[[-42.0305,-21.3661],[-42.0321,-21.3616],[-42.0302,-21.3657],[-42.0305,-21.3661]],[[-42.0226,-21.3559],[-42.025,-21.3597],[-42.0232,-21.3562],[-42.0226,-21.3559]]]}},{"type":"Feature","properties":{"cod_imovel":"RJ-3305133-26CE31C7CBC845F5B1E58126C2571910","num_area":"9.0910000000000000000000000000000","ind_status":"AT"},"geometry":{"type":"Polygon","coordinates":[[[-42.0128,-21.3421],[-42.0075,-21.3409],[-42.012,-21.3422],[-42.0128,-21.3421]]]}},{"type":"Feature","properties":{"cod_imovel":"RJ-3305133-2FE7ED8426DF4EBF81BF6D1F5EBE43CF","num_area":"7.8448000000000000000000000000000","ind_status":"AT"},"geometry":{"type":"Polygon","coordinates":[[[-41.8378,-21.3088],[-41.842,-21.3102],[-41.8377,-21.3087],[-41.8378,-21.3088]]]}},{"type":"Feature","properties":{"cod_imovel":"RJ-3305133-4901E348F3CA4FEF8CBB0C012F1C24F8","num_area":"7.0831000000000000000000000000000","ind_status":"AT"},"geometry":{"type":"Polygon","coordinates":[[[-41.9986,-21.4342],[-42.002,-21.4363],[-41.9986,-21.4338],[-41.9986,-21.4342]]]}},{"type":"Feature","properties":{"cod_imovel":"RJ-3305133-5644EBA0B2934169A6DF95AC1E4B78CB","num_area":"5.9810000000000000000000000000000","ind_status":"AT"},"geometry":{"type":"Polygon","coordinates":[[[-41.9375,-21.3994],[-41.9349,-21.4019],[-41.9373,-21.3996],[-41.9375,-21.3994]]]}},{"type":"Feature","properties":{"cod_imovel":"RJ-3305133-593C8656F2934B56B2E27E4DB1C5211B","num_area":"117.16710000000000000000000000000","ind_status":"PE"},"geometry":{"type":"Polygon","coordinates":[[[-42.01,-21.3806],[-42.0058,-21.3794],[-42.0102,-21.3808],[-42.01,-21.3806]],[[-42.0187,-21.3716],[-42.0066,-21.3712],[-42.0111,-21.3768],[-42.0187,-21.3757],[-42.0172,-21.381],[-42.0218,-21.378],[-42.0202,-21.3725],[-42.0187,-21.3716]]]}},{"type":"Feature","properties":{"cod_imovel":"RJ-3305133-599EA4BD965046559066BA593411BF46","num_area":"1.9637000000000000000000000000000","ind_status":"AT"},"geometry":{"type":"Polygon","coordinates":[[[-41.8528,-21.3064],[-41.8489,-21.3028],[-41.8526,-21.3064],[-41.8528,-21.3064]]]}},{"type":"Feature","properties":{"cod_imovel":"RJ-3305133-666E5FD92DB34D6ABF51E95AEC21C266","num_area":"18.925900000000000000000000000000","ind_status":"AT"},"geometry":{"type":"Polygon","coordinates":[[[-42.011,-21.3624],[-42.0043,-21.3637],[-42.0103,-21.3631],[-42.011,-21.3624]]]}},{"type":"Feature","properties":{"cod_imovel":"RJ-3305133-67C04B0A0A914793979BAE0C1A64C318","num_area":"1.0626000000000000000000000000000","ind_status":"AT"},"geometry":{"type":"Polygon","coordinates":[[[-41.9584,-21.3803],[-41.9572,-21.3774],[-41.9584,-21.3803],[-41.9584,-21.3803]]]}},{"type":"Feature","properties":{"cod_imovel":"RJ-3305133-74879D19EA684A3EB8E30F7D3A84D0A6","num_area":"116.01930000000000000000000000000","ind_status":"AT"},"geometry":{"type":"Polygon","coordinates":[[[-41.8971,-21.3426],[-41.9001,-21.3431],[-41.8971,-21.3426],[-41.8971,-21.3426]],[[-41.882,-21.3369],[-41.8777,-21.3397],[-41.8822,-21.3373],[-41.882,-21.3369]],[[-41.869,-21.3308],[-41.8658,-21.3321],[-41.8693,-21.3308],[-41.869,-21.3308]],[[-41.873,-21.326],[-41.8735,-21.3301],[-41.873,-21.3259],[-41.873,-21.326]],[[-41.8715,-21.3391],[-41.8692,-21.346],[-41.8779,-21.3455],[-41.872,-21.3389],[-41.8715,-21.3391]],[[-41.8812,-21.3499],[-41.8912,-21.3426],[-41.8881,-21.3331],[-41.8814,-21.349],[-41.8812,-21.3499]]]}},{"type":"Feature","properties":{"cod_imovel":"RJ-3305133-A62DE0C0CA2740C4A46212C45114DE35","num_area":"4.7517000000000000000000000000000","ind_status":"AT"},"geometry":{"type":"Polygon","coordinates":[[[-41.8948,-21.3599],[-41.8982,-21.361],[-41.8941,-21.3595],[-41.8948,-21.3599]]]}},{"type":"Feature","properties":{"cod_imovel":"RJ-3305133-A9A93DEB57BA43DB9E30ED8A37E6D025","num_area":"6.4421000000000000000000000000000","ind_status":"AT"},"geometry":{"type":"Polygon","coordinates":[[[-41.9586,-21.3805],[-41.9542,-21.3757],[-41.9586,-21.3805],[-41.9586,-21.3805]]]}},{"type":"Feature","properties":{"cod_imovel":"RJ-3305133-A9A82ADA8B5F437BA44DED09A5C580B7","num_area":"7.6997000000000000000000000000000","ind_status":"AT"},"geometry":{"type":"Polygon","coordinates":[[[-41.976,-21.3152],[-41.9792,-21.3165],[-41.976,-21.3152],[-41.976,-21.3152]],[[-41.9726,-21.3149],[-41.9725,-21.3113],[-41.9718,-21.3149],[-41.9726,-21.3149]]]}},{"type":"Feature","properties":{"cod_imovel":"RJ-3305133-A870B357D7DE4CA19FAD1CD16CFC3A2D","num_area":"31.777700000000000000000000000000","ind_status":"AT"},"geometry":{"type":"Polygon","coordinates":[[[-41.9902,-21.45],[-41.9911,-21.455],[-41.9968,-21.4544],[-41.9907,-21.45],[-41.9902,-21.45]]]}},{"type":"Feature","properties":{"cod_imovel":"RJ-3305133-AFD7D9ED3A34429296944257927CC99F","num_area":"12.391100000000000000000000000000","ind_status":"AT"},"geometry":{"type":"Polygon","coordinates":[[[-41.9422,-21.3255],[-41.9471,-21.3285],[-41.9436,-21.3249],[-41.9422,-21.3255]]]}},{"type":"Feature","properties":{"cod_imovel":"RJ-3305133-BCFE9006878544EE9481702C2B879212","num_area":"14.686800000000000000000000000000","ind_status":"AT"},"geometry":{"type":"Polygon","coordinates":[[[-41.9722,-21.3987],[-41.9708,-21.3959],[-41.9721,-21.3988],[-41.9722,-21.3987]],[[-41.9694,-21.3963],[-41.9649,-21.4004],[-41.9694,-21.3965],[-41.9694,-21.3963]]]}},{"type":"Feature","properties":{"cod_imovel":"RJ-3305133-EE6912CF6BE1493885F6C04DB4C1A9A6","num_area":"42.939100000000000000000000000000","ind_status":"AT"},"geometry":{"type":"Polygon","coordinates":[[[-42.0316,-21.3444],[-42.0316,-21.3386],[-42.0268,-21.342],[-42.0313,-21.3447],[-42.0316,-21.3444]],[[-42.0301,-21.3465],[-42.0266,-21.343],[-42.0252,-21.3472],[-42.0291,-21.3483],[-42.0301,-21.3465]]]}},{"type":"Feature","properties":{"cod_imovel":"RJ-3305133-F71C4FF2FD1942A9AEF0796135BD69E1","num_area":"9.6603000000000000000000000000000","ind_status":"AT"},"geometry":{"type":"Polygon","coordinates":[[[-41.999,-21.3505],[-41.9996,-21.3552],[-41.9991,-21.3505],[-41.999,-21.3505]]]}},{"type":"Feature","properties":{"cod_imovel":"RJ-3305133-FCB92597E1424646BEA7FB1475A28CFF","num_area":"4.5215000000000000000000000000000","ind_status":"AT"},"geometry":{"type":"Polygon","coordinates":[[[-41.9526,-21.3666],[-41.9557,-21.3681],[-41.9527,-21.3664],[-41.9526,-21.3666]]]}}]}