{"type":"FeatureCollection","features":[{"type":"Feature","properties":{"cod_imovel":"RJ-3305505-51E5FB6129674B7796325FFF1C862598","num_area":"14.116300000000000000000000000000","ind_status":"AT"},"geometry":{"type":"Polygon","coordinates":[[[-42.5024,-22.8378],[-42.5005,-22.8319],[-42.5025,-22.8392],[-42.5024,-22.8378]]]}},{"type":"Feature","properties":{"cod_imovel":"RJ-3305505-6E76B188DE35412AAD498872F361910D","num_area":"93.685600000000000000000000000000","ind_status":"AT"},"geometry":{"type":"Polygon","coordinates":[[[-42.6715,-22.8796],[-42.665,-22.884],[-42.6715,-22.8796],[-42.6715,-22.8796]],[[-42.6651,-22.8799],[-42.6571,-22.8806],[-42.6573,-22.8845],[-42.6632,-22.8841],[-42.6609,-22.8812],[-42.6649,-22.884],[-42.6651,-22.8799],[-42.6651,-22.8799]],[[-42.6702,-22.8837],[-42.6781,-22.8833],[-42.6791,-22.8791],[-42.6703,-22.8836],[-42.6702,-22.8837]]]}},{"type":"Feature","properties":{"cod_imovel":"RJ-3305505-83B2B419D12B4A779008778F3CC5CBFD","num_area":"16.030400000000000000000000000000","ind_status":"AT"},"geometry":{"type":"Polygon","coordinates":[[[-42.5584,-22.9011],[-42.5543,-22.9013],[-42.5584,-22.9013],[-42.5584,-22.9011]]]}},{"type":"Feature","properties":{"cod_imovel":"RJ-3305505-02265D97FFC94428A70FF26A60EAA0E2","num_area":"72.235600000000000000000000000000","ind_status":"SU"},"geometry":{"type":"Polygon","coordinates":[[[-42.6112,-22.8363],[-42.6165,-22.8353],[-42.6091,-22.8367],[-42.6112,-22.8363]],[[-42.6241,-22.848],[-42.6309,-22.8452],[-42.6218,-22.8419],[-42.617,-22.8458],[-42.6222,-22.8442],[-42.6208,-22.8475],[-42.6241,-22.848]],[[-42.6138,-22.8414],[-42.6177,-22.8422],[-42.6145,-22.841],[-42.6138,-22.8414]]]}},{"type":"Feature","properties":{"cod_imovel":"RJ-3305505-DF9EC77439CD429B87CC015C0348F404","num_area":"12.512600000000000000000000000000","ind_status":"AT"},"geometry":{"type":"Polygon","coordinates":[[[-42.5028,-22.9107],[-42.5011,-22.9077],[-42.5026,-22.9108],[-42.5028,-22.9107]],[[-42.5043,-22.9063],[-42.5007,-22.9081],[-42.5044,-22.9067],[-42.5043,-22.9063]]]}},{"type":"Feature","properties":{"cod_imovel":"RJ-3305505-07843EBD987649358429AA2C1AC74F6F","num_area":"7.4427000000000000000000000000000","ind_status":"AT"},"geometry":{"type":"Polygon","coordinates":[[[-42.5376,-22.8377],[-42.5405,-22.8395],[-42.5378,-22.8377],[-42.5376,-22.8377]]]}},{"type":"Feature","properties":{"cod_imovel":"RJ-3305505-6284FE72FC3A49F3A104D65AD16AB06E","num_area":"2.3642000000000000000000000000000","ind_status":"PE"},"geometry":{"type":"Polygon","coordinates":[[[-42.4417,-22.8964],[-42.4402,-22.8933],[-42.4414,-22.8963],[-42.4417,-22.8964]]]}},{"type":"Feature","properties":{"cod_imovel":"RJ-3305505-7CFBEC4E9CCE41129E6252B6C1918A6E","num_area":"2.0950000000000000000000000000000","ind_status":"AT"},"geometry":{"type":"Polygon","coordinates":[[[-42.5147,-22.8468],[-42.5155,-22.8435],[-42.5142,-22.8468],[-42.5147,-22.8468]]]}},{"type":"Feature","properties":{"cod_imovel":"RJ-3305505-106C7376177C4B51A2EDA06D253D1020","num_area":"43.161700000000000000000000000000","ind_status":"AT"},"geometry":{"type":"Polygon","coordinates":[[[-42.576,-22.826],[-42.5795,-22.8233],[-42.5759,-22.826],[-42.576,-22.826]],[[-42.589,-22.8319],[-42.5915,-22.8287],[-42.5839,-22.8261],[-42.589,-22.8319],[-42.589,-22.8319]]]}},{"type":"Feature","properties":{"cod_imovel":"RJ-3305505-CD7E171B135E432F9E9F9763E3EB8F80","num_area":"32.988300000000000000000000000000","ind_status":"AT"},"geometry":{"type":"Polygon","coordinates":[[[-42.5911,-22.835],[-42.5869,-22.8341],[-42.5907,-22.8351],[-42.5911,-22.835]],[[-42.593,-22.8487],[-42.5969,-22.8489],[-42.5972,-22.8421],[-42.5931,-22.8483],[-42.593,-22.8487]]]}},{"type":"Feature","properties":{"cod_imovel":"RJ-3304300-C8074E943C31444A952CD23434F59A69","num_area":"149.99010000000000000000000000000","ind_status":"PE"},"geometry":{"type":"Polygon","coordinates":[[[-42.6209,-22.8422],[-42.6245,-22.8436],[-42.621,-22.8421],[-42.6209,-22.8422]],[[-42.6112,-22.8384],[-42.616,-22.8397],[-42.6115,-22.8378],[-42.6112,-22.8384]],[[-42.6342,-22.8545],[-42.6371,-22.8515],[-42.6326,-22.8461],[-42.6341,-22.8545],[-42.6342,-22.8545]],[[-42.6284,-22.839],[-42.6346,-22.8445],[-42.6347,-22.8403],[-42.6285,-22.8389],[-42.6284,-22.839]],[[-42.6347,-22.8403],[-42.6272,-22.8357],[-42.6343,-22.8404],[-42.6347,-22.8403]],[[-42.6481,-22.8593],[-42.6511,-22.8526],[-42.6468,-22.8551],[-42.6474,-22.8491],[-42.6472,-22.8544],[-42.6416,-22.8553],[-42.6481,-22.8593],[-42.6481,-22.8593]],[[-42.6217,-22.8354],[-42.6251,-22.8359],[-42.6217,-22.8354],[-42.6217,-22.8354]],[[-42.6251,-22.8359],[-42.6177,-22.8351],[-42.6248,-22.836],[-42.6251,-22.8359]],[[-42.6176,-22.8352],[-42.6236,-22.8403],[-42.6176,-22.8352],[-42.6176,-22.8352]],[[-42.617,-22.8351],[-42.6124,-22.8361],[-42.6169,-22.8353],[-42.617,-22.8351]],[[-42.6124,-22.8361],[-42.6236,-22.8404],[-42.6126,-22.8361],[-42.6124,-22.8361]]]}},{"type":"Feature","properties":{"cod_imovel":"RJ-3305505-E181058CF2BE4F7298CB7F4EF0B0499F","num_area":"260.80070000000000000000000000000","ind_status":"AT"},"geometry":{"type":"Polygon","coordinates":[[[-42.4048,-22.9221],[-42.4043,-22.9144],[-42.3927,-22.9152],[-42.3915,-22.9334],[-42.4037,-22.9322],[-42.4044,-22.9222],[-42.4048,-22.9221]]]}},{"type":"Feature","properties":{"cod_imovel":"RJ-3305505-E52920D8003645459093970BC92CA52F","num_area":"10.703600000000000000000000000000","ind_status":"AT"},"geometry":{"type":"Polygon","coordinates":[[[-42.4122,-22.8668],[-42.4086,-22.8655],[-42.4122,-22.8668],[-42.4122,-22.8668]]]}},{"type":"Feature","properties":{"cod_imovel":"RJ-3305505-D219C6A6EBCB4E3A8F829F4D16D9C23C","num_area":"31.048600000000000000000000000000","ind_status":"AT"},"geometry":{"type":"Polygon","coordinates":[[[-42.6511,-22.8787],[-42.6642,-22.8794],[-42.651,-22.8786],[-42.6511,-22.8787]],[[-42.6642,-22.8794],[-42.6614,-22.8776],[-42.6641,-22.8793],[-42.6642,-22.8794]]]}},{"type":"Feature","properties":{"cod_imovel":"RJ-3305505-A8CFA37EEFF940989401C06C47733AA7","num_area":"11.444600000000000000000000000000","ind_status":"AT"},"geometry":{"type":"Polygon","coordinates":[[[-42.5249,-22.8325],[-42.5204,-22.8316],[-42.5246,-22.8326],[-42.5249,-22.8325]]]}},{"type":"Feature","properties":{"cod_imovel":"RJ-3305505-CD335D4DFF1447B89BBC7191E4EE9D62","num_area":"4.6014000000000000000000000000000","ind_status":"AT"},"geometry":{"type":"Polygon","coordinates":[[[-42.6407,-22.8689],[-42.6422,-22.866],[-42.6404,-22.8688],[-42.6407,-22.8689]]]}},{"type":"Feature","properties":{"cod_imovel":"RJ-3305505-951FAC695B78403CAF7E347197DBCA54","num_area":"16.891100000000000000000000000000","ind_status":"AT"},"geometry":{"type":"Polygon","coordinates":[[[-42.4819,-22.864],[-42.4818,-22.868],[-42.4868,-22.8662],[-42.4825,-22.8639],[-42.4819,-22.864]]]}},{"type":"Feature","properties":{"cod_imovel":"RJ-3305505-0D1999D1F35D4DFBA61E9BACD899A10A","num_area":"38.344300000000000000000000000000","ind_status":"AT"},"geometry":{"type":"Polygon","coordinates":[[[-42.4964,-22.841],[-42.4951,-22.8472],[-42.4973,-22.8411],[-42.4964,-22.841]],[[-42.4927,-22.8406],[-42.4909,-22.8475],[-42.493,-22.8433],[-42.4927,-22.8406]]]}},{"type":"Feature","properties":{"cod_imovel":"RJ-3305505-BF6175DB2E134DCD8D038D425337814F","num_area":"83.780700000000000000000000000000","ind_status":"AT"},"geometry":{"type":"Polygon","coordinates":[[[-42.4797,-22.8486],[-42.487,-22.8476],[-42.4872,-22.8396],[-42.4787,-22.8397],[-42.4784,-22.8485],[-42.4797,-22.8486]]]}},{"type":"Feature","properties":{"cod_imovel":"RJ-3305505-4139AB06F64E4B6786CDA55D00AB15EF","num_area":"4.6527000000000000000000000000000","ind_status":"AT"},"geometry":{"type":"Polygon","coordinates":[[[-42.665,-22.8896],[-42.6629,-22.8866],[-42.663,-22.8897],[-42.665,-22.8896]]]}},{"type":"Feature","properties":{"cod_imovel":"RJ-3305505-64CEF217E53A4163A0A43DD5E9647BB8","num_area":"9.6157000000000000000000000000000","ind_status":"PE"},"geometry":{"type":"Polygon","coordinates":[[[-42.5142,-22.8514],[-42.5187,-22.8507],[-42.5142,-22.8514],[-42.5142,-22.8514]]]}},{"type":"Feature","properties":{"cod_imovel":"RJ-3305505-C7BC3D3BB755407DB08063A3B29D738E","num_area":"13.498100000000000000000000000000","ind_status":"PE"},"geometry":{"type":"Polygon","coordinates":[[[-42.4323,-22.8614],[-42.4355,-22.8578],[-42.4328,-22.8613],[-42.4323,-22.8614]]]}},{"type":"Feature","properties":{"cod_imovel":"RJ-3305505-3BD2543FCEC447D2A5AE6DE960A6E268","num_area":"3.0803000000000000000000000000000","ind_status":"PE"},"geometry":{"type":"Polygon","coordinates":[[[-42.5521,-22.8379],[-42.5498,-22.8412],[-42.5521,-22.8379],[-42.5521,-22.8379]]]}},{"type":"Feature","properties":{"cod_imovel":"RJ-3305505-92519DF01B7741FAB58EF9D7AE30399C","num_area":"14.055700000000000000000000000000","ind_status":"PE"},"geometry":{"type":"Polygon","coordinates":[[[-42.5746,-22.8437],[-42.5703,-22.8428],[-42.5659,-22.8515],[-42.5633,-22.8493],[-42.5656,-22.8525],[-42.5707,-22.8432],[-42.5749,-22.8438],[-42.5746,-22.8437]],[[-42.5631,-22.8486],[-42.5644,-22.855],[-42.5631,-22.8486],[-42.5631,-22.8486]],[[-42.5644,-22.855],[-42.5708,-22.8434],[-42.5761,-22.8442],[-42.5707,-22.8432],[-42.5645,-22.855],[-42.5644,-22.855]]]}},{"type":"Feature","properties":{"cod_imovel":"RJ-3305505-B0F8D5D6AA624EE5A94B6B730786AC79","num_area":"4.7829000000000000000000000000000","ind_status":"PE"},"geometry":{"type":"Polygon","coordinates":[[[-42.4522,-22.8509],[-42.4543,-22.8534],[-42.4523,-22.8509],[-42.4522,-22.8509]]]}},{"type":"Feature","properties":{"cod_imovel":"RJ-3305505-397F8CA280C14475B88D803BC6AC92E2","num_area":"14.836000000000000000000000000000","ind_status":"AT"},"geometry":{"type":"Polygon","coordinates":[[[-42.5751,-22.8732],[-42.5765,-22.8806],[-42.5758,-22.8727],[-42.5751,-22.8732]]]}},{"type":"Feature","properties":{"cod_imovel":"RJ-3305505-E0D3DED129164D59998CE032E33E91A8","num_area":"56.026000000000000000000000000000","ind_status":"AT"},"geometry":{"type":"Polygon","coordinates":[[[-42.4621,-22.822],[-42.4656,-22.8229],[-42.4621,-22.822],[-42.4621,-22.822]],[[-42.4656,-22.8229],[-42.4703,-22.8219],[-42.4656,-22.8227],[-42.4656,-22.8229]],[[-42.4665,-22.8232],[-42.4734,-22.8232],[-42.4685,-22.8257],[-42.4721,-22.827],[-42.4754,-22.8232],[-42.4665,-22.8232],[-42.4665,-22.8232]],[[-42.4727,-22.8225],[-42.4695,-22.8224],[-42.4727,-22.8225],[-42.4727,-22.8225]]]}},{"type":"Feature","properties":{"cod_imovel":"RJ-3305505-345D68388C3D42F4BF3928C0811540A3","num_area":"20.511500000000000000000000000000","ind_status":"AT"},"geometry":{"type":"Polygon","coordinates":[[[-42.5893,-22.8187],[-42.5847,-22.818],[-42.5892,-22.8187],[-42.5893,-22.8187]],[[-42.5844,-22.8196],[-42.5923,-22.8195],[-42.5846,-22.8193],[-42.5844,-22.8196]]]}},{"type":"Feature","properties":{"cod_imovel":"RJ-3305505-86BA8A2AA15646988636F9EF015D458A","num_area":"6.1514000000000000000000000000000","ind_status":"AT"},"geometry":{"type":"Polygon","coordinates":[[[-42.6308,-22.8657],[-42.6291,-22.8627],[-42.6308,-22.8655],[-42.6308,-22.8657]]]}},{"type":"Feature","properties":{"cod_imovel":"RJ-3305505-9478CE6810C14F5CA4BBADEF8BDBE757","num_area":"12.935100000000000000000000000000","ind_status":"AT"},"geometry":{"type":"Polygon","coordinates":[[[-42.6638,-22.89],[-42.6623,-22.8929],[-42.6665,-22.8931],[-42.6642,-22.89],[-42.6638,-22.89]]]}},{"type":"Feature","properties":{"cod_imovel":"RJ-3305505-565BE80F1E154FAD8BEA3B95EFD256FF","num_area":"5.0679000000000000000000000000000","ind_status":"AT"},"geometry":{"type":"Polygon","coordinates":[[[-42.6377,-22.8925],[-42.6395,-22.8955],[-42.6377,-22.8924],[-42.6377,-22.8925]]]}},{"type":"Feature","properties":{"cod_imovel":"RJ-3305505-14323C21C19E45F3AB031DC6F174F1E4","num_area":"125.19240000000000000000000000000","ind_status":"AT"},"geometry":{"type":"Polygon","coordinates":[[[-42.5261,-22.852],[-42.5229,-22.8506],[-42.5264,-22.8523],[-42.5261,-22.852]],[[-42.5129,-22.8875],[-42.5196,-22.8888],[-42.5129,-22.8866],[-42.5129,-22.8875]],[[-42.5119,-22.8761],[-42.5129,-22.8821],[-42.5159,-22.8784],[-42.5127,-22.8766],[-42.5119,-22.8761]],[[-42.5372,-22.8651],[-42.5269,-22.853],[-42.52,-22.8551],[-42.5372,-22.866],[-42.5372,-22.8651]]]}},{"type":"Feature","properties":{"cod_imovel":"RJ-3305505-6DBF23F03A6444879E3D6F91CF0B08B5","num_area":"29.606000000000000000000000000000","ind_status":"AT"},"geometry":{"type":"Polygon","coordinates":[[[-42.4412,-22.8253],[-42.4392,-22.8208],[-42.4351,-22.8249],[-42.4412,-22.8253],[-42.4412,-22.8253]]]}},{"type":"Feature","properties":{"cod_imovel":"RJ-3305505-D17E1C78DEBE44B8B069765D739E691E","num_area":"56.046700000000000000000000000000","ind_status":"AT"},"geometry":{"type":"Polygon","coordinates":[[[-42.4686,-22.8156],[-42.4626,-22.8143],[-42.4704,-22.8161],[-42.4686,-22.8156]],[[-42.4592,-22.817],[-42.4597,-22.823],[-42.4694,-22.8208],[-42.4603,-22.8155],[-42.4592,-22.817]]]}},{"type":"Feature","properties":{"cod_imovel":"RJ-3305505-D5B8326D1B9843C4AD6298F87BCC7A23","num_area":"10.592700000000000000000000000000","ind_status":"AT"},"geometry":{"type":"Polygon","coordinates":[[[-42.4592,-22.8343],[-42.4627,-22.8292],[-42.4589,-22.834],[-42.4592,-22.8343]]]}},{"type":"Feature","properties":{"cod_imovel":"RJ-3305505-578A3E340BB144D5BCAB9667B5BFDBA5","num_area":"6.8759000000000000000000000000000","ind_status":"AT"},"geometry":{"type":"Polygon","coordinates":[[[-42.5097,-22.8349],[-42.5099,-22.8397],[-42.511,-22.8349],[-42.5097,-22.8349]]]}},{"type":"Feature","properties":{"cod_imovel":"RJ-3305505-BC2373FEE7D54C1EAEA35D043F20882D","num_area":"158.83710000000000000000000000000","ind_status":"AT"},"geometry":{"type":"Polygon","coordinates":[[[-42.6524,-22.8694],[-42.6565,-22.8649],[-42.6582,-22.8691],[-42.6592,-22.8623],[-42.6583,-22.8689],[-42.6605,-22.8623],[-42.6599,-22.8674],[-42.6627,-22.8645],[-42.6604,-22.8673],[-42.6681,-22.8682],[-42.6589,-22.8587],[-42.6467,-22.8553],[-42.6501,-22.8605],[-42.6542,-22.8577],[-42.6514,-22.8627],[-42.6556,-22.8575],[-42.6528,-22.8693],[-42.6524,-22.8694]],[[-42.6582,-22.8691],[-42.6634,-22.8686],[-42.6583,-22.8691],[-42.6582,-22.8691]],[[-42.6481,-22.8575],[-42.6501,-22.8606],[-42.6482,-22.8576],[-42.6481,-22.8575]]]}},{"type":"Feature","properties":{"cod_imovel":"RJ-3305505-B4B5C7FB04D546A3A8A0C1FFB3A089D5","num_area":"84.822300000000000000000000000000","ind_status":"AT"},"geometry":{"type":"Polygon","coordinates":[[[-42.6001,-22.8911],[-42.5772,-22.8944],[-42.6003,-22.8913],[-42.6001,-22.8911]],[[-42.5774,-22.8945],[-42.5898,-22.8957],[-42.5867,-22.8921],[-42.5775,-22.8943],[-42.5774,-22.8945]],[[-42.5893,-22.8943],[-42.5962,-22.8965],[-42.6,-22.8923],[-42.5867,-22.8921],[-42.5892,-22.8943],[-42.5893,-22.8943]],[[-42.5912,-22.8947],[-42.5962,-22.8966],[-42.5912,-22.8947],[-42.5912,-22.8947]]]}},{"type":"Feature","properties":{"cod_imovel":"RJ-3305505-2D808B2EB80446169012A86235A324FC","num_area":"3.2153000000000000000000000000000","ind_status":"AT"},"geometry":{"type":"Polygon","coordinates":[[[-42.5403,-22.9128],[-42.5448,-22.9127],[-42.5403,-22.9128],[-42.5403,-22.9128]],[[-42.5436,-22.914],[-42.5391,-22.9133],[-42.5431,-22.914],[-42.5436,-22.914]]]}},{"type":"Feature","properties":{"cod_imovel":"RJ-3305505-6C7B49681B6B4E52B1F473075F514DBB","num_area":"8.5832000000000000000000000000000","ind_status":"AT"},"geometry":{"type":"Polygon","coordinates":[[[-42.5324,-22.8334],[-42.5287,-22.8322],[-42.5324,-22.8335],[-42.5324,-22.8334]]]}},{"type":"Feature","properties":{"cod_imovel":"RJ-3305505-EE04411D2CBF4DFEB8873C2F4C0FC530","num_area":"4.1670000000000000000000000000000","ind_status":"AT"},"geometry":{"type":"Polygon","coordinates":[[[-42.5236,-22.8298],[-42.5264,-22.8322],[-42.5252,-22.8294],[-42.5236,-22.8298]]]}},{"type":"Feature","properties":{"cod_imovel":"RJ-3305505-D4FE9B873A72408F9EFFB78C1DFC2033","num_area":"27.111400000000000000000000000000","ind_status":"AT"},"geometry":{"type":"Polygon","coordinates":[[[-42.5988,-22.8184],[-42.5943,-22.8129],[-42.5923,-22.8162],[-42.5985,-22.8184],[-42.5988,-22.8184]]]}},{"type":"Feature","properties":{"cod_imovel":"RJ-3305505-AE021CF503F345D8AD9890FBC274029D","num_area":"61.519400000000000000000000000000","ind_status":"AT"},"geometry":{"type":"Polygon","coordinates":[[[-42.4843,-22.8507],[-42.4814,-22.8444],[-42.4748,-22.846],[-42.4753,-22.8522],[-42.4843,-22.8507]]]}},{"type":"Feature","properties":{"cod_imovel":"RJ-3305505-C574DA6C61D74BAE82F576DF80446DCA","num_area":"27.787500000000000000000000000000","ind_status":"AT"},"geometry":{"type":"Polygon","coordinates":[[[-42.6619,-22.8807],[-42.6562,-22.8812],[-42.6596,-22.8829],[-42.6566,-22.8852],[-42.6621,-22.8826],[-42.6619,-22.8807]],[[-42.6587,-22.8831],[-42.6531,-22.8855],[-42.6585,-22.8833],[-42.6587,-22.8831]]]}},{"type":"Feature","properties":{"cod_imovel":"RJ-3305505-C34E7BD588944451B870A9C9D289C5A3","num_area":"7.8791000000000000000000000000000","ind_status":"AT"},"geometry":{"type":"Polygon","coordinates":[[[-42.6529,-22.8815],[-42.6587,-22.8798],[-42.6534,-22.881],[-42.6529,-22.8815]]]}},{"type":"Feature","properties":{"cod_imovel":"RJ-3305505-D3830932CB394811B516A533E75DC207","num_area":"6.5639000000000000000000000000000","ind_status":"AT"},"geometry":{"type":"Polygon","coordinates":[[[-42.4551,-22.8525],[-42.4543,-22.856],[-42.4551,-22.8525],[-42.4551,-22.8525]]]}},{"type":"Feature","properties":{"cod_imovel":"RJ-3305505-3FBA5114B0D445B784D06AB93088C4E6","num_area":"11.049300000000000000000000000000","ind_status":"AT"},"geometry":{"type":"Polygon","coordinates":[[[-42.5199,-22.9038],[-42.5227,-22.9054],[-42.5199,-22.9039],[-42.5199,-22.9038]]]}},{"type":"Feature","properties":{"cod_imovel":"RJ-3305505-5465D247C1214ADE9B19431417D9947B","num_area":"4.8639000000000000000000000000000","ind_status":"AT"},"geometry":{"type":"Polygon","coordinates":[[[-42.4441,-22.8716],[-42.4484,-22.8715],[-42.4442,-22.8715],[-42.4441,-22.8716]],[[-42.4441,-22.8719],[-42.4484,-22.8716],[-42.4443,-22.8718],[-42.4441,-22.8719]]]}},{"type":"Feature","properties":{"cod_imovel":"RJ-3305505-8AB2486A104C49B5A392C36119763E52","num_area":"3.9599000000000000000000000000000","ind_status":"AT"},"geometry":{"type":"Polygon","coordinates":[[[-42.5174,-22.8943],[-42.5168,-22.8975],[-42.5196,-22.8946],[-42.5174,-22.8943]]]}},{"type":"Feature","properties":{"cod_imovel":"RJ-3305505-AAE7765B695941AAA936E2886A049892","num_area":"28.939300000000000000000000000000","ind_status":"AT"},"geometry":{"type":"Polygon","coordinates":[[[-42.4788,-22.8484],[-42.4639,-22.8477],[-42.4693,-22.8492],[-42.4788,-22.8484]]]}},{"type":"Feature","properties":{"cod_imovel":"RJ-3305505-49E0D90344964F9CB2479BE76310A749","num_area":"8.3594000000000000000000000000000","ind_status":"AT"},"geometry":{"type":"Polygon","coordinates":[[[-42.5006,-22.8949],[-42.4994,-22.8919],[-42.5003,-22.895],[-42.5006,-22.8949]]]}},{"type":"Feature","properties":{"cod_imovel":"RJ-3305505-96324B1222AF405887255A96F39FA663","num_area":"11.999800000000000000000000000000","ind_status":"AT"},"geometry":{"type":"Polygon","coordinates":[[[-42.54,-22.8156],[-42.5458,-22.8159],[-42.5401,-22.8151],[-42.54,-22.8156]]]}},{"type":"Feature","properties":{"cod_imovel":"RJ-3305505-93AD0F55C4E7402BA46D2496467C3C66","num_area":"4.6527000000000000000000000000000","ind_status":"CA"},"geometry":{"type":"Polygon","coordinates":[[[-42.665,-22.8896],[-42.6629,-22.8866],[-42.663,-22.8897],[-42.665,-22.8896]]]}},{"type":"Feature","properties":{"cod_imovel":"RJ-3305505-5A8670FFBE5F4D33A210E315F6ACA878","num_area":"21.187900000000000000000000000000","ind_status":"AT"},"geometry":{"type":"Polygon","coordinates":[[[-42.471,-22.8472],[-42.4778,-22.8466],[-42.471,-22.8471],[-42.471,-22.8472]],[[-42.4638,-22.8477],[-42.4689,-22.8473],[-42.464,-22.8476],[-42.4638,-22.8477]]]}},{"type":"Feature","properties":{"cod_imovel":"RJ-3305505-90F52FBA66B94DE3AE294C85FB67C712","num_area":"3.9848000000000000000000000000000","ind_status":"AT"},"geometry":{"type":"Polygon","coordinates":[[[-42.4895,-22.8481],[-42.4893,-22.8525],[-42.4895,-22.8481],[-42.4895,-22.8481]]]}},{"type":"Feature","properties":{"cod_imovel":"RJ-3305505-4AF698DB91D942CCB9BDB2D61DA6EA63","num_area":"47.708300000000000000000000000000","ind_status":"AT"},"geometry":{"type":"Polygon","coordinates":[[[-42.6169,-22.8686],[-42.6191,-22.8647],[-42.6105,-22.8657],[-42.6169,-22.8685],[-42.6169,-22.8686]],[[-42.617,-22.8686],[-42.6217,-22.8708],[-42.6216,-22.8648],[-42.6169,-22.8683],[-42.617,-22.8686]]]}},{"type":"Feature","properties":{"cod_imovel":"RJ-3305505-4E5E182D36804A96B0AD90D0F0E69F44","num_area":"49.627900000000000000000000000000","ind_status":"AT"},"geometry":{"type":"Polygon","coordinates":[[[-42.4382,-22.9186],[-42.4436,-22.915],[-42.4377,-22.9148],[-42.4382,-22.9182],[-42.4382,-22.9186]],[[-42.4423,-22.9252],[-42.4603,-22.9261],[-42.4425,-22.9248],[-42.4423,-22.9252]]]}},{"type":"Feature","properties":{"cod_imovel":"RJ-3305505-774CC4FCCBF146BD9062180400714610","num_area":"8.1291000000000000000000000000000","ind_status":"AT"},"geometry":{"type":"Polygon","coordinates":[[[-42.517,-22.9211],[-42.5205,-22.9225],[-42.5169,-22.9211],[-42.517,-22.9211]]]}},{"type":"Feature","properties":{"cod_imovel":"RJ-3305505-961EFA48B8734DA79359DBB4A1DAAA63","num_area":"9.2520000000000000000000000000000","ind_status":"AT"},"geometry":{"type":"Polygon","coordinates":[[[-42.5378,-22.8613],[-42.537,-22.8647],[-42.5379,-22.8614],[-42.5378,-22.8613]]]}},{"type":"Feature","properties":{"cod_imovel":"RJ-3305505-A7545334AF4F4C4993C1327751265A78","num_area":"9.1662000000000000000000000000000","ind_status":"AT"},"geometry":{"type":"Polygon","coordinates":[[[-42.4734,-22.8314],[-42.4744,-22.8283],[-42.4681,-22.829],[-42.4732,-22.8314],[-42.4734,-22.8314]]]}}]}