{"type":"FeatureCollection","features":[{"type":"Feature","properties":{"cod_imovel":"RJ-3306008-EAA46BA16A234547B8E18034CCA51A97","num_area":"17.640800000000000000000000000000","ind_status":"AT"},"geometry":{"type":"Polygon","coordinates":[[[-43.217,-22.1281],[-43.2124,-22.125],[-43.2156,-22.127],[-43.217,-22.1281]],[[-43.2069,-22.1317],[-43.2113,-22.1339],[-43.207,-22.1317],[-43.2069,-22.1317]]]}},{"type":"Feature","properties":{"cod_imovel":"RJ-3306008-94ED81A702E04FE3B2FC220A0EC963C5","num_area":"208.88390000000000000000000000000","ind_status":"AT"},"geometry":{"type":"Polygon","coordinates":[[[-43.0177,-22.1357],[-43.0178,-22.1294],[-43.0129,-22.1354],[-43.0029,-22.1298],[-43.0051,-22.1383],[-43.0175,-22.1368],[-43.0177,-22.1357]],[[-43.0127,-22.1307],[-43.0094,-22.1238],[-43.0082,-22.13],[-43.0124,-22.1301],[-43.0127,-22.1307]],[[-43.0147,-22.1255],[-43.0115,-22.1224],[-43.0158,-22.1265],[-43.0147,-22.1255]],[[-43.0247,-22.1239],[-43.015,-22.1237],[-43.0293,-22.1261],[-43.0247,-22.1239]],[[-43.0358,-22.1373],[-43.0284,-22.1358],[-43.0353,-22.1374],[-43.0358,-22.1373]]]}},{"type":"Feature","properties":{"cod_imovel":"RJ-3306008-76C5DBB1764148B1BD60A7D3A102AFA6","num_area":"23.095000000000000000000000000000","ind_status":"AT"},"geometry":{"type":"Polygon","coordinates":[[[-43.1232,-22.1961],[-43.1213,-22.2019],[-43.1274,-22.2035],[-43.1222,-22.1993],[-43.1264,-22.1988],[-43.1232,-22.1961]]]}},{"type":"Feature","properties":{"cod_imovel":"RJ-3306008-D51FDBC1DEBE4A02B924F81509341B93","num_area":"265.91450000000000000000000000000","ind_status":"PE"},"geometry":{"type":"Polygon","coordinates":[[[-43.0024,-22.1162],[-43.0099,-22.1147],[-43.0079,-22.1107],[-43.0027,-22.1152],[-43.0024,-22.1162]],[[-43.0131,-22.1101],[-43.0102,-22.1061],[-43.0127,-22.1101],[-43.0131,-22.1101]],[[-42.9989,-22.1002],[-42.994,-22.1022],[-43.0058,-22.1038],[-42.9989,-22.1002]],[[-42.9796,-22.0957],[-42.9806,-22.0923],[-42.9712,-22.0921],[-42.9791,-22.0991],[-42.9791,-22.0954],[-42.9796,-22.0957]],[[-42.9827,-22.1118],[-42.9888,-22.1155],[-42.9941,-22.1104],[-42.9829,-22.1031],[-42.9847,-22.1102],[-42.9827,-22.1118]],[[-42.991,-22.1168],[-42.9983,-22.1216],[-43.0028,-22.1193],[-42.9936,-22.1142],[-42.991,-22.1168]],[[-42.984,-22.0999],[-42.9855,-22.1036],[-42.984,-22.1004],[-42.984,-22.0999]]]}},{"type":"Feature","properties":{"cod_imovel":"RJ-3306008-B51E7F58ACBF45E98FAC507B2281D198","num_area":"45.816600000000000000000000000000","ind_status":"AT"},"geometry":{"type":"Polygon","coordinates":[[[-43.1889,-22.0629],[-43.1876,-22.0699],[-43.1889,-22.0634],[-43.1889,-22.0629]],[[-43.1927,-22.055],[-43.1875,-22.0535],[-43.193,-22.0551],[-43.1927,-22.055]],[[-43.1836,-22.0601],[-43.1846,-22.0649],[-43.1836,-22.06],[-43.1836,-22.0601]]]}},{"type":"Feature","properties":{"cod_imovel":"RJ-3306008-87C760471D1644AFAB439BA8433E3868","num_area":"7.8593000000000000000000000000000","ind_status":"PE"},"geometry":{"type":"Polygon","coordinates":[[[-43.1753,-22.0657],[-43.1773,-22.0625],[-43.1712,-22.0629],[-43.1754,-22.0655],[-43.1753,-22.0657]]]}},{"type":"Feature","properties":{"cod_imovel":"RJ-3306008-536AE0253FD44CF1A5A031F8E6221CF9","num_area":"9.1799000000000000000000000000000","ind_status":"AT"},"geometry":{"type":"Polygon","coordinates":[[[-43.1739,-22.0759],[-43.1745,-22.0816],[-43.1739,-22.0758],[-43.1739,-22.0759]]]}},{"type":"Feature","properties":{"cod_imovel":"RJ-3306008-F905D610405A41349E88B17AB1AD6F06","num_area":"11.515700000000000000000000000000","ind_status":"AT"},"geometry":{"type":"Polygon","coordinates":[[[-43.0042,-22.1145],[-43.0056,-22.1205],[-43.0083,-22.116],[-43.005,-22.1139],[-43.0042,-22.1145]]]}},{"type":"Feature","properties":{"cod_imovel":"RJ-3306008-4DFAB7609102484CBAF034970EC43288","num_area":"10.788000000000000000000000000000","ind_status":"AT"},"geometry":{"type":"Polygon","coordinates":[[[-43.1689,-22.1467],[-43.1682,-22.1511],[-43.169,-22.1469],[-43.1689,-22.1467]]]}},{"type":"Feature","properties":{"cod_imovel":"RJ-3306008-8B2FF3AD6955404DB9854ECE944AF160","num_area":"7.8006000000000000000000000000000","ind_status":"AT"},"geometry":{"type":"Polygon","coordinates":[[[-43.0725,-22.1365],[-43.0698,-22.1421],[-43.0735,-22.1368],[-43.0725,-22.1365]]]}},{"type":"Feature","properties":{"cod_imovel":"RJ-3306008-C718D3D8E4684A92B0EABD917E78CC86","num_area":"168.57720000000000000000000000000","ind_status":"AT"},"geometry":{"type":"Polygon","coordinates":[[[-43.1081,-22.1639],[-43.1093,-22.1683],[-43.1085,-22.1635],[-43.1081,-22.1639]],[[-43.1115,-22.1711],[-43.1156,-22.1706],[-43.1116,-22.1711],[-43.1115,-22.1711]],[[-43.1168,-22.1573],[-43.1123,-22.1594],[-43.1145,-22.1634],[-43.1168,-22.1576],[-43.1168,-22.1573]],[[-43.117,-22.1647],[-43.1139,-22.1674],[-43.1166,-22.1649],[-43.117,-22.1647]],[[-43.1229,-22.1707],[-43.1165,-22.1713],[-43.1218,-22.1702],[-43.118,-22.1686],[-43.1154,-22.1735],[-43.1193,-22.1753],[-43.1229,-22.1708],[-43.1229,-22.1707]],[[-43.132,-22.1548],[-43.1342,-22.1524],[-43.123,-22.1495],[-43.1288,-22.1505],[-43.1304,-22.1576],[-43.1264,-22.1552],[-43.1201,-22.1597],[-43.1306,-22.1564],[-43.132,-22.1548]],[[-43.1219,-22.1648],[-43.1217,-22.1684],[-43.1218,-22.1651],[-43.1219,-22.1648]],[[-43.1218,-22.1684],[-43.1219,-22.1648],[-43.1217,-22.1684],[-43.1218,-22.1684]],[[-43.1304,-22.1587],[-43.1229,-22.1592],[-43.126,-22.1648],[-43.1304,-22.1587],[-43.1304,-22.1587]]]}},{"type":"Feature","properties":{"cod_imovel":"RJ-3306008-F83BFCBF95074BF6A0FD7B8DE43CD97C","num_area":"84.674100000000000000000000000000","ind_status":"AT"},"geometry":{"type":"Polygon","coordinates":[[[-43.1415,-22.182],[-43.1383,-22.1837],[-43.1416,-22.1828],[-43.1415,-22.182]],[[-43.1362,-22.195],[-43.1407,-22.1919],[-43.1369,-22.1882],[-43.1368,-22.1944],[-43.1362,-22.195]],[[-43.1374,-22.1913],[-43.1355,-22.1872],[-43.1371,-22.1906],[-43.1374,-22.1913]],[[-43.1361,-22.1847],[-43.1325,-22.1853],[-43.1362,-22.1847],[-43.1361,-22.1847]],[[-43.1311,-22.1863],[-43.1269,-22.1897],[-43.1351,-22.1936],[-43.1348,-22.1876],[-43.1289,-22.1889],[-43.1312,-22.1862],[-43.1311,-22.1863]],[[-43.1424,-22.1863],[-43.136,-22.1879],[-43.1408,-22.191],[-43.1429,-22.1878],[-43.1424,-22.1863]]]}},{"type":"Feature","properties":{"cod_imovel":"RJ-3306008-E57583FD93A2476B82340549245DD844","num_area":"37.211600000000000000000000000000","ind_status":"AT"},"geometry":{"type":"Polygon","coordinates":[[[-43.1123,-22.1935],[-43.1096,-22.1971],[-43.1125,-22.1933],[-43.1123,-22.1935]],[[-43.1097,-22.1978],[-43.1133,-22.1945],[-43.1095,-22.1976],[-43.1097,-22.1978]],[[-43.1083,-22.1993],[-43.1137,-22.2042],[-43.1159,-22.2009],[-43.1088,-22.1991],[-43.1083,-22.1993]],[[-43.1185,-22.2026],[-43.1144,-22.201],[-43.1188,-22.2026],[-43.1185,-22.2026]]]}},{"type":"Feature","properties":{"cod_imovel":"RJ-3306008-E103E7FB51854A6F8E456FD9434024AE","num_area":"5.5243000000000000000000000000000","ind_status":"AT"},"geometry":{"type":"Polygon","coordinates":[[[-43.1604,-22.18],[-43.1645,-22.1823],[-43.161,-22.1799],[-43.1604,-22.18]]]}},{"type":"Feature","properties":{"cod_imovel":"RJ-3306008-E103E7FB51854A6F8E456FD9434024AE","num_area":"1.7890000000000000000000000000000","ind_status":"AT"},"geometry":{"type":"Polygon","coordinates":[[[-43.1576,-22.1773],[-43.1568,-22.1739],[-43.1572,-22.1775],[-43.1576,-22.1773]]]}},{"type":"Feature","properties":{"cod_imovel":"RJ-3306008-E103E7FB51854A6F8E456FD9434024AE","num_area":"4.0812000000000000000000000000000","ind_status":"AT"},"geometry":{"type":"Polygon","coordinates":[[[-43.1496,-22.1715],[-43.1548,-22.1734],[-43.1502,-22.1713],[-43.1496,-22.1715]]]}},{"type":"Feature","properties":{"cod_imovel":"RJ-3306008-E103E7FB51854A6F8E456FD9434024AE","num_area":"47.372300000000000000000000000000","ind_status":"AT"},"geometry":{"type":"Polygon","coordinates":[[[-43.1641,-22.1853],[-43.1527,-22.1832],[-43.1605,-22.1897],[-43.1643,-22.1855],[-43.1641,-22.1853]]]}},{"type":"Feature","properties":{"cod_imovel":"RJ-3306008-E103E7FB51854A6F8E456FD9434024AE","num_area":"27.711700000000000000000000000000","ind_status":"AT"},"geometry":{"type":"Polygon","coordinates":[[[-43.1578,-22.1812],[-43.1478,-22.178],[-43.1577,-22.1813],[-43.1578,-22.1812]]]}},{"type":"Feature","properties":{"cod_imovel":"RJ-3306008-E103E7FB51854A6F8E456FD9434024AE","num_area":"7.0183000000000000000000000000000","ind_status":"AT"},"geometry":{"type":"Polygon","coordinates":[[[-43.1465,-22.1767],[-43.1424,-22.1754],[-43.1467,-22.1764],[-43.1465,-22.1767]]]}},{"type":"Feature","properties":{"cod_imovel":"RJ-3306008-E103E7FB51854A6F8E456FD9434024AE","num_area":"3.8320000000000000000000000000000","ind_status":"AT"},"geometry":{"type":"Polygon","coordinates":[[[-43.1561,-22.1776],[-43.1526,-22.176],[-43.1558,-22.1778],[-43.1561,-22.1776]]]}},{"type":"Feature","properties":{"cod_imovel":"RJ-3306008-E103E7FB51854A6F8E456FD9434024AE","num_area":"28.776300000000000000000000000000","ind_status":"AT"},"geometry":{"type":"Polygon","coordinates":[[[-43.1487,-22.1591],[-43.1403,-22.1604],[-43.1486,-22.1595],[-43.1487,-22.1591]],[[-43.1439,-22.1613],[-43.1476,-22.1613],[-43.1441,-22.1612],[-43.1439,-22.1613]]]}},{"type":"Feature","properties":{"cod_imovel":"RJ-3306008-E103E7FB51854A6F8E456FD9434024AE","num_area":"10.594700000000000000000000000000","ind_status":"AT"},"geometry":{"type":"Polygon","coordinates":[[[-43.1355,-22.1551],[-43.1317,-22.1579],[-43.1375,-22.1584],[-43.1357,-22.1553],[-43.1355,-22.1551]]]}},{"type":"Feature","properties":{"cod_imovel":"RJ-3306008-E103E7FB51854A6F8E456FD9434024AE","num_area":"33.624600000000000000000000000000","ind_status":"AT"},"geometry":{"type":"Polygon","coordinates":[[[-43.1329,-22.1632],[-43.132,-22.1597],[-43.1329,-22.163],[-43.1329,-22.1632]],[[-43.1344,-22.1655],[-43.139,-22.1623],[-43.1323,-22.1601],[-43.1344,-22.1655],[-43.1344,-22.1655]],[[-43.1369,-22.1652],[-43.1419,-22.1669],[-43.139,-22.1624],[-43.1369,-22.1651],[-43.1369,-22.1652]],[[-43.1389,-22.1658],[-43.1393,-22.1697],[-43.139,-22.1658],[-43.1389,-22.1658]]]}},{"type":"Feature","properties":{"cod_imovel":"RJ-3306008-87972B95DF684899AF33A2C0D9295C8C","num_area":"18.257200000000000000000000000000","ind_status":"AT"},"geometry":{"type":"Polygon","coordinates":[[[-43.1419,-22.1155],[-43.1389,-22.1137],[-43.1419,-22.1155],[-43.1419,-22.1155]],[[-43.1349,-22.1108],[-43.1308,-22.1082],[-43.1349,-22.1109],[-43.1349,-22.1108]],[[-43.1306,-22.108],[-43.1258,-22.1052],[-43.1307,-22.1081],[-43.1306,-22.108]]]}},{"type":"Feature","properties":{"cod_imovel":"RJ-3306008-D4546261C9554CD9A24398EA5002305F","num_area":"44.721800000000000000000000000000","ind_status":"AT"},"geometry":{"type":"Polygon","coordinates":[[[-43.1499,-22.1085],[-43.1519,-22.1061],[-43.147,-22.1046],[-43.1495,-22.1082],[-43.1499,-22.1085]],[[-43.1389,-22.1082],[-43.1459,-22.113],[-43.1526,-22.1091],[-43.1463,-22.112],[-43.1491,-22.1089],[-43.1396,-22.1084],[-43.1389,-22.1082]]]}},{"type":"Feature","properties":{"cod_imovel":"RJ-3306008-D8A0C4DDB7E34B8C96BC207C8CCF93DE","num_area":"59.582000000000000000000000000000","ind_status":"AT"},"geometry":{"type":"Polygon","coordinates":[[[-42.9811,-22.1255],[-42.9865,-22.1282],[-42.9834,-22.1228],[-42.9811,-22.1255]],[[-42.9906,-22.1302],[-43.0013,-22.1289],[-42.991,-22.1297],[-42.9906,-22.1302]],[[-43.005,-22.123],[-43.0023,-22.1253],[-43.005,-22.123],[-43.005,-22.123]],[[-42.9873,-22.1198],[-42.9966,-22.1232],[-42.9925,-22.1201],[-42.9873,-22.1198]]]}},{"type":"Feature","properties":{"cod_imovel":"RJ-3306008-5264EE13C11548BD8D427CDE9F8EA106","num_area":"129.59930000000000000000000000000","ind_status":"AT"},"geometry":{"type":"Polygon","coordinates":[[[-43.1954,-22.1451],[-43.2064,-22.145],[-43.1987,-22.1408],[-43.1958,-22.1448],[-43.1954,-22.1451]],[[-43.2031,-22.1488],[-43.2075,-22.1466],[-43.2037,-22.1489],[-43.2103,-22.1511],[-43.2105,-22.146],[-43.2034,-22.1477],[-43.2031,-22.1488]],[[-43.2108,-22.1474],[-43.214,-22.1432],[-43.2108,-22.1474],[-43.2108,-22.1474]],[[-43.2119,-22.1471],[-43.2207,-22.1527],[-43.218,-22.1427],[-43.212,-22.147],[-43.2119,-22.1471]]]}},{"type":"Feature","properties":{"cod_imovel":"RJ-3306008-F8AF5C42AE8E49119BD9C4418B1EF40D","num_area":"63.667200000000000000000000000000","ind_status":"AT"},"geometry":{"type":"Polygon","coordinates":[[[-43.1783,-22.1715],[-43.1751,-22.1729],[-43.1785,-22.1717],[-43.1783,-22.1715]],[[-43.1852,-22.1628],[-43.1806,-22.1643],[-43.1852,-22.1628],[-43.1852,-22.1628]],[[-43.1867,-22.1594],[-43.1867,-22.1561],[-43.1809,-22.1575],[-43.1793,-22.1632],[-43.1866,-22.1594],[-43.1867,-22.1594]]]}},{"type":"Feature","properties":{"cod_imovel":"RJ-3306008-445C83A1E54F4507987613F1EE06A656","num_area":"19.890500000000000000000000000000","ind_status":"AT"},"geometry":{"type":"Polygon","coordinates":[[[-43.1515,-22.1223],[-43.1482,-22.1237],[-43.1518,-22.1227],[-43.1515,-22.1223]],[[-43.1437,-22.1245],[-43.1428,-22.1211],[-43.1467,-22.1223],[-43.1414,-22.1205],[-43.1435,-22.124],[-43.1437,-22.1245]]]}},{"type":"Feature","properties":{"cod_imovel":"RJ-3306008-C191338FF715415BBAFF85D8B049843A","num_area":"33.827200000000000000000000000000","ind_status":"AT"},"geometry":{"type":"Polygon","coordinates":[[[-43.1765,-22.1875],[-43.1724,-22.1861],[-43.1764,-22.1873],[-43.1765,-22.1875]],[[-43.1842,-22.1834],[-43.1812,-22.1775],[-43.1843,-22.1834],[-43.1842,-22.1834]],[[-43.1798,-22.1798],[-43.1771,-22.1778],[-43.1797,-22.1797],[-43.1798,-22.1798]],[[-43.1814,-22.1836],[-43.1754,-22.1796],[-43.1813,-22.1835],[-43.1814,-22.1836]]]}},{"type":"Feature","properties":{"cod_imovel":"RJ-3306008-417176084B654516BE478575E17C27CC","num_area":"19.934900000000000000000000000000","ind_status":"AT"},"geometry":{"type":"Polygon","coordinates":[[[-43.0776,-22.1578],[-43.0759,-22.1532],[-43.0775,-22.1577],[-43.0776,-22.1578]],[[-43.0744,-22.1547],[-43.0762,-22.1578],[-43.0745,-22.1544],[-43.0744,-22.1547]]]}},{"type":"Feature","properties":{"cod_imovel":"RJ-3306008-4126ADB2D65D455291192A3647D20FC4","num_area":"35.512400000000000000000000000000","ind_status":"AT"},"geometry":{"type":"Polygon","coordinates":[[[-43.0777,-22.1533],[-43.0727,-22.1475],[-43.0698,-22.1501],[-43.0713,-22.1548],[-43.0769,-22.1533],[-43.0777,-22.1533]]]}},{"type":"Feature","properties":{"cod_imovel":"RJ-3306008-ED3FCAE6665146C2A2C46636338F9B7C","num_area":"3.7614000000000000000000000000000","ind_status":"AT"},"geometry":{"type":"Polygon","coordinates":[[[-43.0431,-22.115],[-43.0464,-22.112],[-43.0431,-22.1149],[-43.0431,-22.115]]]}},{"type":"Feature","properties":{"cod_imovel":"RJ-3306008-04A9893894F449128E09283486E17E92","num_area":"8.6546000000000000000000000000000","ind_status":"AT"},"geometry":{"type":"Polygon","coordinates":[[[-43.1459,-22.1398],[-43.1454,-22.1364],[-43.1432,-22.139],[-43.1459,-22.1398]]]}},{"type":"Feature","properties":{"cod_imovel":"RJ-3306008-1BC880C0AC554698BD75AB09FE905C01","num_area":"103.32770000000000000000000000000","ind_status":"AT"},"geometry":{"type":"Polygon","coordinates":[[[-43.0606,-22.1203],[-43.0706,-22.1242],[-43.0616,-22.1207],[-43.0606,-22.1203]],[[-43.0684,-22.1487],[-43.0713,-22.1424],[-43.0622,-22.1364],[-43.0676,-22.149],[-43.0684,-22.1487]]]}},{"type":"Feature","properties":{"cod_imovel":"RJ-3306008-F6999050283A464C91A41F6A936ED165","num_area":"33.272200000000000000000000000000","ind_status":"AT"},"geometry":{"type":"Polygon","coordinates":[[[-43.0903,-22.1165],[-43.0817,-22.1156],[-43.0861,-22.1212],[-43.0903,-22.1165]]]}},{"type":"Feature","properties":{"cod_imovel":"RJ-3306008-39FEBF1F8EF5406B94633275E0BC9E6D","num_area":"351.38030000000000000000000000000","ind_status":"AT"},"geometry":{"type":"Polygon","coordinates":[[[-43.0053,-22.1381],[-43.0013,-22.135],[-42.9991,-22.139],[-43.0042,-22.1384],[-43.0053,-22.1381]],[[-43.0021,-22.1492],[-43.0048,-22.1414],[-43.0012,-22.1487],[-43.0021,-22.1492]],[[-42.9789,-22.129],[-42.9757,-22.1346],[-42.9811,-22.1296],[-42.9999,-22.1343],[-42.979,-22.1289],[-42.9789,-22.129]],[[-42.9908,-22.1597],[-42.9975,-22.1577],[-42.9991,-22.1515],[-42.9862,-22.1478],[-42.9864,-22.1396],[-42.9948,-22.1398],[-42.9827,-22.1322],[-42.974,-22.1378],[-42.9849,-22.1397],[-42.9824,-22.1531],[-42.9908,-22.1597],[-42.9908,-22.1597]]]}},{"type":"Feature","properties":{"cod_imovel":"RJ-3306008-814F4CB2C4E341BAA4F430AC45FBB9BC","num_area":"66.435100000000000000000000000000","ind_status":"AT"},"geometry":{"type":"Polygon","coordinates":[[[-43.0877,-22.1295],[-43.0838,-22.1284],[-43.0877,-22.1295],[-43.0877,-22.1295]],[[-43.0732,-22.1372],[-43.0698,-22.1421],[-43.0736,-22.145],[-43.0805,-22.1374],[-43.0735,-22.1368],[-43.0732,-22.1372]],[[-43.0814,-22.1239],[-43.085,-22.1204],[-43.0782,-22.1243],[-43.0836,-22.1258],[-43.0814,-22.1239]]]}},{"type":"Feature","properties":{"cod_imovel":"RJ-3306008-BA8EF5797A224CCC823534734A351F47","num_area":"15.015400000000000000000000000000","ind_status":"AT"},"geometry":{"type":"Polygon","coordinates":[[[-43.0254,-22.1842],[-43.0293,-22.182],[-43.0234,-22.1819],[-43.0255,-22.1771],[-43.025,-22.1839],[-43.0254,-22.1842]]]}},{"type":"Feature","properties":{"cod_imovel":"RJ-3306008-9786D2CF4D2D46BE984FFC398F6284C8","num_area":"18.021100000000000000000000000000","ind_status":"AT"},"geometry":{"type":"Polygon","coordinates":[[[-43.0767,-22.1054],[-43.0703,-22.1048],[-43.0758,-22.1054],[-43.0767,-22.1054]],[[-43.0753,-22.1042],[-43.0748,-22.0999],[-43.0695,-22.1034],[-43.0753,-22.1043],[-43.0753,-22.1042]]]}},{"type":"Feature","properties":{"cod_imovel":"RJ-3306008-4C49457D60D1451DA50586546037024E","num_area":"31.840300000000000000000000000000","ind_status":"AT"},"geometry":{"type":"Polygon","coordinates":[[[-43.0393,-22.0781],[-43.042,-22.0796],[-43.0394,-22.0778],[-43.0393,-22.0781]],[[-43.0259,-22.0843],[-43.0277,-22.0898],[-43.0331,-22.0829],[-43.0263,-22.0842],[-43.0259,-22.0843]]]}},{"type":"Feature","properties":{"cod_imovel":"RJ-3306008-2C871BBD6BDC4493BCE3601C7C6EE449","num_area":"69.469400000000000000000000000000","ind_status":"AT"},"geometry":{"type":"Polygon","coordinates":[[[-43.0429,-22.1195],[-43.0449,-22.1289],[-43.0507,-22.1305],[-43.0533,-22.1253],[-43.0433,-22.1194],[-43.0429,-22.1195]]]}},{"type":"Feature","properties":{"cod_imovel":"RJ-3306008-C50745C6CC08403D98E13BE909B1BC6E","num_area":"22.204900000000000000000000000000","ind_status":"AT"},"geometry":{"type":"Polygon","coordinates":[[[-43.1845,-22.0647],[-43.1772,-22.0628],[-43.1825,-22.0676],[-43.1845,-22.0647],[-43.1845,-22.0647]]]}},{"type":"Feature","properties":{"cod_imovel":"RJ-3306008-E367CFD48E1F43EC8B4023E23F68306F","num_area":"14.086400000000000000000000000000","ind_status":"AT"},"geometry":{"type":"Polygon","coordinates":[[[-43.0685,-22.1525],[-43.0722,-22.1547],[-43.0698,-22.1498],[-43.0685,-22.1525]]]}},{"type":"Feature","properties":{"cod_imovel":"RJ-3306008-09470B7C4B214599897353E8D32FD041","num_area":"7.1646000000000000000000000000000","ind_status":"AT"},"geometry":{"type":"Polygon","coordinates":[[[-43.0869,-22.1686],[-43.0845,-22.1715],[-43.0869,-22.1686],[-43.0869,-22.1686]]]}},{"type":"Feature","properties":{"cod_imovel":"RJ-3306008-018A963099904A89B5F37BA22F744DA7","num_area":"46.532600000000000000000000000000","ind_status":"AT"},"geometry":{"type":"Polygon","coordinates":[[[-43.0324,-22.1591],[-43.0376,-22.1549],[-43.0303,-22.1554],[-43.0366,-22.1491],[-43.0279,-22.156],[-43.0324,-22.1591],[-43.0324,-22.1591]]]}},{"type":"Feature","properties":{"cod_imovel":"RJ-3306008-B67C2E1DEE58429FB3E0CEE7C166F512","num_area":"2.6202000000000000000000000000000","ind_status":"AT"},"geometry":{"type":"Polygon","coordinates":[[[-43.0118,-22.147],[-43.015,-22.1455],[-43.0119,-22.1468],[-43.0118,-22.147]]]}},{"type":"Feature","properties":{"cod_imovel":"RJ-3306008-3204B3E529F84AAF9AD5A11CDAAEF9AD","num_area":"52.878000000000000000000000000000","ind_status":"AT"},"geometry":{"type":"Polygon","coordinates":[[[-43.0333,-22.1111],[-43.0292,-22.1173],[-43.0335,-22.1112],[-43.0333,-22.1111]],[[-43.0239,-22.1248],[-43.0294,-22.129],[-43.0363,-22.1212],[-43.0289,-22.1231],[-43.0305,-22.1274],[-43.0244,-22.124],[-43.0239,-22.1248]]]}},{"type":"Feature","properties":{"cod_imovel":"RJ-3306008-5D0898B440034DB1A2AB2C98C59821B8","num_area":"7.8760000000000000000000000000000","ind_status":"AT"},"geometry":{"type":"Polygon","coordinates":[[[-42.9654,-22.1335],[-42.9648,-22.1373],[-42.9656,-22.1331],[-42.9654,-22.1335]]]}},{"type":"Feature","properties":{"cod_imovel":"RJ-3306008-E25F4927109246C78EB49D01F2450525","num_area":"10.477100000000000000000000000000","ind_status":"AT"},"geometry":{"type":"Polygon","coordinates":[[[-43.0777,-22.1659],[-43.0797,-22.1623],[-43.0775,-22.1652],[-43.0777,-22.1659]]]}},{"type":"Feature","properties":{"cod_imovel":"RJ-3306008-90263EE8872C4704A4972353CD10BD58","num_area":"2.8926000000000000000000000000000","ind_status":"AT"},"geometry":{"type":"Polygon","coordinates":[[[-43.1,-22.1633],[-43.0991,-22.1603],[-43.0982,-22.1633],[-43.1,-22.1633]]]}},{"type":"Feature","properties":{"cod_imovel":"RJ-3306008-FB6D9353C622469AA3FC3444D078399B","num_area":"9.9454000000000000000000000000000","ind_status":"AT"},"geometry":{"type":"Polygon","coordinates":[[[-43.0393,-22.1899],[-43.0355,-22.1914],[-43.0399,-22.1901],[-43.0393,-22.1899]]]}},{"type":"Feature","properties":{"cod_imovel":"RJ-3306008-7D1D932DFA5446438678E1823648BBDD","num_area":"10.709200000000000000000000000000","ind_status":"AT"},"geometry":{"type":"Polygon","coordinates":[[[-43.0438,-22.0962],[-43.0441,-22.0931],[-43.0433,-22.0961],[-43.0438,-22.0962]],[[-43.0392,-22.0867],[-43.0422,-22.0888],[-43.0393,-22.0868],[-43.0392,-22.0867]]]}},{"type":"Feature","properties":{"cod_imovel":"RJ-3306008-BFF79A3DBBFB43E98A563D4A2227AECC","num_area":"8.8304000000000000000000000000000","ind_status":"AT"},"geometry":{"type":"Polygon","coordinates":[[[-43.0886,-22.1285],[-43.0804,-22.1253],[-43.0846,-22.1269],[-43.0886,-22.1285]]]}},{"type":"Feature","properties":{"cod_imovel":"RJ-3306008-E1F32FDC40D7424E9AF2BA0477B5FF86","num_area":"31.814500000000000000000000000000","ind_status":"AT"},"geometry":{"type":"Polygon","coordinates":[[[-43.0733,-22.1649],[-43.0755,-22.1612],[-43.0733,-22.1648],[-43.0733,-22.1649]],[[-43.0671,-22.1675],[-43.0705,-22.1649],[-43.0641,-22.1712],[-43.0668,-22.1673],[-43.0671,-22.1675]]]}},{"type":"Feature","properties":{"cod_imovel":"RJ-3306008-61F017CFC5444912810633D5476A889A","num_area":"32.752000000000000000000000000000","ind_status":"AT"},"geometry":{"type":"Polygon","coordinates":[[[-43.0082,-22.1538],[-43.0021,-22.1528],[-43.0037,-22.1605],[-43.008,-22.1538],[-43.0082,-22.1538]]]}},{"type":"Feature","properties":{"cod_imovel":"RJ-3306008-03932EEEEAA04C53829D5946F0E72C7A","num_area":"30.027700000000000000000000000000","ind_status":"AT"},"geometry":{"type":"Polygon","coordinates":[[[-43.0288,-22.1569],[-43.0405,-22.159],[-43.0295,-22.1569],[-43.0288,-22.1569]],[[-43.0327,-22.1634],[-43.0396,-22.16],[-43.0336,-22.1624],[-43.0327,-22.1634]]]}},{"type":"Feature","properties":{"cod_imovel":"RJ-3306008-788BDDB66BD74CF79EDED885F01DA6CB","num_area":"22.813100000000000000000000000000","ind_status":"AT"},"geometry":{"type":"Polygon","coordinates":[[[-43.0204,-22.069],[-43.0309,-22.0696],[-43.0229,-22.0668],[-43.0204,-22.069]]]}},{"type":"Feature","properties":{"cod_imovel":"RJ-3306008-859B4AABE6494B4983BAFA30BE64C80F","num_area":"212.28280000000000000000000000000","ind_status":"AT"},"geometry":{"type":"Polygon","coordinates":[[[-43.1255,-22.1841],[-43.1161,-22.1827],[-43.1254,-22.1842],[-43.1255,-22.1841]],[[-43.1228,-22.1734],[-43.117,-22.1781],[-43.1219,-22.1818],[-43.1228,-22.1737],[-43.1228,-22.1734]],[[-43.1317,-22.1854],[-43.1207,-22.1861],[-43.121,-22.1898],[-43.1317,-22.1855],[-43.1317,-22.1854]],[[-43.1239,-22.1797],[-43.1277,-22.1838],[-43.1281,-22.1767],[-43.1238,-22.1795],[-43.1239,-22.1797]],[[-43.1284,-22.183],[-43.1314,-22.1841],[-43.1283,-22.1829],[-43.1284,-22.183]],[[-43.129,-22.1745],[-43.1314,-22.1767],[-43.129,-22.1745],[-43.129,-22.1745]],[[-43.1295,-22.1645],[-43.1308,-22.1689],[-43.1335,-22.1655],[-43.1296,-22.1644],[-43.1295,-22.1645]],[[-43.1415,-22.182],[-43.1347,-22.1763],[-43.1292,-22.1807],[-43.1323,-22.1854],[-43.1409,-22.1822],[-43.1415,-22.182]],[[-43.1332,-22.17],[-43.1296,-22.1739],[-43.1354,-22.1678],[-43.1332,-22.17],[-43.1332,-22.17]],[[-43.1327,-22.1624],[-43.1304,-22.1588],[-43.1323,-22.1627],[-43.1327,-22.1624]]]}},{"type":"Feature","properties":{"cod_imovel":"RJ-3306008-FF172399E9D0410DB02F06DA8793AB87","num_area":"16.065500000000000000000000000000","ind_status":"AT"},"geometry":{"type":"Polygon","coordinates":[[[-43.1696,-22.1544],[-43.1768,-22.1531],[-43.1696,-22.1542],[-43.1696,-22.1544]]]}},{"type":"Feature","properties":{"cod_imovel":"RJ-3306008-346E417D29104EEFA56E50D4FD139BD6","num_area":"15.932600000000000000000000000000","ind_status":"AT"},"geometry":{"type":"Polygon","coordinates":[[[-43.0665,-22.0975],[-43.0699,-22.101],[-43.0667,-22.0974],[-43.0665,-22.0975]],[[-43.0682,-22.0958],[-43.0739,-22.0986],[-43.0689,-22.0952],[-43.0682,-22.0958]]]}},{"type":"Feature","properties":{"cod_imovel":"RJ-3306008-78AE7F49D93C42068214288AA0AEAB8E","num_area":"93.806000000000000000000000000000","ind_status":"AT"},"geometry":{"type":"Polygon","coordinates":[[[-43.0155,-22.0886],[-43.0157,-22.0934],[-43.0157,-22.089],[-43.0155,-22.0886]],[[-43.0209,-22.085],[-43.0174,-22.0863],[-43.0226,-22.0893],[-43.0225,-22.0858],[-43.0209,-22.085]],[[-43.0261,-22.1011],[-43.0267,-22.0901],[-43.0205,-22.095],[-43.0156,-22.0925],[-43.0261,-22.1011],[-43.0261,-22.1011]],[[-43.0208,-22.0951],[-43.0247,-22.0961],[-43.0213,-22.0953],[-43.0208,-22.0951]]]}},{"type":"Feature","properties":{"cod_imovel":"RJ-3306008-69F0260E43DE4E19B6853DC18BB70BCE","num_area":"14.603600000000000000000000000000","ind_status":"AT"},"geometry":{"type":"Polygon","coordinates":[[[-43.0146,-22.1417],[-43.0078,-22.1442],[-43.0151,-22.142],[-43.0146,-22.1417]]]}},{"type":"Feature","properties":{"cod_imovel":"RJ-3306008-4629B1E9782249838C68910A8ABCD397","num_area":"38.632800000000000000000000000000","ind_status":"AT"},"geometry":{"type":"Polygon","coordinates":[[[-43.2404,-22.1094],[-43.2409,-22.1174],[-43.2458,-22.1088],[-43.2406,-22.1091],[-43.2404,-22.1094]]]}},{"type":"Feature","properties":{"cod_imovel":"RJ-3306008-34280D58DD3D4A5A9BA68B67EF9C3658","num_area":"3.6196000000000000000000000000000","ind_status":"AT"},"geometry":{"type":"Polygon","coordinates":[[[-43.2011,-22.0917],[-43.2031,-22.0874],[-43.201,-22.0916],[-43.2011,-22.0917]]]}},{"type":"Feature","properties":{"cod_imovel":"RJ-3306008-420A2EE157F943868D0A43F5B467F37F","num_area":"182.38980000000000000000000000000","ind_status":"AT"},"geometry":{"type":"Polygon","coordinates":[[[-43.2016,-22.1484],[-43.1985,-22.1484],[-43.2016,-22.1486],[-43.2016,-22.1484]],[[-43.2009,-22.1557],[-43.1992,-22.1586],[-43.2009,-22.1555],[-43.2009,-22.1557]],[[-43.2035,-22.1523],[-43.2017,-22.1598],[-43.2035,-22.1522],[-43.2035,-22.1523]],[[-43.2034,-22.163],[-43.2034,-22.1664],[-43.2035,-22.163],[-43.2034,-22.163]],[[-43.2097,-22.1797],[-43.2027,-22.1788],[-43.2097,-22.1797],[-43.2097,-22.1797]],[[-43.2058,-22.1498],[-43.2087,-22.1541],[-43.2106,-22.1515],[-43.2058,-22.1498]],[[-43.2037,-22.1745],[-43.2076,-22.1759],[-43.2042,-22.1744],[-43.2037,-22.1745]],[[-43.2177,-22.1635],[-43.2042,-22.1589],[-43.2153,-22.1659],[-43.2178,-22.1635],[-43.2177,-22.1635]],[[-43.2144,-22.1769],[-43.2043,-22.1792],[-43.214,-22.1774],[-43.2144,-22.1769]],[[-43.2107,-22.1653],[-43.2056,-22.1654],[-43.2107,-22.1654],[-43.2107,-22.1653]],[[-43.2111,-22.1673],[-43.2151,-22.1693],[-43.2111,-22.1671],[-43.2111,-22.1673]],[[-43.2164,-22.1536],[-43.2113,-22.1517],[-43.2157,-22.1539],[-43.2164,-22.1536]],[[-43.2151,-22.176],[-43.2175,-22.173],[-43.215,-22.1759],[-43.2151,-22.176]],[[-43.2215,-22.1662],[-43.2205,-22.1745],[-43.2261,-22.1708],[-43.2233,-22.1678],[-43.2215,-22.1662]]]}},{"type":"Feature","properties":{"cod_imovel":"RJ-3306008-0BD3A5461385446797F9CC13F8E4F0EF","num_area":"252.48980000000000000000000000000","ind_status":"AT"},"geometry":{"type":"Polygon","coordinates":[[[-43.197,-22.1798],[-43.1936,-22.1795],[-43.1969,-22.18],[-43.197,-22.1798]],[[-43.1995,-22.1849],[-43.2022,-22.1866],[-43.1996,-22.1848],[-43.1995,-22.1849]],[[-43.2075,-22.1855],[-43.203,-22.1837],[-43.2077,-22.1857],[-43.2075,-22.1855]],[[-43.198,-22.1916],[-43.2016,-22.1893],[-43.198,-22.1915],[-43.198,-22.1916]],[[-43.1989,-22.1835],[-43.202,-22.1851],[-43.199,-22.1836],[-43.1989,-22.1835]],[[-43.1933,-22.1866],[-43.1959,-22.1885],[-43.1968,-22.1836],[-43.1933,-22.1866],[-43.1933,-22.1866]],[[-43.2149,-22.1875],[-43.2095,-22.1885],[-43.2152,-22.1873],[-43.2149,-22.1875]],[[-43.21,-22.1888],[-43.2035,-22.1948],[-43.2067,-22.199],[-43.2029,-22.1982],[-43.207,-22.2002],[-43.2044,-22.2047],[-43.2092,-22.2166],[-43.208,-22.205],[-43.2117,-22.2092],[-43.2171,-22.2006],[-43.2129,-22.1918],[-43.2071,-22.1975],[-43.2096,-22.1903],[-43.2156,-22.1903],[-43.2115,-22.1892],[-43.21,-22.1888]],[[-43.2073,-22.2245],[-43.2067,-22.2203],[-43.2071,-22.2245],[-43.2073,-22.2245]],[[-43.1849,-22.182],[-43.1903,-22.1869],[-43.1847,-22.1819],[-43.1849,-22.182]]]}},{"type":"Feature","properties":{"cod_imovel":"RJ-3306008-E90F6715E616455FB3EA841AC352D8E0","num_area":"79.696200000000000000000000000000","ind_status":"AT"},"geometry":{"type":"Polygon","coordinates":[[[-43.1915,-22.1527],[-43.1937,-22.1503],[-43.1909,-22.1527],[-43.1915,-22.1527]],[[-43.182,-22.1355],[-43.1829,-22.142],[-43.1824,-22.1361],[-43.182,-22.1355]],[[-43.1943,-22.1437],[-43.1931,-22.1316],[-43.1931,-22.1393],[-43.1835,-22.1399],[-43.1951,-22.1445],[-43.1943,-22.1437]]]}},{"type":"Feature","properties":{"cod_imovel":"RJ-3306008-9E5C0A3DA7014EE4A8E3848D159D246A","num_area":"20.790300000000000000000000000000","ind_status":"AT"},"geometry":{"type":"Polygon","coordinates":[[[-43.2329,-22.0743],[-43.2345,-22.0701],[-43.2314,-22.0738],[-43.2329,-22.0743]],[[-43.2292,-22.0785],[-43.2306,-22.0747],[-43.2289,-22.0784],[-43.2292,-22.0785]]]}},{"type":"Feature","properties":{"cod_imovel":"RJ-3306008-C4018990D5384CDE8DCC7CDD9311EED2","num_area":"34.378600000000000000000000000000","ind_status":"AT"},"geometry":{"type":"Polygon","coordinates":[[[-43.2207,-22.0763],[-43.2233,-22.0787],[-43.2258,-22.074],[-43.2161,-22.0778],[-43.2197,-22.0759],[-43.2207,-22.0763]]]}},{"type":"Feature","properties":{"cod_imovel":"RJ-3306008-216DAC7AB1224B2E88006B3DC94302A8","num_area":"15.588100000000000000000000000000","ind_status":"AT"},"geometry":{"type":"Polygon","coordinates":[[[-43.0753,-22.1027],[-43.0672,-22.0985],[-43.073,-22.103],[-43.07,-22.1049],[-43.0741,-22.1037],[-43.0753,-22.1027]]]}},{"type":"Feature","properties":{"cod_imovel":"RJ-3306008-B5A2530266114E129CFD787CC2B029C0","num_area":"47.499800000000000000000000000000","ind_status":"AT"},"geometry":{"type":"Polygon","coordinates":[[[-43.0151,-22.1234],[-43.0213,-22.1236],[-43.0151,-22.1231],[-43.0151,-22.1234]],[[-43.024,-22.1216],[-43.0284,-22.1162],[-43.0204,-22.1216],[-43.024,-22.1216],[-43.024,-22.1216]],[[-43.0108,-22.1199],[-43.0161,-22.1124],[-43.0106,-22.12],[-43.0108,-22.1199]],[[-43.017,-22.1148],[-43.0149,-22.1199],[-43.0207,-22.1205],[-43.0177,-22.1185],[-43.021,-22.1153],[-43.0182,-22.118],[-43.0171,-22.1147],[-43.017,-22.1148]]]}},{"type":"Feature","properties":{"cod_imovel":"RJ-3306008-1AFD2567E1314C1EB150DFECBD418C14","num_area":"5.9452000000000000000000000000000","ind_status":"AT"},"geometry":{"type":"Polygon","coordinates":[[[-43.0587,-22.1191],[-43.0536,-22.1166],[-43.0584,-22.1193],[-43.0587,-22.1191]]]}},{"type":"Feature","properties":{"cod_imovel":"RJ-3306008-4C02B0F134AC4480911FFE5A9296BE24","num_area":"31.834200000000000000000000000000","ind_status":"AT"},"geometry":{"type":"Polygon","coordinates":[[[-43.0832,-22.1198],[-43.0911,-22.1228],[-43.0863,-22.1168],[-43.0836,-22.1195],[-43.0832,-22.1198]]]}},{"type":"Feature","properties":{"cod_imovel":"RJ-3306008-3C70F9937820457180A1A63C6617080A","num_area":"6.6036000000000000000000000000000","ind_status":"AT"},"geometry":{"type":"Polygon","coordinates":[[[-43.2547,-22.123],[-43.2572,-22.1207],[-43.2547,-22.123],[-43.2547,-22.123]]]}},{"type":"Feature","properties":{"cod_imovel":"RJ-3306008-C995A057A5614438ABF2830F3C15672A","num_area":"13.829700000000000000000000000000","ind_status":"AT"},"geometry":{"type":"Polygon","coordinates":[[[-43.0101,-22.1062],[-43.0142,-22.106],[-43.01,-22.1064],[-43.0101,-22.1062]],[[-43.0141,-22.101],[-43.011,-22.0988],[-43.0122,-22.1037],[-43.0145,-22.1012],[-43.0141,-22.101]]]}},{"type":"Feature","properties":{"cod_imovel":"RJ-3303708-9C33DEEC884541778650AFD8E846B7B7","num_area":"5.5288000000000000000000000000000","ind_status":"AT"},"geometry":{"type":"Polygon","coordinates":[[[-43.1749,-22.1934],[-43.1691,-22.1909],[-43.1757,-22.1939],[-43.1749,-22.1934]]]}},{"type":"Feature","properties":{"cod_imovel":"RJ-3306008-48D79EA6A53941D2AC585806FC524676","num_area":"23.119500000000000000000000000000","ind_status":"AT"},"geometry":{"type":"Polygon","coordinates":[[[-43.0516,-22.1174],[-43.0486,-22.1199],[-43.0515,-22.1175],[-43.0516,-22.1174]],[[-43.0478,-22.1227],[-43.0547,-22.1215],[-43.0517,-22.1175],[-43.0478,-22.1225],[-43.0478,-22.1227]]]}},{"type":"Feature","properties":{"cod_imovel":"RJ-3306008-A05CE7CF00EA4B81B23532A62C97C8B1","num_area":"33.425600000000000000000000000000","ind_status":"AT"},"geometry":{"type":"Polygon","coordinates":[[[-43.0289,-22.1647],[-43.0358,-22.165],[-43.029,-22.1638],[-43.0289,-22.1647]],[[-43.0308,-22.1591],[-43.0246,-22.1603],[-43.0318,-22.16],[-43.0308,-22.1591]]]}},{"type":"Feature","properties":{"cod_imovel":"RJ-3306008-2ACFD8DCF29946BC8B17EAD69C3D6302","num_area":"137.93840000000000000000000000000","ind_status":"AT"},"geometry":{"type":"Polygon","coordinates":[[[-43.0316,-22.1091],[-43.0278,-22.1087],[-43.0313,-22.1089],[-43.0316,-22.1091]],[[-43.0277,-22.1087],[-43.0308,-22.1093],[-43.0277,-22.1087],[-43.0277,-22.1087]],[[-43.037,-22.0948],[-43.0344,-22.0973],[-43.037,-22.0947],[-43.037,-22.0948]],[[-43.0186,-22.1094],[-43.0169,-22.1129],[-43.0221,-22.111],[-43.0186,-22.1094],[-43.0186,-22.1094]],[[-43.0324,-22.1123],[-43.0329,-22.1093],[-43.0324,-22.1122],[-43.0324,-22.1123]],[[-43.0335,-22.111],[-43.0382,-22.1059],[-43.0336,-22.1109],[-43.0335,-22.111]],[[-43.0346,-22.0907],[-43.0333,-22.0948],[-43.0347,-22.0909],[-43.0346,-22.0907]],[[-43.025,-22.0968],[-43.026,-22.1013],[-43.0314,-22.0967],[-43.0271,-22.0932],[-43.025,-22.0968],[-43.025,-22.0968]],[[-43.0314,-22.0967],[-43.0287,-22.0934],[-43.0314,-22.0967],[-43.0314,-22.0967]],[[-43.0447,-22.1073],[-43.0509,-22.0976],[-43.038,-22.0931],[-43.0418,-22.0965],[-43.0386,-22.0979],[-43.0443,-22.099],[-43.0399,-22.0994],[-43.0435,-22.1046],[-43.0399,-22.1048],[-43.0459,-22.1043],[-43.0437,-22.1068],[-43.0447,-22.1073]]]}},{"type":"Feature","properties":{"cod_imovel":"RJ-3306008-672DA42FEEBE47EE9C636A9AD760D4AF","num_area":"6.3605000000000000000000000000000","ind_status":"AT"},"geometry":{"type":"Polygon","coordinates":[[[-43.0279,-22.0751],[-43.0335,-22.0769],[-43.0278,-22.075],[-43.0279,-22.0751]]]}},{"type":"Feature","properties":{"cod_imovel":"RJ-3306008-0D11297967604278912FBAF7AA84893C","num_area":"34.658800000000000000000000000000","ind_status":"AT"},"geometry":{"type":"Polygon","coordinates":[[[-43.1966,-22.0904],[-43.1996,-22.0856],[-43.1972,-22.0905],[-43.2015,-22.0924],[-43.205,-22.0871],[-43.1986,-22.0843],[-43.1966,-22.0904],[-43.1966,-22.0904]]]}},{"type":"Feature","properties":{"cod_imovel":"RJ-3306008-2324A5D189A943988F224C7DC3EFA265","num_area":"12.185700000000000000000000000000","ind_status":"AT"},"geometry":{"type":"Polygon","coordinates":[[[-43.0562,-22.1022],[-43.0583,-22.0995],[-43.0562,-22.1022],[-43.0562,-22.1022]]]}},{"type":"Feature","properties":{"cod_imovel":"RJ-3306008-CC5E8F23041147678892B2F1F70162AB","num_area":"13.627100000000000000000000000000","ind_status":"AT"},"geometry":{"type":"Polygon","coordinates":[[[-43.0917,-22.0941],[-43.0932,-22.0886],[-43.0917,-22.094],[-43.0917,-22.0941]]]}},{"type":"Feature","properties":{"cod_imovel":"RJ-3306008-73968745D3B2490886972D7765216C2E","num_area":"165.16090000000000000000000000000","ind_status":"AT"},"geometry":{"type":"Polygon","coordinates":[[[-43.0985,-22.1074],[-43.096,-22.1097],[-43.0988,-22.1073],[-43.0985,-22.1074]],[[-43.0928,-22.1032],[-43.0862,-22.107],[-43.0897,-22.1097],[-43.0949,-22.1055],[-43.0928,-22.1032]],[[-43.1207,-22.0967],[-43.1155,-22.0928],[-43.1128,-22.0972],[-43.1179,-22.1008],[-43.1209,-22.097],[-43.1207,-22.0967]],[[-43.0979,-22.0867],[-43.1025,-22.0946],[-43.111,-22.0979],[-43.1127,-22.0925],[-43.0983,-22.0865],[-43.0979,-22.0867]]]}},{"type":"Feature","properties":{"cod_imovel":"RJ-3306008-D5867B85D03F48F695B677BE5A9BE2D5","num_area":"51.783400000000000000000000000000","ind_status":"AT"},"geometry":{"type":"Polygon","coordinates":[[[-43.0263,-22.0568],[-43.0302,-22.0562],[-43.0262,-22.0568],[-43.0263,-22.0568]],[[-43.0131,-22.0475],[-43.0181,-22.0491],[-43.0132,-22.0474],[-43.0131,-22.0475]],[[-43.0161,-22.0505],[-43.0152,-22.0541],[-43.0161,-22.0506],[-43.0161,-22.0505]],[[-43.0361,-22.0463],[-43.0279,-22.0463],[-43.0359,-22.0465],[-43.0361,-22.0463]],[[-43.0284,-22.0488],[-43.0259,-22.0508],[-43.0304,-22.0539],[-43.0286,-22.0488],[-43.0284,-22.0488]]]}},{"type":"Feature","properties":{"cod_imovel":"RJ-3306008-97B8F6332D0B42BEB6A77BAF591B1CD8","num_area":"7.9405000000000000000000000000000","ind_status":"AT"},"geometry":{"type":"Polygon","coordinates":[[[-43.108,-22.1878],[-43.1125,-22.1866],[-43.108,-22.1878],[-43.108,-22.1878]]]}},{"type":"Feature","properties":{"cod_imovel":"RJ-3306008-C29A2C1A054448C1B38E6D43C48F80F9","num_area":"8.1463000000000000000000000000000","ind_status":"AT"},"geometry":{"type":"Polygon","coordinates":[[[-43.2024,-22.0744],[-43.2075,-22.0732],[-43.2025,-22.0744],[-43.2024,-22.0744]]]}},{"type":"Feature","properties":{"cod_imovel":"RJ-3306008-E21E29B78E714B30B6F9B89EA06BC066","num_area":"8.0582000000000000000000000000000","ind_status":"AT"},"geometry":{"type":"Polygon","coordinates":[[[-43.1005,-22.1267],[-43.0966,-22.1286],[-43.0997,-22.1285],[-43.1005,-22.1267]]]}},{"type":"Feature","properties":{"cod_imovel":"RJ-3306008-049E221CA783481FB48C507C091811B2","num_area":"9.9014000000000000000000000000000","ind_status":"AT"},"geometry":{"type":"Polygon","coordinates":[[[-43.0434,-22.1169],[-43.0463,-22.1133],[-43.0434,-22.1167],[-43.0434,-22.1169]]]}},{"type":"Feature","properties":{"cod_imovel":"RJ-3306008-085896EC6D344F07BC6D3AD0D06A247F","num_area":"19.508900000000000000000000000000","ind_status":"AT"},"geometry":{"type":"Polygon","coordinates":[[[-43.0368,-22.1372],[-43.0398,-22.1385],[-43.0376,-22.1363],[-43.0368,-22.1372]],[[-43.0559,-22.1227],[-43.0493,-22.131],[-43.056,-22.1227],[-43.0559,-22.1227]]]}},{"type":"Feature","properties":{"cod_imovel":"RJ-3306008-27B91279C5C14C4AB829E5505BD8862A","num_area":"102.14010000000000000000000000000","ind_status":"AT"},"geometry":{"type":"Polygon","coordinates":[[[-43.0683,-22.1552],[-43.0727,-22.1476],[-43.0568,-22.151],[-43.0678,-22.1552],[-43.0683,-22.1552]],[[-43.0542,-22.1629],[-43.0562,-22.1668],[-43.0627,-22.16],[-43.054,-22.1586],[-43.0574,-22.1566],[-43.053,-22.1583],[-43.0567,-22.1581],[-43.0542,-22.1629],[-43.0542,-22.1629]]]}},{"type":"Feature","properties":{"cod_imovel":"RJ-3306008-1E8E8453E5A441E3991621A5F267B4BE","num_area":"27.230600000000000000000000000000","ind_status":"AT"},"geometry":{"type":"Polygon","coordinates":[[[-43.0486,-22.1963],[-43.0437,-22.1973],[-43.0485,-22.1963],[-43.0486,-22.1963]],[[-43.0518,-22.1994],[-43.0491,-22.1967],[-43.0461,-22.2023],[-43.0501,-22.1992],[-43.0518,-22.1994]]]}},{"type":"Feature","properties":{"cod_imovel":"RJ-3306008-22264098E78344459C12BF7733CCE712","num_area":"12.539800000000000000000000000000","ind_status":"AT"},"geometry":{"type":"Polygon","coordinates":[[[-43.0285,-22.075],[-43.0252,-22.0722],[-43.0281,-22.0755],[-43.0285,-22.075]]]}},{"type":"Feature","properties":{"cod_imovel":"RJ-3306008-2F31480746E9431B8F4C03DD26E53783","num_area":"94.574200000000000000000000000000","ind_status":"AT"},"geometry":{"type":"Polygon","coordinates":[[[-43.1188,-22.1413],[-43.1166,-22.1437],[-43.1188,-22.1413],[-43.1188,-22.1413]],[[-43.1312,-22.1249],[-43.1283,-22.1263],[-43.1316,-22.1246],[-43.1312,-22.1249]],[[-43.1273,-22.149],[-43.128,-22.1458],[-43.1274,-22.1488],[-43.1273,-22.149]],[[-43.1356,-22.1471],[-43.1341,-22.151],[-43.1356,-22.147],[-43.1356,-22.1471]],[[-43.1512,-22.164],[-43.1458,-22.1646],[-43.1508,-22.164],[-43.1512,-22.164]],[[-43.1273,-22.143],[-43.1248,-22.1464],[-43.1275,-22.1431],[-43.1273,-22.143]],[[-43.1513,-22.1639],[-43.1458,-22.1645],[-43.151,-22.1638],[-43.1513,-22.1639]],[[-43.1354,-22.1429],[-43.1304,-22.1417],[-43.1352,-22.143],[-43.1354,-22.1429]],[[-43.1298,-22.1502],[-43.1335,-22.1452],[-43.1276,-22.1433],[-43.1296,-22.1493],[-43.1298,-22.1502]],[[-43.1441,-22.1565],[-43.1518,-22.1614],[-43.1443,-22.1553],[-43.1441,-22.1565]]]}},{"type":"Feature","properties":{"cod_imovel":"RJ-3306008-3B75C8F8C75A467CA21BA289F1FDD6EA","num_area":"25.340600000000000000000000000000","ind_status":"AT"},"geometry":{"type":"Polygon","coordinates":[[[-43.2437,-22.1167],[-43.2472,-22.1172],[-43.2439,-22.1163],[-43.2437,-22.1167]],[[-43.2433,-22.1135],[-43.2472,-22.1093],[-43.2433,-22.1134],[-43.2433,-22.1135]]]}},{"type":"Feature","properties":{"cod_imovel":"RJ-3306008-B5B25DB985A846288623C4365F35F3F4","num_area":"52.032800000000000000000000000000","ind_status":"AT"},"geometry":{"type":"Polygon","coordinates":[[[-43.089,-22.1181],[-43.0821,-22.1232],[-43.088,-22.1275],[-43.0893,-22.1182],[-43.089,-22.1181]]]}},{"type":"Feature","properties":{"cod_imovel":"RJ-3306008-7C18777DBBCD45248127BF10988C2042","num_area":"17.477000000000000000000000000000","ind_status":"AT"},"geometry":{"type":"Polygon","coordinates":[[[-43.2416,-22.108],[-43.2406,-22.1157],[-43.2423,-22.1079],[-43.2416,-22.108]]]}},{"type":"Feature","properties":{"cod_imovel":"RJ-3306008-8CB56C136F3D422B8CE5C09458E73E4F","num_area":"6.8182000000000000000000000000000","ind_status":"AT"},"geometry":{"type":"Polygon","coordinates":[[[-43.2528,-22.1209],[-43.2534,-22.1177],[-43.2528,-22.1208],[-43.2528,-22.1209]]]}},{"type":"Feature","properties":{"cod_imovel":"RJ-3306008-92B3FDFC23254BC1A1745AEB0E050D93","num_area":"266.47710000000000000000000000000","ind_status":"AT"},"geometry":{"type":"Polygon","coordinates":[[[-42.9708,-22.101],[-42.9681,-22.1038],[-42.9709,-22.1007],[-42.9708,-22.101]],[[-42.9558,-22.1285],[-42.9534,-22.1378],[-42.9586,-22.1329],[-42.9565,-22.128],[-42.9558,-22.1285]],[[-42.9551,-22.1385],[-42.96,-22.1325],[-42.9552,-22.1383],[-42.9551,-22.1385]],[[-42.9552,-22.1386],[-42.9593,-22.1411],[-42.9667,-22.1313],[-42.9552,-22.1386],[-42.9552,-22.1386]],[[-42.9817,-22.1145],[-42.9745,-22.1086],[-42.9816,-22.1142],[-42.9817,-22.1145]],[[-42.96,-22.1323],[-42.9626,-22.1277],[-42.96,-22.1322],[-42.96,-22.1323]],[[-42.9626,-22.1277],[-42.9596,-22.1316],[-42.9626,-22.1278],[-42.9626,-22.1277]],[[-42.9661,-22.1167],[-42.9579,-22.1213],[-42.9583,-22.1282],[-42.9598,-22.1229],[-42.9644,-22.1254],[-42.9661,-22.1168],[-42.9661,-22.1167]],[[-42.9722,-22.1181],[-42.9696,-22.1217],[-42.9662,-22.1167],[-42.9671,-22.1254],[-42.9792,-22.1228],[-42.9743,-22.1277],[-42.9841,-22.1232],[-42.9839,-22.1195],[-42.9722,-22.118],[-42.9722,-22.1181]]]}},{"type":"Feature","properties":{"cod_imovel":"RJ-3306008-A82F9D1B33E0441FB379E4AC786F997A","num_area":"9.9848000000000000000000000000000","ind_status":"AT"},"geometry":{"type":"Polygon","coordinates":[[[-43.0123,-22.1402],[-43.0074,-22.1435],[-43.0131,-22.1416],[-43.0123,-22.1402]]]}},{"type":"Feature","properties":{"cod_imovel":"RJ-3306008-B0AA1E5DD58348FB9C3FE522921BB750","num_area":"19.728000000000000000000000000000","ind_status":"AT"},"geometry":{"type":"Polygon","coordinates":[[[-43.0493,-22.1809],[-43.0416,-22.1812],[-43.0433,-22.1851],[-43.0496,-22.1814],[-43.0493,-22.1809]]]}},{"type":"Feature","properties":{"cod_imovel":"RJ-3306008-BC9A553583CE40AB9715382EB3A7DC79","num_area":"148.27440000000000000000000000000","ind_status":"AT"},"geometry":{"type":"Polygon","coordinates":[[[-43.2543,-22.089],[-43.2525,-22.0857],[-43.2542,-22.089],[-43.2543,-22.089]],[[-43.24,-22.0806],[-43.2377,-22.0759],[-43.2346,-22.0782],[-43.24,-22.0807],[-43.24,-22.0806]],[[-43.2335,-22.0841],[-43.2424,-22.0864],[-43.2335,-22.0841],[-43.2335,-22.0841]],[[-43.2428,-22.1008],[-43.2439,-22.0963],[-43.2342,-22.0921],[-43.2425,-22.1006],[-43.2428,-22.1008]],[[-43.2469,-22.1014],[-43.2517,-22.0985],[-43.2484,-22.1023],[-43.2547,-22.1039],[-43.2474,-22.0948],[-43.2468,-22.1013],[-43.2469,-22.1014]]]}},{"type":"Feature","properties":{"cod_imovel":"RJ-3306008-BF82753C533A40C0AD068C001F4860C5","num_area":"64.549300000000000000000000000000","ind_status":"AT"},"geometry":{"type":"Polygon","coordinates":[[[-43.049,-22.1324],[-43.0432,-22.1273],[-43.0489,-22.1324],[-43.049,-22.1324]],[[-43.0385,-22.1354],[-43.046,-22.1335],[-43.0383,-22.1353],[-43.0385,-22.1354]],[[-43.0395,-22.1176],[-43.0324,-22.1256],[-43.039,-22.1264],[-43.0395,-22.1175],[-43.0395,-22.1176]]]}},{"type":"Feature","properties":{"cod_imovel":"RJ-3306008-E056DF85AACB4ABDBA94F7ED17331D37","num_area":"103.03150000000000000000000000000","ind_status":"AT"},"geometry":{"type":"Polygon","coordinates":[[[-42.9741,-22.1426],[-42.982,-22.1254],[-42.9718,-22.1318],[-42.9719,-22.1404],[-42.9672,-22.1392],[-42.9741,-22.1427],[-42.9741,-22.1426]],[[-42.9799,-22.1251],[-42.9669,-22.1313],[-42.9799,-22.1256],[-42.9799,-22.1251]],[[-42.9698,-22.1325],[-42.9748,-22.1296],[-42.9701,-22.1324],[-42.9698,-22.1325]]]}}]}